{
"type": "FeatureCollection",
"name": "heilsbronn_st",
"crs": { "type": "name", "properties": { "name": "urn:ogc:def:crs:OGC:1.3:CRS84" } },
"features": [
{ "type": "Feature", "properties": { "name": "Heilsbronn, St", "feature_type": "entity", "metric_roundness": 50.6, "metric_rectangularity": 66.94, "metric_mobile_fit": 36.21, "metric_aspect_ratio": 1.2, "metric_area_km2": 147.4 }, "geometry": { "type": "Polygon", "coordinates": [ [ [ 10.8093182, 49.3749124 ], [ 10.7995243, 49.3829753 ], [ 10.7856632, 49.38804529999998 ], [ 10.7811981, 49.3837839 ], [ 10.7757745, 49.388890499999981 ], [ 10.7653813, 49.38475829999998 ], [ 10.7594324, 49.3868115 ], [ 10.7598718, 49.381696099999985 ], [ 10.7562553, 49.379962299999988 ], [ 10.7329783, 49.382879599999988 ], [ 10.7278153, 49.372942899999984 ], [ 10.7152813, 49.370759 ], [ 10.7175035, 49.366142499999988 ], [ 10.7219949, 49.360277799999984 ], [ 10.7405633, 49.3593347 ], [ 10.7375088, 49.3517258 ], [ 10.7437394, 49.350457199999987 ], [ 10.7467754, 49.3461636 ], [ 10.7406774, 49.3414358 ], [ 10.7527264, 49.337169599999989 ], [ 10.7575076, 49.3281552 ], [ 10.7653902, 49.3285454 ], [ 10.7663548, 49.319148799999986 ], [ 10.7700375, 49.31712049999998 ], [ 10.7850453, 49.3204824 ], [ 10.8036462, 49.313282099999988 ], [ 10.8158882, 49.3156209 ], [ 10.8219565, 49.3138357 ], [ 10.8232988, 49.307789299999982 ], [ 10.8322289, 49.309289199999981 ], [ 10.8388702, 49.3044417 ], [ 10.8499271, 49.303905299999983 ], [ 10.860987, 49.311126 ], [ 10.860753, 49.314752 ], [ 10.865528, 49.314826499999988 ], [ 10.8718687, 49.323872899999984 ], [ 10.865727, 49.3304189 ], [ 10.8658286, 49.3377097 ], [ 10.8619977, 49.343545 ], [ 10.867839, 49.356126499999988 ], [ 10.8428253, 49.3633129 ], [ 10.8244015, 49.3739725 ], [ 10.8093182, 49.3749124 ] ] ] } },
{ "type": "Feature", "properties": { "name": "Heilsbronn, St", "feature_type": "circle", "metric_roundness": 50.6, "metric_rectangularity": 66.94, "metric_mobile_fit": 36.21, "metric_aspect_ratio": 1.2, "metric_area_km2": 147.4 }, "geometry": { "type": "Polygon", "coordinates": [ [ [ 10.876926171304184, 49.342800697035045 ], [ 10.876807596566255, 49.339850350669408 ], [ 10.876452197357583, 49.336907914838633 ], [ 10.875860947802696, 49.333981456723897 ], [ 10.875035468475527, 49.331079001134057 ], [ 10.873978021957532, 49.328208508470929 ], [ 10.872691506636112, 49.325377852855979 ], [ 10.871179448760346, 49.322594800478832 ], [ 10.869445992775763, 49.319866988227908 ], [ 10.867495889964731, 49.31720190266261 ], [ 10.865334485423499, 49.314606859385577 ], [ 10.862967703411682, 49.312088982872986 ], [ 10.860402031114258, 49.309655186819278 ], [ 10.857644500860658, 49.307312155051669 ], [ 10.854702670849635, 49.30506632306826 ], [ 10.851584604432764, 49.302923860251802 ], [ 10.848298848013359, 49.300890652809564 ], [ 10.844854407621375, 49.298972287487764 ], [ 10.841260724228507, 49.297174036106703 ], [ 10.837527647871143, 49.295500840960798 ], [ 10.83366541065209, 49.293957301125076 ], [ 10.829684598695113, 49.292547659707409 ], [ 10.825596123129074, 49.29127579208285 ], [ 10.821411190181319, 49.290145195143836 ], [ 10.817141270462166, 49.289158977597218 ], [ 10.812798067524765, 49.288319851335842 ], [ 10.808393485786478, 49.287630123909722 ], [ 10.803939597899687, 49.28709169211826 ], [ 10.799448611661505, 49.286706036742181 ], [ 10.79493283655305, 49.286474218430286 ], [ 10.79040465, 49.286396874752846 ], [ 10.785876463446952, 49.286474218430286 ], [ 10.781360688338493, 49.286706036742181 ], [ 10.776869702100315, 49.28709169211826 ], [ 10.772415814213522, 49.287630123909722 ], [ 10.768011232475235, 49.288319851335842 ], [ 10.763668029537833, 49.289158977597218 ], [ 10.75939810981868, 49.290145195143836 ], [ 10.755213176870924, 49.29127579208285 ], [ 10.751124701304887, 49.292547659707409 ], [ 10.747143889347909, 49.293957301125076 ], [ 10.743281652128857, 49.295500840960798 ], [ 10.739548575771494, 49.297174036106703 ], [ 10.735954892378624, 49.298972287487764 ], [ 10.732510451986641, 49.300890652809564 ], [ 10.729224695567236, 49.302923860251802 ], [ 10.726106629150365, 49.30506632306826 ], [ 10.72316479913934, 49.307312155051669 ], [ 10.720407268885744, 49.309655186819278 ], [ 10.717841596588318, 49.312088982872986 ], [ 10.715474814576501, 49.314606859385577 ], [ 10.713313410035269, 49.31720190266261 ], [ 10.711363307224236, 49.319866988227908 ], [ 10.709629851239654, 49.322594800478832 ], [ 10.708117793363886, 49.325377852855979 ], [ 10.706831278042468, 49.328208508470929 ], [ 10.705773831524475, 49.331079001134057 ], [ 10.704948352197304, 49.333981456723897 ], [ 10.704357102642417, 49.336907914838633 ], [ 10.704001703433745, 49.339850350669408 ], [ 10.703883128695816, 49.342800697035045 ], [ 10.704001703433745, 49.345750866517463 ], [ 10.704357102642417, 49.348692773636493 ], [ 10.704948352197304, 49.351618357003694 ], [ 10.705773831524475, 49.354519601394117 ], [ 10.706831278042468, 49.357388559676082 ], [ 10.708117793363886, 49.360217374539168 ], [ 10.709629851239654, 49.362998299961433 ], [ 10.711363307224236, 49.365723722357814 ], [ 10.713313410035269, 49.368386181352669 ], [ 10.715474814576501, 49.370978390120662 ], [ 10.717841596588318, 49.373493255241073 ], [ 10.720407268885744, 49.375923896012928 ], [ 10.72316479913934, 49.378263663178942 ], [ 10.726106629150364, 49.380506157008689 ], [ 10.729224695567236, 49.382645244692945 ], [ 10.732510451986641, 49.384675077003081 ], [ 10.735954892378624, 49.386590104171532 ], [ 10.739548575771494, 49.388385090951502 ], [ 10.743281652128857, 49.390055130816215 ], [ 10.747143889347909, 49.39159565926056 ], [ 10.751124701304887, 49.393002466170074 ], [ 10.755213176870924, 49.39427170722518 ], [ 10.75939810981868, 49.395399914310637 ], [ 10.763668029537833, 49.396384004903339 ], [ 10.768011232475235, 49.397221290413754 ], [ 10.772415814213522, 49.397909483459529 ], [ 10.776869702100315, 49.398446704052226 ], [ 10.781360688338493, 49.398831484681253 ], [ 10.785876463446952, 49.399062774281724 ], [ 10.79040465, 49.399139941076051 ], [ 10.79493283655305, 49.399062774281724 ], [ 10.799448611661505, 49.398831484681253 ], [ 10.803939597899687, 49.398446704052226 ], [ 10.808393485786478, 49.397909483459529 ], [ 10.812798067524765, 49.397221290413754 ], [ 10.817141270462166, 49.396384004903339 ], [ 10.821411190181319, 49.395399914310637 ], [ 10.825596123129074, 49.39427170722518 ], [ 10.829684598695113, 49.393002466170074 ], [ 10.83366541065209, 49.39159565926056 ], [ 10.837527647871143, 49.390055130816215 ], [ 10.841260724228507, 49.388385090951502 ], [ 10.844854407621375, 49.386590104171532 ], [ 10.848298848013359, 49.384675077003081 ], [ 10.851584604432764, 49.382645244692945 ], [ 10.854702670849635, 49.380506157008689 ], [ 10.857644500860658, 49.378263663178942 ], [ 10.860402031114258, 49.375923896012928 ], [ 10.862967703411682, 49.373493255241073 ], [ 10.865334485423499, 49.370978390120662 ], [ 10.867495889964731, 49.368386181352669 ], [ 10.869445992775763, 49.365723722357814 ], [ 10.871179448760346, 49.362998299961433 ], [ 10.872691506636112, 49.360217374539168 ], [ 10.873978021957532, 49.357388559676082 ], [ 10.875035468475527, 49.354519601394117 ], [ 10.875860947802696, 49.351618357003694 ], [ 10.876452197357583, 49.3486927736365 ], [ 10.876807596566255, 49.345750866517463 ], [ 10.876926171304184, 49.342800697035045 ] ] ] } },
{ "type": "Feature", "properties": { "name": "Heilsbronn, St", "feature_type": "mrr", "metric_roundness": 50.6, "metric_rectangularity": 66.94, "metric_mobile_fit": 36.21, "metric_aspect_ratio": 1.2, "metric_area_km2": 147.4 }, "geometry": { "type": "Polygon", "coordinates": [ [ [ 10.743290954646234, 49.403433617731174 ], [ 10.894392329245061, 49.348536099441176 ], [ 10.844351980191668, 49.290081127760445 ], [ 10.693250605592839, 49.345043871550935 ], [ 10.743290954646234, 49.403433617731174 ] ] ] } }
]
}
