{
"type": "FeatureCollection",
"name": "heiligenstedtenerkamp",
"crs": { "type": "name", "properties": { "name": "urn:ogc:def:crs:OGC:1.3:CRS84" } },
"features": [
{ "type": "Feature", "properties": { "name": "Heiligenstedtenerkamp", "metric_roundness": 54.05, "metric_rectangularity": 74.62, "metric_mobile_fit": 46.02, "metric_aspect_ratio": 1.102, "metric_area_km2": 1.93 }, "geometry": { "type": "Polygon", "coordinates": [ [ [ 9.4749685, 53.9011755 ], [ 9.469731, 53.90584 ], [ 9.459274, 53.902249499999982 ], [ 9.4583689, 53.8969676 ], [ 9.4698125, 53.897926 ], [ 9.4749685, 53.9011755 ] ] ] } }
]
}
