{
"type": "FeatureCollection",
"name": "hemilly",
"crs": { "type": "name", "properties": { "name": "urn:ogc:def:crs:OGC:1.3:CRS84" } },
"features": [
{ "type": "Feature", "properties": { "name": "Hémilly", "metric_roundness": 45.25, "metric_rectangularity": 52.04, "metric_mobile_fit": 28.29, "metric_aspect_ratio": 1.28, "metric_area_km2": 32.82 }, "geometry": { "type": "Polygon", "coordinates": [ [ [ 6.4674516, 49.0352325 ], [ 6.4721606, 49.0472613 ], [ 6.481598, 49.0377695 ], [ 6.4884795, 49.031918 ], [ 6.521921, 49.030983499999984 ], [ 6.529282, 49.0374765 ], [ 6.526791, 49.039499499999984 ], [ 6.5304425, 49.04216049999998 ], [ 6.5284165, 49.045021 ], [ 6.5159989, 49.045716 ], [ 6.5104213, 49.049451499999989 ], [ 6.5131733, 49.058811899999981 ], [ 6.5067125, 49.0728012 ], [ 6.4908628, 49.0692005 ], [ 6.4888715, 49.064434 ], [ 6.4878757, 49.0614492 ], [ 6.4966473, 49.056468299999985 ], [ 6.4971988, 49.0529833 ], [ 6.4830165, 49.0579034 ], [ 6.4616763, 49.052494 ], [ 6.448795, 49.0530645 ], [ 6.4528262, 49.043255099999989 ], [ 6.4492664, 49.035555099999982 ], [ 6.453859, 49.0339085 ], [ 6.4674516, 49.0352325 ] ] ] } }
]
}
