{
"type": "FeatureCollection",
"name": "henridorff",
"crs": { "type": "name", "properties": { "name": "urn:ogc:def:crs:OGC:1.3:CRS84" } },
"features": [
{ "type": "Feature", "properties": { "name": "Henridorff", "feature_type": "entity", "metric_roundness": 67.45, "metric_rectangularity": 75.39, "metric_mobile_fit": 51.1, "metric_aspect_ratio": 1.051, "metric_area_km2": 17.16 }, "geometry": { "type": "Polygon", "coordinates": [ [ [ 7.207914, 48.748046499999973 ], [ 7.1946975, 48.7417655 ], [ 7.1915885, 48.7399655 ], [ 7.189568, 48.7367165 ], [ 7.189469, 48.7349195 ], [ 7.1907825, 48.733101 ], [ 7.187315, 48.730955 ], [ 7.187129, 48.7248845 ], [ 7.1892135, 48.723889 ], [ 7.1921625, 48.7234 ], [ 7.204131, 48.724017 ], [ 7.2129765, 48.721835 ], [ 7.2175835, 48.71943 ], [ 7.2216155, 48.719615 ], [ 7.223748, 48.7185635 ], [ 7.226158, 48.719428 ], [ 7.2300115, 48.721917 ], [ 7.230211, 48.72389 ], [ 7.2313505, 48.725869 ], [ 7.2331255, 48.727077499999986 ], [ 7.2309801, 48.72944949999998 ], [ 7.2341315, 48.738182 ], [ 7.2283095, 48.7392505 ], [ 7.2259105, 48.74052 ], [ 7.2228805, 48.741156 ], [ 7.2089775, 48.74767 ], [ 7.207914, 48.748046499999973 ] ] ] } },
{ "type": "Feature", "properties": { "name": "Henridorff", "feature_type": "circle", "metric_roundness": 67.45, "metric_rectangularity": 75.39, "metric_mobile_fit": 51.1, "metric_aspect_ratio": 1.051, "metric_area_km2": 17.16 }, "geometry": { "type": "Polygon", "coordinates": [ [ [ 7.236202075676136, 48.731533689599395 ], [ 7.236167030377786, 48.730650937983739 ], [ 7.236061990539459, 48.729770590494461 ], [ 7.235887244068051, 48.728895060293084 ], [ 7.235643269931496, 48.728026747461783 ], [ 7.235330736845942, 48.727168032421524 ], [ 7.234950501442854, 48.726321269402732 ], [ 7.234503605921039, 48.725488779986421 ], [ 7.233991275190063, 48.724672846733661 ], [ 7.233414913512845, 48.723875706920907 ], [ 7.232776100656682, 48.723099546398231 ], [ 7.232076587563205, 48.722346493587835 ], [ 7.231318291549187, 48.721618613638917 ], [ 7.230503291051291, 48.720917902755431 ], [ 7.22963381992923, 48.720246282712161 ], [ 7.228712261342916, 48.7196055955744 ], [ 7.227741141220376, 48.718997598635788 ], [ 7.226723121334365, 48.718423959588456 ], [ 7.225660992006627, 48.717886251938616 ], [ 7.224557664459823, 48.71738595068053 ], [ 7.223416162838067, 48.71692442824083 ], [ 7.222239615917961, 48.71650295070431 ], [ 7.22103124853283, 48.716122674331793 ], [ 7.219794372733685, 48.715784642379766 ], [ 7.218532378711118, 48.715489782230456 ], [ 7.217248725503024, 48.715238902840596 ], [ 7.215946931513621, 48.715032692515685 ], [ 7.214630564869747, 48.714871717016159 ], [ 7.213303233640873, 48.714756418000604 ], [ 7.211968575949636, 48.714687111810477 ], [ 7.21063025, 48.714663988599511 ], [ 7.209291924050359, 48.714687111810477 ], [ 7.207957266359123, 48.714756418000604 ], [ 7.206629935130249, 48.714871717016159 ], [ 7.205313568486375, 48.715032692515685 ], [ 7.204011774496973, 48.715238902840596 ], [ 7.202728121288879, 48.715489782230456 ], [ 7.20146612726631, 48.715784642379766 ], [ 7.200229251467166, 48.716122674331793 ], [ 7.199020884082036, 48.71650295070431 ], [ 7.197844337161929, 48.71692442824083 ], [ 7.196702835540174, 48.71738595068053 ], [ 7.195599507993371, 48.717886251938616 ], [ 7.194537378665633, 48.718423959588456 ], [ 7.193519358779621, 48.718997598635788 ], [ 7.192548238657081, 48.7196055955744 ], [ 7.191626680070765, 48.720246282712161 ], [ 7.190757208948706, 48.720917902755431 ], [ 7.18994220845081, 48.721618613638917 ], [ 7.18918391243679, 48.722346493587835 ], [ 7.188484399343316, 48.723099546398231 ], [ 7.187845586487151, 48.723875706920907 ], [ 7.187269224809934, 48.724672846733661 ], [ 7.186756894078957, 48.725488779986421 ], [ 7.186309998557143, 48.726321269402732 ], [ 7.185929763154054, 48.727168032421524 ], [ 7.1856172300685, 48.728026747461783 ], [ 7.185373255931944, 48.728895060293084 ], [ 7.185198509460538, 48.729770590494461 ], [ 7.185093469622212, 48.730650937983739 ], [ 7.185058424323861, 48.731533689599395 ], [ 7.185093469622212, 48.73241642571702 ], [ 7.185198509460538, 48.733296726881996 ], [ 7.185373255931944, 48.734172180440368 ], [ 7.1856172300685, 48.735040387149652 ], [ 7.185929763154054, 48.735898967751588 ], [ 7.186309998557143, 48.736745569488676 ], [ 7.186756894078957, 48.737577872546957 ], [ 7.187269224809934, 48.7383935964071 ], [ 7.187845586487151, 48.739190506086835 ], [ 7.188484399343316, 48.739966418257474 ], [ 7.18918391243679, 48.740719207217808 ], [ 7.18994220845081, 48.741446810709412 ], [ 7.190757208948706, 48.74214723555729 ], [ 7.191626680070765, 48.742818563120508 ], [ 7.192548238657081, 48.743458954538248 ], [ 7.193519358779621, 48.744066655756832 ], [ 7.194537378665633, 48.744640002324118 ], [ 7.195599507993371, 48.745177423938358 ], [ 7.196702835540174, 48.745677448739144 ], [ 7.197844337161929, 48.746138707328775 ], [ 7.199020884082036, 48.746559936513265 ], [ 7.200229251467166, 48.746939982752778 ], [ 7.20146612726631, 48.747277805312216 ], [ 7.202728121288879, 48.747572479103482 ], [ 7.204011774496973, 48.747823197211652 ], [ 7.205313568486375, 48.748029273098247 ], [ 7.206629935130249, 48.748190142475757 ], [ 7.207957266359123, 48.748305364848292 ], [ 7.209291924050359, 48.748374624714138 ], [ 7.21063025, 48.748397732427087 ], [ 7.211968575949636, 48.748374624714138 ], [ 7.213303233640873, 48.748305364848292 ], [ 7.214630564869747, 48.748190142475757 ], [ 7.215946931513621, 48.748029273098247 ], [ 7.217248725503024, 48.747823197211652 ], [ 7.218532378711118, 48.747572479103482 ], [ 7.219794372733685, 48.747277805312216 ], [ 7.22103124853283, 48.746939982752778 ], [ 7.222239615917961, 48.746559936513265 ], [ 7.223416162838067, 48.746138707328775 ], [ 7.224557664459823, 48.745677448739144 ], [ 7.225660992006627, 48.745177423938358 ], [ 7.226723121334365, 48.744640002324118 ], [ 7.227741141220376, 48.744066655756832 ], [ 7.228712261342916, 48.743458954538248 ], [ 7.22963381992923, 48.742818563120508 ], [ 7.230503291051291, 48.74214723555729 ], [ 7.231318291549187, 48.741446810709412 ], [ 7.232076587563205, 48.740719207217808 ], [ 7.232776100656682, 48.739966418257474 ], [ 7.233414913512845, 48.739190506086835 ], [ 7.233991275190063, 48.7383935964071 ], [ 7.234503605921039, 48.737577872546957 ], [ 7.234950501442854, 48.736745569488676 ], [ 7.235330736845942, 48.735898967751588 ], [ 7.235643269931496, 48.735040387149652 ], [ 7.235887244068051, 48.734172180440368 ], [ 7.236061990539459, 48.733296726881996 ], [ 7.236167030377786, 48.73241642571702 ], [ 7.236202075676136, 48.731533689599395 ] ] ] } },
{ "type": "Feature", "properties": { "name": "Henridorff", "feature_type": "mrr", "metric_roundness": 67.45, "metric_rectangularity": 75.39, "metric_mobile_fit": 51.1, "metric_aspect_ratio": 1.051, "metric_area_km2": 17.16 }, "geometry": { "type": "Polygon", "coordinates": [ [ [ 7.229702222826707, 48.717537306844513 ], [ 7.185004892372286, 48.724517746982357 ], [ 7.194217503814107, 48.750184304117582 ], [ 7.238914834268528, 48.743207426951663 ], [ 7.229702222826707, 48.717537306844513 ] ] ] } }
]
}
