{
"type": "FeatureCollection",
"name": "hericourt_en_caux",
"crs": { "type": "name", "properties": { "name": "urn:ogc:def:crs:OGC:1.3:CRS84" } },
"features": [
{ "type": "Feature", "properties": { "name": "Héricourt-en-Caux", "feature_type": "entity", "metric_roundness": 63.84, "metric_rectangularity": 72.26, "metric_mobile_fit": 33.83, "metric_aspect_ratio": 1.224, "metric_area_km2": 25.99 }, "geometry": { "type": "Polygon", "coordinates": [ [ [ 0.7131556, 49.684785399999988 ], [ 0.7159259, 49.6886899 ], [ 0.7225172, 49.6875131 ], [ 0.7348995, 49.693500499999978 ], [ 0.7289635, 49.707398499999989 ], [ 0.724952, 49.70721 ], [ 0.7218215, 49.7076625 ], [ 0.7179445, 49.709407 ], [ 0.706817, 49.710417 ], [ 0.7014875, 49.7070366 ], [ 0.689435, 49.706005499999989 ], [ 0.674925, 49.7021415 ], [ 0.6737655, 49.699475499999984 ], [ 0.671455, 49.698132499999986 ], [ 0.6734435, 49.696588499999983 ], [ 0.676204, 49.6968955 ], [ 0.678251, 49.693959 ], [ 0.681106, 49.691348499999989 ], [ 0.6791345, 49.690243499999987 ], [ 0.6813555, 49.688343499999981 ], [ 0.6788775, 49.685785499999987 ], [ 0.6861288, 49.6833914 ], [ 0.686171, 49.6768935 ], [ 0.7134515, 49.6778195 ], [ 0.7131556, 49.684785399999988 ] ] ] } },
{ "type": "Feature", "properties": { "name": "Héricourt-en-Caux", "feature_type": "circle", "metric_roundness": 63.84, "metric_rectangularity": 72.26, "metric_mobile_fit": 33.83, "metric_aspect_ratio": 1.224, "metric_area_km2": 25.99 }, "geometry": { "type": "Polygon", "coordinates": [ [ [ 0.735689546721789, 49.694627672169148 ], [ 0.735645217922089, 49.693532621630439 ], [ 0.735512353025148, 49.692440547977114 ], [ 0.735291316204412, 49.691354444809924 ], [ 0.734982713306444, 49.690277289563213 ], [ 0.734587390190336, 49.6892120353385 ], [ 0.73410643040927, 49.688161602802587 ], [ 0.733541152240576, 49.687128872172664 ], [ 0.732893105072421, 49.686116675310174 ], [ 0.732164065157049, 49.685127787945639 ], [ 0.731356030742193, 49.68416492205548 ], [ 0.730471216594018, 49.683230718412254 ], [ 0.729512047926601, 49.682327739328663 ], [ 0.728481153754589, 49.681458461615506 ], [ 0.72738135968725, 49.680625269773188 ], [ 0.726215680183679, 49.67983044943535 ], [ 0.724987310290367, 49.679076181083254 ], [ 0.723699616883811, 49.678364534047972 ], [ 0.722356129442131, 49.67769746081737 ], [ 0.720960530371019, 49.677076791663474 ], [ 0.719516644910524, 49.676504229605307 ], [ 0.718028430650329, 49.675981345721269 ], [ 0.716499966682276, 49.675509574823991 ], [ 0.71493544241986, 49.675090211509797 ], [ 0.713339146115336, 49.674724406593846 ], [ 0.711715453105916, 49.674413163940805 ], [ 0.710068813821278, 49.674157337699938 ], [ 0.708403741585246, 49.673957629952476 ], [ 0.706724800245079, 49.67381458877751 ], [ 0.70503659166229, 49.673728606742252 ], [ 0.703343743099259, 49.673699919820415 ], [ 0.701650894536227, 49.673728606742252 ], [ 0.699962685953438, 49.67381458877751 ], [ 0.698283744613272, 49.673957629952476 ], [ 0.696618672377239, 49.674157337699938 ], [ 0.694972033092602, 49.674413163940805 ], [ 0.693348340083182, 49.674724406593846 ], [ 0.691752043778658, 49.675090211509797 ], [ 0.690187519516242, 49.675509574823991 ], [ 0.688659055548189, 49.675981345721269 ], [ 0.687170841287993, 49.676504229605307 ], [ 0.685726955827498, 49.677076791663474 ], [ 0.684331356756387, 49.67769746081737 ], [ 0.682987869314706, 49.678364534047972 ], [ 0.68170017590815, 49.679076181083254 ], [ 0.680471806014839, 49.67983044943535 ], [ 0.679306126511267, 49.680625269773188 ], [ 0.678206332443929, 49.681458461615506 ], [ 0.677175438271917, 49.682327739328663 ], [ 0.6762162696045, 49.683230718412254 ], [ 0.675331455456325, 49.68416492205548 ], [ 0.674523421041468, 49.685127787945639 ], [ 0.673794381126096, 49.686116675310174 ], [ 0.673146333957942, 49.687128872172664 ], [ 0.672581055789248, 49.688161602802587 ], [ 0.672100096008182, 49.6892120353385 ], [ 0.671704772892074, 49.690277289563213 ], [ 0.671396169994105, 49.691354444809924 ], [ 0.67117513317337, 49.692440547977114 ], [ 0.671042268276428, 49.693532621630439 ], [ 0.670997939476728, 49.694627672169148 ], [ 0.671042268276428, 49.695722698034636 ], [ 0.67117513317337, 49.696814697938613 ], [ 0.671396169994105, 49.697900679088342 ], [ 0.671704772892074, 49.69897766538633 ], [ 0.672100096008182, 49.700042705582092 ], [ 0.672581055789248, 49.701092881353759 ], [ 0.673146333957942, 49.702125315297344 ], [ 0.673794381126096, 49.703137178801931 ], [ 0.674523421041468, 49.704125699789351 ], [ 0.675331455456324, 49.70508817029728 ], [ 0.6762162696045, 49.706021953885049 ], [ 0.677175438271917, 49.706924492842177 ], [ 0.678206332443929, 49.707793315179963 ], [ 0.679306126511267, 49.708626041387227 ], [ 0.680471806014839, 49.709420390931903 ], [ 0.68170017590815, 49.710174188490846 ], [ 0.682987869314706, 49.710885369891059 ], [ 0.684331356756387, 49.711551987746319 ], [ 0.685726955827498, 49.712172216773766 ], [ 0.687170841287993, 49.71274435877649 ], [ 0.688659055548189, 49.713266847278305 ], [ 0.690187519516241, 49.713738251798482 ], [ 0.691752043778658, 49.714157281754794 ], [ 0.693348340083182, 49.714522789984414 ], [ 0.694972033092602, 49.714833775873252 ], [ 0.696618672377239, 49.715089388085168 ], [ 0.698283744613272, 49.715288926883929 ], [ 0.699962685953438, 49.71543184604144 ], [ 0.701650894536227, 49.715517754327365 ], [ 0.703343743099259, 49.715546416575968 ], [ 0.70503659166229, 49.715517754327365 ], [ 0.706724800245079, 49.71543184604144 ], [ 0.708403741585246, 49.715288926883929 ], [ 0.710068813821278, 49.715089388085168 ], [ 0.711715453105916, 49.714833775873252 ], [ 0.713339146115336, 49.714522789984414 ], [ 0.71493544241986, 49.714157281754794 ], [ 0.716499966682276, 49.713738251798482 ], [ 0.718028430650329, 49.713266847278305 ], [ 0.719516644910524, 49.71274435877649 ], [ 0.720960530371019, 49.712172216773766 ], [ 0.722356129442131, 49.711551987746319 ], [ 0.723699616883811, 49.710885369891059 ], [ 0.724987310290367, 49.710174188490846 ], [ 0.726215680183679, 49.709420390931903 ], [ 0.72738135968725, 49.708626041387227 ], [ 0.728481153754589, 49.707793315179963 ], [ 0.729512047926601, 49.706924492842177 ], [ 0.730471216594018, 49.706021953885049 ], [ 0.731356030742193, 49.70508817029728 ], [ 0.732164065157049, 49.704125699789351 ], [ 0.732893105072421, 49.703137178801931 ], [ 0.733541152240576, 49.702125315297344 ], [ 0.73410643040927, 49.701092881353759 ], [ 0.734587390190336, 49.700042705582092 ], [ 0.734982713306444, 49.69897766538633 ], [ 0.735291316204412, 49.697900679088342 ], [ 0.735512353025148, 49.696814697938613 ], [ 0.735645217922089, 49.695722698034636 ], [ 0.735689546721789, 49.694627672169148 ] ] ] } },
{ "type": "Feature", "properties": { "name": "Héricourt-en-Caux", "feature_type": "mrr", "metric_roundness": 63.84, "metric_rectangularity": 72.26, "metric_mobile_fit": 33.83, "metric_aspect_ratio": 1.224, "metric_area_km2": 25.99 }, "geometry": { "type": "Polygon", "coordinates": [ [ [ 0.669655871152899, 49.700985128507838 ], [ 0.724420233096228, 49.714884240015145 ], [ 0.742443322821943, 49.685181583757355 ], [ 0.687678960878614, 49.6712739741698 ], [ 0.669655871152899, 49.700985128507838 ] ] ] } }
]
}
