{
"type": "FeatureCollection",
"name": "hetes",
"crs": { "type": "name", "properties": { "name": "urn:ogc:def:crs:OGC:1.3:CRS84" } },
"features": [
{ "type": "Feature", "properties": { "name": "Hetes", "feature_type": "entity", "metric_roundness": 40.09, "metric_rectangularity": 65.82, "metric_mobile_fit": 88.01, "metric_aspect_ratio": 0.682, "metric_area_km2": 56.28 }, "geometry": { "type": "Polygon", "coordinates": [ [ [ 17.7095439, 46.4029255 ], [ 17.7148532, 46.410207 ], [ 17.715174, 46.416753899999982 ], [ 17.729591, 46.4352405 ], [ 17.72679, 46.443446699999988 ], [ 17.7184948, 46.4385343 ], [ 17.7132476, 46.441071099999988 ], [ 17.7080225, 46.452755 ], [ 17.7039615, 46.4540505 ], [ 17.6839176, 46.4495174 ], [ 17.6830145, 46.4423125 ], [ 17.6844138, 46.4382415 ], [ 17.6819529, 46.4324755 ], [ 17.67013, 46.42732 ], [ 17.6665578, 46.4250649 ], [ 17.667359, 46.4081548 ], [ 17.6566518, 46.403500199999982 ], [ 17.6490395, 46.40378 ], [ 17.6538575, 46.391704799999985 ], [ 17.67013, 46.384064099999989 ], [ 17.681656, 46.372667499999984 ], [ 17.6886664, 46.386840399999983 ], [ 17.710627, 46.395717499999982 ], [ 17.7095439, 46.4029255 ] ] ] } },
{ "type": "Feature", "properties": { "name": "Hetes", "feature_type": "circle", "metric_roundness": 40.09, "metric_rectangularity": 65.82, "metric_mobile_fit": 88.01, "metric_aspect_ratio": 0.682, "metric_area_km2": 56.28 }, "geometry": { "type": "Polygon", "coordinates": [ [ [ 17.752873438655151, 46.413374180629134 ], [ 17.752791122086876, 46.411206820371049 ], [ 17.752544398006027, 46.409045314919652 ], [ 17.75213394266617, 46.406895589868356 ], [ 17.751560881096861, 46.404763539213434 ], [ 17.750826784020028, 46.402655009179838 ], [ 17.74993366354472, 46.400575782170577 ], [ 17.748883967652102, 46.398531560883939 ], [ 17.747680573485631, 46.396527952642451 ], [ 17.746326779465083, 46.394570453976975 ], [ 17.744826296245765, 46.392664435508777 ], [ 17.743183236547882, 46.3908151271714 ], [ 17.741402103883861, 46.389027603813737 ], [ 17.739487780214525, 46.387306771224175 ], [ 17.737445512567984, 46.385657352615056 ], [ 17.735280898657919, 46.384083875605107 ], [ 17.732999871540578, 46.382590659736458 ], [ 17.730608683352745, 46.381181804561017 ], [ 17.728113888175038, 46.379861178329982 ], [ 17.725522324067622, 46.378632407318051 ], [ 17.722841094327574, 46.37749886581252 ], [ 17.720077548019251, 46.376463666795416 ], [ 17.71723925983099, 46.375529653345062 ], [ 17.714334009313422, 46.374699390781238 ], [ 17.71136975955628, 46.373975159576304 ], [ 17.708354635362106, 46.373358949052147 ], [ 17.705296900976734, 46.372852451881016 ], [ 17.702204937437575, 46.37245705940564 ], [ 17.699087219601772, 46.37217385779207 ], [ 17.695952292917202, 46.372003625025989 ], [ 17.69280875, 46.371946828761146 ], [ 17.689665207082793, 46.372003625025989 ], [ 17.686530280398223, 46.37217385779207 ], [ 17.68341256256242, 46.37245705940564 ], [ 17.680320599023261, 46.372852451881016 ], [ 17.677262864637893, 46.373358949052147 ], [ 17.674247740443715, 46.373975159576304 ], [ 17.671283490686573, 46.374699390781238 ], [ 17.668378240169005, 46.375529653345062 ], [ 17.665539951980744, 46.376463666795416 ], [ 17.662776405672421, 46.37749886581252 ], [ 17.660095175932376, 46.378632407318051 ], [ 17.657503611824957, 46.379861178329982 ], [ 17.65500881664725, 46.381181804561017 ], [ 17.652617628459417, 46.382590659736458 ], [ 17.650336601342079, 46.384083875605107 ], [ 17.648171987432011, 46.385657352615056 ], [ 17.646129719785474, 46.387306771224175 ], [ 17.644215396116138, 46.389027603813737 ], [ 17.642434263452117, 46.3908151271714 ], [ 17.640791203754233, 46.392664435508777 ], [ 17.639290720534913, 46.394570453976975 ], [ 17.637936926514364, 46.396527952642451 ], [ 17.636733532347897, 46.398531560883939 ], [ 17.635683836455275, 46.400575782170577 ], [ 17.634790715979975, 46.402655009179838 ], [ 17.634056618903134, 46.404763539213434 ], [ 17.633483557333825, 46.406895589868356 ], [ 17.633073101993968, 46.409045314919652 ], [ 17.632826377913119, 46.411206820371049 ], [ 17.632744061344845, 46.413374180629134 ], [ 17.632826377913119, 46.415541454756642 ], [ 17.633073101993968, 46.417702702759939 ], [ 17.633483557333825, 46.419852001866296 ], [ 17.634056618903134, 46.421983462746184 ], [ 17.634790715979975, 46.424091245636326 ], [ 17.635683836455275, 46.426169576319595 ], [ 17.636733532347897, 46.428212761918054 ], [ 17.637936926514364, 46.430215206456381 ], [ 17.639290720534913, 46.432171426153488 ], [ 17.640791203754233, 46.434076064400784 ], [ 17.642434263452117, 46.435923906386677 ], [ 17.644215396116138, 46.437709893327977 ], [ 17.646129719785474, 46.439429136269581 ], [ 17.648171987432011, 46.441076929415658 ], [ 17.650336601342079, 46.442648762956388 ], [ 17.652617628459417, 46.444140335355868 ], [ 17.65500881664725, 46.445547565068345 ], [ 17.657503611824957, 46.446866601651564 ], [ 17.660095175932376, 46.448093836247303 ], [ 17.662776405672421, 46.449225911401598 ], [ 17.665539951980744, 46.450259730198049 ], [ 17.668378240169005, 46.451192464680311 ], [ 17.671283490686573, 46.452021563541237 ], [ 17.674247740443715, 46.452744759058255 ], [ 17.677262864637893, 46.45336007325669 ], [ 17.680320599023261, 46.453865823284595 ], [ 17.68341256256242, 46.454260625985114 ], [ 17.686530280398223, 46.454543401653893 ], [ 17.689665207082793, 46.454713376971966 ], [ 17.69280875, 46.454770087106247 ], [ 17.695952292917202, 46.454713376971966 ], [ 17.699087219601772, 46.454543401653893 ], [ 17.702204937437575, 46.454260625985114 ], [ 17.705296900976734, 46.453865823284595 ], [ 17.708354635362106, 46.45336007325669 ], [ 17.71136975955628, 46.452744759058255 ], [ 17.714334009313422, 46.452021563541237 ], [ 17.71723925983099, 46.451192464680311 ], [ 17.720077548019251, 46.450259730198049 ], [ 17.722841094327574, 46.449225911401598 ], [ 17.725522324067622, 46.448093836247303 ], [ 17.728113888175038, 46.446866601651564 ], [ 17.730608683352745, 46.445547565068345 ], [ 17.732999871540578, 46.444140335355868 ], [ 17.735280898657919, 46.442648762956388 ], [ 17.737445512567984, 46.441076929415658 ], [ 17.739487780214525, 46.439429136269581 ], [ 17.741402103883861, 46.437709893327977 ], [ 17.743183236547882, 46.435923906386677 ], [ 17.744826296245765, 46.434076064400784 ], [ 17.746326779465083, 46.432171426153488 ], [ 17.747680573485631, 46.430215206456381 ], [ 17.748883967652102, 46.428212761918054 ], [ 17.74993366354472, 46.426169576319595 ], [ 17.750826784020028, 46.424091245636326 ], [ 17.751560881096861, 46.421983462746184 ], [ 17.75213394266617, 46.419852001866296 ], [ 17.752544398006027, 46.417702702759939 ], [ 17.752791122086876, 46.415541454756642 ], [ 17.752873438655151, 46.413374180629134 ] ] ] } },
{ "type": "Feature", "properties": { "name": "Hetes", "feature_type": "mrr", "metric_roundness": 40.09, "metric_rectangularity": 65.82, "metric_mobile_fit": 88.01, "metric_aspect_ratio": 0.682, "metric_area_km2": 56.28 }, "geometry": { "type": "Polygon", "coordinates": [ [ [ 17.637523743079761, 46.38867038344894 ], [ 17.691071049442325, 46.458893333865504 ], [ 17.744141258029753, 46.439673643450384 ], [ 17.690593951667189, 46.369425924156694 ], [ 17.637523743079761, 46.38867038344894 ] ] ] } }
]
}
