{
"type": "FeatureCollection",
"name": "heuzecourt",
"crs": { "type": "name", "properties": { "name": "urn:ogc:def:crs:OGC:1.3:CRS84" } },
"features": [
{ "type": "Feature", "properties": { "name": "Heuzecourt", "metric_roundness": 50.49, "metric_rectangularity": 68.24, "metric_mobile_fit": 83.07, "metric_aspect_ratio": 0.732, "metric_area_km2": 17.39 }, "geometry": { "type": "Polygon", "coordinates": [ [ [ 2.1626844, 50.148462399999985 ], [ 2.1784847, 50.1513643 ], [ 2.1830084, 50.157945499999983 ], [ 2.1930745, 50.156639 ], [ 2.1919068, 50.1619537 ], [ 2.1770757, 50.1684121 ], [ 2.178989, 50.184221 ], [ 2.171701, 50.186105 ], [ 2.1531275, 50.173307 ], [ 2.1500676, 50.1675871 ], [ 2.156137, 50.152542 ], [ 2.1626844, 50.148462399999985 ] ] ] } }
]
}
