{
"type": "FeatureCollection",
"name": "albertshofen",
"crs": { "type": "name", "properties": { "name": "urn:ogc:def:crs:OGC:1.3:CRS84" } },
"features": [
{ "type": "Feature", "properties": { "name": "Albertshofen", "metric_roundness": 53.21, "metric_rectangularity": 63.21, "metric_mobile_fit": 83.76, "metric_aspect_ratio": 0.725, "metric_area_km2": 8.95 }, "geometry": { "type": "Polygon", "coordinates": [ [ [ 10.155144, 49.766722 ], [ 10.1555255, 49.760693099999983 ], [ 10.1605206, 49.7587639 ], [ 10.1727516, 49.7612302 ], [ 10.1832387, 49.767858 ], [ 10.1772801, 49.7700158 ], [ 10.1758438, 49.7770423 ], [ 10.16423, 49.7798569 ], [ 10.160987, 49.784958 ], [ 10.1586835, 49.784528499999986 ], [ 10.1566845, 49.7842435 ], [ 10.1538385, 49.783938 ], [ 10.155144, 49.766722 ] ] ] } }
]
}
