{
"type": "FeatureCollection",
"name": "albonese",
"crs": { "type": "name", "properties": { "name": "urn:ogc:def:crs:OGC:1.3:CRS84" } },
"features": [
{ "type": "Feature", "properties": { "name": "Albonese", "feature_type": "entity", "metric_roundness": 55.47, "metric_rectangularity": 70.0, "metric_mobile_fit": 26.73, "metric_aspect_ratio": 1.295, "metric_area_km2": 7.91 }, "geometry": { "type": "Polygon", "coordinates": [ [ [ 8.723962, 45.288129499999982 ], [ 8.7141685, 45.3016255 ], [ 8.6906635, 45.2925265 ], [ 8.690371, 45.2899245 ], [ 8.6896585, 45.287294 ], [ 8.6888555, 45.282557 ], [ 8.7204925, 45.283251 ], [ 8.723962, 45.288129499999982 ] ] ] } },
{ "type": "Feature", "properties": { "name": "Albonese", "feature_type": "circle", "metric_roundness": 55.47, "metric_rectangularity": 70.0, "metric_mobile_fit": 26.73, "metric_aspect_ratio": 1.295, "metric_area_km2": 7.91 }, "geometry": { "type": "Polygon", "coordinates": [ [ [ 8.724113002260653, 45.289817574665527 ], [ 8.724086772915841, 45.289112882649697 ], [ 8.724008156774214, 45.288410113426508 ], [ 8.723877369317156, 45.287711193345025 ], [ 8.723694769023993, 45.287018038274468 ], [ 8.723460856389435, 45.286332548350948 ], [ 8.723176272551756, 45.285656602766672 ], [ 8.722841797535473, 45.284992054615756 ], [ 8.722458348113358, 45.284340725810914 ], [ 8.722026975293623, 45.283704402085036 ], [ 8.721548861439182, 45.283084828091226 ], [ 8.721025317026877, 45.28248370261506 ], [ 8.720457777055552, 45.281902673911929 ], [ 8.719847797112818, 45.28134333518264 ], [ 8.719197049111299, 45.28080722019952 ], [ 8.718507316706033, 45.280295799095178 ], [ 8.717780490405604, 45.279810474325508 ], [ 8.717018562390376, 45.279352576818226 ], [ 8.71622362105208, 45.278923362317222 ], [ 8.715397845269669, 45.278524007933385 ], [ 8.714543498437163, 45.278155608910843 ], [ 8.713662922259843, 45.277819175617957 ], [ 8.712758530335808, 45.277515630771305 ], [ 8.711832801540453, 45.27724580690024 ], [ 8.710888273232062, 45.277010444059137 ], [ 8.709927534297075, 45.276810187793622 ], [ 8.70895321805413, 45.276645587366446 ], [ 8.707967995036329, 45.276517094247922 ], [ 8.70697456567148, 45.276425060875006 ], [ 8.705975652880419, 45.276369739682607 ], [ 8.704973994613674, 45.276351282409799 ], [ 8.703972336346927, 45.276369739682607 ], [ 8.702973423555866, 45.276425060875006 ], [ 8.701979994191017, 45.276517094247922 ], [ 8.700994771173217, 45.276645587366446 ], [ 8.700020454930272, 45.276810187793622 ], [ 8.699059715995284, 45.277010444059137 ], [ 8.698115187686893, 45.27724580690024 ], [ 8.697189458891538, 45.277515630771305 ], [ 8.696285066967503, 45.277819175617957 ], [ 8.695404490790184, 45.278155608910843 ], [ 8.694550143957677, 45.278524007933385 ], [ 8.693724368175264, 45.278923362317222 ], [ 8.692929426836971, 45.279352576818226 ], [ 8.692167498821743, 45.279810474325508 ], [ 8.691440672521313, 45.280295799095178 ], [ 8.690750940116049, 45.28080722019952 ], [ 8.690100192114528, 45.28134333518264 ], [ 8.689490212171794, 45.281902673911929 ], [ 8.688922672200469, 45.28248370261506 ], [ 8.688399127788164, 45.283084828091226 ], [ 8.687921013933723, 45.283704402085036 ], [ 8.687489641113988, 45.284340725810914 ], [ 8.687106191691873, 45.284992054615756 ], [ 8.68677171667559, 45.285656602766672 ], [ 8.686487132837911, 45.286332548350948 ], [ 8.686253220203355, 45.287018038274468 ], [ 8.68607061991019, 45.287711193345025 ], [ 8.685939832453132, 45.288410113426508 ], [ 8.685861216311505, 45.289112882649697 ], [ 8.685834986966693, 45.289817574665527 ], [ 8.685861216311505, 45.290522257926192 ], [ 8.685939832453132, 45.291225000979821 ], [ 8.68607061991019, 45.291923877764042 ], [ 8.686253220203355, 45.292616972884041 ], [ 8.686487132837911, 45.29330238686051 ], [ 8.68677171667559, 45.293978241333335 ], [ 8.687106191691873, 45.294642684206671 ], [ 8.687489641113988, 45.295293894721212 ], [ 8.687921013933723, 45.295930088440095 ], [ 8.688399127788164, 45.296549522134583 ], [ 8.688922672200469, 45.297150498556277 ], [ 8.689490212171794, 45.297731371082833 ], [ 8.690100192114528, 45.298290548224557 ], [ 8.690750940116049, 45.298826497979526 ], [ 8.691440672521313, 45.299337752025387 ], [ 8.692167498821743, 45.299822909736562 ], [ 8.692929426836971, 45.3002806420157 ], [ 8.693724368175264, 45.300709694929139 ], [ 8.694550143957676, 45.301108893136416 ], [ 8.695404490790184, 45.301477143104485 ], [ 8.696285066967503, 45.301813436098058 ], [ 8.697189458891538, 45.302116850937722 ], [ 8.698115187686893, 45.302386556518478 ], [ 8.699059715995284, 45.302621814081988 ], [ 8.700020454930272, 45.302821979236064 ], [ 8.700994771173217, 45.302986503716191 ], [ 8.701979994191017, 45.30311493688415 ], [ 8.702973423555866, 45.303206926959824 ], [ 8.703972336346927, 45.303262221982642 ], [ 8.704973994613674, 45.303280670500293 ], [ 8.705975652880419, 45.303262221982642 ], [ 8.70697456567148, 45.303206926959824 ], [ 8.707967995036329, 45.30311493688415 ], [ 8.70895321805413, 45.302986503716191 ], [ 8.709927534297075, 45.302821979236064 ], [ 8.710888273232062, 45.302621814081988 ], [ 8.711832801540453, 45.302386556518478 ], [ 8.712758530335808, 45.302116850937722 ], [ 8.713662922259843, 45.301813436098058 ], [ 8.714543498437163, 45.301477143104485 ], [ 8.715397845269669, 45.301108893136416 ], [ 8.71622362105208, 45.300709694929139 ], [ 8.717018562390376, 45.3002806420157 ], [ 8.717780490405604, 45.299822909736562 ], [ 8.718507316706033, 45.299337752025387 ], [ 8.719197049111299, 45.298826497979526 ], [ 8.719847797112818, 45.298290548224557 ], [ 8.720457777055552, 45.297731371082833 ], [ 8.721025317026877, 45.297150498556277 ], [ 8.721548861439182, 45.296549522134583 ], [ 8.722026975293623, 45.295930088440095 ], [ 8.722458348113358, 45.295293894721212 ], [ 8.722841797535473, 45.294642684206671 ], [ 8.723176272551756, 45.293978241333335 ], [ 8.723460856389435, 45.29330238686051 ], [ 8.723694769023993, 45.292616972884041 ], [ 8.723877369317156, 45.291923877764042 ], [ 8.724008156774214, 45.291225000979821 ], [ 8.724086772915841, 45.290522257926192 ], [ 8.724113002260653, 45.289817574665527 ] ] ] } },
{ "type": "Feature", "properties": { "name": "Albonese", "feature_type": "mrr", "metric_roundness": 55.47, "metric_rectangularity": 70.0, "metric_mobile_fit": 26.73, "metric_aspect_ratio": 1.295, "metric_area_km2": 7.91 }, "geometry": { "type": "Polygon", "coordinates": [ [ [ 8.7141685, 45.3016255 ], [ 8.72605267781204, 45.285248004605684 ], [ 8.694995915295719, 45.274092682453933 ], [ 8.683111735089465, 45.290473395402024 ], [ 8.7141685, 45.3016255 ] ] ] } }
]
}
