{
"type": "FeatureCollection",
"name": "alcaudete",
"crs": { "type": "name", "properties": { "name": "urn:ogc:def:crs:OGC:1.3:CRS84" } },
"features": [
{ "type": "Feature", "properties": { "name": "Alcaudete", "metric_roundness": 53.02, "metric_rectangularity": 67.21, "metric_mobile_fit": 62.0, "metric_aspect_ratio": 0.943, "metric_area_km2": 378.24 }, "geometry": { "type": "Polygon", "coordinates": [ [ [ -4.0026382, 37.5686533 ], [ -4.0033886, 37.585074 ], [ -3.989609, 37.598812 ], [ -3.9982924, 37.609981 ], [ -4.0255383, 37.6242677 ], [ -4.0316573, 37.6302779 ], [ -4.0538161, 37.6336022 ], [ -4.071904, 37.6435922 ], [ -4.0735907, 37.649428 ], [ -4.0692324, 37.660386899999985 ], [ -4.0710378, 37.6680485 ], [ -4.0622952, 37.682431 ], [ -4.0786739, 37.704584 ], [ -4.0901113, 37.6971138 ], [ -4.0985059, 37.686660599999982 ], [ -4.1183769, 37.677394099999987 ], [ -4.1366603, 37.6769221 ], [ -4.1643895, 37.681534 ], [ -4.1868024, 37.6705227 ], [ -4.2264641, 37.6400858 ], [ -4.2239275, 37.6320457 ], [ -4.218698, 37.626954 ], [ -4.2204174, 37.6212683 ], [ -4.2108693, 37.6158723 ], [ -4.2082195, 37.6110103 ], [ -4.2031047, 37.6141755 ], [ -4.1969416, 37.612127499999986 ], [ -4.1870852, 37.6162786 ], [ -4.173257, 37.609761599999985 ], [ -4.1639154, 37.5986816 ], [ -4.168494, 37.588537699999989 ], [ -4.1615513, 37.586816099999986 ], [ -4.160232, 37.57461 ], [ -4.1512624, 37.5741921 ], [ -4.1409524, 37.5617454 ], [ -4.122751, 37.554905 ], [ -4.1213505, 37.549405 ], [ -4.1142636, 37.5457651 ], [ -4.1091917, 37.5344354 ], [ -4.0989812, 37.5298319 ], [ -4.0982037, 37.5138679 ], [ -4.0951885, 37.5099565 ], [ -4.0854359, 37.512936499999988 ], [ -4.0597905, 37.505501 ], [ -4.0159155, 37.515686 ], [ -4.0026382, 37.5686533 ] ] ] } }
]
}
