{
"type": "FeatureCollection",
"name": "alfragide",
"crs": { "type": "name", "properties": { "name": "urn:ogc:def:crs:OGC:1.3:CRS84" } },
"features": [
{ "type": "Feature", "properties": { "name": "Alfragide", "feature_type": "entity", "metric_roundness": 31.83, "metric_rectangularity": 48.86, "metric_mobile_fit": 62.24, "metric_aspect_ratio": 0.94, "metric_area_km2": 4.14 }, "geometry": { "type": "Polygon", "coordinates": [ [ [ -9.225532, 38.734506499999988 ], [ -9.211211, 38.721993 ], [ -9.205355, 38.740356 ], [ -9.2163443, 38.7402154 ], [ -9.2266746, 38.7422842 ], [ -9.232972, 38.7449095 ], [ -9.225532, 38.734506499999988 ] ] ] } },
{ "type": "Feature", "properties": { "name": "Alfragide", "feature_type": "circle", "metric_roundness": 31.83, "metric_rectangularity": 48.86, "metric_mobile_fit": 62.24, "metric_aspect_ratio": 0.94, "metric_area_km2": 4.14 }, "geometry": { "type": "Polygon", "coordinates": [ [ [ -9.203278678811406, 38.733753562934503 ], [ -9.203303746285389, 38.733006814938136 ], [ -9.203378879999136, 38.732262105951669 ], [ -9.203503874016356, 38.731521477266575 ], [ -9.203678385737138, 38.730786959053212 ], [ -9.20390193683699, 38.730060564794556 ], [ -9.204173914577879, 38.729344285764995 ], [ -9.204493573487728, 38.728640085569268 ], [ -9.20486003740368, 38.727949894756776 ], [ -9.205272301873617, 38.727275605525847 ], [ -9.205729236909281, 38.726619066532557 ], [ -9.206229590083501, 38.725982077818507 ], [ -9.206771989963006, 38.725366385871403 ], [ -9.207354949867428, 38.724773678832108 ], [ -9.207976871944188, 38.724205581861192 ], [ -9.208636051548108, 38.723663652678106 ], [ -9.209330681913707, 38.723149377284926 ], [ -9.210058859107439, 38.722664165886577 ], [ -9.210818587246232, 38.722209349018911 ], [ -9.211607783968063, 38.721786173895119 ], [ -9.212424286139573, 38.721395800980773 ], [ -9.213265855785068, 38.72103930080678 ], [ -9.214130186220643, 38.72071765102914 ], [ -9.215014908376657, 38.720431733743666 ], [ -9.215917597291174, 38.720182333062979 ], [ -9.216835778756623, 38.71997013296253 ], [ -9.21776693610143, 38.719795715401723 ], [ -9.218708517088041, 38.719659558725112 ], [ -9.219657940908416, 38.719562036348229 ], [ -9.220612605257857, 38.719503415731701 ], [ -9.221569893467741, 38.719483857646381 ], [ -9.222527181677625, 38.719503415731701 ], [ -9.223481846027065, 38.719562036348229 ], [ -9.224431269847441, 38.719659558725112 ], [ -9.22537285083405, 38.719795715401723 ], [ -9.226304008178859, 38.71997013296253 ], [ -9.227222189644309, 38.720182333062979 ], [ -9.228124878558823, 38.720431733743666 ], [ -9.229009600714837, 38.72071765102914 ], [ -9.229873931150413, 38.72103930080678 ], [ -9.230715500795908, 38.721395800980773 ], [ -9.23153200296742, 38.721786173895119 ], [ -9.232321199689251, 38.722209349018911 ], [ -9.233080927828041, 38.722664165886577 ], [ -9.233809105021775, 38.723149377284926 ], [ -9.234503735387374, 38.723663652678106 ], [ -9.235162914991292, 38.724205581861192 ], [ -9.235784837068055, 38.724773678832108 ], [ -9.236367796972475, 38.725366385871403 ], [ -9.23691019685198, 38.725982077818507 ], [ -9.237410550026203, 38.726619066532557 ], [ -9.237867485061866, 38.727275605525847 ], [ -9.238279749531802, 38.727949894756776 ], [ -9.238646213447753, 38.728640085569268 ], [ -9.238965872357602, 38.729344285764995 ], [ -9.239237850098492, 38.730060564794556 ], [ -9.239461401198342, 38.730786959053212 ], [ -9.239635912919127, 38.731521477266575 ], [ -9.239760906936347, 38.732262105951669 ], [ -9.239836040650092, 38.733006814938136 ], [ -9.239861108124076, 38.733753562934503 ], [ -9.239836040650092, 38.734500303124321 ], [ -9.239760906936347, 38.735244988776635 ], [ -9.239635912919127, 38.735985578855647 ], [ -9.239461401198342, 38.736720043613978 ], [ -9.239237850098492, 38.737446370154302 ], [ -9.238965872357602, 38.738162567944187 ], [ -9.238646213447753, 38.738866674268955 ], [ -9.238279749531802, 38.739556759607673 ], [ -9.237867485061866, 38.740230932917619 ], [ -9.237410550026203, 38.740887346812762 ], [ -9.23691019685198, 38.741524202622102 ], [ -9.236367796972475, 38.742139755314078 ], [ -9.235784837068055, 38.742732318273532 ], [ -9.235162914991292, 38.743300267918457 ], [ -9.234503735387374, 38.743842048143527 ], [ -9.233809105021775, 38.744356174578698 ], [ -9.233080927828041, 38.744841238651048 ], [ -9.232321199689251, 38.745295911438873 ], [ -9.23153200296742, 38.745718947307545 ], [ -9.230715500795908, 38.746109187317188 ], [ -9.229873931150413, 38.746465562393034 ], [ -9.229009600714837, 38.74678709624969 ], [ -9.228124878558823, 38.747072908061405 ], [ -9.227222189644309, 38.74732221487114 ], [ -9.226304008178859, 38.747534333731899 ], [ -9.22537285083405, 38.74770868357438 ], [ -9.224431269847441, 38.747844786795959 ], [ -9.223481846027065, 38.74794227056676 ], [ -9.222527181677625, 38.74800086784915 ], [ -9.221569893467741, 38.748020418127908 ], [ -9.220612605257857, 38.74800086784915 ], [ -9.219657940908416, 38.74794227056676 ], [ -9.218708517088041, 38.747844786795959 ], [ -9.21776693610143, 38.74770868357438 ], [ -9.216835778756623, 38.747534333731899 ], [ -9.215917597291174, 38.74732221487114 ], [ -9.215014908376657, 38.747072908061405 ], [ -9.214130186220643, 38.74678709624969 ], [ -9.213265855785068, 38.746465562393034 ], [ -9.212424286139573, 38.746109187317188 ], [ -9.211607783968063, 38.745718947307545 ], [ -9.210818587246232, 38.745295911438873 ], [ -9.210058859107439, 38.744841238651048 ], [ -9.209330681913707, 38.744356174578698 ], [ -9.208636051548108, 38.743842048143527 ], [ -9.207976871944188, 38.743300267918457 ], [ -9.207354949867428, 38.742732318273532 ], [ -9.206771989963006, 38.742139755314078 ], [ -9.206229590083501, 38.741524202622102 ], [ -9.205729236909281, 38.740887346812762 ], [ -9.205272301873617, 38.740230932917619 ], [ -9.20486003740368, 38.739556759607673 ], [ -9.204493573487728, 38.738866674268955 ], [ -9.204173914577879, 38.738162567944187 ], [ -9.20390193683699, 38.737446370154302 ], [ -9.203678385737138, 38.736720043613978 ], [ -9.203503874016356, 38.735985578855647 ], [ -9.203378879999136, 38.735244988776635 ], [ -9.203303746285389, 38.734500303124321 ], [ -9.203278678811406, 38.733753562934503 ] ] ] } },
{ "type": "Feature", "properties": { "name": "Alfragide", "feature_type": "mrr", "metric_roundness": 31.83, "metric_rectangularity": 48.86, "metric_mobile_fit": 62.24, "metric_aspect_ratio": 0.94, "metric_area_km2": 4.14 }, "geometry": { "type": "Polygon", "coordinates": [ [ [ -9.205355, 38.740356 ], [ -9.211211, 38.721993 ], [ -9.238586171260597, 38.72730604404223 ], [ -9.232730171262457, 38.745667678415259 ], [ -9.205355, 38.740356 ] ] ] } }
]
}
