{
"type": "FeatureCollection",
"name": "allonnes",
"crs": { "type": "name", "properties": { "name": "urn:ogc:def:crs:OGC:1.3:CRS84" } },
"features": [
{ "type": "Feature", "properties": { "name": "Allonnes", "feature_type": "entity", "metric_roundness": 52.74, "metric_rectangularity": 63.82, "metric_mobile_fit": 83.36, "metric_aspect_ratio": 0.729, "metric_area_km2": 78.55 }, "geometry": { "type": "Polygon", "coordinates": [ [ [ -0.0107926, 47.3163303 ], [ -0.025869, 47.307678499999987 ], [ -0.0370185, 47.292105 ], [ -0.0256245, 47.282709 ], [ -0.0128734, 47.273431 ], [ 0.003855, 47.267829499999969 ], [ 0.016911, 47.265528 ], [ 0.0210995, 47.2665125 ], [ 0.023975, 47.265759 ], [ 0.027522, 47.266281 ], [ 0.0296725, 47.2654685 ], [ 0.0336385, 47.265458 ], [ 0.0410835, 47.267586 ], [ 0.0312622, 47.283844899999984 ], [ 0.03616, 47.2876828 ], [ 0.0390144, 47.297323299999988 ], [ 0.0371952, 47.3007646 ], [ 0.040914, 47.308277 ], [ 0.0520966, 47.3198418 ], [ 0.0401884, 47.325161299999984 ], [ 0.044834, 47.335875 ], [ 0.0384259, 47.343466 ], [ 0.0162935, 47.3483545 ], [ -0.0107926, 47.3163303 ] ] ] } },
{ "type": "Feature", "properties": { "name": "Allonnes", "feature_type": "circle", "metric_roundness": 52.74, "metric_rectangularity": 63.82, "metric_mobile_fit": 83.36, "metric_aspect_ratio": 0.729, "metric_area_km2": 78.55 }, "geometry": { "type": "Polygon", "coordinates": [ [ [ 0.082929494943003, 47.306547214380274 ], [ 0.082844711841505, 47.304351738713287 ], [ 0.082590594921599, 47.302162189881976 ], [ 0.082167840700099, 47.299984570406508 ], [ 0.081577607916941, 47.297824850842275 ], [ 0.080821514359157, 47.295688953394723 ], [ 0.079901632426634, 47.293582735658958 ], [ 0.078820483451807, 47.291511974528852 ], [ 0.077581030788868, 47.289482350320291 ], [ 0.076186671691413, 47.287499431152497 ], [ 0.074641228000806, 47.285568657630748 ], [ 0.072948935670782, 47.283695327873147 ], [ 0.071114433156986, 47.281884582923055 ], [ 0.069142748703295, 47.280141392588014 ], [ 0.067039286559746, 47.278470541744632 ], [ 0.064809812169865, 47.276876617147821 ], [ 0.062460436367986, 47.275363994781365 ], [ 0.059997598629877, 47.273936827785356 ], [ 0.057428049422591, 47.2725990349944 ], [ 0.054758831701896, 47.271354290118921 ], [ 0.051997261608031, 47.27020601160001 ], [ 0.049150908412667, 47.269157353166491 ], [ 0.046227573772066, 47.268211195120919 ], [ 0.04323527034328, 47.267370136379085 ], [ 0.040182199822014, 47.266636487285602 ], [ 0.03707673046235, 47.266012263225981 ], [ 0.033927374139945, 47.265499179053222 ], [ 0.03074276302157, 47.265098644344825 ], [ 0.02753162590494, 47.264811759503608 ], [ 0.024302764293689, 47.264639312713484 ], [ 0.021065028273058, 47.264581777758814 ], [ 0.017827292252427, 47.264639312713484 ], [ 0.014598430641176, 47.264811759503608 ], [ 0.011387293524546, 47.265098644344825 ], [ 0.008202682406171, 47.265499179053222 ], [ 0.005053326083766, 47.266012263225981 ], [ 0.001947856724103, 47.266636487285602 ], [ -0.001105213797164, 47.267370136379085 ], [ -0.00409751722595, 47.268211195120919 ], [ -0.007020851866551, 47.269157353166491 ], [ -0.009867205061914, 47.27020601160001 ], [ -0.01262877515578, 47.271354290118921 ], [ -0.015297992876475, 47.2725990349944 ], [ -0.017867542083761, 47.273936827785356 ], [ -0.02033037982187, 47.275363994781365 ], [ -0.022679755623749, 47.276876617147821 ], [ -0.02490923001363, 47.278470541744632 ], [ -0.027012692157179, 47.280141392588014 ], [ -0.02898437661087, 47.281884582923055 ], [ -0.030818879124666, 47.283695327873147 ], [ -0.03251117145469, 47.285568657630748 ], [ -0.034056615145297, 47.287499431152497 ], [ -0.035450974242752, 47.289482350320291 ], [ -0.036690426905691, 47.291511974528852 ], [ -0.037771575880518, 47.293582735658958 ], [ -0.038691457813041, 47.295688953394723 ], [ -0.039447551370825, 47.297824850842275 ], [ -0.040037784153983, 47.299984570406508 ], [ -0.040460538375483, 47.302162189881976 ], [ -0.040714655295389, 47.304351738713287 ], [ -0.040799438396887, 47.306547214380274 ], [ -0.040714655295389, 47.308742598862743 ], [ -0.040460538375483, 47.310931875139566 ], [ -0.040037784153983, 47.313109043676718 ], [ -0.039447551370825, 47.315268138859395 ], [ -0.038691457813041, 47.317403245322993 ], [ -0.037771575880518, 47.319508514138612 ], [ -0.036690426905691, 47.321578178808963 ], [ -0.035450974242752, 47.323606571031185 ], [ -0.034056615145297, 47.325588136183974 ], [ -0.03251117145469, 47.327517448496913 ], [ -0.030818879124666, 47.329389225861235 ], [ -0.02898437661087, 47.331198344241912 ], [ -0.027012692157179, 47.332939851652448 ], [ -0.02490923001363, 47.334608981654704 ], [ -0.022679755623749, 47.336201166347671 ], [ -0.02033037982187, 47.33771204881031 ], [ -0.017867542083761, 47.339137494965293 ], [ -0.015297992876475, 47.340473604831878 ], [ -0.01262877515578, 47.341716723138141 ], [ -0.009867205061915, 47.342863449264016 ], [ -0.007020851866551, 47.343910646489007 ], [ -0.00409751722595, 47.344855450519859 ], [ -0.001105213797164, 47.345695277275652 ], [ 0.001947856724102, 47.346427829909665 ], [ 0.005053326083766, 47.347051105049417 ], [ 0.008202682406171, 47.347563398238471 ], [ 0.011387293524546, 47.347963308565497 ], [ 0.014598430641176, 47.348249742468546 ], [ 0.017827292252427, 47.348421916704268 ], [ 0.021065028273058, 47.348479360474464 ], [ 0.024302764293689, 47.348421916704268 ], [ 0.02753162590494, 47.348249742468546 ], [ 0.03074276302157, 47.347963308565497 ], [ 0.033927374139945, 47.347563398238471 ], [ 0.03707673046235, 47.347051105049417 ], [ 0.040182199822014, 47.346427829909665 ], [ 0.04323527034328, 47.345695277275652 ], [ 0.046227573772066, 47.344855450519859 ], [ 0.049150908412667, 47.343910646489007 ], [ 0.051997261608031, 47.342863449264016 ], [ 0.054758831701896, 47.341716723138141 ], [ 0.057428049422591, 47.340473604831878 ], [ 0.059997598629877, 47.339137494965293 ], [ 0.062460436367986, 47.33771204881031 ], [ 0.064809812169865, 47.336201166347671 ], [ 0.067039286559746, 47.334608981654704 ], [ 0.069142748703295, 47.332939851652448 ], [ 0.071114433156986, 47.331198344241912 ], [ 0.072948935670782, 47.329389225861235 ], [ 0.074641228000806, 47.327517448496913 ], [ 0.076186671691413, 47.325588136183974 ], [ 0.077581030788868, 47.323606571031185 ], [ 0.078820483451807, 47.321578178808963 ], [ 0.079901632426634, 47.319508514138612 ], [ 0.080821514359157, 47.317403245322993 ], [ 0.081577607916941, 47.315268138859395 ], [ 0.082167840700099, 47.313109043676718 ], [ 0.082590594921599, 47.310931875139566 ], [ 0.082844711841505, 47.308742598862743 ], [ 0.082929494943003, 47.306547214380274 ] ] ] } },
{ "type": "Feature", "properties": { "name": "Allonnes", "feature_type": "mrr", "metric_roundness": 52.74, "metric_rectangularity": 63.82, "metric_mobile_fit": 83.36, "metric_aspect_ratio": 0.729, "metric_area_km2": 78.55 }, "geometry": { "type": "Polygon", "coordinates": [ [ [ -0.043280476752414, 47.283356310993 ], [ 0.007139651924566, 47.353757716171799 ], [ 0.084542996435094, 47.328291967299322 ], [ 0.034122867758114, 47.257856615023798 ], [ -0.043280476752414, 47.283356310993 ] ] ] } }
]
}
