{
"type": "FeatureCollection",
"name": "almacelles",
"crs": { "type": "name", "properties": { "name": "urn:ogc:def:crs:OGC:1.3:CRS84" } },
"features": [
{ "type": "Feature", "properties": { "name": "Almacelles", "metric_roundness": 51.41, "metric_rectangularity": 74.71, "metric_mobile_fit": 26.47, "metric_aspect_ratio": 1.298, "metric_area_km2": 87.81 }, "geometry": { "type": "Polygon", "coordinates": [ [ [ 0.420938, 41.7230455 ], [ 0.4284105, 41.719581499999983 ], [ 0.4417995, 41.712372 ], [ 0.453981, 41.7052805 ], [ 0.4609615, 41.7025945 ], [ 0.469512, 41.699806499999987 ], [ 0.4928885, 41.6948015 ], [ 0.500106, 41.693832499999985 ], [ 0.5026285, 41.6940615 ], [ 0.518147, 41.717964 ], [ 0.5160718, 41.725691 ], [ 0.5055971, 41.725112 ], [ 0.493261, 41.7458305 ], [ 0.487148, 41.7458135 ], [ 0.48192, 41.748186 ], [ 0.4786545, 41.754226499999987 ], [ 0.474858, 41.7569435 ], [ 0.4674665, 41.762274 ], [ 0.464477, 41.763314 ], [ 0.4561195, 41.7641905 ], [ 0.448072, 41.764656 ], [ 0.4086265, 41.7590749 ], [ 0.398661, 41.755127 ], [ 0.3994735, 41.751617499999988 ], [ 0.3949875, 41.737919 ], [ 0.395558, 41.735527 ], [ 0.395492, 41.7319715 ], [ 0.420938, 41.7230455 ] ] ] } }
]
}
