{
"type": "FeatureCollection",
"name": "altable",
"crs": { "type": "name", "properties": { "name": "urn:ogc:def:crs:OGC:1.3:CRS84" } },
"features": [
{ "type": "Feature", "properties": { "name": "Altable", "feature_type": "entity", "metric_roundness": 48.89, "metric_rectangularity": 67.91, "metric_mobile_fit": 87.41, "metric_aspect_ratio": 0.688, "metric_area_km2": 15.45 }, "geometry": { "type": "Polygon", "coordinates": [ [ [ -3.0932947, 42.589185 ], [ -3.086221, 42.58218 ], [ -3.0796779, 42.5835755 ], [ -3.0683756, 42.5887099 ], [ -3.059854, 42.589157 ], [ -3.0648132, 42.594691 ], [ -3.0610354, 42.6021571 ], [ -3.0705196, 42.6202537 ], [ -3.078216, 42.6236955 ], [ -3.081046, 42.6156885 ], [ -3.084933, 42.612877 ], [ -3.0875005, 42.6092795 ], [ -3.0928325, 42.6038205 ], [ -3.0952425, 42.601852499999985 ], [ -3.0986805, 42.601807 ], [ -3.0932947, 42.589185 ] ] ] } },
{ "type": "Feature", "properties": { "name": "Altable", "feature_type": "circle", "metric_roundness": 48.89, "metric_rectangularity": 67.91, "metric_mobile_fit": 87.41, "metric_aspect_ratio": 0.688, "metric_area_km2": 15.45 }, "geometry": { "type": "Polygon", "coordinates": [ [ [ -3.05293493595728, 42.602858811058354 ], [ -3.052973987131391, 42.601761107097992 ], [ -3.053091033617171, 42.600666392607337 ], [ -3.05328575459834, 42.599577668360219 ], [ -3.05355761635822, 42.598497918867061 ], [ -3.053905873742626, 42.597430104190202 ], [ -3.054329572202275, 42.596377151824612 ], [ -3.054827550409139, 42.595341948666295 ], [ -3.055398443439567, 42.594327333090447 ], [ -3.056040686515445, 42.593336087161191 ], [ -3.056752519293145, 42.592370928994391 ], [ -3.057531990688501, 42.591434505294522 ], [ -3.058376964224598, 42.590529384086345 ], [ -3.059285123887709, 42.589658047661246 ], [ -3.060253980475321, 42.588822885758013 ], [ -3.061280878418872, 42.588026188996537 ], [ -3.062363003062479, 42.58727014258308 ], [ -3.06349738837771, 42.586556820304118 ], [ -3.064680925093267, 42.585888178825591 ], [ -3.065910369217277, 42.585266052313486 ], [ -3.067182350928857, 42.584692147390349 ], [ -3.068493383814549, 42.584168038442115 ], [ -3.06983987442434, 42.583695163287956 ], [ -3.071218132121064, 42.58327481922538 ], [ -3.072624379196176, 42.582908159461525 ], [ -3.074054761224188, 42.582596189940524 ], [ -3.075505357627389, 42.582339766575814 ], [ -3.076972192421865, 42.582139592895111 ], [ -3.078451245115404, 42.5819962181045 ], [ -3.079938461727379, 42.581910035577152 ], [ -3.081429765900435, 42.581881281770826 ], [ -3.08292107007349, 42.581910035577152 ], [ -3.084408286685465, 42.5819962181045 ], [ -3.085887339379005, 42.582139592895111 ], [ -3.087354174173481, 42.582339766575814 ], [ -3.088804770576681, 42.582596189940524 ], [ -3.090235152604694, 42.582908159461525 ], [ -3.091641399679805, 42.58327481922538 ], [ -3.093019657376529, 42.583695163287956 ], [ -3.094366147986321, 42.584168038442115 ], [ -3.095677180872013, 42.584692147390349 ], [ -3.096949162583592, 42.585266052313486 ], [ -3.098178606707603, 42.585888178825591 ], [ -3.099362143423159, 42.586556820304118 ], [ -3.100496528738391, 42.58727014258308 ], [ -3.101578653381997, 42.588026188996537 ], [ -3.102605551325549, 42.588822885758013 ], [ -3.103574407913161, 42.589658047661246 ], [ -3.104482567576271, 42.590529384086345 ], [ -3.105327541112369, 42.591434505294522 ], [ -3.106107012507724, 42.592370928994391 ], [ -3.106818845285424, 42.593336087161191 ], [ -3.107461088361302, 42.594327333090447 ], [ -3.108031981391731, 42.595341948666295 ], [ -3.108529959598595, 42.596377151824612 ], [ -3.108953658058243, 42.597430104190202 ], [ -3.10930191544265, 42.598497918867061 ], [ -3.10957377720253, 42.599577668360219 ], [ -3.109768498183698, 42.600666392607337 ], [ -3.109885544669478, 42.601761107097992 ], [ -3.109924595843589, 42.602858811058354 ], [ -3.109885544669478, 42.603956495678673 ], [ -3.109768498183698, 42.605051152361057 ], [ -3.10957377720253, 42.606139780965052 ], [ -3.10930191544265, 42.607219398028128 ], [ -3.108953658058243, 42.608287044938869 ], [ -3.108529959598595, 42.609339796040381 ], [ -3.108031981391731, 42.610374766641755 ], [ -3.107461088361302, 42.611389120915746 ], [ -3.106818845285424, 42.612380079661101 ], [ -3.106107012507725, 42.613344927908408 ], [ -3.105327541112369, 42.61428102234872 ], [ -3.104482567576271, 42.615185798564745 ], [ -3.103574407913161, 42.616056778044872 ], [ -3.102605551325549, 42.616891574961102 ], [ -3.101578653381997, 42.617687902692388 ], [ -3.100496528738391, 42.618443580075656 ], [ -3.099362143423159, 42.619156537367616 ], [ -3.098178606707603, 42.619824821901183 ], [ -3.096949162583592, 42.620446603421136 ], [ -3.095677180872013, 42.621020179084738 ], [ -3.094366147986321, 42.621543978113493 ], [ -3.093019657376529, 42.622016566083772 ], [ -3.091641399679805, 42.622436648844506 ], [ -3.090235152604694, 42.62280307605144 ], [ -3.088804770576681, 42.623114844308382 ], [ -3.087354174173481, 42.623371099906976 ], [ -3.085887339379005, 42.623571141157612 ], [ -3.084408286685465, 42.623714420305106 ], [ -3.08292107007349, 42.623800545024189 ], [ -3.081429765900435, 42.623829279490465 ], [ -3.079938461727379, 42.623800545024189 ], [ -3.078451245115404, 42.623714420305106 ], [ -3.076972192421865, 42.623571141157612 ], [ -3.075505357627389, 42.623371099906976 ], [ -3.074054761224188, 42.623114844308382 ], [ -3.072624379196176, 42.62280307605144 ], [ -3.071218132121064, 42.622436648844506 ], [ -3.06983987442434, 42.622016566083772 ], [ -3.068493383814549, 42.621543978113493 ], [ -3.067182350928857, 42.621020179084738 ], [ -3.065910369217277, 42.620446603421136 ], [ -3.064680925093267, 42.619824821901183 ], [ -3.06349738837771, 42.619156537367616 ], [ -3.062363003062479, 42.618443580075656 ], [ -3.061280878418872, 42.617687902692388 ], [ -3.060253980475321, 42.616891574961102 ], [ -3.059285123887709, 42.616056778044872 ], [ -3.058376964224598, 42.615185798564745 ], [ -3.057531990688501, 42.61428102234872 ], [ -3.056752519293145, 42.613344927908408 ], [ -3.056040686515445, 42.612380079661101 ], [ -3.055398443439567, 42.611389120915746 ], [ -3.054827550409139, 42.610374766641755 ], [ -3.054329572202275, 42.609339796040381 ], [ -3.053905873742626, 42.608287044938869 ], [ -3.05355761635822, 42.607219398028128 ], [ -3.05328575459834, 42.606139780965052 ], [ -3.053091033617171, 42.605051152361057 ], [ -3.052973987131391, 42.603956495678673 ], [ -3.05293493595728, 42.602858811058354 ] ] ] } },
{ "type": "Feature", "properties": { "name": "Altable", "feature_type": "mrr", "metric_roundness": 48.89, "metric_rectangularity": 67.91, "metric_mobile_fit": 87.41, "metric_aspect_ratio": 0.688, "metric_area_km2": 15.45 }, "geometry": { "type": "Polygon", "coordinates": [ [ [ -3.054993013347919, 42.590525553778605 ], [ -3.089015592308917, 42.580946260886776 ], [ -3.107013846181615, 42.61559167787405 ], [ -3.072991267220619, 42.625165645723975 ], [ -3.054993013347919, 42.590525553778605 ] ] ] } }
]
}
