{
"type": "FeatureCollection",
"name": "altbach",
"crs": { "type": "name", "properties": { "name": "urn:ogc:def:crs:OGC:1.3:CRS84" } },
"features": [
{ "type": "Feature", "properties": { "name": "Altbach", "metric_roundness": 60.89, "metric_rectangularity": 73.23, "metric_mobile_fit": 64.57, "metric_aspect_ratio": 0.917, "metric_area_km2": 7.39 }, "geometry": { "type": "Polygon", "coordinates": [ [ [ 9.394136, 48.726206 ], [ 9.3904434, 48.73580879999998 ], [ 9.3847018, 48.7378848 ], [ 9.3815902, 48.7337217 ], [ 9.3742846, 48.7342023 ], [ 9.3751953, 48.731324699999981 ], [ 9.3637348, 48.7209352 ], [ 9.365918, 48.71905 ], [ 9.3738734, 48.716010399999988 ], [ 9.3886005, 48.718587 ], [ 9.394136, 48.726206 ] ] ] } }
]
}
