{
"type": "FeatureCollection",
"name": "altentreptow_stadt",
"crs": { "type": "name", "properties": { "name": "urn:ogc:def:crs:OGC:1.3:CRS84" } },
"features": [
{ "type": "Feature", "properties": { "name": "Altentreptow, Stadt", "metric_roundness": 52.73, "metric_rectangularity": 61.06, "metric_mobile_fit": 68.35, "metric_aspect_ratio": 0.879, "metric_area_km2": 152.14 }, "geometry": { "type": "Polygon", "coordinates": [ [ [ 13.1927055, 53.660549499999981 ], [ 13.1928765, 53.663324 ], [ 13.1930255, 53.6687295 ], [ 13.2013705, 53.666699 ], [ 13.2033225, 53.66627 ], [ 13.2100395, 53.6651265 ], [ 13.2167255, 53.664675 ], [ 13.221699, 53.664779499999987 ], [ 13.2319085, 53.663907 ], [ 13.246989, 53.6612985 ], [ 13.252984, 53.659870499999982 ], [ 13.25379, 53.65729 ], [ 13.26126, 53.655052499999989 ], [ 13.2591555, 53.6525715 ], [ 13.260663, 53.6513055 ], [ 13.2633425, 53.65183649999998 ], [ 13.265138, 53.649175 ], [ 13.2705469, 53.6548825 ], [ 13.2697358, 53.6626401 ], [ 13.307386, 53.671923 ], [ 13.3089465, 53.672409 ], [ 13.3027101, 53.6807781 ], [ 13.3015714, 53.688174499999981 ], [ 13.3158015, 53.7027735 ], [ 13.2590847, 53.705367899999985 ], [ 13.256507, 53.7115726 ], [ 13.2701085, 53.7234885 ], [ 13.2564423, 53.7242759 ], [ 13.266511, 53.735731 ], [ 13.2333605, 53.74559150000001 ], [ 13.2244749, 53.7480906 ], [ 13.22201, 53.7430041 ], [ 13.215817, 53.739788 ], [ 13.2021893, 53.715476099999982 ], [ 13.2050346, 53.7011931 ], [ 13.1819587, 53.698047 ], [ 13.184399, 53.686185899999984 ], [ 13.168932, 53.681786 ], [ 13.17054, 53.669473499999974 ], [ 13.178053, 53.6626759 ], [ 13.192196, 53.658178 ], [ 13.1927055, 53.660549499999981 ] ] ] } }
]
}
