{
"type": "FeatureCollection",
"name": "altina",
"crs": { "type": "name", "properties": { "name": "urn:ogc:def:crs:OGC:1.3:CRS84" } },
"features": [
{ "type": "Feature", "properties": { "name": "Alţina", "feature_type": "entity", "metric_roundness": 44.63, "metric_rectangularity": 63.83, "metric_mobile_fit": 18.29, "metric_aspect_ratio": 1.38, "metric_area_km2": 165.19 }, "geometry": { "type": "Polygon", "coordinates": [ [ [ 24.408259, 45.9926071 ], [ 24.3962991, 45.978698 ], [ 24.3930014, 45.969858399999985 ], [ 24.3809642, 45.9661463 ], [ 24.3788152, 45.9605034 ], [ 24.38833, 45.944185499999989 ], [ 24.4083656, 45.94172 ], [ 24.4126725, 45.945184699999984 ], [ 24.4163214, 45.9332451 ], [ 24.4345323, 45.9183038 ], [ 24.4614005, 45.9106752 ], [ 24.476004, 45.900454 ], [ 24.4857681, 45.901616 ], [ 24.507589, 45.913696499999986 ], [ 24.5149385, 45.9071265 ], [ 24.5399405, 45.9198539 ], [ 24.5629539, 45.918432 ], [ 24.5651651, 45.9280632 ], [ 24.5693453, 45.9314777 ], [ 24.5666205, 45.9435378 ], [ 24.5548318, 45.943086799999982 ], [ 24.5315358, 45.949280599999987 ], [ 24.5271815, 45.957734599999974 ], [ 24.530944, 45.966296 ], [ 24.5103977, 45.9748139 ], [ 24.4956004, 45.971416199999986 ], [ 24.4713634, 45.974067 ], [ 24.472566, 45.9631184 ], [ 24.4624661, 45.967799699999986 ], [ 24.4359059, 45.9689123 ], [ 24.432185, 45.9739426 ], [ 24.4334054, 45.9825911 ], [ 24.4286299, 45.987640499999983 ], [ 24.429315, 45.996481499999987 ], [ 24.408259, 45.9926071 ] ] ] } },
{ "type": "Feature", "properties": { "name": "Alţina", "feature_type": "circle", "metric_roundness": 44.63, "metric_rectangularity": 63.83, "metric_mobile_fit": 18.29, "metric_aspect_ratio": 1.38, "metric_area_km2": 165.19 }, "geometry": { "type": "Polygon", "coordinates": [ [ [ 24.571604902269044, 45.945992449749667 ], [ 24.571471248122535, 45.942443308653935 ], [ 24.571070652019742, 45.93890366922323 ], [ 24.570404211966729, 45.935383236152042 ], [ 24.56947375462936, 45.931891663317472 ], [ 24.568281830326534, 45.928438527268071 ], [ 24.566831706039892, 45.925033300905177 ], [ 24.565127356459328, 45.921685327429692 ], [ 24.563173453088559, 45.918403794626578 ], [ 24.56097535144092, 45.915197709558868 ], [ 24.558539076360237, 45.912075873741756 ], [ 24.555871305507161, 45.909046858866432 ], [ 24.552979351056162, 45.906118983141802 ], [ 24.54987113965338, 45.903300288320743 ], [ 24.546555190690224, 45.900598517475856 ], [ 24.543040592952298, 45.898021093587474 ], [ 24.53933697970772, 45.895575099004752 ], [ 24.535454502302954, 45.893267255838396 ], [ 24.531403802338698, 45.891103907340622 ], [ 24.527195982501986, 45.889091000325813 ], [ 24.522842576134522, 45.887234068681863 ], [ 24.518355515620549, 45.885538218019818 ], [ 24.513747099681041, 45.884008111505651 ], [ 24.509029959663771, 45.882647956914916 ], [ 24.50421702492164, 45.881461494947679 ], [ 24.499321487374228, 45.880451988837358 ], [ 24.494356765349668, 45.879622215283419 ], [ 24.489336466805938, 45.878974456734241 ], [ 24.48427435203239, 45.878510495042313 ], [ 24.479184295933756, 45.878231606510354 ], [ 24.47408025, 45.878138558342378 ], [ 24.468976204066237, 45.878231606510354 ], [ 24.463886147967603, 45.878510495042313 ], [ 24.458824033194055, 45.878974456734241 ], [ 24.453803734650325, 45.879622215283419 ], [ 24.448839012625765, 45.880451988837358 ], [ 24.443943475078353, 45.881461494947679 ], [ 24.439130540336219, 45.882647956914916 ], [ 24.434413400318952, 45.884008111505651 ], [ 24.429804984379444, 45.885538218019818 ], [ 24.425317923865471, 45.887234068681863 ], [ 24.420964517498007, 45.889091000325813 ], [ 24.416756697661295, 45.891103907340622 ], [ 24.412705997697039, 45.893267255838396 ], [ 24.40882352029227, 45.895575099004752 ], [ 24.405119907047691, 45.898021093587474 ], [ 24.401605309309769, 45.900598517475856 ], [ 24.398289360346613, 45.903300288320743 ], [ 24.395181148943831, 45.906118983141802 ], [ 24.392289194492832, 45.909046858866432 ], [ 24.389621423639756, 45.912075873741756 ], [ 24.387185148559073, 45.915197709558868 ], [ 24.384987046911434, 45.918403794626578 ], [ 24.383033143540665, 45.921685327429692 ], [ 24.381328793960101, 45.925033300905177 ], [ 24.379878669673463, 45.928438527268071 ], [ 24.378686745370633, 45.931891663317472 ], [ 24.377756288033265, 45.935383236152042 ], [ 24.377089847980251, 45.93890366922323 ], [ 24.376689251877458, 45.942443308653935 ], [ 24.376555597730949, 45.945992449749667 ], [ 24.376689251877458, 45.949541363629002 ], [ 24.377089847980251, 45.953080323899911 ], [ 24.377756288033265, 45.956599633308933 ], [ 24.378686745370633, 45.96008965029008 ], [ 24.379878669673463, 45.963540815341048 ], [ 24.381328793960101, 45.966943677155236 ], [ 24.383033143540665, 45.970288918438229 ], [ 24.384987046911434, 45.973567381339585 ], [ 24.387185148559073, 45.976770092430783 ], [ 24.389621423639756, 45.979888287162666 ], [ 24.392289194492832, 45.982913433736556 ], [ 24.395181148943831, 45.985837256325496 ], [ 24.398289360346613, 45.988651757583618 ], [ 24.401605309309769, 45.991349240383919 ], [ 24.405119907047691, 45.993922328726775 ], [ 24.40882352029227, 45.996363987764184 ], [ 24.412705997697039, 45.998667542886558 ], [ 24.416756697661295, 46.00082669782239 ], [ 24.420964517498007, 46.002835551702844 ], [ 24.425317923865471, 46.004688615046973 ], [ 24.429804984379444, 46.006380824625595 ], [ 24.434413400318952, 46.007907557165197 ], [ 24.439130540336219, 46.00926464185617 ], [ 24.443943475078353, 46.010448371632862 ], [ 24.448839012625765, 46.011455513196289 ], [ 24.453803734650325, 46.012283315753422 ], [ 24.458824033194055, 46.012929518450498 ], [ 24.463886147967603, 46.013392356481248 ], [ 24.46897620406623, 46.013670565854028 ], [ 24.47408025, 46.013763386805792 ], [ 24.479184295933756, 46.013670565854028 ], [ 24.48427435203239, 46.013392356481248 ], [ 24.489336466805938, 46.012929518450498 ], [ 24.494356765349668, 46.012283315753422 ], [ 24.499321487374228, 46.011455513196289 ], [ 24.50421702492164, 46.010448371632862 ], [ 24.509029959663771, 46.00926464185617 ], [ 24.513747099681041, 46.007907557165197 ], [ 24.518355515620549, 46.006380824625595 ], [ 24.522842576134522, 46.004688615046973 ], [ 24.527195982501986, 46.002835551702844 ], [ 24.531403802338698, 46.00082669782239 ], [ 24.535454502302954, 45.998667542886558 ], [ 24.53933697970772, 45.996363987764184 ], [ 24.543040592952298, 45.993922328726775 ], [ 24.546555190690224, 45.991349240383919 ], [ 24.54987113965338, 45.988651757583618 ], [ 24.552979351056162, 45.985837256325496 ], [ 24.555871305507161, 45.982913433736556 ], [ 24.558539076360237, 45.979888287162666 ], [ 24.56097535144092, 45.976770092430783 ], [ 24.563173453088559, 45.973567381339585 ], [ 24.565127356459328, 45.970288918438229 ], [ 24.566831706039892, 45.966943677155236 ], [ 24.568281830326534, 45.963540815341048 ], [ 24.56947375462936, 45.96008965029008 ], [ 24.570404211966729, 45.956599633308933 ], [ 24.571070652019742, 45.953080323899911 ], [ 24.571471248122535, 45.949541363629002 ], [ 24.571604902269044, 45.945992449749667 ] ] ] } },
{ "type": "Feature", "properties": { "name": "Alţina", "feature_type": "mrr", "metric_roundness": 44.63, "metric_rectangularity": 63.83, "metric_mobile_fit": 18.29, "metric_aspect_ratio": 1.38, "metric_area_km2": 165.19 }, "geometry": { "type": "Polygon", "coordinates": [ [ [ 24.527330722962954, 45.878354563230104 ], [ 24.365008543061865, 45.948214589087243 ], [ 24.422567533024822, 46.012874775224105 ], [ 24.584889712925911, 45.943096238848035 ], [ 24.527330722962954, 45.878354563230104 ] ] ] } }
]
}
