{
"type": "FeatureCollection",
"name": "gisikon",
"crs": { "type": "name", "properties": { "name": "urn:ogc:def:crs:OGC:1.3:CRS84" } },
"features": [
{ "type": "Feature", "properties": { "name": "Gisikon", "feature_type": "entity", "metric_roundness": 51.64, "metric_rectangularity": 62.96, "metric_mobile_fit": 59.42, "metric_aspect_ratio": 0.968, "metric_area_km2": 2.23 }, "geometry": { "type": "Polygon", "coordinates": [ [ [ 8.402275, 47.130116 ], [ 8.3994435, 47.133198 ], [ 8.3957195, 47.123963499999988 ], [ 8.3956595, 47.122075 ], [ 8.408557, 47.120375 ], [ 8.4139095, 47.1248005 ], [ 8.402275, 47.130116 ] ] ] } },
{ "type": "Feature", "properties": { "name": "Gisikon", "feature_type": "circle", "metric_roundness": 51.64, "metric_rectangularity": 62.96, "metric_mobile_fit": 59.42, "metric_aspect_ratio": 0.968, "metric_area_km2": 2.23 }, "geometry": { "type": "Polygon", "coordinates": [ [ [ 8.414271069841558, 47.126661516988669 ], [ 8.414256643645771, 47.126286684715033 ], [ 8.414213404599616, 47.12591287720015 ], [ 8.41414147121831, 47.125541119056869 ], [ 8.41404104066625, 47.125172429302062 ], [ 8.413912388216602, 47.124807818563021 ], [ 8.413755866496786, 47.124448286306539 ], [ 8.413571904521953, 47.124094818098449 ], [ 8.413361006519095, 47.12374838290102 ], [ 8.413123750544974, 47.123409930415605 ], [ 8.412860786901728, 47.123080388478051 ], [ 8.412572836354419, 47.122760660513769 ], [ 8.412260688155486, 47.122451623059597 ], [ 8.411925197881445, 47.122154123359259 ], [ 8.411567285087814, 47.121868977038972 ], [ 8.411187930788687, 47.121596965869763 ], [ 8.410788174767827, 47.121338835622339 ], [ 8.4103691127287, 47.121095294020812 ], [ 8.409931893291228, 47.120867008800523 ], [ 8.409477714843497, 47.120654605875636 ], [ 8.409007822257063, 47.120458667621342 ], [ 8.408523503474843, 47.120279731275495 ], [ 8.408026085980957, 47.120118287464038 ], [ 8.407516933162176, 47.119974778854356 ], [ 8.406997440570992, 47.119849598940149 ], [ 8.406469032100482, 47.119743090961336 ], [ 8.405933156081538, 47.119655546961773 ], [ 8.405391281313078, 47.119587206987617 ], [ 8.404844893036177, 47.119538258428271 ], [ 8.404295488863125, 47.119508835501982 ], [ 8.403744574672569, 47.119499018887382 ], [ 8.403193660482014, 47.119508835501982 ], [ 8.40264425630896, 47.119538258428271 ], [ 8.40209786803206, 47.119587206987617 ], [ 8.401555993263598, 47.119655546961773 ], [ 8.401020117244654, 47.119743090961336 ], [ 8.400491708774146, 47.119849598940149 ], [ 8.39997221618296, 47.119974778854356 ], [ 8.39946306336418, 47.120118287464038 ], [ 8.398965645870293, 47.120279731275495 ], [ 8.398481327088074, 47.120458667621342 ], [ 8.39801143450164, 47.120654605875636 ], [ 8.39755725605391, 47.120867008800523 ], [ 8.397120036616437, 47.121095294020812 ], [ 8.396700974577309, 47.121338835622339 ], [ 8.396301218556451, 47.121596965869763 ], [ 8.395921864257321, 47.121868977038972 ], [ 8.395563951463693, 47.122154123359259 ], [ 8.395228461189651, 47.122451623059597 ], [ 8.394916312990718, 47.122760660513769 ], [ 8.394628362443411, 47.123080388478051 ], [ 8.394365398800163, 47.123409930415605 ], [ 8.394128142826043, 47.12374838290102 ], [ 8.393917244823184, 47.124094818098449 ], [ 8.393733282848354, 47.124448286306539 ], [ 8.393576761128536, 47.124807818563021 ], [ 8.393448108678887, 47.125172429302062 ], [ 8.393347678126828, 47.125541119056869 ], [ 8.393275744745523, 47.12591287720015 ], [ 8.393232505699366, 47.126286684715033 ], [ 8.393218079503582, 47.126661516988669 ], [ 8.393232505699366, 47.127036346621004 ], [ 8.393275744745523, 47.12741014624094 ], [ 8.393347678126828, 47.127781891322101 ], [ 8.393448108678887, 47.128150562990733 ], [ 8.393576761128536, 47.128515150817726 ], [ 8.393733282848354, 47.128874655587268 ], [ 8.393917244823184, 47.12922809203473 ], [ 8.394128142826043, 47.129574491545796 ], [ 8.394365398800163, 47.129912904810098 ], [ 8.394628362443411, 47.130242404421487 ], [ 8.394916312990718, 47.130562087418319 ], [ 8.395228461189651, 47.13087107775641 ], [ 8.395563951463693, 47.131168528708265 ], [ 8.395921864257321, 47.131453625181742 ], [ 8.396301218556451, 47.131725585951976 ], [ 8.396700974577309, 47.131983665800398 ], [ 8.397120036616437, 47.132227157555135 ], [ 8.39755725605391, 47.132455394026941 ], [ 8.39801143450164, 47.132667749835754 ], [ 8.398481327088074, 47.132863643122597 ], [ 8.398965645870293, 47.133042537142288 ], [ 8.39946306336418, 47.133203941732631 ], [ 8.39997221618296, 47.133347414655937 ], [ 8.400491708774146, 47.133472562809516 ], [ 8.401020117244654, 47.133579043301403 ], [ 8.401555993263598, 47.133666564388896 ], [ 8.40209786803206, 47.133734886276891 ], [ 8.40264425630896, 47.133783821774124 ], [ 8.403193660482014, 47.133813236805452 ], [ 8.403744574672569, 47.133823050778751 ], [ 8.404295488863125, 47.133813236805452 ], [ 8.404844893036177, 47.133783821774124 ], [ 8.405391281313078, 47.133734886276891 ], [ 8.405933156081538, 47.133666564388896 ], [ 8.406469032100482, 47.133579043301403 ], [ 8.406997440570992, 47.133472562809516 ], [ 8.407516933162176, 47.133347414655937 ], [ 8.408026085980957, 47.133203941732631 ], [ 8.408523503474843, 47.133042537142288 ], [ 8.409007822257063, 47.132863643122597 ], [ 8.409477714843497, 47.132667749835754 ], [ 8.409931893291228, 47.132455394026941 ], [ 8.4103691127287, 47.132227157555135 ], [ 8.410788174767827, 47.131983665800398 ], [ 8.411187930788687, 47.131725585951976 ], [ 8.411567285087814, 47.131453625181742 ], [ 8.411925197881445, 47.131168528708265 ], [ 8.412260688155486, 47.13087107775641 ], [ 8.412572836354419, 47.130562087418319 ], [ 8.412860786901728, 47.130242404421487 ], [ 8.413123750544974, 47.129912904810098 ], [ 8.413361006519095, 47.129574491545796 ], [ 8.413571904521953, 47.12922809203473 ], [ 8.413755866496786, 47.128874655587268 ], [ 8.413912388216602, 47.128515150817726 ], [ 8.41404104066625, 47.128150562990733 ], [ 8.41414147121831, 47.127781891322101 ], [ 8.414213404599616, 47.12741014624094 ], [ 8.414256643645771, 47.127036346621004 ], [ 8.414271069841558, 47.126661516988669 ] ] ] } },
{ "type": "Feature", "properties": { "name": "Gisikon", "feature_type": "mrr", "metric_roundness": 51.64, "metric_rectangularity": 62.96, "metric_mobile_fit": 59.42, "metric_aspect_ratio": 0.968, "metric_area_km2": 2.23 }, "geometry": { "type": "Polygon", "coordinates": [ [ [ 8.3994435, 47.133198 ], [ 8.414023448639403, 47.124734345150351 ], [ 8.404356881555589, 47.117025278441027 ], [ 8.389776930225562, 47.125490158887516 ], [ 8.3994435, 47.133198 ] ] ] } }
]
}
