{
"type": "FeatureCollection",
"name": "hluk",
"crs": { "type": "name", "properties": { "name": "urn:ogc:def:crs:OGC:1.3:CRS84" } },
"features": [
{ "type": "Feature", "properties": { "name": "Hluk", "metric_roundness": 36.4, "metric_rectangularity": 61.49, "metric_mobile_fit": 99.56, "metric_aspect_ratio": 0.567, "metric_area_km2": 65.44 }, "geometry": { "type": "Polygon", "coordinates": [ [ [ 17.534323, 49.014368399999981 ], [ 17.52487, 49.026507 ], [ 17.5169492, 49.0245965 ], [ 17.51081, 49.0280328 ], [ 17.5076765, 49.018549499999985 ], [ 17.5141036, 49.009140599999981 ], [ 17.4957372, 49.001017499999982 ], [ 17.4943415, 48.99433 ], [ 17.495837, 48.98123 ], [ 17.4988555, 48.9664 ], [ 17.5008765, 48.96471649999998 ], [ 17.503979, 48.960793 ], [ 17.5074985, 48.956136499999985 ], [ 17.508614, 48.953051499999987 ], [ 17.513382, 48.954278499999987 ], [ 17.517098, 48.954865499999975 ], [ 17.5189885, 48.956159 ], [ 17.52097, 48.956831499999979 ], [ 17.52303, 48.956962 ], [ 17.5248535, 48.956094 ], [ 17.5429675, 48.949874 ], [ 17.5490315, 48.947257 ], [ 17.5511535, 48.945317 ], [ 17.5531165, 48.94325 ], [ 17.567575, 48.9546925 ], [ 17.5565425, 48.973762 ], [ 17.5444892, 48.9794651 ], [ 17.5399421, 48.987417199999989 ], [ 17.5407599, 48.992686599999985 ], [ 17.5507827, 48.998465499999988 ], [ 17.5510283, 49.005985 ], [ 17.546446, 49.012123 ], [ 17.534323, 49.014368399999981 ] ] ] } }
]
}
