{
"type": "FeatureCollection",
"name": "bad_bleiberg",
"crs": { "type": "name", "properties": { "name": "urn:ogc:def:crs:OGC:1.3:CRS84" } },
"features": [
{ "type": "Feature", "properties": { "name": "Bad Bleiberg", "metric_roundness": 22.01, "metric_rectangularity": 45.55, "metric_mobile_fit": -54.14, "metric_aspect_ratio": 2.104, "metric_area_km2": 94.86 }, "geometry": { "type": "Polygon", "coordinates": [ [ [ 13.761660150800454, 46.635129622534706 ], [ 13.761673666297602, 46.635120933249532 ], [ 13.761736829107223, 46.634934078197574 ], [ 13.761746143890278, 46.63490650943298 ], [ 13.7616752629147, 46.634733210761915 ], [ 13.761540547719401, 46.634630247701267 ], [ 13.761464318669614, 46.634571961466037 ], [ 13.761421998055937, 46.634539550100023 ], [ 13.761376130572758, 46.634504632798709 ], [ 13.761311229124743, 46.634441714543911 ], [ 13.76123039822466, 46.634363290496317 ], [ 13.761216729490325, 46.6343528149375 ], [ 13.761143000244694, 46.63429667847651 ], [ 13.761077419967254, 46.634246809516938 ], [ 13.761047718511946, 46.634224247724639 ], [ 13.760972544888887, 46.634167126875148 ], [ 13.760927802901309, 46.634109530599687 ], [ 13.760722441719023, 46.633845413598387 ], [ 13.760717294365884, 46.633838774727977 ], [ 13.760706618530413, 46.633777809950125 ], [ 13.760602634180673, 46.633188216773831 ], [ 13.760601953774694, 46.633184800179677 ], [ 13.760517196627456, 46.633056002701316 ], [ 13.760482045710887, 46.633005208249791 ], [ 13.76040355171236, 46.632891863210233 ], [ 13.76024293271956, 46.632782878288715 ], [ 13.760225597269994, 46.632771156808694 ], [ 13.760188561655179, 46.632746013211211 ], [ 13.760128868484326, 46.632582388904048 ], [ 13.760111375781747, 46.632534586722876 ], [ 13.760102160079972, 46.632509157778557 ], [ 13.760068775215819, 46.632417686345114 ], [ 13.760053152879028, 46.632375095811831 ], [ 13.759995997497663, 46.632218390158187 ], [ 13.759957226334443, 46.632188484211717 ], [ 13.759795042286436, 46.632063038576405 ], [ 13.759777693534936, 46.632049607493165 ], [ 13.759768362502331, 46.632042444544261 ], [ 13.759705934643531, 46.631994272469825 ], [ 13.75979719687466, 46.631907368054804 ], [ 13.759862272148833, 46.631845306705266 ], [ 13.759951935011944, 46.631803577297724 ], [ 13.760022439247402, 46.631799891184073 ], [ 13.760163317793486, 46.631792609294799 ], [ 13.760309230774705, 46.631712425772697 ], [ 13.760290810886143, 46.631564841260207 ], [ 13.760237338343913, 46.631362232881742 ], [ 13.760140786832025, 46.631244457182603 ], [ 13.759989247344363, 46.631159551715683 ], [ 13.759542805377624, 46.631094567285992 ], [ 13.759355357368559, 46.63110922273588 ], [ 13.759346225264199, 46.631110606933966 ], [ 13.759008711002384, 46.631159570874999 ], [ 13.758940710379507, 46.631182322287678 ], [ 13.758775919470702, 46.631237471380373 ], [ 13.758766409808278, 46.631240656521541 ], [ 13.758773309476146, 46.631303435280536 ], [ 13.758758236424837, 46.631313299814444 ], [ 13.758704180656926, 46.631348595389824 ], [ 13.758700572166417, 46.631354727531139 ], [ 13.75858545323535, 46.631546095836676 ], [ 13.758324432641633, 46.63172091851122 ], [ 13.758219062531181, 46.631791498880915 ], [ 13.758180933277798, 46.631792902335498 ], [ 13.758150899940787, 46.63179400532217 ], [ 13.758053177700081, 46.631775028360529 ], [ 13.757731481057423, 46.631678164108287 ], [ 13.757715769575777, 46.631673454433049 ], [ 13.757706223356434, 46.63167205073227 ], [ 13.757488091489298, 46.631639040179763 ], [ 13.757310679773578, 46.631634848996171 ], [ 13.757038339172956, 46.631552013625914 ], [ 13.756897552168446, 46.631438900403793 ], [ 13.756733075916308, 46.631352689530821 ], [ 13.756302165719694, 46.631252902330665 ], [ 13.756180207804139, 46.631224656985481 ], [ 13.756041592872348, 46.63107203412077 ], [ 13.755956737668937, 46.630978595100004 ], [ 13.755874255812349, 46.630887936442413 ], [ 13.755724444004239, 46.630723118147493 ], [ 13.755608629149213, 46.630595963111432 ], [ 13.755572142764068, 46.630524117268259 ], [ 13.755559727630054, 46.630523264006307 ], [ 13.755469687043288, 46.630517302877507 ], [ 13.754786570814792, 46.630467402604943 ], [ 13.754668193625193, 46.630246768848984 ], [ 13.754378340545328, 46.630111445320466 ], [ 13.754320788906512, 46.630084486934763 ], [ 13.754313990823123, 46.630083702528687 ], [ 13.754229404148203, 46.630073581040477 ], [ 13.754081280294708, 46.630055958624752 ], [ 13.753831834992608, 46.6300261172156 ], [ 13.753552974086571, 46.630075835701312 ], [ 13.753432240872812, 46.630036695474985 ], [ 13.75336087485501, 46.630013567187234 ], [ 13.753132964794958, 46.630064804286285 ], [ 13.752758999617088, 46.630012479900465 ], [ 13.752741591137017, 46.63000777585308 ], [ 13.752713841921807, 46.630000230987669 ], [ 13.752513969437544, 46.629945908046885 ], [ 13.752261045350714, 46.629771931062066 ], [ 13.752042017920502, 46.629706521209364 ], [ 13.751968834985741, 46.629684748469558 ], [ 13.751949477410308, 46.629681311236503 ], [ 13.751473659079659, 46.629598228499965 ], [ 13.751292581628, 46.629491736297538 ], [ 13.751195587098456, 46.629464742666798 ], [ 13.751059264346697, 46.629369061455137 ], [ 13.751037270451128, 46.629195305162966 ], [ 13.751155661726953, 46.629002043007709 ], [ 13.751126576674611, 46.628957161768689 ], [ 13.750930788723293, 46.628906689964396 ], [ 13.750836906117431, 46.628876625240544 ], [ 13.750662105693378, 46.628820856473034 ], [ 13.75042736851189, 46.628750013027307 ], [ 13.750412840307039, 46.628746107765068 ], [ 13.750346872875644, 46.628728176334683 ], [ 13.750287057321353, 46.628711931686894 ], [ 13.750173447541075, 46.628681129606719 ], [ 13.750026732095352, 46.628642441788493 ], [ 13.749941133770399, 46.628535594318436 ], [ 13.749836412243697, 46.628404973263031 ], [ 13.749804365334594, 46.628365321371916 ], [ 13.749755121255866, 46.628046080927213 ], [ 13.749738017217531, 46.628030038048109 ], [ 13.749680783120473, 46.627976172676064 ], [ 13.749640916418695, 46.627938619133175 ], [ 13.749584798107552, 46.627927399234324 ], [ 13.749561644684759, 46.627922805901541 ], [ 13.749433710409861, 46.62789718475446 ], [ 13.74923048534917, 46.627595068611733 ], [ 13.749116634402732, 46.627532863998916 ], [ 13.74894467955251, 46.627439111322651 ], [ 13.7487782667686, 46.627386188029291 ], [ 13.7487245859494, 46.627369200117556 ], [ 13.748692245892673, 46.627358881873889 ], [ 13.74866894052643, 46.62735149959704 ], [ 13.748599831536811, 46.627231453547815 ], [ 13.748414599053932, 46.627008540403367 ], [ 13.748369271666885, 46.62700762763771 ], [ 13.748056692848337, 46.627002660071632 ], [ 13.74783596338688, 46.626850329518277 ], [ 13.747754253181164, 46.626755523198263 ], [ 13.747445382928326, 46.626605225628097 ], [ 13.74726800584515, 46.626518868559785 ], [ 13.746874741934235, 46.626500337486931 ], [ 13.746863121018835, 46.626483824163763 ], [ 13.746831559515508, 46.62643895093462 ], [ 13.746707955947626, 46.626263317297962 ], [ 13.746636513210857, 46.626161634176974 ], [ 13.746613649001546, 46.626143632443039 ], [ 13.746577512146882, 46.626115061967113 ], [ 13.746264243169856, 46.625867780923222 ], [ 13.746390817568889, 46.625802712683829 ], [ 13.746411630770158, 46.625791928984604 ], [ 13.746385469794276, 46.625752884414027 ], [ 13.746363800651761, 46.625720481751955 ], [ 13.74627642144751, 46.625719722294932 ], [ 13.746271719181495, 46.625719649550589 ], [ 13.746173368257899, 46.625718750268085 ], [ 13.746045340246765, 46.625663162940718 ], [ 13.746034367842185, 46.625662933197511 ], [ 13.745914974612033, 46.625660041266954 ], [ 13.745732352495786, 46.625604113618145 ], [ 13.745719785164782, 46.625600290557799 ], [ 13.74555657433887, 46.625521077225919 ], [ 13.745334955670113, 46.625455034101755 ], [ 13.74508970073088, 46.625253569905141 ], [ 13.745270763631774, 46.625226004607711 ], [ 13.74534146445256, 46.625096267605187 ], [ 13.745354601719045, 46.62507237536758 ], [ 13.745356532955416, 46.625068769181212 ], [ 13.745364130766799, 46.625054794790785 ], [ 13.745402380265775, 46.624984831900377 ], [ 13.745410598455484, 46.624966626267195 ], [ 13.745006221816276, 46.624843214907109 ], [ 13.744839287209913, 46.624720914653281 ], [ 13.744059287862932, 46.62462892387542 ], [ 13.743793537136501, 46.62459759020566 ], [ 13.743789739479952, 46.624596254369443 ], [ 13.743756742852758, 46.624585127311953 ], [ 13.743745874346354, 46.624581387823056 ], [ 13.743513321555515, 46.624502244175702 ], [ 13.743360644142395, 46.624450342687069 ], [ 13.742997470741608, 46.624419451628633 ], [ 13.742726725403317, 46.624434922213737 ], [ 13.742402634426524, 46.624340002788664 ], [ 13.742312448824624, 46.624313516728527 ], [ 13.742138100420966, 46.624262502057611 ], [ 13.742108697135599, 46.624260089355296 ], [ 13.741962075972898, 46.624248474185656 ], [ 13.741890332906737, 46.624242705834327 ], [ 13.741852207219811, 46.624261019651122 ], [ 13.741541994800006, 46.624409888014455 ], [ 13.741381010057298, 46.624449971541516 ], [ 13.74101658149255, 46.624579779487327 ], [ 13.740736928396059, 46.624677607456427 ], [ 13.740661381043415, 46.624703974248405 ], [ 13.740460748105146, 46.624751398035919 ], [ 13.740345117518391, 46.624779259120686 ], [ 13.740280327907016, 46.624794879403602 ], [ 13.740163397595666, 46.624857926420432 ], [ 13.739673562216584, 46.625122070130871 ], [ 13.739455488894039, 46.625177743024658 ], [ 13.739300484024149, 46.625197466972985 ], [ 13.739192449266181, 46.625211082967681 ], [ 13.738890983854917, 46.625257877372185 ], [ 13.738873372892879, 46.625260550126477 ], [ 13.73787257459186, 46.625519865610279 ], [ 13.737831385000138, 46.625530540927691 ], [ 13.737739455681268, 46.625532490535527 ], [ 13.737691322496945, 46.625505759852118 ], [ 13.737685929806716, 46.625466188860464 ], [ 13.737683851092022, 46.625450360182562 ], [ 13.737588720902776, 46.625408951732041 ], [ 13.737547576270895, 46.625391013762552 ], [ 13.737513466301372, 46.625370711113185 ], [ 13.737444064935829, 46.625329300218858 ], [ 13.737177300317503, 46.625146341576752 ], [ 13.737065392086054, 46.6250275217254 ], [ 13.737010755337479, 46.624969591677029 ], [ 13.736950530832148, 46.62486345338656 ], [ 13.736904202571802, 46.624781559363313 ], [ 13.736629441173987, 46.624576673452225 ], [ 13.736517278194629, 46.624493035398253 ], [ 13.736491609785052, 46.62446631379489 ], [ 13.736312987249573, 46.624280698282575 ], [ 13.736183990110687, 46.624146642434816 ], [ 13.73616279094975, 46.624141049616995 ], [ 13.736151144913185, 46.624138032002953 ], [ 13.736092912717186, 46.624122673987785 ], [ 13.735855799124391, 46.624060446776895 ], [ 13.734880261100695, 46.623804161327328 ], [ 13.734580174519857, 46.623790474070674 ], [ 13.734466088860305, 46.623693614078064 ], [ 13.734464354690187, 46.623688761439183 ], [ 13.734442072370415, 46.623625766176971 ], [ 13.734437403048066, 46.623612646009356 ], [ 13.734434867097905, 46.623605366817927 ], [ 13.734334744754554, 46.623541838829823 ], [ 13.734290260896767, 46.623513654074841 ], [ 13.733174738426538, 46.623222130781279 ], [ 13.732910965681468, 46.623156572856821 ], [ 13.73257293899591, 46.623115841471545 ], [ 13.732389024153912, 46.623093638644519 ], [ 13.731859662345142, 46.623051243254572 ], [ 13.731659861274077, 46.62303521393887 ], [ 13.731560774126921, 46.623022427439317 ], [ 13.731279564521756, 46.62296493538598 ], [ 13.731230647238359, 46.622954940648562 ], [ 13.730824103694392, 46.622902478924836 ], [ 13.730619408393803, 46.6229482799191 ], [ 13.730594767166805, 46.62295385546831 ], [ 13.730588788646848, 46.622957745603117 ], [ 13.730525756624829, 46.622999087786418 ], [ 13.730452434294955, 46.622973702535234 ], [ 13.73024032263528, 46.62290012818503 ], [ 13.729944031683827, 46.622904320863675 ], [ 13.729692791760394, 46.622907904386061 ], [ 13.729556855645743, 46.622909822197229 ], [ 13.729390232283036, 46.622912117663013 ], [ 13.729194647897382, 46.622953925005916 ], [ 13.729107808476352, 46.622954859949715 ], [ 13.729012219347425, 46.622955825557021 ], [ 13.728577242722707, 46.622908044475643 ], [ 13.728241372324501, 46.622964108867841 ], [ 13.727987645646554, 46.622984703145114 ], [ 13.727871408338295, 46.622930673591782 ], [ 13.727577067145917, 46.622898232186252 ], [ 13.727277411812034, 46.622853481613717 ], [ 13.727034367019659, 46.622817170315557 ], [ 13.726561229277131, 46.622765285856147 ], [ 13.725314214581774, 46.62262845612446 ], [ 13.725315740808643, 46.622605056544337 ], [ 13.72530041617574, 46.622492007567452 ], [ 13.724948512893222, 46.620501389507666 ], [ 13.724919906494955, 46.620339888566043 ], [ 13.724901377326374, 46.620234858738989 ], [ 13.7249946000439, 46.619822255762173 ], [ 13.725003706304436, 46.619781824008861 ], [ 13.725008764966056, 46.619759311936981 ], [ 13.725013822964467, 46.619736709889267 ], [ 13.725062649004201, 46.619520863006976 ], [ 13.725072008421932, 46.61947935063337 ], [ 13.725078837866279, 46.619449004320828 ], [ 13.725080863283383, 46.61944026941795 ], [ 13.725124375646315, 46.619247835253383 ], [ 13.725252125082159, 46.618682419457947 ], [ 13.725331124773334, 46.618485812747515 ], [ 13.725411783316421, 46.618408690895606 ], [ 13.725654404516368, 46.618176512942512 ], [ 13.725728466539699, 46.618108141695146 ], [ 13.725858951916731, 46.617987926477291 ], [ 13.725980025683926, 46.617866484221956 ], [ 13.726012043825055, 46.617834340474552 ], [ 13.726021895248151, 46.617824408561695 ], [ 13.726072839938267, 46.617773393432067 ], [ 13.727942664777952, 46.61589756751556 ], [ 13.728002808929471, 46.615837341535411 ], [ 13.728027954619536, 46.615812059613468 ], [ 13.728030676779607, 46.615809350737734 ], [ 13.727648748180863, 46.615315269919748 ], [ 13.727489887472789, 46.615109686508077 ], [ 13.727252718837272, 46.614802701718659 ], [ 13.727142348977814, 46.614656333669139 ], [ 13.7271253375451, 46.614633628731198 ], [ 13.727108196216941, 46.614611014222824 ], [ 13.726947981647726, 46.61439832655433 ], [ 13.726940597458514, 46.614388544765909 ], [ 13.726924510129525, 46.614367186238248 ], [ 13.726908423475432, 46.61434591768397 ], [ 13.726588395125695, 46.613921170028036 ], [ 13.725025913641691, 46.613880905400812 ], [ 13.724755176580842, 46.6138016762321 ], [ 13.724724164259589, 46.613792606250499 ], [ 13.724704535921918, 46.613786825888809 ], [ 13.724693151948845, 46.613783536260406 ], [ 13.723604584176119, 46.613464742461495 ], [ 13.723199713637156, 46.613487559258168 ], [ 13.722698780186649, 46.613515745467069 ], [ 13.722606020216997, 46.613544319127932 ], [ 13.722561073188507, 46.613558151088696 ], [ 13.722512086984317, 46.613573166699553 ], [ 13.722257387010588, 46.613651607345602 ], [ 13.722138641763047, 46.613626193641828 ], [ 13.722010349337184, 46.613598653288882 ], [ 13.721463059026053, 46.613194740305786 ], [ 13.721228865480036, 46.613021979761463 ], [ 13.720943081796763, 46.61281097574004 ], [ 13.720641598737057, 46.612793747303868 ], [ 13.720230912981114, 46.612770234855844 ], [ 13.719906304941309, 46.612498086669248 ], [ 13.719852182269321, 46.612452743618576 ], [ 13.719586166101916, 46.612229611332168 ], [ 13.719269840254395, 46.611964361241156 ], [ 13.719093945086012, 46.611816950259012 ], [ 13.718377333159488, 46.611791779103406 ], [ 13.717458028808101, 46.611759556743756 ], [ 13.717241532577209, 46.611666717934938 ], [ 13.716374379437994, 46.611295272571688 ], [ 13.716237720046651, 46.611319761316615 ], [ 13.715580108371134, 46.611437346560926 ], [ 13.713385052487919, 46.61149948116234 ], [ 13.713375128284468, 46.611499334693306 ], [ 13.713367162553071, 46.611499181615272 ], [ 13.713292337417467, 46.611497814458943 ], [ 13.713139161269433, 46.611495001909041 ], [ 13.712662788151617, 46.611486349809823 ], [ 13.711461931839077, 46.611464564119252 ], [ 13.709195115656614, 46.611423383584174 ], [ 13.705132641085328, 46.611349498967371 ], [ 13.705116710339812, 46.611349281621898 ], [ 13.705100909533545, 46.611348973867514 ], [ 13.703804776670868, 46.611030044658222 ], [ 13.703683796511703, 46.611000299994792 ], [ 13.703643513135424, 46.610990354943148 ], [ 13.70327181029192, 46.610898899386015 ], [ 13.702658019360817, 46.610747861660052 ], [ 13.702221504618924, 46.610667412493079 ], [ 13.699864295453867, 46.610232957970446 ], [ 13.69793113627418, 46.609636562109756 ], [ 13.696962359754981, 46.60959857439007 ], [ 13.695396100470179, 46.609537217022137 ], [ 13.69526067061747, 46.609531893755879 ], [ 13.695053372822235, 46.609498638162123 ], [ 13.691840236805353, 46.608838848730741 ], [ 13.691119846273772, 46.608299294269926 ], [ 13.690908717523705, 46.608141064302238 ], [ 13.690895465125221, 46.608131208838458 ], [ 13.69126672292504, 46.607791533569483 ], [ 13.691957841609071, 46.607159581300209 ], [ 13.692235650486253, 46.606845754030729 ], [ 13.692599364212859, 46.606435106043428 ], [ 13.693830533072902, 46.605044976062196 ], [ 13.693906718018178, 46.604958983463909 ], [ 13.694943910209396, 46.604412012801021 ], [ 13.696920670261845, 46.603369555253437 ], [ 13.699678846967034, 46.601914765267402 ], [ 13.702377752148845, 46.600499691947732 ], [ 13.702464899140075, 46.60045396759547 ], [ 13.702763829111381, 46.600282569619971 ], [ 13.70493735374202, 46.599121004603241 ], [ 13.70504855080438, 46.599061612250289 ], [ 13.70530228658783, 46.598925987843451 ], [ 13.70699673121711, 46.59802042128306 ], [ 13.708480812415401, 46.597484618514663 ], [ 13.70856765866599, 46.597453286850573 ], [ 13.708572345777585, 46.597451561655724 ], [ 13.708692147966824, 46.597410402479881 ], [ 13.70869628769829, 46.597405079998509 ], [ 13.708705084861654, 46.597393803465934 ], [ 13.70870987092993, 46.597387579052899 ], [ 13.709184136552386, 46.596779727593955 ], [ 13.709320488035823, 46.596604805720695 ], [ 13.710152635819494, 46.594752713478307 ], [ 13.710411528232221, 46.594057039473789 ], [ 13.710468789127701, 46.593903255878828 ], [ 13.710520798527037, 46.593763706313823 ], [ 13.710566015631546, 46.593641995053083 ], [ 13.710806183899139, 46.593068932438044 ], [ 13.710884227055804, 46.592882597042376 ], [ 13.710933133319708, 46.592766001993446 ], [ 13.711008441752858, 46.59243274223293 ], [ 13.710988411783253, 46.592442706957527 ], [ 13.710980737871033, 46.592446511757167 ], [ 13.710850414889155, 46.592511642711251 ], [ 13.710360714471012, 46.592532538813487 ], [ 13.71001865453143, 46.592445145756244 ], [ 13.709909465172684, 46.592434713694338 ], [ 13.709446716055066, 46.592390371891391 ], [ 13.709369356319606, 46.592284546686805 ], [ 13.709207244735289, 46.592172436035398 ], [ 13.709148831973009, 46.592088142054948 ], [ 13.709143205184773, 46.592086091351597 ], [ 13.709125933270141, 46.592079940546746 ], [ 13.708893942834568, 46.591997665296269 ], [ 13.708650737343392, 46.591991098120097 ], [ 13.708637813607375, 46.591990781290178 ], [ 13.708480828826609, 46.59210692568896 ], [ 13.708279153991681, 46.591954995475959 ], [ 13.70814033127253, 46.59185045384131 ], [ 13.708051894673849, 46.591783894855631 ], [ 13.708026400517726, 46.591759145885753 ], [ 13.707976202305641, 46.591710635053595 ], [ 13.707917279366777, 46.591627691808498 ], [ 13.707867978763545, 46.591558213163843 ], [ 13.707829206155047, 46.591538367111653 ], [ 13.707736335867638, 46.591490897880398 ], [ 13.707675796965635, 46.591512693803232 ], [ 13.707558886094255, 46.591554922036984 ], [ 13.707526338205588, 46.591566637325478 ], [ 13.70733768608863, 46.59170861895776 ], [ 13.707296946103986, 46.591668714254936 ], [ 13.707211230327228, 46.591692483079093 ], [ 13.706967032097769, 46.591711739140351 ], [ 13.706912896596544, 46.59171605774926 ], [ 13.706912212603552, 46.591711561139363 ], [ 13.706885378183481, 46.59153214488601 ], [ 13.706757023818618, 46.591561813390982 ], [ 13.706745556597399, 46.591564460774023 ], [ 13.706713923785777, 46.591520296710875 ], [ 13.706643011182187, 46.591420926671546 ], [ 13.706619961336594, 46.591428381257998 ], [ 13.70632265828797, 46.591524742817718 ], [ 13.706232796066741, 46.591515412882373 ], [ 13.706053334003903, 46.591496931883647 ], [ 13.705792596948211, 46.591333945573425 ], [ 13.705436119481265, 46.591310740377757 ], [ 13.705103803515145, 46.591064309890257 ], [ 13.704995190499119, 46.591267837849308 ], [ 13.704968004174763, 46.591318674943302 ], [ 13.704442361258277, 46.591331116124962 ], [ 13.704311514114961, 46.591566118879413 ], [ 13.704211337819372, 46.591537476139777 ], [ 13.70407428188852, 46.591498247428405 ], [ 13.703786962978793, 46.5914161438847 ], [ 13.703238347865472, 46.591617427968785 ], [ 13.702974063372196, 46.591714392007653 ], [ 13.702863126121466, 46.5916772355313 ], [ 13.702720529497523, 46.591629385514345 ], [ 13.702606683245811, 46.591605644988327 ], [ 13.702247240178929, 46.591530972266391 ], [ 13.701976884336457, 46.591542565150256 ], [ 13.701918689584001, 46.591545005122086 ], [ 13.701726582605541, 46.591301074874472 ], [ 13.701485182300512, 46.591063064073545 ], [ 13.701535050667735, 46.590855952622256 ], [ 13.701600984230671, 46.590802290305575 ], [ 13.701666526737933, 46.590748719207106 ], [ 13.701425623036167, 46.590563523497174 ], [ 13.701395425048537, 46.590309795563591 ], [ 13.701389167839332, 46.590310895750214 ], [ 13.701288664010894, 46.590328949846402 ], [ 13.701013747314112, 46.590131807442972 ], [ 13.70106616983808, 46.589992350991132 ], [ 13.701002536128703, 46.589582891084873 ], [ 13.700431914681493, 46.58948595783653 ], [ 13.699994890072768, 46.589400553691597 ], [ 13.699858814227211, 46.589293563619435 ], [ 13.699808154655718, 46.589138157392981 ], [ 13.699241915573205, 46.589127582303554 ], [ 13.698980483182716, 46.589316484729721 ], [ 13.698822062151406, 46.589205157087527 ], [ 13.698707647063053, 46.589460254840624 ], [ 13.698705974378502, 46.589463769392616 ], [ 13.698704685854779, 46.589466202967557 ], [ 13.69861034508501, 46.589641335431693 ], [ 13.698374609078227, 46.589733067321447 ], [ 13.698313582328502, 46.589798408909559 ], [ 13.698284300784975, 46.589829905990193 ], [ 13.698266340577737, 46.589971318902023 ], [ 13.698315705638498, 46.590090559053159 ], [ 13.698366662856062, 46.590213573078707 ], [ 13.698104861329732, 46.590253831787223 ], [ 13.69683418213082, 46.59044959379365 ], [ 13.696449821179913, 46.59050877966768 ], [ 13.696307836946252, 46.590530652175197 ], [ 13.696299187129288, 46.590660067737787 ], [ 13.696249111438391, 46.591416850176003 ], [ 13.696790459390188, 46.592928256094638 ], [ 13.696851926471142, 46.59309982478392 ], [ 13.696892506661342, 46.593213245418099 ], [ 13.69735086574552, 46.594492954818307 ], [ 13.697298681310832, 46.594592728684439 ], [ 13.697016758940737, 46.595132605285023 ], [ 13.696928755005104, 46.595301327514832 ], [ 13.696867420888838, 46.595418676356495 ], [ 13.696519258297551, 46.596085364022578 ], [ 13.696430745006669, 46.596179496105051 ], [ 13.69637787073372, 46.596235812607901 ], [ 13.695254516861555, 46.597431002079993 ], [ 13.695051043139255, 46.597647512131672 ], [ 13.694643571668911, 46.598080982700651 ], [ 13.694515005179525, 46.59821789116652 ], [ 13.694355074939395, 46.59838837171074 ], [ 13.694151235994013, 46.598338907580185 ], [ 13.6941446984275, 46.598337308933075 ], [ 13.691061588851472, 46.597675463865521 ], [ 13.691049431393861, 46.597672803163732 ], [ 13.690957272718954, 46.597653030919275 ], [ 13.688731082554506, 46.598449092835935 ], [ 13.688473884578968, 46.598541051616905 ], [ 13.688377516171384, 46.598575457022733 ], [ 13.687885800175065, 46.599010878193035 ], [ 13.687132182803861, 46.599678092824334 ], [ 13.687115612141845, 46.599758224912726 ], [ 13.687060089108936, 46.600027972104776 ], [ 13.686662926823418, 46.601955728661387 ], [ 13.686629152506603, 46.602119413858823 ], [ 13.680762337573396, 46.602883222420971 ], [ 13.680602944169538, 46.602903959055411 ], [ 13.677897542506626, 46.603255984306124 ], [ 13.67636540967257, 46.603455373607694 ], [ 13.672447231524657, 46.603160688510407 ], [ 13.671241837895426, 46.603070015890744 ], [ 13.670905128160854, 46.603044752417816 ], [ 13.670816183064046, 46.603038000794875 ], [ 13.670186256961795, 46.602990669364345 ], [ 13.67005590908755, 46.602980801806275 ], [ 13.669556592496061, 46.602943243658849 ], [ 13.669497034899567, 46.602938742654942 ], [ 13.669122800720697, 46.603091201451491 ], [ 13.669039458335821, 46.603228305725658 ], [ 13.66895546844329, 46.603366311643775 ], [ 13.668923295155491, 46.603419404280189 ], [ 13.668526356204019, 46.603616017726559 ], [ 13.668388792994822, 46.603684090223013 ], [ 13.668325412583734, 46.603715500992003 ], [ 13.668297186227642, 46.603752745668054 ], [ 13.668017634974246, 46.60412086505913 ], [ 13.667616111109608, 46.604295444430448 ], [ 13.667513386200046, 46.604340108252345 ], [ 13.66722950328791, 46.60445486191842 ], [ 13.666640116467185, 46.604923501298657 ], [ 13.666237919364983, 46.605243301411669 ], [ 13.666189114635642, 46.605330723860774 ], [ 13.665830693296499, 46.605972962433732 ], [ 13.66461398572471, 46.606509035405637 ], [ 13.664589768621928, 46.606519723994467 ], [ 13.664311009024859, 46.606642463208601 ], [ 13.663991496113196, 46.606783316908604 ], [ 13.661186697634161, 46.608689863317764 ], [ 13.660893388538964, 46.608891636655343 ], [ 13.658107231668364, 46.610808129452188 ], [ 13.657774372204139, 46.611037091935671 ], [ 13.657750318276356, 46.61105371709516 ], [ 13.656185839260969, 46.612129755358197 ], [ 13.655554282480001, 46.612564086085257 ], [ 13.655266522086114, 46.612761959827374 ], [ 13.65468320074787, 46.613077467426244 ], [ 13.652858095024756, 46.614064225271932 ], [ 13.652699307732052, 46.61415006434359 ], [ 13.651016522102296, 46.615059817726703 ], [ 13.650459081641392, 46.615432276125922 ], [ 13.650224486782884, 46.615507167937771 ], [ 13.650069784125465, 46.615556550911236 ], [ 13.64964581665936, 46.615691898989112 ], [ 13.648698007201771, 46.615723170017361 ], [ 13.648227626540107, 46.615738612734056 ], [ 13.648048041097285, 46.615731646611856 ], [ 13.644322460514255, 46.61558543571082 ], [ 13.64401148496459, 46.615573247323994 ], [ 13.642036053572035, 46.615495450679219 ], [ 13.642030960105176, 46.615495284686787 ], [ 13.641806705599928, 46.615486001677588 ], [ 13.641765955802793, 46.615484313744808 ], [ 13.641760078368534, 46.615484059909882 ], [ 13.640822702659952, 46.615445143722958 ], [ 13.640218118290326, 46.615420159607737 ], [ 13.640017895869343, 46.615411797300929 ], [ 13.639981831400785, 46.615407396639988 ], [ 13.63988684414433, 46.615397307849584 ], [ 13.63921357293937, 46.615325896991735 ], [ 13.638348171389955, 46.61485586273912 ], [ 13.638289390717693, 46.614852062930218 ], [ 13.638254644304595, 46.614849727630265 ], [ 13.637900390007287, 46.614826302430252 ], [ 13.6374820263222, 46.614872241942273 ], [ 13.637233304942422, 46.614899636745733 ], [ 13.636707526793582, 46.614931466821865 ], [ 13.636567683289083, 46.614908989212736 ], [ 13.635557939791552, 46.614746955071269 ], [ 13.635192520087065, 46.614688280183707 ], [ 13.633979717224891, 46.614870309880224 ], [ 13.633399227778325, 46.615042005521111 ], [ 13.63272703894952, 46.615114876868795 ], [ 13.632394274192299, 46.615081389741228 ], [ 13.632246379269482, 46.615066576239649 ], [ 13.632141718886635, 46.614960770636415 ], [ 13.632087223072704, 46.614905849052917 ], [ 13.632045332302946, 46.614863400867463 ], [ 13.632023928176382, 46.614841863064918 ], [ 13.631725323430411, 46.614962684596279 ], [ 13.6315258614635, 46.615043292866673 ], [ 13.630744554559593, 46.615359200350447 ], [ 13.630288656845577, 46.615513994967067 ], [ 13.629633116659967, 46.615576906427485 ], [ 13.629110738909564, 46.615517275060654 ], [ 13.629069971573495, 46.61551234340029 ], [ 13.629041225621927, 46.615508909773119 ], [ 13.628994709010303, 46.61550327336402 ], [ 13.628585387513368, 46.615486441843778 ], [ 13.628357317904266, 46.615566219727206 ], [ 13.627918068506084, 46.615615867513398 ], [ 13.627858301125425, 46.615622592203941 ], [ 13.627804797389205, 46.615628580663831 ], [ 13.627599559920577, 46.615705238069545 ], [ 13.62716758118972, 46.615866435905552 ], [ 13.627074820270947, 46.615857230291333 ], [ 13.627011716452662, 46.615850916512507 ], [ 13.626909408717035, 46.615839036338279 ], [ 13.626788286233054, 46.615825045647405 ], [ 13.626432816945638, 46.615723127290785 ], [ 13.626361016958375, 46.615702529377316 ], [ 13.626228813124513, 46.615620184102021 ], [ 13.625930864236071, 46.615434525542199 ], [ 13.625750397901964, 46.6154089908663 ], [ 13.625698910527232, 46.615401656436653 ], [ 13.625645332491905, 46.615394057478589 ], [ 13.625416715118025, 46.615422093825792 ], [ 13.625371409522741, 46.615422931154086 ], [ 13.625346732811943, 46.615423355060017 ], [ 13.625154019812081, 46.615426733930839 ], [ 13.624952845838488, 46.615482861134481 ], [ 13.624911461309745, 46.615508341927573 ], [ 13.624846393474806, 46.615548820266767 ], [ 13.624535156307624, 46.615559613069948 ], [ 13.624284234066019, 46.615568269682569 ], [ 13.624106612076801, 46.615609488247522 ], [ 13.624036319466247, 46.615625775692557 ], [ 13.62402314895037, 46.615629048879335 ], [ 13.624015064030003, 46.615631049253047 ], [ 13.623830806711583, 46.615676783380628 ], [ 13.6236334792902, 46.615720301468336 ], [ 13.623583006067861, 46.615731408821695 ], [ 13.623570355359272, 46.615734230728705 ], [ 13.623541662386154, 46.615740513121111 ], [ 13.623324704124041, 46.615824121195651 ], [ 13.623158328608332, 46.616037346059954 ], [ 13.623115924518293, 46.616067687595134 ], [ 13.623059732886183, 46.616107962102468 ], [ 13.622942274902526, 46.616191853248175 ], [ 13.622933036108474, 46.61619781551672 ], [ 13.622914818206104, 46.616209469451555 ], [ 13.622857074457114, 46.616324878966957 ], [ 13.622763057717336, 46.616421396463693 ], [ 13.62277096726368, 46.616507574470674 ], [ 13.622583950102408, 46.616647340018353 ], [ 13.622346795514023, 46.616860745476274 ], [ 13.622279474856581, 46.616871625551219 ], [ 13.622237594631136, 46.616878301357929 ], [ 13.622225722190384, 46.616880221342868 ], [ 13.622162054282397, 46.616890462134592 ], [ 13.622000274775669, 46.616916430556124 ], [ 13.621790932917534, 46.617009283816209 ], [ 13.621662535474467, 46.617026708358864 ], [ 13.621613472722922, 46.617033312346862 ], [ 13.621608388390941, 46.617034854978712 ], [ 13.621560929922703, 46.617048383095579 ], [ 13.621259198000834, 46.617177102857774 ], [ 13.621221064481457, 46.617176390560303 ], [ 13.621179535901083, 46.617175686928583 ], [ 13.621061730443637, 46.617220256880429 ], [ 13.620893622236277, 46.617283760452125 ], [ 13.620826509227781, 46.617309125486905 ], [ 13.620794767249357, 46.617307137043156 ], [ 13.620703591230855, 46.617301521232562 ], [ 13.62068386979802, 46.617398027318046 ], [ 13.620536244573961, 46.617506916664567 ], [ 13.620253630909517, 46.617573500569179 ], [ 13.620027822978232, 46.617786782244906 ], [ 13.620011904682885, 46.617862223822122 ], [ 13.619956514338114, 46.618125818617116 ], [ 13.619819025536074, 46.618177455602378 ], [ 13.619807166219994, 46.618181894665476 ], [ 13.619701776713013, 46.618277808694351 ], [ 13.619657768220231, 46.618496925570945 ], [ 13.619677159114541, 46.618679620347464 ], [ 13.61933740685112, 46.61883155581512 ], [ 13.619291423857844, 46.619023684351632 ], [ 13.619169610794119, 46.61902804260199 ], [ 13.619117778629564, 46.619029973705146 ], [ 13.618882185854806, 46.619149161566781 ], [ 13.618715366032543, 46.619137617467985 ], [ 13.61845364276075, 46.61935251661977 ], [ 13.618366957589473, 46.619357054985286 ], [ 13.618312126426696, 46.619359893082219 ], [ 13.618246720777679, 46.619363297772196 ], [ 13.617947821779445, 46.619709206907253 ], [ 13.617948241797786, 46.619714514511919 ], [ 13.617954998029456, 46.619806184400396 ], [ 13.617865027984909, 46.620076973794049 ], [ 13.617856870763283, 46.62013916878589 ], [ 13.617810834310468, 46.620494245930352 ], [ 13.617511220735416, 46.620658311399517 ], [ 13.61729581930086, 46.620745503005246 ], [ 13.617010951387655, 46.620785001236904 ], [ 13.616991899364677, 46.620787658573931 ], [ 13.616983678040446, 46.620788759011411 ], [ 13.616946773493007, 46.620724788055341 ], [ 13.616757484348637, 46.620737231622584 ], [ 13.616595217785145, 46.620747897331455 ], [ 13.616516891169267, 46.620753043085493 ], [ 13.616284130752801, 46.620768384467006 ], [ 13.616177095161911, 46.620777471145189 ], [ 13.615993176893342, 46.620793139124679 ], [ 13.615678561294928, 46.620986300064835 ], [ 13.615576769708259, 46.621048819596211 ], [ 13.615439403039609, 46.621175312112697 ], [ 13.615418869190147, 46.621194168826875 ], [ 13.61526980092102, 46.621206779065538 ], [ 13.615223708877572, 46.62125755172768 ], [ 13.615211634762428, 46.621270988583255 ], [ 13.615206051681582, 46.621277121021144 ], [ 13.614912120553948, 46.621381870238764 ], [ 13.614838735534576, 46.621408057178769 ], [ 13.61480811027897, 46.621395356942067 ], [ 13.614703408409218, 46.621351889587018 ], [ 13.614672140790518, 46.621366004181922 ], [ 13.614635922586944, 46.621382380569727 ], [ 13.614414963007738, 46.621481907446814 ], [ 13.614332601011217, 46.621489761075189 ], [ 13.614300752215042, 46.621492719820317 ], [ 13.614107051346151, 46.621511198424081 ], [ 13.614047922930357, 46.621516834455711 ], [ 13.614042716341524, 46.621520086620698 ], [ 13.614019940578716, 46.621534899685052 ], [ 13.613951740970901, 46.621578798667919 ], [ 13.61397694652829, 46.621603929524248 ], [ 13.613856390017828, 46.621649848444427 ], [ 13.613851307384655, 46.621651840608273 ], [ 13.613783795681277, 46.621677562342427 ], [ 13.613745874600651, 46.621693042910657 ], [ 13.613648400124342, 46.62173278566604 ], [ 13.613633283239119, 46.621738851779959 ], [ 13.613575913319751, 46.621681409034636 ], [ 13.613531802460622, 46.62163715994658 ], [ 13.613509094378047, 46.621640005746038 ], [ 13.613485211923852, 46.621643034417303 ], [ 13.613461372372569, 46.62165425091937 ], [ 13.613440138017062, 46.621664201252742 ], [ 13.613435520683188, 46.621655304976102 ], [ 13.613414414102911, 46.621614867648056 ], [ 13.613369177170593, 46.621555055209441 ], [ 13.61330951277712, 46.621483311631749 ], [ 13.613234482866325, 46.621395050377366 ], [ 13.613154374815123, 46.621309590992119 ], [ 13.613110292864576, 46.62127074031369 ], [ 13.61303942718356, 46.621204513046187 ], [ 13.613007166205119, 46.621178589709288 ], [ 13.612866055733495, 46.621064848757797 ], [ 13.612800343793641, 46.621010125654287 ], [ 13.612711908233297, 46.620880237800975 ], [ 13.612664302618887, 46.620766714467557 ], [ 13.612642340844276, 46.620662395182428 ], [ 13.612647648771691, 46.620628550522042 ], [ 13.612665101012425, 46.620519634603475 ], [ 13.612680893161313, 46.620417920991578 ], [ 13.612655553884709, 46.620267001810255 ], [ 13.612632883928875, 46.620152066954994 ], [ 13.612595856854346, 46.619963566211318 ], [ 13.612575862790887, 46.619860861634848 ], [ 13.612556925708212, 46.619760493846705 ], [ 13.612545462723419, 46.619715983471586 ], [ 13.612533624766485, 46.619599672083631 ], [ 13.61253102362207, 46.61947667946874 ], [ 13.612537705904318, 46.619205920999804 ], [ 13.612550302033622, 46.619167379453835 ], [ 13.612583073677806, 46.619066343582581 ], [ 13.612594186396837, 46.619043821681863 ], [ 13.612587991612774, 46.619032859806275 ], [ 13.612627860686692, 46.618940624102997 ], [ 13.612634442420864, 46.618925671535358 ], [ 13.612662543784671, 46.618830585732539 ], [ 13.612651092663748, 46.618788324776908 ], [ 13.612619715448409, 46.618756280686078 ], [ 13.612560636254095, 46.618695782459781 ], [ 13.612336762774195, 46.618460776654878 ], [ 13.612319843444171, 46.618446602152893 ], [ 13.612250594531504, 46.618389008239291 ], [ 13.612115817081428, 46.618235930608236 ], [ 13.612085209457838, 46.618201095168509 ], [ 13.61192140354343, 46.617940116342737 ], [ 13.611911644417512, 46.617921695129915 ], [ 13.611751272477374, 46.61761769839859 ], [ 13.611656399687842, 46.617453724279748 ], [ 13.611564778925359, 46.617312326363489 ], [ 13.611489569544259, 46.617187893554167 ], [ 13.611391715123609, 46.617027795614369 ], [ 13.611294666339411, 46.616846730883978 ], [ 13.611288600315158, 46.616835318735944 ], [ 13.611284515425059, 46.616828220609584 ], [ 13.611176209126226, 46.616641694953515 ], [ 13.611073264111385, 46.616481609311499 ], [ 13.610894922677643, 46.616286168415066 ], [ 13.610809298340911, 46.616192353138295 ], [ 13.610746488967486, 46.616116657010892 ], [ 13.610630463967624, 46.615977028057962 ], [ 13.610560635707726, 46.615907467573869 ], [ 13.610517374290746, 46.615849358747909 ], [ 13.610476289848739, 46.615782966633162 ], [ 13.610438081441066, 46.615717197267394 ], [ 13.610421880716432, 46.615690243938431 ], [ 13.610403441103195, 46.615659607046126 ], [ 13.610396856364808, 46.61564882596992 ], [ 13.610373412013432, 46.615609923473748 ], [ 13.610230472509116, 46.615441657573683 ], [ 13.610244881206672, 46.615248710753292 ], [ 13.610368836838937, 46.615104981978355 ], [ 13.610399140382393, 46.615031305962738 ], [ 13.610412080302998, 46.614958212533985 ], [ 13.610406788798461, 46.614944998889065 ], [ 13.610163100007215, 46.614862639208084 ], [ 13.610159568925793, 46.614861568161892 ], [ 13.610058737304197, 46.614831043780356 ], [ 13.609863471111748, 46.614769709104863 ], [ 13.609864690019611, 46.614778163979189 ], [ 13.609866860639285, 46.614793904678905 ], [ 13.609786615888019, 46.614780065272278 ], [ 13.609399769317667, 46.614688157850175 ], [ 13.609346327760809, 46.614630523433839 ], [ 13.609320055670937, 46.614600085524884 ], [ 13.609305211737393, 46.614582846264746 ], [ 13.609306969755531, 46.614518688130389 ], [ 13.609311267418265, 46.614364726412575 ], [ 13.608968871389497, 46.614156187945476 ], [ 13.608897117781449, 46.613914864486091 ], [ 13.608876653645483, 46.613845811997663 ], [ 13.608875192784692, 46.613841046775526 ], [ 13.608783067894981, 46.613776578510134 ], [ 13.608714924836281, 46.613728967250026 ], [ 13.608606420608595, 46.613653201762055 ], [ 13.608545466118377, 46.613556175285716 ], [ 13.608528219657568, 46.613528684386424 ], [ 13.608436191165417, 46.613330509336443 ], [ 13.60836891130581, 46.613171323910677 ], [ 13.60827631243243, 46.613039733333196 ], [ 13.608233137234059, 46.612997459451968 ], [ 13.608216926761655, 46.612993630006912 ], [ 13.608192218656033, 46.612987751826985 ], [ 13.608106511804932, 46.612952150063343 ], [ 13.60801958325758, 46.612907463508726 ], [ 13.608015131893461, 46.612905134959085 ], [ 13.607990781353363, 46.612892597543002 ], [ 13.607958296730112, 46.612872521869846 ], [ 13.60788625466348, 46.612828068833274 ], [ 13.607892995759411, 46.612640629692173 ], [ 13.607898551053434, 46.612629099051276 ], [ 13.607951638782888, 46.612516857868805 ], [ 13.60799521680995, 46.612434332367826 ], [ 13.60803485646732, 46.612398514673636 ], [ 13.608134722443825, 46.612293087513677 ], [ 13.608155868045232, 46.612266402621813 ], [ 13.608142352231635, 46.612227925332427 ], [ 13.607962865438035, 46.611906334576446 ], [ 13.607938531324036, 46.611871482744263 ], [ 13.607774509530023, 46.611637041971342 ], [ 13.607758689223431, 46.611607388030542 ], [ 13.607708458827242, 46.611513034307983 ], [ 13.607658554966816, 46.611329602260511 ], [ 13.60760388857023, 46.611235799167289 ], [ 13.607581239831482, 46.611173050199234 ], [ 13.60757965044021, 46.611168645184193 ], [ 13.607534353129418, 46.611043147234945 ], [ 13.607533630630295, 46.611029562425699 ], [ 13.607531053907792, 46.610985389858101 ], [ 13.607503854452187, 46.610671705338305 ], [ 13.607622568560911, 46.61049946960491 ], [ 13.607664664227721, 46.610331829356305 ], [ 13.607735871339493, 46.610265162619015 ], [ 13.607722157349112, 46.609984376982176 ], [ 13.607614667933092, 46.609748358601557 ], [ 13.607469144277376, 46.609631562644829 ], [ 13.60742692974739, 46.609597744000446 ], [ 13.607325399156755, 46.609555971761573 ], [ 13.607220466771691, 46.609512768071561 ], [ 13.607196130864246, 46.609502749819882 ], [ 13.607189327422549, 46.609499977074471 ], [ 13.607170084313784, 46.609490126383257 ], [ 13.607112485590537, 46.609460573972449 ], [ 13.60706507249308, 46.609431356676389 ], [ 13.60705917884513, 46.609427771915733 ], [ 13.606928943016849, 46.609261900492037 ], [ 13.606810016252053, 46.609290352330639 ], [ 13.60677381485525, 46.609308885602459 ], [ 13.606756756098692, 46.609317654828509 ], [ 13.606712871390368, 46.609340075763043 ], [ 13.606638384990182, 46.609378227017892 ], [ 13.606533696813809, 46.60979147674373 ], [ 13.606516675557589, 46.609858731063476 ], [ 13.606458576095807, 46.609884515549439 ], [ 13.606454277214297, 46.60988641550108 ], [ 13.606423435672774, 46.609906375293328 ], [ 13.60634574671718, 46.609956771030738 ], [ 13.606316076016844, 46.609975918158831 ], [ 13.6061281948384, 46.61015497843718 ], [ 13.60598529103166, 46.610218668608574 ], [ 13.605869713154117, 46.610238653478334 ], [ 13.60576430989882, 46.610256814063504 ], [ 13.60560989383012, 46.610264925666577 ], [ 13.605571771856019, 46.61026546774378 ], [ 13.605378420160163, 46.610268184561988 ], [ 13.605279405552542, 46.610284619687512 ], [ 13.605085811627605, 46.610316759153307 ], [ 13.60471219065524, 46.610378844929706 ], [ 13.604101278696021, 46.610404429792979 ], [ 13.60406720815773, 46.610405771412367 ], [ 13.603910430127451, 46.610463283881003 ], [ 13.603540364319541, 46.610505922137492 ], [ 13.603426252580304, 46.610506285938591 ], [ 13.603374158337118, 46.610506500883389 ], [ 13.603200379233957, 46.610507007560791 ], [ 13.60311589999875, 46.610583870656171 ], [ 13.603097444898093, 46.610600740626353 ], [ 13.603051743174627, 46.610599950354334 ], [ 13.602693310420719, 46.610593610330163 ], [ 13.602515741180735, 46.610800892750419 ], [ 13.602370754842379, 46.611100593652445 ], [ 13.602327008980685, 46.611151265402796 ], [ 13.602301176424904, 46.611181109594476 ], [ 13.602275863384214, 46.611210412675682 ], [ 13.602072578738985, 46.611445648779195 ], [ 13.601957641526171, 46.611490011939139 ], [ 13.601640324413669, 46.611612327898499 ], [ 13.601318695569937, 46.612020870889076 ], [ 13.601071805422372, 46.612154174761862 ], [ 13.600917758746309, 46.612237320082635 ], [ 13.600645214493351, 46.612384630465897 ], [ 13.60063073991714, 46.612388353900506 ], [ 13.600174470725854, 46.612507126520576 ], [ 13.599866334953209, 46.612587396333161 ], [ 13.599380815290479, 46.612680051598439 ], [ 13.599348855561969, 46.612686065617964 ], [ 13.599161122498172, 46.612796461255776 ], [ 13.599132611143881, 46.612813264342655 ], [ 13.599114473218872, 46.612789283235394 ], [ 13.599077934491376, 46.612740961723887 ], [ 13.599066368871577, 46.612725782866697 ], [ 13.598980098353223, 46.612733094664783 ], [ 13.59884006571019, 46.612747011561069 ], [ 13.59857017920857, 46.612773741124286 ], [ 13.597613698339535, 46.612868487092236 ], [ 13.597528090019814, 46.612877775723575 ], [ 13.597423167237844, 46.612889089098132 ], [ 13.597390411307211, 46.612892585066547 ], [ 13.597360526557525, 46.612895804360143 ], [ 13.596936006928578, 46.612941697794327 ], [ 13.596768443510278, 46.612959815527383 ], [ 13.596686933331364, 46.612952898024879 ], [ 13.596523017112386, 46.612916210716307 ], [ 13.596342369254858, 46.612875693237683 ], [ 13.596135028109943, 46.612956347160051 ], [ 13.596106487859085, 46.61296748098038 ], [ 13.596102934522573, 46.612988363995676 ], [ 13.596100520485377, 46.613001956194616 ], [ 13.59607945136543, 46.613125184222099 ], [ 13.595892589120748, 46.61328164072269 ], [ 13.595886346949952, 46.613286783983547 ], [ 13.595876594853655, 46.61329508463308 ], [ 13.595873734244062, 46.613297520689834 ], [ 13.595867622197764, 46.61330257366896 ], [ 13.595860600136694, 46.613308438565049 ], [ 13.595834852860817, 46.613330003164528 ], [ 13.59582601032155, 46.613337401916439 ], [ 13.59569889258324, 46.613376028537814 ], [ 13.595586767734231, 46.613410031251668 ], [ 13.595582856363784, 46.613411210067177 ], [ 13.595557432672406, 46.613418917352895 ], [ 13.595437354760952, 46.613455367827541 ], [ 13.595301638210049, 46.613497973017914 ], [ 13.595230285741644, 46.613645611739067 ], [ 13.595010022398522, 46.613648103417439 ], [ 13.594848559817938, 46.613792892078926 ], [ 13.594805399405402, 46.613831682544991 ], [ 13.594722457414107, 46.613906016401749 ], [ 13.594702289216826, 46.613920459585835 ], [ 13.594666246697814, 46.613946276749509 ], [ 13.594411030686787, 46.614117825660244 ], [ 13.59436644869008, 46.614186491702242 ], [ 13.594190690720785, 46.614238815950642 ], [ 13.594114545783516, 46.614261396690878 ], [ 13.594059158724569, 46.614283299468269 ], [ 13.59403022693377, 46.614294703600315 ], [ 13.593434778321008, 46.614529751771748 ], [ 13.593257145900223, 46.614599804410965 ], [ 13.593168685936455, 46.614614135035566 ], [ 13.59282643954303, 46.6146389483307 ], [ 13.592730727106316, 46.61466562221063 ], [ 13.592527021964379, 46.614798537887651 ], [ 13.592435063024576, 46.614818454580742 ], [ 13.592276449676582, 46.614852740931035 ], [ 13.592245898134435, 46.614799454687891 ], [ 13.592193687093395, 46.614830346967778 ], [ 13.591991745337952, 46.614950300896965 ], [ 13.591887014916633, 46.61497546516452 ], [ 13.591815281378675, 46.614992635582901 ], [ 13.591697377580628, 46.615020889144922 ], [ 13.591416312432505, 46.615088296925443 ], [ 13.591368185638236, 46.615099834351156 ], [ 13.591218474581128, 46.615139227509694 ], [ 13.591088976772655, 46.615173265535368 ], [ 13.590930918929807, 46.615214836874941 ], [ 13.590899489876287, 46.615223096712278 ], [ 13.590609455432041, 46.615299340767976 ], [ 13.59043387177676, 46.615362276066023 ], [ 13.59041886959529, 46.615392362725316 ], [ 13.590402833179731, 46.615424611198094 ], [ 13.59029837724259, 46.615643044487747 ], [ 13.59026251994011, 46.615653743640017 ], [ 13.590082449325111, 46.61570715104083 ], [ 13.590049720573861, 46.615716763263507 ], [ 13.590028336364959, 46.615723110430096 ], [ 13.589731168503128, 46.615810255732548 ], [ 13.589698070767041, 46.615824637487378 ], [ 13.589569978744404, 46.61588008514849 ], [ 13.589338731841831, 46.616072262762479 ], [ 13.589330667965854, 46.616078939415175 ], [ 13.589303615267548, 46.616101405260601 ], [ 13.589270191416652, 46.61612955415 ], [ 13.589261478084891, 46.616136952092162 ], [ 13.589084213692287, 46.616286177285602 ], [ 13.588764294948302, 46.616477295436198 ], [ 13.588713383891825, 46.616507733265443 ], [ 13.588645415627667, 46.616548377183747 ], [ 13.588566878146025, 46.616563311529276 ], [ 13.588261991535591, 46.616621497775363 ], [ 13.587903745303604, 46.616689791338544 ], [ 13.587879870894202, 46.616694344182619 ], [ 13.587445151066342, 46.616827502805407 ], [ 13.587369599474012, 46.616838920463636 ], [ 13.587276823855218, 46.616852986263368 ], [ 13.587129348078117, 46.61686978465066 ], [ 13.58712812630495, 46.616859979885056 ], [ 13.587126364275294, 46.61684639729301 ], [ 13.587124602246533, 46.616832814700984 ], [ 13.587122979341032, 46.616821031340187 ], [ 13.586829353615649, 46.616858853464656 ], [ 13.586451235302846, 46.616895245228498 ], [ 13.585736172544021, 46.617115315370562 ], [ 13.58517014442722, 46.617179117131109 ], [ 13.584901123455927, 46.617257188991061 ], [ 13.584748524431976, 46.617267877256737 ], [ 13.584385890106093, 46.61729343023886 ], [ 13.583985422504389, 46.617354427347131 ], [ 13.583415445447597, 46.617691579931758 ], [ 13.58283668480019, 46.617910968890307 ], [ 13.582784285175011, 46.617959222828397 ], [ 13.582548291707669, 46.618176770578039 ], [ 13.581690171241874, 46.618614066724213 ], [ 13.581073258250667, 46.619001518278438 ], [ 13.580947608585207, 46.619080344832945 ], [ 13.580916864486303, 46.61909633841875 ], [ 13.580878955319625, 46.61911603681768 ], [ 13.580567475374028, 46.619278230410941 ], [ 13.58049699799145, 46.61931491591811 ], [ 13.580469641339578, 46.619329282354592 ], [ 13.580409065814212, 46.619361087299239 ], [ 13.580325823318685, 46.619404818937703 ], [ 13.580195552919566, 46.619473217429785 ], [ 13.579995196285632, 46.619578390084044 ], [ 13.579776566317234, 46.619657329028449 ], [ 13.579586617320674, 46.619725947412526 ], [ 13.579435324588742, 46.61979520079985 ], [ 13.578849697235329, 46.62006335192779 ], [ 13.578484817423774, 46.620230424989636 ], [ 13.577976327825484, 46.620463312454355 ], [ 13.577815648364822, 46.620536902968809 ], [ 13.577745279923526, 46.620569627517575 ], [ 13.577641552041422, 46.620617990480483 ], [ 13.577628260035727, 46.620624137775984 ], [ 13.577347147436511, 46.620748646071405 ], [ 13.577188280124764, 46.620819082559052 ], [ 13.57698881238594, 46.621064342502621 ], [ 13.576784667822524, 46.62131537075178 ], [ 13.576732736696103, 46.621353723363853 ], [ 13.576524360542791, 46.621507584866471 ], [ 13.576534498845094, 46.621784063044593 ], [ 13.576404274588848, 46.621922369370836 ], [ 13.57614330373444, 46.622199432585866 ], [ 13.575950172699141, 46.622404367227276 ], [ 13.575785680976345, 46.62279099391781 ], [ 13.575640441853411, 46.623132680293267 ], [ 13.575627907614685, 46.623162129830867 ], [ 13.575625063912629, 46.623168614313009 ], [ 13.575604879732436, 46.623181434518422 ], [ 13.575206271416228, 46.623434317850489 ], [ 13.57515213653152, 46.623476993377849 ], [ 13.574918417738022, 46.623661048724891 ], [ 13.574756309221307, 46.623797172132321 ], [ 13.574651062927169, 46.623858312366096 ], [ 13.574264723146564, 46.624082643278093 ], [ 13.574259773462458, 46.6240855331422 ], [ 13.574225269233416, 46.624108641150087 ], [ 13.573896763338348, 46.624329067999625 ], [ 13.573889094159099, 46.624337092361785 ], [ 13.573864007582896, 46.624363509295549 ], [ 13.573719463522513, 46.62451497979702 ], [ 13.572773764428039, 46.624565762646277 ], [ 13.572721276280033, 46.624568573577818 ], [ 13.572364034273718, 46.624381280127203 ], [ 13.572143006377818, 46.624368882420043 ], [ 13.5720127676821, 46.624361690482985 ], [ 13.571684230855913, 46.624343311309282 ], [ 13.571624372254385, 46.624362603170788 ], [ 13.571405933922227, 46.624433067586416 ], [ 13.570976750790747, 46.624571729475932 ], [ 13.570792113607141, 46.624725350306171 ], [ 13.570659641737176, 46.624744794780938 ], [ 13.570137193009543, 46.62482156572699 ], [ 13.56960021544015, 46.625157229286216 ], [ 13.569399725699514, 46.62524177857005 ], [ 13.569333895052567, 46.62526953959685 ], [ 13.569293092942027, 46.625286720794854 ], [ 13.569182288763614, 46.625333471202076 ], [ 13.568685969199098, 46.625562332203479 ], [ 13.568250449012247, 46.625659427456142 ], [ 13.567992835029122, 46.625733206164739 ], [ 13.567827376804001, 46.625855470072906 ], [ 13.567816702283089, 46.625863410303047 ], [ 13.567546995555473, 46.626158287279679 ], [ 13.567508936798369, 46.626175912010275 ], [ 13.567390197593346, 46.626230685132995 ], [ 13.567341339555336, 46.626227817443691 ], [ 13.5672666152988, 46.626223383890462 ], [ 13.56724688893085, 46.626222165194598 ], [ 13.567240618474878, 46.626221818313084 ], [ 13.566913121741015, 46.626264337654646 ], [ 13.56657505123205, 46.626308137631632 ], [ 13.566524405967847, 46.626314720901988 ], [ 13.566509013395494, 46.626318981712913 ], [ 13.566501186702776, 46.626321157376275 ], [ 13.565976139129491, 46.62646584721773 ], [ 13.564962388023691, 46.626584727885394 ], [ 13.564351211238415, 46.626867882342431 ], [ 13.564112160474631, 46.626978504750966 ], [ 13.563763872639822, 46.627138027970901 ], [ 13.563601533752362, 46.627260009350067 ], [ 13.563109436075088, 46.627629921453305 ], [ 13.562345476694961, 46.627863619312414 ], [ 13.562268910602587, 46.627886989159222 ], [ 13.562134767696632, 46.627945747058739 ], [ 13.562053812400398, 46.62798118263013 ], [ 13.561769298572258, 46.628213541651697 ], [ 13.561740143854747, 46.628237264818367 ], [ 13.561723354057198, 46.628250975420578 ], [ 13.561589154903055, 46.628388642830714 ], [ 13.56150528070555, 46.628474831093591 ], [ 13.561278774471912, 46.628681787696408 ], [ 13.561165536102582, 46.628742931501392 ], [ 13.561067022432903, 46.628796127411334 ], [ 13.560678285328715, 46.628908484840899 ], [ 13.560643917965756, 46.628965869740995 ], [ 13.560465855558475, 46.629263333984596 ], [ 13.560269245039597, 46.629591697536554 ], [ 13.56024058313996, 46.629639533226346 ], [ 13.559756240700557, 46.629846736180731 ], [ 13.559352150346651, 46.630006357962827 ], [ 13.558946195505513, 46.630127111857348 ], [ 13.558670614802139, 46.630160775379814 ], [ 13.558501298357863, 46.630181628941891 ], [ 13.558383024702678, 46.63019617180219 ], [ 13.558356381867846, 46.63019667494121 ], [ 13.558232832553067, 46.630199081258972 ], [ 13.557939500088045, 46.630204615572922 ], [ 13.557844539520216, 46.630203365338552 ], [ 13.557785499369741, 46.630202583283072 ], [ 13.557666243948828, 46.630201111398073 ], [ 13.557616085758578, 46.630200401533259 ], [ 13.557295753352385, 46.630183583620997 ], [ 13.556940540008155, 46.630164944559475 ], [ 13.556158143237901, 46.630440026586399 ], [ 13.556098018502949, 46.630461110264555 ], [ 13.556093845293837, 46.630462648134831 ], [ 13.555952595002935, 46.630480203152331 ], [ 13.555924700986099, 46.630493934845795 ], [ 13.555893808496588, 46.630509022118481 ], [ 13.555878036651707, 46.630516791338394 ], [ 13.555777676774117, 46.630536424756428 ], [ 13.555586223164131, 46.63057396346499 ], [ 13.555404687977999, 46.630609592762767 ], [ 13.553069896265843, 46.631067659173702 ], [ 13.552858219357056, 46.631079679178704 ], [ 13.552805202062391, 46.63108266181473 ], [ 13.552772562333786, 46.631086054595755 ], [ 13.552453475866244, 46.631119157862337 ], [ 13.551904473469975, 46.631176010925905 ], [ 13.551849638473129, 46.631181695958539 ], [ 13.551777253352709, 46.631239601816247 ], [ 13.551365851177085, 46.631568276357974 ], [ 13.551337599552856, 46.631590825377039 ], [ 13.551364983981703, 46.631611827021494 ], [ 13.551412676922164, 46.631648265408266 ], [ 13.552253335525787, 46.632289161404145 ], [ 13.552386851780623, 46.63239084593107 ], [ 13.552498225607144, 46.63247583763841 ], [ 13.55298342484004, 46.632845688355296 ], [ 13.553212465569924, 46.633020337025066 ], [ 13.553554457218047, 46.63328114253364 ], [ 13.553582628579365, 46.633302502016029 ], [ 13.553602152765466, 46.633317490023501 ], [ 13.554149744264997, 46.633609653298606 ], [ 13.554455681185297, 46.633772991451913 ], [ 13.554530038471158, 46.633812705324253 ], [ 13.55456486133248, 46.633831442155234 ], [ 13.554749056905955, 46.633930684916159 ], [ 13.554846849445699, 46.633983309219524 ], [ 13.554980251294282, 46.634055208458115 ], [ 13.555334376698834, 46.634246072395186 ], [ 13.555643730889567, 46.6344127297711 ], [ 13.555772945987158, 46.634482476890938 ], [ 13.555843902693672, 46.634520667007926 ], [ 13.555961073703672, 46.634583869373593 ], [ 13.556375035487385, 46.634806913583674 ], [ 13.556920182670915, 46.635100777918446 ], [ 13.557312543293873, 46.63531045498992 ], [ 13.557439141948356, 46.63537822591946 ], [ 13.557638662195792, 46.635484811632416 ], [ 13.557720486441676, 46.635528467542848 ], [ 13.557820770847758, 46.635582074071387 ], [ 13.558030112182623, 46.6356940381539 ], [ 13.558099892696026, 46.635731329436467 ], [ 13.558380063377484, 46.635881121883486 ], [ 13.558427849652276, 46.635906669895292 ], [ 13.558517661543894, 46.635954628173877 ], [ 13.558590322948435, 46.635993443007933 ], [ 13.558697286189529, 46.636050634493657 ], [ 13.558967900190749, 46.636194686071065 ], [ 13.559017781605084, 46.636221309364068 ], [ 13.559363023058136, 46.636405070345987 ], [ 13.559652493609363, 46.636559159898141 ], [ 13.559824527252205, 46.636650770804998 ], [ 13.559969722179906, 46.636728129080872 ], [ 13.560299128275242, 46.636903461222616 ], [ 13.560403737357182, 46.63695912623291 ], [ 13.560473913440347, 46.636996505237327 ], [ 13.560513976671693, 46.637017839016607 ], [ 13.560619764533905, 46.637074131291001 ], [ 13.560714423935789, 46.637124507436319 ], [ 13.560895626290296, 46.63722104695934 ], [ 13.561266989541958, 46.637186464391029 ], [ 13.561264302774111, 46.637199696495131 ], [ 13.56127666167424, 46.637340845889433 ], [ 13.561310336102215, 46.637395483928053 ], [ 13.561322306661577, 46.637414984770459 ], [ 13.561362431168972, 46.637481126831517 ], [ 13.561578499169906, 46.637665862408802 ], [ 13.561850683951912, 46.637806934687596 ], [ 13.562158091425962, 46.637967009938322 ], [ 13.562169542212825, 46.637987051612868 ], [ 13.562190026048903, 46.638255592306962 ], [ 13.562193899954742, 46.63830606171522 ], [ 13.56230035145612, 46.638485709999586 ], [ 13.562321291854515, 46.638494845107303 ], [ 13.562706917024764, 46.638615889593957 ], [ 13.562744936716506, 46.638617161805335 ], [ 13.562833127196313, 46.638620221290196 ], [ 13.563086205790951, 46.638630052621515 ], [ 13.563176860512517, 46.638628967852647 ], [ 13.563380932515443, 46.638603987331756 ], [ 13.563546341952543, 46.638580165215409 ], [ 13.563815450761394, 46.638551001951598 ], [ 13.563888571165261, 46.638543114219488 ], [ 13.563962487379127, 46.638538014107553 ], [ 13.564123639924777, 46.638526796689334 ], [ 13.564369999286033, 46.638523502219414 ], [ 13.564511074915133, 46.638521683079581 ], [ 13.564542369305499, 46.638568766956723 ], [ 13.564652012427203, 46.638729331294115 ], [ 13.56474857632216, 46.638825768562057 ], [ 13.564852486799147, 46.638929298855373 ], [ 13.564979395194772, 46.638973936566806 ], [ 13.565068885415865, 46.639005424472572 ], [ 13.565217512444869, 46.63905766529647 ], [ 13.565242089417554, 46.639061753644356 ], [ 13.565318564824302, 46.639074282934274 ], [ 13.565400792421743, 46.639087790069532 ], [ 13.565590980890997, 46.639084338746869 ], [ 13.565596728355104, 46.639084236915537 ], [ 13.565676670318005, 46.639082812324389 ], [ 13.565917507943388, 46.63901087315616 ], [ 13.566003875239138, 46.638985051201068 ], [ 13.566556553250953, 46.639186626923966 ], [ 13.566689097028892, 46.639234940117674 ], [ 13.567281295083008, 46.639450916760318 ], [ 13.567849683733815, 46.639658122111356 ], [ 13.569389604684153, 46.640749299535656 ], [ 13.570421122711011, 46.641720238071336 ], [ 13.570884577247076, 46.642030223323431 ], [ 13.57135039590568, 46.642341821288049 ], [ 13.571436091366179, 46.642399135703151 ], [ 13.571453256287707, 46.64241052654193 ], [ 13.571500690788216, 46.642442368216777 ], [ 13.571484855471422, 46.642524101175944 ], [ 13.571444248701463, 46.642734464204906 ], [ 13.571342601139619, 46.643260686923838 ], [ 13.57133877043219, 46.643280580024246 ], [ 13.571198297842013, 46.644007444304137 ], [ 13.570699341022179, 46.645738042731416 ], [ 13.570364413889051, 46.646900086625656 ], [ 13.57034485816841, 46.646968510619764 ], [ 13.570269214720586, 46.64723473301278 ], [ 13.570183408464898, 46.647536967701349 ], [ 13.571019114824571, 46.648866783329154 ], [ 13.571070166112399, 46.648946755512654 ], [ 13.571269009002256, 46.64926512573485 ], [ 13.57146029389842, 46.649528895288022 ], [ 13.571524319005684, 46.649617207747681 ], [ 13.571632781615826, 46.649766970744707 ], [ 13.571783051610026, 46.649974230714754 ], [ 13.571802903327546, 46.650001541834079 ], [ 13.571824991145192, 46.650032177381313 ], [ 13.571913602381303, 46.650154359067947 ], [ 13.571973421727458, 46.650236831653913 ], [ 13.572417012823738, 46.650848817440945 ], [ 13.572851936631537, 46.651448852963426 ], [ 13.572871395030877, 46.651475624871935 ], [ 13.572904396924923, 46.651521353219444 ], [ 13.572975657702743, 46.651619547012828 ], [ 13.573053361652734, 46.651726724797925 ], [ 13.573554303658273, 46.65241776435915 ], [ 13.574413955734526, 46.653603630651681 ], [ 13.574663259350965, 46.653947530678678 ], [ 13.574677986195665, 46.653967834041843 ], [ 13.574632404346362, 46.65400167324637 ], [ 13.574477359546368, 46.654131032967385 ], [ 13.573634818758951, 46.654746749798377 ], [ 13.573275472530222, 46.655009260283173 ], [ 13.573055498598743, 46.65517258786123 ], [ 13.572073869744809, 46.655901420686149 ], [ 13.571854814047864, 46.656067173366353 ], [ 13.571793993929493, 46.656113190647503 ], [ 13.571771331258295, 46.656129974430961 ], [ 13.571639261128652, 46.656227519561249 ], [ 13.571020323312316, 46.656684833105153 ], [ 13.570540353056563, 46.657039546306677 ], [ 13.570006331163139, 46.657377365284376 ], [ 13.569546321402425, 46.657668328244803 ], [ 13.569597200290206, 46.65767838900905 ], [ 13.569717530400313, 46.657702070600209 ], [ 13.570891962726689, 46.657793266766539 ], [ 13.571141124922505, 46.657812626112559 ], [ 13.57248494227761, 46.65764530255047 ], [ 13.573313771488312, 46.657542135394827 ], [ 13.574801333748766, 46.657608599431228 ], [ 13.576241845246006, 46.657672895885931 ], [ 13.576508818768046, 46.657643077250427 ], [ 13.577015336047431, 46.657586466674317 ], [ 13.577415493338366, 46.657332763587867 ], [ 13.57772167632417, 46.656762092200438 ], [ 13.578015803482005, 46.656214030536397 ], [ 13.578320418787369, 46.655646240233644 ], [ 13.578323917256146, 46.655639754244568 ], [ 13.57834477737768, 46.655600838592157 ], [ 13.578367839926464, 46.655557779179851 ], [ 13.578498184185545, 46.65531500619602 ], [ 13.578909703406984, 46.654894544745545 ], [ 13.579121183829328, 46.654678587404369 ], [ 13.580053523699533, 46.653913090224123 ], [ 13.580423390639128, 46.653730345067295 ], [ 13.580538963196991, 46.65365864937656 ], [ 13.580545348051428, 46.653654766332785 ], [ 13.580557731998464, 46.65364835075345 ], [ 13.580869417897921, 46.653487416375569 ], [ 13.581018235647637, 46.653315142260048 ], [ 13.581120356127084, 46.653217112137447 ], [ 13.581154091754874, 46.653109424829381 ], [ 13.581167095861749, 46.653067736635442 ], [ 13.581187055769815, 46.653004438534779 ], [ 13.581324315027054, 46.652735373649413 ], [ 13.58132625789516, 46.652731680294714 ], [ 13.581461953544821, 46.65260451321307 ], [ 13.581653591779325, 46.652424945738296 ], [ 13.581665089841797, 46.652143740691514 ], [ 13.58205414253564, 46.651707481257574 ], [ 13.582154491526904, 46.651594877757063 ], [ 13.58244552780722, 46.651268426023279 ], [ 13.582271956619007, 46.650977462577046 ], [ 13.582284373630655, 46.650754021013967 ], [ 13.58229943485928, 46.650481175965517 ], [ 13.582510781079264, 46.650383173071447 ], [ 13.582623837474069, 46.65033442506941 ], [ 13.58290354380161, 46.650213865742813 ], [ 13.582932753239925, 46.650201294155409 ], [ 13.584714890340003, 46.649433422432537 ], [ 13.585703779245764, 46.64883699997548 ], [ 13.585861792109444, 46.648736410936522 ], [ 13.586082984096116, 46.648595819909261 ], [ 13.586501395178313, 46.64832971667191 ], [ 13.586519631944697, 46.648318068588281 ], [ 13.586532268001763, 46.648310122167679 ], [ 13.5866808991633, 46.648215581557857 ], [ 13.586739908448324, 46.64817801819293 ], [ 13.58691745757169, 46.648065146784084 ], [ 13.587726643963682, 46.647550540575857 ], [ 13.588085232211709, 46.647400997408852 ], [ 13.588538013585117, 46.64719536372052 ], [ 13.58871414524325, 46.647115424451236 ], [ 13.589069665963061, 46.646954008073379 ], [ 13.589493171511757, 46.646693460754165 ], [ 13.58988671094283, 46.646451245524183 ], [ 13.590584421661756, 46.646348339674667 ], [ 13.590659512656798, 46.646368413101712 ], [ 13.590984077560236, 46.646454859408585 ], [ 13.59107944580129, 46.646480284826424 ], [ 13.592011677579652, 46.646728645330022 ], [ 13.592935152509812, 46.646974588944012 ], [ 13.593000171923721, 46.646991984702566 ], [ 13.593016092801838, 46.647014982244791 ], [ 13.593133985504277, 46.647185037841076 ], [ 13.593402010588814, 46.647571772582019 ], [ 13.593705171199474, 46.648009082848105 ], [ 13.594242821497337, 46.648784974779922 ], [ 13.5944285302614, 46.648793902187599 ], [ 13.594495312070391, 46.648797076559482 ], [ 13.594856013338834, 46.648814415251067 ], [ 13.595021073261195, 46.648822309886732 ], [ 13.596273001860704, 46.649133146502905 ], [ 13.596594665711624, 46.649102882654248 ], [ 13.596774499268538, 46.64908590640264 ], [ 13.59691345562611, 46.649072804567005 ], [ 13.597447050680922, 46.649281112568623 ], [ 13.597642764675648, 46.649357584370541 ], [ 13.598048332640435, 46.64951598236793 ], [ 13.598152973472438, 46.64948604385436 ], [ 13.598269226706101, 46.649452838744047 ], [ 13.598418358768049, 46.64941010851269 ], [ 13.598503716982664, 46.649365008837691 ], [ 13.59852521927802, 46.649353621053798 ], [ 13.598579310555314, 46.649326950337084 ], [ 13.5992556427335, 46.648993518744206 ], [ 13.600213493657344, 46.648521211026363 ], [ 13.600982211712097, 46.648272398991757 ], [ 13.601046260226653, 46.648251641951127 ], [ 13.602092827721819, 46.647915243416954 ], [ 13.602301728152684, 46.64798942623559 ], [ 13.602478953592046, 46.648052347174577 ], [ 13.602498456055658, 46.648059228852524 ], [ 13.603059834566421, 46.647816026540504 ], [ 13.603118371084301, 46.647790692662589 ], [ 13.603321878867755, 46.647702477021184 ], [ 13.60411615071739, 46.647422270156945 ], [ 13.604443578796426, 46.647372174984589 ], [ 13.60492518942095, 46.647298493061442 ], [ 13.605167210610174, 46.647333810396205 ], [ 13.605548613738607, 46.647389485353614 ], [ 13.605730882276461, 46.647416128042984 ], [ 13.606088074327303, 46.647412564502609 ], [ 13.607411801544172, 46.647399454398418 ], [ 13.607678977058052, 46.647396824596257 ], [ 13.608652974813445, 46.647517087996711 ], [ 13.608945672830417, 46.647472373294399 ], [ 13.609305082559782, 46.64741750692621 ], [ 13.610786592030278, 46.647143485521362 ], [ 13.610838934148184, 46.64713381898261 ], [ 13.612462819688545, 46.647030922027199 ], [ 13.612658973311525, 46.64713894884455 ], [ 13.613209963700731, 46.647442425510917 ], [ 13.613320144907604, 46.647449889821601 ], [ 13.613921501066724, 46.647490413300254 ], [ 13.614734480666684, 46.647523566910564 ], [ 13.615129335800468, 46.647650348194787 ], [ 13.615576666865373, 46.647569868210731 ], [ 13.616538418185783, 46.647396947227094 ], [ 13.616879232526127, 46.647335625065438 ], [ 13.617355956149515, 46.647255243995303 ], [ 13.617379322421588, 46.647251316051147 ], [ 13.617999915561068, 46.647125760600829 ], [ 13.618353737012278, 46.647054143665308 ], [ 13.618739194822185, 46.646741485436948 ], [ 13.618949028110764, 46.646571165938518 ], [ 13.619208360852282, 46.64644660904225 ], [ 13.61956529990584, 46.646275195214308 ], [ 13.619599834031082, 46.646258641570562 ], [ 13.619731770770553, 46.646083929651091 ], [ 13.619809997898026, 46.645980256516182 ], [ 13.620892862057683, 46.645596532672535 ], [ 13.621902099409795, 46.644887987880047 ], [ 13.622032339208342, 46.644860660934846 ], [ 13.622051783713859, 46.64485656211447 ], [ 13.622531634086092, 46.644755906140986 ], [ 13.623034173739789, 46.644527061661371 ], [ 13.623168409748274, 46.644465981521122 ], [ 13.623195126755403, 46.644453855786431 ], [ 13.623345904952266, 46.644263255088823 ], [ 13.623720511751067, 46.643789997686511 ], [ 13.624475283858795, 46.642836266583274 ], [ 13.62475650693745, 46.64261095538113 ], [ 13.625135281305356, 46.642307200311372 ], [ 13.625175864281548, 46.64227470325195 ], [ 13.625347766141028, 46.642198676625974 ], [ 13.625471446735583, 46.642144009504783 ], [ 13.625684791359879, 46.642049609437208 ], [ 13.625716835330165, 46.641960808360153 ], [ 13.625935213055826, 46.641354242238414 ], [ 13.626287577005309, 46.641001784024382 ], [ 13.626503774523526, 46.640785545313044 ], [ 13.62656605700554, 46.640446347627453 ], [ 13.626556671502806, 46.640331020777872 ], [ 13.626746952887901, 46.640225341542241 ], [ 13.627113031355682, 46.640159963538984 ], [ 13.627542145295141, 46.640083442476197 ], [ 13.628083693659228, 46.639880747004227 ], [ 13.628331320901928, 46.639798939055048 ], [ 13.62860254993473, 46.639709420607801 ], [ 13.629025471198256, 46.639435499265652 ], [ 13.629301688043645, 46.639256438328559 ], [ 13.62970021964577, 46.639085063008764 ], [ 13.630674831471254, 46.638793756729747 ], [ 13.630745534372009, 46.638775664552661 ], [ 13.631854729768341, 46.638492000680628 ], [ 13.632089273303247, 46.63843208368769 ], [ 13.632325642126242, 46.638371621496034 ], [ 13.633206418752145, 46.638124361391199 ], [ 13.633325498403186, 46.638090932595318 ], [ 13.633652347195047, 46.63799918436569 ], [ 13.634648928895199, 46.637719392212681 ], [ 13.635110942148113, 46.6376678580502 ], [ 13.636056897890063, 46.637562295721516 ], [ 13.636491442735062, 46.637550959725019 ], [ 13.637162387625342, 46.637440369268901 ], [ 13.637271231631862, 46.637422440054777 ], [ 13.637849496995162, 46.637347276760039 ], [ 13.638308447776973, 46.637378247247206 ], [ 13.639188583812565, 46.637437585832444 ], [ 13.639266834995009, 46.637438183158217 ], [ 13.640011464094336, 46.637444166584501 ], [ 13.642817016761759, 46.637466276980405 ], [ 13.643644952926657, 46.63735350697727 ], [ 13.643735016498892, 46.637341201862455 ], [ 13.643812794206989, 46.637350255238331 ], [ 13.64520952490791, 46.637512046185378 ], [ 13.646396719537787, 46.637649478506212 ], [ 13.647355877762907, 46.637793742648057 ], [ 13.64752650256397, 46.637819360460895 ], [ 13.648176709763993, 46.637917150566835 ], [ 13.648338836460445, 46.637941441236585 ], [ 13.648552667935181, 46.638049986082692 ], [ 13.648610973450936, 46.638079515568691 ], [ 13.649340989491023, 46.638351902254207 ], [ 13.649772901418745, 46.638513009717926 ], [ 13.650568145438534, 46.638548294017973 ], [ 13.650991640058269, 46.638567075821179 ], [ 13.653091834145449, 46.638195735343075 ], [ 13.653351353876523, 46.638122386488924 ], [ 13.653658082239225, 46.638035766080023 ], [ 13.653964939699131, 46.637949054489873 ], [ 13.654004454126506, 46.637937874772085 ], [ 13.655036688546524, 46.63767417667566 ], [ 13.65602889635335, 46.63772784516884 ], [ 13.656338332911831, 46.637744594091586 ], [ 13.6565467583955, 46.637755873415955 ], [ 13.656628298823851, 46.637760228328567 ], [ 13.657943733592569, 46.637734581432582 ], [ 13.658904336110204, 46.637467095225688 ], [ 13.659288391439414, 46.637360080988152 ], [ 13.659732576150725, 46.63730255896288 ], [ 13.660582044798291, 46.637192391474699 ], [ 13.661263131154566, 46.637104032526246 ], [ 13.661441623791157, 46.63706995116619 ], [ 13.66195974571022, 46.636970815256419 ], [ 13.662550652703997, 46.636875963191059 ], [ 13.66302880532086, 46.636799163648035 ], [ 13.663981818572937, 46.636937635886319 ], [ 13.6644114536568, 46.63699998847153 ], [ 13.664496539274383, 46.63702844131366 ], [ 13.665200790228852, 46.637264000360844 ], [ 13.665258232587188, 46.637279397299956 ], [ 13.666199683691726, 46.637530717021527 ], [ 13.666621576441008, 46.637879573286646 ], [ 13.666765097588847, 46.63799827921023 ], [ 13.666862397857949, 46.638078701280179 ], [ 13.666935668432954, 46.638139219353917 ], [ 13.667421565758548, 46.638004882472082 ], [ 13.667452602226662, 46.63799624255148 ], [ 13.667463165242644, 46.637993331938333 ], [ 13.667730237995428, 46.637919477659089 ], [ 13.668392552067465, 46.637921019162441 ], [ 13.668411666290707, 46.637927710652448 ], [ 13.668597180983141, 46.637992932542893 ], [ 13.669158177680972, 46.638189932789665 ], [ 13.669191824279778, 46.63820170956626 ], [ 13.669221027766651, 46.638213229645039 ], [ 13.669575534855033, 46.638353797295068 ], [ 13.669911120528004, 46.638455819892052 ], [ 13.670110456859657, 46.638516409151819 ], [ 13.670439311678575, 46.638855811714279 ], [ 13.670803335108394, 46.638992028130019 ], [ 13.671750065622344, 46.639346130550884 ], [ 13.672499732486552, 46.639399932638788 ], [ 13.672673472566427, 46.63935792976077 ], [ 13.673078734202154, 46.639259892407317 ], [ 13.673626216017711, 46.639155575607127 ], [ 13.673850925008082, 46.639055651214427 ], [ 13.674193262884513, 46.638903453393169 ], [ 13.674573703604674, 46.638744930671294 ], [ 13.674761448307185, 46.638666801051855 ], [ 13.675031961300606, 46.638621262048183 ], [ 13.675040443130211, 46.638619796680928 ], [ 13.675266196359191, 46.638581771027802 ], [ 13.675728191522751, 46.638511804982812 ], [ 13.675863853703143, 46.638501495095241 ], [ 13.67590855717156, 46.638505678124233 ], [ 13.676128546426735, 46.63852642378167 ], [ 13.676219392126505, 46.638535055167559 ], [ 13.67688200087389, 46.638581174956116 ], [ 13.676959762848622, 46.63858660643632 ], [ 13.676978010722399, 46.638580252337036 ], [ 13.677726822389435, 46.638319639755572 ], [ 13.678359658365226, 46.63814512624667 ], [ 13.678785545532003, 46.638027659950218 ], [ 13.679401174453378, 46.637960716842407 ], [ 13.680826265355687, 46.637803638483085 ], [ 13.682309698451746, 46.63764015294614 ], [ 13.682703791049724, 46.637596732079899 ], [ 13.68475669981213, 46.637125432463137 ], [ 13.685238750641147, 46.637149121771735 ], [ 13.685509844314518, 46.637214048590877 ], [ 13.686327183508858, 46.637409532263653 ], [ 13.686421648627881, 46.637432180639763 ], [ 13.687008428388021, 46.637568186456924 ], [ 13.687610584796884, 46.637698022392264 ], [ 13.687966563091949, 46.637738472359054 ], [ 13.688204099969397, 46.637765437693915 ], [ 13.688989674603606, 46.637915743303957 ], [ 13.689053916636508, 46.63793101671002 ], [ 13.689291686175036, 46.637992710487723 ], [ 13.689612279325269, 46.638093912144058 ], [ 13.690888340502816, 46.638041552059221 ], [ 13.691350790955962, 46.63806275809965 ], [ 13.691502370930156, 46.638069654572661 ], [ 13.691924835256023, 46.638088915863726 ], [ 13.6921684984771, 46.638035503103524 ], [ 13.692697042484378, 46.637919636743689 ], [ 13.693921998375895, 46.637651098412228 ], [ 13.694078876918416, 46.637630261269493 ], [ 13.694616334646026, 46.637558806443892 ], [ 13.694894144793167, 46.637533171445021 ], [ 13.695204024433723, 46.637555750913357 ], [ 13.695759874166274, 46.637596254068157 ], [ 13.696117252763893, 46.637649720626079 ], [ 13.696997561002554, 46.637781489956097 ], [ 13.697048036460142, 46.637789065143821 ], [ 13.697085592123946, 46.637779316277573 ], [ 13.697151184026763, 46.63776227864728 ], [ 13.697224078248041, 46.637743327860768 ], [ 13.697915202244262, 46.637563747358641 ], [ 13.698297066217132, 46.637510503947951 ], [ 13.698751491696855, 46.637447216360073 ], [ 13.699182470571426, 46.637565668510042 ], [ 13.70024431979456, 46.637710139697553 ], [ 13.701676549771978, 46.637631865100872 ], [ 13.70237957231028, 46.637475162678221 ], [ 13.703445735733489, 46.637203981451506 ], [ 13.704153616969068, 46.637165483018904 ], [ 13.704705278703926, 46.637129204686609 ], [ 13.70530916807429, 46.637089512052171 ], [ 13.705395344516569, 46.637083828866302 ], [ 13.705443525315646, 46.637080700497826 ], [ 13.705465200048085, 46.637079279250486 ], [ 13.705547808771877, 46.637105279973468 ], [ 13.705608947066683, 46.637124513245595 ], [ 13.705649008021581, 46.637137157758779 ], [ 13.706433093687938, 46.637405218079643 ], [ 13.70648198626297, 46.637391739444908 ], [ 13.707107813703432, 46.637219876871654 ], [ 13.707333702547437, 46.637167929901416 ], [ 13.707455906554058, 46.637139811021427 ], [ 13.70772274678559, 46.637078459568293 ], [ 13.708012664184011, 46.636954945948055 ], [ 13.708188620081222, 46.636880038939189 ], [ 13.708341652739483, 46.636814835588652 ], [ 13.708413154642168, 46.636784365008864 ], [ 13.70867322566936, 46.636596524794896 ], [ 13.709773459255656, 46.636273252835188 ], [ 13.710019827673811, 46.636106870035981 ], [ 13.710233979779206, 46.636225554727055 ], [ 13.710309124264876, 46.636267323077973 ], [ 13.711112287561088, 46.635961587412822 ], [ 13.711368020759464, 46.635808756934054 ], [ 13.711471042324053, 46.635747226232333 ], [ 13.711557543807883, 46.635695558488329 ], [ 13.711742939865593, 46.63568224914755 ], [ 13.711976251815324, 46.635665539294116 ], [ 13.711999579270961, 46.635620921800829 ], [ 13.712085412630548, 46.635456603454443 ], [ 13.712118146626672, 46.635393778765234 ], [ 13.712216602011127, 46.635388588948771 ], [ 13.712547224146672, 46.635371190758555 ], [ 13.713329870187016, 46.635417052304852 ], [ 13.713460016138196, 46.635441357289267 ], [ 13.713739011857072, 46.635493322832026 ], [ 13.713747766821104, 46.635493743165732 ], [ 13.71376841106931, 46.635494483271152 ], [ 13.713921942159793, 46.635500803147856 ], [ 13.713968851314478, 46.635502804173093 ], [ 13.714536067525852, 46.635526170540963 ], [ 13.714707630605695, 46.635533238147872 ], [ 13.715255766054351, 46.635646643482929 ], [ 13.716261098791122, 46.636015380652168 ], [ 13.71630469710971, 46.636011003519791 ], [ 13.716388890005494, 46.636002349393266 ], [ 13.71683317375784, 46.635913919469331 ], [ 13.717840277695403, 46.63580017442969 ], [ 13.717919765604812, 46.635791265279195 ], [ 13.718171671136362, 46.635762782003184 ], [ 13.718378942182493, 46.635758024932535 ], [ 13.718990958307588, 46.635743784964994 ], [ 13.719450045425143, 46.63571638913313 ], [ 13.719684159014886, 46.635702449902176 ], [ 13.720028065642813, 46.635589337585643 ], [ 13.720066242201584, 46.635593975406287 ], [ 13.720749626131333, 46.63567647725867 ], [ 13.720933186856117, 46.635698610463542 ], [ 13.721125377388875, 46.635721883386751 ], [ 13.721337828005916, 46.635656907742636 ], [ 13.721526166327529, 46.635599392964387 ], [ 13.721623137206352, 46.635569726022375 ], [ 13.72168152841809, 46.635551889106608 ], [ 13.721725269710369, 46.635567304553462 ], [ 13.721819299236884, 46.635600272299065 ], [ 13.722001917076293, 46.635564551132695 ], [ 13.722381761532406, 46.635490268155131 ], [ 13.722651215015809, 46.63548627828466 ], [ 13.722981794226831, 46.635481266621248 ], [ 13.723181816883363, 46.635539600398459 ], [ 13.72359914326101, 46.635661335795128 ], [ 13.723918578088668, 46.635686322678772 ], [ 13.724038431044672, 46.635695624818659 ], [ 13.724281611290829, 46.635707018418465 ], [ 13.724725241640019, 46.635727703016975 ], [ 13.724753205674414, 46.635729045535442 ], [ 13.724759477593546, 46.635729293683745 ], [ 13.724869372412213, 46.635734400562697 ], [ 13.725089469115082, 46.635697374448291 ], [ 13.725229589509397, 46.635673762867796 ], [ 13.725305175084657, 46.635685107144454 ], [ 13.725676174436007, 46.635741042090679 ], [ 13.726055549387123, 46.635674486476795 ], [ 13.726125083887577, 46.635662277038605 ], [ 13.726274328868369, 46.635636112966608 ], [ 13.726346643070807, 46.635611116812555 ], [ 13.726489707762118, 46.635561669688933 ], [ 13.726971605954267, 46.635652574785617 ], [ 13.72701686598543, 46.635661144547328 ], [ 13.727420868640499, 46.635923368169102 ], [ 13.727471663652956, 46.635956212474426 ], [ 13.727743852388523, 46.635968576890136 ], [ 13.727778479795147, 46.635970075293393 ], [ 13.727819772366306, 46.635972000243846 ], [ 13.728199401056649, 46.636081433660976 ], [ 13.728633386852616, 46.636122111837153 ], [ 13.728885804942774, 46.636145790114696 ], [ 13.729167243638383, 46.63626051370079 ], [ 13.729378323785113, 46.636346600918195 ], [ 13.729790479990742, 46.636279197699707 ], [ 13.729988794526514, 46.636246737556242 ], [ 13.730016845530191, 46.636242139910784 ], [ 13.730151110770048, 46.63638014348988 ], [ 13.730620921587587, 46.63649500978979 ], [ 13.730801890733275, 46.636519025638542 ], [ 13.731303349893796, 46.636585729166057 ], [ 13.731431231939826, 46.636602733225651 ], [ 13.731478502402281, 46.636582861018645 ], [ 13.731669148057103, 46.636502916573349 ], [ 13.731937535048232, 46.636390304726689 ], [ 13.731944306772352, 46.63638749145224 ], [ 13.732205954711125, 46.636562382869414 ], [ 13.73228761348949, 46.636616980454257 ], [ 13.732399977625441, 46.636637547500023 ], [ 13.732449160824771, 46.636646461108377 ], [ 13.732504100317481, 46.636656524021163 ], [ 13.732854140936295, 46.636720247771215 ], [ 13.733151964158274, 46.636666194398153 ], [ 13.733373342332339, 46.636626088308809 ], [ 13.733429217871436, 46.636743761281963 ], [ 13.733725407735019, 46.636803084628099 ], [ 13.733840645664003, 46.636788638541375 ], [ 13.733869748371681, 46.636784935980955 ], [ 13.733924169657291, 46.636778084158024 ], [ 13.733959276443192, 46.636773730384334 ], [ 13.734996197610792, 46.63673656742067 ], [ 13.735016439261424, 46.6367357754471 ], [ 13.735534902027911, 46.636839110660901 ], [ 13.73647606743882, 46.637026591317188 ], [ 13.736754860337156, 46.637082189880211 ], [ 13.737429345195299, 46.637329372704464 ], [ 13.737602781900094, 46.6373929950622 ], [ 13.737753294476681, 46.637448151499832 ], [ 13.737961534295426, 46.637432647587616 ], [ 13.738259858804909, 46.637410431189103 ], [ 13.738341849442158, 46.637404377952059 ], [ 13.738703079615785, 46.637443389369565 ], [ 13.739088890224428, 46.637485190434326 ], [ 13.739187171965835, 46.637525776591986 ], [ 13.739759174590677, 46.637761977335288 ], [ 13.740115272781816, 46.637915814898413 ], [ 13.740248521225537, 46.637916233631813 ], [ 13.74054545605053, 46.637917140602887 ], [ 13.741365133486825, 46.638236837569757 ], [ 13.741506246272413, 46.638291933081334 ], [ 13.74198933260481, 46.638480396254337 ], [ 13.742562338799088, 46.638708211274626 ], [ 13.744150874917677, 46.639339837383687 ], [ 13.744205307908178, 46.639351336115794 ], [ 13.744216691604011, 46.639353724024929 ], [ 13.7451400959166, 46.639549115544618 ], [ 13.74573671117764, 46.639701246578767 ], [ 13.745741684960532, 46.639702488073262 ], [ 13.745764068374523, 46.639708254747134 ], [ 13.745813677675743, 46.639720940075364 ], [ 13.746047318735517, 46.639982821126161 ], [ 13.746143621650404, 46.640019629429013 ], [ 13.746400035850881, 46.640117486019413 ], [ 13.746806675942924, 46.640349308447817 ], [ 13.747067559928217, 46.640382902677004 ], [ 13.74710273625003, 46.640387362428029 ], [ 13.74757120069531, 46.640403457252518 ], [ 13.747586525427598, 46.640408619663241 ], [ 13.747613377420771, 46.640417788720434 ], [ 13.747696366012077, 46.640438898455308 ], [ 13.748102629531607, 46.640402222563011 ], [ 13.748138311738622, 46.640404520652005 ], [ 13.748376454467143, 46.640419839994706 ], [ 13.748482634902363, 46.640399293795141 ], [ 13.748595208681451, 46.640377734178152 ], [ 13.749136650687072, 46.640320221318582 ], [ 13.749701065010843, 46.640260281555726 ], [ 13.750586256583246, 46.639839958645872 ], [ 13.75167811775443, 46.639321595300153 ], [ 13.752238291709078, 46.639055608333486 ], [ 13.752800932908773, 46.6387884396703 ], [ 13.753041579748162, 46.63867417113034 ], [ 13.753587293957423, 46.638415069626092 ], [ 13.753598616343552, 46.638409628709304 ], [ 13.754135652212957, 46.638094230509566 ], [ 13.754290910278231, 46.638003042585524 ], [ 13.754793869396883, 46.637707563730203 ], [ 13.755334271872751, 46.637390167678888 ], [ 13.755368729102736, 46.637369883517287 ], [ 13.755404356982305, 46.637348965113055 ], [ 13.755458242841895, 46.637324199224466 ], [ 13.755489611811248, 46.63730986515845 ], [ 13.755844556491704, 46.637147024029588 ], [ 13.756277223865672, 46.637050204099872 ], [ 13.75709817935947, 46.636878050979753 ], [ 13.757285452716664, 46.636838745963075 ], [ 13.757354310631003, 46.636824270342004 ], [ 13.757543800686415, 46.636784506663574 ], [ 13.758022996711807, 46.636658621842329 ], [ 13.758344877611497, 46.636544755606153 ], [ 13.758544575559174, 46.636474719043655 ], [ 13.758831551265093, 46.636374119934153 ], [ 13.759732275098141, 46.636034736674311 ], [ 13.759781361111887, 46.636030951810589 ], [ 13.760119519563478, 46.635944372289551 ], [ 13.76064906977442, 46.635729926892324 ], [ 13.760833384981094, 46.635713571643237 ], [ 13.760994595562734, 46.63569928329504 ], [ 13.7611056805106, 46.635689413973587 ], [ 13.76113060812877, 46.635572347580748 ], [ 13.761163588097334, 46.635416829887141 ], [ 13.761169198310625, 46.635383336667523 ], [ 13.761426361155149, 46.635280324710997 ], [ 13.761660150800454, 46.635129622534706 ] ] ] } }
]
}
