{
"type": "FeatureCollection",
"name": "munsterlingen",
"crs": { "type": "name", "properties": { "name": "urn:ogc:def:crs:OGC:1.3:CRS84" } },
"features": [
{ "type": "Feature", "properties": { "name": "Münsterlingen", "feature_type": "entity", "metric_roundness": 42.84, "metric_rectangularity": 60.76, "metric_mobile_fit": 7.71, "metric_aspect_ratio": 1.485, "metric_area_km2": 11.86 }, "geometry": { "type": "Polygon", "coordinates": [ [ [ 9.216382, 47.620453499999982 ], [ 9.214835, 47.617967 ], [ 9.2187545, 47.616621 ], [ 9.222506, 47.6154205 ], [ 9.223742, 47.6181455 ], [ 9.2263885, 47.617322 ], [ 9.2294485, 47.6200815 ], [ 9.23365, 47.6176325 ], [ 9.235805, 47.619200499999977 ], [ 9.2401975, 47.615327 ], [ 9.2439369, 47.6179249 ], [ 9.2571974, 47.618702 ], [ 9.264501, 47.623736 ], [ 9.2456154, 47.6315743 ], [ 9.2245559, 47.6352913 ], [ 9.2192935, 47.639012 ], [ 9.2167226, 47.6353552 ], [ 9.2190976, 47.6268703 ], [ 9.2122995, 47.6217215 ], [ 9.216382, 47.620453499999982 ] ] ] } },
{ "type": "Feature", "properties": { "name": "Münsterlingen", "feature_type": "circle", "metric_roundness": 42.84, "metric_rectangularity": 60.76, "metric_mobile_fit": 7.71, "metric_aspect_ratio": 1.485, "metric_area_km2": 11.86 }, "geometry": { "type": "Polygon", "coordinates": [ [ [ 9.264767389934109, 47.626270129242812 ], [ 9.264730842391817, 47.625329473414851 ], [ 9.264621299939213, 47.624391379000819 ], [ 9.26443906282455, 47.623458417460085 ], [ 9.264184630547087, 47.622533146319192 ], [ 9.263858700488015, 47.621618102158109 ], [ 9.263462165998966, 47.620715793652408 ], [ 9.262996113953417, 47.619828694690568 ], [ 9.262461821767628, 47.618959237585251 ], [ 9.261860753899342, 47.618109806397392 ], [ 9.261194557833804, 47.617282730391338 ], [ 9.260465059568125, 47.616480277639184 ], [ 9.259674258606346, 47.615704648791919 ], [ 9.258824322478933, 47.614957971034691 ], [ 9.257917580801733, 47.61424229224265 ], [ 9.256956518890657, 47.613559575353889 ], [ 9.255943770949601, 47.612911692974777 ], [ 9.254882112850277, 47.612300422232664 ], [ 9.253774454523736, 47.611727439890451 ], [ 9.252623831984465, 47.611194317736299 ], [ 9.251433399008858, 47.610702518261355 ], [ 9.250206418490963, 47.610253390637638 ], [ 9.248946253499087, 47.609848167007065 ], [ 9.247656358057883, 47.609487959091993 ], [ 9.246340267681095, 47.609173755136773 ], [ 9.245001589680967, 47.608906417188777 ], [ 9.243643993280845, 47.608686678726386 ], [ 9.242271199558097, 47.608515142640634 ], [ 9.240886971244892, 47.608392279576172 ], [ 9.239495102414825, 47.608318426636004 ], [ 9.23809940808361, 47.608293786453771 ], [ 9.236703713752394, 47.608318426636004 ], [ 9.235311844922327, 47.608392279576172 ], [ 9.233927616609124, 47.608515142640634 ], [ 9.232554822886375, 47.608686678726386 ], [ 9.231197226486252, 47.608906417188777 ], [ 9.229858548486124, 47.609173755136773 ], [ 9.228542458109336, 47.609487959091993 ], [ 9.227252562668133, 47.609848167007065 ], [ 9.225992397676256, 47.610253390637638 ], [ 9.224765417158361, 47.610702518261355 ], [ 9.223574984182756, 47.611194317736299 ], [ 9.222424361643483, 47.611727439890451 ], [ 9.221316703316944, 47.612300422232664 ], [ 9.22025504521762, 47.612911692974777 ], [ 9.219242297276564, 47.613559575353889 ], [ 9.218281235365486, 47.61424229224265 ], [ 9.217374493688286, 47.614957971034691 ], [ 9.216524557560874, 47.615704648791919 ], [ 9.215733756599095, 47.616480277639184 ], [ 9.215004258333416, 47.617282730391338 ], [ 9.214338062267878, 47.618109806397392 ], [ 9.213736994399591, 47.618959237585251 ], [ 9.213202702213803, 47.619828694690568 ], [ 9.212736650168253, 47.620715793652408 ], [ 9.212340115679204, 47.621618102158109 ], [ 9.212014185620133, 47.622533146319192 ], [ 9.211759753342669, 47.623458417460085 ], [ 9.211577516228006, 47.624391379000819 ], [ 9.211467973775402, 47.625329473414851 ], [ 9.21143142623311, 47.626270129242812 ], [ 9.211467973775402, 47.627210768142973 ], [ 9.211577516228006, 47.628148811959072 ], [ 9.211759753342669, 47.629081689786098 ], [ 9.212014185620133, 47.630006845014705 ], [ 9.212340115679204, 47.630921742334856 ], [ 9.212736650168253, 47.631823874679831 ], [ 9.213202702213803, 47.632710770091194 ], [ 9.213736994399591, 47.633579998486418 ], [ 9.214338062267878, 47.634429178310349 ], [ 9.215004258333416, 47.635255983052673 ], [ 9.215733756599095, 47.636058147613298 ], [ 9.216524557560874, 47.636833474498715 ], [ 9.217374493688286, 47.637579839832142 ], [ 9.218281235365486, 47.638295199161412 ], [ 9.219242297276562, 47.638977593048523 ], [ 9.22025504521762, 47.639625152426007 ], [ 9.221316703316944, 47.640236103705355 ], [ 9.222424361643483, 47.640808773623775 ], [ 9.223574984182756, 47.641341593816094 ], [ 9.224765417158361, 47.641833105099508 ], [ 9.225992397676256, 47.642281961459496 ], [ 9.227252562668133, 47.642686933726168 ], [ 9.228542458109336, 47.643046912931162 ], [ 9.229858548486124, 47.643360913335897 ], [ 9.231197226486252, 47.643628075123175 ], [ 9.232554822886375, 47.643847666744662 ], [ 9.233927616609124, 47.644019086918121 ], [ 9.235311844922327, 47.644141866268882 ], [ 9.236703713752394, 47.64421566861111 ], [ 9.23809940808361, 47.64424029186555 ], [ 9.239495102414825, 47.64421566861111 ], [ 9.240886971244892, 47.644141866268882 ], [ 9.242271199558097, 47.644019086918121 ], [ 9.243643993280845, 47.643847666744662 ], [ 9.245001589680967, 47.643628075123175 ], [ 9.246340267681095, 47.643360913335897 ], [ 9.247656358057883, 47.643046912931162 ], [ 9.248946253499087, 47.642686933726168 ], [ 9.250206418490963, 47.642281961459496 ], [ 9.251433399008858, 47.641833105099508 ], [ 9.252623831984465, 47.641341593816094 ], [ 9.253774454523736, 47.640808773623775 ], [ 9.254882112850277, 47.640236103705355 ], [ 9.255943770949601, 47.639625152426007 ], [ 9.256956518890656, 47.638977593048523 ], [ 9.257917580801733, 47.638295199161412 ], [ 9.258824322478933, 47.637579839832142 ], [ 9.259674258606346, 47.636833474498715 ], [ 9.260465059568125, 47.636058147613298 ], [ 9.261194557833804, 47.635255983052673 ], [ 9.261860753899342, 47.634429178310349 ], [ 9.262461821767628, 47.633579998486418 ], [ 9.262996113953417, 47.632710770091194 ], [ 9.263462165998966, 47.631823874679831 ], [ 9.263858700488015, 47.630921742334856 ], [ 9.264184630547087, 47.630006845014705 ], [ 9.26443906282455, 47.629081689786098 ], [ 9.264621299939213, 47.628148811959072 ], [ 9.264730842391817, 47.627210768142973 ], [ 9.264767389934109, 47.626270129242812 ] ] ] } },
{ "type": "Feature", "properties": { "name": "Münsterlingen", "feature_type": "mrr", "metric_roundness": 42.84, "metric_rectangularity": 60.76, "metric_mobile_fit": 7.71, "metric_aspect_ratio": 1.485, "metric_area_km2": 11.86 }, "geometry": { "type": "Polygon", "coordinates": [ [ [ 9.219042450367544, 47.639082932708789 ], [ 9.26582446930832, 47.62586316518172 ], [ 9.25382132815697, 47.606567707486548 ], [ 9.207039309216196, 47.619792354774368 ], [ 9.219042450367544, 47.639082932708789 ] ] ] } }
]
}
