{
"type": "FeatureCollection",
"name": "mureaumont",
"crs": { "type": "name", "properties": { "name": "urn:ogc:def:crs:OGC:1.3:CRS84" } },
"features": [
{ "type": "Feature", "properties": { "name": "Mureaumont", "feature_type": "entity", "metric_roundness": 29.9, "metric_rectangularity": 48.43, "metric_mobile_fit": 56.9, "metric_aspect_ratio": 0.993, "metric_area_km2": 11.85 }, "geometry": { "type": "Polygon", "coordinates": [ [ [ 1.8072229, 49.611218799999982 ], [ 1.807175, 49.626277 ], [ 1.801398, 49.6269999 ], [ 1.7885528, 49.6226966 ], [ 1.775702, 49.6402 ], [ 1.7693764, 49.633961899999989 ], [ 1.7598133, 49.63347539999998 ], [ 1.7588005, 49.630950499999983 ], [ 1.7811805, 49.619189 ], [ 1.787286, 49.6103095 ], [ 1.7927425, 49.610523 ], [ 1.7995355, 49.609969 ], [ 1.8028355, 49.61155549999998 ], [ 1.8066055, 49.607836 ], [ 1.808703, 49.606902 ], [ 1.8098665, 49.607949 ], [ 1.8072229, 49.611218799999982 ] ] ] } },
{ "type": "Feature", "properties": { "name": "Mureaumont", "feature_type": "circle", "metric_roundness": 29.9, "metric_rectangularity": 48.43, "metric_mobile_fit": 56.9, "metric_aspect_ratio": 0.993, "metric_area_km2": 11.85 }, "geometry": { "type": "Polygon", "coordinates": [ [ [ 1.816333726936406, 49.62031857565286 ], [ 1.81628999576027, 49.619236637477655 ], [ 1.816158922095974, 49.61815764089566 ], [ 1.815940865207321, 49.617084543656304 ], [ 1.815636422773087, 49.616020287532393 ], [ 1.815246429248822, 49.614967790251519 ], [ 1.814771953579668, 49.613929937491463 ], [ 1.814214296270454, 49.612909574961265 ], [ 1.813574985821102, 49.611909500590173 ], [ 1.812855774537116, 49.610932456845688 ], [ 1.812058633726632, 49.609981123202012 ], [ 1.811185748297206, 49.609058108779799 ], [ 1.810239510767125, 49.608165945177376 ], [ 1.809222514707686, 49.607307079513411 ], [ 1.808137547634398, 49.606483867700234 ], [ 1.806987583366595, 49.605698567966527 ], [ 1.8057757738764, 49.604953334647213 ], [ 1.804505440649395, 49.604250212257995 ], [ 1.803180065580655, 49.603591129870821 ], [ 1.801803281431117, 49.602977895806049 ], [ 1.800378861870438, 49.602412192655947 ], [ 1.798910711133621, 49.60189557265366 ], [ 1.797402853319788, 49.60142945340008 ], [ 1.795859421362395, 49.601015113961104 ], [ 1.794284645701156, 49.600653691345684 ], [ 1.792682842686696, 49.600346177374739 ], [ 1.791058402749738, 49.600093415949708 ], [ 1.789415778367237, 49.599896100728145 ], [ 1.787759471858446, 49.599754773213107 ], [ 1.786094023044378, 49.599669821261557 ], [ 1.784423996804469, 49.599641478015855 ], [ 1.78275397056456, 49.599669821261557 ], [ 1.781088521750492, 49.599754773213107 ], [ 1.779432215241701, 49.599896100728145 ], [ 1.777789590859199, 49.600093415949708 ], [ 1.776165150922242, 49.600346177374739 ], [ 1.774563347907782, 49.600653691345684 ], [ 1.772988572246543, 49.601015113961104 ], [ 1.77144514028915, 49.60142945340008 ], [ 1.769937282475317, 49.60189557265366 ], [ 1.7684691317385, 49.602412192655947 ], [ 1.767044712177821, 49.602977895806049 ], [ 1.765667928028283, 49.603591129870821 ], [ 1.764342552959543, 49.604250212257995 ], [ 1.763072219732538, 49.604953334647213 ], [ 1.761860410242343, 49.605698567966527 ], [ 1.760710445974539, 49.606483867700234 ], [ 1.759625478901252, 49.607307079513411 ], [ 1.758608482841813, 49.608165945177376 ], [ 1.757662245311732, 49.609058108779799 ], [ 1.756789359882305, 49.609981123202012 ], [ 1.755992219071822, 49.610932456845688 ], [ 1.755273007787836, 49.611909500590173 ], [ 1.754633697338484, 49.612909574961265 ], [ 1.75407604002927, 49.613929937491463 ], [ 1.753601564360116, 49.614967790251519 ], [ 1.753211570835851, 49.616020287532393 ], [ 1.752907128401617, 49.617084543656304 ], [ 1.752689071512964, 49.61815764089566 ], [ 1.752557997848668, 49.619236637477655 ], [ 1.752514266672532, 49.62031857565286 ], [ 1.752557997848668, 49.621400489805389 ], [ 1.752689071512964, 49.622479414582607 ], [ 1.752907128401617, 49.623552393021768 ], [ 1.753211570835851, 49.624616484651689 ], [ 1.753601564360116, 49.62566877354697 ], [ 1.75407604002927, 49.626706376312995 ], [ 1.754633697338484, 49.627726449979669 ], [ 1.755273007787836, 49.628726199782598 ], [ 1.755992219071822, 49.629702886810357 ], [ 1.756789359882305, 49.63065383549695 ], [ 1.757662245311732, 49.631576440939448 ], [ 1.758608482841813, 49.632468176020346 ], [ 1.759625478901252, 49.633326598315989 ], [ 1.760710445974539, 49.634149356771644 ], [ 1.761860410242343, 49.634934198125734 ], [ 1.763072219732538, 49.635678973065446 ], [ 1.764342552959543, 49.636381642097156 ], [ 1.765667928028283, 49.637040281116015 ], [ 1.767044712177821, 49.637653086659284 ], [ 1.7684691317385, 49.638218380829663 ], [ 1.769937282475317, 49.638734615874903 ], [ 1.77144514028915, 49.639200378411758 ], [ 1.772988572246543, 49.639614393282599 ], [ 1.774563347907782, 49.639975527034515 ], [ 1.776165150922242, 49.64028279101143 ], [ 1.777789590859199, 49.640535344050896 ], [ 1.779432215241701, 49.640732494778469 ], [ 1.781088521750492, 49.640873703493327 ], [ 1.78275397056456, 49.640958583640099 ], [ 1.784423996804469, 49.640986902863148 ], [ 1.786094023044378, 49.640958583640099 ], [ 1.787759471858446, 49.640873703493327 ], [ 1.789415778367237, 49.640732494778469 ], [ 1.791058402749738, 49.640535344050896 ], [ 1.792682842686696, 49.64028279101143 ], [ 1.794284645701156, 49.639975527034515 ], [ 1.795859421362395, 49.639614393282599 ], [ 1.797402853319788, 49.639200378411758 ], [ 1.798910711133621, 49.638734615874903 ], [ 1.800378861870438, 49.638218380829663 ], [ 1.801803281431117, 49.637653086659284 ], [ 1.803180065580655, 49.637040281116015 ], [ 1.804505440649395, 49.636381642097156 ], [ 1.8057757738764, 49.635678973065446 ], [ 1.806987583366595, 49.634934198125734 ], [ 1.808137547634398, 49.634149356771644 ], [ 1.809222514707686, 49.633326598315989 ], [ 1.810239510767125, 49.632468176020346 ], [ 1.811185748297206, 49.631576440939448 ], [ 1.812058633726632, 49.63065383549695 ], [ 1.812855774537116, 49.629702886810357 ], [ 1.813574985821102, 49.628726199782598 ], [ 1.814214296270454, 49.627726449979669 ], [ 1.814771953579668, 49.626706376312995 ], [ 1.815246429248822, 49.62566877354697 ], [ 1.815636422773087, 49.624616484651689 ], [ 1.815940865207321, 49.623552393021768 ], [ 1.816158922095974, 49.622479414582607 ], [ 1.81628999576027, 49.621400489805389 ], [ 1.816333726936406, 49.62031857565286 ] ] ] } },
{ "type": "Feature", "properties": { "name": "Mureaumont", "feature_type": "mrr", "metric_roundness": 29.9, "metric_rectangularity": 48.43, "metric_mobile_fit": 56.9, "metric_aspect_ratio": 0.993, "metric_area_km2": 11.85 }, "geometry": { "type": "Polygon", "coordinates": [ [ [ 1.79941310380649, 49.601519384058037 ], [ 1.757313439661971, 49.632027815315205 ], [ 1.780613038720758, 49.645518155348789 ], [ 1.822712702865277, 49.615018172864339 ], [ 1.79941310380649, 49.601519384058037 ] ] ] } }
]
}
