{
"type": "FeatureCollection",
"name": "murr",
"crs": { "type": "name", "properties": { "name": "urn:ogc:def:crs:OGC:1.3:CRS84" } },
"features": [
{ "type": "Feature", "properties": { "name": "Murr", "metric_roundness": 65.92, "metric_rectangularity": 89.65, "metric_mobile_fit": 59.65, "metric_aspect_ratio": 0.966, "metric_area_km2": 14.7 }, "geometry": { "type": "Polygon", "coordinates": [ [ [ 9.2655314, 48.972078699999983 ], [ 9.2563866, 48.977346799999985 ], [ 9.231338, 48.9734415 ], [ 9.2357815, 48.952947 ], [ 9.2487695, 48.9508625 ], [ 9.2703075, 48.9551855 ], [ 9.2655314, 48.972078699999983 ] ] ] } }
]
}
