{
"type": "FeatureCollection",
"name": "weinahr",
"crs": { "type": "name", "properties": { "name": "urn:ogc:def:crs:OGC:1.3:CRS84" } },
"features": [
{ "type": "Feature", "properties": { "name": "Weinähr", "metric_roundness": 25.15, "metric_rectangularity": 42.28, "metric_mobile_fit": 61.5, "metric_aspect_ratio": 0.948, "metric_area_km2": 8.52 }, "geometry": { "type": "Polygon", "coordinates": [ [ [ 7.8569276, 50.320481699999988 ], [ 7.8572234, 50.3282387 ], [ 7.8513213, 50.3334094 ], [ 7.8568165, 50.33463 ], [ 7.8545862, 50.337444 ], [ 7.8609026, 50.33942709999998 ], [ 7.8620485, 50.342738 ], [ 7.8664704, 50.343733699999987 ], [ 7.8667765, 50.346167 ], [ 7.8430799, 50.3380263 ], [ 7.8411854, 50.3350674 ], [ 7.8430263, 50.330327499999989 ], [ 7.8339666, 50.3235416 ], [ 7.827203, 50.328245499999987 ], [ 7.8252403, 50.3194193 ], [ 7.8355365, 50.318184 ], [ 7.8569276, 50.320481699999988 ] ] ] } }
]
}
