{
"type": "FeatureCollection",
"name": "weissdorf",
"crs": { "type": "name", "properties": { "name": "urn:ogc:def:crs:OGC:1.3:CRS84" } },
"features": [
{ "type": "Feature", "properties": { "name": "Weißdorf", "feature_type": "entity", "metric_roundness": 41.76, "metric_rectangularity": 58.89, "metric_mobile_fit": 67.15, "metric_aspect_ratio": 0.891, "metric_area_km2": 54.06 }, "geometry": { "type": "Polygon", "coordinates": [ [ [ 11.8987546, 50.164947299999987 ], [ 11.8897595, 50.172532499999988 ], [ 11.8914897, 50.186609499999989 ], [ 11.8789158, 50.189688799999985 ], [ 11.8828612, 50.1955068 ], [ 11.8820116, 50.198693799999987 ], [ 11.87051, 50.2028543 ], [ 11.8576894, 50.2003497 ], [ 11.8574596, 50.2066081 ], [ 11.8473182, 50.208997 ], [ 11.8469045, 50.213078 ], [ 11.8359459, 50.212199299999988 ], [ 11.8195114, 50.198257 ], [ 11.8177964, 50.19033049999998 ], [ 11.8256495, 50.1817038 ], [ 11.82263, 50.171561499999981 ], [ 11.8464986, 50.174431399999982 ], [ 11.8623151, 50.1632787 ], [ 11.8767118, 50.162689 ], [ 11.8823017, 50.157910799999982 ], [ 11.8852215, 50.145417499999986 ], [ 11.911935, 50.161163 ], [ 11.8987546, 50.164947299999987 ] ] ] } },
{ "type": "Feature", "properties": { "name": "Weißdorf", "feature_type": "circle", "metric_roundness": 41.76, "metric_rectangularity": 58.89, "metric_mobile_fit": 67.15, "metric_aspect_ratio": 0.891, "metric_area_km2": 54.06 }, "geometry": { "type": "Polygon", "coordinates": [ [ [ 11.919190526351892, 50.179101052289006 ], [ 11.919111480302696, 50.177167902256762 ], [ 11.918874558814831, 50.175239972951488 ], [ 11.918480411273633, 50.173322549652845 ], [ 11.917930118010105, 50.171420889472969 ], [ 11.917225187339842, 50.169540206929554 ], [ 11.916367551428806, 50.167685659629264 ], [ 11.91535956099742, 50.165862334100481 ], [ 11.914203978877389, 50.164075231814913 ], [ 11.912903972438984, 50.162329255436561 ], [ 11.911463104909483, 50.160629195336334 ], [ 11.909885325606636, 50.158979716409668 ], [ 11.908174959113845, 50.157385345234026 ], [ 11.906336693426773, 50.155850457601829 ], [ 11.9043755671039, 50.154379266463991 ], [ 11.902296955456155, 50.152975810317521 ], [ 11.900106555813583, 50.151643942069803 ], [ 11.897810371909353, 50.150387318410871 ], [ 11.895414697423938, 50.149209389723481 ], [ 11.892926098734586, 50.148113390559416 ], [ 11.890351396917321, 50.147102330708805 ], [ 11.887697649050857, 50.14617898688762 ], [ 11.884972128873642, 50.145345895067045 ], [ 11.882182306847028, 50.14460534346599 ], [ 11.879335829679272, 50.143959366227065 ], [ 11.876440499366437, 50.143409737793455 ], [ 11.873504251807656, 50.142957968002996 ], [ 11.870535135053395, 50.142605297913143 ], [ 11.867541287246294, 50.142352696368782 ], [ 11.864530914315093, 50.142200857322564 ], [ 11.861512267482748, 50.142150197915385 ], [ 11.858493620650403, 50.142200857322564 ], [ 11.855483247719201, 50.142352696368782 ], [ 11.8524893999121, 50.142605297913143 ], [ 11.849520283157839, 50.142957968002996 ], [ 11.84658403559906, 50.143409737793455 ], [ 11.843688705286226, 50.143959366227065 ], [ 11.840842228118468, 50.14460534346599 ], [ 11.838052406091853, 50.145345895067045 ], [ 11.835326885914638, 50.14617898688762 ], [ 11.832673138048175, 50.147102330708805 ], [ 11.830098436230911, 50.148113390559416 ], [ 11.827609837541557, 50.149209389723481 ], [ 11.825214163056144, 50.150387318410871 ], [ 11.822917979151914, 50.151643942069803 ], [ 11.820727579509342, 50.152975810317521 ], [ 11.818648967861597, 50.154379266463991 ], [ 11.816687841538723, 50.155850457601829 ], [ 11.814849575851651, 50.157385345234026 ], [ 11.813139209358861, 50.158979716409668 ], [ 11.811561430056013, 50.160629195336334 ], [ 11.810120562526512, 50.162329255436561 ], [ 11.808820556088108, 50.164075231814913 ], [ 11.807664973968075, 50.165862334100481 ], [ 11.806656983536689, 50.167685659629264 ], [ 11.805799347625655, 50.169540206929554 ], [ 11.805094416955392, 50.171420889472969 ], [ 11.804544123691864, 50.173322549652845 ], [ 11.804149976150665, 50.175239972951488 ], [ 11.8039130546628, 50.177167902256762 ], [ 11.803834008613604, 50.179101052289006 ], [ 11.8039130546628, 50.181034124097991 ], [ 11.804149976150665, 50.182961819590524 ], [ 11.804544123691864, 50.184878856048599 ], [ 11.805094416955392, 50.18677998059843 ], [ 11.805799347625655, 50.188659984590792 ], [ 11.806656983536689, 50.190513717853364 ], [ 11.807664973968075, 50.192336102776544 ], [ 11.808820556088108, 50.19412214819409 ], [ 11.810120562526512, 50.195866963021274 ], [ 11.811561430056013, 50.197565769613391 ], [ 11.813139209358861, 50.199213916808688 ], [ 11.814849575851651, 50.20080689262047 ], [ 11.816687841538723, 50.202340336544182 ], [ 11.818648967861597, 50.203810051446489 ], [ 11.820727579509342, 50.205212015004335 ], [ 11.822917979151914, 50.206542390663451 ], [ 11.825214163056144, 50.207797538086915 ], [ 11.827609837541557, 50.20897402306592 ], [ 11.830098436230911, 50.210068626866224 ], [ 11.832673138048175, 50.211078354985631 ], [ 11.835326885914638, 50.212000445298862 ], [ 11.838052406091853, 50.21283237556846 ], [ 11.840842228118468, 50.213571870301671 ], [ 11.843688705286226, 50.214216906935171 ], [ 11.84658403559906, 50.214765721331247 ], [ 11.849520283157839, 50.215216812570795 ], [ 11.8524893999121, 50.215568947030725 ], [ 11.855483247719201, 50.215821161734617 ], [ 11.858493620650403, 50.215972766968143 ], [ 11.861512267482748, 50.216023348152071 ], [ 11.864530914315093, 50.215972766968143 ], [ 11.867541287246294, 50.215821161734617 ], [ 11.870535135053395, 50.215568947030725 ], [ 11.873504251807656, 50.215216812570795 ], [ 11.876440499366437, 50.214765721331247 ], [ 11.879335829679272, 50.214216906935171 ], [ 11.882182306847028, 50.213571870301671 ], [ 11.884972128873642, 50.21283237556846 ], [ 11.887697649050857, 50.212000445298862 ], [ 11.890351396917321, 50.211078354985631 ], [ 11.892926098734586, 50.210068626866224 ], [ 11.895414697423938, 50.20897402306592 ], [ 11.897810371909353, 50.207797538086915 ], [ 11.900106555813583, 50.206542390663451 ], [ 11.902296955456155, 50.205212015004335 ], [ 11.9043755671039, 50.203810051446489 ], [ 11.906336693426773, 50.202340336544182 ], [ 11.908174959113845, 50.20080689262047 ], [ 11.909885325606636, 50.199213916808688 ], [ 11.911463104909483, 50.197565769613391 ], [ 11.912903972438984, 50.195866963021274 ], [ 11.914203978877389, 50.19412214819409 ], [ 11.91535956099742, 50.192336102776544 ], [ 11.916367551428806, 50.190513717853364 ], [ 11.917225187339842, 50.188659984590792 ], [ 11.917930118010105, 50.18677998059843 ], [ 11.918480411273633, 50.184878856048599 ], [ 11.918874558814831, 50.182961819590524 ], [ 11.919111480302696, 50.181034124097991 ], [ 11.919190526351892, 50.179101052289006 ] ] ] } },
{ "type": "Feature", "properties": { "name": "Weißdorf", "feature_type": "mrr", "metric_roundness": 41.76, "metric_rectangularity": 58.89, "metric_mobile_fit": 67.15, "metric_aspect_ratio": 0.891, "metric_area_km2": 54.06 }, "geometry": { "type": "Polygon", "coordinates": [ [ [ 11.892724357862031, 50.142282650339283 ], [ 11.801367746032954, 50.180439328313916 ], [ 11.838465818469464, 50.216863784767419 ], [ 11.929822430298543, 50.178736200646419 ], [ 11.892724357862031, 50.142282650339283 ] ] ] } }
]
}
