{
"type": "FeatureCollection",
"name": "weisspriach",
"crs": { "type": "name", "properties": { "name": "urn:ogc:def:crs:OGC:1.3:CRS84" } },
"features": [
{ "type": "Feature", "properties": { "name": "Weißpriach", "feature_type": "entity", "metric_roundness": 43.32, "metric_rectangularity": 63.17, "metric_mobile_fit": 76.67, "metric_aspect_ratio": 0.796, "metric_area_km2": 175.28 }, "geometry": { "type": "Polygon", "coordinates": [ [ [ 13.6797917, 47.1647779 ], [ 13.697191, 47.1606145 ], [ 13.6974862, 47.1641741 ], [ 13.7050598, 47.1639001 ], [ 13.722932, 47.169454099999982 ], [ 13.7183353, 47.176441599999983 ], [ 13.7212971, 47.184886399999989 ], [ 13.7029773, 47.198161099999986 ], [ 13.697649, 47.213689699999982 ], [ 13.6878081, 47.2203452 ], [ 13.6823803, 47.232828899999987 ], [ 13.6823177, 47.2438052 ], [ 13.6963325, 47.2602125 ], [ 13.6934103, 47.2651269 ], [ 13.6758377, 47.273340099999984 ], [ 13.6319207, 47.274443599999977 ], [ 13.6198522, 47.2830147 ], [ 13.6068405, 47.283295499999987 ], [ 13.6044154, 47.2781002 ], [ 13.5802105, 47.265749499999984 ], [ 13.581512, 47.261166499999987 ], [ 13.579188, 47.255882 ], [ 13.5889926, 47.2471392 ], [ 13.5901657, 47.2381664 ], [ 13.5979828, 47.223605699999986 ], [ 13.6225963, 47.2004261 ], [ 13.6398588, 47.191801499999983 ], [ 13.669254, 47.163159 ], [ 13.6797917, 47.1647779 ] ] ] } },
{ "type": "Feature", "properties": { "name": "Weißpriach", "feature_type": "circle", "metric_roundness": 43.32, "metric_rectangularity": 63.17, "metric_mobile_fit": 76.67, "metric_aspect_ratio": 0.796, "metric_area_km2": 175.28 }, "geometry": { "type": "Polygon", "coordinates": [ [ [ 13.765349192950275, 47.225696225548639 ], [ 13.765209445537755, 47.222071857673654 ], [ 13.764790586338144, 47.218457177162556 ], [ 13.764093763415389, 47.214862094643379 ], [ 13.76312088671269, 47.211296469018748 ], [ 13.761874622817462, 47.207770080388187 ], [ 13.760358387652415, 47.204292603165278 ], [ 13.758576337112745, 47.200873579464066 ], [ 13.756533355675113, 47.197522392828731 ], [ 13.754235043009636, 47.194248242379949 ], [ 13.751687698631571, 47.191060117450064 ], [ 13.748898304634798, 47.187966772778339 ], [ 13.745874506554374, 47.184976704336158 ], [ 13.742624592410653, 47.182098125850359 ], [ 13.739157469992406, 47.179338946090908 ], [ 13.735482642441186, 47.176706746987762 ], [ 13.731610182203875, 47.174208762638827 ], [ 13.727550703424811, 47.171851859268948 ], [ 13.72331533285316, 47.169642516197264 ], [ 13.71891567934526, 47.167586807867302 ], [ 13.714363802045559, 47.1656903869915 ], [ 13.709672177333339, 47.163958468858546 ], [ 13.704853664625828, 47.162395816848672 ], [ 13.69992147113142, 47.161006729198853 ], [ 13.694889115649659, 47.159795027055956 ], [ 13.689770391517117, 47.158764043852521 ], [ 13.684579328800849, 47.157916616035934 ], [ 13.679330155842937, 47.157255075177773 ], [ 13.674037260261587, 47.156781241486421 ], [ 13.668715149515682, 47.156496418741561 ], [ 13.663378411140844, 47.156401390665479 ], [ 13.658041672766007, 47.156496418741561 ], [ 13.652719562020103, 47.156781241486421 ], [ 13.647426666438751, 47.157255075177773 ], [ 13.642177493480837, 47.157916616035934 ], [ 13.636986430764569, 47.158764043852521 ], [ 13.631867706632029, 47.159795027055956 ], [ 13.626835351150268, 47.161006729198853 ], [ 13.62190315765586, 47.162395816848672 ], [ 13.617084644948349, 47.163958468858546 ], [ 13.612393020236128, 47.1656903869915 ], [ 13.607841142936428, 47.167586807867302 ], [ 13.603441489428528, 47.169642516197264 ], [ 13.599206118856875, 47.171851859268948 ], [ 13.595146640077813, 47.174208762638827 ], [ 13.5912741798405, 47.176706746987762 ], [ 13.587599352289281, 47.179338946090908 ], [ 13.584132229871035, 47.182098125850359 ], [ 13.580882315727315, 47.184976704336158 ], [ 13.577858517646888, 47.187966772778339 ], [ 13.575069123650115, 47.191060117450064 ], [ 13.572521779272051, 47.194248242379949 ], [ 13.570223466606574, 47.197522392828731 ], [ 13.568180485168943, 47.200873579464066 ], [ 13.566398434629273, 47.204292603165278 ], [ 13.564882199464227, 47.207770080388187 ], [ 13.563635935569, 47.211296469018748 ], [ 13.562663058866299, 47.214862094643379 ], [ 13.561966235943544, 47.218457177162556 ], [ 13.561547376743931, 47.222071857673654 ], [ 13.561407629331415, 47.225696225548639 ], [ 13.561547376743931, 47.229320345631677 ], [ 13.561966235943544, 47.232934285481804 ], [ 13.562663058866299, 47.236528142585833 ], [ 13.563635935569, 47.240092071467068 ], [ 13.564882199464227, 47.243616310615863 ], [ 13.566398434629273, 47.247091209168872 ], [ 13.568180485168943, 47.250507253264509 ], [ 13.570223466606574, 47.253855092003803 ], [ 13.572521779272051, 47.257125562946378 ], [ 13.575069123650115, 47.260309717073369 ], [ 13.577858517646888, 47.263398843150476 ], [ 13.580882315727315, 47.266384491426159 ], [ 13.584132229871035, 47.269258496601879 ], [ 13.587599352289281, 47.272013000013821 ], [ 13.5912741798405, 47.2746404709671 ], [ 13.595146640077813, 47.27713372716638 ], [ 13.599206118856875, 47.279485954189433 ], [ 13.603441489428528, 47.281690723952146 ], [ 13.607841142936428, 47.283742012117088 ], [ 13.612393020236128, 47.285634214400055 ], [ 13.617084644948349, 47.287362161732133 ], [ 13.62190315765586, 47.288921134237953 ], [ 13.626835351150268, 47.290306873993941 ], [ 13.631867706632029, 47.291515596533422 ], [ 13.636986430764569, 47.292544001068961 ], [ 13.642177493480835, 47.293389279405581 ], [ 13.647426666438751, 47.294049123521816 ], [ 13.652719562020103, 47.294521731799122 ], [ 13.658041672766007, 47.294805813883698 ], [ 13.663378411140844, 47.294900594168062 ], [ 13.668715149515682, 47.294805813883698 ], [ 13.674037260261583, 47.294521731799122 ], [ 13.679330155842937, 47.294049123521816 ], [ 13.684579328800849, 47.293389279405581 ], [ 13.689770391517117, 47.292544001068961 ], [ 13.694889115649659, 47.291515596533422 ], [ 13.69992147113142, 47.290306873993941 ], [ 13.704853664625828, 47.288921134237953 ], [ 13.709672177333339, 47.287362161732133 ], [ 13.714363802045559, 47.285634214400055 ], [ 13.71891567934526, 47.283742012117088 ], [ 13.72331533285316, 47.281690723952146 ], [ 13.727550703424811, 47.279485954189433 ], [ 13.731610182203875, 47.27713372716638 ], [ 13.735482642441186, 47.2746404709671 ], [ 13.739157469992406, 47.272013000013821 ], [ 13.742624592410653, 47.269258496601879 ], [ 13.745874506554374, 47.266384491426159 ], [ 13.748898304634798, 47.263398843150476 ], [ 13.751687698631571, 47.260309717073369 ], [ 13.754235043009636, 47.257125562946378 ], [ 13.756533355675113, 47.253855092003803 ], [ 13.758576337112745, 47.250507253264509 ], [ 13.760358387652415, 47.247091209168872 ], [ 13.761874622817462, 47.243616310615863 ], [ 13.76312088671269, 47.240092071467068 ], [ 13.764093763415389, 47.236528142585833 ], [ 13.764790586338144, 47.232934285481804 ], [ 13.765209445537755, 47.229320345631677 ], [ 13.765349192950275, 47.225696225548639 ] ] ] } },
{ "type": "Feature", "properties": { "name": "Weißpriach", "feature_type": "mrr", "metric_roundness": 43.32, "metric_rectangularity": 63.17, "metric_mobile_fit": 76.67, "metric_aspect_ratio": 0.796, "metric_area_km2": 175.28 }, "geometry": { "type": "Polygon", "coordinates": [ [ [ 13.643086779303175, 47.146068450414582 ], [ 13.569112734278233, 47.273176161444859 ], [ 13.67260404263593, 47.300929963549876 ], [ 13.746578087660874, 47.173888859657247 ], [ 13.643086779303175, 47.146068450414582 ] ] ] } }
]
}
