{
"type": "FeatureCollection",
"name": "weissenburg_i_bay_gk_st",
"crs": { "type": "name", "properties": { "name": "urn:ogc:def:crs:OGC:1.3:CRS84" } },
"features": [
{ "type": "Feature", "properties": { "name": "Weißenburg i.Bay., GKSt", "metric_roundness": 41.6, "metric_rectangularity": 60.66, "metric_mobile_fit": 35.4, "metric_aspect_ratio": 1.209, "metric_area_km2": 226.33 }, "geometry": { "type": "Polygon", "coordinates": [ [ [ 10.9951791, 48.9820749 ], [ 11.0008417, 48.979673199999979 ], [ 10.9992282, 48.9738679 ], [ 11.0100831, 48.9772037 ], [ 11.0486776, 48.975872299999985 ], [ 11.0528721, 48.9714259 ], [ 11.0475828, 48.9584045 ], [ 11.063336, 48.954920199999989 ], [ 11.077408, 48.962988199999984 ], [ 11.0845705, 48.961146499999984 ], [ 11.088158, 48.961865 ], [ 11.0826931, 48.9631626 ], [ 11.0834068, 48.9669347 ], [ 11.059511, 48.9683056 ], [ 11.05251, 48.978514 ], [ 11.0543587, 48.9826882 ], [ 11.0624831, 48.983901499999988 ], [ 11.0639555, 48.989733699999988 ], [ 11.0691501, 48.9910978 ], [ 11.0724195, 48.9986075 ], [ 11.0751192, 49.004863199999988 ], [ 11.0715069, 49.0101613 ], [ 11.0741366, 49.017716199999988 ], [ 11.0667671, 49.022978599999988 ], [ 11.0751319, 49.0319339 ], [ 11.0726993, 49.036698 ], [ 11.0642835, 49.0417595 ], [ 11.0289745, 49.053364 ], [ 11.0100901, 49.0435635 ], [ 11.0010676, 49.0417899 ], [ 10.9767085, 49.047501 ], [ 10.9607886, 49.0452557 ], [ 10.9513358, 49.0530062 ], [ 10.9372729, 49.056624899999989 ], [ 10.9341414, 49.0612784 ], [ 10.9226658, 49.063343899999985 ], [ 10.9110069, 49.055896399999988 ], [ 10.8996005, 49.055502 ], [ 10.8902347, 49.040706899999989 ], [ 10.8935129, 49.031903 ], [ 10.888397, 49.026001099999988 ], [ 10.888445, 49.011019 ], [ 10.9231937, 49.005980699999988 ], [ 10.9270833, 49.001367899999984 ], [ 10.9358733, 49.000147299999988 ], [ 10.9355359, 48.991296399999982 ], [ 10.9297909, 48.987234899999969 ], [ 10.9355146, 48.978952 ], [ 10.9532534, 48.979614599999984 ], [ 10.959669, 48.976983499999989 ], [ 10.9825505, 48.97893 ], [ 10.9951791, 48.9820749 ] ], [ [ 11.065147, 48.963142099999985 ], [ 11.0683902, 48.9606108 ], [ 11.0647054, 48.9584467 ], [ 11.0598015, 48.960657199999986 ], [ 11.065147, 48.963142099999985 ] ] ] } }
]
}
