{
"type": "FeatureCollection",
"name": "werder_havel_stadt",
"crs": { "type": "name", "properties": { "name": "urn:ogc:def:crs:OGC:1.3:CRS84" } },
"features": [
{ "type": "Feature", "properties": { "name": "Werder (Havel), Stadt", "metric_roundness": 42.13, "metric_rectangularity": 62.62, "metric_mobile_fit": 94.51, "metric_aspect_ratio": 0.617, "metric_area_km2": 313.95 }, "geometry": { "type": "Polygon", "coordinates": [ [ [ 12.9375471, 52.409638 ], [ 12.9348303, 52.4183436 ], [ 12.9360322, 52.4261312 ], [ 12.9399233, 52.4318179 ], [ 12.9468392, 52.4343785 ], [ 12.9482682, 52.4435581 ], [ 12.9401942, 52.4540289 ], [ 12.893531, 52.4607635 ], [ 12.8955591, 52.454730299999987 ], [ 12.8913942, 52.4510309 ], [ 12.863488, 52.459216 ], [ 12.8618277, 52.453032099999987 ], [ 12.8510405, 52.447180599999982 ], [ 12.8490823, 52.4432309 ], [ 12.8553373, 52.418082 ], [ 12.8538914, 52.4133269 ], [ 12.8470955, 52.406787799999989 ], [ 12.8250701, 52.411752499999977 ], [ 12.8125037, 52.4113069 ], [ 12.804463, 52.378779499999986 ], [ 12.8235537, 52.374709 ], [ 12.8207644, 52.3611709 ], [ 12.8231849, 52.3352778 ], [ 12.8272518, 52.323673 ], [ 12.8187388, 52.3075172 ], [ 12.8225075, 52.301112 ], [ 12.8499006, 52.299267799999988 ], [ 12.852256, 52.3032945 ], [ 12.8559656, 52.323276799999988 ], [ 12.861894, 52.3254917 ], [ 12.8596961, 52.3324012 ], [ 12.8788344, 52.33233629999998 ], [ 12.8844383, 52.338492 ], [ 12.9056785, 52.341012199999987 ], [ 12.909591, 52.3395117 ], [ 12.9149266, 52.32765 ], [ 12.9293929, 52.3291641 ], [ 12.942674, 52.3246706 ], [ 12.9502884, 52.328723599999989 ], [ 12.9678, 52.3507308 ], [ 12.9629759, 52.3577563 ], [ 12.950683, 52.365558799999981 ], [ 12.9481215, 52.382562199999988 ], [ 12.935302, 52.391153 ], [ 12.9375471, 52.409638 ] ] ] } }
]
}
