{
"type": "FeatureCollection",
"name": "brena_alta",
"crs": { "type": "name", "properties": { "name": "urn:ogc:def:crs:OGC:1.3:CRS84" } },
"features": [
{ "type": "Feature", "properties": { "name": "Breña Alta", "feature_type": "entity", "metric_roundness": 39.35, "metric_rectangularity": 57.39, "metric_mobile_fit": 74.5, "metric_aspect_ratio": 0.817, "metric_area_km2": 40.25 }, "geometry": { "type": "Polygon", "coordinates": [ [ [ -17.7697355, 28.67144 ], [ -17.770277, 28.676039 ], [ -17.7730534, 28.6779545 ], [ -17.7705707, 28.6848892 ], [ -17.7744883, 28.6869299 ], [ -17.79696, 28.676288899999982 ], [ -17.8231214, 28.6872728 ], [ -17.833681, 28.688103 ], [ -17.82747, 28.6702239 ], [ -17.8250213, 28.6411824 ], [ -17.8346215, 28.614738499999984 ], [ -17.8065366, 28.625103700000011 ], [ -17.7959146, 28.6365962 ], [ -17.7811924, 28.6455382 ], [ -17.766281, 28.6645205 ], [ -17.7697355, 28.67144 ] ] ] } },
{ "type": "Feature", "properties": { "name": "Breña Alta", "feature_type": "circle", "metric_roundness": 39.35, "metric_rectangularity": 57.39, "metric_mobile_fit": 74.5, "metric_aspect_ratio": 0.817, "metric_area_km2": 40.25 }, "geometry": { "type": "Polygon", "coordinates": [ [ [ -17.753192806553397, 28.651134096761599 ], [ -17.753263073816488, 28.648779239428155 ], [ -17.753473683008071, 28.646430783935312 ], [ -17.753824056862996, 28.644095167888334 ], [ -17.754313235030882, 28.641778794125187 ], [ -17.754939876708367, 28.639488013155066 ], [ -17.755702264314177, 28.637229105735706 ], [ -17.756598308196875, 28.635008265637556 ], [ -17.757625552362459, 28.632831582642275 ], [ -17.758781181206075, 28.630705025822468 ], [ -17.760062027229395, 28.628634427148576 ], [ -17.761464579722496, 28.626625465468621 ], [ -17.762984994386482, 28.624683650904657 ], [ -17.764619103870441, 28.622814309709433 ], [ -17.766362429193865, 28.621022569625051 ], [ -17.768210192023226, 28.619313345784303 ], [ -17.770157327769034, 28.617691327193743 ], [ -17.77219849946756, 28.616160963836073 ], [ -17.774328112409062, 28.614726454427753 ], [ -17.776540329472486, 28.613391734865633 ], [ -17.778829087124635, 28.612160467395213 ], [ -17.781188112039874, 28.611036030530236 ], [ -17.783610938294885, 28.610021509751949 ], [ -17.786090925091308, 28.609119689013944 ], [ -17.788621274957716, 28.608333043076339 ], [ -17.791195052381017, 28.607663730690479 ], [ -17.793805202816184, 28.60711358865337 ], [ -17.79644457202231, 28.606684126748494 ], [ -17.799105925671849, 28.606376523586956 ], [ -17.801781969179455, 28.606191623360758 ], [ -17.804465367695872, 28.606129933517174 ], [ -17.80714876621229, 28.606191623360758 ], [ -17.809824809719895, 28.606376523586956 ], [ -17.812486163369435, 28.606684126748494 ], [ -17.815125532575564, 28.60711358865337 ], [ -17.817735683010731, 28.607663730690479 ], [ -17.820309460434029, 28.608333043076339 ], [ -17.822839810300437, 28.609119689013944 ], [ -17.82531979709686, 28.610021509751949 ], [ -17.82774262335187, 28.611036030530236 ], [ -17.83010164826711, 28.612160467395213 ], [ -17.832390405919259, 28.613391734865633 ], [ -17.834602622982686, 28.614726454427753 ], [ -17.836732235924185, 28.616160963836073 ], [ -17.83877340762271, 28.617691327193743 ], [ -17.840720543368519, 28.619313345784303 ], [ -17.842568306197879, 28.621022569625051 ], [ -17.844311631521304, 28.622814309709433 ], [ -17.845945741005266, 28.624683650904657 ], [ -17.847466155669249, 28.626625465468621 ], [ -17.84886870816235, 28.628634427148576 ], [ -17.85014955418567, 28.630705025822468 ], [ -17.851305183029286, 28.632831582642275 ], [ -17.85233242719487, 28.635008265637556 ], [ -17.853228471077568, 28.637229105735706 ], [ -17.853990858683378, 28.639488013155066 ], [ -17.854617500360867, 28.641778794125187 ], [ -17.855106678528749, 28.644095167888334 ], [ -17.855457052383674, 28.646430783935312 ], [ -17.855667661575257, 28.648779239428155 ], [ -17.855737928838352, 28.651134096761599 ], [ -17.855667661575257, 28.653488901215422 ], [ -17.855457052383674, 28.655837198648705 ], [ -17.855106678528749, 28.658172553187981 ], [ -17.854617500360867, 28.660488564860362 ], [ -17.853990858683378, 28.662778887123839 ], [ -17.853228471077568, 28.665037244246349 ], [ -17.85233242719487, 28.667257448486609 ], [ -17.851305183029286, 28.669433417029566 ], [ -17.85014955418567, 28.671559188630319 ], [ -17.84886870816235, 28.673628939921429 ], [ -17.847466155669249, 28.675637001338984 ], [ -17.845945741005266, 28.677577872624422 ], [ -17.844311631521304, 28.679446237859736 ], [ -17.842568306197879, 28.681236979995624 ], [ -17.840720543368519, 28.682945194833085 ], [ -17.83877340762271, 28.684566204420367 ], [ -17.836732235924185, 28.686095569829629 ], [ -17.834602622982686, 28.687529103278166 ], [ -17.832390405919259, 28.688862879561913 ], [ -17.83010164826711, 28.690093246770136 ], [ -17.82774262335187, 28.691216836252551 ], [ -17.82531979709686, 28.692230571812026 ], [ -17.822839810300437, 28.693131678097945 ], [ -17.820309460434029, 28.693917688177901 ], [ -17.817735683010731, 28.694586450267131 ], [ -17.815125532575564, 28.695136133597799 ], [ -17.812486163369435, 28.695565233412083 ], [ -17.809824809719895, 28.695872575066026 ], [ -17.80714876621229, 28.69605731723275 ], [ -17.804465367695872, 28.696118954196724 ], [ -17.801781969179455, 28.69605731723275 ], [ -17.799105925671849, 28.695872575066026 ], [ -17.79644457202231, 28.695565233412083 ], [ -17.793805202816184, 28.695136133597799 ], [ -17.791195052381017, 28.694586450267131 ], [ -17.788621274957716, 28.693917688177901 ], [ -17.786090925091308, 28.693131678097945 ], [ -17.783610938294885, 28.692230571812026 ], [ -17.781188112039874, 28.691216836252551 ], [ -17.778829087124635, 28.690093246770136 ], [ -17.776540329472486, 28.688862879561913 ], [ -17.774328112409062, 28.687529103278166 ], [ -17.77219849946756, 28.686095569829629 ], [ -17.770157327769034, 28.684566204420367 ], [ -17.768210192023226, 28.682945194833085 ], [ -17.766362429193865, 28.681236979995624 ], [ -17.764619103870441, 28.679446237859736 ], [ -17.762984994386482, 28.677577872624422 ], [ -17.761464579722496, 28.675637001338984 ], [ -17.760062027229395, 28.673628939921429 ], [ -17.758781181206075, 28.671559188630319 ], [ -17.757625552362459, 28.669433417029566 ], [ -17.756598308196875, 28.667257448486609 ], [ -17.755702264314177, 28.665037244246349 ], [ -17.754939876708367, 28.662778887123839 ], [ -17.754313235030882, 28.660488564860362 ], [ -17.753824056862996, 28.658172553187981 ], [ -17.753473683008071, 28.655837198648705 ], [ -17.753263073816488, 28.653488901215422 ], [ -17.753192806553397, 28.651134096761599 ] ] ] } },
{ "type": "Feature", "properties": { "name": "Breña Alta", "feature_type": "mrr", "metric_roundness": 39.35, "metric_rectangularity": 57.39, "metric_mobile_fit": 74.5, "metric_aspect_ratio": 0.817, "metric_area_km2": 40.25 }, "geometry": { "type": "Polygon", "coordinates": [ [ [ -17.8346215, 28.614738499999984 ], [ -17.833681, 28.688103 ], [ -17.765987181306283, 28.687434938393121 ], [ -17.766927681298085, 28.614069970847506 ], [ -17.8346215, 28.614738499999984 ] ] ] } }
]
}
