{
"type": "FeatureCollection",
"name": "brethel",
"crs": { "type": "name", "properties": { "name": "urn:ogc:def:crs:OGC:1.3:CRS84" } },
"features": [
{ "type": "Feature", "properties": { "name": "Brethel", "feature_type": "entity", "metric_roundness": 43.91, "metric_rectangularity": 62.88, "metric_mobile_fit": 86.02, "metric_aspect_ratio": 0.702, "metric_area_km2": 6.84 }, "geometry": { "type": "Polygon", "coordinates": [ [ [ 0.552461, 48.703765499999975 ], [ 0.5560525, 48.7079555 ], [ 0.5527395, 48.709479499999986 ], [ 0.549214, 48.7128425 ], [ 0.546721, 48.714244 ], [ 0.5496475, 48.7160405 ], [ 0.552266, 48.718921 ], [ 0.552098, 48.721436 ], [ 0.5466515, 48.726329199999988 ], [ 0.5392044, 48.7286736 ], [ 0.529539, 48.717615499999987 ], [ 0.5359945, 48.712049499999985 ], [ 0.538352, 48.708713499999988 ], [ 0.540662, 48.7071305 ], [ 0.5412255, 48.704576499999988 ], [ 0.552461, 48.703765499999975 ] ] ] } },
{ "type": "Feature", "properties": { "name": "Brethel", "feature_type": "circle", "metric_roundness": 43.91, "metric_rectangularity": 62.88, "metric_mobile_fit": 86.02, "metric_aspect_ratio": 0.702, "metric_area_km2": 6.84 }, "geometry": { "type": "Polygon", "coordinates": [ [ [ 0.565838461998031, 48.716221091573274 ], [ 0.565811044796504, 48.715530274152044 ], [ 0.565728868340568, 48.714841340766064 ], [ 0.565592157870176, 48.714156179850285 ], [ 0.565401288099225, 48.713476669575826 ], [ 0.56515678218849, 48.712804672699917 ], [ 0.564859310311677, 48.712142031457283 ], [ 0.564509687818523, 48.711490562506974 ], [ 0.56410887299998, 48.710852051948635 ], [ 0.563657964461605, 48.710228250421807 ], [ 0.56315819811236, 48.709620868301705 ], [ 0.562610943777069, 48.709031571004914 ], [ 0.562017701441827, 48.708461974417752 ], [ 0.561380097142639, 48.707913640459971 ], [ 0.560699878508569, 48.707388072796014 ], [ 0.559978909971612, 48.706886712705696 ], [ 0.559219167656413, 48.70641093512571 ], [ 0.558422733963851, 48.705962044872877 ], [ 0.557591791863316, 48.705541273059566 ], [ 0.556728618909348, 48.705149773711256 ], [ 0.555835580999015, 48.704788620595586 ], [ 0.554915125887156, 48.704458804271546 ], [ 0.553969776477252, 48.704161229367188 ], [ 0.553002123906326, 48.703896712093304 ], [ 0.552014820442812, 48.70366597799984 ], [ 0.551010572216879, 48.703469659981494 ], [ 0.549992131803108, 48.703308296537827 ], [ 0.548962290675884, 48.703182330292854 ], [ 0.547923871558152, 48.703092106778129 ], [ 0.546879720684536, 48.703037873482749 ], [ 0.5458327, 48.703019779172884 ], [ 0.544785679315464, 48.703037873482749 ], [ 0.543741528441847, 48.703092106778129 ], [ 0.542703109324116, 48.703182330292854 ], [ 0.541673268196892, 48.703308296537827 ], [ 0.540654827783121, 48.703469659981494 ], [ 0.539650579557188, 48.70366597799984 ], [ 0.538663276093674, 48.703896712093304 ], [ 0.537695623522748, 48.704161229367188 ], [ 0.536750274112844, 48.704458804271546 ], [ 0.535829819000985, 48.704788620595586 ], [ 0.534936781090652, 48.705149773711256 ], [ 0.534073608136684, 48.705541273059566 ], [ 0.533242666036149, 48.705962044872877 ], [ 0.532446232343587, 48.70641093512571 ], [ 0.531686490028388, 48.706886712705696 ], [ 0.530965521491431, 48.707388072796014 ], [ 0.530285302857361, 48.707913640459971 ], [ 0.529647698558173, 48.708461974417752 ], [ 0.529054456222931, 48.709031571004914 ], [ 0.52850720188764, 48.709620868301705 ], [ 0.528007435538395, 48.710228250421807 ], [ 0.52755652700002, 48.710852051948635 ], [ 0.527155712181477, 48.711490562506974 ], [ 0.526806089688323, 48.712142031457283 ], [ 0.52650861781151, 48.712804672699917 ], [ 0.526264111900775, 48.713476669575826 ], [ 0.526073242129824, 48.714156179850285 ], [ 0.525936531659432, 48.714841340766064 ], [ 0.525854355203496, 48.715530274152044 ], [ 0.525826938001969, 48.716221091573274 ], [ 0.525854355203496, 48.716911899508283 ], [ 0.525936531659432, 48.717600804539522 ], [ 0.526073242129824, 48.718285918542684 ], [ 0.526264111900775, 48.718965363860647 ], [ 0.52650861781151, 48.719637278447863 ], [ 0.526806089688323, 48.720299820971178 ], [ 0.527155712181477, 48.720951175853124 ], [ 0.52755652700002, 48.721589558243807 ], [ 0.528007435538395, 48.722213218907939 ], [ 0.52850720188764, 48.722820449013618 ], [ 0.529054456222931, 48.723409584809751 ], [ 0.529647698558173, 48.72397901217947 ], [ 0.530285302857361, 48.724527171056991 ], [ 0.530965521491431, 48.725052559696095 ], [ 0.531686490028388, 48.725553738778395 ], [ 0.532446232343587, 48.726029335350361 ], [ 0.533242666036149, 48.72647804657835 ], [ 0.534073608136684, 48.726898643311401 ], [ 0.534936781090652, 48.727289973442254 ], [ 0.535829819000985, 48.727650965057279 ], [ 0.536750274112844, 48.727980629366904 ], [ 0.537695623522748, 48.72827806340856 ], [ 0.538663276093674, 48.728542452514802 ], [ 0.539650579557188, 48.728773072539909 ], [ 0.540654827783121, 48.728969291838936 ], [ 0.541673268196892, 48.72913057299391 ], [ 0.542703109324116, 48.729256474282387 ], [ 0.543741528441847, 48.729346650884501 ], [ 0.544785679315464, 48.729400855825126 ], [ 0.5458327, 48.729418940648763 ], [ 0.546879720684536, 48.729400855825126 ], [ 0.547923871558152, 48.729346650884501 ], [ 0.548962290675884, 48.729256474282387 ], [ 0.549992131803108, 48.72913057299391 ], [ 0.551010572216879, 48.728969291838936 ], [ 0.552014820442812, 48.728773072539909 ], [ 0.553002123906326, 48.728542452514802 ], [ 0.553969776477252, 48.72827806340856 ], [ 0.554915125887156, 48.727980629366904 ], [ 0.555835580999015, 48.727650965057279 ], [ 0.556728618909348, 48.727289973442254 ], [ 0.557591791863316, 48.726898643311401 ], [ 0.558422733963851, 48.72647804657835 ], [ 0.559219167656413, 48.726029335350361 ], [ 0.559978909971611, 48.725553738778395 ], [ 0.560699878508569, 48.725052559696095 ], [ 0.561380097142639, 48.724527171056991 ], [ 0.562017701441827, 48.72397901217947 ], [ 0.562610943777069, 48.723409584809751 ], [ 0.56315819811236, 48.722820449013618 ], [ 0.563657964461605, 48.722213218907939 ], [ 0.56410887299998, 48.721589558243807 ], [ 0.564509687818523, 48.720951175853124 ], [ 0.564859310311677, 48.720299820971178 ], [ 0.56515678218849, 48.719637278447863 ], [ 0.565401288099225, 48.718965363860647 ], [ 0.565592157870176, 48.718285918542684 ], [ 0.565728868340568, 48.717600804539522 ], [ 0.565811044796504, 48.716911899508283 ], [ 0.565838461998031, 48.716221091573274 ] ] ] } },
{ "type": "Feature", "properties": { "name": "Brethel", "feature_type": "mrr", "metric_roundness": 43.91, "metric_rectangularity": 62.88, "metric_mobile_fit": 86.02, "metric_aspect_ratio": 0.702, "metric_area_km2": 6.84 }, "geometry": { "type": "Polygon", "coordinates": [ [ [ 0.544675411813854, 48.700726668979513 ], [ 0.524699041529051, 48.723014597624541 ], [ 0.54394961038436, 48.730524719332422 ], [ 0.563925980669163, 48.708240118388836 ], [ 0.544675411813854, 48.700726668979513 ] ] ] } }
]
}
