{
"type": "FeatureCollection",
"name": "brouck",
"crs": { "type": "name", "properties": { "name": "urn:ogc:def:crs:OGC:1.3:CRS84" } },
"features": [
{ "type": "Feature", "properties": { "name": "Brouck", "metric_roundness": 38.7, "metric_rectangularity": 51.42, "metric_mobile_fit": 67.16, "metric_aspect_ratio": 0.891, "metric_area_km2": 7.13 }, "geometry": { "type": "Polygon", "coordinates": [ [ [ 6.5141242, 49.127175799999989 ], [ 6.525975, 49.1358545 ], [ 6.5219815, 49.140547 ], [ 6.512957, 49.139350499999978 ], [ 6.5085565, 49.139369 ], [ 6.5072045, 49.1355465 ], [ 6.505397, 49.13525 ], [ 6.5054825, 49.13290749999998 ], [ 6.4909405, 49.133844499999988 ], [ 6.4931295, 49.1273175 ], [ 6.4981198, 49.126894399999976 ], [ 6.5013414, 49.1223136 ], [ 6.4998963, 49.118655 ], [ 6.503881, 49.114814499999987 ], [ 6.5141242, 49.127175799999989 ] ] ] } }
]
}
