{
"type": "FeatureCollection",
"name": "brtonigla_verteneglio",
"crs": { "type": "name", "properties": { "name": "urn:ogc:def:crs:OGC:1.3:CRS84" } },
"features": [
{ "type": "Feature", "properties": { "name": "Brtonigla - Verteneglio", "metric_roundness": 39.59, "metric_rectangularity": 59.82, "metric_mobile_fit": 0.9, "metric_aspect_ratio": 1.554, "metric_area_km2": 66.84 }, "geometry": { "type": "Polygon", "coordinates": [ [ [ 13.5739258, 45.360203899999988 ], [ 13.5931207, 45.3588512 ], [ 13.60972, 45.3533567 ], [ 13.6164799, 45.3403334 ], [ 13.627672, 45.3417164 ], [ 13.6333202, 45.335796599999981 ], [ 13.6531315, 45.3355455 ], [ 13.6689575, 45.345061 ], [ 13.660023, 45.3532235 ], [ 13.6621803, 45.364952099999982 ], [ 13.6552052, 45.367878499999982 ], [ 13.6509912, 45.3763764 ], [ 13.6405027, 45.38123 ], [ 13.6351938, 45.386987399999988 ], [ 13.6124564, 45.3932151 ], [ 13.5986935, 45.387871 ], [ 13.5566818, 45.372838399999985 ], [ 13.54544, 45.372263499999988 ], [ 13.5414433, 45.3683049 ], [ 13.5419494, 45.3622954 ], [ 13.5555995, 45.356700499999988 ], [ 13.5739258, 45.360203899999988 ] ] ] } }
]
}
