{
"type": "FeatureCollection",
"name": "bruere_allichamps",
"crs": { "type": "name", "properties": { "name": "urn:ogc:def:crs:OGC:1.3:CRS84" } },
"features": [
{ "type": "Feature", "properties": { "name": "Bruère-Allichamps", "metric_roundness": 19.27, "metric_rectangularity": 45.87, "metric_mobile_fit": 77.76, "metric_aspect_ratio": 0.785, "metric_area_km2": 30.39 }, "geometry": { "type": "Polygon", "coordinates": [ [ [ 2.4032631, 46.7954948 ], [ 2.4041563, 46.7889404 ], [ 2.4198127, 46.7841066 ], [ 2.419226, 46.778999 ], [ 2.4244615, 46.7766105 ], [ 2.424866, 46.7725615 ], [ 2.427136, 46.770716 ], [ 2.4290935, 46.76725 ], [ 2.4286955, 46.763877 ], [ 2.425743, 46.759786 ], [ 2.4237065, 46.755154 ], [ 2.424814, 46.752499499999985 ], [ 2.428347, 46.7510565 ], [ 2.4368036, 46.749096499999986 ], [ 2.4460185, 46.7361104 ], [ 2.4499505, 46.737792499999983 ], [ 2.4562869, 46.7346816 ], [ 2.4656855, 46.738516 ], [ 2.4724335, 46.7419715 ], [ 2.43539, 46.7656358 ], [ 2.4336458, 46.7744594 ], [ 2.443279, 46.7900895 ], [ 2.436733, 46.7917595 ], [ 2.4330005, 46.7917625 ], [ 2.429592, 46.790506 ], [ 2.4279105, 46.8028775 ], [ 2.4186725, 46.802435 ], [ 2.41882, 46.813140499999982 ], [ 2.408071, 46.809864 ], [ 2.382514, 46.803715 ], [ 2.4032631, 46.7954948 ] ] ] } }
]
}
