{
"type": "FeatureCollection",
"name": "hildesheim_stadt",
"crs": { "type": "name", "properties": { "name": "urn:ogc:def:crs:OGC:1.3:CRS84" } },
"features": [
{ "type": "Feature", "properties": { "name": "Hildesheim, Stadt", "metric_roundness": 61.3, "metric_rectangularity": 66.01, "metric_mobile_fit": 36.86, "metric_aspect_ratio": 1.194, "metric_area_km2": 247.01 }, "geometry": { "type": "Polygon", "coordinates": [ [ [ 9.8744509, 52.1014907 ], [ 9.9099451, 52.0942063 ], [ 9.9204508, 52.1055336 ], [ 9.9298455, 52.108450299999987 ], [ 9.9406848, 52.1166639 ], [ 9.953554, 52.1190229 ], [ 9.9628161, 52.117479799999977 ], [ 9.9827791, 52.104307899999988 ], [ 9.9874947, 52.1068818 ], [ 9.9995555, 52.1027457 ], [ 10.0063825, 52.10401 ], [ 10.0033645, 52.108959299999988 ], [ 10.0132637, 52.1298266 ], [ 10.0334335, 52.128215499999989 ], [ 10.0332143, 52.1318663 ], [ 10.0394665, 52.1348764 ], [ 10.0312396, 52.1436041 ], [ 10.0362172, 52.1630314 ], [ 10.023572, 52.167489499999981 ], [ 10.0144875, 52.1779355 ], [ 9.9930811, 52.1832443 ], [ 9.9872873, 52.193246399999978 ], [ 9.9788363, 52.1928395 ], [ 9.9760012, 52.187606499999987 ], [ 9.9541762, 52.184812499999985 ], [ 9.947992, 52.193357 ], [ 9.9233503, 52.1900814 ], [ 9.9195762, 52.181351899999981 ], [ 9.9006511, 52.1841045 ], [ 9.8932951, 52.180892799999988 ], [ 9.8958328, 52.167637299999981 ], [ 9.8929832, 52.159887 ], [ 9.8766864, 52.158963099999987 ], [ 9.8622655, 52.1624005 ], [ 9.8629373, 52.1568749 ], [ 9.855129, 52.1449007 ], [ 9.8575214, 52.1399416 ], [ 9.8465655, 52.127430499999981 ], [ 9.8745993, 52.1053535 ], [ 9.8664802, 52.098612499999987 ], [ 9.866968, 52.0958755 ], [ 9.8744509, 52.1014907 ] ] ] } }
]
}
