{
"type": "FeatureCollection",
"name": "hitzacker_elbe_stadt",
"crs": { "type": "name", "properties": { "name": "urn:ogc:def:crs:OGC:1.3:CRS84" } },
"features": [
{ "type": "Feature", "properties": { "name": "Hitzacker (Elbe), Stadt", "feature_type": "entity", "metric_roundness": 33.33, "metric_rectangularity": 68.06, "metric_mobile_fit": 23.41, "metric_aspect_ratio": 1.328, "metric_area_km2": 163.49 }, "geometry": { "type": "Polygon", "coordinates": [ [ [ 11.0495774, 53.113046299999986 ], [ 11.0606392, 53.1168741 ], [ 11.0649402, 53.124506799999978 ], [ 11.0910111, 53.1236272 ], [ 11.0954038, 53.122988599999985 ], [ 11.0972088, 53.1252019 ], [ 11.0910111, 53.1332934 ], [ 11.0803195, 53.134563 ], [ 11.0840835, 53.1388485 ], [ 11.068281, 53.146915399999983 ], [ 11.0303772, 53.1662645 ], [ 11.0107985, 53.1818846 ], [ 10.9716255, 53.198100499999981 ], [ 10.9639072, 53.192837299999987 ], [ 10.9455886, 53.192850899999982 ], [ 10.9389682, 53.19812589999998 ], [ 10.9135387, 53.2019466 ], [ 10.9090593, 53.195756099999983 ], [ 10.9098941, 53.1834354 ], [ 10.903552, 53.179252 ], [ 10.9002553, 53.1759233 ], [ 10.9005187, 53.1708209 ], [ 10.9098535, 53.160461 ], [ 10.9647196, 53.1486829 ], [ 10.9661799, 53.146915399999983 ], [ 10.9731882, 53.1384329 ], [ 10.9901647, 53.130896299999975 ], [ 11.0165989, 53.13321 ], [ 11.0253282, 53.1262554 ], [ 11.01974, 53.117105 ], [ 11.0495774, 53.113046299999986 ] ] ] } },
{ "type": "Feature", "properties": { "name": "Hitzacker (Elbe), Stadt", "feature_type": "circle", "metric_roundness": 33.33, "metric_rectangularity": 68.06, "metric_mobile_fit": 23.41, "metric_aspect_ratio": 1.328, "metric_area_km2": 163.49 }, "geometry": { "type": "Polygon", "coordinates": [ [ [ 11.116741828602846, 53.162485756400308 ], [ 11.116587965676786, 53.158962796320537 ], [ 11.116126798626194, 53.155449204467317 ], [ 11.115359591477899, 53.151954614891636 ], [ 11.114288447093369, 53.148488611884488 ], [ 11.112916301404905, 53.145060703642947 ], [ 11.111246915368463, 53.141680296119915 ], [ 11.10928486465513, 53.138356667130424 ], [ 11.107035527109536, 53.135098940786534 ], [ 11.104505068009539, 53.131916062332358 ], [ 11.101700423167641, 53.128816773450218 ], [ 11.098629279920409, 53.125809588106961 ], [ 11.095300056058012, 53.122902769009379 ], [ 11.091721876751638, 53.120104304735129 ], [ 11.087904549542058, 53.117421887604365 ], [ 11.083858537457809, 53.114862892355433 ], [ 11.07959493033678, 53.11243435568548 ], [ 11.075125414429735, 53.110142956714903 ], [ 11.070462240369094, 53.107994998431835 ], [ 11.065618189590833, 53.10599639017039 ], [ 11.060606539301423, 53.104152631173051 ], [ 11.055441026085953, 53.10246879528539 ], [ 11.0501358082571, 53.100949516827157 ], [ 11.044705427048168, 53.099598977681161 ], [ 11.039164766756588, 53.098420895637538 ], [ 11.033529013947096, 53.097418514027559 ], [ 11.027813615826405, 53.096594592677135 ], [ 11.022034237903494, 53.095951400206708 ], [ 11.016206721051526, 53.095490707700144 ], [ 11.01034703808913, 53.095213783761046 ], [ 11.00447125, 53.095121390971102 ], [ 10.99859546191087, 53.095213783761046 ], [ 10.992735778948473, 53.095490707700144 ], [ 10.986908262096508, 53.095951400206708 ], [ 10.981128884173595, 53.096594592677135 ], [ 10.975413486052904, 53.097418514027559 ], [ 10.969777733243413, 53.098420895637538 ], [ 10.964237072951834, 53.099598977681161 ], [ 10.9588066917429, 53.100949516827157 ], [ 10.953501473914047, 53.10246879528539 ], [ 10.948335960698579, 53.104152631173051 ], [ 10.943324310409167, 53.10599639017039 ], [ 10.938480259630907, 53.107994998431835 ], [ 10.933817085570267, 53.110142956714903 ], [ 10.929347569663218, 53.11243435568548 ], [ 10.925083962542192, 53.114862892355433 ], [ 10.921037950457944, 53.117421887604365 ], [ 10.917220623248362, 53.120104304735129 ], [ 10.91364244394199, 53.122902769009379 ], [ 10.91031322007959, 53.125809588106961 ], [ 10.907242076832359, 53.128816773450218 ], [ 10.904437431990461, 53.131916062332358 ], [ 10.901906972890464, 53.135098940786534 ], [ 10.89965763534487, 53.138356667130424 ], [ 10.897695584631538, 53.141680296119915 ], [ 10.896026198595095, 53.145060703642947 ], [ 10.894654052906631, 53.148488611884488 ], [ 10.893582908522101, 53.151954614891636 ], [ 10.892815701373806, 53.155449204467317 ], [ 10.892354534323216, 53.158962796320537 ], [ 10.892200671397156, 53.162485756400308 ], [ 10.892354534323216, 53.166008427340635 ], [ 10.892815701373806, 53.169521154943347 ], [ 10.893582908522101, 53.173014314626393 ], [ 10.894654052906631, 53.176478337765005 ], [ 10.896026198595095, 53.179903737853984 ], [ 10.897695584631538, 53.183281136420291 ], [ 10.89965763534487, 53.186601288615691 ], [ 10.901906972890464, 53.189855108420652 ], [ 10.904437431990461, 53.193033693391904 ], [ 10.907242076832359, 53.196128348887527 ], [ 10.91031322007959, 53.199130611704994 ], [ 10.91364244394199, 53.20203227306979 ], [ 10.917220623248362, 53.204825400913506 ], [ 10.921037950457944, 53.207502361383 ], [ 10.925083962542192, 53.210055839524294 ], [ 10.929347569663218, 53.212478859086822 ], [ 10.933817085570267, 53.214764801396775 ], [ 10.938480259630907, 53.216907423250298 ], [ 10.943324310409167, 53.218900873780349 ], [ 10.948335960698579, 53.220739710253547 ], [ 10.953501473914047, 53.222418912756531 ], [ 10.9588066917429, 53.223933897733872 ], [ 10.964237072951834, 53.225280530342971 ], [ 10.969777733243413, 53.226455135594492 ], [ 10.975413486052904, 53.227454508249608 ], [ 10.981128884173595, 53.228275921449132 ], [ 10.986908262096508, 53.228917134052388 ], [ 10.992735778948473, 53.229376396667334 ], [ 10.99859546191087, 53.229652456356568 ], [ 11.00447125, 53.229744560007248 ], [ 11.01034703808913, 53.229652456356568 ], [ 11.016206721051526, 53.229376396667334 ], [ 11.022034237903494, 53.228917134052388 ], [ 11.027813615826405, 53.228275921449132 ], [ 11.033529013947096, 53.227454508249608 ], [ 11.039164766756588, 53.226455135594492 ], [ 11.044705427048168, 53.225280530342971 ], [ 11.0501358082571, 53.223933897733872 ], [ 11.055441026085953, 53.222418912756531 ], [ 11.060606539301423, 53.220739710253547 ], [ 11.065618189590833, 53.218900873780349 ], [ 11.070462240369094, 53.216907423250298 ], [ 11.075125414429735, 53.214764801396775 ], [ 11.07959493033678, 53.212478859086822 ], [ 11.083858537457809, 53.210055839524294 ], [ 11.087904549542058, 53.207502361383 ], [ 11.091721876751638, 53.204825400913506 ], [ 11.095300056058012, 53.20203227306979 ], [ 11.098629279920409, 53.199130611704994 ], [ 11.101700423167641, 53.196128348887527 ], [ 11.104505068009539, 53.193033693391904 ], [ 11.107035527109536, 53.189855108420652 ], [ 11.10928486465513, 53.186601288615691 ], [ 11.111246915368463, 53.183281136420291 ], [ 11.112916301404905, 53.179903737853984 ], [ 11.114288447093369, 53.176478337765005 ], [ 11.115359591477899, 53.173014314626393 ], [ 11.116126798626194, 53.169521154943347 ], [ 11.116587965676786, 53.166008427340635 ], [ 11.116741828602846, 53.162485756400308 ] ] ] } },
{ "type": "Feature", "properties": { "name": "Hitzacker (Elbe), Stadt", "feature_type": "mrr", "metric_roundness": 33.33, "metric_rectangularity": 68.06, "metric_mobile_fit": 23.41, "metric_aspect_ratio": 1.328, "metric_area_km2": 163.49 }, "geometry": { "type": "Polygon", "coordinates": [ [ [ 11.068054860326198, 53.098028398247948 ], [ 10.880643924856781, 53.171978353090751 ], [ 10.928131193630275, 53.215234162553763 ], [ 11.115542129099689, 53.141358744883711 ], [ 11.068054860326198, 53.098028398247948 ] ] ] } }
]
}
