{
"type": "FeatureCollection",
"name": "ducey_les_cheris",
"crs": { "type": "name", "properties": { "name": "urn:ogc:def:crs:OGC:1.3:CRS84" } },
"features": [
{ "type": "Feature", "properties": { "name": "Ducey-Les Chéris", "metric_roundness": 38.6, "metric_rectangularity": 60.36, "metric_mobile_fit": 37.11, "metric_aspect_ratio": 1.191, "metric_area_km2": 38.81 }, "geometry": { "type": "Polygon", "coordinates": [ [ [ -1.2346398, 48.643941699999985 ], [ -1.252838, 48.642126 ], [ -1.2584154, 48.641123799999988 ], [ -1.2739095, 48.6280651 ], [ -1.2820945, 48.6261936 ], [ -1.294165, 48.630365499999982 ], [ -1.2961918, 48.6193752 ], [ -1.3097246, 48.609403499999985 ], [ -1.299021, 48.595509 ], [ -1.2932965, 48.5964271 ], [ -1.2871838, 48.6018342 ], [ -1.2816072, 48.5978352 ], [ -1.272903, 48.59665 ], [ -1.2664285, 48.5979805 ], [ -1.2676, 48.601184499999981 ], [ -1.2638645, 48.602882 ], [ -1.2601125, 48.60552449999998 ], [ -1.258054, 48.606172 ], [ -1.2568577, 48.6095566 ], [ -1.2457469, 48.6155321 ], [ -1.2446887, 48.6204972 ], [ -1.2399018, 48.621609899999982 ], [ -1.2376858, 48.6278924 ], [ -1.2243822, 48.634193799999977 ], [ -1.222434, 48.6397045 ], [ -1.2346398, 48.643941699999985 ] ] ] } }
]
}
