{
"type": "FeatureCollection",
"name": "dukovany",
"crs": { "type": "name", "properties": { "name": "urn:ogc:def:crs:OGC:1.3:CRS84" } },
"features": [
{ "type": "Feature", "properties": { "name": "Dukovany", "feature_type": "entity", "metric_roundness": 38.36, "metric_rectangularity": 62.06, "metric_mobile_fit": -32.45, "metric_aspect_ratio": 1.887, "metric_area_km2": 47.93 }, "geometry": { "type": "Polygon", "coordinates": [ [ [ 16.1761615, 49.0700095 ], [ 16.1976211, 49.073894599999981 ], [ 16.2105079, 49.072419399999987 ], [ 16.215969, 49.075708 ], [ 16.2166128, 49.078903899999986 ], [ 16.2267228, 49.0852357 ], [ 16.2161695, 49.093734499999989 ], [ 16.2106715, 49.100865 ], [ 16.2001705, 49.097427 ], [ 16.1847159, 49.1040634 ], [ 16.1705292, 49.099273599999989 ], [ 16.1527654, 49.0989412 ], [ 16.1458372, 49.1064504 ], [ 16.136663, 49.1093355 ], [ 16.1264678, 49.1049253 ], [ 16.1235065, 49.1010005 ], [ 16.1244846, 49.0963663 ], [ 16.113405, 49.086205 ], [ 16.1317299, 49.0729292 ], [ 16.1500388, 49.0860512 ], [ 16.1645368, 49.0811346 ], [ 16.1692283, 49.0769707 ], [ 16.168407, 49.0732285 ], [ 16.1761615, 49.0700095 ] ] ] } },
{ "type": "Feature", "properties": { "name": "Dukovany", "feature_type": "circle", "metric_roundness": 38.36, "metric_rectangularity": 62.06, "metric_mobile_fit": -32.45, "metric_aspect_ratio": 1.887, "metric_area_km2": 47.93 }, "geometry": { "type": "Polygon", "coordinates": [ [ [ 16.226727632269075, 49.085720352365115 ], [ 16.226649976593322, 49.083778088773045 ], [ 16.226417222414881, 49.081841073134569 ], [ 16.226030007696767, 49.07991461560691 ], [ 16.225489393767617, 49.078003998018744 ], [ 16.224796862412628, 49.076114459376164 ], [ 16.223954311812108, 49.074251181479553 ], [ 16.222964051338682, 49.072419274690944 ], [ 16.221828795227488, 49.070623763891383 ], [ 16.220551655136607, 49.068869574666905 ], [ 16.219136131618257, 49.067161519761704 ], [ 16.21758610452401, 49.065504285835935 ], [ 16.215905822370392, 49.063902420565178 ], [ 16.214099890693987, 49.062360320117293 ], [ 16.212173259427995, 49.060882217041922 ], [ 16.210131209334801, 49.05947216860617 ], [ 16.207979337531757, 49.058134045609478 ], [ 16.205723542149915, 49.056871521708715 ], [ 16.20337000616761, 49.055688063283704 ], [ 16.200925180463376, 49.054586919871625 ], [ 16.198395766134535, 49.053571115197094 ], [ 16.195788696129942, 49.052643438823338 ], [ 16.193111116247266, 49.051806438448018 ], [ 16.190370365546848, 49.051062412865321 ], [ 16.187573956235855, 49.05041340561435 ], [ 16.184729553077823, 49.049861199331751 ], [ 16.181844952384104, 49.049407310824428 ], [ 16.17892806064469, 49.049052986876589 ], [ 16.175986872857095, 49.048799200802641 ], [ 16.173029450612592, 49.04864664975603 ], [ 16.1700639, 49.048595752801447 ], [ 16.167098349387398, 49.04864664975603 ], [ 16.164140927142899, 49.048799200802641 ], [ 16.1611997393553, 49.049052986876589 ], [ 16.15828284761589, 49.049407310824428 ], [ 16.155398246922168, 49.049861199331751 ], [ 16.152553843764142, 49.05041340561435 ], [ 16.149757434453143, 49.051062412865321 ], [ 16.147016683752728, 49.051806438448018 ], [ 16.144339103870049, 49.052643438823338 ], [ 16.141732033865456, 49.053571115197094 ], [ 16.139202619536615, 49.054586919871625 ], [ 16.136757793832384, 49.055688063283704 ], [ 16.134404257850075, 49.056871521708715 ], [ 16.132148462468233, 49.058134045609478 ], [ 16.12999659066519, 49.05947216860617 ], [ 16.127954540571995, 49.060882217041922 ], [ 16.126027909306003, 49.062360320117293 ], [ 16.124221977629603, 49.063902420565178 ], [ 16.122541695475981, 49.065504285835935 ], [ 16.120991668381734, 49.067161519761704 ], [ 16.119576144863387, 49.068869574666905 ], [ 16.118299004772506, 49.070623763891383 ], [ 16.117163748661309, 49.072419274690944 ], [ 16.116173488187886, 49.074251181479553 ], [ 16.115330937587366, 49.076114459376164 ], [ 16.114638406232377, 49.078003998018744 ], [ 16.114097792303223, 49.07991461560691 ], [ 16.113710577585113, 49.081841073134569 ], [ 16.113477823406672, 49.083778088773045 ], [ 16.113400167730919, 49.085720352365115 ], [ 16.113477823406672, 49.087662539989964 ], [ 16.113710577585113, 49.089599328559103 ], [ 16.114097792303223, 49.091525410403122 ], [ 16.114638406232377, 49.093435507809431 ], [ 16.115330937587366, 49.09532438747113 ], [ 16.116173488187886, 49.097186874807811 ], [ 16.117163748661309, 49.099017868118949 ], [ 16.118299004772506, 49.100812352531761 ], [ 16.119576144863387, 49.102565413705527 ], [ 16.120991668381734, 49.104272251255225 ], [ 16.122541695475981, 49.105928191858283 ], [ 16.124221977629603, 49.107528702009063 ], [ 16.126027909306003, 49.109069400386652 ], [ 16.127954540571995, 49.110546069802815 ], [ 16.12999659066519, 49.111954668697905 ], [ 16.132148462468233, 49.113291342153957 ], [ 16.134404257850075, 49.114552432395563 ], [ 16.136757793832384, 49.115734488750377 ], [ 16.139202619536615, 49.116834277042592 ], [ 16.141732033865456, 49.117848788394575 ], [ 16.144339103870049, 49.118775247412984 ], [ 16.147016683752728, 49.119611119737783 ], [ 16.149757434453143, 49.120354118933918 ], [ 16.152553843764139, 49.121002212707602 ], [ 16.155398246922168, 49.121553628430433 ], [ 16.15828284761589, 49.122006857957032 ], [ 16.1611997393553, 49.122360661723135 ], [ 16.164140927142899, 49.122614072113542 ], [ 16.167098349387398, 49.122766396090874 ], [ 16.1700639, 49.122817217078257 ], [ 16.173029450612592, 49.122766396090874 ], [ 16.175986872857095, 49.122614072113542 ], [ 16.17892806064469, 49.122360661723135 ], [ 16.181844952384104, 49.122006857957032 ], [ 16.184729553077823, 49.121553628430433 ], [ 16.187573956235852, 49.121002212707602 ], [ 16.190370365546848, 49.120354118933918 ], [ 16.193111116247266, 49.119611119737783 ], [ 16.195788696129942, 49.118775247412984 ], [ 16.198395766134535, 49.117848788394575 ], [ 16.200925180463376, 49.116834277042592 ], [ 16.20337000616761, 49.115734488750377 ], [ 16.205723542149915, 49.114552432395563 ], [ 16.207979337531757, 49.113291342153957 ], [ 16.210131209334801, 49.111954668697905 ], [ 16.212173259427995, 49.110546069802815 ], [ 16.214099890693987, 49.109069400386652 ], [ 16.215905822370392, 49.107528702009063 ], [ 16.21758610452401, 49.105928191858283 ], [ 16.219136131618257, 49.104272251255225 ], [ 16.220551655136607, 49.102565413705527 ], [ 16.221828795227488, 49.100812352531761 ], [ 16.222964051338682, 49.099017868118949 ], [ 16.223954311812108, 49.097186874807811 ], [ 16.224796862412628, 49.09532438747113 ], [ 16.225489393767617, 49.093435507809431 ], [ 16.226030007696767, 49.091525410403122 ], [ 16.226417222414881, 49.089599328559103 ], [ 16.226649976593322, 49.087662539989964 ], [ 16.226727632269075, 49.085720352365115 ] ] ] } },
{ "type": "Feature", "properties": { "name": "Dukovany", "feature_type": "mrr", "metric_roundness": 38.36, "metric_rectangularity": 62.06, "metric_mobile_fit": -32.45, "metric_aspect_ratio": 1.887, "metric_area_km2": 47.93 }, "geometry": { "type": "Polygon", "coordinates": [ [ [ 16.119799037050875, 49.111185590954953 ], [ 16.230262284953017, 49.099065786407664 ], [ 16.221064911520195, 49.063120218977126 ], [ 16.110601663618052, 49.075248799471552 ], [ 16.119799037050875, 49.111185590954953 ] ] ] } }
]
}
