{
"type": "FeatureCollection",
"name": "erny_saint_julien",
"crs": { "type": "name", "properties": { "name": "urn:ogc:def:crs:OGC:1.3:CRS84" } },
"features": [
{ "type": "Feature", "properties": { "name": "Erny-Saint-Julien", "metric_roundness": 44.99, "metric_rectangularity": 66.86, "metric_mobile_fit": 57.82, "metric_aspect_ratio": 0.984, "metric_area_km2": 12.88 }, "geometry": { "type": "Polygon", "coordinates": [ [ [ 2.269445, 50.5783345 ], [ 2.26845, 50.5841285 ], [ 2.266472, 50.587814499999972 ], [ 2.2628595, 50.591589 ], [ 2.2534, 50.594283 ], [ 2.24676, 50.5954 ], [ 2.2358815, 50.5947635 ], [ 2.233342, 50.5960615 ], [ 2.2274835, 50.594209 ], [ 2.2354922, 50.58382169999998 ], [ 2.2556668, 50.573308799999978 ], [ 2.256978, 50.568082 ], [ 2.2649398, 50.5692838 ], [ 2.2708565, 50.57568 ], [ 2.269445, 50.5783345 ] ] ] } }
]
}
