{
"type": "FeatureCollection",
"name": "puisserguier",
"crs": { "type": "name", "properties": { "name": "urn:ogc:def:crs:OGC:1.3:CRS84" } },
"features": [
{ "type": "Feature", "properties": { "name": "Puisserguier", "metric_roundness": 43.99, "metric_rectangularity": 55.17, "metric_mobile_fit": 23.17, "metric_aspect_ratio": 1.331, "metric_area_km2": 53.7 }, "geometry": { "type": "Polygon", "coordinates": [ [ [ 3.0859317, 43.36842 ], [ 3.0757509, 43.3815263 ], [ 3.0687439, 43.3842444 ], [ 3.0664428, 43.3927103 ], [ 3.0576612, 43.3996479 ], [ 3.0461423, 43.405333899999981 ], [ 3.037429, 43.40433 ], [ 3.0312675, 43.407586 ], [ 3.027341, 43.405824500000023 ], [ 3.0075938, 43.398103399999989 ], [ 3.004257, 43.389174 ], [ 3.0256114, 43.366568699999988 ], [ 3.0166245, 43.358780599999989 ], [ 3.0126695, 43.3584685 ], [ 3.0118985, 43.3557626 ], [ 3.016718, 43.3517825 ], [ 3.0259655, 43.3508265 ], [ 3.0315433, 43.3535136 ], [ 3.0436602, 43.3534316 ], [ 3.0479507, 43.356560699999989 ], [ 3.0600141, 43.354571 ], [ 3.0640865, 43.356354 ], [ 3.0682556, 43.3585302 ], [ 3.0808809, 43.3577179 ], [ 3.0885609, 43.3639394 ], [ 3.0977317, 43.354509799999988 ], [ 3.1059277, 43.359111099999986 ], [ 3.10818, 43.364881499999989 ], [ 3.0859317, 43.36842 ] ] ] } }
]
}
