{
"type": "FeatureCollection",
"name": "puurs_sint_amands",
"crs": { "type": "name", "properties": { "name": "urn:ogc:def:crs:OGC:1.3:CRS84" } },
"features": [
{ "type": "Feature", "properties": { "name": "Puurs-Sint-Amands", "metric_roundness": 36.99, "metric_rectangularity": 51.26, "metric_mobile_fit": 11.42, "metric_aspect_ratio": 1.448, "metric_area_km2": 123.9 }, "geometry": { "type": "Polygon", "coordinates": [ [ [ 4.3576485, 51.0856455 ], [ 4.354259, 51.087112499999968 ], [ 4.349271, 51.091922499999988 ], [ 4.3404495, 51.095226499999981 ], [ 4.33293, 51.098442 ], [ 4.327841, 51.101615 ], [ 4.297904, 51.084006599999988 ], [ 4.2847932, 51.085111 ], [ 4.2699581, 51.08081 ], [ 4.2611471, 51.0814995 ], [ 4.2569539, 51.0774976 ], [ 4.2491567, 51.0776266 ], [ 4.2364847, 51.072596599999983 ], [ 4.2328809, 51.067007399999987 ], [ 4.2225535, 51.060637899999989 ], [ 4.1985765, 51.058922499999987 ], [ 4.1974234, 51.0535349 ], [ 4.1883323, 51.0464832 ], [ 4.190019, 51.0396955 ], [ 4.2144689, 51.032378 ], [ 4.2328222, 51.0425391 ], [ 4.2381405, 51.0410729 ], [ 4.240999, 51.036869 ], [ 4.2520044, 51.0348839 ], [ 4.2642248, 51.037431799999986 ], [ 4.2696094, 51.0419512 ], [ 4.2793855, 51.042611899999983 ], [ 4.3080659, 51.0364651 ], [ 4.3228185, 51.026736499999984 ], [ 4.346826, 51.074802499999983 ], [ 4.349635, 51.077495499999984 ], [ 4.3587095, 51.082626499999989 ], [ 4.3608925, 51.085145 ], [ 4.3576485, 51.0856455 ] ] ] } }
]
}
