{
"type": "FeatureCollection",
"name": "arborio",
"crs": { "type": "name", "properties": { "name": "urn:ogc:def:crs:OGC:1.3:CRS84" } },
"features": [
{ "type": "Feature", "properties": { "name": "Arborio", "metric_roundness": 62.58, "metric_rectangularity": 84.33, "metric_mobile_fit": 53.86, "metric_aspect_ratio": 1.024, "metric_area_km2": 47.34 }, "geometry": { "type": "Polygon", "coordinates": [ [ [ 8.4018111, 45.490442799999983 ], [ 8.402551, 45.507332499999983 ], [ 8.402862, 45.510831 ], [ 8.4032675, 45.5133715 ], [ 8.403336, 45.515487 ], [ 8.3927187, 45.516498 ], [ 8.3813883, 45.5126662 ], [ 8.3479725, 45.5135325 ], [ 8.3405455, 45.506368 ], [ 8.3472412, 45.4856854 ], [ 8.346071, 45.468703 ], [ 8.351471, 45.468180499999974 ], [ 8.3606941, 45.4676475 ], [ 8.3732502, 45.473601 ], [ 8.3817361, 45.4690928 ], [ 8.4024275, 45.4699105 ], [ 8.4059665, 45.4701085 ], [ 8.4078435, 45.4703655 ], [ 8.4117525, 45.4713895 ], [ 8.4118955, 45.479973 ], [ 8.4018111, 45.490442799999983 ] ] ] } }
]
}
