{
"type": "FeatureCollection",
"name": "arceau",
"crs": { "type": "name", "properties": { "name": "urn:ogc:def:crs:OGC:1.3:CRS84" } },
"features": [
{ "type": "Feature", "properties": { "name": "Arceau", "feature_type": "entity", "metric_roundness": 50.37, "metric_rectangularity": 64.21, "metric_mobile_fit": 62.67, "metric_aspect_ratio": 0.936, "metric_area_km2": 47.37 }, "geometry": { "type": "Polygon", "coordinates": [ [ [ 5.1729715, 47.351125 ], [ 5.1767905, 47.35197549999998 ], [ 5.177248, 47.35309 ], [ 5.181751, 47.3543295 ], [ 5.183831, 47.356078 ], [ 5.1849365, 47.35569049999998 ], [ 5.185802, 47.3570195 ], [ 5.1871345, 47.3571665 ], [ 5.188889, 47.359014 ], [ 5.1915935, 47.3588125 ], [ 5.192638, 47.358516499999986 ], [ 5.1926428, 47.35850139999998 ], [ 5.1927429, 47.358453499999989 ], [ 5.1930067, 47.358373699999987 ], [ 5.1932822, 47.3583778 ], [ 5.1935433, 47.3584654 ], [ 5.1937656, 47.3586281 ], [ 5.193928, 47.3588506 ], [ 5.1940162, 47.3591129 ], [ 5.194275, 47.360636 ], [ 5.195173, 47.361334 ], [ 5.1962025, 47.360769 ], [ 5.199257, 47.3609185 ], [ 5.204622, 47.362135 ], [ 5.2126905, 47.359459 ], [ 5.213852, 47.360106 ], [ 5.2174935, 47.35762949999998 ], [ 5.22423, 47.354806 ], [ 5.229076, 47.351355 ], [ 5.23214, 47.3504675 ], [ 5.235221, 47.351111 ], [ 5.23486, 47.357871 ], [ 5.2306565, 47.358516499999986 ], [ 5.23115, 47.3615195 ], [ 5.233251, 47.364842 ], [ 5.2246455, 47.373518499999989 ], [ 5.223576, 47.375795499999988 ], [ 5.2282905, 47.3845435 ], [ 5.226356, 47.386753 ], [ 5.2274385, 47.387175 ], [ 5.213843, 47.398045 ], [ 5.209869, 47.399314 ], [ 5.199195, 47.400524 ], [ 5.190623, 47.4038415 ], [ 5.185041, 47.4035735 ], [ 5.181589, 47.404739 ], [ 5.1846475, 47.402413 ], [ 5.178363, 47.396447 ], [ 5.1773165, 47.396698 ], [ 5.171605, 47.394002499999985 ], [ 5.1715175, 47.388604499999985 ], [ 5.169137, 47.383712 ], [ 5.1720765, 47.3829195 ], [ 5.171799, 47.3814415 ], [ 5.162029, 47.37961 ], [ 5.165137, 47.374494 ], [ 5.16403, 47.3723605 ], [ 5.166142, 47.3709595 ], [ 5.1650905, 47.369859499999983 ], [ 5.1656955, 47.367549 ], [ 5.1644455, 47.366455 ], [ 5.163966, 47.3648915 ], [ 5.163595, 47.3604 ], [ 5.16144, 47.3597325 ], [ 5.1617205, 47.3575205 ], [ 5.161061, 47.3563215 ], [ 5.16112, 47.354925 ], [ 5.1602215, 47.354226499999989 ], [ 5.160292, 47.353055499999989 ], [ 5.1729715, 47.351125 ] ] ] } },
{ "type": "Feature", "properties": { "name": "Arceau", "feature_type": "circle", "metric_roundness": 50.37, "metric_rectangularity": 64.21, "metric_mobile_fit": 62.67, "metric_aspect_ratio": 0.936, "metric_area_km2": 47.37 }, "geometry": { "type": "Polygon", "coordinates": [ [ [ 5.248134874815055, 47.373606627351208 ], [ 5.248067501085161, 47.371864192855597 ], [ 5.247865564562187, 47.370126476917456 ], [ 5.247529618740109, 47.368398243201952 ], [ 5.247060584423071, 47.366684229846769 ], [ 5.246459747201535, 47.364989136462405 ], [ 5.245728753928561, 47.363317611233128 ], [ 5.244869608205902, 47.361674238154173 ], [ 5.243884664892262, 47.360063524440328 ], [ 5.242776623648803, 47.358489888140859 ], [ 5.241548521539554, 47.35695764599496 ], [ 5.240203724707032, 47.355471001561313 ], [ 5.238745919145878, 47.354034033655012 ], [ 5.237179100599808, 47.352650685123635 ], [ 5.235507563609544, 47.351324751993978 ], [ 5.233735889741792, 47.350059873019603 ], [ 5.231868935031477, 47.348859519658326 ], [ 5.229911816671685, 47.347726986507787 ], [ 5.227869898987807, 47.34666538222573 ], [ 5.225748778734281, 47.34567762096048 ], [ 5.223554269754285, 47.34476641431565 ], [ 5.221292387044393, 47.343934263871617 ], [ 5.218969330267893, 47.343183454284713 ], [ 5.216591466761936, 47.342516046983604 ], [ 5.214165314085108, 47.341933874480652 ], [ 5.211697522153255, 47.341438535314033 ], [ 5.209194855012531, 47.34103138963512 ], [ 5.206664172299607, 47.340713555453483 ], [ 5.204112410439897, 47.340485905549926 ], [ 5.201546563635285, 47.340349065066597 ], [ 5.198973664693513, 47.34030340978066 ], [ 5.196400765751743, 47.340349065066597 ], [ 5.193834918947131, 47.340485905549926 ], [ 5.191283157087419, 47.340713555453483 ], [ 5.188752474374496, 47.34103138963512 ], [ 5.186249807233771, 47.341438535314033 ], [ 5.183782015301919, 47.341933874480652 ], [ 5.18135586262509, 47.342516046983604 ], [ 5.178977999119133, 47.343183454284713 ], [ 5.176654942342632, 47.343934263871617 ], [ 5.174393059632742, 47.34476641431565 ], [ 5.172198550652745, 47.34567762096048 ], [ 5.170077430399219, 47.34666538222573 ], [ 5.16803551271534, 47.347726986507787 ], [ 5.16607839435555, 47.348859519658326 ], [ 5.164211439645234, 47.350059873019603 ], [ 5.162439765777482, 47.351324751993978 ], [ 5.160768228787219, 47.352650685123635 ], [ 5.159201410241148, 47.354034033655012 ], [ 5.157743604679994, 47.355471001561313 ], [ 5.156398807847473, 47.35695764599496 ], [ 5.155170705738223, 47.358489888140859 ], [ 5.154062664494765, 47.360063524440328 ], [ 5.153077721181125, 47.361674238154173 ], [ 5.152218575458465, 47.363317611233128 ], [ 5.151487582185492, 47.364989136462405 ], [ 5.150886744963955, 47.366684229846769 ], [ 5.150417710646918, 47.368398243201952 ], [ 5.150081764824838, 47.370126476917456 ], [ 5.149879828301866, 47.371864192855597 ], [ 5.149812454571971, 47.373606627351208 ], [ 5.149879828301866, 47.375349004276259 ], [ 5.150081764824838, 47.377086548133484 ], [ 5.150417710646918, 47.378814497143068 ], [ 5.150886744963955, 47.380528116286634 ], [ 5.151487582185491, 47.382222710272721 ], [ 5.152218575458465, 47.383893636388606 ], [ 5.153077721181125, 47.385536317203062 ], [ 5.154062664494765, 47.387146253085895 ], [ 5.155170705738223, 47.388719034509911 ], [ 5.156398807847473, 47.390250354102122 ], [ 5.157743604679994, 47.391736018411528 ], [ 5.159201410241148, 47.39317195936151 ], [ 5.160768228787219, 47.394554245355998 ], [ 5.162439765777482, 47.395879092009608 ], [ 5.164211439645234, 47.397142872472422 ], [ 5.16607839435555, 47.398342127322152 ], [ 5.16803551271534, 47.39947357399668 ], [ 5.170077430399219, 47.40053411574192 ], [ 5.172198550652745, 47.401520850050922 ], [ 5.174393059632742, 47.402431076571609 ], [ 5.176654942342632, 47.403262304462061 ], [ 5.178977999119133, 47.404012259173633 ], [ 5.18135586262509, 47.404678888643843 ], [ 5.183782015301919, 47.405260368882402 ], [ 5.186249807233771, 47.405755108935743 ], [ 5.188752474374496, 47.40616175521648 ], [ 5.191283157087419, 47.406479195186584 ], [ 5.193834918947131, 47.406706560384279 ], [ 5.196400765751743, 47.406843228786727 ], [ 5.198973664693513, 47.406888826502112 ], [ 5.201546563635285, 47.406843228786727 ], [ 5.204112410439897, 47.406706560384279 ], [ 5.206664172299607, 47.406479195186584 ], [ 5.209194855012531, 47.40616175521648 ], [ 5.211697522153255, 47.405755108935743 ], [ 5.214165314085108, 47.405260368882402 ], [ 5.216591466761936, 47.404678888643843 ], [ 5.218969330267893, 47.404012259173633 ], [ 5.221292387044393, 47.403262304462061 ], [ 5.223554269754285, 47.402431076571609 ], [ 5.225748778734281, 47.401520850050922 ], [ 5.227869898987807, 47.40053411574192 ], [ 5.229911816671685, 47.39947357399668 ], [ 5.231868935031477, 47.398342127322152 ], [ 5.233735889741792, 47.397142872472422 ], [ 5.235507563609544, 47.395879092009608 ], [ 5.237179100599808, 47.394554245355998 ], [ 5.238745919145878, 47.39317195936151 ], [ 5.240203724707032, 47.391736018411528 ], [ 5.241548521539554, 47.390250354102122 ], [ 5.242776623648803, 47.388719034509911 ], [ 5.243884664892262, 47.387146253085895 ], [ 5.244869608205902, 47.385536317203062 ], [ 5.245728753928561, 47.383893636388606 ], [ 5.246459747201534, 47.382222710272721 ], [ 5.247060584423071, 47.380528116286634 ], [ 5.247529618740109, 47.378814497143068 ], [ 5.247865564562187, 47.377086548133484 ], [ 5.248067501085161, 47.375349004276259 ], [ 5.248134874815055, 47.373606627351208 ] ] ] } },
{ "type": "Feature", "properties": { "name": "Arceau", "feature_type": "mrr", "metric_roundness": 50.37, "metric_rectangularity": 64.21, "metric_mobile_fit": 62.67, "metric_aspect_ratio": 0.936, "metric_area_km2": 47.37 }, "geometry": { "type": "Polygon", "coordinates": [ [ [ 5.235204597740887, 47.350433445941157 ], [ 5.160149863073658, 47.351267478179793 ], [ 5.161450439813382, 47.404962558034683 ], [ 5.23650517448061, 47.404129374710294 ], [ 5.235204597740887, 47.350433445941157 ] ] ] } }
]
}
