{
"type": "FeatureCollection",
"name": "arco_da_calheta",
"crs": { "type": "name", "properties": { "name": "urn:ogc:def:crs:OGC:1.3:CRS84" } },
"features": [
{ "type": "Feature", "properties": { "name": "Arco da Calheta", "feature_type": "entity", "metric_roundness": 32.08, "metric_rectangularity": 67.98, "metric_mobile_fit": 35.96, "metric_aspect_ratio": 1.203, "metric_area_km2": 21.33 }, "geometry": { "type": "Polygon", "coordinates": [ [ [ -17.1167467, 32.7536436 ], [ -17.1346357, 32.7528929 ], [ -17.1475436, 32.741042899999989 ], [ -17.1548966, 32.7288927 ], [ -17.169185, 32.7166075 ], [ -17.140685, 32.7029975 ], [ -17.1362784, 32.716926 ], [ -17.1297115, 32.7228085 ], [ -17.1188454, 32.7309058 ], [ -17.1148007, 32.7456856 ], [ -17.1032761, 32.7447395 ], [ -17.0967665, 32.7501495 ], [ -17.1167467, 32.7536436 ] ] ] } },
{ "type": "Feature", "properties": { "name": "Arco da Calheta", "feature_type": "circle", "metric_roundness": 32.08, "metric_rectangularity": 67.98, "metric_mobile_fit": 35.96, "metric_aspect_ratio": 1.203, "metric_area_km2": 21.33 }, "geometry": { "type": "Polygon", "coordinates": [ [ [ -17.091640566100686, 32.733380077789242 ], [ -17.091697214533635, 32.731560286348554 ], [ -17.09186700456306, 32.729745445830268 ], [ -17.092149470806294, 32.727940531043295 ], [ -17.092543839042992, 32.726150489889314 ], [ -17.093049028337244, 32.724380229792651 ], [ -17.093663654000299, 32.722634604237797 ], [ -17.094386031385937, 32.720918399451961 ], [ -17.095214180507963, 32.719236321268816 ], [ -17.096145831467187, 32.717592982210071 ], [ -17.097178430673093, 32.715992888820281 ], [ -17.098309147843036, 32.714440429289844 ], [ -17.099534883759841, 32.712939861400528 ], [ -17.100852278766567, 32.711495300826677 ], [ -17.102257721975068, 32.71011070982464 ], [ -17.103747361163201, 32.708789886341656 ], [ -17.105317113333495, 32.707536453574384 ], [ -17.106962675904366, 32.706353850006096 ], [ -17.108679538503182, 32.705245319950158 ], [ -17.110462995328906, 32.704213904626052 ], [ -17.112308158050343, 32.703262433792759 ], [ -17.114209969204726, 32.70239351796279 ], [ -17.116163216059871, 32.701609541218545 ], [ -17.118162544901921, 32.700912654650878 ], [ -17.120202475709497, 32.700304770438386 ], [ -17.122277417174043, 32.699787556583594 ], [ -17.124381682025227, 32.699362432321102 ], [ -17.126509502619367, 32.699030564210076 ], [ -17.128655046748118, 32.698792862922403 ], [ -17.130812433624151, 32.69864998073507 ], [ -17.13297575, 32.698602309734163 ], [ -17.135139066375842, 32.69864998073507 ], [ -17.137296453251878, 32.698792862922403 ], [ -17.139441997380626, 32.699030564210076 ], [ -17.141569817974769, 32.699362432321102 ], [ -17.143674082825953, 32.699787556583594 ], [ -17.145749024290499, 32.700304770438386 ], [ -17.147788955098072, 32.700912654650878 ], [ -17.149788283940122, 32.701609541218545 ], [ -17.15174153079527, 32.70239351796279 ], [ -17.153643341949653, 32.703262433792759 ], [ -17.155488504671087, 32.704213904626052 ], [ -17.157271961496811, 32.705245319950158 ], [ -17.158988824095626, 32.706353850006096 ], [ -17.160634386666498, 32.707536453574384 ], [ -17.162204138836795, 32.708789886341656 ], [ -17.163693778024928, 32.71011070982464 ], [ -17.165099221233426, 32.711495300826677 ], [ -17.166416616240152, 32.712939861400528 ], [ -17.16764235215696, 32.714440429289844 ], [ -17.168773069326903, 32.715992888820281 ], [ -17.16980566853281, 32.717592982210071 ], [ -17.170737319492034, 32.719236321268816 ], [ -17.171565468614055, 32.720918399451961 ], [ -17.172287845999694, 32.722634604237797 ], [ -17.172902471662752, 32.724380229792651 ], [ -17.173407660957, 32.726150489889314 ], [ -17.173802029193702, 32.727940531043295 ], [ -17.174084495436936, 32.729745445830268 ], [ -17.174254285466361, 32.731560286348554 ], [ -17.174310933899307, 32.733380077789242 ], [ -17.174254285466361, 32.735199832076795 ], [ -17.174084495436936, 32.73701456154275 ], [ -17.173802029193702, 32.738819292594876 ], [ -17.173407660957, 32.740609079344551 ], [ -17.172902471662752, 32.742379017154789 ], [ -17.172287845999694, 32.744124256072077 ], [ -17.171565468614055, 32.745840014105326 ], [ -17.170737319492034, 32.747521590315586 ], [ -17.16980566853281, 32.749164377680842 ], [ -17.168773069326903, 32.75076387570104 ], [ -17.16764235215696, 32.752315702708742 ], [ -17.166416616240152, 32.753815607852268 ], [ -17.165099221233426, 32.755259482718429 ], [ -17.163693778024928, 32.756643372563659 ], [ -17.162204138836795, 32.757963487122716 ], [ -17.160634386666498, 32.759216210966088 ], [ -17.158988824095626, 32.76039811337759 ], [ -17.157271961496811, 32.761505957725895 ], [ -17.155488504671087, 32.762536710304275 ], [ -17.153643341949653, 32.763487548614918 ], [ -17.15174153079527, 32.764355869075381 ], [ -17.149788283940122, 32.765139294126243 ], [ -17.147788955098072, 32.76583567872111 ], [ -17.145749024290499, 32.766443116181129 ], [ -17.143674082825953, 32.76695994339844 ], [ -17.141569817974769, 32.767384745374578 ], [ -17.139441997380626, 32.767716359081369 ], [ -17.137296453251878, 32.767953876634259 ], [ -17.135139066375842, 32.768096647769276 ], [ -17.13297575, 32.768144281617069 ], [ -17.130812433624151, 32.768096647769276 ], [ -17.128655046748118, 32.767953876634259 ], [ -17.126509502619367, 32.767716359081369 ], [ -17.124381682025227, 32.767384745374578 ], [ -17.122277417174043, 32.76695994339844 ], [ -17.120202475709497, 32.766443116181129 ], [ -17.118162544901921, 32.76583567872111 ], [ -17.116163216059871, 32.765139294126243 ], [ -17.114209969204726, 32.764355869075381 ], [ -17.112308158050343, 32.763487548614918 ], [ -17.110462995328906, 32.762536710304275 ], [ -17.108679538503182, 32.761505957725895 ], [ -17.106962675904366, 32.76039811337759 ], [ -17.105317113333495, 32.759216210966088 ], [ -17.103747361163201, 32.757963487122716 ], [ -17.102257721975068, 32.756643372563659 ], [ -17.100852278766567, 32.755259482718429 ], [ -17.099534883759841, 32.753815607852268 ], [ -17.098309147843036, 32.752315702708742 ], [ -17.097178430673093, 32.75076387570104 ], [ -17.096145831467187, 32.749164377680842 ], [ -17.095214180507963, 32.747521590315586 ], [ -17.094386031385937, 32.745840014105326 ], [ -17.093663654000299, 32.744124256072077 ], [ -17.093049028337244, 32.742379017154789 ], [ -17.092543839042992, 32.740609079344551 ], [ -17.092149470806294, 32.738819292594876 ], [ -17.09186700456306, 32.73701456154275 ], [ -17.091697214533635, 32.735199832076795 ], [ -17.091640566100686, 32.733380077789242 ] ] ] } },
{ "type": "Feature", "properties": { "name": "Arco da Calheta", "feature_type": "mrr", "metric_roundness": 32.08, "metric_rectangularity": 67.98, "metric_mobile_fit": 35.96, "metric_aspect_ratio": 1.203, "metric_area_km2": 21.33 }, "geometry": { "type": "Polygon", "coordinates": [ [ [ -17.0967665, 32.7501495 ], [ -17.143673995926321, 32.69978754167515 ], [ -17.169878251186397, 32.717064534738732 ], [ -17.122970758336955, 32.767416740209875 ], [ -17.0967665, 32.7501495 ] ] ] } }
]
}
