{
"type": "FeatureCollection",
"name": "argenvieres",
"crs": { "type": "name", "properties": { "name": "urn:ogc:def:crs:OGC:1.3:CRS84" } },
"features": [
{ "type": "Feature", "properties": { "name": "Argenvières", "metric_roundness": 61.29, "metric_rectangularity": 77.43, "metric_mobile_fit": 38.4, "metric_aspect_ratio": 1.179, "metric_area_km2": 31.91 }, "geometry": { "type": "Polygon", "coordinates": [ [ [ 3.0169331, 47.1418201 ], [ 3.0192765, 47.1562865 ], [ 3.0159485, 47.159094 ], [ 2.9919991, 47.155270699999988 ], [ 2.973739, 47.1582453 ], [ 2.964408, 47.155923 ], [ 2.960435, 47.154506 ], [ 2.962873, 47.148735 ], [ 2.966732, 47.146015499999983 ], [ 2.968727, 47.141910499999987 ], [ 2.9697155, 47.136328 ], [ 2.9696095, 47.132864499999982 ], [ 2.9705115, 47.1311055 ], [ 2.967392, 47.1237005 ], [ 2.9862965, 47.122921 ], [ 2.99044, 47.122223 ], [ 2.993542, 47.1227005 ], [ 2.999595, 47.121856 ], [ 3.0019745, 47.122427 ], [ 3.0051655, 47.124612499999984 ], [ 3.007529, 47.123924 ], [ 3.011286, 47.123947 ], [ 3.013555, 47.126183 ], [ 3.020322, 47.129786 ], [ 3.024953, 47.131107499999985 ], [ 3.0169331, 47.1418201 ] ] ] } }
]
}
