{
"type": "FeatureCollection",
"name": "argusto",
"crs": { "type": "name", "properties": { "name": "urn:ogc:def:crs:OGC:1.3:CRS84" } },
"features": [
{ "type": "Feature", "properties": { "name": "Argusto", "feature_type": "entity", "metric_roundness": 41.51, "metric_rectangularity": 66.98, "metric_mobile_fit": 37.65, "metric_aspect_ratio": 1.186, "metric_area_km2": 11.3 }, "geometry": { "type": "Polygon", "coordinates": [ [ [ 16.4386028, 38.6756856 ], [ 16.453865, 38.6784984 ], [ 16.4614765, 38.683252 ], [ 16.4588793, 38.6890436 ], [ 16.4502085, 38.6960225 ], [ 16.4491402, 38.693623099999982 ], [ 16.4363384, 38.6930253 ], [ 16.4343314, 38.6872776 ], [ 16.4172866, 38.6792626 ], [ 16.4105615, 38.672489499999983 ], [ 16.4150001, 38.6700103 ], [ 16.4247074, 38.671673 ], [ 16.4302734, 38.663621899999988 ], [ 16.434835, 38.662508 ], [ 16.4386028, 38.6756856 ] ] ] } },
{ "type": "Feature", "properties": { "name": "Argusto", "feature_type": "circle", "metric_roundness": 41.51, "metric_rectangularity": 66.98, "metric_mobile_fit": 37.65, "metric_aspect_ratio": 1.186, "metric_area_km2": 11.3 }, "geometry": { "type": "Polygon", "coordinates": [ [ [ 16.46194048917636, 38.679401338882869 ], [ 16.461904237224548, 38.678320586916804 ], [ 16.461795580733178, 38.677242780964022 ], [ 16.46161481752215, 38.676170875416254 ], [ 16.461362443050859, 38.675107808623736 ], [ 16.461039149060188, 38.674056494837785 ], [ 16.46064582167649, 38.673019816218044 ], [ 16.46018353898279, 38.672000614926269 ], [ 16.459653568063814, 38.671001685328484 ], [ 16.459057361533013, 38.670025766327079 ], [ 16.458396553551047, 38.669075533843653 ], [ 16.457672955346666, 38.668153593473647 ], [ 16.456888550252248, 38.667262473332805 ], [ 16.456045488267634, 38.666404617115255 ], [ 16.455146080167122, 38.665582377382464 ], [ 16.454192791165802, 38.664798009101396 ], [ 16.453188234162557, 38.664053663450048 ], [ 16.452135162578315, 38.663351381907148 ], [ 16.451036462809085, 38.662693090642556 ], [ 16.449895146314571, 38.662080595223991 ], [ 16.448714341363949, 38.661515575654505 ], [ 16.447497284461505, 38.660999581754595 ], [ 16.446247311475624, 38.660534028901765 ], [ 16.44496784849537, 38.660120194139338 ], [ 16.443662402439834, 38.659759212665229 ], [ 16.442334551445921, 38.659452074710522 ], [ 16.440987935060903, 38.659199622816509 ], [ 16.439626244266691, 38.65900254951773 ], [ 16.438253211363097, 38.658861395437334 ], [ 16.436872599737882, 38.658776547800308 ], [ 16.435488193551532, 38.658748239368478 ], [ 16.434103787365185, 38.658776547800308 ], [ 16.432723175739969, 38.658861395437334 ], [ 16.431350142836376, 38.65900254951773 ], [ 16.429988452042164, 38.659199622816509 ], [ 16.428641835657146, 38.659452074710522 ], [ 16.427313984663233, 38.659759212665229 ], [ 16.4260085386077, 38.660120194139338 ], [ 16.424729075627443, 38.660534028901765 ], [ 16.423479102641558, 38.660999581754595 ], [ 16.422262045739121, 38.661515575654505 ], [ 16.421081240788496, 38.662080595223991 ], [ 16.419939924293981, 38.662693090642556 ], [ 16.418841224524751, 38.663351381907148 ], [ 16.41778815294051, 38.664053663450048 ], [ 16.416783595937265, 38.664798009101396 ], [ 16.415830306935945, 38.665582377382464 ], [ 16.414930898835433, 38.666404617115255 ], [ 16.414087836850818, 38.667262473332805 ], [ 16.4133034317564, 38.668153593473647 ], [ 16.412579833552016, 38.669075533843653 ], [ 16.411919025570054, 38.670025766327079 ], [ 16.411322819039253, 38.671001685328484 ], [ 16.410792848120277, 38.672000614926269 ], [ 16.410330565426577, 38.673019816218044 ], [ 16.409937238042879, 38.674056494837785 ], [ 16.409613944052207, 38.675107808623736 ], [ 16.409361569580916, 38.676170875416254 ], [ 16.409180806369889, 38.677242780964022 ], [ 16.409072149878522, 38.678320586916804 ], [ 16.40903589792671, 38.679401338882869 ], [ 16.409072149878522, 38.680482074529053 ], [ 16.409180806369889, 38.681559831700952 ], [ 16.409361569580916, 38.682631656541318 ], [ 16.409613944052207, 38.683694611584158 ], [ 16.409937238042879, 38.684745783802498 ], [ 16.410330565426577, 38.685782292587746 ], [ 16.410792848120277, 38.686801297638901 ], [ 16.411322819039253, 38.687800006739963 ], [ 16.411919025570054, 38.68877568340438 ], [ 16.412579833552016, 38.689725654365624 ], [ 16.4133034317564, 38.690647316893568 ], [ 16.414087836850818, 38.691538145916539 ], [ 16.414930898835433, 38.692395700929978 ], [ 16.415830306935945, 38.693217632672479 ], [ 16.416783595937265, 38.694001689551456 ], [ 16.41778815294051, 38.694745723800722 ], [ 16.418841224524751, 38.69544769735333 ], [ 16.419939924293981, 38.696105687413812 ], [ 16.421081240788496, 38.696717891714528 ], [ 16.422262045739121, 38.697282633441958 ], [ 16.423479102641558, 38.6977983658197 ], [ 16.424729075627443, 38.69826367633555 ], [ 16.4260085386077, 38.698677290601275 ], [ 16.427313984663233, 38.699038075834778 ], [ 16.428641835657146, 38.699345043954999 ], [ 16.429988452042164, 38.699597354281408 ], [ 16.431350142836376, 38.69979431583053 ], [ 16.432723175739969, 38.699935389203532 ], [ 16.434103787365185, 38.700020188059682 ], [ 16.435488193551532, 38.700048480171624 ], [ 16.436872599737882, 38.700020188059682 ], [ 16.438253211363097, 38.699935389203532 ], [ 16.439626244266691, 38.69979431583053 ], [ 16.440987935060903, 38.699597354281408 ], [ 16.442334551445921, 38.699345043954999 ], [ 16.443662402439834, 38.699038075834778 ], [ 16.44496784849537, 38.698677290601275 ], [ 16.446247311475624, 38.69826367633555 ], [ 16.447497284461505, 38.6977983658197 ], [ 16.448714341363949, 38.697282633441958 ], [ 16.449895146314571, 38.696717891714528 ], [ 16.451036462809085, 38.696105687413812 ], [ 16.452135162578315, 38.69544769735333 ], [ 16.453188234162557, 38.694745723800722 ], [ 16.454192791165802, 38.694001689551456 ], [ 16.455146080167122, 38.693217632672479 ], [ 16.456045488267634, 38.692395700929978 ], [ 16.456888550252248, 38.691538145916539 ], [ 16.457672955346666, 38.690647316893568 ], [ 16.458396553551047, 38.689725654365624 ], [ 16.459057361533013, 38.68877568340438 ], [ 16.459653568063814, 38.687800006739963 ], [ 16.46018353898279, 38.686801297638901 ], [ 16.46064582167649, 38.685782292587746 ], [ 16.461039149060188, 38.684745783802498 ], [ 16.461362443050859, 38.683694611584158 ], [ 16.46161481752215, 38.682631656541318 ], [ 16.461795580733178, 38.681559831700952 ], [ 16.461904237224548, 38.680482074529053 ], [ 16.46194048917636, 38.679401338882869 ] ] ] } },
{ "type": "Feature", "properties": { "name": "Argusto", "feature_type": "mrr", "metric_roundness": 41.51, "metric_rectangularity": 66.98, "metric_mobile_fit": 37.65, "metric_aspect_ratio": 1.186, "metric_area_km2": 11.3 }, "geometry": { "type": "Polygon", "coordinates": [ [ [ 16.464007869079747, 38.685222698152046 ], [ 16.429057629349177, 38.658008743588034 ], [ 16.409577165542792, 38.673260047969414 ], [ 16.444527405273362, 38.700468205055344 ], [ 16.464007869079747, 38.685222698152046 ] ] ] } }
]
}
