{
"type": "FeatureCollection",
"name": "arklow",
"crs": { "type": "name", "properties": { "name": "urn:ogc:def:crs:OGC:1.3:CRS84" } },
"features": [
{ "type": "Feature", "properties": { "name": "Arklow", "feature_type": "entity", "metric_roundness": 41.84, "metric_rectangularity": 58.07, "metric_mobile_fit": 67.2, "metric_aspect_ratio": 0.891, "metric_area_km2": 1331.56 }, "geometry": { "type": "Polygon", "coordinates": [ [ [ -6.1458983, 52.7438029 ], [ -6.1391417, 52.7579831 ], [ -6.1450723, 52.7612636 ], [ -6.1464523, 52.7665277 ], [ -6.1437458, 52.7729629 ], [ -6.1377262, 52.776821 ], [ -6.1430019, 52.7775641 ], [ -6.1455608, 52.783008699999989 ], [ -6.1393463, 52.7922723 ], [ -6.1384438, 52.8022814 ], [ -6.1215316, 52.8150865 ], [ -6.1062293, 52.8371463 ], [ -6.0585118, 52.8581895 ], [ -6.0642031, 52.8679734 ], [ -6.058369, 52.8815575 ], [ -6.0739011, 52.8879442 ], [ -6.0742962, 52.9020963 ], [ -6.0982833, 52.9116901 ], [ -6.1063515, 52.9204909 ], [ -6.1049638, 52.9278545 ], [ -6.1110735, 52.933706199999989 ], [ -6.1129481, 52.9538895 ], [ -6.1344308, 52.9536684 ], [ -6.1355725, 52.943800599999989 ], [ -6.1400052, 52.9424482 ], [ -6.1666714, 52.948631 ], [ -6.1759366, 52.958821599999986 ], [ -6.1925051, 52.967558899999986 ], [ -6.1878931, 52.9802102 ], [ -6.199374, 52.9770239 ], [ -6.2266112, 52.98570849999998 ], [ -6.2296641, 52.9846964 ], [ -6.2282464, 52.980417 ], [ -6.2266112, 52.9792115 ], [ -6.2156636, 52.97440049999998 ], [ -6.2194326, 52.9683645 ], [ -6.2266112, 52.9643054 ], [ -6.2351561, 52.9594083 ], [ -6.2442226, 52.964399399999984 ], [ -6.2691291, 52.9702798 ], [ -6.2888731, 52.982788 ], [ -6.296516, 52.990872499999973 ], [ -6.3222509, 52.990982799999976 ], [ -6.3447512, 52.9827816 ], [ -6.3751345, 52.9857896 ], [ -6.4093769, 53.000940199999988 ], [ -6.4460045, 53.023028499999988 ], [ -6.4525865, 53.01903859999998 ], [ -6.4649986, 53.0235762 ], [ -6.4802254, 53.0150593 ], [ -6.4780175, 53.007970199999981 ], [ -6.4650952, 52.990414 ], [ -6.4665087, 52.9751346 ], [ -6.4562942, 52.9681773 ], [ -6.4598885, 52.9603204 ], [ -6.4594353, 52.949511799999989 ], [ -6.4406441, 52.9351383 ], [ -6.4329661, 52.918639 ], [ -6.4356233, 52.911577799999982 ], [ -6.420947, 52.9122443 ], [ -6.4056225, 52.9024882 ], [ -6.3938522, 52.879790099999987 ], [ -6.3886956, 52.877240199999989 ], [ -6.3938281, 52.873540299999988 ], [ -6.407769, 52.8710772 ], [ -6.4223396, 52.8599979 ], [ -6.3915952, 52.851979799999988 ], [ -6.3931033, 52.83764 ], [ -6.4020874, 52.833908 ], [ -6.4043321, 52.8295344 ], [ -6.391398, 52.821371 ], [ -6.4273238, 52.808159399999987 ], [ -6.4366276, 52.7908267 ], [ -6.4433588, 52.7856076 ], [ -6.4345022, 52.7773997 ], [ -6.415831, 52.77626 ], [ -6.3989006, 52.786339 ], [ -6.3868498, 52.7861005 ], [ -6.3673682, 52.794847199999985 ], [ -6.3543092, 52.795068799999989 ], [ -6.3432422, 52.7906853 ], [ -6.3327105, 52.795563699999981 ], [ -6.3197244, 52.796483 ], [ -6.3032572, 52.785063199999982 ], [ -6.2940904, 52.782899499999985 ], [ -6.2727061, 52.7916551 ], [ -6.2581144, 52.7937946 ], [ -6.2423721, 52.779287399999987 ], [ -6.22762, 52.778360499999984 ], [ -6.2198078, 52.7739808 ], [ -6.2111062, 52.7762248 ], [ -6.1971183, 52.768773 ], [ -6.1713024, 52.766131699999988 ], [ -6.1742183, 52.7560626 ], [ -6.1723416, 52.751433899999981 ], [ -6.1772828, 52.7481055 ], [ -6.1569868, 52.738917499999985 ], [ -6.1445165, 52.7376965 ], [ -6.1458983, 52.7438029 ] ] ] } },
{ "type": "Feature", "properties": { "name": "Arklow", "feature_type": "circle", "metric_roundness": 41.84, "metric_rectangularity": 58.07, "metric_mobile_fit": 67.2, "metric_aspect_ratio": 0.891, "metric_area_km2": 1331.56 }, "geometry": { "type": "Polygon", "coordinates": [ [ [ -6.018784634067887, 52.880871942026296 ], [ -6.019176550010306, 52.87183900417638 ], [ -6.020351223623203, 52.862828951264554 ], [ -6.022305435207858, 52.853866502155505 ], [ -6.025033828406153, 52.844976260360916 ], [ -6.02852892488198, 52.83618264618805 ], [ -6.032781144818839, 52.827509829229129 ], [ -6.03777883317745, 52.818981661382807 ], [ -6.043508291641409, 52.810621610599384 ], [ -6.049953816163315, 52.802452695540765 ], [ -6.057097740008479, 52.794497421345596 ], [ -6.064920482178206, 52.786777716687901 ], [ -6.073400601079963, 52.779314872315737 ], [ -6.082514853297284, 52.772129481252882 ], [ -6.092238257298368, 52.765241380843605 ], [ -6.102544161908712, 52.758669596815658 ], [ -6.113404319360134, 52.752432289532116 ], [ -6.12478896271594, 52.746546702596852 ], [ -6.136666887460028, 52.741029113972502 ], [ -6.1490055370263, 52.735894789762249 ], [ -6.161771092033942, 52.731157940800266 ], [ -6.174928562984003, 52.726831682186436 ], [ -6.188441886163174, 52.72292799589335 ], [ -6.202274022491918, 52.719457696563779 ], [ -6.216387059046018, 52.716430400607273 ], [ -6.230742312973265, 52.713854498694609 ], [ -6.245300437520469, 52.711737131738012 ], [ -6.260021529880164, 52.710084170434236 ], [ -6.274865240561445, 52.708900198436311 ], [ -6.289790883985109, 52.708188499208262 ], [ -6.30475755, 52.707951046605011 ], [ -6.319724216014889, 52.708188499208262 ], [ -6.334649859438552, 52.708900198436311 ], [ -6.349493570119833, 52.710084170434236 ], [ -6.364214662479529, 52.711737131738012 ], [ -6.378772787026731, 52.713854498694609 ], [ -6.39312804095398, 52.716430400607273 ], [ -6.40724107750808, 52.719457696563779 ], [ -6.421073213836823, 52.72292799589335 ], [ -6.434586537015992, 52.726831682186436 ], [ -6.447744007966055, 52.731157940800266 ], [ -6.460509562973697, 52.735894789762249 ], [ -6.472848212539969, 52.741029113972502 ], [ -6.484726137284056, 52.746546702596852 ], [ -6.496110780639863, 52.752432289532116 ], [ -6.506970938091285, 52.758669596815658 ], [ -6.517276842701628, 52.765241380843605 ], [ -6.527000246702713, 52.772129481252882 ], [ -6.536114498920034, 52.779314872315737 ], [ -6.544594617821791, 52.786777716687901 ], [ -6.552417359991518, 52.794497421345596 ], [ -6.559561283836682, 52.802452695540765 ], [ -6.566006808358588, 52.810621610599384 ], [ -6.571736266822547, 52.818981661382807 ], [ -6.576733955181158, 52.827509829229129 ], [ -6.580986175118017, 52.83618264618805 ], [ -6.584481271593843, 52.844976260360916 ], [ -6.587209664792138, 52.853866502155505 ], [ -6.589163876376793, 52.862828951264554 ], [ -6.590338549989691, 52.87183900417638 ], [ -6.59073046593211, 52.880871942026296 ], [ -6.590338549989691, 52.889902998598444 ], [ -6.589163876376793, 52.898907428288716 ], [ -6.587209664792138, 52.907860573842107 ], [ -6.584481271593844, 52.916737933679343 ], [ -6.580986175118017, 52.925515228631561 ], [ -6.576733955181158, 52.934168467904506 ], [ -6.571736266822547, 52.942674014098039 ], [ -6.566006808358588, 52.951008647110868 ], [ -6.559561283836682, 52.959149626764948 ], [ -6.552417359991518, 52.967074753989181 ], [ -6.544594617821791, 52.974762430407367 ], [ -6.536114498920034, 52.982191716180722 ], [ -6.527000246702713, 52.9893423859615 ], [ -6.517276842701628, 52.996194982819738 ], [ -6.506970938091285, 53.002730870012485 ], [ -6.496110780639863, 53.00893228047007 ], [ -6.484726137284056, 53.014782363881586 ], [ -6.472848212539969, 53.020265231268006 ], [ -6.460509562973697, 53.025365996938554 ], [ -6.447744007966055, 53.030070817732479 ], [ -6.434586537015994, 53.034366929456048 ], [ -6.421073213836825, 53.038242680430969 ], [ -6.40724107750808, 53.041687562078266 ], [ -6.39312804095398, 53.044692236468379 ], [ -6.378772787026731, 53.047248560775735 ], [ -6.364214662479529, 53.049349608583128 ], [ -6.349493570119833, 53.050989687988661 ], [ -6.334649859438552, 53.05216435647506 ], [ -6.319724216014889, 53.052870432508875 ], [ -6.30475755, 53.05310600384356 ], [ -6.289790883985109, 53.052870432508875 ], [ -6.274865240561445, 53.05216435647506 ], [ -6.260021529880164, 53.050989687988661 ], [ -6.245300437520469, 53.049349608583128 ], [ -6.230742312973265, 53.047248560775735 ], [ -6.216387059046018, 53.044692236468379 ], [ -6.202274022491918, 53.041687562078266 ], [ -6.188441886163174, 53.038242680430969 ], [ -6.174928562984005, 53.034366929456048 ], [ -6.161771092033944, 53.030070817732479 ], [ -6.149005537026301, 53.025365996938554 ], [ -6.136666887460028, 53.020265231268006 ], [ -6.12478896271594, 53.014782363881586 ], [ -6.113404319360134, 53.00893228047007 ], [ -6.102544161908712, 53.002730870012485 ], [ -6.092238257298368, 52.996194982819738 ], [ -6.082514853297284, 52.9893423859615 ], [ -6.073400601079963, 52.982191716180722 ], [ -6.064920482178206, 52.974762430407367 ], [ -6.057097740008479, 52.967074753989181 ], [ -6.049953816163315, 52.959149626764948 ], [ -6.043508291641409, 52.951008647110868 ], [ -6.03777883317745, 52.942674014098039 ], [ -6.032781144818839, 52.934168467904506 ], [ -6.02852892488198, 52.925515228631561 ], [ -6.025033828406154, 52.916737933679343 ], [ -6.022305435207858, 52.907860573842107 ], [ -6.020351223623203, 52.898907428288716 ], [ -6.019176550010306, 52.889902998598444 ], [ -6.018784634067887, 52.880871942026296 ] ] ] } },
{ "type": "Feature", "properties": { "name": "Arklow", "feature_type": "mrr", "metric_roundness": 41.84, "metric_rectangularity": 58.07, "metric_mobile_fit": 67.2, "metric_aspect_ratio": 0.891, "metric_area_km2": 1331.56 }, "geometry": { "type": "Polygon", "coordinates": [ [ [ -6.106369947495676, 52.731894951015867 ], [ -6.563710919829679, 52.79530507329315 ], [ -6.475634280595091, 53.027111947046578 ], [ -6.018293308261087, 52.964040128965891 ], [ -6.106369947495676, 52.731894951015867 ] ] ] } }
]
}
