{
"type": "FeatureCollection",
"name": "arroyo_de_la_luz",
"crs": { "type": "name", "properties": { "name": "urn:ogc:def:crs:OGC:1.3:CRS84" } },
"features": [
{ "type": "Feature", "properties": { "name": "Arroyo de la Luz", "feature_type": "entity", "metric_roundness": 49.01, "metric_rectangularity": 68.7, "metric_mobile_fit": 87.11, "metric_aspect_ratio": 0.691, "metric_area_km2": 216.59 }, "geometry": { "type": "Polygon", "coordinates": [ [ [ -6.5476871, 39.5487497 ], [ -6.5508094, 39.560624 ], [ -6.5573592, 39.5682433 ], [ -6.5527732, 39.571071399999987 ], [ -6.55736, 39.576492 ], [ -6.5576792, 39.581490799999983 ], [ -6.5670751, 39.5940765 ], [ -6.5651795, 39.60384 ], [ -6.570583, 39.610744499999981 ], [ -6.5881055, 39.5984139 ], [ -6.6083062, 39.5927085 ], [ -6.623937, 39.573597 ], [ -6.6279634, 39.5649866 ], [ -6.6316998, 39.5373419 ], [ -6.6489215, 39.5091975 ], [ -6.6440536, 39.504596599999985 ], [ -6.6478341, 39.4999481 ], [ -6.6482976, 39.4937517 ], [ -6.6385223, 39.492228299999987 ], [ -6.6381439, 39.4849718 ], [ -6.6280403, 39.480280499999978 ], [ -6.6275998, 39.470448399999988 ], [ -6.6207795, 39.4605962 ], [ -6.6223713, 39.4562813 ], [ -6.6167932, 39.4510261 ], [ -6.5795472, 39.4500543 ], [ -6.5772665, 39.4579856 ], [ -6.5523388, 39.4646015 ], [ -6.5420776, 39.477218099999988 ], [ -6.524467, 39.4693525 ], [ -6.521265, 39.473801699999981 ], [ -6.5140256, 39.4715561 ], [ -6.5048705, 39.473957 ], [ -6.5073328, 39.477386599999988 ], [ -6.5060335, 39.4895074 ], [ -6.5219724, 39.508204 ], [ -6.5289216, 39.511237 ], [ -6.5274452, 39.518467099999981 ], [ -6.5348716, 39.5320892 ], [ -6.529885, 39.54451 ], [ -6.5476871, 39.5487497 ] ] ] } },
{ "type": "Feature", "properties": { "name": "Arroyo de la Luz", "feature_type": "circle", "metric_roundness": 49.01, "metric_rectangularity": 68.7, "metric_mobile_fit": 87.11, "metric_aspect_ratio": 0.691, "metric_area_km2": 216.59 }, "geometry": { "type": "Polygon", "coordinates": [ [ [ -6.477209397941584, 39.529226172112082 ], [ -6.477355451288244, 39.524924072631229 ], [ -6.477793211006154, 39.520633499465674 ], [ -6.478521477226355, 39.516366216058344 ], [ -6.479538253821758, 39.512133924158057 ], [ -6.480840753878392, 39.507948231686342 ], [ -6.482425407334136, 39.503820620838646 ], [ -6.484287870764017, 39.499762416508226 ], [ -6.48642303928523, 39.49578475512044 ], [ -6.488825060549273, 39.491898553964248 ], [ -6.491487350782823, 39.488114481106521 ], [ -6.494402612833406, 39.484442925973454 ], [ -6.497562856170378, 39.480893970681628 ], [ -6.500959418786413, 39.477477362199416 ], [ -6.50458299093948, 39.474202485417287 ], [ -6.508423640670175, 39.471078337203153 ], [ -6.512470841024546, 39.468113501516292 ], [ -6.516713498907742, 39.465316125650588 ], [ -6.521139985489405, 39.462693897674527 ], [ -6.525738168077499, 39.46025402513262 ], [ -6.530495443373164, 39.458003215068779 ], [ -6.53539877201549, 39.455947655428915 ], [ -6.540434714321494, 39.454092997896268 ], [ -6.545589467123358, 39.452444342208494 ], [ -6.550848901601957, 39.451006222001617 ], [ -6.556198602012962, 39.449782592221837 ], [ -6.561623905199401, 39.448776818141205 ], [ -6.567109940782347, 39.447991666008939 ], [ -6.572641671919597, 39.44742929536541 ], [ -6.578203936520612, 39.447091253040952 ], [ -6.583781488804744, 39.446978468856855 ], [ -6.589359041088877, 39.447091253040952 ], [ -6.594921305689891, 39.44742929536541 ], [ -6.600453036827142, 39.447991666008939 ], [ -6.605939072410088, 39.448776818141205 ], [ -6.611364375596526, 39.449782592221837 ], [ -6.616714076007532, 39.451006222001617 ], [ -6.621973510486131, 39.452444342208494 ], [ -6.627128263287995, 39.454092997896268 ], [ -6.632164205593998, 39.455947655428915 ], [ -6.637067534236325, 39.458003215068779 ], [ -6.641824809531989, 39.46025402513262 ], [ -6.646422992120084, 39.462693897674527 ], [ -6.650849478701748, 39.465316125650588 ], [ -6.655092136584942, 39.468113501516292 ], [ -6.659139336939313, 39.471078337203153 ], [ -6.662979986670009, 39.474202485417287 ], [ -6.666603558823075, 39.477477362199416 ], [ -6.670000121439112, 39.480893970681628 ], [ -6.673160364776082, 39.484442925973454 ], [ -6.676075626826664, 39.488114481106521 ], [ -6.678737917060215, 39.491898553964248 ], [ -6.681139938324259, 39.49578475512044 ], [ -6.683275106845471, 39.499762416508226 ], [ -6.685137570275352, 39.503820620838646 ], [ -6.686722223731096, 39.507948231686342 ], [ -6.68802472378773, 39.512133924158057 ], [ -6.689041500383134, 39.516366216058344 ], [ -6.689769766603334, 39.520633499465674 ], [ -6.690207526321244, 39.524924072631229 ], [ -6.690353579667905, 39.529226172112082 ], [ -6.690207526321244, 39.533528005050002 ], [ -6.689769766603334, 39.53781778150713 ], [ -6.689041500383134, 39.54208374676945 ], [ -6.68802472378773, 39.546314213530032 ], [ -6.686722223731096, 39.550497593864009 ], [ -6.685137570275352, 39.554622430908246 ], [ -6.683275106845471, 39.558677430159925 ], [ -6.681139938324259, 39.562651490309243 ], [ -6.678737917060215, 39.566533733523237 ], [ -6.676075626826664, 39.570313535099132 ], [ -6.673160364776082, 39.573980552407853 ], [ -6.670000121439112, 39.577524753050227 ], [ -6.666603558823075, 39.580936442150829 ], [ -6.662979986670009, 39.584206288717034 ], [ -6.659139336939314, 39.587325350993019 ], [ -6.655092136584942, 39.590285100742122 ], [ -6.650849478701748, 39.593077446393067 ], [ -6.646422992120084, 39.595694754989417 ], [ -6.641824809531991, 39.598129872884371 ], [ -6.637067534236325, 39.600376145126923 ], [ -6.632164205593998, 39.602427433488401 ], [ -6.627128263287996, 39.604278133082524 ], [ -6.621973510486131, 39.605923187535616 ], [ -6.616714076007532, 39.607358102667426 ], [ -6.611364375596526, 39.608578958647193 ], [ -6.605939072410088, 39.609582420593128 ], [ -6.600453036827142, 39.610365747588204 ], [ -6.594921305689891, 39.610926800088606 ], [ -6.589359041088877, 39.611264045705802 ], [ -6.583781488804744, 39.611376563347392 ], [ -6.578203936520612, 39.611264045705802 ], [ -6.572641671919598, 39.610926800088606 ], [ -6.567109940782347, 39.610365747588204 ], [ -6.561623905199401, 39.609582420593128 ], [ -6.556198602012962, 39.608578958647193 ], [ -6.550848901601957, 39.607358102667426 ], [ -6.545589467123358, 39.605923187535616 ], [ -6.540434714321494, 39.604278133082524 ], [ -6.53539877201549, 39.602427433488401 ], [ -6.530495443373164, 39.600376145126923 ], [ -6.525738168077499, 39.598129872884371 ], [ -6.521139985489405, 39.595694754989417 ], [ -6.516713498907742, 39.593077446393067 ], [ -6.512470841024547, 39.590285100742122 ], [ -6.508423640670175, 39.587325350993019 ], [ -6.50458299093948, 39.584206288717034 ], [ -6.500959418786413, 39.580936442150829 ], [ -6.497562856170378, 39.577524753050227 ], [ -6.494402612833406, 39.573980552407853 ], [ -6.491487350782823, 39.570313535099132 ], [ -6.488825060549273, 39.566533733523237 ], [ -6.48642303928523, 39.562651490309243 ], [ -6.484287870764017, 39.558677430159925 ], [ -6.482425407334136, 39.554622430908246 ], [ -6.480840753878392, 39.550497593864009 ], [ -6.479538253821758, 39.546314213530032 ], [ -6.478521477226355, 39.54208374676945 ], [ -6.477793211006154, 39.53781778150713 ], [ -6.477355451288244, 39.533528005050002 ], [ -6.477209397941584, 39.529226172112082 ] ] ] } },
{ "type": "Feature", "properties": { "name": "Arroyo de la Luz", "feature_type": "mrr", "metric_roundness": 49.01, "metric_rectangularity": 68.7, "metric_mobile_fit": 87.11, "metric_aspect_ratio": 0.691, "metric_area_km2": 216.59 }, "geometry": { "type": "Polygon", "coordinates": [ [ [ -6.493864050389579, 39.477479276922871 ], [ -6.618187099977305, 39.437683124068215 ], [ -6.690579062135601, 39.572407471099737 ], [ -6.566256012547874, 39.612126514281556 ], [ -6.493864050389579, 39.477479276922871 ] ] ] } }
]
}
