{
"type": "FeatureCollection",
"name": "ars_sur_formans",
"crs": { "type": "name", "properties": { "name": "urn:ogc:def:crs:OGC:1.3:CRS84" } },
"features": [
{ "type": "Feature", "properties": { "name": "Ars-sur-Formans", "metric_roundness": 33.47, "metric_rectangularity": 55.98, "metric_mobile_fit": 82.11, "metric_aspect_ratio": 0.741, "metric_area_km2": 11.78 }, "geometry": { "type": "Polygon", "coordinates": [ [ [ 4.80171, 46.0071645 ], [ 4.8010615, 46.001372 ], [ 4.8083218, 45.996207099999985 ], [ 4.8138747, 45.9873097 ], [ 4.8367155, 45.9731775 ], [ 4.837696, 45.979097 ], [ 4.83617, 45.983856499999987 ], [ 4.8368065, 45.9893335 ], [ 4.836164, 45.992228 ], [ 4.834111, 45.996774 ], [ 4.833039, 46.0030095 ], [ 4.8223835, 46.0044605 ], [ 4.8114665, 46.005825 ], [ 4.8086355, 46.007507 ], [ 4.80171, 46.0071645 ] ] ] } }
]
}
