{
"type": "FeatureCollection",
"name": "arx",
"crs": { "type": "name", "properties": { "name": "urn:ogc:def:crs:OGC:1.3:CRS84" } },
"features": [
{ "type": "Feature", "properties": { "name": "Arx", "feature_type": "entity", "metric_roundness": 42.84, "metric_rectangularity": 65.45, "metric_mobile_fit": -15.76, "metric_aspect_ratio": 1.72, "metric_area_km2": 47.14 }, "geometry": { "type": "Polygon", "coordinates": [ [ [ 0.1242372, 44.105144 ], [ 0.1367265, 44.109869 ], [ 0.1314381, 44.1207106 ], [ 0.1357915, 44.124189 ], [ 0.034594, 44.130654 ], [ 0.0331082, 44.124212699999987 ], [ 0.0316, 44.117674499999985 ], [ 0.052368, 44.110798 ], [ 0.0543285, 44.108591 ], [ 0.0616715, 44.104184 ], [ 0.063188, 44.1006175 ], [ 0.064741, 44.099247 ], [ 0.0687145, 44.098205 ], [ 0.07098, 44.096174499999989 ], [ 0.077172, 44.094279 ], [ 0.1008195, 44.0867705 ], [ 0.1242372, 44.105144 ] ] ] } },
{ "type": "Feature", "properties": { "name": "Arx", "feature_type": "circle", "metric_roundness": 42.84, "metric_rectangularity": 65.45, "metric_mobile_fit": -15.76, "metric_aspect_ratio": 1.72, "metric_area_km2": 47.14 }, "geometry": { "type": "Polygon", "coordinates": [ [ [ 0.137953056115741, 44.118021723767939 ], [ 0.137880178024977, 44.116023680545304 ], [ 0.137661743506465, 44.114031046536354 ], [ 0.137298351274038, 44.112049284242048 ], [ 0.136790997360546, 44.110083826907641 ], [ 0.136141072387799, 44.108140063615508 ], [ 0.135350357754973, 44.106223324493158 ], [ 0.134421020755914, 44.104338866077427 ], [ 0.133355608638739, 44.10249185687497 ], [ 0.132157041624005, 44.100687363159217 ], [ 0.130828604900589, 44.098930335042979 ], [ 0.12937393962121, 44.097225592865364 ], [ 0.127797032922288, 44.09557781393088 ], [ 0.126102206995473, 44.093991519637427 ], [ 0.124294107240826, 44.092471063029315 ], [ 0.122377689534096, 44.091020616809686 ], [ 0.120358206643006, 44.08964416184611 ], [ 0.11824119382979, 44.088345476201198 ], [ 0.116032453679416, 44.087128124719271 ], [ 0.11373804019511, 44.085995449197945 ], [ 0.111364242204748, 44.084950559172398 ], [ 0.108917566123622, 44.08399632333807 ], [ 0.106404718120804, 44.083135361636089 ], [ 0.103832585738003, 44.082370038023427 ], [ 0.101208219011295, 44.081702453948289 ], [ 0.098538811147459, 44.08113444254915 ], [ 0.095831678807902, 44.080667563593693 ], [ 0.093094242054196, 44.080303099171935 ], [ 0.090334004010207, 44.08004205015574 ], [ 0.08755853029655, 44.079885133434672 ], [ 0.084775428293755, 44.079832779936048 ], [ 0.08199232629096, 44.079885133434672 ], [ 0.079216852577304, 44.08004205015574 ], [ 0.076456614533314, 44.080303099171935 ], [ 0.073719177779609, 44.080667563593693 ], [ 0.071012045440052, 44.08113444254915 ], [ 0.068342637576216, 44.081702453948289 ], [ 0.065718270849507, 44.082370038023427 ], [ 0.063146138466707, 44.083135361636089 ], [ 0.060633290463888, 44.08399632333807 ], [ 0.058186614382763, 44.084950559172398 ], [ 0.055812816392401, 44.085995449197945 ], [ 0.053518402908094, 44.087128124719271 ], [ 0.051309662757721, 44.088345476201198 ], [ 0.049192649944504, 44.08964416184611 ], [ 0.047173167053415, 44.091020616809686 ], [ 0.045256749346684, 44.092471063029315 ], [ 0.043448649592037, 44.093991519637427 ], [ 0.041753823665223, 44.09557781393088 ], [ 0.0401769169663, 44.097225592865364 ], [ 0.038722251686922, 44.098930335042979 ], [ 0.037393814963505, 44.100687363159217 ], [ 0.036195247948772, 44.10249185687497 ], [ 0.035129835831597, 44.104338866077427 ], [ 0.034200498832538, 44.106223324493158 ], [ 0.033409784199711, 44.108140063615508 ], [ 0.032759859226965, 44.110083826907641 ], [ 0.032252505313473, 44.112049284242048 ], [ 0.031889113081046, 44.114031046536354 ], [ 0.031670678562534, 44.116023680545304 ], [ 0.03159780047177, 44.118021723767939 ], [ 0.031670678562534, 44.120019699428987 ], [ 0.031889113081046, 44.122012131493442 ], [ 0.032252505313473, 44.123993559672854 ], [ 0.032759859226965, 44.125958554382613 ], [ 0.033409784199711, 44.127901731608972 ], [ 0.034200498832538, 44.12981776764547 ], [ 0.035129835831597, 44.13170141365844 ], [ 0.036195247948772, 44.133547510042071 ], [ 0.037393814963505, 44.135351000523968 ], [ 0.038722251686922, 44.137106945982993 ], [ 0.0401769169663, 44.138810537941822 ], [ 0.041753823665223, 44.140457111698026 ], [ 0.043448649592037, 44.142042159057851 ], [ 0.045256749346684, 44.143561340638684 ], [ 0.047173167053415, 44.145010497706835 ], [ 0.049192649944504, 44.14638566351897 ], [ 0.051309662757721, 44.147683074136658 ], [ 0.053518402908094, 44.148899178685056 ], [ 0.055812816392401, 44.150030649028217 ], [ 0.058186614382763, 44.151074388835156 ], [ 0.060633290463888, 44.152027542012434 ], [ 0.063146138466707, 44.152887500480752 ], [ 0.065718270849507, 44.153651911274792 ], [ 0.068342637576216, 44.154318682947356 ], [ 0.071012045440052, 44.154885991260819 ], [ 0.073719177779609, 44.155352284150645 ], [ 0.076456614533314, 44.155716285947889 ], [ 0.079216852577304, 44.155977000849298 ], [ 0.08199232629096, 44.15613371562592 ], [ 0.084775428293755, 44.156186001562993 ], [ 0.08755853029655, 44.15613371562592 ], [ 0.090334004010207, 44.155977000849298 ], [ 0.093094242054196, 44.155716285947889 ], [ 0.095831678807902, 44.155352284150645 ], [ 0.098538811147459, 44.154885991260819 ], [ 0.101208219011295, 44.154318682947356 ], [ 0.103832585738003, 44.153651911274792 ], [ 0.106404718120804, 44.152887500480752 ], [ 0.108917566123622, 44.152027542012434 ], [ 0.111364242204748, 44.151074388835156 ], [ 0.11373804019511, 44.150030649028217 ], [ 0.116032453679416, 44.148899178685056 ], [ 0.11824119382979, 44.147683074136658 ], [ 0.120358206643006, 44.14638566351897 ], [ 0.122377689534096, 44.145010497706835 ], [ 0.124294107240826, 44.143561340638684 ], [ 0.126102206995473, 44.142042159057851 ], [ 0.127797032922288, 44.140457111698026 ], [ 0.12937393962121, 44.138810537941822 ], [ 0.130828604900589, 44.137106945982993 ], [ 0.132157041624005, 44.135351000523968 ], [ 0.133355608638739, 44.133547510042071 ], [ 0.134421020755914, 44.13170141365844 ], [ 0.135350357754973, 44.12981776764547 ], [ 0.136141072387799, 44.127901731608972 ], [ 0.136790997360546, 44.125958554382613 ], [ 0.137298351274038, 44.123993559672854 ], [ 0.137661743506465, 44.122012131493442 ], [ 0.137880178024977, 44.120019699428987 ], [ 0.137953056115741, 44.118021723767939 ] ] ] } },
{ "type": "Feature", "properties": { "name": "Arx", "feature_type": "mrr", "metric_roundness": 42.84, "metric_rectangularity": 65.45, "metric_mobile_fit": -15.76, "metric_aspect_ratio": 1.72, "metric_area_km2": 47.14 }, "geometry": { "type": "Polygon", "coordinates": [ [ [ 0.03322017082465, 44.130741762171141 ], [ 0.138480478103648, 44.124017205017196 ], [ 0.133604138663142, 44.084674576057054 ], [ 0.028343831384143, 44.091403610294648 ], [ 0.03322017082465, 44.130741762171141 ] ] ] } }
]
}
