{
"type": "FeatureCollection",
"name": "arzua",
"crs": { "type": "name", "properties": { "name": "urn:ogc:def:crs:OGC:1.3:CRS84" } },
"features": [
{ "type": "Feature", "properties": { "name": "Arzúa", "metric_roundness": 54.15, "metric_rectangularity": 64.05, "metric_mobile_fit": 50.67, "metric_aspect_ratio": 1.056, "metric_area_km2": 289.79 }, "geometry": { "type": "Polygon", "coordinates": [ [ [ -8.1324188, 42.9880962 ], [ -8.1383534, 42.9887127 ], [ -8.1442485, 42.975516399999975 ], [ -8.1531951, 42.9686433 ], [ -8.1676223, 42.9700837 ], [ -8.1815541, 42.9760123 ], [ -8.1877776, 42.982495899999982 ], [ -8.1930353, 42.9813081 ], [ -8.2029181, 42.985081199999989 ], [ -8.207025, 42.9969892 ], [ -8.222557, 43.000477 ], [ -8.2348345, 43.004631 ], [ -8.2348656, 42.9964121 ], [ -8.2411086, 42.9837335 ], [ -8.2534973, 42.9754171 ], [ -8.2551811, 42.9665082 ], [ -8.2674057, 42.9609278 ], [ -8.289548, 42.960927099999985 ], [ -8.2896968, 42.953311399999983 ], [ -8.2989702, 42.9394541 ], [ -8.2893235, 42.9336859 ], [ -8.2756757, 42.9360805 ], [ -8.2610095, 42.9313692 ], [ -8.2340604, 42.9307915 ], [ -8.232267, 42.92353 ], [ -8.2228838, 42.914580799999989 ], [ -8.228465, 42.905548 ], [ -8.227555, 42.901967899999988 ], [ -8.2341959, 42.889171099999984 ], [ -8.2295719, 42.8804383 ], [ -8.2296204, 42.872323499999986 ], [ -8.2219662, 42.8681613 ], [ -8.2181048, 42.8605703 ], [ -8.2197527, 42.8516822 ], [ -8.2149065, 42.846218 ], [ -8.2055457, 42.8436897 ], [ -8.1856425, 42.858721 ], [ -8.175251, 42.858265 ], [ -8.1644569, 42.859918799999988 ], [ -8.1589161, 42.8684248 ], [ -8.1511457, 42.8666763 ], [ -8.1386486, 42.8740114 ], [ -8.1330349, 42.8782059 ], [ -8.128407, 42.887080499999989 ], [ -8.1111747, 42.891302499999988 ], [ -8.1078172, 42.8987203 ], [ -8.0984892, 42.9045232 ], [ -8.0952785, 42.9104878 ], [ -8.0825035, 42.9076155 ], [ -8.0669128, 42.914532599999987 ], [ -8.0727106, 42.9188094 ], [ -8.0731367, 42.9292094 ], [ -8.0866342, 42.9364098 ], [ -8.0923628, 42.944032799999981 ], [ -8.1127263, 42.9435383 ], [ -8.1183246, 42.947445 ], [ -8.12055, 42.955607199999989 ], [ -8.1313417, 42.9562699 ], [ -8.1340296, 42.9634392 ], [ -8.1249435, 42.9781047 ], [ -8.1271315, 42.981743 ], [ -8.1324188, 42.9880962 ] ] ] } }
]
}
