{
"type": "FeatureCollection",
"name": "oregcserto",
"crs": { "type": "name", "properties": { "name": "urn:ogc:def:crs:OGC:1.3:CRS84" } },
"features": [
{ "type": "Feature", "properties": { "name": "Öregcsertő", "feature_type": "entity", "metric_roundness": 50.8, "metric_rectangularity": 64.53, "metric_mobile_fit": 57.4, "metric_aspect_ratio": 0.988, "metric_area_km2": 90.2 }, "geometry": { "type": "Polygon", "coordinates": [ [ [ 19.1776298, 46.561042 ], [ 19.1747217, 46.568181699999982 ], [ 19.1452922, 46.568549399999981 ], [ 19.1374016, 46.5563337 ], [ 19.139207, 46.5444755 ], [ 19.1181104, 46.5459463 ], [ 19.1159511, 46.538286099999986 ], [ 19.1183172, 46.5282464 ], [ 19.1010299, 46.527812499999989 ], [ 19.0930396, 46.5307307 ], [ 19.0873484, 46.526084 ], [ 19.083668, 46.526433 ], [ 19.0798714, 46.5215676 ], [ 19.0833259, 46.517928499999982 ], [ 19.0821938, 46.5004837 ], [ 19.0851247, 46.4986543 ], [ 19.1662734, 46.4948416 ], [ 19.1708164, 46.514992799999987 ], [ 19.185204, 46.516395499999987 ], [ 19.1857755, 46.5258765 ], [ 19.1854475, 46.532923499999981 ], [ 19.1848055, 46.538205 ], [ 19.182422, 46.550166499999982 ], [ 19.1818945, 46.560177 ], [ 19.1776298, 46.561042 ] ] ] } },
{ "type": "Feature", "properties": { "name": "Öregcsertő", "feature_type": "circle", "metric_roundness": 50.8, "metric_rectangularity": 64.53, "metric_mobile_fit": 57.4, "metric_aspect_ratio": 0.988, "metric_area_km2": 90.2 }, "geometry": { "type": "Polygon", "coordinates": [ [ [ 19.196897748016976, 46.53376741682073 ], [ 19.196805173461147, 46.531335348195931 ], [ 19.196527703534098, 46.528909837237947 ], [ 19.196066098761612, 46.526497533440441 ], [ 19.19542162437028, 46.524105050972359 ], [ 19.194596046819612, 46.521738950524778 ], [ 19.193591628960291, 46.519405721294881 ], [ 19.192411123831857, 46.517111763157061 ], [ 19.191057767116796, 46.514863369070298 ], [ 19.189535268271811, 46.51266670777067 ], [ 19.187847800360402, 46.510527806797015 ], [ 19.185999988614814, 46.50845253589717 ], [ 19.183996897758608, 46.506446590860769 ], [ 19.18184401812459, 46.504515477824107 ], [ 19.179547250606184, 46.502664498090674 ], [ 19.177112890483517, 46.50089873351029 ], [ 19.174547610168474, 46.499223032457536 ], [ 19.17185844091609, 46.497641996449182 ], [ 19.169052753552364, 46.496159967438189 ], [ 19.166138238271333, 46.494781015820259 ], [ 19.163122883556802, 46.493508929186653 ], [ 19.160014954286449, 46.492347201855196 ], [ 19.156822969078377, 46.491299025209209 ], [ 19.153555676942158, 46.490367278871538 ], [ 19.150222033298444, 46.489554522738914 ], [ 19.146831175432737, 46.488862989899268 ], [ 19.143392397450743, 46.488294580451971 ], [ 19.139915124803903, 46.487850856248848 ], [ 19.136408888454824, 46.487533036570667 ], [ 19.132883298753637, 46.487341994751652 ], [ 19.129348019096636, 46.487278255761467 ], [ 19.125812739439642, 46.487341994751652 ], [ 19.122287149738451, 46.487533036570667 ], [ 19.118780913389372, 46.487850856248848 ], [ 19.115303640742532, 46.488294580451971 ], [ 19.111864862760541, 46.488862989899268 ], [ 19.108474004894834, 46.489554522738914 ], [ 19.105140361251113, 46.490367278871538 ], [ 19.101873069114902, 46.491299025209209 ], [ 19.098681083906822, 46.492347201855196 ], [ 19.095573154636472, 46.493508929186653 ], [ 19.092557799921941, 46.494781015820259 ], [ 19.089643284640914, 46.496159967438189 ], [ 19.086837597277185, 46.497641996449182 ], [ 19.0841484280248, 46.499223032457536 ], [ 19.081583147709754, 46.50089873351029 ], [ 19.079148787587087, 46.502664498090674 ], [ 19.076852020068689, 46.504515477824107 ], [ 19.074699140434667, 46.506446590860769 ], [ 19.072696049578465, 46.50845253589717 ], [ 19.070848237832877, 46.510527806797015 ], [ 19.069160769921464, 46.51266670777067 ], [ 19.067638271076479, 46.514863369070298 ], [ 19.066284914361422, 46.517111763157061 ], [ 19.065104409232983, 46.519405721294881 ], [ 19.064099991373663, 46.521738950524778 ], [ 19.063274413822995, 46.524105050972359 ], [ 19.062629939431663, 46.526497533440441 ], [ 19.062168334659173, 46.528909837237947 ], [ 19.061890864732128, 46.531335348195931 ], [ 19.061798290176302, 46.53376741682073 ], [ 19.061890864732128, 46.536199376534405 ], [ 19.062168334659173, 46.538624561952297 ], [ 19.062629939431663, 46.541036327147438 ], [ 19.063274413822995, 46.543428063851913 ], [ 19.064099991373663, 46.545793219545388 ], [ 19.065104409232983, 46.548125315381625 ], [ 19.066284914361422, 46.550417963903918 ], [ 19.067638271076479, 46.552664886501709 ], [ 19.069160769921464, 46.554859930560909 ], [ 19.070848237832877, 46.556997086261468 ], [ 19.072696049578465, 46.559070502977157 ], [ 19.074699140434667, 46.561074505233158 ], [ 19.076852020068689, 46.563003608178725 ], [ 19.079148787587087, 46.564852532533322 ], [ 19.081583147709754, 46.566616218966288 ], [ 19.0841484280248, 46.568289841871668 ], [ 19.086837597277185, 46.56986882250132 ], [ 19.089643284640914, 46.571348841421425 ], [ 19.092557799921941, 46.57272585025926 ], [ 19.095573154636472, 46.573996082709073 ], [ 19.098681083906822, 46.575156064767839 ], [ 19.101873069114902, 46.576202624173831 ], [ 19.105140361251113, 46.577132899022978 ], [ 19.108474004894834, 46.577944345540502 ], [ 19.111864862760541, 46.578634744986886 ], [ 19.115303640742532, 46.579202209680439 ], [ 19.118780913389372, 46.579645188120246 ], [ 19.122287149738451, 46.579962469196275 ], [ 19.125812739439642, 46.580153185475346 ], [ 19.129348019096636, 46.580216815554465 ], [ 19.132883298753637, 46.580153185475346 ], [ 19.136408888454824, 46.579962469196275 ], [ 19.139915124803903, 46.579645188120246 ], [ 19.143392397450743, 46.579202209680439 ], [ 19.146831175432737, 46.578634744986886 ], [ 19.150222033298444, 46.577944345540502 ], [ 19.153555676942158, 46.577132899022978 ], [ 19.156822969078377, 46.576202624173831 ], [ 19.160014954286449, 46.575156064767839 ], [ 19.163122883556802, 46.573996082709073 ], [ 19.166138238271333, 46.57272585025926 ], [ 19.169052753552364, 46.571348841421425 ], [ 19.17185844091609, 46.56986882250132 ], [ 19.174547610168474, 46.568289841871668 ], [ 19.177112890483517, 46.566616218966288 ], [ 19.179547250606184, 46.564852532533322 ], [ 19.18184401812459, 46.563003608178725 ], [ 19.183996897758608, 46.561074505233158 ], [ 19.185999988614814, 46.559070502977157 ], [ 19.187847800360402, 46.556997086261468 ], [ 19.189535268271811, 46.554859930560909 ], [ 19.191057767116796, 46.552664886501709 ], [ 19.192411123831857, 46.550417963903918 ], [ 19.193591628960291, 46.548125315381625 ], [ 19.194596046819612, 46.545793219545388 ], [ 19.19542162437028, 46.543428063851913 ], [ 19.196066098761612, 46.541036327147438 ], [ 19.196527703534098, 46.538624561952297 ], [ 19.196805173461147, 46.536199376534405 ], [ 19.196897748016976, 46.53376741682073 ] ] ] } },
{ "type": "Feature", "properties": { "name": "Öregcsertő", "feature_type": "mrr", "metric_roundness": 50.8, "metric_rectangularity": 64.53, "metric_mobile_fit": 57.4, "metric_aspect_ratio": 0.988, "metric_area_km2": 90.2 }, "geometry": { "type": "Polygon", "coordinates": [ [ [ 19.188303447722483, 46.56779442109152 ], [ 19.183874859393914, 46.494339020142398 ], [ 19.078411936207132, 46.497350296375075 ], [ 19.082840524535701, 46.570801627359863 ], [ 19.188303447722483, 46.56779442109152 ] ] ] } }
]
}
