{
"type": "FeatureCollection",
"name": "ormideia",
"crs": { "type": "name", "properties": { "name": "urn:ogc:def:crs:OGC:1.3:CRS84" } },
"features": [
{ "type": "Feature", "properties": { "name": "Ορμίδεια", "feature_type": "entity", "metric_roundness": 39.69, "metric_rectangularity": 62.79, "metric_mobile_fit": 4.44, "metric_aspect_ratio": 1.518, "metric_area_km2": 32.15 }, "geometry": { "type": "Polygon", "coordinates": [ [ [ 33.777341, 34.9793048 ], [ 33.814014, 34.970258499999986 ], [ 33.806166, 34.9750264 ], [ 33.7850911, 34.9786126 ], [ 33.7821052, 34.9813876 ], [ 33.7864831, 34.9866994 ], [ 33.8069659, 34.982646699999982 ], [ 33.8124837, 34.9847 ], [ 33.82381, 35.00721 ], [ 33.8160699, 35.0075262 ], [ 33.813595, 35.011373 ], [ 33.8069328, 35.014936 ], [ 33.7784645, 35.016426 ], [ 33.7721589, 35.0134995 ], [ 33.765959599999988, 35.014880099999978 ], [ 33.7672886, 35.0018491 ], [ 33.756245899999989, 35.0009039 ], [ 33.7487261, 34.9962455 ], [ 33.7382575, 34.981196 ], [ 33.777341, 34.9793048 ] ] ] } },
{ "type": "Feature", "properties": { "name": "Ορμίδεια", "feature_type": "circle", "metric_roundness": 39.69, "metric_rectangularity": 62.79, "metric_mobile_fit": 4.44, "metric_aspect_ratio": 1.518, "metric_area_km2": 32.15 }, "geometry": { "type": "Polygon", "coordinates": [ [ [ 33.82666161726916, 34.994204033558162 ], [ 33.826599085862853, 34.992247754519646 ], [ 33.826411663038144, 34.990296790940576 ], [ 33.826099862507981, 34.988356490851764 ], [ 33.825664538895936, 34.986432173431758 ], [ 33.82510688539378, 34.98452911441705 ], [ 33.82442843049099, 34.982652531627075 ], [ 33.823631033785304, 34.980807570644352 ], [ 33.822716880885665, 34.978999290688854 ], [ 33.821688477421631, 34.977232650725696 ], [ 33.820548642175602, 34.975512495844519 ], [ 33.819300499356771, 34.973843543948234 ], [ 33.817947470037844, 34.972230372787799 ], [ 33.816493262778131, 34.970677407379078 ], [ 33.81494186345865, 34.969188907836759 ], [ 33.813297524357111, 34.967768957658706 ], [ 33.811564752492686, 34.966421452493769 ], [ 33.809748297272606, 34.965150089423936 ], [ 33.807853137474375, 34.963958356790741 ], [ 33.80588446759927, 34.962849524594255 ], [ 33.803847683634586, 34.961826635491484 ], [ 33.801748368263574, 34.960892496419099 ], [ 33.799592275563768, 34.960049670864024 ], [ 33.797385315235381, 34.959300471803466 ], [ 33.795133536403256, 34.958646955333904 ], [ 33.792843111036674, 34.958090915007091 ], [ 33.790520317032346, 34.957633876888821 ], [ 33.788171521007179, 34.957277095354129 ], [ 33.785803160847827, 34.957021549630973 ], [ 33.783421728064866, 34.956867941101812 ], [ 33.78103375, 34.95681669137079 ], [ 33.778645771935139, 34.956867941101812 ], [ 33.776264339152171, 34.957021549630973 ], [ 33.773895978992819, 34.957277095354129 ], [ 33.771547182967659, 34.957633876888821 ], [ 33.76922438896333, 34.958090915007091 ], [ 33.766933963596742, 34.958646955333904 ], [ 33.764682184764624, 34.959300471803466 ], [ 33.762475224436237, 34.960049670864024 ], [ 33.760319131736424, 34.960892496419099 ], [ 33.758219816365418, 34.961826635491484 ], [ 33.756183032400735, 34.962849524594255 ], [ 33.75421436252563, 34.963958356790741 ], [ 33.752319202727399, 34.965150089423936 ], [ 33.750502747507319, 34.966421452493769 ], [ 33.748769975642894, 34.967768957658706 ], [ 33.747125636541355, 34.969188907836759 ], [ 33.745574237221874, 34.970677407379078 ], [ 33.744120029962161, 34.972230372787799 ], [ 33.742767000643227, 34.973843543948234 ], [ 33.741518857824396, 34.975512495844519 ], [ 33.740379022578374, 34.977232650725696 ], [ 33.73935061911434, 34.978999290688854 ], [ 33.738436466214701, 34.980807570644352 ], [ 33.737639069509015, 34.982652531627075 ], [ 33.736960614606225, 34.98452911441705 ], [ 33.736402961104069, 34.986432173431758 ], [ 33.735967637492024, 34.988356490851764 ], [ 33.735655836961861, 34.990296790940576 ], [ 33.735468414137152, 34.992247754519646 ], [ 33.735405882730838, 34.994204033558162 ], [ 33.735468414137152, 34.996160265838036 ], [ 33.735655836961861, 34.998111089653463 ], [ 33.735967637492024, 35.000051158504974 ], [ 33.736402961104069, 35.001975155747431 ], [ 33.736960614606225, 35.003877809152335 ], [ 33.737639069509015, 35.005753905344157 ], [ 33.738436466214701, 35.007598304071664 ], [ 33.73935061911434, 35.009405952275081 ], [ 33.740379022578374, 35.011171897910899 ], [ 33.741518857824396, 35.012891303496666 ], [ 33.742767000643227, 35.014559459338919 ], [ 33.744120029962161, 35.016171796408443 ], [ 33.745574237221874, 35.017723898827811 ], [ 33.747125636541355, 35.019211515937492 ], [ 33.748769975642894, 35.020630573907695 ], [ 33.750502747507319, 35.021977186864788 ], [ 33.752319202727399, 35.023247667502012 ], [ 33.75421436252563, 35.024438537145954 ], [ 33.756183032400735, 35.025546535251607 ], [ 33.758219816365418, 35.026568628300467 ], [ 33.760319131736424, 35.027502018077577 ], [ 33.762475224436237, 35.028344149305433 ], [ 33.764682184764624, 35.029092716614052 ], [ 33.766933963596742, 35.02974567082854 ], [ 33.76922438896333, 35.030301224557341 ], [ 33.771547182967659, 35.030757857065915 ], [ 33.773895978992819, 35.031114318423171 ], [ 33.776264339152171, 35.031369632909076 ], [ 33.778645771935139, 35.031523101674651 ], [ 33.78103375, 35.031574304647052 ], [ 33.783421728064866, 35.031523101674651 ], [ 33.785803160847827, 35.031369632909076 ], [ 33.788171521007179, 35.031114318423171 ], [ 33.790520317032346, 35.030757857065915 ], [ 33.792843111036674, 35.030301224557341 ], [ 33.795133536403256, 35.02974567082854 ], [ 33.797385315235381, 35.029092716614052 ], [ 33.799592275563768, 35.028344149305433 ], [ 33.801748368263574, 35.027502018077577 ], [ 33.803847683634586, 35.026568628300467 ], [ 33.80588446759927, 35.025546535251607 ], [ 33.807853137474375, 35.024438537145954 ], [ 33.809748297272606, 35.023247667502012 ], [ 33.811564752492686, 35.021977186864788 ], [ 33.813297524357111, 35.020630573907695 ], [ 33.81494186345865, 35.019211515937492 ], [ 33.816493262778131, 35.017723898827811 ], [ 33.817947470037844, 35.016171796408443 ], [ 33.819300499356771, 35.014559459338919 ], [ 33.820548642175602, 35.012891303496666 ], [ 33.821688477421631, 35.011171897910899 ], [ 33.822716880885665, 35.009405952275081 ], [ 33.823631033785304, 35.007598304071664 ], [ 33.82442843049099, 35.005753905344157 ], [ 33.82510688539378, 35.003877809152335 ], [ 33.825664538895936, 35.001975155747431 ], [ 33.826099862507981, 35.000051158504974 ], [ 33.826411663038144, 34.998111089653463 ], [ 33.826599085862853, 34.996160265838036 ], [ 33.82666161726916, 34.994204033558162 ] ] ] } },
{ "type": "Feature", "properties": { "name": "Ορμίδεια", "feature_type": "mrr", "metric_roundness": 39.69, "metric_rectangularity": 62.79, "metric_mobile_fit": 4.44, "metric_aspect_ratio": 1.518, "metric_area_km2": 32.15 }, "geometry": { "type": "Polygon", "coordinates": [ [ [ 33.815807156744384, 34.969999591116007 ], [ 33.7382575, 34.981196 ], [ 33.747364187000386, 35.023531769046336 ], [ 33.824913843186764, 35.012341151775608 ], [ 33.815807156744384, 34.969999591116007 ] ] ] } }
]
}
