{
"type": "FeatureCollection",
"name": "ortona_dei_marsi",
"crs": { "type": "name", "properties": { "name": "urn:ogc:def:crs:OGC:1.3:CRS84" } },
"features": [
{ "type": "Feature", "properties": { "name": "Ortona dei Marsi", "metric_roundness": 25.09, "metric_rectangularity": 53.3, "metric_mobile_fit": 89.93, "metric_aspect_ratio": 0.663, "metric_area_km2": 103.32 }, "geometry": { "type": "Polygon", "coordinates": [ [ [ 13.7059465, 42.063807 ], [ 13.70675, 42.0566899 ], [ 13.6864598, 42.03275 ], [ 13.6872207, 42.014851 ], [ 13.681987, 42.006756299999985 ], [ 13.6764485, 42.004166 ], [ 13.6911814, 41.9973054 ], [ 13.7004492, 41.9776296 ], [ 13.7167441, 41.9733514 ], [ 13.7282293, 41.9549428 ], [ 13.7392895, 41.9483325 ], [ 13.7508328, 41.9546848 ], [ 13.7476779, 41.969246399999989 ], [ 13.7715474, 41.9657054 ], [ 13.7798887, 41.9581491 ], [ 13.7764238, 41.936339899999986 ], [ 13.7934715, 41.9254065 ], [ 13.7999572, 41.9308927 ], [ 13.7995539, 41.9344037 ], [ 13.7821756, 41.937454399999986 ], [ 13.7790424, 41.940953399999984 ], [ 13.781068, 41.953468499999985 ], [ 13.786727, 41.961199 ], [ 13.7790978, 41.9664671 ], [ 13.780045, 41.9697555 ], [ 13.7675915, 41.9978335 ], [ 13.7439028, 42.0297088 ], [ 13.7330744, 42.0389373 ], [ 13.721181, 42.061672 ], [ 13.7059465, 42.063807 ] ] ] } }
]
}
