{
"type": "FeatureCollection",
"name": "central_african_republic",
"crs": { "type": "name", "properties": { "name": "urn:ogc:def:crs:OGC:1.3:CRS84" } },
"features": [
{ "type": "Feature", "properties": { "name": "Central African Republic", "metric_roundness": 38.05, "metric_rectangularity": 57.72, "metric_mobile_fit": 9.05, "metric_aspect_ratio": 1.472, "metric_area_km2": 632442.75 }, "geometry": { "type": "Polygon", "coordinates": [ [ [ 16.1953143, 2.2236041 ], [ 16.2086939, 2.2465642 ], [ 16.2131983, 2.2578444 ], [ 16.265286, 2.3565653 ], [ 16.2708798, 2.369791 ], [ 16.2746497, 2.3741894 ], [ 16.2869137, 2.3989673 ], [ 16.2905203, 2.402778299999989 ], [ 16.2971708, 2.4163163 ], [ 16.3308206, 2.485163 ], [ 16.5190152, 2.8409062 ], [ 16.5239448, 2.8757873 ], [ 16.5211213, 2.885378799999987 ], [ 16.5004061, 2.9006521 ], [ 16.4905854, 2.9121798 ], [ 16.4933678, 3.0005497 ], [ 16.5036836, 3.0212311 ], [ 16.5319467, 3.0504635 ], [ 16.5434718, 3.0687996 ], [ 16.5382273, 3.0798916 ], [ 16.5221495, 3.0999351 ], [ 16.5137548, 3.1177646 ], [ 16.5067978, 3.1624589 ], [ 16.5108167, 3.1736389 ], [ 16.5321445, 3.2061196 ], [ 16.5401018, 3.2260789 ], [ 16.5572106, 3.2525901 ], [ 16.5509765, 3.2831456 ], [ 16.553435, 3.2990249 ], [ 16.5721311, 3.3292067 ], [ 16.5761633, 3.3404094 ], [ 16.5828942, 3.4148021 ], [ 16.5970269, 3.4770978 ], [ 16.6121741, 3.4984803 ], [ 16.6491155, 3.5297605 ], [ 16.6709356, 3.54083 ], [ 16.7241911, 3.5489915 ], [ 16.7536353, 3.5563805 ], [ 16.799812, 3.544021 ], [ 16.8209956, 3.5225292 ], [ 16.8551834, 3.5114178 ], [ 16.8622251, 3.513933 ], [ 16.8724019, 3.5270295 ], [ 16.8736625, 3.536344 ], [ 16.8703635, 3.550693 ], [ 16.8758044, 3.5576957 ], [ 16.8862673, 3.5582564 ], [ 16.8976522, 3.552199 ], [ 16.911842, 3.5504046 ], [ 16.9320875, 3.5523323 ], [ 16.9562249, 3.5588011 ], [ 16.9787791, 3.5404522 ], [ 17.0031658, 3.5456653 ], [ 17.013336, 3.527382 ], [ 17.0276297, 3.5156695 ], [ 17.034927, 3.5143438 ], [ 17.0508909, 3.5290513 ], [ 17.0599986, 3.5470825 ], [ 17.0647881, 3.5499288 ], [ 17.0968021, 3.5598312 ], [ 17.1164177, 3.560506 ], [ 17.1535469, 3.573825099999989 ], [ 17.1767235, 3.5660597 ], [ 17.2409411, 3.5803119 ], [ 17.2480965, 3.5859036 ], [ 17.2483309, 3.603553 ], [ 17.2523354, 3.6098542 ], [ 17.2955551, 3.6286544 ], [ 17.3042178, 3.6282464 ], [ 17.3177663, 3.6186058 ], [ 17.3457177, 3.6064006 ], [ 17.3609123, 3.6070286 ], [ 17.3672753, 3.613023 ], [ 17.3959958, 3.662544 ], [ 17.4074929, 3.6699532 ], [ 17.4387755, 3.680079 ], [ 17.4527345, 3.6944312 ], [ 17.4755245, 3.7029017 ], [ 17.4915309, 3.7017211 ], [ 17.5077512, 3.691980699999989 ], [ 17.5406532, 3.6866333 ], [ 17.5582347, 3.6698424 ], [ 17.5843714, 3.6597378 ], [ 17.5973312, 3.6451306 ], [ 17.6048492, 3.6419164 ], [ 17.6520474, 3.6392158 ], [ 17.6860888, 3.641009 ], [ 17.7033642, 3.6351948 ], [ 17.7347834, 3.6501076 ], [ 17.7590862, 3.6392096 ], [ 17.784468, 3.6350948 ], [ 17.7974614, 3.6293482 ], [ 17.8288573, 3.6257216 ], [ 17.8338648, 3.6209908 ], [ 17.8392393, 3.6071012 ], [ 17.8462834, 3.5629072 ], [ 17.8619775, 3.5337614 ], [ 17.868404, 3.5355381 ], [ 17.8875174, 3.5543809 ], [ 17.9029981, 3.5604122 ], [ 17.9160108, 3.5709019 ], [ 17.9323119, 3.5972232 ], [ 17.9372642, 3.6009014 ], [ 17.943784, 3.5981457 ], [ 17.9512756, 3.5807721 ], [ 17.9657861, 3.5641345 ], [ 17.9912271, 3.552644 ], [ 17.9983419, 3.556121 ], [ 18.00311, 3.5777667 ], [ 18.0456587, 3.5691143 ], [ 18.0717703, 3.5747921 ], [ 18.1195071, 3.5671826 ], [ 18.1357155, 3.5596041 ], [ 18.1521292, 3.5448399 ], [ 18.1639794, 3.5255087 ], [ 18.1754656, 3.4903411 ], [ 18.1806729, 3.4847921 ], [ 18.1890253, 3.4818927 ], [ 18.2274582, 3.4897039 ], [ 18.2411597, 3.5008444 ], [ 18.251252, 3.5190793 ], [ 18.2601345, 3.5519647 ], [ 18.2646518, 3.5851025 ], [ 18.268351, 3.590765 ], [ 18.2786966, 3.5926077 ], [ 18.3092855, 3.5880335 ], [ 18.3339643, 3.6035149 ], [ 18.3447185, 3.6066077 ], [ 18.3874258, 3.5902411 ], [ 18.4084026, 3.5792179 ], [ 18.4181904, 3.6066167 ], [ 18.4229811, 3.6074684 ], [ 18.4384742, 3.600071 ], [ 18.4475601, 3.6014267 ], [ 18.4531383, 3.6081392 ], [ 18.4567322, 3.6234838 ], [ 18.4673507, 3.6319535 ], [ 18.4795021, 3.6502418 ], [ 18.4892285, 3.6515233 ], [ 18.5145354, 3.6247534 ], [ 18.5344031, 3.6104444 ], [ 18.5409051, 3.6012107 ], [ 18.5525858, 3.5611702 ], [ 18.5588964, 3.5489914 ], [ 18.5758048, 3.5289254 ], [ 18.5951579, 3.478241699999989 ], [ 18.6036259, 3.4731889 ], [ 18.6250832, 3.4716469 ], [ 18.623416, 3.4910216 ], [ 18.6135123, 3.5100305 ], [ 18.6060548, 3.5339035 ], [ 18.6075355, 3.5660004 ], [ 18.603727, 3.602842899999989 ], [ 18.6047001, 3.6194297 ], [ 18.5923585, 3.6697483 ], [ 18.5880443, 3.7441692 ], [ 18.591082, 3.7689876 ], [ 18.6147369, 3.8183167 ], [ 18.6111081, 3.8550526 ], [ 18.6169743, 3.9162707 ], [ 18.6229099, 3.9343609 ], [ 18.6386569, 3.950622 ], [ 18.6458554, 3.9622923 ], [ 18.6507689, 3.9800698 ], [ 18.6519206, 3.9943278 ], [ 18.6432502, 4.105027 ], [ 18.6312479, 4.1273973 ], [ 18.6174513, 4.1768695 ], [ 18.6050484, 4.2033553 ], [ 18.5999957, 4.2216776 ], [ 18.5862966, 4.2326124 ], [ 18.5638892, 4.2642055 ], [ 18.5449584, 4.306113 ], [ 18.5429292, 4.3194466 ], [ 18.5523602, 4.3405288 ], [ 18.5581212, 4.3464372 ], [ 18.5881652, 4.3570111 ], [ 18.6002051, 4.3696854 ], [ 18.6079287, 4.3688395 ], [ 18.6218109, 4.357038 ], [ 18.639617, 4.3611946 ], [ 18.7004994, 4.3650936 ], [ 18.7212365, 4.3722473 ], [ 18.755691, 4.3970052 ], [ 18.7827534, 4.4256401 ], [ 18.8003367, 4.4633916 ], [ 18.8187185, 4.5509402 ], [ 18.8277399, 4.5717139 ], [ 18.8624628, 4.6042868 ], [ 18.8751765, 4.6113882 ], [ 18.8820565, 4.6250992 ], [ 18.8889534, 4.644227599999987 ], [ 18.904118, 4.6485058 ], [ 18.9368487, 4.6778314 ], [ 18.939892, 4.6884794 ], [ 18.9378003, 4.6985853 ], [ 18.955058, 4.7099888 ], [ 18.9672974, 4.7246719 ], [ 19.0018108, 4.7479379 ], [ 19.0076045, 4.756838499999989 ], [ 19.0070268, 4.7679535 ], [ 19.0123497, 4.781596299999989 ], [ 19.017876, 4.7957601 ], [ 19.0276414, 4.800228199999988 ], [ 19.0515105, 4.836365 ], [ 19.0597903, 4.8563257 ], [ 19.0640089, 4.874332299999988 ], [ 19.06853, 4.882471 ], [ 19.0810903, 4.9050809 ], [ 19.0939994, 4.9245279 ], [ 19.1113009, 4.9373402 ], [ 19.1329642, 4.9470825 ], [ 19.1565373, 4.9490094 ], [ 19.1701139, 4.9483406 ], [ 19.1868223, 4.942888 ], [ 19.2018661, 4.9476729 ], [ 19.2121851, 4.9580294 ], [ 19.2211379, 4.9936037 ], [ 19.2346541, 5.005823799999987 ], [ 19.2506738, 5.0162923 ], [ 19.2649045, 5.0218082 ], [ 19.2815123, 5.028551599999988 ], [ 19.3135772, 5.0504864 ], [ 19.3466192, 5.0643737 ], [ 19.3718387, 5.0974459 ], [ 19.3945328, 5.1168668 ], [ 19.4286007, 5.1294759 ], [ 19.4553877, 5.1293515 ], [ 19.4796103, 5.1218728 ], [ 19.5131399, 5.1360897 ], [ 19.5328338, 5.1484686 ], [ 19.5497841, 5.1518666 ], [ 19.5740181, 5.1485443 ], [ 19.6121325, 5.1334674 ], [ 19.6422147, 5.1403737 ], [ 19.6470103, 5.1414747 ], [ 19.6887441, 5.1420875 ], [ 19.733006, 5.1238915 ], [ 19.7405556, 5.1218439 ], [ 19.807535, 5.1036773 ], [ 19.8293004, 5.093799 ], [ 19.8524131, 5.0723099 ], [ 19.858195, 5.0567946 ], [ 19.8741322, 5.0294611 ], [ 19.8852519, 5.0124849 ], [ 19.9013591, 4.9957866 ], [ 19.9197875, 4.9864028 ], [ 19.9356539, 4.983683 ], [ 19.955992, 4.9876447 ], [ 20.0123819, 4.9742885 ], [ 20.0346693, 4.9615389 ], [ 20.0556414, 4.9358366 ], [ 20.0853032, 4.914084 ], [ 20.0888992, 4.9114469 ], [ 20.1075277, 4.9006821 ], [ 20.1555373, 4.882471 ], [ 20.1638919, 4.8793019 ], [ 20.1783387, 4.8677834 ], [ 20.1905286, 4.8459509 ], [ 20.2085221, 4.8251897 ], [ 20.2392245, 4.8015323 ], [ 20.2611221, 4.789248499999988 ], [ 20.2818164, 4.781596299999989 ], [ 20.3247869, 4.7679022 ], [ 20.3383179, 4.7632086 ], [ 20.3528193, 4.7527813 ], [ 20.3841824, 4.7014511 ], [ 20.3990247, 4.68765 ], [ 20.4192554, 4.6602802 ], [ 20.4522644, 4.6283593 ], [ 20.4573289, 4.5985909 ], [ 20.4496042, 4.5729495 ], [ 20.4483091, 4.5587629 ], [ 20.4629026, 4.5134586 ], [ 20.4777678, 4.4979849 ], [ 20.5133355, 4.4751304 ], [ 20.5388208, 4.444344 ], [ 20.5633667, 4.4262416 ], [ 20.5819633, 4.4167051 ], [ 20.6188427, 4.4136052 ], [ 20.715282, 4.4279887 ], [ 20.7626023, 4.4208135 ], [ 20.7853284, 4.4210807 ], [ 20.8057295, 4.4255524 ], [ 20.8365043, 4.443853 ], [ 20.8602486, 4.4463952 ], [ 20.9403295, 4.4356965 ], [ 21.0761611, 4.3970406 ], [ 21.0959537, 4.3798591 ], [ 21.1166515, 4.3486519 ], [ 21.1714497, 4.3122635 ], [ 21.1913429, 4.3095296 ], [ 21.21398, 4.2953212 ], [ 21.2256096, 4.2960717 ], [ 21.235711, 4.3042489 ], [ 21.2413521, 4.3227744 ], [ 21.2500607, 4.3346624 ], [ 21.2812067, 4.3418933 ], [ 21.2918862, 4.3370137 ], [ 21.3354073, 4.2960282 ], [ 21.3564429, 4.2847516 ], [ 21.4011329, 4.2764609 ], [ 21.4420629, 4.2797134 ], [ 21.4639743, 4.2737041 ], [ 21.487151, 4.2626809 ], [ 21.5121159, 4.2600463 ], [ 21.5440582, 4.2521967 ], [ 21.5679606, 4.2564098 ], [ 21.593702, 4.2795375 ], [ 21.641644, 4.3087368 ], [ 21.6516366, 4.3089128 ], [ 21.6751888, 4.3007459 ], [ 21.6920253, 4.304438 ], [ 21.7072238, 4.3021659 ], [ 21.7311552, 4.3087752 ], [ 21.7577482, 4.2954136 ], [ 21.8059287, 4.279106 ], [ 21.8572552, 4.2486049 ], [ 21.9310985, 4.2411585 ], [ 21.9519519, 4.2342569 ], [ 21.9823979, 4.2444599 ], [ 21.9966347, 4.2453018 ], [ 22.0105498, 4.2386551 ], [ 22.0310621, 4.2234019 ], [ 22.0998253, 4.210411 ], [ 22.1227623, 4.1964206 ], [ 22.1532242, 4.1705106 ], [ 22.1929886, 4.1484379 ], [ 22.2507585, 4.1252621 ], [ 22.2776137, 4.1192935 ], [ 22.3320626, 4.1208732 ], [ 22.3719284, 4.116897 ], [ 22.4097232, 4.1260136 ], [ 22.4358765, 4.1289841 ], [ 22.4598512, 4.138194 ], [ 22.4831406, 4.1549136 ], [ 22.4914123, 4.1671962 ], [ 22.5049976, 4.1777829 ], [ 22.5138241, 4.1925401 ], [ 22.5325768, 4.2040731 ], [ 22.5414621, 4.2137028 ], [ 22.549482, 4.2401916 ], [ 22.5410363, 4.2582741 ], [ 22.5405522, 4.274263 ], [ 22.565061, 4.3280037 ], [ 22.5773207, 4.344023 ], [ 22.6032265, 4.3561923 ], [ 22.6187854, 4.3720539 ], [ 22.6119539, 4.3821935 ], [ 22.5887754, 4.3929107 ], [ 22.5835155, 4.4045843 ], [ 22.5845575, 4.4156679 ], [ 22.5947386, 4.4330355 ], [ 22.5950955, 4.450826 ], [ 22.6016731, 4.4766901 ], [ 22.6124248, 4.4885854 ], [ 22.6213309, 4.4915317 ], [ 22.6491265, 4.4877261 ], [ 22.6783614, 4.4773577 ], [ 22.6978798, 4.4835059 ], [ 22.7018391, 4.4911833 ], [ 22.7006966, 4.5119658 ], [ 22.7038506, 4.5240053 ], [ 22.7287726, 4.5595249 ], [ 22.728493, 4.5892341 ], [ 22.734383, 4.6269259 ], [ 22.7642157, 4.6758295 ], [ 22.775753, 4.7052541 ], [ 22.786152, 4.7198073 ], [ 22.7982961, 4.7265771 ], [ 22.8119491, 4.7264406 ], [ 22.822682, 4.7216127 ], [ 22.8378956, 4.704349299999989 ], [ 22.8520208, 4.70652 ], [ 22.8622882, 4.7153981 ], [ 22.8710642, 4.7386564 ], [ 22.8967749, 4.7584818 ], [ 22.8961389, 4.7631114 ], [ 22.8872021, 4.772532 ], [ 22.8841914, 4.7820703 ], [ 22.8858764, 4.797409 ], [ 22.8923673, 4.8107205 ], [ 22.9068226, 4.8196854 ], [ 22.925443, 4.816468 ], [ 22.9436338, 4.8195422 ], [ 22.9647587, 4.838294599999989 ], [ 22.9713312, 4.8372617 ], [ 22.9808179, 4.827574899999986 ], [ 23.0086484, 4.7585277 ], [ 23.0357993, 4.751668 ], [ 23.0590294, 4.7376361 ], [ 23.0764618, 4.7198299 ], [ 23.0906058, 4.7151548 ], [ 23.1119499, 4.7133534 ], [ 23.1577917, 4.7400805 ], [ 23.1747326, 4.7407979 ], [ 23.1945699, 4.7266333 ], [ 23.2071802, 4.6998149 ], [ 23.2214885, 4.6892744 ], [ 23.2335804, 4.6746613 ], [ 23.2520394, 4.6749647 ], [ 23.2633094, 4.6686768 ], [ 23.274725, 4.6345839 ], [ 23.2964984, 4.6311669 ], [ 23.3145017, 4.6155878 ], [ 23.3295083, 4.6071272 ], [ 23.3467654, 4.6122739 ], [ 23.3616489, 4.6116682 ], [ 23.3814005, 4.5961654 ], [ 23.4171252, 4.5940323 ], [ 23.4249969, 4.596339 ], [ 23.4293948, 4.602385 ], [ 23.4346614, 4.650204 ], [ 23.456879, 4.6742351 ], [ 23.500209, 4.678592399999985 ], [ 23.5202315, 4.692485 ], [ 23.5358916, 4.6978295 ], [ 23.5452145, 4.7127597 ], [ 23.5584143, 4.721575 ], [ 23.5652872, 4.7364786 ], [ 23.5747243, 4.7404336 ], [ 23.592646, 4.7612645 ], [ 23.6128549, 4.757867399999989 ], [ 23.6324231, 4.7647344 ], [ 23.6736603, 4.7655384 ], [ 23.7048162, 4.7830756 ], [ 23.7174531, 4.7864818 ], [ 23.7579912, 4.7833278 ], [ 23.7763339, 4.7857562 ], [ 23.7972726, 4.8079856 ], [ 23.8194453, 4.822047899999989 ], [ 23.8358839, 4.8242082 ], [ 23.8539675, 4.816828299999989 ], [ 23.8669533, 4.817945 ], [ 23.8886008, 4.8344659 ], [ 23.906259, 4.8296993 ], [ 23.918565, 4.8198224 ], [ 23.9258165, 4.8181553 ], [ 23.95337, 4.8118748 ], [ 23.956904, 4.813208199999989 ], [ 23.9597297, 4.8284014 ], [ 23.9524524, 4.8533188 ], [ 23.9555096, 4.8659889 ], [ 23.9636056, 4.8749532 ], [ 23.9723603, 4.8754383 ], [ 23.99295, 4.86744 ], [ 24.0088949, 4.8649477 ], [ 24.041082, 4.8664067 ], [ 24.048219, 4.8722689 ], [ 24.0561977, 4.8872776 ], [ 24.1104069, 4.915995 ], [ 24.1192715, 4.9133385 ], [ 24.1380516, 4.8968413 ], [ 24.1530856, 4.8949803 ], [ 24.1659168, 4.9020667 ], [ 24.1804102, 4.9298933 ], [ 24.2045875, 4.9421698 ], [ 24.2151424, 4.9524896 ], [ 24.2233422, 4.9558033 ], [ 24.241835, 4.9535081 ], [ 24.2438878, 4.941503 ], [ 24.25087, 4.9346338 ], [ 24.2678675, 4.9376028 ], [ 24.2759273, 4.9523643 ], [ 24.2699563, 4.9736746 ], [ 24.2798526, 4.9909803 ], [ 24.2946842, 4.9986229 ], [ 24.3156711, 5.0032872 ], [ 24.3331151, 5.0109283 ], [ 24.3519295, 5.0084572 ], [ 24.3648297, 5.0102748 ], [ 24.3763813, 5.0219574 ], [ 24.3975901, 5.0335812 ], [ 24.3977072, 5.042288299999987 ], [ 24.3852969, 5.0521172 ], [ 24.3747553, 5.0524135 ], [ 24.3544689, 5.0471335 ], [ 24.3433575, 5.0574642 ], [ 24.3466799, 5.06638 ], [ 24.3614115, 5.0743916 ], [ 24.3647553, 5.0976272 ], [ 24.3778596, 5.1119937 ], [ 24.3930778, 5.109574299999989 ], [ 24.408371, 5.1015798 ], [ 24.4166304, 5.0930415 ], [ 24.4240748, 5.076912199999988 ], [ 24.4425054, 5.058091499999989 ], [ 24.4512498, 5.0617656 ], [ 24.453375, 5.0700549 ], [ 24.4446005, 5.0871606 ], [ 24.4444647, 5.0956387 ], [ 24.4620251, 5.1030686 ], [ 24.4973278, 5.0946474 ], [ 24.5126038, 5.0854112 ], [ 24.5374328, 5.0770891 ], [ 24.5514132, 5.0517628 ], [ 24.5660403, 5.0369203 ], [ 24.5773931, 5.0318536 ], [ 24.60355, 5.0302574 ], [ 24.6206713, 5.0196425 ], [ 24.6329162, 4.9786682 ], [ 24.658616, 4.9757001 ], [ 24.6686547, 4.9676634 ], [ 24.671999, 4.9511257 ], [ 24.669511, 4.9395376 ], [ 24.660271, 4.9245192 ], [ 24.6637443, 4.916959 ], [ 24.6773537, 4.9100587 ], [ 24.713648, 4.911118799999989 ], [ 24.7192194, 4.907011 ], [ 24.7251703, 4.8959998 ], [ 24.7504046, 4.8989307 ], [ 24.7634336, 4.9094421 ], [ 24.7670015, 4.9067896 ], [ 24.7680775, 4.8970688 ], [ 24.7778392, 4.8961625 ], [ 24.8014137, 4.925903 ], [ 24.8159755, 4.9283651 ], [ 24.8472824, 4.9256166 ], [ 24.8600161, 4.9368907 ], [ 24.8601075, 4.9476427 ], [ 24.8630422, 4.9522752 ], [ 24.8780861, 4.950101 ], [ 24.9095864, 4.952637799999987 ], [ 24.9151122, 4.9576573 ], [ 24.9232907, 4.9750802 ], [ 24.9564585, 4.9866186 ], [ 24.9681419, 4.9847666 ], [ 24.9840143, 4.9764651 ], [ 24.998926, 4.9592308 ], [ 25.0123716, 4.9597076 ], [ 25.0243536, 4.9562687 ], [ 25.0418452, 4.9428374 ], [ 25.0489479, 4.9321265 ], [ 25.0615122, 4.9283248 ], [ 25.0862096, 4.9768573 ], [ 25.1208231, 4.988344 ], [ 25.1242196, 5.0004276 ], [ 25.1237331, 5.0114975 ], [ 25.1417158, 5.0184258 ], [ 25.1499128, 5.0278781 ], [ 25.1586317, 5.0234884 ], [ 25.1680756, 5.0043314 ], [ 25.1864902, 5.0006634 ], [ 25.2015043, 5.0139146 ], [ 25.2268325, 5.0122583 ], [ 25.2385482, 5.016597 ], [ 25.2511436, 5.0263395 ], [ 25.269463, 5.0257785 ], [ 25.3091573, 5.0314838 ], [ 25.3217366, 5.0401125 ], [ 25.3248221, 5.0467865 ], [ 25.321192, 5.075534 ], [ 25.3417577, 5.1088753 ], [ 25.3465263, 5.149867 ], [ 25.3433088, 5.152988799999989 ], [ 25.3239582, 5.1544123 ], [ 25.3155837, 5.1658661 ], [ 25.3096819, 5.1893035 ], [ 25.3280773, 5.209709 ], [ 25.3348371, 5.2574152 ], [ 25.3430443, 5.2732191 ], [ 25.3537919, 5.282304099999989 ], [ 25.3649753, 5.2822524 ], [ 25.3739721, 5.2912401 ], [ 25.3704893, 5.302247 ], [ 25.3589102, 5.302156 ], [ 25.3587689, 5.3106503 ], [ 25.3637835, 5.3142139 ], [ 25.3862091, 5.3193208 ], [ 25.3913926, 5.3368687 ], [ 25.3966298, 5.3333742 ], [ 25.3977651, 5.323121499999989 ], [ 25.4032661, 5.3135576 ], [ 25.4203971, 5.3126103 ], [ 25.4213932, 5.3219415 ], [ 25.4285254, 5.3273187 ], [ 25.433939, 5.338792899999986 ], [ 25.4508209, 5.3442688 ], [ 25.4671827, 5.3455162 ], [ 25.4776756, 5.361930299999988 ], [ 25.4891176, 5.3568088 ], [ 25.5001282, 5.3459232 ], [ 25.5168493, 5.3540512 ], [ 25.5371959, 5.3584374 ], [ 25.541045, 5.3639783 ], [ 25.530225, 5.3791537 ], [ 25.5293492, 5.3866461 ], [ 25.5326711, 5.3902444 ], [ 25.5498139, 5.3806735 ], [ 25.5681818, 5.3807464 ], [ 25.5765101, 5.3778885 ], [ 25.5802398, 5.3715743 ], [ 25.5799084, 5.3601887 ], [ 25.5903254, 5.3508307 ], [ 25.6101131, 5.3528218 ], [ 25.6184752, 5.350887799999989 ], [ 25.6178657, 5.3453011 ], [ 25.6041767, 5.3373633 ], [ 25.5970505, 5.3264495 ], [ 25.601539, 5.3231234 ], [ 25.617209, 5.3218164 ], [ 25.6280226, 5.3069839 ], [ 25.6351078, 5.308641399999988 ], [ 25.6330056, 5.3192054 ], [ 25.6355503, 5.3267786 ], [ 25.6469343, 5.3305983 ], [ 25.6566898, 5.32498 ], [ 25.6585498, 5.310812 ], [ 25.6689449, 5.3134187 ], [ 25.677719, 5.307820799999989 ], [ 25.7046386, 5.3006527 ], [ 25.7165794, 5.2719707 ], [ 25.7353461, 5.2683361 ], [ 25.7418978, 5.2429145 ], [ 25.7588205, 5.2470835 ], [ 25.7761523, 5.2563549 ], [ 25.7789357, 5.2634826 ], [ 25.7699613, 5.2657222 ], [ 25.768628, 5.2688627 ], [ 25.7780828, 5.2773695 ], [ 25.7857685, 5.2766342 ], [ 25.7907496, 5.270251099999988 ], [ 25.7922466, 5.259158499999984 ], [ 25.7838582, 5.242571 ], [ 25.7901787, 5.2414088 ], [ 25.805677, 5.2500568 ], [ 25.8119796, 5.2499061 ], [ 25.8028088, 5.2221985 ], [ 25.8127545, 5.2203432 ], [ 25.8287042, 5.1944008 ], [ 25.8360106, 5.1988153 ], [ 25.8414417, 5.2137586 ], [ 25.8476655, 5.2199245 ], [ 25.8614117, 5.2254791 ], [ 25.8788677, 5.2234802 ], [ 25.8810574, 5.2180669 ], [ 25.8783036, 5.2098651 ], [ 25.891435, 5.198645 ], [ 25.9008512, 5.1716469 ], [ 25.9074424, 5.1745091 ], [ 25.9117748, 5.1804932 ], [ 25.9044282, 5.1967188 ], [ 25.9066774, 5.2043639 ], [ 25.9213824, 5.2025416 ], [ 25.9347637, 5.2092467 ], [ 25.9459141, 5.2054156 ], [ 25.9545012, 5.198447 ], [ 25.9589763, 5.1991069 ], [ 25.9567468, 5.2152533 ], [ 25.9644677, 5.2326594 ], [ 25.9764494, 5.245377299999988 ], [ 25.980855, 5.2431399 ], [ 25.9868556, 5.2290349 ], [ 25.9951343, 5.2368668 ], [ 26.0036954, 5.2351432 ], [ 26.0067268, 5.2271174 ], [ 26.0057796, 5.2156075 ], [ 26.0102817, 5.2115414 ], [ 26.0339466, 5.2107022 ], [ 26.0463313, 5.2213479 ], [ 26.0486319, 5.208984399999989 ], [ 26.0586304, 5.1981842 ], [ 26.068609, 5.2183874 ], [ 26.077104, 5.2195447 ], [ 26.0874032, 5.2128564 ], [ 26.091546, 5.2136787 ], [ 26.0948035, 5.2308757 ], [ 26.0902588, 5.2429443 ], [ 26.1006673, 5.2453368 ], [ 26.107873, 5.2389145 ], [ 26.1124848, 5.2387449 ], [ 26.1298083, 5.2557042 ], [ 26.1322137, 5.266059899999986 ], [ 26.1578198, 5.2590048 ], [ 26.1568296, 5.2457656 ], [ 26.1613502, 5.2381333 ], [ 26.1833969, 5.2449702 ], [ 26.1866195, 5.2262531 ], [ 26.1935197, 5.23015 ], [ 26.1980675, 5.2418841 ], [ 26.2038098, 5.243088 ], [ 26.2078238, 5.23725 ], [ 26.2093217, 5.2251392 ], [ 26.2145507, 5.2207235 ], [ 26.2081799, 5.2149813 ], [ 26.213934, 5.2061285 ], [ 26.2177511, 5.2049732 ], [ 26.2235362, 5.2101825 ], [ 26.2329581, 5.212082 ], [ 26.2304383, 5.2031505 ], [ 26.2360631, 5.1901598 ], [ 26.2437582, 5.2001679 ], [ 26.2485313, 5.2009106 ], [ 26.2562543, 5.1896263 ], [ 26.2505992, 5.1772534 ], [ 26.2809508, 5.1735099 ], [ 26.2826173, 5.170565799999987 ], [ 26.2796154, 5.1651165 ], [ 26.293816, 5.1611748 ], [ 26.2976332, 5.1441108 ], [ 26.3061681, 5.149678 ], [ 26.3095673, 5.1572037 ], [ 26.3215116, 5.142700599999987 ], [ 26.3267966, 5.1521488 ], [ 26.3389873, 5.1503423 ], [ 26.349308, 5.1571555 ], [ 26.3642879, 5.1442031 ], [ 26.3860827, 5.149299 ], [ 26.3907358, 5.1436299 ], [ 26.391054, 5.1325717 ], [ 26.3944626, 5.1269072 ], [ 26.4039899, 5.1349105 ], [ 26.4100326, 5.1349027 ], [ 26.4122589, 5.1265303 ], [ 26.4191543, 5.117548 ], [ 26.4352202, 5.1138857 ], [ 26.438305, 5.1077751 ], [ 26.4379928, 5.0979826 ], [ 26.4470767, 5.098102 ], [ 26.4513312, 5.0947035 ], [ 26.4562442, 5.0670128 ], [ 26.4622798, 5.0627821 ], [ 26.4779656, 5.0628019 ], [ 26.4832561, 5.051419799999987 ], [ 26.4930703, 5.0577363 ], [ 26.5024016, 5.050545 ], [ 26.5118938, 5.0534989 ], [ 26.5208776, 5.0499989 ], [ 26.5325072, 5.0704764 ], [ 26.5463532, 5.0725977 ], [ 26.5548164, 5.0772004 ], [ 26.5643589, 5.071683 ], [ 26.5723353, 5.0813798 ], [ 26.5835864, 5.0863929 ], [ 26.5939933, 5.0815855 ], [ 26.6139289, 5.0906227 ], [ 26.6152762, 5.082921499999989 ], [ 26.6247379, 5.0718052 ], [ 26.6289462, 5.0746821 ], [ 26.6306472, 5.0845755 ], [ 26.6390618, 5.0897062 ], [ 26.6557457, 5.0831987 ], [ 26.665778, 5.0824759 ], [ 26.6757143, 5.088488 ], [ 26.6809927, 5.0992406 ], [ 26.6904568, 5.0944236 ], [ 26.701116, 5.0979297 ], [ 26.7087595, 5.1044377 ], [ 26.7173623, 5.0997923 ], [ 26.7230138, 5.1044166 ], [ 26.7307079, 5.1025258 ], [ 26.7445708, 5.1057831 ], [ 26.7631117, 5.1058893 ], [ 26.7683904, 5.1027867 ], [ 26.7689786, 5.089676899999986 ], [ 26.7825473, 5.0847289 ], [ 26.7827479, 5.0749196 ], [ 26.7884126, 5.0651921 ], [ 26.8038659, 5.0515375 ], [ 26.8171229, 5.0509972 ], [ 26.8232708, 5.0581074 ], [ 26.8275348, 5.05907 ], [ 26.8430019, 5.0529986 ], [ 26.8543037, 5.0410388 ], [ 26.8615616, 5.0412229 ], [ 26.8684449, 5.0471256 ], [ 26.8737784, 5.067599599999987 ], [ 26.9000612, 5.0974989 ], [ 26.9116822, 5.117588699999989 ], [ 26.9217949, 5.1243794 ], [ 26.9299924, 5.1423981 ], [ 26.9500835, 5.1497197 ], [ 27.0290417, 5.1884729 ], [ 27.0755692, 5.2058661 ], [ 27.093889, 5.2083691 ], [ 27.1490649, 5.201451 ], [ 27.1850149, 5.1851731 ], [ 27.2140363, 5.1621532 ], [ 27.2302238, 5.1531728 ], [ 27.2598239, 5.1502684 ], [ 27.2926818, 5.1332585 ], [ 27.3197818, 5.1291858 ], [ 27.3606319, 5.1058301 ], [ 27.3855174, 5.0994804 ], [ 27.4038221, 5.0894168 ], [ 27.4259167, 5.0820965 ], [ 27.4384644, 5.0730193 ], [ 27.446424, 5.0606457 ], [ 27.4417324, 5.0425873 ], [ 27.443611, 5.019444 ], [ 27.4505912, 5.025525 ], [ 27.4543067, 5.039247 ], [ 27.4533055, 5.0756694 ], [ 27.4485799, 5.081677 ], [ 27.4345861, 5.0894 ], [ 27.4093066, 5.1168827 ], [ 27.4071077, 5.1192731 ], [ 27.4002985, 5.1462548 ], [ 27.3953263, 5.1542425 ], [ 27.3616682, 5.177987599999987 ], [ 27.3532203, 5.192929599999986 ], [ 27.3246963, 5.2006561 ], [ 27.3036651, 5.2257721 ], [ 27.294189, 5.2625276 ], [ 27.2747406, 5.2820595 ], [ 27.2611543, 5.3112335 ], [ 27.2495333, 5.3284622 ], [ 27.2469804, 5.348284299999987 ], [ 27.2548977, 5.3564797 ], [ 27.2562317, 5.363094799999987 ], [ 27.2398469, 5.385933 ], [ 27.2329133, 5.4262546 ], [ 27.2369034, 5.4467049 ], [ 27.2542908, 5.4819302 ], [ 27.2599973, 5.506843499999988 ], [ 27.2783698, 5.5359736 ], [ 27.273129, 5.5690266 ], [ 27.2754557, 5.5729821 ], [ 27.2830009, 5.5858095 ], [ 27.2785936, 5.5921489 ], [ 27.2605434, 5.6005936 ], [ 27.2509088, 5.5967613 ], [ 27.2424535, 5.5888537 ], [ 27.2390906, 5.590183 ], [ 27.2369132, 5.6045382 ], [ 27.2318918, 5.6116336 ], [ 27.2371374, 5.6265333 ], [ 27.2374405, 5.6424554 ], [ 27.2152726, 5.671218399999989 ], [ 27.2177832, 5.6879307 ], [ 27.1887343, 5.7271056 ], [ 27.1470053, 5.7485131 ], [ 27.1455196, 5.7552428 ], [ 27.160477, 5.759657 ], [ 27.1628322, 5.7630662 ], [ 27.1604359, 5.7673096 ], [ 27.1516051, 5.772914 ], [ 27.1367092, 5.771305199999988 ], [ 27.1299541, 5.7775235 ], [ 27.1207324, 5.7770809 ], [ 27.1183744, 5.7916092 ], [ 27.1085621, 5.7879543 ], [ 27.103691, 5.8009764 ], [ 27.0838642, 5.798600199999989 ], [ 27.0732859, 5.7884486 ], [ 27.0619467, 5.7951065 ], [ 27.0521547, 5.7915535 ], [ 27.0478071, 5.7971091 ], [ 27.0465391, 5.809420899999985 ], [ 27.0314065, 5.813185199999989 ], [ 27.0254286, 5.818705599999988 ], [ 27.0253106, 5.8372493 ], [ 27.0171756, 5.8478262 ], [ 26.9944895, 5.8559372 ], [ 26.9807901, 5.865840899999986 ], [ 26.9542113, 5.8655825 ], [ 26.9397877, 5.872708499999988 ], [ 26.9247041, 5.8859984 ], [ 26.9060823, 5.892494799999987 ], [ 26.8771333, 5.897065 ], [ 26.8660739, 5.9028294 ], [ 26.8563675, 5.9154845 ], [ 26.8529603, 5.924957399999987 ], [ 26.851606, 5.9492517 ], [ 26.8479701, 5.9584378 ], [ 26.8454153, 5.982799399999987 ], [ 26.841764, 5.986113299999989 ], [ 26.8193075, 5.9919939 ], [ 26.8055476, 6.004639199999988 ], [ 26.7846221, 6.0093648 ], [ 26.7545265, 6.004812699999988 ], [ 26.7299719, 6.008609199999987 ], [ 26.6998442, 6.0039452 ], [ 26.6885482, 5.9948304 ], [ 26.6729868, 5.9920527 ], [ 26.6613907, 5.996409 ], [ 26.6468839, 6.0095291 ], [ 26.6115124, 6.0236073 ], [ 26.5744372, 6.0273449 ], [ 26.5555056, 6.0381524 ], [ 26.5532459, 6.0587214 ], [ 26.544425, 6.0599705 ], [ 26.5385296, 6.0654541 ], [ 26.5399536, 6.0768609 ], [ 26.531834, 6.0870888 ], [ 26.5309019, 6.1015431 ], [ 26.5162261, 6.1138214 ], [ 26.4838931, 6.1010921 ], [ 26.457973, 6.0747938 ], [ 26.451235, 6.0719687 ], [ 26.4442407, 6.0848149 ], [ 26.4582676, 6.1128598 ], [ 26.4925013, 6.1451336 ], [ 26.518496, 6.160914 ], [ 26.5273678, 6.1769341 ], [ 26.533316, 6.1973963 ], [ 26.532886, 6.232235099999987 ], [ 26.5173466, 6.2346121 ], [ 26.5016945, 6.2167109 ], [ 26.4890323, 6.219954 ], [ 26.4760145, 6.2177152 ], [ 26.4728186, 6.23985 ], [ 26.4842452, 6.2677166 ], [ 26.4794204, 6.275947899999989 ], [ 26.4362718, 6.3055218 ], [ 26.3937164, 6.305267 ], [ 26.3784717, 6.327662 ], [ 26.3631964, 6.3362091 ], [ 26.3604681, 6.3469143 ], [ 26.3521413, 6.3565768 ], [ 26.3499718, 6.365839899999989 ], [ 26.33671, 6.3809726 ], [ 26.3077935, 6.3823628 ], [ 26.2973756, 6.4071883 ], [ 26.3111933, 6.4190217 ], [ 26.3144355, 6.4337148 ], [ 26.3043929, 6.4458247 ], [ 26.3009198, 6.45714 ], [ 26.2867164, 6.4590832 ], [ 26.2854656, 6.4614052 ], [ 26.2902366, 6.4766062 ], [ 26.2986322, 6.4865815 ], [ 26.3220471, 6.4996513 ], [ 26.3209346, 6.5092007 ], [ 26.3293458, 6.517401 ], [ 26.3298455, 6.5345358 ], [ 26.3372207, 6.5402919 ], [ 26.3497398, 6.5440454 ], [ 26.3548659, 6.5826906 ], [ 26.3790011, 6.5817723 ], [ 26.3944779, 6.5897572 ], [ 26.385951, 6.6063654 ], [ 26.4025054, 6.6228511 ], [ 26.4110554, 6.6357088 ], [ 26.4117043, 6.6530331 ], [ 26.3646035, 6.6848263 ], [ 26.3609213, 6.6941119 ], [ 26.3388171, 6.6933474 ], [ 26.3205687, 6.704266 ], [ 26.3029261, 6.7072738 ], [ 26.2752977, 6.7007888 ], [ 26.2615701, 6.7074195 ], [ 26.255932, 6.7143976 ], [ 26.260302, 6.732055399999989 ], [ 26.2575364, 6.738686899999989 ], [ 26.2085142, 6.747591299999985 ], [ 26.2061813, 6.7593033 ], [ 26.1922465, 6.7664214 ], [ 26.1858778, 6.7759428 ], [ 26.1745209, 6.792921299999989 ], [ 26.1768151, 6.8016884 ], [ 26.1718065, 6.8115029 ], [ 26.1526908, 6.8188937 ], [ 26.1319621, 6.8198697 ], [ 26.1177542, 6.812623 ], [ 26.1095978, 6.811698799999989 ], [ 26.0957131, 6.8245235 ], [ 26.0709258, 6.8304852 ], [ 26.0843827, 6.8989359 ], [ 26.0620463, 6.9020404 ], [ 26.0551267, 6.922041199999989 ], [ 26.0374178, 6.927464 ], [ 26.0477903, 6.9474778 ], [ 26.0378254, 6.9718074 ], [ 26.0451159, 6.9774374 ], [ 26.0476785, 6.9844079 ], [ 26.0449539, 6.9964204 ], [ 26.0388279, 7.004223699999988 ], [ 25.9990187, 7.0090897 ], [ 25.9884518, 7.0184909 ], [ 25.9815177, 7.0399743 ], [ 25.9712019, 7.0414854 ], [ 25.9613642, 7.035811299999989 ], [ 25.9414211, 7.0412761 ], [ 25.9366689, 7.0462696 ], [ 25.9320375, 7.0633369 ], [ 25.9024077, 7.0691373 ], [ 25.9014911, 7.0749128 ], [ 25.9056161, 7.0833868 ], [ 25.8977605, 7.0913844 ], [ 25.8809238, 7.0872927 ], [ 25.8694831, 7.081200699999989 ], [ 25.8639866, 7.0832733 ], [ 25.8570358, 7.0926485 ], [ 25.864665, 7.1001211 ], [ 25.8571511, 7.1055477 ], [ 25.8384778, 7.108189 ], [ 25.8258499, 7.119685 ], [ 25.8227368, 7.1326321 ], [ 25.83052, 7.145626899999988 ], [ 25.8218416, 7.153698799999987 ], [ 25.801044, 7.1525804 ], [ 25.787715, 7.151863499999989 ], [ 25.755221, 7.1757072 ], [ 25.7160753, 7.1841361 ], [ 25.6958384, 7.1953721 ], [ 25.6768761, 7.1942795 ], [ 25.6622547, 7.2010011 ], [ 25.6430202, 7.217738 ], [ 25.6200105, 7.2196206 ], [ 25.5889213, 7.2421921 ], [ 25.5801369, 7.2398226 ], [ 25.574693, 7.2415121 ], [ 25.5664543, 7.2597676 ], [ 25.5496002, 7.2582739 ], [ 25.5364265, 7.279612 ], [ 25.5104632, 7.2913536 ], [ 25.4994156, 7.3048304 ], [ 25.4489743, 7.3062047 ], [ 25.4350963, 7.314111499999989 ], [ 25.4096713, 7.3428298 ], [ 25.3976971, 7.3471635 ], [ 25.3947287, 7.3346712 ], [ 25.3930579, 7.333046 ], [ 25.3898743, 7.3299494 ], [ 25.3581144, 7.3468479 ], [ 25.3454338, 7.3744012 ], [ 25.3434036, 7.392976499999986 ], [ 25.3307414, 7.4023166 ], [ 25.3358466, 7.4134424 ], [ 25.3330188, 7.4268395 ], [ 25.30987, 7.4311392 ], [ 25.2895591, 7.4528594 ], [ 25.2805251, 7.4720968 ], [ 25.2537389, 7.4822896 ], [ 25.2305729, 7.4845432 ], [ 25.2029045, 7.4932909 ], [ 25.1864772, 7.5282692 ], [ 25.1955112, 7.5352381 ], [ 25.192848, 7.5457042 ], [ 25.1822367, 7.5573207 ], [ 25.1804669, 7.5701668 ], [ 25.1786861, 7.5714165 ], [ 25.1672475, 7.5794437 ], [ 25.1786861, 7.5900895 ], [ 25.1952823, 7.6055349 ], [ 25.2293988, 7.6306631 ], [ 25.2642971, 7.6407682 ], [ 25.2868165, 7.6569418 ], [ 25.2953094, 7.6788993 ], [ 25.2801988, 7.708594 ], [ 25.2786574, 7.7381823 ], [ 25.2850276, 7.7603003 ], [ 25.283121, 7.7941744 ], [ 25.2669652, 7.796882 ], [ 25.2545629, 7.8103106 ], [ 25.2375602, 7.8538877 ], [ 25.2243065, 7.8681945 ], [ 25.2187136, 7.8802612 ], [ 25.2078772, 7.8793276 ], [ 25.200855, 7.882139 ], [ 25.1934249, 7.8931597 ], [ 25.1786861, 7.905374 ], [ 25.1691671, 7.9132625 ], [ 25.0851847, 7.8955953 ], [ 25.0359839, 7.948278499999988 ], [ 25.0058727, 7.9638896 ], [ 24.9789504, 7.9588903 ], [ 24.9684032, 7.9816778 ], [ 24.9616997, 8.008656 ], [ 24.9416101, 8.0359053 ], [ 24.9237797, 8.0396135 ], [ 24.9015573, 8.051761 ], [ 24.888562, 8.1190821 ], [ 24.8591368, 8.1730871 ], [ 24.8327563, 8.1691956 ], [ 24.80064, 8.1750508 ], [ 24.7900031, 8.182510599999988 ], [ 24.7705406, 8.1847512 ], [ 24.7513653, 8.1695273 ], [ 24.7489505, 8.184083 ], [ 24.7287321, 8.2086354 ], [ 24.6835534, 8.2080188 ], [ 24.6446056, 8.2213219 ], [ 24.5936613, 8.2146509 ], [ 24.5606939, 8.2024441 ], [ 24.5500516, 8.2112083 ], [ 24.5386017, 8.2091856 ], [ 24.5155959, 8.2284786 ], [ 24.4990715, 8.234599 ], [ 24.4952957, 8.2359975 ], [ 24.4862184, 8.256491199999983 ], [ 24.4803706, 8.2833877 ], [ 24.4157109, 8.2765476 ], [ 24.3979171, 8.2714633 ], [ 24.3836132, 8.2600012 ], [ 24.3602013, 8.2517185 ], [ 24.341019, 8.2619917 ], [ 24.2873388, 8.2710724 ], [ 24.2529004, 8.2847397 ], [ 24.2296862, 8.290461 ], [ 24.2038111, 8.3051659 ], [ 24.194982, 8.3204017 ], [ 24.1807895, 8.3347363 ], [ 24.1711682, 8.3537289 ], [ 24.1556937, 8.3708368 ], [ 24.151308, 8.396795 ], [ 24.1659725, 8.4247123 ], [ 24.1645213, 8.4446441 ], [ 24.1704683, 8.4584219 ], [ 24.1633944, 8.4807458 ], [ 24.1705098, 8.4864969 ], [ 24.1826726, 8.488052 ], [ 24.2030009, 8.5002498 ], [ 24.2159176, 8.5343091 ], [ 24.2326319, 8.5637145 ], [ 24.2557142, 8.5775671 ], [ 24.254393, 8.593106799999987 ], [ 24.2307053, 8.622010799999989 ], [ 24.2233592, 8.6421508 ], [ 24.2393228, 8.6617939 ], [ 24.2630663, 8.6813859 ], [ 24.263973, 8.6908159 ], [ 24.2548136, 8.6978287 ], [ 24.2300963, 8.6994186 ], [ 24.197936, 8.6857501 ], [ 24.1662073, 8.7020252 ], [ 24.1422592, 8.6821981 ], [ 24.1148305, 8.6903929 ], [ 24.0528047, 8.6935434 ], [ 24.0131449, 8.6694853 ], [ 24.0014096, 8.6659529 ], [ 23.9844919, 8.6397834 ], [ 23.9720957, 8.637819499999988 ], [ 23.9689674, 8.639857 ], [ 23.964549, 8.6551169 ], [ 23.9655697, 8.6975419 ], [ 23.9485566, 8.7136868 ], [ 23.9258165, 8.7172101 ], [ 23.9069708, 8.7201299 ], [ 23.8711727, 8.7187059 ], [ 23.8545074, 8.7293107 ], [ 23.776715, 8.7071918 ], [ 23.7335765, 8.713715 ], [ 23.7147071, 8.727648 ], [ 23.6773232, 8.7257329 ], [ 23.6252666, 8.7541126 ], [ 23.5925479, 8.7387358 ], [ 23.5458631, 8.7009565 ], [ 23.5276863, 8.6984784 ], [ 23.5179292, 8.7046017 ], [ 23.5141658, 8.7141273 ], [ 23.5231538, 8.7345925 ], [ 23.522933, 8.7408749 ], [ 23.5199448, 8.755313899999987 ], [ 23.506796, 8.7777311 ], [ 23.4984899, 8.8089744 ], [ 23.5250564, 8.8450653 ], [ 23.5887601, 8.972979599999988 ], [ 23.5828309, 9.0249845 ], [ 23.5771398, 9.0336892 ], [ 23.5683906, 9.0295378 ], [ 23.5524034, 9.0035459 ], [ 23.5496037, 8.985564399999983 ], [ 23.5393196, 8.9574402 ], [ 23.5113429, 8.9502242 ], [ 23.5047484, 8.9518995 ], [ 23.4669219, 8.9715051 ], [ 23.4523417, 8.9790618 ], [ 23.459588, 9.0009997 ], [ 23.4605, 9.0257746 ], [ 23.4661294, 9.0505461 ], [ 23.4622102, 9.0850227 ], [ 23.4669219, 9.1057022 ], [ 23.482104, 9.1723281 ], [ 23.5305855, 9.1792838 ], [ 23.5526772, 9.205377099999987 ], [ 23.5716088, 9.210767199999987 ], [ 23.5929281, 9.2093287 ], [ 23.5965635, 9.2199012 ], [ 23.6086442, 9.2248647 ], [ 23.613932, 9.2490482 ], [ 23.6400652, 9.253037899999988 ], [ 23.6587555, 9.2895543 ], [ 23.651939, 9.2954608 ], [ 23.6384636, 9.3228084 ], [ 23.6386935, 9.3757143 ], [ 23.6471126, 9.384921 ], [ 23.6490356, 9.4008282 ], [ 23.6593851, 9.4096544 ], [ 23.6694733, 9.4342875 ], [ 23.6714271, 9.448808799999988 ], [ 23.6618488, 9.4614812 ], [ 23.6397952, 9.450236099999987 ], [ 23.6318941, 9.4803123 ], [ 23.632139, 9.491463 ], [ 23.646542, 9.5379897 ], [ 23.6393919, 9.543584 ], [ 23.6297309, 9.5424915 ], [ 23.6261329, 9.546774499999986 ], [ 23.6314399, 9.5610827 ], [ 23.6986581, 9.6785693 ], [ 23.6713308, 9.9009998 ], [ 23.4669219, 10.2271751 ], [ 23.3185038, 10.4637966 ], [ 23.2707107, 10.4923695 ], [ 23.2326462, 10.5354163 ], [ 23.1959682, 10.5583365 ], [ 23.182543, 10.574801 ], [ 23.1721677, 10.5827384 ], [ 23.1512393, 10.5939043 ], [ 23.1323548, 10.628506899999989 ], [ 23.1156013, 10.6483855 ], [ 23.0872984, 10.661863 ], [ 23.0571278, 10.6859964 ], [ 23.0406798, 10.695632 ], [ 23.0072815, 10.7096418 ], [ 22.9856182, 10.7616777 ], [ 22.969529, 10.7757438 ], [ 22.9361425, 10.8252783 ], [ 22.92263, 10.8501747 ], [ 22.9095504, 10.885847 ], [ 22.8786367, 10.9114089 ], [ 22.8741787, 10.9221816 ], [ 22.8755098, 10.9313674 ], [ 22.8577834, 10.9323616 ], [ 22.8177436, 10.934732099999989 ], [ 22.7682947, 10.945309 ], [ 22.7613435, 10.9505612 ], [ 22.7534508, 10.9635062 ], [ 22.7353754, 10.9735615 ], [ 22.7086252, 10.9720919 ], [ 22.6823078, 10.979743 ], [ 22.6560443, 10.9800593 ], [ 22.6113004, 10.9963913 ], [ 22.5689022, 10.9850423 ], [ 22.5241525, 11.0058683 ], [ 22.5111783, 11.007022 ], [ 22.4923432, 10.9983351 ], [ 22.4731271, 10.9991667 ], [ 22.4575931, 10.9895576 ], [ 22.4420179, 10.986533399999988 ], [ 22.4236451, 10.9718806 ], [ 22.4034679, 10.9701911 ], [ 22.3868016, 10.9640404 ], [ 22.3764444, 10.9664423 ], [ 22.3647903, 10.9582228 ], [ 22.3278957, 10.9549945 ], [ 22.2852617, 10.9301997 ], [ 22.2665091, 10.924242 ], [ 22.2463106, 10.9245723 ], [ 22.2249492, 10.9141752 ], [ 22.197478, 10.9084602 ], [ 22.1840089, 10.8998913 ], [ 22.1731108, 10.8846913 ], [ 22.154743, 10.8779125 ], [ 22.104958, 10.8818033 ], [ 22.0852261, 10.8926219 ], [ 22.074862, 10.8947261 ], [ 22.0399333, 10.8844717 ], [ 22.0180076, 10.8843858 ], [ 21.9796393, 10.865099 ], [ 21.9648959, 10.8686959 ], [ 21.9616981, 10.8615175 ], [ 21.9574279, 10.8591181 ], [ 21.944592, 10.8652772 ], [ 21.9384894, 10.8543795 ], [ 21.931169, 10.8570976 ], [ 21.9174144, 10.8711656 ], [ 21.9012958, 10.864464 ], [ 21.8827474, 10.8688172 ], [ 21.8653519, 10.8485998 ], [ 21.8473984, 10.8461006 ], [ 21.8403642, 10.8395481 ], [ 21.8301176, 10.8357961 ], [ 21.8126917, 10.8108779 ], [ 21.7903099, 10.7940315 ], [ 21.789921, 10.7759747 ], [ 21.7852681, 10.7529648 ], [ 21.7888798, 10.7321667 ], [ 21.7845994, 10.705523899999983 ], [ 21.7884711, 10.690903799999989 ], [ 21.7868042, 10.6694038 ], [ 21.7782805, 10.6581728 ], [ 21.7592033, 10.644174099999988 ], [ 21.7507807, 10.6452406 ], [ 21.7399459, 10.6538433 ], [ 21.7342277, 10.6500186 ], [ 21.7328278, 10.6136526 ], [ 21.727761, 10.594386799999988 ], [ 21.7322003, 10.5529138 ], [ 21.7293107, 10.5403284 ], [ 21.7212752, 10.5259758 ], [ 21.7187715, 10.509236599999989 ], [ 21.7319626, 10.4803696 ], [ 21.7506988, 10.4616008 ], [ 21.7574084, 10.4427741 ], [ 21.7565015, 10.4248835 ], [ 21.7680861, 10.4169201 ], [ 21.7696221, 10.412405299999987 ], [ 21.7642972, 10.4021726 ], [ 21.744567, 10.381771499999985 ], [ 21.7395692, 10.357469399999989 ], [ 21.7293025, 10.3548581 ], [ 21.7252354, 10.3494811 ], [ 21.7254792, 10.3397497 ], [ 21.7353181, 10.31996 ], [ 21.7258885, 10.2999538 ], [ 21.7060065, 10.2782324 ], [ 21.6775787, 10.2758272 ], [ 21.6787326, 10.2628855 ], [ 21.6637815, 10.2535464 ], [ 21.6727747, 10.240748199999988 ], [ 21.6723019, 10.2358707 ], [ 21.6687111, 10.2334029 ], [ 21.6504394, 10.2328054 ], [ 21.6377389, 10.2282025 ], [ 21.6237411, 10.229753199999985 ], [ 21.608979, 10.2182845 ], [ 21.5900857, 10.2130129 ], [ 21.5600939, 10.2121682 ], [ 21.543936, 10.2255129 ], [ 21.5302265, 10.2211205 ], [ 21.5221834, 10.2132749 ], [ 21.5094145, 10.1914325 ], [ 21.4946934, 10.1846018 ], [ 21.4872143, 10.1662867 ], [ 21.4708936, 10.1528648 ], [ 21.4671682, 10.1354103 ], [ 21.451369, 10.1224645 ], [ 21.4536424, 10.0879999 ], [ 21.4413586, 10.0779008 ], [ 21.4329204, 10.0525349 ], [ 21.4182064, 10.0482241 ], [ 21.409264, 10.0414819 ], [ 21.4042271, 10.032945099999989 ], [ 21.4024473, 10.0196732 ], [ 21.3911788, 9.9993222 ], [ 21.3754676, 9.9859797 ], [ 21.3614158, 9.9853397 ], [ 21.3515681, 9.969668 ], [ 21.3366063, 9.9665927 ], [ 21.3221612, 9.9734856 ], [ 21.3117299, 9.986855899999989 ], [ 21.303817, 9.9735472 ], [ 21.2981844, 9.9706343 ], [ 21.2772324, 9.9875513 ], [ 21.2643935, 9.9920688 ], [ 21.2556232, 9.9894295 ], [ 21.2394213, 9.9635074 ], [ 21.2141168, 9.9474133 ], [ 21.210896, 9.9369007 ], [ 21.202479, 9.9265747 ], [ 21.2034818, 9.908537 ], [ 21.1989983, 9.8972501 ], [ 21.1795131, 9.8874753 ], [ 21.1314364, 9.8449598 ], [ 21.1215567, 9.828847899999989 ], [ 21.1160921, 9.7977942 ], [ 21.1084073, 9.7867591 ], [ 21.0929374, 9.7780231 ], [ 21.0746775, 9.776986199999989 ], [ 21.0622939, 9.7675789 ], [ 21.0418878, 9.77483 ], [ 21.0294781, 9.771828 ], [ 21.0252915, 9.7611959 ], [ 21.0368809, 9.7389781 ], [ 21.0310809, 9.7304464 ], [ 21.012435, 9.732339199999988 ], [ 20.995047, 9.7425513 ], [ 20.993345, 9.7302919 ], [ 21.0007489, 9.7143179 ], [ 21.0014578, 9.7055007 ], [ 20.9847009, 9.7020162 ], [ 20.9726728, 9.7042204 ], [ 20.9701667, 9.7016383 ], [ 20.9730599, 9.6972749 ], [ 20.9877974, 9.6929365 ], [ 20.9956836, 9.6856176 ], [ 20.9830437, 9.663361199999988 ], [ 20.9928628, 9.6529751 ], [ 20.9929715, 9.6478869 ], [ 20.9869911, 9.6449973 ], [ 20.9736132, 9.6462548 ], [ 20.9696542, 9.6423235 ], [ 20.9734557, 9.6365205 ], [ 20.9866125, 9.632073 ], [ 20.9880516, 9.6243131 ], [ 20.9789488, 9.6184636 ], [ 20.9605314, 9.618587399999988 ], [ 20.9528254, 9.6149105 ], [ 20.9512929, 9.6089407 ], [ 20.9545659, 9.5856129 ], [ 20.9508215, 9.5697168 ], [ 20.944743, 9.565895 ], [ 20.9342307, 9.5701726 ], [ 20.9274549, 9.5679907 ], [ 20.9203164, 9.5456851 ], [ 20.9202002, 9.5328862 ], [ 20.91699, 9.528396499999987 ], [ 20.8988238, 9.5274118 ], [ 20.8766446, 9.5221945 ], [ 20.873991, 9.5123189 ], [ 20.8655984, 9.4995464 ], [ 20.8633001, 9.4866849 ], [ 20.8433343, 9.4817803 ], [ 20.82867, 9.4640552 ], [ 20.8246073, 9.4316144 ], [ 20.8166402, 9.4305585 ], [ 20.8052166, 9.440609299999982 ], [ 20.7979358, 9.4419349 ], [ 20.7699102, 9.426340799999988 ], [ 20.7673797, 9.4100253 ], [ 20.7575294, 9.4011867 ], [ 20.7415522, 9.401184499999989 ], [ 20.7295828, 9.3979509 ], [ 20.715817, 9.401077 ], [ 20.7031683, 9.3965522 ], [ 20.6878828, 9.3986177 ], [ 20.6667363, 9.3962231 ], [ 20.6535038, 9.3702246 ], [ 20.6477694, 9.3450663 ], [ 20.626266, 9.336173699999984 ], [ 20.6280325, 9.330101399999988 ], [ 20.6370003, 9.3240426 ], [ 20.6343024, 9.3186378 ], [ 20.6041952, 9.3182895 ], [ 20.580191, 9.340367699999989 ], [ 20.5642282, 9.331400199999988 ], [ 20.549051, 9.3356728 ], [ 20.5285534, 9.3345772 ], [ 20.526004, 9.329776399999988 ], [ 20.5263884, 9.3163427 ], [ 20.5226384, 9.3086151 ], [ 20.5111173, 9.304363299999988 ], [ 20.4982895, 9.305135799999988 ], [ 20.4944739, 9.3012611 ], [ 20.4955683, 9.2681007 ], [ 20.4707048, 9.2209652 ], [ 20.4557256, 9.1748453 ], [ 20.4421732, 9.1593379 ], [ 20.4325999, 9.1547169 ], [ 20.3928737, 9.1497447 ], [ 20.3537746, 9.129410099999985 ], [ 20.33445, 9.1315567 ], [ 20.3247869, 9.1269062 ], [ 20.3206783, 9.1249289 ], [ 20.3006055, 9.1219441 ], [ 20.2613656, 9.125679799999988 ], [ 20.2484136, 9.1329132 ], [ 20.2373021, 9.145104399999987 ], [ 20.2216381, 9.1506705 ], [ 20.2068853, 9.1494016 ], [ 20.1855723, 9.1390016 ], [ 20.1353184, 9.138497099999988 ], [ 20.1181282, 9.1432123 ], [ 20.1023962, 9.154432299999989 ], [ 20.0798126, 9.134241299999987 ], [ 20.0716436, 9.1337688 ], [ 20.0584197, 9.1403375 ], [ 20.0514479, 9.1407997 ], [ 20.0346203, 9.1290447 ], [ 20.0143347, 9.1247925 ], [ 20.0075415, 9.1068025 ], [ 19.9976261, 9.1127331 ], [ 19.9813847, 9.0936114 ], [ 19.9398073, 9.086020399999986 ], [ 19.9339312, 9.0803744 ], [ 19.9251953, 9.063166 ], [ 19.9068499, 9.0668532 ], [ 19.8885116, 9.0620927 ], [ 19.8660279, 9.0638967 ], [ 19.8380092, 9.045022299999989 ], [ 19.8303956, 9.0488053 ], [ 19.8203585, 9.061855 ], [ 19.8022186, 9.0570773 ], [ 19.7783666, 9.0575795 ], [ 19.7596816, 9.049874899999988 ], [ 19.7405556, 9.0466284 ], [ 19.7236029, 9.0433799 ], [ 19.7021746, 9.0296069 ], [ 19.6843961, 9.0279298 ], [ 19.6683269, 9.021797799999987 ], [ 19.6505246, 9.0231383 ], [ 19.6293898, 9.0192071 ], [ 19.6043755, 9.0205744 ], [ 19.5723457, 9.038195 ], [ 19.5572389, 9.0350042 ], [ 19.5389655, 9.021814 ], [ 19.5259359, 9.017837299999989 ], [ 19.5175488, 9.0198059 ], [ 19.5109688, 9.0293598 ], [ 19.5047685, 9.0321458 ], [ 19.4997659, 9.0298685 ], [ 19.4931503, 9.0204286 ], [ 19.4808746, 9.016186 ], [ 19.4643565, 9.018158 ], [ 19.4537078, 9.0253162 ], [ 19.4374933, 9.0290128 ], [ 19.4054173, 9.0252433 ], [ 19.3910927, 9.0181988 ], [ 19.3692981, 9.014444799999984 ], [ 19.3361784, 9.0183846 ], [ 19.3048691, 9.0088056 ], [ 19.2752703, 9.0127477 ], [ 19.2502718, 9.0252366 ], [ 19.2182774, 9.0295812 ], [ 19.1935972, 9.022911 ], [ 19.1764244, 9.0226399 ], [ 19.1646603, 9.015860099999987 ], [ 19.134614, 9.0059725 ], [ 19.1079481, 9.0089263 ], [ 19.0958397, 9.0171646 ], [ 19.0889633, 9.0181766 ], [ 19.0803878, 9.0144114 ], [ 19.0726207, 9.0049948 ], [ 19.0588718, 8.997871 ], [ 19.0269089, 8.9949099 ], [ 19.009447, 8.9800515 ], [ 18.9900276, 8.9749067 ], [ 18.9840823, 8.9670706 ], [ 18.9755131, 8.9444303 ], [ 18.9623767, 8.931642299999989 ], [ 18.9258469, 8.9255928 ], [ 18.9058963, 8.9017285 ], [ 18.8913935, 8.8984165 ], [ 18.887868, 8.8873604 ], [ 18.8679707, 8.8717063 ], [ 18.8664059, 8.851114599999987 ], [ 18.87619, 8.843074599999989 ], [ 18.8907082, 8.8498833 ], [ 18.9020582, 8.847595 ], [ 18.9056812, 8.8412691 ], [ 18.9077901, 8.8165729 ], [ 18.9133753, 8.8064127 ], [ 18.923182, 8.8030367 ], [ 18.9387681, 8.8099442 ], [ 18.949029, 8.8089107 ], [ 18.9651388, 8.785892099999989 ], [ 19.0174405, 8.7613177 ], [ 19.0324767, 8.7379463 ], [ 19.0452302, 8.7255166 ], [ 19.0589017, 8.7170374 ], [ 19.0822353, 8.7096363 ], [ 19.1010473, 8.6993457 ], [ 19.1190059, 8.6717114 ], [ 19.0678092, 8.635982 ], [ 19.0615166, 8.6164241 ], [ 19.047566, 8.5965846 ], [ 19.0422411, 8.5597731 ], [ 19.0286659, 8.5345268 ], [ 18.993831, 8.5132406 ], [ 18.9926985, 8.4965271 ], [ 18.9749586, 8.4810361 ], [ 18.9684724, 8.4654032 ], [ 18.9525571, 8.4552128 ], [ 18.9361108, 8.4397167 ], [ 18.9221683, 8.4189871 ], [ 18.9203009, 8.408039 ], [ 18.9239217, 8.3955465 ], [ 18.9114042, 8.385036599999989 ], [ 18.9014813, 8.369625 ], [ 18.8876255, 8.3639497 ], [ 18.8727832, 8.3439163 ], [ 18.8538844, 8.3440183 ], [ 18.8542715, 8.316304 ], [ 18.8496985, 8.3054147 ], [ 18.8372683, 8.2902584 ], [ 18.7994573, 8.2593671 ], [ 18.7738829, 8.2477913 ], [ 18.7046836, 8.2287055 ], [ 18.68866, 8.2207212 ], [ 18.6639173, 8.2011925 ], [ 18.6524417, 8.1771537 ], [ 18.630103, 8.142849 ], [ 18.629486, 8.1281871 ], [ 18.6352078, 8.0896477 ], [ 18.6260595, 8.0738766 ], [ 18.6220382, 8.0591237 ], [ 18.614304, 8.0522065 ], [ 18.5917994, 8.0462511 ], [ 18.3874258, 8.0323438 ], [ 18.3313062, 8.0285248 ], [ 18.2652391, 8.0212692 ], [ 18.0409834, 8.0097945 ], [ 18.0056042, 7.9902695 ], [ 17.9899151, 7.9887705 ], [ 17.9478041, 7.9650061 ], [ 17.9251624, 7.9596191 ], [ 17.7344723, 7.9779727 ], [ 17.7177513, 7.977504 ], [ 17.7046777, 7.9725914 ], [ 17.6914324, 7.9808141 ], [ 17.6737037, 7.9815834 ], [ 17.6603355, 7.9731444 ], [ 17.6563649, 7.9597534 ], [ 17.6488972, 7.9484266 ], [ 17.631699, 7.942615499999988 ], [ 17.616165, 7.929005599999987 ], [ 17.5971538, 7.9304462 ], [ 17.5712561, 7.911171699999988 ], [ 17.5595802, 7.9204413 ], [ 17.5482481, 7.919193 ], [ 17.5406292, 7.9074106 ], [ 17.536293, 7.891062799999989 ], [ 17.5235199, 7.887154499999988 ], [ 17.5133402, 7.871864399999989 ], [ 17.4709677, 7.8923855 ], [ 17.4514877, 7.8813664 ], [ 17.4458376, 7.8687042 ], [ 17.4397852, 7.8688799 ], [ 17.4318579, 7.8753657 ], [ 17.4223026, 7.8737805 ], [ 17.4207538, 7.8628897 ], [ 17.4087422, 7.8630439 ], [ 17.4015205, 7.8458962 ], [ 17.3906293, 7.8495439 ], [ 17.3691699, 7.8483995 ], [ 17.3577524, 7.8413448 ], [ 17.3440596, 7.8380611 ], [ 17.332663, 7.8228297 ], [ 17.3158577, 7.8270367 ], [ 17.3084878, 7.825782 ], [ 17.3008807, 7.8080623 ], [ 17.2861903, 7.802812 ], [ 17.280477, 7.7924211 ], [ 17.2668325, 7.7834394 ], [ 17.2684038, 7.7627445 ], [ 17.262701, 7.7493769 ], [ 17.2553094, 7.7478956 ], [ 17.240802, 7.7606564 ], [ 17.2308626, 7.7600898 ], [ 17.219162, 7.7438152 ], [ 17.2161018, 7.726997 ], [ 17.1682664, 7.7034895 ], [ 17.1712248, 7.6886578 ], [ 17.1570472, 7.6664555 ], [ 17.1432394, 7.6628646 ], [ 17.1327077, 7.6641161 ], [ 17.1255833, 7.6692904 ], [ 17.1137622, 7.6868239 ], [ 17.0936194, 7.6907371 ], [ 17.0886044, 7.6851979 ], [ 17.0908578, 7.6689628 ], [ 17.0883039, 7.6609215 ], [ 17.0669186, 7.6522698 ], [ 17.0482853, 7.6525396 ], [ 17.0372028, 7.6358868 ], [ 16.9868258, 7.6340334 ], [ 16.9755225, 7.6297072 ], [ 16.9558669, 7.6346794 ], [ 16.9300326, 7.6226705 ], [ 16.9242349, 7.607820099999988 ], [ 16.9018904, 7.6142334 ], [ 16.8997194, 7.6084774 ], [ 16.9038481, 7.5939675 ], [ 16.8974902, 7.577152 ], [ 16.9068872, 7.5675199 ], [ 16.9068613, 7.5592621 ], [ 16.8957887, 7.5520694 ], [ 16.8832361, 7.5564872 ], [ 16.876364, 7.5559132 ], [ 16.8708556, 7.550777 ], [ 16.8653987, 7.5387407 ], [ 16.8441325, 7.5313081 ], [ 16.8239445, 7.532982 ], [ 16.8150753, 7.5374164 ], [ 16.8082557, 7.5504453 ], [ 16.7980427, 7.561798 ], [ 16.7966188, 7.576944 ], [ 16.7911437, 7.5880495 ], [ 16.7720336, 7.6084945 ], [ 16.7393262, 7.6334874 ], [ 16.7285952, 7.646852699999988 ], [ 16.6905158, 7.651981099999989 ], [ 16.669985, 7.6679327 ], [ 16.6658814, 7.7064852 ], [ 16.669154, 7.7292828 ], [ 16.6656242, 7.7385199 ], [ 16.6342019, 7.7598467 ], [ 16.6124258, 7.7596283 ], [ 16.5972304, 7.7691082 ], [ 16.5971862, 7.8026385 ], [ 16.5852342, 7.8366514 ], [ 16.587625, 7.8511919 ], [ 16.5958723, 7.8680631 ], [ 16.5915612, 7.8751631 ], [ 16.5676178, 7.868359 ], [ 16.5576413, 7.856525899999988 ], [ 16.5436291, 7.8547259 ], [ 16.5204292, 7.843976 ], [ 16.51237, 7.8264604 ], [ 16.4976595, 7.809319699999987 ], [ 16.4879912, 7.7921665 ], [ 16.4613686, 7.7868075 ], [ 16.4524661, 7.8004313 ], [ 16.4373691, 7.80021 ], [ 16.4154523, 7.7688941 ], [ 16.4233316, 7.7489652 ], [ 16.4177344, 7.7324935 ], [ 16.4265661, 7.71462 ], [ 16.4069608, 7.6871754 ], [ 16.391277, 7.6726078 ], [ 16.3755581, 7.6671763 ], [ 16.3553217, 7.6658122 ], [ 16.3043771, 7.6510102 ], [ 16.2859651, 7.6335696 ], [ 16.2401414, 7.6095196 ], [ 16.1899065, 7.6142625 ], [ 16.1800001, 7.6103111 ], [ 16.1605826, 7.595746 ], [ 16.1010034, 7.5905719 ], [ 16.0641557, 7.5803512 ], [ 16.0473209, 7.565525 ], [ 16.0357646, 7.5334008 ], [ 16.0250774, 7.526022 ], [ 16.0054895, 7.5028829 ], [ 15.9752746, 7.4849066 ], [ 15.9362144, 7.4794365 ], [ 15.9094991, 7.4675112 ], [ 15.871824, 7.455678099999989 ], [ 15.8133663, 7.4433844 ], [ 15.7881582, 7.4596471 ], [ 15.7624894, 7.462535 ], [ 15.7548486, 7.472918 ], [ 15.7400138, 7.4847032 ], [ 15.7302945, 7.5023757 ], [ 15.7280887, 7.514455399999989 ], [ 15.7239038, 7.5179268 ], [ 15.6611283, 7.517447 ], [ 15.557136, 7.5110784 ], [ 15.5418134, 7.513478 ], [ 15.50748, 7.52747 ], [ 15.4967601, 7.5152895 ], [ 15.4959674, 7.5056296 ], [ 15.4853606, 7.4992239 ], [ 15.4797677, 7.487887 ], [ 15.4657606, 7.4793513 ], [ 15.4661023, 7.4696456 ], [ 15.4602743, 7.4567417 ], [ 15.4473238, 7.4499746 ], [ 15.441984, 7.4364887 ], [ 15.4298464, 7.4275063 ], [ 15.4274195, 7.4150336 ], [ 15.3991484, 7.3936362 ], [ 15.3815256, 7.3758929 ], [ 15.3697012, 7.3691776 ], [ 15.3611997, 7.3586169 ], [ 15.3485616, 7.3520673 ], [ 15.3370677, 7.340111 ], [ 15.3050815, 7.3179923 ], [ 15.2630947, 7.2779086 ], [ 15.2512053, 7.273465699999989 ], [ 15.2388616, 7.249811 ], [ 15.2249705, 7.2392574 ], [ 15.223137, 7.2310695 ], [ 15.2176713, 7.2246906 ], [ 15.2282788, 7.221576 ], [ 15.2374386, 7.2142835 ], [ 15.2137284, 7.175662 ], [ 15.2162325, 7.145607 ], [ 15.2241609, 7.135458299999986 ], [ 15.2091008, 7.1051962 ], [ 15.1971056, 7.071965099999987 ], [ 15.1920882, 7.0700075 ], [ 15.1833741, 7.0723268 ], [ 15.1689157, 7.0656647 ], [ 15.1617111, 7.045526599999987 ], [ 15.1485683, 7.0267649 ], [ 15.1400554, 6.9677024 ], [ 15.1434011, 6.9451633 ], [ 15.1334501, 6.9359959 ], [ 15.1198789, 6.913103899999989 ], [ 15.1136747, 6.8914607 ], [ 15.1017597, 6.872430399999987 ], [ 15.0897279, 6.8368283 ], [ 15.0747625, 6.8146705 ], [ 15.0712197, 6.7877933 ], [ 15.0674773, 6.7784609 ], [ 15.0501482, 6.7608726 ], [ 15.0203081, 6.765541 ], [ 15.0043997, 6.7566701 ], [ 14.9715892, 6.7486264 ], [ 14.9677382, 6.7444664 ], [ 14.8668367, 6.5157198 ], [ 14.814356, 6.4103166 ], [ 14.8094933, 6.3864663 ], [ 14.8140447, 6.3576148 ], [ 14.8037856, 6.3388141 ], [ 14.7507919, 6.261873799999989 ], [ 14.7391042, 6.2517209 ], [ 14.7212504, 6.2433686 ], [ 14.6218739, 6.2067061 ], [ 14.5725472, 6.1921411 ], [ 14.5605727, 6.1886052 ], [ 14.534989, 6.1680436 ], [ 14.5140887, 6.1394693 ], [ 14.506409, 6.1289694 ], [ 14.4782516, 6.1068554 ], [ 14.4704205, 6.0972693 ], [ 14.4453044, 6.086329099999989 ], [ 14.4276329, 6.0837574 ], [ 14.4295383, 6.0695271 ], [ 14.4210273, 6.0398301 ], [ 14.4370466, 6.002399 ], [ 14.4690967, 5.9713043 ], [ 14.4776998, 5.948547099999989 ], [ 14.4891762, 5.9334643 ], [ 14.4937411, 5.915737699999987 ], [ 14.505781, 5.9034826 ], [ 14.5140887, 5.900810599999986 ], [ 14.5230544, 5.897927 ], [ 14.5539595, 5.904097 ], [ 14.5653095, 5.900248 ], [ 14.5725472, 5.905487799999989 ], [ 14.5896778, 5.9178897 ], [ 14.5994003, 5.9198979 ], [ 14.6105833, 5.9151014 ], [ 14.6209436, 5.8951373 ], [ 14.6203801, 5.8464073 ], [ 14.627181, 5.811989499999986 ], [ 14.6283281, 5.704228 ], [ 14.6125857, 5.6599508 ], [ 14.6102533, 5.642292 ], [ 14.5965501, 5.601631199999989 ], [ 14.5954546, 5.5886128 ], [ 14.5979947, 5.5758368 ], [ 14.6077288, 5.558809299999989 ], [ 14.6135621, 5.5351339 ], [ 14.6296982, 5.5072943 ], [ 14.6197258, 5.4936495 ], [ 14.6145102, 5.4766902 ], [ 14.6057474, 5.4665574 ], [ 14.6068023, 5.4538439 ], [ 14.6021946, 5.432326699999989 ], [ 14.6026624, 5.403516099999989 ], [ 14.5783623, 5.3853119 ], [ 14.5768622, 5.3679039 ], [ 14.5725472, 5.3605373 ], [ 14.5584834, 5.3365266 ], [ 14.5498736, 5.3130289 ], [ 14.5516898, 5.301048499999987 ], [ 14.5411316, 5.2931426 ], [ 14.5294161, 5.2759288 ], [ 14.5351363, 5.263784 ], [ 14.5725472, 5.231337 ], [ 14.5760446, 5.2283037 ], [ 14.5897877, 5.2250642 ], [ 14.6021291, 5.2181459 ], [ 14.6262623, 5.216763 ], [ 14.6506136, 5.2107519 ], [ 14.6716342, 5.1894375 ], [ 14.6773223, 5.1750394 ], [ 14.6946775, 5.098302799999987 ], [ 14.6910654, 5.089170599999989 ], [ 14.6806907, 5.0816251 ], [ 14.6784565, 5.0744219 ], [ 14.690678, 5.0240651 ], [ 14.6806946, 5.0068614 ], [ 14.6823272, 4.999247299999987 ], [ 14.6794884, 4.9886729 ], [ 14.694802, 4.9620595 ], [ 14.6920146, 4.9404003 ], [ 14.6872075, 4.9266491 ], [ 14.6948105, 4.9158349 ], [ 14.7060362, 4.882471 ], [ 14.7068656, 4.8799871 ], [ 14.7156462, 4.8646804 ], [ 14.708148, 4.8535081 ], [ 14.7092333, 4.8407692 ], [ 14.7142397, 4.8322665 ], [ 14.7211605, 4.8038758 ], [ 14.7209087, 4.7883641 ], [ 14.7185412, 4.781596299999989 ], [ 14.7147743, 4.7708281 ], [ 14.7037577, 4.762971 ], [ 14.7207214, 4.7375551 ], [ 14.7250663, 4.6969077 ], [ 14.7244026, 4.6416558 ], [ 14.7334943, 4.6235402 ], [ 14.7329215, 4.6094246 ], [ 14.7405628, 4.6042868 ], [ 14.7482541, 4.5991154 ], [ 14.7583313, 4.5818943 ], [ 14.7715155, 4.5780361 ], [ 14.7931352, 4.549268 ], [ 14.8074164, 4.5378985 ], [ 14.8153056, 4.5255206 ], [ 14.8297288, 4.519657 ], [ 14.8362849, 4.5112442 ], [ 14.8547171, 4.5075064 ], [ 14.8596445, 4.4967641 ], [ 14.8616302, 4.4959011 ], [ 14.8743674, 4.4903653 ], [ 14.8906335, 4.4674289 ], [ 14.9083172, 4.4631791 ], [ 14.9424583, 4.4452816 ], [ 14.9489793, 4.4346444 ], [ 14.9724484, 4.4347511 ], [ 14.9824508, 4.4312067 ], [ 14.9886459, 4.4218959 ], [ 15.0152445, 4.4164956 ], [ 15.0223041, 4.3970022 ], [ 15.0232257, 4.3865142 ], [ 15.0325886, 4.3646094 ], [ 15.0366804, 4.3623608 ], [ 15.0428554, 4.3651029 ], [ 15.0471558, 4.3625911 ], [ 15.0498939, 4.3575976 ], [ 15.0492339, 4.3503208 ], [ 15.0617735, 4.3361775 ], [ 15.0679296, 4.322079499999989 ], [ 15.0787453, 4.3088465 ], [ 15.0866391, 4.3054176 ], [ 15.0895145, 4.2993404 ], [ 15.0929841, 4.2920075 ], [ 15.0957136, 4.2645124 ], [ 15.1010821, 4.2563036 ], [ 15.0974188, 4.23236 ], [ 15.1071795, 4.2148004 ], [ 15.1051699, 4.2088182 ], [ 15.1028549, 4.2019269 ], [ 15.1067755, 4.1777073 ], [ 15.1120759, 4.1720198 ], [ 15.1129539, 4.1487247 ], [ 15.1073312, 4.1362906 ], [ 15.1134325, 4.1208703 ], [ 15.1174193, 4.1159324 ], [ 15.1255714, 4.1132435 ], [ 15.1369719, 4.1009043 ], [ 15.1500239, 4.0659655 ], [ 15.1754429, 4.0680058 ], [ 15.1789142, 4.065526899999989 ], [ 15.1825463, 4.0551695 ], [ 15.1778557, 4.0496747 ], [ 15.1550108, 4.0426467 ], [ 15.1446102, 4.0333333 ], [ 15.103414, 4.0255063 ], [ 15.0678417, 4.0124773 ], [ 15.0616744, 4.0062935 ], [ 15.0587389, 3.9981253 ], [ 15.091162, 3.9939952 ], [ 15.097504, 3.9812445 ], [ 15.1081568, 3.9433589 ], [ 15.1865936, 3.814613 ], [ 15.2475931, 3.7144752 ], [ 15.4639499, 3.4830634 ], [ 15.5093526, 3.4380971 ], [ 15.6042062, 3.327219 ], [ 15.6475069, 3.2724545 ], [ 15.6585225, 3.2626272 ], [ 15.699486, 3.2127285 ], [ 15.7170495, 3.1972871 ], [ 15.7463225, 3.158691 ], [ 15.8022022, 3.0963161 ], [ 15.805648, 3.0946397 ], [ 15.8135569, 3.1014435 ], [ 15.8276284, 3.1006731 ], [ 15.8399988, 3.1072136 ], [ 15.8590732, 3.108582 ], [ 15.8661593, 3.1063558 ], [ 15.8718032, 3.0981837 ], [ 15.8869567, 3.0966227 ], [ 15.901624, 3.0803473 ], [ 15.9256519, 3.0369909 ], [ 15.9348724, 3.0310774 ], [ 15.9681725, 2.9890449 ], [ 15.9735882, 2.9888038 ], [ 15.9773555, 2.9963816 ], [ 15.9827667, 2.9996895 ], [ 16.0039672, 3.0003546 ], [ 16.0145033, 2.9910168 ], [ 16.0178263, 2.9817144 ], [ 16.0353887, 2.973168 ], [ 16.0361762, 2.960664 ], [ 16.0524816, 2.9372571 ], [ 16.0596964, 2.9159745 ], [ 16.0732095, 2.9021427 ], [ 16.0869008, 2.8602332 ], [ 16.0900728, 2.8349117 ], [ 16.0863815, 2.8179675 ], [ 16.0729298, 2.8025986 ], [ 16.0544673, 2.7944832 ], [ 16.051374, 2.7894008 ], [ 16.0595661, 2.760382099999988 ], [ 16.0643785, 2.752850699999989 ], [ 16.064827, 2.7325387 ], [ 16.0607445, 2.7265415 ], [ 16.064635, 2.720707 ], [ 16.0616467, 2.713212499999989 ], [ 16.0690548, 2.7082105 ], [ 16.0830236, 2.7064686 ], [ 16.0887815, 2.6998855 ], [ 16.0758564, 2.676914 ], [ 16.0677366, 2.6401886 ], [ 16.0705434, 2.625623 ], [ 16.0846494, 2.5954864 ], [ 16.0822188, 2.568757599999989 ], [ 16.0675524, 2.5266729 ], [ 16.0693364, 2.516833 ], [ 16.0821319, 2.500435499999989 ], [ 16.0846434, 2.4932463 ], [ 16.0829838, 2.4784976 ], [ 16.076476, 2.463847299999988 ], [ 16.0852244, 2.4429135 ], [ 16.1036041, 2.4270462 ], [ 16.1076325, 2.4163163 ], [ 16.1169653, 2.3914574 ], [ 16.1479268, 2.3504847 ], [ 16.1512307, 2.3293748 ], [ 16.1707619, 2.2742111 ], [ 16.1644483, 2.2542278 ], [ 16.1649283, 2.2466928 ], [ 16.19199, 2.22051 ], [ 16.1953143, 2.2236041 ] ] ] } }
]
}
