{
"type": "FeatureCollection",
"name": "rudka",
"crs": { "type": "name", "properties": { "name": "urn:ogc:def:crs:OGC:1.3:CRS84" } },
"features": [
{ "type": "Feature", "properties": { "name": "Rudka", "metric_roundness": 40.63, "metric_rectangularity": 59.78, "metric_mobile_fit": -9.07, "metric_aspect_ratio": 1.653, "metric_area_km2": 9.74 }, "geometry": { "type": "Polygon", "coordinates": [ [ [ 16.3224481, 49.2457674 ], [ 16.3107224, 49.2499297 ], [ 16.3020656, 49.2441494 ], [ 16.2914855, 49.245599 ], [ 16.2933311, 49.236379099999986 ], [ 16.3067925, 49.234454 ], [ 16.3172442, 49.2388068 ], [ 16.3248945, 49.232157099999988 ], [ 16.3304789, 49.2313304 ], [ 16.339059, 49.2363685 ], [ 16.333792, 49.243877 ], [ 16.3222905, 49.250118 ], [ 16.3224481, 49.2457674 ] ] ] } }
]
}
