{
"type": "FeatureCollection",
"name": "rueil_la_gadeliere",
"crs": { "type": "name", "properties": { "name": "urn:ogc:def:crs:OGC:1.3:CRS84" } },
"features": [
{ "type": "Feature", "properties": { "name": "Rueil-la-Gadelière", "feature_type": "entity", "metric_roundness": 45.64, "metric_rectangularity": 62.67, "metric_mobile_fit": 25.07, "metric_aspect_ratio": 1.312, "metric_area_km2": 43.92 }, "geometry": { "type": "Polygon", "coordinates": [ [ [ 0.9623817, 48.725744 ], [ 0.9502699, 48.7153001 ], [ 0.9211985, 48.709175 ], [ 0.9143302, 48.704582899999984 ], [ 0.9333969, 48.685074799999981 ], [ 0.9402088, 48.681812799999982 ], [ 0.9508325, 48.681881 ], [ 0.9558696, 48.696044799999989 ], [ 0.9684056, 48.7024248 ], [ 0.9728113, 48.702170099999982 ], [ 0.9737665, 48.69501529999998 ], [ 0.9841657, 48.6888011 ], [ 1.0120235, 48.69246 ], [ 1.0049762, 48.701823499999989 ], [ 1.0079515, 48.7073015 ], [ 0.9859561, 48.716342899999987 ], [ 0.9835513, 48.7219427 ], [ 0.985641, 48.725829 ], [ 0.9828955, 48.7269215 ], [ 0.981252, 48.72951 ], [ 0.978292, 48.730959 ], [ 0.9623817, 48.725744 ] ] ] } },
{ "type": "Feature", "properties": { "name": "Rueil-la-Gadelière", "feature_type": "circle", "metric_roundness": 45.64, "metric_rectangularity": 62.67, "metric_mobile_fit": 25.07, "metric_aspect_ratio": 1.312, "metric_area_km2": 43.92 }, "geometry": { "type": "Polygon", "coordinates": [ [ [ 1.013225120798809, 48.699632264095733 ], [ 1.013156964891631, 48.697914390294159 ], [ 1.012952683980702, 48.696201166680062 ], [ 1.012612837985799, 48.694497289799628 ], [ 1.012138358401173, 48.692807431051449 ], [ 1.011530545742383, 48.691136223869442 ], [ 1.010791065981679, 48.689488251004931 ], [ 1.009921945981684, 48.687868031942749 ], [ 1.008925567939907, 48.686280010486136 ], [ 1.007804662859302, 48.684728542544974 ], [ 1.006562303062783, 48.683217884160811 ], [ 1.005201893772197, 48.681752179802189 ], [ 1.003727163774847, 48.680335450962701 ], [ 1.00214215520315, 48.678971585093393 ], [ 1.000451212455427, 48.677664324900476 ], [ 0.998658970288216, 48.676417258038171 ], [ 0.996770341112717, 48.675233807225318 ], [ 0.994790501530225, 48.67411722081367 ], [ 0.992724878143419, 48.673070563833996 ], [ 0.990579132682421, 48.672096709545229 ], [ 0.988359146486391, 48.671198331510418 ], [ 0.986071004383184, 48.670377896221517 ], [ 0.983720978011257, 48.669637656294064 ], [ 0.981315508629548, 48.668979644250541 ], [ 0.978861189462429, 48.668405666910239 ], [ 0.976364747628141, 48.667917300401243 ], [ 0.973833025700225, 48.667515885808569 ], [ 0.971272962952508, 48.667202525470955 ], [ 0.968691576339033, 48.666978079936513 ], [ 0.966095941261079, 48.666843165585895 ], [ 0.963493172173973, 48.666798152929893 ], [ 0.960890403086868, 48.666843165585895 ], [ 0.958294768008914, 48.666978079936513 ], [ 0.955713381395439, 48.667202525470955 ], [ 0.953153318647722, 48.667515885808569 ], [ 0.950621596719806, 48.667917300401243 ], [ 0.948125154885518, 48.668405666910239 ], [ 0.945670835718399, 48.668979644250541 ], [ 0.94326536633669, 48.669637656294064 ], [ 0.940915339964763, 48.670377896221517 ], [ 0.938627197861556, 48.671198331510418 ], [ 0.936407211665527, 48.672096709545229 ], [ 0.934261466204529, 48.673070563833996 ], [ 0.932195842817722, 48.67411722081367 ], [ 0.93021600323523, 48.675233807225318 ], [ 0.928327374059732, 48.676417258038171 ], [ 0.92653513189252, 48.677664324900476 ], [ 0.924844189144797, 48.678971585093393 ], [ 0.9232591805731, 48.680335450962701 ], [ 0.921784450575751, 48.681752179802189 ], [ 0.920424041285164, 48.683217884160811 ], [ 0.919181681488645, 48.684728542544974 ], [ 0.91806077640804, 48.686280010486136 ], [ 0.917064398366263, 48.687868031942749 ], [ 0.916195278366268, 48.689488251004931 ], [ 0.915455798605564, 48.691136223869442 ], [ 0.914847985946774, 48.692807431051449 ], [ 0.914373506362147, 48.694497289799628 ], [ 0.914033660367245, 48.696201166680062 ], [ 0.913829379456316, 48.697914390294159 ], [ 0.913761223549138, 48.699632264095733 ], [ 0.913829379456316, 48.701350079271741 ], [ 0.914033660367245, 48.703063127651447 ], [ 0.914373506362147, 48.704766714608567 ], [ 0.914847985946774, 48.706456171920998 ], [ 0.915455798605564, 48.708126870552995 ], [ 0.916195278366268, 48.709774233325057 ], [ 0.917064398366263, 48.711393747436638 ], [ 0.91806077640804, 48.712980976808076 ], [ 0.919181681488645, 48.714531574207747 ], [ 0.920424041285164, 48.716041293131937 ], [ 0.921784450575751, 48.717505999405034 ], [ 0.9232591805731, 48.718921682468682 ], [ 0.924844189144797, 48.720284466329566 ], [ 0.92653513189252, 48.721590620136183 ], [ 0.928327374059732, 48.722836568356136 ], [ 0.93021600323523, 48.72401890052663 ], [ 0.932195842817722, 48.725134380552028 ], [ 0.934261466204529, 48.726179955523328 ], [ 0.936407211665526, 48.727152764036333 ], [ 0.938627197861556, 48.728050143985712 ], [ 0.940915339964763, 48.728869639814747 ], [ 0.94326536633669, 48.729609009200821 ], [ 0.945670835718399, 48.730266229159284 ], [ 0.948125154885518, 48.730839501549077 ], [ 0.950621596719806, 48.731327257965731 ], [ 0.953153318647722, 48.731728164008494 ], [ 0.955713381395439, 48.732041122910424 ], [ 0.958294768008914, 48.732265278521631 ], [ 0.960890403086868, 48.732400017637886 ], [ 0.963493172173973, 48.732444971668336 ], [ 0.966095941261079, 48.732400017637886 ], [ 0.968691576339033, 48.732265278521631 ], [ 0.971272962952508, 48.732041122910424 ], [ 0.973833025700225, 48.731728164008494 ], [ 0.976364747628141, 48.731327257965731 ], [ 0.978861189462429, 48.730839501549077 ], [ 0.981315508629548, 48.730266229159284 ], [ 0.983720978011257, 48.729609009200821 ], [ 0.986071004383184, 48.728869639814747 ], [ 0.988359146486391, 48.728050143985712 ], [ 0.990579132682421, 48.727152764036333 ], [ 0.992724878143419, 48.726179955523328 ], [ 0.994790501530225, 48.725134380552028 ], [ 0.996770341112717, 48.72401890052663 ], [ 0.998658970288215, 48.722836568356136 ], [ 1.000451212455427, 48.721590620136183 ], [ 1.00214215520315, 48.720284466329566 ], [ 1.003727163774847, 48.718921682468682 ], [ 1.005201893772197, 48.717505999405034 ], [ 1.006562303062783, 48.716041293131937 ], [ 1.007804662859302, 48.714531574207747 ], [ 1.008925567939907, 48.712980976808076 ], [ 1.009921945981684, 48.711393747436638 ], [ 1.010791065981679, 48.709774233325057 ], [ 1.011530545742383, 48.708126870552995 ], [ 1.012138358401173, 48.706456171920998 ], [ 1.012612837985799, 48.704766714608567 ], [ 1.012952683980702, 48.703063127651447 ], [ 1.013156964891631, 48.701350079271741 ], [ 1.013225120798809, 48.699632264095733 ] ] ] } },
{ "type": "Feature", "properties": { "name": "Rueil-la-Gadelière", "feature_type": "mrr", "metric_roundness": 45.64, "metric_rectangularity": 62.67, "metric_mobile_fit": 25.07, "metric_aspect_ratio": 1.312, "metric_area_km2": 43.92 }, "geometry": { "type": "Polygon", "coordinates": [ [ [ 0.913098737361902, 48.705915627067313 ], [ 0.983174636867386, 48.734107429724737 ], [ 1.01905082392613, 48.695288588410278 ], [ 0.948974924420646, 48.66707502926522 ], [ 0.913098737361902, 48.705915627067313 ] ] ] } }
]
}
