{
"type": "FeatureCollection",
"name": "ruffey_les_beaune",
"crs": { "type": "name", "properties": { "name": "urn:ogc:def:crs:OGC:1.3:CRS84" } },
"features": [
{ "type": "Feature", "properties": { "name": "Ruffey-lès-Beaune", "metric_roundness": 60.54, "metric_rectangularity": 66.82, "metric_mobile_fit": 63.43, "metric_aspect_ratio": 0.928, "metric_area_km2": 33.65 }, "geometry": { "type": "Polygon", "coordinates": [ [ [ 4.9176745, 46.998568 ], [ 4.9362885, 46.9998585 ], [ 4.9330788, 47.0044511 ], [ 4.9406658, 47.0100955 ], [ 4.9384638, 47.016033199999988 ], [ 4.9560165, 47.0280785 ], [ 4.9416405, 47.043797 ], [ 4.921157, 47.040884 ], [ 4.8956145, 47.0409155 ], [ 4.9046321, 47.028218799999983 ], [ 4.8982425, 47.020908699999985 ], [ 4.9036307, 47.0180546 ], [ 4.9037883, 47.013464399999989 ], [ 4.896649, 47.010252 ], [ 4.894508, 47.005979 ], [ 4.8944325, 47.003633 ], [ 4.9176745, 46.998568 ] ] ] } }
]
}
