{
"type": "FeatureCollection",
"name": "rugvica",
"crs": { "type": "name", "properties": { "name": "urn:ogc:def:crs:OGC:1.3:CRS84" } },
"features": [
{ "type": "Feature", "properties": { "name": "Rugvica", "metric_roundness": 32.0, "metric_rectangularity": 44.42, "metric_mobile_fit": 49.02, "metric_aspect_ratio": 1.072, "metric_area_km2": 192.07 }, "geometry": { "type": "Polygon", "coordinates": [ [ [ 16.1980348, 45.7781246 ], [ 16.1621083, 45.7933557 ], [ 16.1312663, 45.8003916 ], [ 16.123613, 45.7875405 ], [ 16.1346461, 45.7833804 ], [ 16.1503949, 45.7694456 ], [ 16.1533439, 45.763728 ], [ 16.1810942, 45.7481292 ], [ 16.1969019, 45.749313599999986 ], [ 16.2016539, 45.7525002 ], [ 16.2159345, 45.7461224 ], [ 16.226339, 45.748058 ], [ 16.2282054, 45.744628599999984 ], [ 16.22201, 45.736833 ], [ 16.2102397, 45.722391799999983 ], [ 16.2272471, 45.708234099999984 ], [ 16.2276457, 45.6945197 ], [ 16.2466628, 45.6894172 ], [ 16.2479403, 45.668739699999982 ], [ 16.2644638, 45.66699389999998 ], [ 16.286593, 45.672112 ], [ 16.3033064, 45.6753301 ], [ 16.3041468, 45.6792726 ], [ 16.2753059, 45.711184599999989 ], [ 16.2915612, 45.7165512 ], [ 16.2933305, 45.722194899999984 ], [ 16.3039794, 45.723799599999985 ], [ 16.3159524, 45.732377 ], [ 16.3243405, 45.742999 ], [ 16.3285439, 45.753048299999975 ], [ 16.327679, 45.765016 ], [ 16.3051736, 45.766006399999981 ], [ 16.2907913, 45.7624017 ], [ 16.2777349, 45.7658798 ], [ 16.2695327, 45.7642837 ], [ 16.2668588, 45.769249299999984 ], [ 16.2577939, 45.7748657 ], [ 16.2536466, 45.770141899999985 ], [ 16.2421552, 45.778788899999981 ], [ 16.2128929, 45.784306099999981 ], [ 16.199818, 45.796415499999974 ], [ 16.1980348, 45.7781246 ] ] ] } }
]
}
