{
"type": "FeatureCollection",
"name": "rungis",
"crs": { "type": "name", "properties": { "name": "urn:ogc:def:crs:OGC:1.3:CRS84" } },
"features": [
{ "type": "Feature", "properties": { "name": "Rungis", "metric_roundness": 60.97, "metric_rectangularity": 69.93, "metric_mobile_fit": 39.54, "metric_aspect_ratio": 1.167, "metric_area_km2": 9.85 }, "geometry": { "type": "Polygon", "coordinates": [ [ [ 2.3399531, 48.741558499999989 ], [ 2.3539535, 48.738659 ], [ 2.3639743, 48.7456901 ], [ 2.3693515, 48.746067499999981 ], [ 2.368621, 48.757461 ], [ 2.3558531, 48.760468899999985 ], [ 2.3463443, 48.7593775 ], [ 2.3438905, 48.756204499999981 ], [ 2.3366336, 48.7486681 ], [ 2.330748, 48.748103 ], [ 2.3399531, 48.741558499999989 ] ] ] } }
]
}
