{
"type": "FeatureCollection",
"name": "lodeve",
"crs": { "type": "name", "properties": { "name": "urn:ogc:def:crs:OGC:1.3:CRS84" } },
"features": [
{ "type": "Feature", "properties": { "name": "Lodève", "feature_type": "entity", "metric_roundness": 36.62, "metric_rectangularity": 42.28, "metric_mobile_fit": 62.47, "metric_aspect_ratio": 0.938, "metric_area_km2": 45.2 }, "geometry": { "type": "Polygon", "coordinates": [ [ [ 3.3420835, 43.699082 ], [ 3.3328635, 43.7189335 ], [ 3.3394352, 43.7314663 ], [ 3.3322253, 43.735548399999985 ], [ 3.3298885, 43.7428765 ], [ 3.3288819, 43.7468583 ], [ 3.3410701, 43.7539949 ], [ 3.340543, 43.758731499999982 ], [ 3.3296715, 43.761888499999984 ], [ 3.3139225, 43.763560499999983 ], [ 3.306512, 43.7552035 ], [ 3.305477, 43.752695 ], [ 3.2942752, 43.736992699999988 ], [ 3.2852559, 43.7399373 ], [ 3.2816211, 43.7356469 ], [ 3.2631595, 43.7353932 ], [ 3.2524495, 43.731931499999988 ], [ 3.252536, 43.7296385 ], [ 3.2547455, 43.7236785 ], [ 3.2536595, 43.7215755 ], [ 3.2539355, 43.719496 ], [ 3.252113, 43.71643 ], [ 3.2554975, 43.714206499999982 ], [ 3.257726, 43.713791 ], [ 3.2609965, 43.7113565 ], [ 3.2676013, 43.713714 ], [ 3.2717831, 43.7187905 ], [ 3.2768035, 43.713547 ], [ 3.292487, 43.7179581 ], [ 3.2952378, 43.729894 ], [ 3.3007496, 43.7314588 ], [ 3.3053409, 43.727554 ], [ 3.3060241, 43.7190963 ], [ 3.3210812, 43.7175838 ], [ 3.3143652, 43.7090085 ], [ 3.329207, 43.700324 ], [ 3.3305915, 43.69801 ], [ 3.3394345, 43.69641 ], [ 3.341732, 43.694233 ], [ 3.3420835, 43.699082 ] ] ] } },
{ "type": "Feature", "properties": { "name": "Lodève", "feature_type": "circle", "metric_roundness": 36.62, "metric_rectangularity": 42.28, "metric_mobile_fit": 62.47, "metric_aspect_ratio": 0.938, "metric_area_km2": 45.2 }, "geometry": { "type": "Polygon", "coordinates": [ [ [ 3.363111271265607, 43.726160324849801 ], [ 3.363034092582938, 43.724030390570576 ], [ 3.362802768076333, 43.721906218872903 ], [ 3.362417931790189, 43.719793632893868 ], [ 3.361880638534013, 43.717698424623386 ], [ 3.361192360991276, 43.715626339012019 ], [ 3.36035498568288, 43.713583058201046 ], [ 3.35937080779634, 43.71157418591855 ], [ 3.358242524894834, 43.709605232084563 ], [ 3.35697322952337, 43.707681597667722 ], [ 3.355566400732331, 43.705808559835575 ], [ 3.354025894541647, 43.703991257439597 ], [ 3.352355933371709, 43.702234676875328 ], [ 3.350561094470004, 43.700543638357033 ], [ 3.348646297365205, 43.698922782644956 ], [ 3.34661679038308, 43.697376558262533 ], [ 3.344478136261197, 43.695909209238856 ], [ 3.342236196901849, 43.694524763411138 ], [ 3.339897117304985, 43.693227021319629 ], [ 3.337467308725192, 43.692019545726311 ], [ 3.334953431098893, 43.690905651786672 ], [ 3.332362374789925, 43.689888397902351 ], [ 3.329701241703527, 43.68897057728023 ], [ 3.326977325820518, 43.688154710221845 ], [ 3.324198093204995, 43.687443037164812 ], [ 3.321371161540376, 43.686837512495877 ], [ 3.318504279249855, 43.686339799153139 ], [ 3.315605304258516, 43.685951264032589 ], [ 3.312682182455305, 43.685672974211926 ], [ 3.309742925913901, 43.685505694002494 ], [ 3.30679559093218, 43.685449882837482 ], [ 3.303848255950458, 43.685505694002494 ], [ 3.300908999409054, 43.685672974211926 ], [ 3.297985877605843, 43.685951264032589 ], [ 3.295086902614504, 43.686339799153139 ], [ 3.292220020323983, 43.686837512495877 ], [ 3.289393088659364, 43.687443037164812 ], [ 3.28661385604384, 43.688154710221845 ], [ 3.283889940160831, 43.68897057728023 ], [ 3.281228807074434, 43.689888397902351 ], [ 3.278637750765466, 43.690905651786672 ], [ 3.276123873139167, 43.692019545726311 ], [ 3.273694064559374, 43.693227021319629 ], [ 3.271354984962509, 43.694524763411138 ], [ 3.269113045603162, 43.695909209238856 ], [ 3.266974391481279, 43.697376558262533 ], [ 3.264944884499154, 43.698922782644956 ], [ 3.263030087394355, 43.700543638357033 ], [ 3.26123524849265, 43.702234676875328 ], [ 3.259565287322711, 43.703991257439597 ], [ 3.258024781132028, 43.705808559835575 ], [ 3.256617952340989, 43.707681597667722 ], [ 3.255348656969524, 43.709605232084563 ], [ 3.254220374068018, 43.71157418591855 ], [ 3.253236196181479, 43.713583058201046 ], [ 3.252398820873083, 43.715626339012019 ], [ 3.251710543330346, 43.717698424623386 ], [ 3.25117325007417, 43.719793632893868 ], [ 3.250788413788026, 43.721906218872903 ], [ 3.250557089281422, 43.724030390570576 ], [ 3.250479910598752, 43.726160324849801 ], [ 3.250557089281422, 43.728290183397483 ], [ 3.250788413788026, 43.73041412873021 ], [ 3.25117325007417, 43.732526340191022 ], [ 3.251710543330346, 43.734621029893297 ], [ 3.252398820873083, 43.736692458568022 ], [ 3.253236196181479, 43.738734951271475 ], [ 3.254220374068018, 43.740742912910214 ], [ 3.255348656969524, 43.742710843541431 ], [ 3.256617952340989, 43.744633353406911 ], [ 3.258024781132028, 43.746505177659934 ], [ 3.259565287322711, 43.748321190745266 ], [ 3.26123524849265, 43.750076420393313 ], [ 3.263030087394355, 43.751766061190743 ], [ 3.264944884499154, 43.75338548769102 ], [ 3.266974391481279, 43.754930267029472 ], [ 3.269113045603162, 43.7563961710092 ], [ 3.271354984962509, 43.757779187625204 ], [ 3.273694064559374, 43.759075531995961 ], [ 3.276123873139167, 43.760281656673236 ], [ 3.278637750765466, 43.761394261302421 ], [ 3.281228807074434, 43.762410301607851 ], [ 3.283889940160831, 43.763326997678853 ], [ 3.28661385604384, 43.764141841534716 ], [ 3.289393088659364, 43.764852603948242 ], [ 3.292220020323983, 43.765457340509869 ], [ 3.295086902614504, 43.765954396916158 ], [ 3.297985877605843, 43.766342413468678 ], [ 3.300908999409054, 43.766620328771246 ], [ 3.303848255950458, 43.766787382615817 ], [ 3.30679559093218, 43.766843118049287 ], [ 3.309742925913901, 43.766787382615817 ], [ 3.312682182455305, 43.766620328771246 ], [ 3.315605304258516, 43.766342413468678 ], [ 3.318504279249855, 43.765954396916158 ], [ 3.321371161540376, 43.765457340509869 ], [ 3.324198093204995, 43.764852603948242 ], [ 3.326977325820518, 43.764141841534716 ], [ 3.329701241703527, 43.763326997678853 ], [ 3.332362374789925, 43.762410301607851 ], [ 3.334953431098893, 43.761394261302421 ], [ 3.337467308725192, 43.760281656673236 ], [ 3.339897117304985, 43.759075531995961 ], [ 3.342236196901849, 43.757779187625204 ], [ 3.344478136261197, 43.7563961710092 ], [ 3.34661679038308, 43.754930267029472 ], [ 3.348646297365205, 43.75338548769102 ], [ 3.350561094470004, 43.751766061190743 ], [ 3.352355933371709, 43.750076420393313 ], [ 3.354025894541647, 43.748321190745266 ], [ 3.355566400732331, 43.746505177659934 ], [ 3.35697322952337, 43.744633353406911 ], [ 3.358242524894834, 43.742710843541431 ], [ 3.35937080779634, 43.740742912910214 ], [ 3.36035498568288, 43.738734951271475 ], [ 3.361192360991276, 43.736692458568022 ], [ 3.361880638534013, 43.734621029893297 ], [ 3.362417931790188, 43.732526340191022 ], [ 3.362802768076333, 43.73041412873021 ], [ 3.363034092582938, 43.728290183397483 ], [ 3.363111271265607, 43.726160324849801 ] ] ] } },
{ "type": "Feature", "properties": { "name": "Lodève", "feature_type": "mrr", "metric_roundness": 36.62, "metric_rectangularity": 42.28, "metric_mobile_fit": 62.47, "metric_aspect_ratio": 0.938, "metric_area_km2": 45.2 }, "geometry": { "type": "Polygon", "coordinates": [ [ [ 3.251653476737545, 43.695254721982472 ], [ 3.25315131499663, 43.764249006094538 ], [ 3.343476066026567, 43.76322567113484 ], [ 3.341978227767483, 43.694230207540123 ], [ 3.251653476737545, 43.695254721982472 ] ] ] } }
]
}
