{
"type": "FeatureCollection",
"name": "longone_al_segrino",
"crs": { "type": "name", "properties": { "name": "urn:ogc:def:crs:OGC:1.3:CRS84" } },
"features": [
{ "type": "Feature", "properties": { "name": "Longone al Segrino", "feature_type": "entity", "metric_roundness": 19.42, "metric_rectangularity": 46.35, "metric_mobile_fit": 81.95, "metric_aspect_ratio": 0.743, "metric_area_km2": 3.46 }, "geometry": { "type": "Polygon", "coordinates": [ [ [ 9.2453992, 45.813878699999989 ], [ 9.2547265, 45.810937 ], [ 9.2580807, 45.821830899999981 ], [ 9.2728775, 45.83671 ], [ 9.268146, 45.836687 ], [ 9.256593, 45.8259982 ], [ 9.246189, 45.821734 ], [ 9.2453992, 45.813878699999989 ] ] ] } },
{ "type": "Feature", "properties": { "name": "Longone al Segrino", "feature_type": "circle", "metric_roundness": 19.42, "metric_rectangularity": 46.35, "metric_mobile_fit": 81.95, "metric_aspect_ratio": 0.743, "metric_area_km2": 3.46 }, "geometry": { "type": "Polygon", "coordinates": [ [ [ 9.280518911368794, 45.825295520473659 ], [ 9.280489610052509, 45.824515760937224 ], [ 9.28040178641653, 45.823738127790257 ], [ 9.280255681179336, 45.82296475260523 ], [ 9.280051694805227, 45.822197755371647 ], [ 9.279790386406676, 45.821439238682792 ], [ 9.27947247221184, 45.820691281969374 ], [ 9.279098823601428, 45.819955935795619 ], [ 9.27867046472031, 45.819235216233743 ], [ 9.278188569670405, 45.818531099332127 ], [ 9.277654459292549, 45.817845515692433 ], [ 9.277069597546157, 45.817180345170705 ], [ 9.27643558749663, 45.816537411716915 ], [ 9.275754166921441, 45.815918478367252 ], [ 9.275027203547021, 45.815325242403041 ], [ 9.27425668992945, 45.814759330689498 ], [ 9.273444737992993, 45.814222295207365 ], [ 9.272593573241474, 45.813715608789622 ], [ 9.271705528658311, 45.813240661075206 ], [ 9.270783038311979, 45.812798754690824 ], [ 9.269828630684396, 45.812391101671473 ], [ 9.268844921740529, 45.812018820129516 ], [ 9.267834607758219, 45.811682931181757 ], [ 9.266800457937862, 45.811384356142639 ], [ 9.265745306812233, 45.811123913991757 ], [ 9.264672046477227, 45.810902319122427 ], [ 9.263583618664818, 45.810720179377668 ], [ 9.262483006679986, 45.810577994379045 ], [ 9.261373227223677, 45.810476154152951 ], [ 9.260257322124245, 45.810414938058258 ], [ 9.25913835, 45.810394514018114 ], [ 9.258019377875751, 45.810414938058258 ], [ 9.256903472776319, 45.810476154152951 ], [ 9.255793693320012, 45.810577994379045 ], [ 9.25469308133518, 45.810720179377668 ], [ 9.253604653522771, 45.810902319122427 ], [ 9.252531393187764, 45.811123913991757 ], [ 9.251476242062134, 45.811384356142639 ], [ 9.250442092241778, 45.811682931181757 ], [ 9.249431778259467, 45.812018820129516 ], [ 9.2484480693156, 45.812391101671473 ], [ 9.247493661688019, 45.812798754690824 ], [ 9.246571171341687, 45.813240661075206 ], [ 9.245683126758522, 45.813715608789622 ], [ 9.244831962007003, 45.814222295207365 ], [ 9.244020010070548, 45.814759330689498 ], [ 9.243249496452975, 45.815325242403041 ], [ 9.242522533078557, 45.815918478367252 ], [ 9.241841112503367, 45.816537411716915 ], [ 9.24120710245384, 45.817180345170705 ], [ 9.240622240707449, 45.817845515692433 ], [ 9.240088130329593, 45.818531099332127 ], [ 9.239606235279687, 45.819235216233743 ], [ 9.239177876398569, 45.819955935795619 ], [ 9.238804227788156, 45.820691281969374 ], [ 9.23848631359332, 45.821439238682792 ], [ 9.238225005194769, 45.822197755371647 ], [ 9.23802101882066, 45.82296475260523 ], [ 9.237874913583468, 45.823738127790257 ], [ 9.237787089947487, 45.824515760937224 ], [ 9.237757788631203, 45.825295520473659 ], [ 9.237787089947487, 45.826075269088008 ], [ 9.237874913583468, 45.826852869588379 ], [ 9.23802101882066, 45.827626190759972 ], [ 9.238225005194769, 45.828393113205088 ], [ 9.23848631359332, 45.829151535149805 ], [ 9.238804227788156, 45.82989937820151 ], [ 9.239177876398569, 45.830634593041218 ], [ 9.239606235279687, 45.83135516503566 ], [ 9.240088130329593, 45.832059119753254 ], [ 9.240622240707449, 45.832744528369233 ], [ 9.24120710245384, 45.833409512945153 ], [ 9.241841112503367, 45.834052251568316 ], [ 9.242522533078557, 45.834670983337126 ], [ 9.243249496452975, 45.835264013178822 ], [ 9.244020010070548, 45.835829716486515 ], [ 9.244831962007003, 45.836366543562804 ], [ 9.245683126758522, 45.836873023858033 ], [ 9.246571171341687, 45.837347769991602 ], [ 9.247493661688019, 45.837789481545364 ], [ 9.2484480693156, 45.838196948618915 ], [ 9.249431778259467, 45.838569055137157 ], [ 9.250442092241778, 45.838904781900879 ], [ 9.251476242062134, 45.839203209372585 ], [ 9.252531393187764, 45.839463520189426 ], [ 9.253604653522771, 45.839685001397029 ], [ 9.25469308133518, 45.839867046397671 ], [ 9.255793693320012, 45.840009156607827 ], [ 9.256903472776319, 45.840110942820488 ], [ 9.258019377875751, 45.840172126268584 ], [ 9.25913835, 45.840192539386642 ], [ 9.260257322124245, 45.840172126268584 ], [ 9.261373227223677, 45.840110942820488 ], [ 9.262483006679986, 45.840009156607827 ], [ 9.263583618664818, 45.839867046397671 ], [ 9.264672046477227, 45.839685001397029 ], [ 9.265745306812233, 45.839463520189426 ], [ 9.266800457937862, 45.839203209372585 ], [ 9.267834607758219, 45.838904781900879 ], [ 9.268844921740529, 45.838569055137157 ], [ 9.269828630684396, 45.838196948618915 ], [ 9.270783038311979, 45.837789481545364 ], [ 9.271705528658311, 45.837347769991602 ], [ 9.272593573241474, 45.836873023858033 ], [ 9.273444737992993, 45.836366543562804 ], [ 9.27425668992945, 45.835829716486515 ], [ 9.275027203547021, 45.835264013178822 ], [ 9.275754166921441, 45.834670983337126 ], [ 9.27643558749663, 45.834052251568316 ], [ 9.277069597546157, 45.833409512945153 ], [ 9.277654459292549, 45.832744528369233 ], [ 9.278188569670405, 45.832059119753254 ], [ 9.27867046472031, 45.83135516503566 ], [ 9.279098823601428, 45.830634593041218 ], [ 9.27947247221184, 45.82989937820151 ], [ 9.279790386406676, 45.829151535149805 ], [ 9.280051694805227, 45.828393113205088 ], [ 9.280255681179336, 45.827626190759972 ], [ 9.28040178641653, 45.826852869588379 ], [ 9.280489610052509, 45.826075269088008 ], [ 9.280518911368794, 45.825295520473659 ] ] ] } },
{ "type": "Feature", "properties": { "name": "Longone al Segrino", "feature_type": "mrr", "metric_roundness": 19.42, "metric_rectangularity": 46.35, "metric_mobile_fit": 81.95, "metric_aspect_ratio": 0.743, "metric_area_km2": 3.46 }, "geometry": { "type": "Polygon", "coordinates": [ [ [ 9.2728775, 45.83671 ], [ 9.254585230707823, 45.810736361029043 ], [ 9.241577822451834, 45.815185856849382 ], [ 9.259870092176188, 45.841157420087285 ], [ 9.2728775, 45.83671 ] ] ] } }
]
}
