{
"type": "FeatureCollection",
"name": "losne",
"crs": { "type": "name", "properties": { "name": "urn:ogc:def:crs:OGC:1.3:CRS84" } },
"features": [
{ "type": "Feature", "properties": { "name": "Losne", "metric_roundness": 49.13, "metric_rectangularity": 60.19, "metric_mobile_fit": 10.54, "metric_aspect_ratio": 1.457, "metric_area_km2": 49.46 }, "geometry": { "type": "Polygon", "coordinates": [ [ [ 5.268145, 47.0580621 ], [ 5.2757928, 47.0662385 ], [ 5.2934897, 47.0650511 ], [ 5.30189, 47.060906499999987 ], [ 5.3052853, 47.062053799999987 ], [ 5.3106578, 47.0588239 ], [ 5.3222578, 47.072654299999989 ], [ 5.3325385, 47.076586499999983 ], [ 5.3147773, 47.0850285 ], [ 5.2927992, 47.0902703 ], [ 5.280894, 47.102046 ], [ 5.2759155, 47.101408 ], [ 5.2683286, 47.0982391 ], [ 5.2595477, 47.100470299999984 ], [ 5.2533125, 47.099102 ], [ 5.2498185, 47.096670499999981 ], [ 5.2441405, 47.094068 ], [ 5.241548, 47.0899925 ], [ 5.2414715, 47.0885995 ], [ 5.24253, 47.086232 ], [ 5.24448, 47.084517 ], [ 5.244739, 47.083206 ], [ 5.243695, 47.082197 ], [ 5.2422255, 47.081829 ], [ 5.241668, 47.078827 ], [ 5.2421235, 47.077510499999981 ], [ 5.2416265, 47.076848499999983 ], [ 5.2423755, 47.0753225 ], [ 5.2410345, 47.074018 ], [ 5.2396305, 47.0737625 ], [ 5.237875, 47.070821499999987 ], [ 5.235841, 47.069747 ], [ 5.235709, 47.0685355 ], [ 5.234665, 47.067481 ], [ 5.233265, 47.067202 ], [ 5.2328125, 47.0661325 ], [ 5.232506, 47.064114499999981 ], [ 5.2367045, 47.062569 ], [ 5.236484, 47.0596935 ], [ 5.2372755, 47.058504 ], [ 5.239603, 47.0564645 ], [ 5.2431615, 47.055294 ], [ 5.2464055, 47.056832499999977 ], [ 5.247783, 47.0567075 ], [ 5.2513445, 47.0580125 ], [ 5.2573285, 47.0566455 ], [ 5.2595477, 47.057258499999989 ], [ 5.268145, 47.0580621 ] ] ] } }
]
}
