{
"type": "FeatureCollection",
"name": "louatre",
"crs": { "type": "name", "properties": { "name": "urn:ogc:def:crs:OGC:1.3:CRS84" } },
"features": [
{ "type": "Feature", "properties": { "name": "Louâtre", "feature_type": "entity", "metric_roundness": 53.19, "metric_rectangularity": 59.44, "metric_mobile_fit": 67.3, "metric_aspect_ratio": 0.889, "metric_area_km2": 25.6 }, "geometry": { "type": "Polygon", "coordinates": [ [ [ 3.2154985, 49.2428125 ], [ 3.2352522, 49.241838499999986 ], [ 3.2417658, 49.235277399999987 ], [ 3.2644885, 49.2366655 ], [ 3.272158, 49.246409 ], [ 3.247981, 49.2635677 ], [ 3.242937, 49.278251 ], [ 3.238521, 49.277026 ], [ 3.2350885, 49.2745795 ], [ 3.236147, 49.272640499999987 ], [ 3.2312125, 49.272094499999987 ], [ 3.2298125, 49.270533 ], [ 3.2254825, 49.2702505 ], [ 3.223212, 49.266808 ], [ 3.2202595, 49.26674 ], [ 3.219895, 49.261522 ], [ 3.2206094, 49.254803299999985 ], [ 3.2135925, 49.2437245 ], [ 3.2154985, 49.2428125 ] ] ] } },
{ "type": "Feature", "properties": { "name": "Louâtre", "feature_type": "circle", "metric_roundness": 53.19, "metric_rectangularity": 59.44, "metric_mobile_fit": 67.3, "metric_aspect_ratio": 0.889, "metric_area_km2": 25.6 }, "geometry": { "type": "Polygon", "coordinates": [ [ [ 3.279131375340272, 49.25530939458308 ], [ 3.279083172841565, 49.254107922641509 ], [ 3.278938697465141, 49.252909714726613 ], [ 3.278698345207967, 49.251718055401881 ], [ 3.278362774858871, 49.250536211516575 ], [ 3.277932906192856, 49.24936742324504 ], [ 3.277409917450055, 49.248214895196568 ], [ 3.276795242106259, 49.247081787620409 ], [ 3.276090564943861, 49.245971207730044 ], [ 3.275297817433982, 49.244886201170679 ], [ 3.274419172442441, 49.243829743653606 ], [ 3.273457038274088, 49.242804732780385 ], [ 3.272414052071801, 49.241813980079705 ], [ 3.271293072588263, 49.240860203278714 ], [ 3.27009717235032, 49.239946018830459 ], [ 3.268829629237398, 49.239073934718085 ], [ 3.267493917497065, 49.238246343555744 ], [ 3.266093698222355, 49.237465516005585 ], [ 3.264632809316974, 49.236733594528808 ], [ 3.263115254975865, 49.23605258748853 ], [ 3.261545194709994, 49.235424363620709 ], [ 3.259926931945416, 49.234850646888589 ], [ 3.258264902227884, 49.234333011735011 ], [ 3.256563661065328, 49.233872878745899 ], [ 3.254827871441523, 49.233471510736955 ], [ 3.253062291035174, 49.233130009274603 ], [ 3.251271759179452, 49.232849311640862 ], [ 3.249461183597713, 49.232630188250582 ], [ 3.247635526951777, 49.232473240528385 ], [ 3.24579979323961, 49.232378899251209 ], [ 3.243959014079716, 49.23234742336102 ], [ 3.242118234919823, 49.232378899251209 ], [ 3.240282501207655, 49.232473240528385 ], [ 3.23845684456172, 49.232630188250582 ], [ 3.236646268979981, 49.232849311640862 ], [ 3.234855737124259, 49.233130009274603 ], [ 3.23309015671791, 49.233471510736955 ], [ 3.231354367094105, 49.233872878745899 ], [ 3.229653125931549, 49.234333011735011 ], [ 3.227991096214017, 49.234850646888589 ], [ 3.226372833449439, 49.235424363620709 ], [ 3.224802773183568, 49.23605258748853 ], [ 3.223285218842459, 49.236733594528808 ], [ 3.221824329937078, 49.237465516005585 ], [ 3.220424110662368, 49.238246343555744 ], [ 3.219088398922035, 49.239073934718085 ], [ 3.217820855809113, 49.239946018830459 ], [ 3.21662495557117, 49.240860203278714 ], [ 3.215503976087632, 49.241813980079705 ], [ 3.214460989885345, 49.242804732780385 ], [ 3.213498855716992, 49.243829743653606 ], [ 3.212620210725452, 49.244886201170679 ], [ 3.211827463215572, 49.245971207730044 ], [ 3.211122786053174, 49.247081787620409 ], [ 3.210508110709378, 49.248214895196568 ], [ 3.209985121966577, 49.24936742324504 ], [ 3.209555253300562, 49.250536211516575 ], [ 3.209219682951466, 49.251718055401881 ], [ 3.208979330694292, 49.252909714726613 ], [ 3.208834855317868, 49.254107922641509 ], [ 3.208786652819161, 49.25530939458308 ], [ 3.208834855317868, 49.256510837280302 ], [ 3.208979330694292, 49.257708957782555 ], [ 3.209219682951466, 49.258900472484065 ], [ 3.209555253300562, 49.260082116120081 ], [ 3.209985121966577, 49.261250650710259 ], [ 3.210508110709378, 49.262402874424659 ], [ 3.211122786053174, 49.2635356303484 ], [ 3.211827463215572, 49.26464581512078 ], [ 3.212620210725452, 49.26573038742557 ], [ 3.213498855716992, 49.266786376309305 ], [ 3.214460989885345, 49.267810889304812 ], [ 3.215503976087632, 49.268801120338281 ], [ 3.21662495557117, 49.269754357398078 ], [ 3.217820855809113, 49.270667989944656 ], [ 3.219088398922035, 49.271539516041628 ], [ 3.220424110662368, 49.272366549188554 ], [ 3.221824329937078, 49.273146824837035 ], [ 3.223285218842459, 49.273878206572633 ], [ 3.224802773183568, 49.274558691945728 ], [ 3.226372833449439, 49.275186417935871 ], [ 3.227991096214017, 49.275759666034652 ], [ 3.229653125931549, 49.276276866933685 ], [ 3.231354367094105, 49.276736604804839 ], [ 3.23309015671791, 49.277137621161394 ], [ 3.234855737124259, 49.277478818289701 ], [ 3.236646268979981, 49.2777592622421 ], [ 3.23845684456172, 49.277978185383112 ], [ 3.240282501207655, 49.278134988482101 ], [ 3.242118234919823, 49.278229242346654 ], [ 3.243959014079716, 49.278260688992489 ], [ 3.24579979323961, 49.278229242346654 ], [ 3.247635526951777, 49.278134988482101 ], [ 3.249461183597713, 49.277978185383112 ], [ 3.251271759179452, 49.2777592622421 ], [ 3.253062291035174, 49.277478818289701 ], [ 3.254827871441523, 49.277137621161394 ], [ 3.256563661065328, 49.276736604804839 ], [ 3.258264902227884, 49.276276866933685 ], [ 3.259926931945416, 49.275759666034652 ], [ 3.261545194709994, 49.275186417935871 ], [ 3.263115254975865, 49.274558691945728 ], [ 3.264632809316974, 49.273878206572633 ], [ 3.266093698222355, 49.273146824837035 ], [ 3.267493917497064, 49.272366549188554 ], [ 3.268829629237398, 49.271539516041628 ], [ 3.27009717235032, 49.270667989944656 ], [ 3.271293072588263, 49.269754357398078 ], [ 3.272414052071801, 49.268801120338281 ], [ 3.273457038274088, 49.267810889304812 ], [ 3.274419172442441, 49.266786376309305 ], [ 3.275297817433981, 49.26573038742557 ], [ 3.276090564943861, 49.26464581512078 ], [ 3.276795242106259, 49.2635356303484 ], [ 3.277409917450055, 49.262402874424659 ], [ 3.277932906192856, 49.261250650710259 ], [ 3.278362774858871, 49.260082116120081 ], [ 3.278698345207967, 49.258900472484065 ], [ 3.278938697465141, 49.257708957782555 ], [ 3.279083172841565, 49.256510837280302 ], [ 3.279131375340272, 49.25530939458308 ] ] ] } },
{ "type": "Feature", "properties": { "name": "Louâtre", "feature_type": "mrr", "metric_roundness": 53.19, "metric_rectangularity": 59.44, "metric_mobile_fit": 67.3, "metric_aspect_ratio": 0.889, "metric_area_km2": 25.6 }, "geometry": { "type": "Polygon", "coordinates": [ [ [ 3.242598936163394, 49.27861926586894 ], [ 3.27671176334859, 49.24144493220507 ], [ 3.231793749018848, 49.223879211212726 ], [ 3.197680921833653, 49.261066769582115 ], [ 3.242598936163394, 49.27861926586894 ] ] ] } }
]
}
