{
"type": "FeatureCollection",
"name": "loubieres",
"crs": { "type": "name", "properties": { "name": "urn:ogc:def:crs:OGC:1.3:CRS84" } },
"features": [
{ "type": "Feature", "properties": { "name": "Loubières", "metric_roundness": 42.85, "metric_rectangularity": 80.66, "metric_mobile_fit": 34.78, "metric_aspect_ratio": 1.215, "metric_area_km2": 5.37 }, "geometry": { "type": "Polygon", "coordinates": [ [ [ 1.5808187, 43.008871 ], [ 1.585694, 43.0049443 ], [ 1.6082166, 43.000648499999983 ], [ 1.6098465, 43.0024935 ], [ 1.6070261, 43.0117412 ], [ 1.581682, 43.018334 ], [ 1.5804685, 43.0128815 ], [ 1.5808187, 43.008871 ] ] ] } }
]
}
