{
"type": "FeatureCollection",
"name": "louey",
"crs": { "type": "name", "properties": { "name": "urn:ogc:def:crs:OGC:1.3:CRS84" } },
"features": [
{ "type": "Feature", "properties": { "name": "Louey", "feature_type": "entity", "metric_roundness": 45.82, "metric_rectangularity": 70.81, "metric_mobile_fit": -5.66, "metric_aspect_ratio": 1.619, "metric_area_km2": 11.74 }, "geometry": { "type": "Polygon", "coordinates": [ [ [ 0.040339, 43.1724945 ], [ 0.040729, 43.178400499999981 ], [ 0.0444815, 43.181351 ], [ 0.0418, 43.184185 ], [ 0.041721, 43.1861605 ], [ 0.0397415, 43.184994499999988 ], [ 0.038101, 43.18762 ], [ 0.0356425, 43.187657 ], [ 0.0099782, 43.1868975 ], [ 0.0044002, 43.184003 ], [ -0.000549, 43.19101 ], [ -0.0055685, 43.1735985 ], [ 0.0190903, 43.172354 ], [ 0.0240065, 43.168468 ], [ 0.0259435, 43.169498 ], [ 0.03774, 43.171450499999985 ], [ 0.040339, 43.1724945 ] ] ] } },
{ "type": "Feature", "properties": { "name": "Louey", "feature_type": "circle", "metric_roundness": 45.82, "metric_rectangularity": 70.81, "metric_mobile_fit": -5.66, "metric_aspect_ratio": 1.619, "metric_area_km2": 11.74 }, "geometry": { "type": "Polygon", "coordinates": [ [ [ 0.044699315347307, 43.178918005871431 ], [ 0.044664144871288, 43.177938577431767 ], [ 0.044558729843062, 43.176961817891446 ], [ 0.044383359197892, 43.175990404673406 ], [ 0.044138513614529, 43.175027000672898 ], [ 0.043824864197696, 43.174074246955257 ], [ 0.043443270638645, 43.173134755512017 ], [ 0.042994778858795, 43.172211102095517 ], [ 0.042480618142942, 43.171305819151563 ], [ 0.041902197769868, 43.170421388869691 ], [ 0.041261103149611, 43.169560236370124 ], [ 0.040559091477963, 43.168724723046104 ], [ 0.039798086920119, 43.167917140080249 ], [ 0.038980175336676, 43.167139702152475 ], [ 0.038107598566432, 43.166394541357135 ], [ 0.037182748281662, 43.165683701346026 ], [ 0.036208159432711, 43.16500913171356 ], [ 0.035186503299871, 43.164372682639531 ], [ 0.034120580171588, 43.163776099804466 ], [ 0.033013311669065, 43.163221019591454 ], [ 0.031867732738301, 43.1627089645879 ], [ 0.030686983331519, 43.162241339399607 ], [ 0.029474299800769, 43.161819426788803 ], [ 0.028233006027316, 43.161444384146833 ], [ 0.026966504311113, 43.161117240311413 ], [ 0.025678266045329, 43.16083889273699 ], [ 0.024371822201508, 43.160610105026485 ], [ 0.023050753651414, 43.160431504830854 ], [ 0.021718681352118, 43.160303582122701 ], [ 0.020379256421201, 43.160226687848407 ], [ 0.019036150129295, 43.160201032962718 ], [ 0.01769304383739, 43.160226687848407 ], [ 0.016353618906472, 43.160303582122701 ], [ 0.015021546607176, 43.160431504830854 ], [ 0.013700478057083, 43.160610105026485 ], [ 0.012394034213261, 43.16083889273699 ], [ 0.011105795947477, 43.161117240311413 ], [ 0.009839294231274, 43.161444384146833 ], [ 0.008598000457821, 43.161819426788803 ], [ 0.007385316927071, 43.162241339399607 ], [ 0.006204567520289, 43.1627089645879 ], [ 0.005058988589526, 43.163221019591454 ], [ 0.003951720087002, 43.163776099804466 ], [ 0.002885796958719, 43.164372682639531 ], [ 0.001864140825879, 43.16500913171356 ], [ 0.000889551976928, 43.165683701346026 ], [ -0.000035298307842, 43.166394541357135 ], [ -0.000907875078086, 43.167139702152475 ], [ -0.001725786661529, 43.167917140080249 ], [ -0.002486791219372, 43.168724723046104 ], [ -0.003188802891021, 43.169560236370124 ], [ -0.003829897511278, 43.170421388869691 ], [ -0.004408317884351, 43.171305819151563 ], [ -0.004922478600205, 43.172211102095517 ], [ -0.005370970380054, 43.173134755512017 ], [ -0.005752563939106, 43.174074246955257 ], [ -0.006066213355939, 43.175027000672898 ], [ -0.006311058939302, 43.175990404673406 ], [ -0.006486429584471, 43.176961817891446 ], [ -0.006591844612698, 43.177938577431767 ], [ -0.006627015088717, 43.178918005871431 ], [ -0.006591844612698, 43.179897418600589 ], [ -0.006486429584471, 43.180874131181525 ], [ -0.006311058939302, 43.181845466705816 ], [ -0.006066213355939, 43.182808763129408 ], [ -0.005752563939106, 43.18376138056562 ], [ -0.005370970380054, 43.184700708516033 ], [ -0.004922478600205, 43.185624173019598 ], [ -0.004408317884351, 43.186529243700242 ], [ -0.003829897511278, 43.187413440694044 ], [ -0.003188802891021, 43.188274341436752 ], [ -0.002486791219372, 43.189109587293416 ], [ -0.001725786661529, 43.18991689001183 ], [ -0.000907875078086, 43.190694037982546 ], [ -0.000035298307842, 43.191438902288027 ], [ 0.000889551976928, 43.192149442524894 ], [ 0.001864140825879, 43.192823712383131 ], [ 0.002885796958719, 43.193459864967302 ], [ 0.003951720087002, 43.19405615784531 ], [ 0.005058988589526, 43.194610957810895 ], [ 0.006204567520289, 43.195122745347085 ], [ 0.007385316927071, 43.195590118778533 ], [ 0.008598000457821, 43.196011798101296 ], [ 0.009839294231274, 43.196386628479956 ], [ 0.011105795947477, 43.196713583402449 ], [ 0.012394034213261, 43.196991767484057 ], [ 0.013700478057083, 43.197220418913147 ], [ 0.015021546607176, 43.19739891153187 ], [ 0.016353618906472, 43.197526756546267 ], [ 0.01769304383739, 43.197603603861175 ], [ 0.019036150129295, 43.197629243036374 ], [ 0.0203792564212, 43.197603603861175 ], [ 0.021718681352118, 43.197526756546267 ], [ 0.023050753651414, 43.19739891153187 ], [ 0.024371822201508, 43.197220418913147 ], [ 0.025678266045329, 43.196991767484057 ], [ 0.026966504311113, 43.196713583402449 ], [ 0.028233006027316, 43.196386628479956 ], [ 0.029474299800769, 43.196011798101296 ], [ 0.030686983331519, 43.195590118778533 ], [ 0.031867732738301, 43.195122745347085 ], [ 0.033013311669065, 43.194610957810895 ], [ 0.034120580171588, 43.19405615784531 ], [ 0.035186503299871, 43.193459864967302 ], [ 0.036208159432711, 43.192823712383131 ], [ 0.037182748281662, 43.192149442524894 ], [ 0.038107598566432, 43.191438902288027 ], [ 0.038980175336676, 43.190694037982546 ], [ 0.039798086920119, 43.18991689001183 ], [ 0.040559091477963, 43.189109587293416 ], [ 0.041261103149611, 43.188274341436752 ], [ 0.041902197769868, 43.187413440694044 ], [ 0.042480618142942, 43.186529243700242 ], [ 0.042994778858795, 43.185624173019598 ], [ 0.043443270638645, 43.184700708516033 ], [ 0.043824864197696, 43.18376138056562 ], [ 0.044138513614529, 43.182808763129408 ], [ 0.044383359197892, 43.181845466705816 ], [ 0.044558729843062, 43.180874131181525 ], [ 0.044664144871288, 43.179897418600589 ], [ 0.044699315347307, 43.178918005871431 ] ] ] } },
{ "type": "Feature", "properties": { "name": "Louey", "feature_type": "mrr", "metric_roundness": 45.82, "metric_rectangularity": 70.81, "metric_mobile_fit": -5.66, "metric_aspect_ratio": 1.619, "metric_area_km2": 11.74 }, "geometry": { "type": "Polygon", "coordinates": [ [ [ -0.005733105597847, 43.173027436550534 ], [ 0.0001506017434, 43.193436364403823 ], [ 0.045942328938751, 43.186418150987059 ], [ 0.040058621597505, 43.166006876700692 ], [ -0.005733105597847, 43.173027436550534 ] ] ] } }
]
}
