{
"type": "FeatureCollection",
"name": "louzy",
"crs": { "type": "name", "properties": { "name": "urn:ogc:def:crs:OGC:1.3:CRS84" } },
"features": [
{ "type": "Feature", "properties": { "name": "Louzy", "feature_type": "entity", "metric_roundness": 48.91, "metric_rectangularity": 56.53, "metric_mobile_fit": 80.89, "metric_aspect_ratio": 0.754, "metric_area_km2": 39.43 }, "geometry": { "type": "Polygon", "coordinates": [ [ [ -0.1594213, 46.996166399999986 ], [ -0.162769, 47.0175441 ], [ -0.1586869, 47.023796 ], [ -0.149108, 47.028555499999982 ], [ -0.1575373, 47.0332112 ], [ -0.1582943, 47.0388576 ], [ -0.1637837, 47.043564 ], [ -0.173955, 47.046197 ], [ -0.1762129, 47.0397105 ], [ -0.1863058, 47.038771499999989 ], [ -0.1895003, 47.0344871 ], [ -0.2137085, 47.036185499999981 ], [ -0.2171675, 47.028638 ], [ -0.1979238, 47.0177533 ], [ -0.2073605, 47.0051296 ], [ -0.2049805, 47.0019955 ], [ -0.201142, 47.0001005 ], [ -0.197133, 46.998793499999984 ], [ -0.194392, 46.998744 ], [ -0.186809, 46.996050499999988 ], [ -0.179149, 46.989783499999987 ], [ -0.1743695, 46.984622 ], [ -0.1594213, 46.996166399999986 ] ] ] } },
{ "type": "Feature", "properties": { "name": "Louzy", "feature_type": "circle", "metric_roundness": 48.91, "metric_rectangularity": 56.53, "metric_mobile_fit": 80.89, "metric_aspect_ratio": 0.754, "metric_area_km2": 39.43 }, "geometry": { "type": "Polygon", "coordinates": [ [ [ -0.134352754559164, 47.015436231056285 ], [ -0.134415132228185, 47.013812082660195 ], [ -0.134602094262394, 47.012192336748392 ], [ -0.13491312821185, 47.010581433538114 ], [ -0.135347381554117, 47.008983789406336 ], [ -0.135903664030969, 47.007403784773764 ], [ -0.136580450910804, 47.005845752083204 ], [ -0.137375887167826, 47.004313963905346 ], [ -0.138287792566546, 47.002812621204846 ], [ -0.139313667637651, 47.001345841799008 ], [ -0.14045070052888, 46.999917649041102 ], [ -0.14169577471211, 46.998531960759671 ], [ -0.143045477525551, 46.997192578484317 ], [ -0.144496109527608, 46.995903176988243 ], [ -0.146043694636794, 46.994667294176189 ], [ -0.147683991029897, 46.993488321346355 ], [ -0.149412502768518, 46.992369493853019 ], [ -0.151224492122131, 46.991313882196344 ], [ -0.153114992553866, 46.990324383563866 ], [ -0.155078822333447, 46.98940371384753 ], [ -0.157110598739953, 46.988554400158641 ], [ -0.15920475281548, 46.987778773861557 ], [ -0.161355544629269, 46.987078964145674 ], [ -0.16355707901046, 46.986456892153917 ], [ -0.16580332170634, 46.985914265683945 ], [ -0.168088115921815, 46.985452574477172 ], [ -0.170405199194752, 46.985073086108791 ], [ -0.172748220560961, 46.984776842490241 ], [ -0.175110757961737, 46.984564656994159 ], [ -0.177486335846283, 46.984437112209733 ], [ -0.179868442920742, 46.984394558334877 ], [ -0.182250549995201, 46.984437112209733 ], [ -0.184626127879747, 46.984564656994159 ], [ -0.186988665280523, 46.984776842490241 ], [ -0.189331686646732, 46.985073086108791 ], [ -0.19164876991967, 46.985452574477172 ], [ -0.193933564135144, 46.985914265683945 ], [ -0.196179806831024, 46.986456892153917 ], [ -0.198381341212215, 46.987078964145674 ], [ -0.200532133026004, 46.987778773861557 ], [ -0.202626287101531, 46.988554400158641 ], [ -0.204658063508037, 46.98940371384753 ], [ -0.206621893287618, 46.990324383563866 ], [ -0.208512393719353, 46.991313882196344 ], [ -0.210324383072966, 46.992369493853019 ], [ -0.212052894811588, 46.993488321346355 ], [ -0.213693191204691, 46.994667294176189 ], [ -0.215240776313877, 46.995903176988243 ], [ -0.216691408315933, 46.997192578484317 ], [ -0.218041111129374, 46.998531960759671 ], [ -0.219286185312604, 46.999917649041102 ], [ -0.220423218203833, 47.001345841799008 ], [ -0.221449093274938, 47.002812621204846 ], [ -0.222360998673658, 47.004313963905346 ], [ -0.22315643493068, 47.005845752083204 ], [ -0.223833221810515, 47.007403784773764 ], [ -0.224389504287367, 47.008983789406336 ], [ -0.224823757629635, 47.010581433538114 ], [ -0.22513479157909, 47.012192336748392 ], [ -0.225321753613299, 47.013812082660195 ], [ -0.22538413128232, 47.015436231056285 ], [ -0.225321753613299, 47.017060330056083 ], [ -0.22513479157909, 47.018679928320225 ], [ -0.224823757629635, 47.020290587249114 ], [ -0.224389504287367, 47.021887893142207 ], [ -0.223833221810515, 47.02346746928459 ], [ -0.22315643493068, 47.025024987928084 ], [ -0.222360998673658, 47.026556182133994 ], [ -0.221449093274938, 47.028056857445385 ], [ -0.220423218203833, 47.029522903356977 ], [ -0.219286185312605, 47.030950304551837 ], [ -0.218041111129374, 47.032335151873951 ], [ -0.216691408315933, 47.033673653007426 ], [ -0.215240776313877, 47.034962142833059 ], [ -0.213693191204691, 47.036197093434531 ], [ -0.212052894811588, 47.037375123727188 ], [ -0.210324383072966, 47.038493008683332 ], [ -0.208512393719353, 47.03954768812946 ], [ -0.206621893287618, 47.040536275091547 ], [ -0.204658063508037, 47.041456063666061 ], [ -0.202626287101531, 47.042304536395697 ], [ -0.200532133026004, 47.043079371129814 ], [ -0.198381341212215, 47.043778447351542 ], [ -0.196179806831024, 47.044399851954275 ], [ -0.193933564135144, 47.044941884452406 ], [ -0.19164876991967, 47.045403061612191 ], [ -0.189331686646732, 47.045782121490447 ], [ -0.186988665280523, 47.046078026870362 ], [ -0.184626127879747, 47.046289968085112 ], [ -0.182250549995201, 47.046417365221906 ], [ -0.179868442920742, 47.046459869700485 ], [ -0.177486335846283, 47.046417365221906 ], [ -0.175110757961737, 47.046289968085112 ], [ -0.172748220560961, 47.046078026870362 ], [ -0.170405199194752, 47.045782121490447 ], [ -0.168088115921815, 47.045403061612191 ], [ -0.16580332170634, 47.044941884452406 ], [ -0.16355707901046, 47.044399851954275 ], [ -0.16135554462927, 47.043778447351542 ], [ -0.15920475281548, 47.043079371129814 ], [ -0.157110598739953, 47.042304536395697 ], [ -0.155078822333447, 47.041456063666061 ], [ -0.153114992553866, 47.040536275091547 ], [ -0.151224492122131, 47.03954768812946 ], [ -0.149412502768518, 47.038493008683332 ], [ -0.147683991029897, 47.037375123727188 ], [ -0.146043694636794, 47.036197093434531 ], [ -0.144496109527608, 47.034962142833059 ], [ -0.143045477525551, 47.033673653007426 ], [ -0.14169577471211, 47.032335151873951 ], [ -0.14045070052888, 47.030950304551837 ], [ -0.139313667637651, 47.029522903356977 ], [ -0.138287792566546, 47.028056857445385 ], [ -0.137375887167826, 47.026556182133994 ], [ -0.136580450910804, 47.025024987928084 ], [ -0.135903664030969, 47.02346746928459 ], [ -0.135347381554117, 47.021887893142207 ], [ -0.13491312821185, 47.020290587249114 ], [ -0.134602094262394, 47.018679928320225 ], [ -0.134415132228185, 47.017060330056083 ], [ -0.134352754559164, 47.015436231056285 ] ] ] } },
{ "type": "Feature", "properties": { "name": "Louzy", "feature_type": "mrr", "metric_roundness": 48.91, "metric_rectangularity": 56.53, "metric_mobile_fit": 80.89, "metric_aspect_ratio": 0.754, "metric_area_km2": 39.43 }, "geometry": { "type": "Polygon", "coordinates": [ [ [ -0.222935099398638, 47.033861609623592 ], [ -0.160510176524269, 47.049582512008598 ], [ -0.131195233720518, 46.995505399232947 ], [ -0.193620156594887, 46.979768566710121 ], [ -0.222935099398638, 47.033861609623592 ] ] ] } }
]
}
