{
"type": "FeatureCollection",
"name": "vicheres",
"crs": { "type": "name", "properties": { "name": "urn:ogc:def:crs:OGC:1.3:CRS84" } },
"features": [
{ "type": "Feature", "properties": { "name": "Vichères", "feature_type": "entity", "metric_roundness": 50.52, "metric_rectangularity": 57.7, "metric_mobile_fit": 70.86, "metric_aspect_ratio": 0.854, "metric_area_km2": 28.59 }, "geometry": { "type": "Polygon", "coordinates": [ [ [ 0.8937176, 48.2465878 ], [ 0.9068533, 48.248425499999989 ], [ 0.9096425, 48.2416877 ], [ 0.9157525, 48.242364499999979 ], [ 0.9120185, 48.247586599999984 ], [ 0.9264946, 48.2492713 ], [ 0.933986, 48.264355 ], [ 0.9200798, 48.270927599999986 ], [ 0.9243937, 48.2741895 ], [ 0.9245797, 48.278018399999986 ], [ 0.936115, 48.287042 ], [ 0.9330055, 48.287409 ], [ 0.930613, 48.2861665 ], [ 0.9295225, 48.28413 ], [ 0.9242305, 48.2855055 ], [ 0.9196035, 48.284722 ], [ 0.917443, 48.287393 ], [ 0.9014189, 48.277476299999989 ], [ 0.877465, 48.27668 ], [ 0.8835145, 48.2562515 ], [ 0.8898303, 48.251924199999984 ], [ 0.888535, 48.24996 ], [ 0.8937176, 48.2465878 ] ] ] } },
{ "type": "Feature", "properties": { "name": "Vichères", "feature_type": "circle", "metric_roundness": 50.52, "metric_rectangularity": 57.7, "metric_mobile_fit": 70.86, "metric_aspect_ratio": 0.854, "metric_area_km2": 28.59 }, "geometry": { "type": "Polygon", "coordinates": [ [ [ 0.950856310719637, 48.266997714159096 ], [ 0.950804044875872, 48.265669070837163 ], [ 0.950647390601623, 48.264344034836306 ], [ 0.950386777275365, 48.263026238412003 ], [ 0.950022919220111, 48.261719294254107 ], [ 0.9495568137455, 48.260426785577046 ], [ 0.948989738414238, 48.259152256287827 ], [ 0.948323247540392, 48.257899201258979 ], [ 0.947559167929119, 48.256671056733154 ], [ 0.946699593869525, 48.255471190885935 ], [ 0.945746881394356, 48.254302894572909 ], [ 0.944703641822286, 48.253169372286578 ], [ 0.943572734600468, 48.252073733348169 ], [ 0.942357259466988, 48.251018983358705 ], [ 0.941060547954699, 48.25000801593319 ], [ 0.939686154259725, 48.249043604740642 ], [ 0.938237845499649, 48.248128395872378 ], [ 0.936719591388113, 48.247264900559607 ], [ 0.935135553354103, 48.246455488260622 ], [ 0.933490073135767, 48.245702380136919 ], [ 0.931787660880006, 48.24500764293655 ], [ 0.93003298278048, 48.244373183301441 ], [ 0.928230848287893, 48.243800742515099 ], [ 0.926386196927626, 48.243291891704828 ], [ 0.924504084760837, 48.242848027512395 ], [ 0.922589670526149, 48.242470368244845 ], [ 0.920648201499913, 48.242159950516587 ], [ 0.918684999113779, 48.24191762639186 ], [ 0.916705444369025, 48.241744061035824 ], [ 0.914714963087612, 48.241639730880763 ], [ 0.912719011040374, 48.24160492231249 ], [ 0.910723058993136, 48.241639730880763 ], [ 0.908732577711723, 48.241744061035824 ], [ 0.906753022966969, 48.24191762639186 ], [ 0.904789820580835, 48.242159950516587 ], [ 0.902848351554598, 48.242470368244845 ], [ 0.900933937319911, 48.242848027512395 ], [ 0.899051825153122, 48.243291891704828 ], [ 0.897207173792855, 48.243800742515099 ], [ 0.895405039300268, 48.244373183301441 ], [ 0.893650361200742, 48.24500764293655 ], [ 0.891947948944981, 48.245702380136919 ], [ 0.890302468726644, 48.246455488260622 ], [ 0.888718430692635, 48.247264900559607 ], [ 0.887200176581099, 48.248128395872378 ], [ 0.885751867821023, 48.249043604740642 ], [ 0.884377474126049, 48.25000801593319 ], [ 0.88308076261376, 48.251018983358705 ], [ 0.881865287480279, 48.252073733348169 ], [ 0.880734380258461, 48.253169372286578 ], [ 0.879691140686392, 48.254302894572909 ], [ 0.878738428211223, 48.255471190885935 ], [ 0.877878854151628, 48.256671056733154 ], [ 0.877114774540356, 48.257899201258979 ], [ 0.876448283666509, 48.259152256287827 ], [ 0.875881208335248, 48.260426785577046 ], [ 0.875415102860636, 48.261719294254107 ], [ 0.875051244805383, 48.263026238412003 ], [ 0.874790631479125, 48.264344034836306 ], [ 0.874633977204875, 48.265669070837163 ], [ 0.87458171136111, 48.266997714159096 ], [ 0.874633977204875, 48.268326322941412 ], [ 0.874790631479125, 48.269651255701866 ], [ 0.875051244805383, 48.270968881316094 ], [ 0.875415102860636, 48.272275588965677 ], [ 0.875881208335248, 48.273567798027408 ], [ 0.876448283666509, 48.274841967876952 ], [ 0.877114774540356, 48.276094607579857 ], [ 0.877878854151628, 48.27732228544388 ], [ 0.878738428211223, 48.278521638406282 ], [ 0.879691140686392, 48.279689381230746 ], [ 0.880734380258461, 48.280822315488912 ], [ 0.881865287480279, 48.281917338302115 ], [ 0.88308076261376, 48.282971450819716 ], [ 0.884377474126049, 48.283981766411003 ], [ 0.885751867821023, 48.284945518548582 ], [ 0.887200176581099, 48.28586006836187 ], [ 0.888718430692635, 48.286722911840421 ], [ 0.890302468726644, 48.287531686667577 ], [ 0.891947948944981, 48.288284178666089 ], [ 0.893650361200742, 48.288978327838329 ], [ 0.895405039300268, 48.289612233984911 ], [ 0.897207173792855, 48.290184161886479 ], [ 0.899051825153122, 48.290692546034983 ], [ 0.900933937319911, 48.291135994901516 ], [ 0.902848351554598, 48.29151329472942 ], [ 0.904789820580835, 48.291823412842398 ], [ 0.906753022966969, 48.292065500458833 ], [ 0.908732577711723, 48.292238895004807 ], [ 0.910723058993136, 48.29234312191948 ], [ 0.912719011040374, 48.29237789594815 ], [ 0.914714963087612, 48.29234312191948 ], [ 0.916705444369025, 48.292238895004807 ], [ 0.918684999113778, 48.292065500458833 ], [ 0.920648201499913, 48.291823412842398 ], [ 0.922589670526149, 48.29151329472942 ], [ 0.924504084760837, 48.291135994901516 ], [ 0.926386196927626, 48.290692546034983 ], [ 0.928230848287893, 48.290184161886479 ], [ 0.93003298278048, 48.289612233984911 ], [ 0.931787660880006, 48.288978327838329 ], [ 0.933490073135767, 48.288284178666089 ], [ 0.935135553354103, 48.287531686667577 ], [ 0.936719591388113, 48.286722911840421 ], [ 0.938237845499649, 48.28586006836187 ], [ 0.939686154259724, 48.284945518548582 ], [ 0.941060547954699, 48.283981766411003 ], [ 0.942357259466988, 48.282971450819716 ], [ 0.943572734600468, 48.281917338302115 ], [ 0.944703641822286, 48.280822315488912 ], [ 0.945746881394356, 48.279689381230746 ], [ 0.946699593869525, 48.278521638406282 ], [ 0.947559167929119, 48.27732228544388 ], [ 0.948323247540392, 48.276094607579857 ], [ 0.948989738414238, 48.274841967876952 ], [ 0.9495568137455, 48.273567798027408 ], [ 0.950022919220111, 48.272275588965677 ], [ 0.950386777275365, 48.270968881316094 ], [ 0.950647390601623, 48.269651255701866 ], [ 0.950804044875872, 48.268326322941412 ], [ 0.950856310719637, 48.266997714159096 ] ] ] } },
{ "type": "Feature", "properties": { "name": "Vichères", "feature_type": "mrr", "metric_roundness": 50.52, "metric_rectangularity": 57.7, "metric_mobile_fit": 70.86, "metric_aspect_ratio": 0.854, "metric_area_km2": 28.59 }, "geometry": { "type": "Polygon", "coordinates": [ [ [ 0.888677565561581, 48.238809950546383 ], [ 0.875905651034825, 48.281944444284122 ], [ 0.935316492958851, 48.289737331077951 ], [ 0.948088407485608, 48.246609416093577 ], [ 0.888677565561581, 48.238809950546383 ] ] ] } }
]
}
