{
"type": "FeatureCollection",
"name": "vidangoz",
"crs": { "type": "name", "properties": { "name": "urn:ogc:def:crs:OGC:1.3:CRS84" } },
"features": [
{ "type": "Feature", "properties": { "name": "Vidángoz", "feature_type": "entity", "metric_roundness": 36.85, "metric_rectangularity": 68.49, "metric_mobile_fit": 90.29, "metric_aspect_ratio": 0.465, "metric_area_km2": 73.38 }, "geometry": { "type": "Polygon", "coordinates": [ [ [ -1.0144393, 42.769103199999982 ], [ -0.992205, 42.773117 ], [ -0.98616, 42.7783719 ], [ -0.9803206, 42.7987384 ], [ -0.990677, 42.822149 ], [ -0.9921764, 42.833236199999988 ], [ -0.9847705, 42.8411968 ], [ -0.9841786, 42.8563024 ], [ -0.9753685, 42.865814 ], [ -0.9806985, 42.869426499999989 ], [ -0.99488, 42.8727105 ], [ -1.0056455, 42.871395 ], [ -1.007508, 42.871769 ], [ -1.0127665, 42.873871 ], [ -1.0144435, 42.871605 ], [ -1.0146935, 42.8675995 ], [ -1.016248, 42.863792 ], [ -1.0177525, 42.861927 ], [ -1.0143291, 42.8499061 ], [ -1.0235702, 42.842816299999981 ], [ -1.0309774, 42.8163203 ], [ -1.0394015, 42.8093006 ], [ -1.0418455, 42.799858 ], [ -1.0382559, 42.7839343 ], [ -1.0308054, 42.779665 ], [ -1.030964, 42.776684 ], [ -1.0144393, 42.769103199999982 ] ] ] } },
{ "type": "Feature", "properties": { "name": "Vidángoz", "feature_type": "circle", "metric_roundness": 36.85, "metric_rectangularity": 68.49, "metric_mobile_fit": 90.29, "metric_aspect_ratio": 0.465, "metric_area_km2": 73.38 }, "geometry": { "type": "Polygon", "coordinates": [ [ [ -0.938142190658192, 42.821475541915326 ], [ -0.938240222390482, 42.818729584106556 ], [ -0.93853404888919, 42.815991031327343 ], [ -0.939022864796306, 42.813267391258655 ], [ -0.939705330301405, 42.810566131686741 ], [ -0.940579574813976, 42.807894660007186 ], [ -0.941643202090578, 42.805260302884236 ], [ -0.942893296802777, 42.802670286121248 ], [ -0.94432643252786, 42.800131714798148 ], [ -0.945938681140421, 42.797651553730915 ], [ -0.947725623579079, 42.795236608307285 ], [ -0.949682361958818, 42.792893505752239 ], [ -0.951803532995752, 42.790628676875201 ], [ -0.954083322707507, 42.788448338350271 ], [ -0.956515482348951, 42.786358475578808 ], [ -0.959093345539564, 42.784364826182617 ], [ -0.961809846535525, 42.782472864173918 ], [ -0.964657539596426, 42.780687784846762 ], [ -0.967628619393528, 42.779014490432424 ], [ -0.970714942403624, 42.777457576559108 ], [ -0.973908049229871, 42.776021319554431 ], [ -0.977199187788409, 42.774709664626378 ], [ -0.980579337297213, 42.773526214956377 ], [ -0.984039233001431, 42.772474221735315 ], [ -0.987569391567431, 42.771556575170713 ], [ -0.991160137075963, 42.770775796490803 ], [ -0.994801627543177, 42.770134030968009 ], [ -0.99848388189682, 42.769633041981812 ], [ -1.002196807333659, 42.769274206137844 ], [ -1.005930226983153, 42.769058509457146 ], [ -1.00967390780155, 42.768986544646459 ], [ -1.013417588619948, 42.769058509457146 ], [ -1.017151008269442, 42.769274206137844 ], [ -1.020863933706281, 42.769633041981812 ], [ -1.024546188059924, 42.770134030968009 ], [ -1.028187678527138, 42.770775796490803 ], [ -1.03177842403567, 42.771556575170713 ], [ -1.03530858260167, 42.772474221735315 ], [ -1.038768478305888, 42.773526214956377 ], [ -1.042148627814692, 42.774709664626378 ], [ -1.04543976637323, 42.776021319554431 ], [ -1.048632873199477, 42.777457576559108 ], [ -1.051719196209573, 42.779014490432424 ], [ -1.054690276006675, 42.780687784846762 ], [ -1.057537969067576, 42.782472864173918 ], [ -1.060254470063537, 42.784364826182617 ], [ -1.06283233325415, 42.786358475578808 ], [ -1.065264492895594, 42.788448338350271 ], [ -1.067544282607349, 42.790628676875201 ], [ -1.069665453644282, 42.792893505752239 ], [ -1.071622192024022, 42.795236608307285 ], [ -1.07340913446268, 42.797651553730915 ], [ -1.075021383075241, 42.800131714798148 ], [ -1.076454518800325, 42.802670286121248 ], [ -1.077704613512523, 42.805260302884236 ], [ -1.078768240789125, 42.807894660007186 ], [ -1.079642485301696, 42.810566131686741 ], [ -1.080324950806795, 42.813267391258655 ], [ -1.080813766713911, 42.815991031327343 ], [ -1.081107593212618, 42.818729584106556 ], [ -1.081205624944909, 42.821475541915326 ], [ -1.081107593212618, 42.824221377772339 ], [ -1.080813766713911, 42.826959566032421 ], [ -1.080324950806795, 42.829682603008315 ], [ -1.079642485301696, 42.832383027521445 ], [ -1.078768240789125, 42.835053441325272 ], [ -1.077704613512523, 42.837686529345881 ], [ -1.076454518800325, 42.840275079684474 ], [ -1.075021383075241, 42.842812003327587 ], [ -1.07340913446268, 42.845290353511579 ], [ -1.071622192024022, 42.847703344689137 ], [ -1.069665453644282, 42.850044371046437 ], [ -1.067544282607349, 42.852307024521302 ], [ -1.065264492895594, 42.8544851122738 ], [ -1.06283233325415, 42.856572673562518 ], [ -1.060254470063537, 42.8585639959812 ], [ -1.057537969067576, 42.86045363101244 ], [ -1.054690276006675, 42.862236408857065 ], [ -1.051719196209573, 42.863907452499312 ], [ -1.048632873199477, 42.865462190970895 ], [ -1.04543976637323, 42.866896371778374 ], [ -1.042148627814692, 42.868206072460971 ], [ -1.038768478305888, 42.869387711248386 ], [ -1.035308582601671, 42.870438056790142 ], [ -1.03177842403567, 42.871354236931005 ], [ -1.028187678527138, 42.872133746509192 ], [ -1.024546188059924, 42.87277445415679 ], [ -1.020863933706281, 42.873274608084643 ], [ -1.017151008269442, 42.87363284083618 ], [ -1.013417588619948, 42.873848172997938 ], [ -1.00967390780155, 42.873920015856953 ], [ -1.005930226983153, 42.873848172997938 ], [ -1.002196807333659, 42.87363284083618 ], [ -0.99848388189682, 42.873274608084643 ], [ -0.994801627543177, 42.87277445415679 ], [ -0.991160137075963, 42.872133746509192 ], [ -0.987569391567431, 42.871354236931005 ], [ -0.984039233001431, 42.870438056790142 ], [ -0.980579337297213, 42.869387711248386 ], [ -0.977199187788409, 42.868206072460971 ], [ -0.973908049229871, 42.866896371778374 ], [ -0.970714942403624, 42.865462190970895 ], [ -0.967628619393528, 42.863907452499312 ], [ -0.964657539596426, 42.862236408857065 ], [ -0.961809846535525, 42.86045363101244 ], [ -0.959093345539564, 42.8585639959812 ], [ -0.956515482348951, 42.856572673562518 ], [ -0.954083322707507, 42.8544851122738 ], [ -0.951803532995752, 42.852307024521302 ], [ -0.949682361958818, 42.850044371046437 ], [ -0.947725623579079, 42.847703344689137 ], [ -0.945938681140421, 42.845290353511579 ], [ -0.94432643252786, 42.842812003327587 ], [ -0.942893296802777, 42.840275079684474 ], [ -0.941643202090578, 42.837686529345881 ], [ -0.940579574813976, 42.835053441325272 ], [ -0.939705330301405, 42.832383027521445 ], [ -0.939022864796306, 42.829682603008315 ], [ -0.93853404888919, 42.826959566032421 ], [ -0.938240222390482, 42.824221377772339 ], [ -0.938142190658192, 42.821475541915326 ] ] ] } },
{ "type": "Feature", "properties": { "name": "Vidángoz", "feature_type": "mrr", "metric_roundness": 36.85, "metric_rectangularity": 68.49, "metric_mobile_fit": 90.29, "metric_aspect_ratio": 0.465, "metric_area_km2": 73.38 }, "geometry": { "type": "Polygon", "coordinates": [ [ [ -0.960612554300949, 42.867426122167856 ], [ -0.989903136342885, 42.765313182219266 ], [ -1.049379941503148, 42.774499961275552 ], [ -1.020089359461212, 42.876597742408954 ], [ -0.960612554300949, 42.867426122167856 ] ] ] } }
]
}
