{
"type": "FeatureCollection",
"name": "vidreres",
"crs": { "type": "name", "properties": { "name": "urn:ogc:def:crs:OGC:1.3:CRS84" } },
"features": [
{ "type": "Feature", "properties": { "name": "Vidreres", "metric_roundness": 47.51, "metric_rectangularity": 61.7, "metric_mobile_fit": 12.82, "metric_aspect_ratio": 1.434, "metric_area_km2": 86.62 }, "geometry": { "type": "Polygon", "coordinates": [ [ [ 2.7755564, 41.8006401 ], [ 2.7608123, 41.796666 ], [ 2.7554485, 41.7887195 ], [ 2.7544223, 41.7810071 ], [ 2.7614938, 41.7676005 ], [ 2.7756352, 41.7601551 ], [ 2.780351, 41.7491064 ], [ 2.7883929, 41.7444668 ], [ 2.7893365, 41.738865 ], [ 2.799317, 41.742275 ], [ 2.807867, 41.7441025 ], [ 2.817405, 41.748418 ], [ 2.839072, 41.756739 ], [ 2.8487295, 41.762269 ], [ 2.869615, 41.746073499999987 ], [ 2.8855867, 41.7570376 ], [ 2.8825878, 41.7643282 ], [ 2.8712035, 41.772772 ], [ 2.8370738, 41.7913931 ], [ 2.8330661, 41.799747899999986 ], [ 2.8251453, 41.8035332 ], [ 2.784866, 41.807068 ], [ 2.7755564, 41.8006401 ] ] ] } }
]
}
