{
"type": "FeatureCollection",
"name": "viels_maisons",
"crs": { "type": "name", "properties": { "name": "urn:ogc:def:crs:OGC:1.3:CRS84" } },
"features": [
{ "type": "Feature", "properties": { "name": "Viels-Maisons", "feature_type": "entity", "metric_roundness": 51.06, "metric_rectangularity": 66.83, "metric_mobile_fit": 93.53, "metric_aspect_ratio": 0.627, "metric_area_km2": 49.56 }, "geometry": { "type": "Polygon", "coordinates": [ [ [ 3.39513, 48.935569 ], [ 3.39301, 48.935929499999986 ], [ 3.3733255, 48.936108499999989 ], [ 3.3701295, 48.934692 ], [ 3.3665925, 48.9338397 ], [ 3.3674775, 48.928321499999981 ], [ 3.3714132, 48.924106199999983 ], [ 3.3758661, 48.9097004 ], [ 3.3712083, 48.9037269 ], [ 3.3696415, 48.8941027 ], [ 3.3822251, 48.8872099 ], [ 3.3816105, 48.872917199999989 ], [ 3.3902712, 48.871472499999975 ], [ 3.3950422, 48.875484099999987 ], [ 3.405849, 48.875883 ], [ 3.4086789, 48.877508599999985 ], [ 3.409212, 48.8849648 ], [ 3.4152765, 48.885614 ], [ 3.4206998, 48.889401899999982 ], [ 3.4180543, 48.89943539999998 ], [ 3.428262, 48.9184815 ], [ 3.4229706, 48.919304299999986 ], [ 3.4208025, 48.926332499999987 ], [ 3.4162815, 48.9259965 ], [ 3.412893, 48.927060499999982 ], [ 3.4056515, 48.931080499999986 ], [ 3.4041795, 48.933808 ], [ 3.3982695, 48.933636 ], [ 3.39513, 48.935569 ] ] ] } },
{ "type": "Feature", "properties": { "name": "Viels-Maisons", "feature_type": "circle", "metric_roundness": 51.06, "metric_rectangularity": 66.83, "metric_mobile_fit": 93.53, "metric_aspect_ratio": 0.627, "metric_area_km2": 49.56 }, "geometry": { "type": "Polygon", "coordinates": [ [ [ 3.43405679220446, 48.904062919537417 ], [ 3.433988343209843, 48.902344676005697 ], [ 3.433783183839926, 48.900631083227672 ], [ 3.433441876422282, 48.89892683876689 ], [ 3.43296535645682, 48.897236615038523 ], [ 3.432354930051642, 48.895565046489487 ], [ 3.431612270343094, 48.893916716877577 ], [ 3.430739412909817, 48.892296146684586 ], [ 3.429738750193362, 48.890707780698385 ], [ 3.42861302494068, 48.889155975798069 ], [ 3.427365322686441, 48.887644988976142 ], [ 3.425999063295798, 48.88617896563094 ], [ 3.424517991590772, 48.884761928161765 ], [ 3.422926167085958, 48.883397764898497 ], [ 3.421227952861678, 48.882090219396559 ], [ 3.419428003605081, 48.880842880126977 ], [ 3.417531252851963, 48.87965917059045 ], [ 3.415542899464299, 48.878542339883118 ], [ 3.413468393380516, 48.877495453740146 ], [ 3.411313420677592, 48.876521386082679 ], [ 3.409083887985914, 48.875622811091496 ], [ 3.40678590629962, 48.874802195829837 ], [ 3.404425774226779, 48.874061793436113 ], [ 3.402009960725352, 48.873403636905536 ], [ 3.399545087372226, 48.872829533478388 ], [ 3.397037910213931, 48.872341059650488 ], [ 3.394495301248785, 48.871939556820294 ], [ 3.391924229591227, 48.871626127584385 ], [ 3.389331742369958, 48.87140163269234 ], [ 3.386724945412251, 48.871266688669266 ], [ 3.384110983767369, 48.871221666112781 ], [ 3.381497022122486, 48.871266688669266 ], [ 3.378890225164779, 48.87140163269234 ], [ 3.37629773794351, 48.871626127584385 ], [ 3.373726666285953, 48.871939556820294 ], [ 3.371184057320807, 48.872341059650488 ], [ 3.368676880162512, 48.872829533478388 ], [ 3.366212006809386, 48.873403636905536 ], [ 3.363796193307959, 48.874061793436113 ], [ 3.361436061235118, 48.874802195829837 ], [ 3.359138079548823, 48.875622811091496 ], [ 3.356908546857146, 48.876521386082679 ], [ 3.354753574154222, 48.877495453740146 ], [ 3.352679068070438, 48.878542339883118 ], [ 3.350690714682774, 48.87965917059045 ], [ 3.348793963929657, 48.880842880126977 ], [ 3.346994014673059, 48.882090219396559 ], [ 3.345295800448779, 48.883397764898497 ], [ 3.343703975943966, 48.884761928161765 ], [ 3.34222290423894, 48.88617896563094 ], [ 3.340856644848297, 48.887644988976142 ], [ 3.339608942594058, 48.889155975798069 ], [ 3.338483217341376, 48.890707780698385 ], [ 3.337482554624921, 48.892296146684586 ], [ 3.336609697191644, 48.893916716877577 ], [ 3.335867037483096, 48.895565046489487 ], [ 3.335256611077917, 48.897236615038523 ], [ 3.334780091112456, 48.89892683876689 ], [ 3.334438783694812, 48.900631083227672 ], [ 3.334233624324895, 48.902344676005697 ], [ 3.334165175330277, 48.904062919537417 ], [ 3.334233624324895, 48.905781103994585 ], [ 3.334438783694812, 48.907494520196153 ], [ 3.334780091112456, 48.909198472513225 ], [ 3.335256611077917, 48.910888291731389 ], [ 3.335867037483096, 48.912559347835632 ], [ 3.336609697191644, 48.914207062682621 ], [ 3.337482554624921, 48.915826922526051 ], [ 3.338483217341376, 48.917414490360791 ], [ 3.339608942594058, 48.918965418052473 ], [ 3.340856644848297, 48.920475458219457 ], [ 3.34222290423894, 48.921940475835171 ], [ 3.343703975943966, 48.923356459519297 ], [ 3.345295800448779, 48.924719532487444 ], [ 3.346994014673059, 48.926025963129696 ], [ 3.348793963929657, 48.927272175189664 ], [ 3.350690714682774, 48.928454757516569 ], [ 3.352679068070438, 48.929570473364258 ], [ 3.354753574154222, 48.930616269212159 ], [ 3.356908546857146, 48.931589283084662 ], [ 3.359138079548823, 48.93248685234645 ], [ 3.361436061235118, 48.933306520953266 ], [ 3.363796193307959, 48.934046046138462 ], [ 3.366212006809386, 48.934703404517698 ], [ 3.368676880162512, 48.9352767975954 ], [ 3.371184057320807, 48.935764656658471 ], [ 3.373726666285953, 48.936165647043971 ], [ 3.37629773794351, 48.936478671769748 ], [ 3.378890225164779, 48.936702874518133 ], [ 3.381497022122486, 48.9368376419648 ], [ 3.384110983767369, 48.936882605446741 ], [ 3.386724945412251, 48.9368376419648 ], [ 3.389331742369958, 48.936702874518133 ], [ 3.391924229591227, 48.936478671769748 ], [ 3.394495301248785, 48.936165647043971 ], [ 3.397037910213931, 48.935764656658471 ], [ 3.399545087372226, 48.9352767975954 ], [ 3.402009960725352, 48.934703404517698 ], [ 3.404425774226779, 48.934046046138462 ], [ 3.40678590629962, 48.933306520953266 ], [ 3.409083887985914, 48.93248685234645 ], [ 3.411313420677592, 48.931589283084662 ], [ 3.413468393380516, 48.930616269212159 ], [ 3.415542899464299, 48.929570473364258 ], [ 3.417531252851963, 48.928454757516569 ], [ 3.41942800360508, 48.927272175189664 ], [ 3.421227952861678, 48.926025963129696 ], [ 3.422926167085958, 48.924719532487444 ], [ 3.424517991590772, 48.923356459519297 ], [ 3.425999063295798, 48.921940475835171 ], [ 3.427365322686441, 48.920475458219457 ], [ 3.42861302494068, 48.918965418052473 ], [ 3.429738750193362, 48.917414490360791 ], [ 3.430739412909817, 48.915826922526051 ], [ 3.431612270343094, 48.914207062682621 ], [ 3.432354930051642, 48.912559347835632 ], [ 3.43296535645682, 48.910888291731389 ], [ 3.433441876422282, 48.909198472513225 ], [ 3.433783183839926, 48.907494520196153 ], [ 3.433988343209843, 48.905781103994585 ], [ 3.43405679220446, 48.904062919537417 ] ] ] } },
{ "type": "Feature", "properties": { "name": "Viels-Maisons", "feature_type": "mrr", "metric_roundness": 51.06, "metric_rectangularity": 66.83, "metric_mobile_fit": 93.53, "metric_aspect_ratio": 0.627, "metric_area_km2": 49.56 }, "geometry": { "type": "Polygon", "coordinates": [ [ [ 3.371424746099575, 48.870847402484458 ], [ 3.366435864634389, 48.935880281374033 ], [ 3.426773225604451, 48.937878915232183 ], [ 3.431762107069637, 48.872848638843145 ], [ 3.371424746099575, 48.870847402484458 ] ] ] } }
]
}
