{
"type": "FeatureCollection",
"name": "vieux_les_asfeld",
"crs": { "type": "name", "properties": { "name": "urn:ogc:def:crs:OGC:1.3:CRS84" } },
"features": [
{ "type": "Feature", "properties": { "name": "Vieux-lès-Asfeld", "metric_roundness": 43.35, "metric_rectangularity": 51.0, "metric_mobile_fit": 57.14, "metric_aspect_ratio": 0.991, "metric_area_km2": 16.32 }, "geometry": { "type": "Polygon", "coordinates": [ [ [ 4.0947489, 49.4614353 ], [ 4.0854529, 49.452633799999987 ], [ 4.0940343, 49.445683399999986 ], [ 4.084339, 49.441610499999989 ], [ 4.0864435, 49.437088 ], [ 4.100235, 49.438675 ], [ 4.1019225, 49.4396385 ], [ 4.1109395, 49.439407 ], [ 4.1140313, 49.443663 ], [ 4.135898, 49.444688499999984 ], [ 4.1290532, 49.4522927 ], [ 4.0950995, 49.470906499999984 ], [ 4.0947489, 49.4614353 ] ] ] } }
]
}
