{
"type": "FeatureCollection",
"name": "viladasens",
"crs": { "type": "name", "properties": { "name": "urn:ogc:def:crs:OGC:1.3:CRS84" } },
"features": [
{ "type": "Feature", "properties": { "name": "Viladasens", "feature_type": "entity", "metric_roundness": 65.77, "metric_rectangularity": 77.4, "metric_mobile_fit": 51.12, "metric_aspect_ratio": 1.051, "metric_area_km2": 28.61 }, "geometry": { "type": "Polygon", "coordinates": [ [ [ 2.9262755, 42.1168075 ], [ 2.904286, 42.1106135 ], [ 2.8946304, 42.0944303 ], [ 2.896525, 42.0875085 ], [ 2.9027349, 42.080734299999989 ], [ 2.9157022, 42.0772378 ], [ 2.9231598, 42.0794129 ], [ 2.9330565, 42.07471 ], [ 2.9416533, 42.089699599999982 ], [ 2.951905, 42.0977605 ], [ 2.9542735, 42.1121325 ], [ 2.9262755, 42.1168075 ] ] ] } },
{ "type": "Feature", "properties": { "name": "Viladasens", "feature_type": "circle", "metric_roundness": 65.77, "metric_rectangularity": 77.4, "metric_mobile_fit": 51.12, "metric_aspect_ratio": 1.051, "metric_area_km2": 28.61 }, "geometry": { "type": "Polygon", "coordinates": [ [ [ 2.960335156903967, 42.097887761715242 ], [ 2.960289331221036, 42.096589238375024 ], [ 2.960151979777255, 42.095294247717646 ], [ 2.959923479043383, 42.094006339549075 ], [ 2.959604455324049, 42.092729044476293 ], [ 2.959195783041093, 42.091465864224269 ], [ 2.958698582336836, 42.090220262029774 ], [ 2.958114216003848, 42.088995653138497 ], [ 2.95744428574963, 42.087795395431648 ], [ 2.956690627806442, 42.086622780207847 ], [ 2.955855307898319, 42.085481023145697 ], [ 2.954940615579068, 42.084373255472144 ], [ 2.953949057956757, 42.083302515360764 ], [ 2.952883352821905, 42.082271739583973 ], [ 2.951746421198212, 42.081283755442222 ], [ 2.95054137933623, 42.080341272992442 ], [ 2.949271530171941, 42.079446877597441 ], [ 2.947940354273642, 42.078603022816687 ], [ 2.946551500301935, 42.077812023658552 ], [ 2.945108775009023, 42.077076050212341 ], [ 2.94361613280465, 42.076397121678248 ], [ 2.942077664917346, 42.075777100811443 ], [ 2.940497588180652, 42.075217688796094 ], [ 2.938880233475075, 42.074720420563295 ], [ 2.937230033857439, 42.074286660566237 ], [ 2.935551512410195, 42.073917599024071 ], [ 2.933849269843956, 42.073614248645349 ], [ 2.932127971887275, 42.073377441839689 ], [ 2.930392336498206, 42.073207828425865 ], [ 2.928647120932706, 42.073105873842536 ], [ 2.926897108705333, 42.073071857866552 ], [ 2.925147096477959, 42.073105873842536 ], [ 2.92340188091246, 42.073207828425865 ], [ 2.92166624552339, 42.073377441839689 ], [ 2.919944947566709, 42.073614248645349 ], [ 2.91824270500047, 42.073917599024071 ], [ 2.916564183553226, 42.074286660566237 ], [ 2.914913983935591, 42.074720420563295 ], [ 2.913296629230013, 42.075217688796094 ], [ 2.91171655249332, 42.075777100811443 ], [ 2.910178084606015, 42.076397121678248 ], [ 2.908685442401643, 42.077076050212341 ], [ 2.907242717108731, 42.077812023658552 ], [ 2.905853863137024, 42.078603022816687 ], [ 2.904522687238724, 42.079446877597441 ], [ 2.903252838074435, 42.080341272992442 ], [ 2.902047796212454, 42.081283755442222 ], [ 2.90091086458876, 42.082271739583973 ], [ 2.899845159453909, 42.083302515360764 ], [ 2.898853601831597, 42.084373255472144 ], [ 2.897938909512347, 42.085481023145697 ], [ 2.897103589604224, 42.086622780207847 ], [ 2.896349931661035, 42.087795395431648 ], [ 2.895680001406817, 42.088995653138497 ], [ 2.895095635073829, 42.090220262029774 ], [ 2.894598434369573, 42.091465864224269 ], [ 2.894189762086616, 42.092729044476293 ], [ 2.893870738367283, 42.094006339549075 ], [ 2.893642237633411, 42.095294247717646 ], [ 2.893504886189629, 42.096589238375024 ], [ 2.893459060506698, 42.097887761715242 ], [ 2.893504886189629, 42.099186258466744 ], [ 2.893642237633411, 42.100481169649292 ], [ 2.893870738367283, 42.101768946327674 ], [ 2.894189762086616, 42.103046059335526 ], [ 2.894598434369573, 42.104309008942643 ], [ 2.895095635073829, 42.105554334439212 ], [ 2.895680001406817, 42.106778623611127 ], [ 2.896349931661035, 42.107978522080103 ], [ 2.897103589604224, 42.109150742483401 ], [ 2.897938909512347, 42.110292073468116 ], [ 2.898853601831597, 42.11139938847554 ], [ 2.899845159453909, 42.112469654291594 ], [ 2.90091086458876, 42.113499939340329 ], [ 2.902047796212454, 42.114487421697817 ], [ 2.903252838074435, 42.115429396804778 ], [ 2.904522687238724, 42.116323284856989 ], [ 2.905853863137024, 42.117166637853487 ], [ 2.907242717108731, 42.117957146283587 ], [ 2.908685442401643, 42.118692645434486 ], [ 2.910178084606015, 42.119371121302478 ], [ 2.91171655249332, 42.119990716091884 ], [ 2.913296629230013, 42.120549733286751 ], [ 2.914913983935591, 42.121046642281705 ], [ 2.916564183553226, 42.121480082559444 ], [ 2.91824270500047, 42.121848867403713 ], [ 2.919944947566709, 42.122151987137542 ], [ 2.92166624552339, 42.122388611878307 ], [ 2.92340188091246, 42.122558093801956 ], [ 2.925147096477959, 42.122659968910469 ], [ 2.926897108705333, 42.122693958297745 ], [ 2.928647120932706, 42.122659968910469 ], [ 2.930392336498206, 42.122558093801956 ], [ 2.932127971887275, 42.122388611878307 ], [ 2.933849269843956, 42.122151987137542 ], [ 2.935551512410195, 42.121848867403713 ], [ 2.937230033857439, 42.121480082559444 ], [ 2.938880233475075, 42.121046642281705 ], [ 2.940497588180652, 42.120549733286751 ], [ 2.942077664917346, 42.119990716091884 ], [ 2.94361613280465, 42.119371121302478 ], [ 2.945108775009023, 42.118692645434486 ], [ 2.946551500301935, 42.117957146283587 ], [ 2.947940354273642, 42.117166637853487 ], [ 2.949271530171941, 42.116323284856989 ], [ 2.95054137933623, 42.115429396804778 ], [ 2.951746421198212, 42.114487421697817 ], [ 2.952883352821905, 42.113499939340329 ], [ 2.953949057956757, 42.112469654291594 ], [ 2.954940615579068, 42.11139938847554 ], [ 2.955855307898319, 42.110292073468116 ], [ 2.956690627806442, 42.109150742483401 ], [ 2.95744428574963, 42.107978522080103 ], [ 2.958114216003848, 42.106778623611127 ], [ 2.958698582336836, 42.105554334439212 ], [ 2.959195783041093, 42.104309008942643 ], [ 2.959604455324049, 42.103046059335526 ], [ 2.959923479043383, 42.101768946327674 ], [ 2.960151979777255, 42.100481169649292 ], [ 2.960289331221036, 42.099186258466744 ], [ 2.960335156903967, 42.097887761715242 ] ] ] } },
{ "type": "Feature", "properties": { "name": "Viladasens", "feature_type": "mrr", "metric_roundness": 65.77, "metric_rectangularity": 77.4, "metric_mobile_fit": 51.12, "metric_aspect_ratio": 1.051, "metric_area_km2": 28.61 }, "geometry": { "type": "Polygon", "coordinates": [ [ [ 2.902618247472506, 42.120757429870849 ], [ 2.956169333190775, 42.111815928731019 ], [ 2.944234574229939, 42.072470595626072 ], [ 2.89068348851167, 42.081417645514733 ], [ 2.902618247472506, 42.120757429870849 ] ] ] } }
]
}
