{
"type": "FeatureCollection",
"name": "villaverla",
"crs": { "type": "name", "properties": { "name": "urn:ogc:def:crs:OGC:1.3:CRS84" } },
"features": [
{ "type": "Feature", "properties": { "name": "Villaverla", "feature_type": "entity", "metric_roundness": 34.43, "metric_rectangularity": 51.38, "metric_mobile_fit": 50.84, "metric_aspect_ratio": 1.054, "metric_area_km2": 31.59 }, "geometry": { "type": "Polygon", "coordinates": [ [ [ 11.509241, 45.6578205 ], [ 11.5034487, 45.671539399999986 ], [ 11.4868976, 45.6605191 ], [ 11.478723, 45.6671935 ], [ 11.4536229, 45.658713 ], [ 11.4620495, 45.648967 ], [ 11.4839045, 45.639137 ], [ 11.4895635, 45.6332845 ], [ 11.4943038, 45.6404742 ], [ 11.5038967, 45.643556699999984 ], [ 11.52395, 45.620153 ], [ 11.5325664, 45.6191807 ], [ 11.529097, 45.6277032 ], [ 11.5324677, 45.6365219 ], [ 11.5285115, 45.653401 ], [ 11.5248812, 45.655350499999983 ], [ 11.5128212, 45.6553257 ], [ 11.511188, 45.657219499999982 ], [ 11.509241, 45.6578205 ] ] ] } },
{ "type": "Feature", "properties": { "name": "Villaverla", "feature_type": "circle", "metric_roundness": 34.43, "metric_rectangularity": 51.38, "metric_mobile_fit": 50.84, "metric_aspect_ratio": 1.054, "metric_area_km2": 31.59 }, "geometry": { "type": "Polygon", "coordinates": [ [ [ 11.541646112647568, 45.638950336411533 ], [ 11.541579574555394, 45.637173707221969 ], [ 11.541380142655159, 45.635401891550245 ], [ 11.541048363575843, 45.633639746511498 ], [ 11.540585146700833, 45.631892103167019 ], [ 11.539991761675394, 45.630163753270054 ], [ 11.539269834926628, 45.628459436114639 ], [ 11.538421345205579, 45.626783825523546 ], [ 11.537448618163591, 45.625141517011194 ], [ 11.536354319977871, 45.623537015157289 ], [ 11.535141450043685, 45.621974721225747 ], [ 11.533813332753216, 45.620458921063523 ], [ 11.532373608383644, 45.618993773312809 ], [ 11.530826223119385, 45.617583297969254 ], [ 11.529175418235898, 45.616231365318313 ], [ 11.527425718474619, 45.614941685280151 ], [ 11.525581919640976, 45.613717797193281 ], [ 11.523649075459408, 45.612563060065021 ], [ 11.521632483721467, 45.611480643316376 ], [ 11.519537671764938, 45.610473518047016 ], [ 11.517370381323783, 45.609544448844865 ], [ 11.515136552790453, 45.608695986163397 ], [ 11.512842308933692, 45.607930459287829 ], [ 11.510493938116433, 45.607249969910065 ], [ 11.508097877059859, 45.606656386330499 ], [ 11.505660693200774, 45.606151338302851 ], [ 11.50318906669073, 45.605736212536655 ], [ 11.500689772086192, 45.605412148870016 ], [ 11.498169659779945, 45.605180037123326 ], [ 11.495635637224652, 45.605040514643086 ], [ 11.49309465, 45.604993964542345 ], [ 11.490553662775344, 45.605040514643086 ], [ 11.488019640220053, 45.605180037123326 ], [ 11.485499527913806, 45.605412148870016 ], [ 11.483000233309268, 45.605736212536655 ], [ 11.480528606799224, 45.606151338302851 ], [ 11.478091422940139, 45.606656386330499 ], [ 11.475695361883565, 45.607249969910065 ], [ 11.473346991066306, 45.607930459287829 ], [ 11.471052747209542, 45.608695986163397 ], [ 11.468818918676215, 45.609544448844865 ], [ 11.466651628235059, 45.610473518047016 ], [ 11.464556816278531, 45.611480643316376 ], [ 11.462540224540589, 45.612563060065021 ], [ 11.460607380359022, 45.613717797193281 ], [ 11.458763581525378, 45.614941685280151 ], [ 11.457013881764098, 45.616231365318313 ], [ 11.455363076880612, 45.617583297969254 ], [ 11.453815691616354, 45.618993773312809 ], [ 11.45237596724678, 45.620458921063523 ], [ 11.451047849956312, 45.621974721225747 ], [ 11.449834980022127, 45.623537015157289 ], [ 11.448740681836407, 45.625141517011194 ], [ 11.447767954794418, 45.626783825523546 ], [ 11.446919465073368, 45.628459436114639 ], [ 11.446197538324604, 45.630163753270054 ], [ 11.445604153299165, 45.631892103167019 ], [ 11.445140936424155, 45.633639746511498 ], [ 11.444809157344839, 45.635401891550245 ], [ 11.444609725444604, 45.637173707221969 ], [ 11.44454318735243, 45.638950336411533 ], [ 11.444609725444604, 45.640726909270498 ], [ 11.444809157344839, 45.642498556567617 ], [ 11.445140936424155, 45.644260423032499 ], [ 11.445604153299165, 45.646007680655977 ], [ 11.446197538324604, 45.647735541910819 ], [ 11.446919465073368, 45.649439272856654 ], [ 11.447767954794418, 45.651114206093389 ], [ 11.448740681836407, 45.652755753527799 ], [ 11.449834980022127, 45.654359418918737 ], [ 11.451047849956312, 45.655920810166748 ], [ 11.45237596724678, 45.657435651314856 ], [ 11.453815691616354, 45.658899794228041 ], [ 11.455363076880612, 45.660309229919847 ], [ 11.457013881764098, 45.661660099495492 ], [ 11.458763581525378, 45.66294870468208 ], [ 11.460607380359022, 45.664171517917381 ], [ 11.462540224540589, 45.665325191970375 ], [ 11.464556816278531, 45.666406569067348 ], [ 11.466651628235059, 45.667412689499258 ], [ 11.468818918676215, 45.668340799687385 ], [ 11.471052747209542, 45.669188359685435 ], [ 11.473346991066306, 45.669953050098158 ], [ 11.475695361883565, 45.670632778398115 ], [ 11.478091422940139, 45.671225684623437 ], [ 11.480528606799224, 45.671730146441632 ], [ 11.483000233309268, 45.672144783565798 ], [ 11.485499527913806, 45.672468461511521 ], [ 11.488019640220053, 45.672700294684404 ], [ 11.490553662775344, 45.672839648790088 ], [ 11.49309465, 45.672886142560237 ], [ 11.495635637224652, 45.672839648790088 ], [ 11.498169659779945, 45.672700294684404 ], [ 11.500689772086192, 45.672468461511521 ], [ 11.50318906669073, 45.672144783565798 ], [ 11.505660693200774, 45.671730146441632 ], [ 11.508097877059859, 45.671225684623437 ], [ 11.510493938116433, 45.670632778398115 ], [ 11.512842308933692, 45.669953050098158 ], [ 11.515136552790453, 45.669188359685435 ], [ 11.517370381323783, 45.668340799687385 ], [ 11.519537671764938, 45.667412689499258 ], [ 11.521632483721467, 45.666406569067348 ], [ 11.523649075459408, 45.665325191970375 ], [ 11.525581919640976, 45.664171517917381 ], [ 11.527425718474619, 45.66294870468208 ], [ 11.529175418235898, 45.661660099495492 ], [ 11.530826223119385, 45.660309229919847 ], [ 11.532373608383644, 45.658899794228041 ], [ 11.533813332753216, 45.657435651314856 ], [ 11.535141450043685, 45.655920810166748 ], [ 11.536354319977871, 45.654359418918737 ], [ 11.537448618163591, 45.652755753527799 ], [ 11.538421345205579, 45.651114206093389 ], [ 11.539269834926628, 45.649439272856654 ], [ 11.539991761675394, 45.647735541910819 ], [ 11.540585146700833, 45.646007680655977 ], [ 11.541048363575843, 45.644260423032499 ], [ 11.541380142655159, 45.642498556567617 ], [ 11.541579574555394, 45.640726909270498 ], [ 11.541646112647568, 45.638950336411533 ] ] ] } },
{ "type": "Feature", "properties": { "name": "Villaverla", "feature_type": "mrr", "metric_roundness": 34.43, "metric_rectangularity": 51.38, "metric_mobile_fit": 50.84, "metric_aspect_ratio": 1.054, "metric_area_km2": 31.59 }, "geometry": { "type": "Polygon", "coordinates": [ [ [ 11.525273697598658, 45.612923761933601 ], [ 11.450158832561787, 45.655743112046537 ], [ 11.482505308689346, 45.683469011939735 ], [ 11.557620173726217, 45.640670859539398 ], [ 11.525273697598658, 45.612923761933601 ] ] ] } }
]
}
