{
"type": "FeatureCollection",
"name": "villebourg",
"crs": { "type": "name", "properties": { "name": "urn:ogc:def:crs:OGC:1.3:CRS84" } },
"features": [
{ "type": "Feature", "properties": { "name": "Villebourg", "metric_roundness": 25.25, "metric_rectangularity": 42.62, "metric_mobile_fit": 85.87, "metric_aspect_ratio": 0.704, "metric_area_km2": 27.75 }, "geometry": { "type": "Polygon", "coordinates": [ [ [ 0.5449281, 47.6568493 ], [ 0.5235047, 47.6536953 ], [ 0.5162336, 47.655722599999983 ], [ 0.4984195, 47.644758499999988 ], [ 0.5073443, 47.633279199999983 ], [ 0.5038809, 47.6260781 ], [ 0.5082867, 47.611295399999989 ], [ 0.501212, 47.606341 ], [ 0.5060165, 47.6058765 ], [ 0.5106025, 47.60406 ], [ 0.5167335, 47.603706 ], [ 0.518844, 47.6023 ], [ 0.5246755, 47.6048655 ], [ 0.5246605, 47.609248799999989 ], [ 0.5187819, 47.616478199999989 ], [ 0.5231989, 47.6278885 ], [ 0.541445, 47.6341555 ], [ 0.5380069, 47.6428603 ], [ 0.547897, 47.6479627 ], [ 0.5502085, 47.653927199999984 ], [ 0.562978, 47.656962 ], [ 0.5651365, 47.663342 ], [ 0.559607, 47.666177 ], [ 0.5449281, 47.6568493 ] ] ] } }
]
}
