{
"type": "FeatureCollection",
"name": "villorceau",
"crs": { "type": "name", "properties": { "name": "urn:ogc:def:crs:OGC:1.3:CRS84" } },
"features": [
{ "type": "Feature", "properties": { "name": "Villorceau", "feature_type": "entity", "metric_roundness": 50.3, "metric_rectangularity": 66.41, "metric_mobile_fit": 35.55, "metric_aspect_ratio": 1.207, "metric_area_km2": 20.74 }, "geometry": { "type": "Polygon", "coordinates": [ [ [ 1.6131642, 47.791345199999988 ], [ 1.6101391, 47.7960935 ], [ 1.6218635, 47.806528 ], [ 1.6152655, 47.817823499999982 ], [ 1.5962643, 47.815525099999988 ], [ 1.570237, 47.796715 ], [ 1.5642542, 47.790680799999983 ], [ 1.5712455, 47.7869635 ], [ 1.608563, 47.785763499999987 ], [ 1.6131642, 47.791345199999988 ] ] ] } },
{ "type": "Feature", "properties": { "name": "Villorceau", "feature_type": "circle", "metric_roundness": 50.3, "metric_rectangularity": 66.41, "metric_mobile_fit": 35.55, "metric_aspect_ratio": 1.207, "metric_area_km2": 20.74 }, "geometry": { "type": "Polygon", "coordinates": [ [ [ 1.622797366223521, 47.803839513949335 ], [ 1.622752759303076, 47.802695330335538 ], [ 1.622619060806211, 47.801554257751057 ], [ 1.622396637191211, 47.800419424105847 ], [ 1.622086098105745, 47.7992939404119 ], [ 1.62168829471586, 47.798180892250571 ], [ 1.621204317372998, 47.797083331307398 ], [ 1.620635492625415, 47.796004266997883 ], [ 1.619983379582204, 47.794946658207017 ], [ 1.61924976563989, 47.793913405165618 ], [ 1.618436661583296, 47.792907341485602 ], [ 1.617546296074123, 47.791931226376462 ], [ 1.616581109542342, 47.790987737064285 ], [ 1.615543747497148, 47.790079461434331 ], [ 1.614437053275801, 47.789208890917614 ], [ 1.613264060250236, 47.78837841364107 ], [ 1.612027983512803, 47.787590307860562 ], [ 1.61073221106392, 47.786846735694589 ], [ 1.609380294525801, 47.786149737176515 ], [ 1.607975939407707, 47.785501224641521 ], [ 1.606522994949401, 47.784902977464085 ], [ 1.60502544357065, 47.784356637160663 ], [ 1.60348738995569, 47.783863702871002 ], [ 1.601913049802571, 47.783425527231024 ], [ 1.600306738268221, 47.783043312648452 ], [ 1.598672858140904, 47.782718107991762 ], [ 1.597015887772477, 47.782450805701671 ], [ 1.595340368803547, 47.782242139333249 ], [ 1.593650893715142, 47.782092681535396 ], [ 1.591952093241048, 47.782002842473524 ], [ 1.59024862367528, 47.781972868699711 ], [ 1.588545154109513, 47.782002842473524 ], [ 1.586846353635418, 47.782092681535396 ], [ 1.585156878547014, 47.782242139333249 ], [ 1.583481359578084, 47.782450805701671 ], [ 1.581824389209657, 47.782718107991762 ], [ 1.580190509082339, 47.783043312648452 ], [ 1.578584197547989, 47.783425527231024 ], [ 1.57700985739487, 47.783863702871002 ], [ 1.575471803779911, 47.784356637160663 ], [ 1.57397425240116, 47.784902977464085 ], [ 1.572521307942854, 47.785501224641521 ], [ 1.571116952824759, 47.786149737176515 ], [ 1.569765036286641, 47.786846735694589 ], [ 1.568469263837757, 47.787590307860562 ], [ 1.567233187100324, 47.78837841364107 ], [ 1.566060194074759, 47.789208890917614 ], [ 1.564953499853412, 47.790079461434331 ], [ 1.563916137808218, 47.790987737064285 ], [ 1.562950951276437, 47.791931226376462 ], [ 1.562060585767264, 47.792907341485602 ], [ 1.56124748171067, 47.793913405165618 ], [ 1.560513867768356, 47.794946658207017 ], [ 1.559861754725146, 47.796004266997883 ], [ 1.559292929977562, 47.797083331307398 ], [ 1.558808952634701, 47.798180892250571 ], [ 1.558411149244816, 47.7992939404119 ], [ 1.55810061015935, 47.800419424105847 ], [ 1.55787818654435, 47.801554257751057 ], [ 1.557744488047484, 47.802695330335538 ], [ 1.557699881127039, 47.803839513949335 ], [ 1.557744488047484, 47.804983672361267 ], [ 1.55787818654435, 47.806124669616267 ], [ 1.55810061015935, 47.807259378629695 ], [ 1.558411149244816, 47.808384689755059 ], [ 1.558808952634701, 47.809497519301694 ], [ 1.559292929977562, 47.810594817979265 ], [ 1.559861754725146, 47.811673579245692 ], [ 1.560513867768356, 47.812730847536194 ], [ 1.56124748171067, 47.813763726350551 ], [ 1.562060585767264, 47.814769386176962 ], [ 1.562950951276437, 47.815745072230619 ], [ 1.563916137808218, 47.816688111986267 ], [ 1.564953499853412, 47.817595922484088 ], [ 1.566060194074759, 47.818466017389163 ], [ 1.567233187100324, 47.819296013785426 ], [ 1.568469263837757, 47.820083638685659 ], [ 1.569765036286641, 47.820826735239969 ], [ 1.571116952824759, 47.821523268625924 ], [ 1.572521307942854, 47.822171331604409 ], [ 1.57397425240116, 47.822769149726383 ], [ 1.575471803779911, 47.823315086176223 ], [ 1.57700985739487, 47.823807646238869 ], [ 1.578584197547989, 47.824245481378505 ], [ 1.580190509082339, 47.824627392918011 ], [ 1.581824389209657, 47.824952335309113 ], [ 1.583481359578084, 47.825219418984531 ], [ 1.585156878547014, 47.825427912784384 ], [ 1.586846353635418, 47.82557724595047 ], [ 1.588545154109512, 47.825667009682853 ], [ 1.59024862367528, 47.825696958254795 ], [ 1.591952093241048, 47.825667009682853 ], [ 1.593650893715142, 47.82557724595047 ], [ 1.595340368803547, 47.825427912784384 ], [ 1.597015887772477, 47.825219418984531 ], [ 1.598672858140904, 47.824952335309113 ], [ 1.600306738268221, 47.824627392918011 ], [ 1.601913049802571, 47.824245481378505 ], [ 1.60348738995569, 47.823807646238869 ], [ 1.60502544357065, 47.823315086176223 ], [ 1.606522994949401, 47.822769149726383 ], [ 1.607975939407707, 47.822171331604409 ], [ 1.609380294525801, 47.821523268625924 ], [ 1.61073221106392, 47.820826735239969 ], [ 1.612027983512803, 47.820083638685659 ], [ 1.613264060250236, 47.819296013785426 ], [ 1.614437053275801, 47.818466017389163 ], [ 1.615543747497148, 47.817595922484088 ], [ 1.616581109542342, 47.816688111986267 ], [ 1.617546296074123, 47.815745072230619 ], [ 1.618436661583296, 47.814769386176962 ], [ 1.61924976563989, 47.813763726350551 ], [ 1.619983379582204, 47.812730847536194 ], [ 1.620635492625415, 47.811673579245692 ], [ 1.621204317372998, 47.810594817979265 ], [ 1.62168829471586, 47.809497519301694 ], [ 1.622086098105745, 47.808384689755059 ], [ 1.62239663719121, 47.807259378629695 ], [ 1.622619060806211, 47.806124669616267 ], [ 1.622752759303076, 47.804983672361267 ], [ 1.622797366223521, 47.803839513949335 ] ] ] } },
{ "type": "Feature", "properties": { "name": "Villorceau", "feature_type": "mrr", "metric_roundness": 50.3, "metric_rectangularity": 66.41, "metric_mobile_fit": 35.55, "metric_aspect_ratio": 1.207, "metric_area_km2": 20.74 }, "geometry": { "type": "Polygon", "coordinates": [ [ [ 1.562985391906841, 47.791472999652882 ], [ 1.60677674950047, 47.823120582403064 ], [ 1.635470098088235, 47.805213413379882 ], [ 1.591678740494606, 47.773554917689559 ], [ 1.562985391906841, 47.791472999652882 ] ] ] } }
]
}
