{
"type": "FeatureCollection",
"name": "villotte_sur_ource",
"crs": { "type": "name", "properties": { "name": "urn:ogc:def:crs:OGC:1.3:CRS84" } },
"features": [
{ "type": "Feature", "properties": { "name": "Villotte-sur-Ource", "feature_type": "entity", "metric_roundness": 38.47, "metric_rectangularity": 55.4, "metric_mobile_fit": 3.72, "metric_aspect_ratio": 1.525, "metric_area_km2": 21.27 }, "geometry": { "type": "Polygon", "coordinates": [ [ [ 4.7200125, 47.875424 ], [ 4.7058857, 47.880720199999985 ], [ 4.6952424, 47.877280299999981 ], [ 4.6858631, 47.8813181 ], [ 4.675977, 47.877573499999983 ], [ 4.670643, 47.8764205 ], [ 4.6737175, 47.8705816 ], [ 4.6720498, 47.8627007 ], [ 4.655825, 47.852648 ], [ 4.660203, 47.850356499999982 ], [ 4.664477, 47.851801 ], [ 4.6677, 47.852141499999973 ], [ 4.6692385, 47.8536855 ], [ 4.6745795, 47.8550635 ], [ 4.6888665, 47.85691749999998 ], [ 4.6901015, 47.853944 ], [ 4.694119, 47.850451 ], [ 4.726222, 47.870752499999988 ], [ 4.7200125, 47.875424 ] ] ] } },
{ "type": "Feature", "properties": { "name": "Villotte-sur-Ource", "feature_type": "circle", "metric_roundness": 38.47, "metric_rectangularity": 55.4, "metric_mobile_fit": 3.72, "metric_aspect_ratio": 1.525, "metric_area_km2": 21.27 }, "geometry": { "type": "Polygon", "coordinates": [ [ [ 4.728719323122449, 47.861701040342631 ], [ 4.728667662306961, 47.860377396160189 ], [ 4.728512821459206, 47.859057346337231 ], [ 4.728255224987179, 47.857744509453369 ], [ 4.727895578944909, 47.856442484589593 ], [ 4.727434869097198, 47.85515484145602 ], [ 4.726874358217715, 47.853885110597055 ], [ 4.726215582627819, 47.852636773701285 ], [ 4.725460347985612, 47.851413254042562 ], [ 4.724610724336753, 47.850217907078758 ], [ 4.723669040440606, 47.84905401123418 ], [ 4.722637877387275, 47.847924758890983 ], [ 4.721520061523013, 47.846833247614761 ], [ 4.720318656703407, 47.845782471638422 ], [ 4.719036955895559, 47.844775313628048 ], [ 4.717678472152292, 47.843814536753669 ], [ 4.716246928983121, 47.842902777086891 ], [ 4.714746250148364, 47.842042536346561 ], [ 4.713180548904401, 47.841236175012746 ], [ 4.711554116729507, 47.840485905828075 ], [ 4.709871411561224, 47.839793787704693 ], [ 4.708137045577454, 47.839161720053845 ], [ 4.706355772554804, 47.838591437553745 ], [ 4.704532474838814, 47.83808450537061 ], [ 4.702672149961789, 47.837642314846079 ], [ 4.700779896944906, 47.837266079663053 ], [ 4.698860902322155, 47.836956832500789 ], [ 4.696920425924412, 47.836715422188554 ], [ 4.694963786462599, 47.836542511365913 ], [ 4.692996346949478, 47.836438574655993 ], [ 4.6910235, 47.836403897357052 ], [ 4.689050653050521, 47.836438574655993 ], [ 4.687083213537401, 47.836542511365913 ], [ 4.685126574075589, 47.836715422188554 ], [ 4.683186097677845, 47.836956832500789 ], [ 4.681267103055094, 47.837266079663053 ], [ 4.679374850038212, 47.837642314846079 ], [ 4.677514525161185, 47.83808450537061 ], [ 4.675691227445196, 47.838591437553745 ], [ 4.673909954422546, 47.839161720053845 ], [ 4.672175588438775, 47.839793787704693 ], [ 4.670492883270493, 47.840485905828075 ], [ 4.668866451095599, 47.841236175012746 ], [ 4.667300749851634, 47.842042536346561 ], [ 4.665800071016879, 47.842902777086891 ], [ 4.664368527847707, 47.843814536753669 ], [ 4.663010044104441, 47.844775313628048 ], [ 4.661728343296592, 47.845782471638422 ], [ 4.660526938476987, 47.846833247614761 ], [ 4.659409122612725, 47.847924758890983 ], [ 4.658377959559394, 47.84905401123418 ], [ 4.657436275663247, 47.850217907078758 ], [ 4.656586652014387, 47.851413254042562 ], [ 4.655831417372181, 47.852636773701285 ], [ 4.655172641782285, 47.853885110597055 ], [ 4.654612130902802, 47.85515484145602 ], [ 4.654151421055091, 47.856442484589593 ], [ 4.653791775012821, 47.857744509453369 ], [ 4.653534178540795, 47.859057346337231 ], [ 4.653379337693038, 47.860377396160189 ], [ 4.65332767687755, 47.861701040342631 ], [ 4.653379337693038, 47.863024650729194 ], [ 4.653534178540795, 47.864344599534782 ], [ 4.653791775012821, 47.865657269286565 ], [ 4.654151421055091, 47.866959062734679 ], [ 4.654612130902802, 47.868246412704451 ], [ 4.655172641782285, 47.869515791863421 ], [ 4.655831417372181, 47.870763722376324 ], [ 4.656586652014387, 47.871986785421726 ], [ 4.657436275663247, 47.873181630544487 ], [ 4.658377959559394, 47.874344984818592 ], [ 4.659409122612725, 47.875473661795432 ], [ 4.660526938476987, 47.876564570213255 ], [ 4.661728343296592, 47.877614722444207 ], [ 4.663010044104441, 47.878621242656081 ], [ 4.664368527847707, 47.879581374666699 ], [ 4.665800071016879, 47.880492489469717 ], [ 4.667300749851634, 47.881352092411561 ], [ 4.668866451095599, 47.88215783 ], [ 4.670492883270493, 47.882907496326304 ], [ 4.672175588438775, 47.883599039083364 ], [ 4.673909954422546, 47.884230565163776 ], [ 4.675691227445196, 47.884800345822875 ], [ 4.677514525161185, 47.885306821392717 ], [ 4.679374850038212, 47.885748605534417 ], [ 4.681267103055094, 47.886124489017504 ], [ 4.683186097677845, 47.886433443015996 ], [ 4.685126574075589, 47.886674621912583 ], [ 4.687083213537401, 47.88684736560316 ], [ 4.689050653050521, 47.886951201295737 ], [ 4.6910235, 47.886985844798808 ], [ 4.692996346949478, 47.886951201295737 ], [ 4.694963786462599, 47.88684736560316 ], [ 4.696920425924412, 47.886674621912583 ], [ 4.698860902322155, 47.886433443015996 ], [ 4.700779896944906, 47.886124489017504 ], [ 4.702672149961789, 47.885748605534417 ], [ 4.704532474838814, 47.885306821392717 ], [ 4.706355772554804, 47.884800345822875 ], [ 4.708137045577454, 47.884230565163776 ], [ 4.709871411561224, 47.883599039083364 ], [ 4.711554116729507, 47.882907496326304 ], [ 4.713180548904401, 47.88215783 ], [ 4.714746250148364, 47.881352092411561 ], [ 4.716246928983121, 47.880492489469717 ], [ 4.717678472152292, 47.879581374666699 ], [ 4.719036955895559, 47.878621242656081 ], [ 4.720318656703407, 47.877614722444207 ], [ 4.721520061523013, 47.876564570213255 ], [ 4.722637877387275, 47.875473661795432 ], [ 4.723669040440606, 47.874344984818592 ], [ 4.724610724336753, 47.873181630544487 ], [ 4.725460347985612, 47.871986785421726 ], [ 4.726215582627819, 47.870763722376324 ], [ 4.726874358217715, 47.869515791863421 ], [ 4.727434869097198, 47.868246412704451 ], [ 4.727895578944909, 47.866959062734679 ], [ 4.728255224987179, 47.865657269286565 ], [ 4.728512821459206, 47.864344599534782 ], [ 4.728667662306961, 47.863024650729194 ], [ 4.728719323122449, 47.861701040342631 ] ] ] } },
{ "type": "Feature", "properties": { "name": "Villotte-sur-Ource", "feature_type": "mrr", "metric_roundness": 38.47, "metric_rectangularity": 55.4, "metric_mobile_fit": 3.72, "metric_aspect_ratio": 1.525, "metric_area_km2": 21.27 }, "geometry": { "type": "Polygon", "coordinates": [ [ [ 4.72640980781586, 47.870871245091834 ], [ 4.675474415160398, 47.838656770354987 ], [ 4.645109801005572, 47.860276066819445 ], [ 4.696045193661034, 47.892477112098746 ], [ 4.72640980781586, 47.870871245091834 ] ] ] } }
]
}
