{
"type": "FeatureCollection",
"name": "villars_les_bois",
"crs": { "type": "name", "properties": { "name": "urn:ogc:def:crs:OGC:1.3:CRS84" } },
"features": [
{ "type": "Feature", "properties": { "name": "Villars-les-Bois", "feature_type": "entity", "metric_roundness": 49.32, "metric_rectangularity": 61.81, "metric_mobile_fit": 54.68, "metric_aspect_ratio": 1.016, "metric_area_km2": 17.42 }, "geometry": { "type": "Polygon", "coordinates": [ [ [ -0.4637373, 45.784299 ], [ -0.456756, 45.777609 ], [ -0.4516581, 45.783823 ], [ -0.437443, 45.7891775 ], [ -0.4230286, 45.7871465 ], [ -0.4093165, 45.792647 ], [ -0.4154841, 45.8076921 ], [ -0.431572, 45.814963499999983 ], [ -0.4341791, 45.810996199999984 ], [ -0.4518494, 45.8025551 ], [ -0.4543433, 45.794897199999987 ], [ -0.463306, 45.7873375 ], [ -0.4637373, 45.784299 ] ] ] } },
{ "type": "Feature", "properties": { "name": "Villars-les-Bois", "feature_type": "circle", "metric_roundness": 49.32, "metric_rectangularity": 61.81, "metric_mobile_fit": 54.68, "metric_aspect_ratio": 1.016, "metric_area_km2": 17.42 }, "geometry": { "type": "Polygon", "coordinates": [ [ [ -0.408938480261003, 45.794619719681435 ], [ -0.408979773629237, 45.793520222036669 ], [ -0.409103540551688, 45.792423716435316 ], [ -0.409309441791824, 45.791333208589336 ], [ -0.409596912988658, 45.790251687945563 ], [ -0.409965166203621, 45.789182119487023 ], [ -0.410413192080248, 45.788127435599428 ], [ -0.410939762610753, 45.787090528025274 ], [ -0.411543434501913, 45.786074239927565 ], [ -0.412222553131036, 45.785081358085201 ], [ -0.412975257081164, 45.78411460524142 ], [ -0.413799483243089, 45.783176632626443 ], [ -0.414692972470194, 45.782270012674985 ], [ -0.415653275770611, 45.781397231958771 ], [ -0.416677761019745, 45.78056068435361 ], [ -0.417763620174738, 45.779762664459945 ], [ -0.418907876971125, 45.779005361295049 ], [ -0.420107395080562, 45.77829085227448 ], [ -0.421358886707289, 45.777621097499406 ], [ -0.422658921599747, 45.776997934365646 ], [ -0.424003936452661, 45.77642307250953 ], [ -0.425390244673808, 45.775898089104423 ], [ -0.426814046488717, 45.775424424521262 ], [ -0.42827143935558, 45.775003378364879 ], [ -0.429758428661851, 45.774636105897422 ], [ -0.431270938673201, 45.774323614858659 ], [ -0.432804823704821, 45.774066762692094 ], [ -0.43435587948446, 45.773866254184618 ], [ -0.435919854676038, 45.773722639526241 ], [ -0.437492462532265, 45.773636312795439 ], [ -0.439069392644318, 45.773607510874115 ], [ -0.440646322756371, 45.773636312795439 ], [ -0.442218930612598, 45.773722639526241 ], [ -0.443782905804176, 45.773866254184618 ], [ -0.445333961583815, 45.774066762692094 ], [ -0.446867846615435, 45.774323614858659 ], [ -0.448380356626785, 45.774636105897422 ], [ -0.449867345933056, 45.775003378364879 ], [ -0.451324738799919, 45.775424424521262 ], [ -0.452748540614828, 45.775898089104423 ], [ -0.454134848835976, 45.77642307250953 ], [ -0.455479863688889, 45.776997934365646 ], [ -0.456779898581347, 45.777621097499406 ], [ -0.458031390208074, 45.77829085227448 ], [ -0.459230908317511, 45.779005361295049 ], [ -0.460375165113898, 45.779762664459945 ], [ -0.461461024268891, 45.78056068435361 ], [ -0.462485509518025, 45.781397231958771 ], [ -0.463445812818443, 45.782270012674985 ], [ -0.464339302045547, 45.783176632626443 ], [ -0.465163528207472, 45.78411460524142 ], [ -0.4659162321576, 45.785081358085201 ], [ -0.466595350786723, 45.786074239927565 ], [ -0.467199022677883, 45.787090528025274 ], [ -0.467725593208388, 45.788127435599428 ], [ -0.468173619085015, 45.789182119487023 ], [ -0.468541872299978, 45.790251687945563 ], [ -0.468829343496812, 45.791333208589336 ], [ -0.469035244736948, 45.792423716435316 ], [ -0.469159011659399, 45.793520222036669 ], [ -0.469200305027633, 45.794619719681435 ], [ -0.469159011659399, 45.795719195633929 ], [ -0.469035244736948, 45.796815636396104 ], [ -0.468829343496812, 45.797906036966417 ], [ -0.468541872299978, 45.798987409073348 ], [ -0.468173619085015, 45.800056789361285 ], [ -0.467725593208388, 45.801111247506142 ], [ -0.467199022677883, 45.802147894238729 ], [ -0.466595350786723, 45.80316388925386 ], [ -0.4659162321576, 45.804156448983704 ], [ -0.465163528207472, 45.805122854214169 ], [ -0.464339302045547, 45.80606045752355 ], [ -0.463445812818443, 45.806966690523325 ], [ -0.462485509518025, 45.8078390708813 ], [ -0.461461024268891, 45.808675209108053 ], [ -0.460375165113898, 45.809472815088398 ], [ -0.459230908317511, 45.810229704339982 ], [ -0.458031390208074, 45.810943803982155 ], [ -0.456779898581347, 45.811613158398998 ], [ -0.455479863688889, 45.812235934581082 ], [ -0.454134848835976, 45.81281042713163 ], [ -0.452748540614828, 45.813335062923429 ], [ -0.451324738799919, 45.813808405394084 ], [ -0.449867345933056, 45.81422915846791 ], [ -0.448380356626785, 45.814596170093807 ], [ -0.446867846615435, 45.81490843538986 ], [ -0.445333961583815, 45.815165099385837 ], [ -0.443782905804176, 45.815365459356485 ], [ -0.442218930612598, 45.815508966739195 ], [ -0.440646322756371, 45.815595228630841 ], [ -0.439069392644318, 45.815624008859871 ], [ -0.437492462532265, 45.815595228630841 ], [ -0.435919854676038, 45.815508966739195 ], [ -0.43435587948446, 45.815365459356485 ], [ -0.432804823704821, 45.815165099385837 ], [ -0.431270938673201, 45.81490843538986 ], [ -0.429758428661851, 45.814596170093807 ], [ -0.42827143935558, 45.81422915846791 ], [ -0.426814046488717, 45.813808405394084 ], [ -0.425390244673808, 45.813335062923429 ], [ -0.424003936452661, 45.81281042713163 ], [ -0.422658921599747, 45.812235934581082 ], [ -0.421358886707289, 45.811613158398998 ], [ -0.420107395080562, 45.810943803982155 ], [ -0.418907876971125, 45.810229704339982 ], [ -0.417763620174738, 45.809472815088398 ], [ -0.416677761019745, 45.808675209108053 ], [ -0.415653275770611, 45.8078390708813 ], [ -0.414692972470194, 45.806966690523325 ], [ -0.413799483243089, 45.80606045752355 ], [ -0.412975257081164, 45.805122854214169 ], [ -0.412222553131036, 45.804156448983704 ], [ -0.411543434501913, 45.80316388925386 ], [ -0.410939762610753, 45.802147894238729 ], [ -0.410413192080248, 45.801111247506142 ], [ -0.409965166203621, 45.800056789361285 ], [ -0.409596912988658, 45.798987409073348 ], [ -0.409309441791824, 45.797906036966417 ], [ -0.409103540551688, 45.796815636396104 ], [ -0.408979773629237, 45.795719195633929 ], [ -0.408938480261003, 45.794619719681435 ] ] ] } },
{ "type": "Feature", "properties": { "name": "Villars-les-Bois", "feature_type": "mrr", "metric_roundness": 49.32, "metric_rectangularity": 61.81, "metric_mobile_fit": 54.68, "metric_aspect_ratio": 1.016, "metric_area_km2": 17.42 }, "geometry": { "type": "Polygon", "coordinates": [ [ [ -0.404622611903686, 45.794529791138061 ], [ -0.455379669168998, 45.774166974362451 ], [ -0.474750671218467, 45.797647818998854 ], [ -0.423993613953156, 45.8180020589175 ], [ -0.404622611903686, 45.794529791138061 ] ] ] } }
]
}
