{
"type": "FeatureCollection",
"name": "villemoisson_sur_orge",
"crs": { "type": "name", "properties": { "name": "urn:ogc:def:crs:OGC:1.3:CRS84" } },
"features": [
{ "type": "Feature", "properties": { "name": "Villemoisson-sur-Orge", "metric_roundness": 52.19, "metric_rectangularity": 68.67, "metric_mobile_fit": 75.43, "metric_aspect_ratio": 0.808, "metric_area_km2": 5.2 }, "geometry": { "type": "Polygon", "coordinates": [ [ [ 2.3327255, 48.667306 ], [ 2.32404, 48.6692825 ], [ 2.32043, 48.6681585 ], [ 2.3187355, 48.665641 ], [ 2.322199, 48.657822 ], [ 2.3368645, 48.650307499999982 ], [ 2.3411385, 48.662002499999971 ], [ 2.341954, 48.667575 ], [ 2.33812, 48.667373 ], [ 2.3327255, 48.667306 ] ] ] } }
]
}
