{
"type": "FeatureCollection",
"name": "villameriel",
"crs": { "type": "name", "properties": { "name": "urn:ogc:def:crs:OGC:1.3:CRS84" } },
"features": [
{ "type": "Feature", "properties": { "name": "Villameriel", "feature_type": "entity", "metric_roundness": 26.57, "metric_rectangularity": 44.84, "metric_mobile_fit": 91.13, "metric_aspect_ratio": 0.651, "metric_area_km2": 99.12 }, "geometry": { "type": "Polygon", "coordinates": [ [ [ -4.4246416, 42.485171799999989 ], [ -4.4292045, 42.4949035 ], [ -4.4313404, 42.5085154 ], [ -4.4417867, 42.520409799999989 ], [ -4.4439405, 42.5331641 ], [ -4.4380347, 42.5425896 ], [ -4.422229, 42.545753499999982 ], [ -4.417244, 42.5494345 ], [ -4.417482, 42.551864499999986 ], [ -4.4120135, 42.554058 ], [ -4.425066, 42.565052 ], [ -4.440023, 42.567831299999987 ], [ -4.444063, 42.5731885 ], [ -4.4620069, 42.566692 ], [ -4.472861, 42.5691474 ], [ -4.4952275, 42.580898 ], [ -4.4883454, 42.587225499999988 ], [ -4.494574, 42.591512399999985 ], [ -4.4933705, 42.597519 ], [ -4.512351, 42.596115 ], [ -4.520227, 42.598163499999984 ], [ -4.5266473, 42.5915575 ], [ -4.524393, 42.582584499999982 ], [ -4.5115519, 42.5923629 ], [ -4.506882, 42.583751 ], [ -4.508213, 42.566536 ], [ -4.4985941, 42.5586944 ], [ -4.5002759, 42.5494946 ], [ -4.4966176, 42.528336599999989 ], [ -4.4916095, 42.5190085 ], [ -4.4774898, 42.5112878 ], [ -4.479528, 42.500920199999989 ], [ -4.4728205, 42.48666 ], [ -4.4483463, 42.4853379 ], [ -4.4442862, 42.4757245 ], [ -4.434392, 42.4684525 ], [ -4.4246416, 42.485171799999989 ] ] ] } },
{ "type": "Feature", "properties": { "name": "Villameriel", "feature_type": "circle", "metric_roundness": 26.57, "metric_rectangularity": 44.84, "metric_mobile_fit": 91.13, "metric_aspect_ratio": 0.651, "metric_area_km2": 99.12 }, "geometry": { "type": "Polygon", "coordinates": [ [ [ -4.379389993770494, 42.53334167446075 ], [ -4.379524189050631, 42.529565242392728 ], [ -4.379926407071106, 42.525798933867065 ], [ -4.380595545380285, 42.522053074879672 ], [ -4.38152976991657, 42.51833793721039 ], [ -4.382726520035447, 42.514663710217953 ], [ -4.384182515528025, 42.511040472841159 ], [ -4.385893765611863, 42.507478165884095 ], [ -4.387855579869429, 42.503986564662057 ], [ -4.390062581104207, 42.500575252084481 ], [ -4.392508720079219, 42.497253592250004 ], [ -4.395187292097565, 42.494030704627534 ], [ -4.398090955379526, 42.490915438895712 ], [ -4.401211751185879, 42.487916350511632 ], [ -4.404541125632241, 42.485041677077618 ], [ -4.408069953134677, 42.482299315572924 ], [ -4.41178856142229, 42.479696800514716 ], [ -4.41568675804824, 42.477241283110509 ], [ -4.419753858326534, 42.474939511461152 ], [ -4.423978714618014, 42.472797811870805 ], [ -4.428349746885247, 42.470822071317528 ], [ -4.432854974432616, 42.469017721134087 ], [ -4.43748204874457, 42.467389721946269 ], [ -4.442218287332044, 42.46594254991151 ], [ -4.447050708494279, 42.464680184297507 ], [ -4.451966066900769, 42.463606096436585 ], [ -4.456950889895783, 42.462723240087485 ], [ -4.461991514425983, 42.462034043232435 ], [ -4.467074124489901, 42.461540401333089 ], [ -4.472184789006642, 42.461243672064931 ], [ -4.4773095, 42.461144671545121 ], [ -4.482434210993358, 42.461243672064931 ], [ -4.487544875510097, 42.461540401333089 ], [ -4.492627485574016, 42.462034043232435 ], [ -4.497668110104216, 42.462723240087485 ], [ -4.50265293309923, 42.463606096436585 ], [ -4.507568291505721, 42.464680184297507 ], [ -4.512400712667956, 42.46594254991151 ], [ -4.517136951255428, 42.467389721946269 ], [ -4.521764025567383, 42.469017721134087 ], [ -4.526269253114751, 42.470822071317528 ], [ -4.530640285381986, 42.472797811870805 ], [ -4.534865141673464, 42.474939511461152 ], [ -4.538932241951759, 42.477241283110509 ], [ -4.542830438577709, 42.479696800514716 ], [ -4.546549046865321, 42.482299315572924 ], [ -4.550077874367758, 42.485041677077618 ], [ -4.553407248814121, 42.487916350511632 ], [ -4.556528044620473, 42.490915438895712 ], [ -4.559431707902434, 42.494030704627534 ], [ -4.56211027992078, 42.497253592250004 ], [ -4.564556418895792, 42.500575252084481 ], [ -4.566763420130571, 42.503986564662057 ], [ -4.568725234388136, 42.507478165884095 ], [ -4.570436484471974, 42.511040472841159 ], [ -4.571892479964553, 42.514663710217953 ], [ -4.573089230083429, 42.51833793721039 ], [ -4.574023454619716, 42.522053074879672 ], [ -4.574692592928893, 42.525798933867065 ], [ -4.575094810949369, 42.529565242392728 ], [ -4.575229006229505, 42.53334167446075 ], [ -4.575094810949369, 42.537117878192831 ], [ -4.574692592928893, 42.540883504212367 ], [ -4.574023454619716, 42.544628234001138 ], [ -4.573089230083429, 42.548341808151065 ], [ -4.571892479964553, 42.552014054433691 ], [ -4.570436484471974, 42.555634915611307 ], [ -4.568725234388136, 42.559194476913987 ], [ -4.566763420130571, 42.562682993108467 ], [ -4.564556418895792, 42.566090915085553 ], [ -4.56211027992078, 42.569408915894741 ], [ -4.559431707902434, 42.57262791615625 ], [ -4.556528044620473, 42.575739108782187 ], [ -4.553407248814121, 42.57873398294128 ], [ -4.550077874367759, 42.581604347203161 ], [ -4.546549046865321, 42.5843423518008 ], [ -4.542830438577709, 42.586940509952193 ], [ -4.538932241951759, 42.589391718185013 ], [ -4.534865141673464, 42.591689275610591 ], [ -4.530640285381986, 42.593826902096644 ], [ -4.526269253114751, 42.5957987552909 ], [ -4.521764025567383, 42.597599446451241 ], [ -4.517136951255428, 42.599224055040906 ], [ -4.512400712667956, 42.600668142050502 ], [ -4.507568291505721, 42.601927762012473 ], [ -4.50265293309923, 42.602999473676398 ], [ -4.497668110104216, 42.603880349317613 ], [ -4.492627485574016, 42.60456798265492 ], [ -4.487544875510097, 42.605060495356845 ], [ -4.482434210993358, 42.605356542119615 ], [ -4.4773095, 42.605455314303725 ], [ -4.472184789006642, 42.605356542119615 ], [ -4.467074124489901, 42.605060495356845 ], [ -4.461991514425983, 42.60456798265492 ], [ -4.456950889895783, 42.603880349317613 ], [ -4.451966066900769, 42.602999473676398 ], [ -4.447050708494279, 42.601927762012473 ], [ -4.442218287332044, 42.600668142050502 ], [ -4.43748204874457, 42.599224055040906 ], [ -4.432854974432616, 42.597599446451241 ], [ -4.428349746885247, 42.5957987552909 ], [ -4.423978714618014, 42.593826902096644 ], [ -4.419753858326534, 42.591689275610591 ], [ -4.41568675804824, 42.589391718185013 ], [ -4.41178856142229, 42.586940509952193 ], [ -4.408069953134677, 42.5843423518008 ], [ -4.404541125632242, 42.581604347203161 ], [ -4.401211751185879, 42.57873398294128 ], [ -4.398090955379526, 42.575739108782187 ], [ -4.395187292097565, 42.57262791615625 ], [ -4.392508720079219, 42.569408915894741 ], [ -4.390062581104207, 42.566090915085553 ], [ -4.387855579869429, 42.562682993108467 ], [ -4.385893765611863, 42.559194476913987 ], [ -4.384182515528025, 42.555634915611307 ], [ -4.382726520035447, 42.552014054433691 ], [ -4.38152976991657, 42.548341808151065 ], [ -4.380595545380285, 42.544628234001138 ], [ -4.379926407071106, 42.540883504212367 ], [ -4.379524189050631, 42.537117878192831 ], [ -4.379389993770494, 42.53334167446075 ] ] ] } },
{ "type": "Feature", "properties": { "name": "Villameriel", "feature_type": "mrr", "metric_roundness": 26.57, "metric_rectangularity": 44.84, "metric_mobile_fit": 91.13, "metric_aspect_ratio": 0.651, "metric_area_km2": 99.12 }, "geometry": { "type": "Polygon", "coordinates": [ [ [ -4.462050108138811, 42.460757269381141 ], [ -4.530861338404965, 42.595210991370507 ], [ -4.445266356620943, 42.618971547890119 ], [ -4.376455126354791, 42.484569035492207 ], [ -4.462050108138811, 42.460757269381141 ] ] ] } }
]
}
