{
"type": "FeatureCollection",
"name": "villettes",
"crs": { "type": "name", "properties": { "name": "urn:ogc:def:crs:OGC:1.3:CRS84" } },
"features": [
{ "type": "Feature", "properties": { "name": "Villettes", "metric_roundness": 63.83, "metric_rectangularity": 71.35, "metric_mobile_fit": 42.5, "metric_aspect_ratio": 1.137, "metric_area_km2": 16.31 }, "geometry": { "type": "Polygon", "coordinates": [ [ [ 1.0692906, 49.150318 ], [ 1.0609901, 49.1603327 ], [ 1.06582, 49.163681499999988 ], [ 1.030213, 49.169894 ], [ 1.028589, 49.169068 ], [ 1.0308825, 49.1650935 ], [ 1.031233, 49.162078499999986 ], [ 1.0332185, 49.162154 ], [ 1.033146, 49.160122 ], [ 1.02217, 49.154781 ], [ 1.0233625, 49.151559 ], [ 1.0258815, 49.152126 ], [ 1.0283685, 49.148603499999986 ], [ 1.0312445, 49.1464775 ], [ 1.031326, 49.143289 ], [ 1.0603365, 49.1428015 ], [ 1.0692906, 49.150318 ] ] ] } }
]
}
