{
"type": "FeatureCollection",
"name": "villaudric",
"crs": { "type": "name", "properties": { "name": "urn:ogc:def:crs:OGC:1.3:CRS84" } },
"features": [
{ "type": "Feature", "properties": { "name": "Villaudric", "feature_type": "entity", "metric_roundness": 72.31, "metric_rectangularity": 73.94, "metric_mobile_fit": 62.01, "metric_aspect_ratio": 0.942, "metric_area_km2": 22.93 }, "geometry": { "type": "Polygon", "coordinates": [ [ [ 1.4247051, 43.819818 ], [ 1.4307461, 43.813312 ], [ 1.4396214, 43.8155499 ], [ 1.4518185, 43.8137655 ], [ 1.4618635, 43.828940499999987 ], [ 1.4527141, 43.837460899999982 ], [ 1.4496665, 43.8453982 ], [ 1.4389742, 43.8505162 ], [ 1.4294835, 43.851367 ], [ 1.4200418, 43.8478573 ], [ 1.414756, 43.842107899999981 ], [ 1.4121504, 43.8265138 ], [ 1.4184855, 43.819125 ], [ 1.4247051, 43.819818 ] ] ] } },
{ "type": "Feature", "properties": { "name": "Villaudric", "feature_type": "circle", "metric_roundness": 72.31, "metric_rectangularity": 73.94, "metric_mobile_fit": 62.01, "metric_aspect_ratio": 0.942, "metric_area_km2": 22.93 }, "geometry": { "type": "Polygon", "coordinates": [ [ [ 1.466159745976563, 43.831630272229631 ], [ 1.466120624100683, 43.830552520734138 ], [ 1.466003365703384, 43.829477703898441 ], [ 1.465808292181783, 43.828408767959772 ], [ 1.465535938218844, 43.827348643192622 ], [ 1.465187050317848, 43.826300235872708 ], [ 1.46476258475628, 43.825266420305127 ], [ 1.464263704964741, 43.82425003093843 ], [ 1.463691778338061, 43.82325385458654 ], [ 1.463048372487373, 43.822280622779701 ], [ 1.462335250943388, 43.821333004265774 ], [ 1.461554368322691, 43.820413597682283 ], [ 1.460707864970266, 43.819524924419781 ], [ 1.459798061092964, 43.818669421695965 ], [ 1.458827450399971, 43.817849435859756 ], [ 1.457798693267731, 43.817067215944036 ], [ 1.456714609448036, 43.816324907484599 ], [ 1.455578170339281, 43.815624546622729 ], [ 1.45439249084207, 43.814968054507538 ], [ 1.453160820821491, 43.814357232013698 ], [ 1.451886536199457, 43.813793754789231 ], [ 1.450573129701543, 43.813279168647014 ], [ 1.449224201283665, 43.81281488531296 ], [ 1.447843448264854, 43.812402178542456 ], [ 1.44643465519316, 43.812042180616174 ], [ 1.445001683472468, 43.811735879224656 ], [ 1.443548460778661, 43.811484114750627 ], [ 1.442078970294128, 43.811287577956492 ], [ 1.440597239790147, 43.811146808083315 ], [ 1.439107330587033, 43.811062191366872 ], [ 1.437613326422351, 43.811033959974644 ], [ 1.436119322257669, 43.811062191366872 ], [ 1.434629413054556, 43.811146808083315 ], [ 1.433147682550574, 43.811287577956492 ], [ 1.431678192066042, 43.811484114750627 ], [ 1.430224969372234, 43.811735879224656 ], [ 1.428791997651542, 43.812042180616174 ], [ 1.427383204579848, 43.812402178542456 ], [ 1.426002451561038, 43.81281488531296 ], [ 1.42465352314316, 43.813279168647014 ], [ 1.423340116645245, 43.813793754789231 ], [ 1.422065832023211, 43.814357232013698 ], [ 1.420834162002632, 43.814968054507538 ], [ 1.419648482505422, 43.815624546622729 ], [ 1.418512043396667, 43.816324907484599 ], [ 1.417427959576972, 43.817067215944036 ], [ 1.416399202444732, 43.817849435859756 ], [ 1.415428591751739, 43.818669421695965 ], [ 1.414518787874436, 43.819524924419781 ], [ 1.413672284522012, 43.820413597682283 ], [ 1.412891401901315, 43.821333004265774 ], [ 1.41217828035733, 43.822280622779701 ], [ 1.411534874506641, 43.82325385458654 ], [ 1.410962947879962, 43.82425003093843 ], [ 1.410464068088423, 43.825266420305127 ], [ 1.410039602526854, 43.826300235872708 ], [ 1.409690714625858, 43.827348643192622 ], [ 1.409418360662919, 43.828408767959772 ], [ 1.409223287141318, 43.829477703898441 ], [ 1.40910602874402, 43.830552520734138 ], [ 1.409066906868139, 43.831630272229631 ], [ 1.40910602874402, 43.83270800426304 ], [ 1.409223287141318, 43.833782762925658 ], [ 1.409418360662919, 43.834851602617647 ], [ 1.409690714625858, 43.835911594119004 ], [ 1.410039602526854, 43.836959832614092 ], [ 1.410464068088423, 43.837993445647498 ], [ 1.410962947879962, 43.839009600989698 ], [ 1.411534874506641, 43.840005514390761 ], [ 1.41217828035733, 43.840978457201388 ], [ 1.412891401901315, 43.841925763840067 ], [ 1.413672284522012, 43.84284483908619 ], [ 1.414518787874436, 43.843733165179437 ], [ 1.415428591751739, 43.844588308705752 ], [ 1.416399202444732, 43.845407927251664 ], [ 1.417427959576972, 43.846189775808398 ], [ 1.418512043396667, 43.846931712908869 ], [ 1.419648482505422, 43.847631706480449 ], [ 1.420834162002632, 43.848287839398161 ], [ 1.422065832023211, 43.848898314722746 ], [ 1.423340116645245, 43.849461460609859 ], [ 1.42465352314316, 43.849975734876828 ], [ 1.426002451561038, 43.850439729214699 ], [ 1.427383204579848, 43.85085217303439 ], [ 1.428791997651542, 43.851211936936188 ], [ 1.430224969372234, 43.851518035793553 ], [ 1.431678192066042, 43.851769631442757 ], [ 1.433147682550574, 43.851966034971113 ], [ 1.434629413054556, 43.852106708597631 ], [ 1.436119322257669, 43.852191267141002 ], [ 1.437613326422351, 43.852219479071124 ], [ 1.439107330587033, 43.852191267141002 ], [ 1.440597239790147, 43.852106708597631 ], [ 1.442078970294128, 43.851966034971113 ], [ 1.443548460778661, 43.851769631442757 ], [ 1.445001683472468, 43.851518035793553 ], [ 1.44643465519316, 43.851211936936188 ], [ 1.447843448264854, 43.85085217303439 ], [ 1.449224201283665, 43.850439729214699 ], [ 1.450573129701543, 43.849975734876828 ], [ 1.451886536199457, 43.849461460609859 ], [ 1.453160820821491, 43.848898314722746 ], [ 1.45439249084207, 43.848287839398161 ], [ 1.455578170339281, 43.847631706480449 ], [ 1.456714609448036, 43.846931712908869 ], [ 1.457798693267731, 43.846189775808398 ], [ 1.458827450399971, 43.845407927251664 ], [ 1.459798061092964, 43.844588308705752 ], [ 1.460707864970266, 43.843733165179437 ], [ 1.461554368322691, 43.84284483908619 ], [ 1.462335250943388, 43.841925763840067 ], [ 1.463048372487373, 43.840978457201388 ], [ 1.463691778338061, 43.840005514390761 ], [ 1.464263704964741, 43.839009600989698 ], [ 1.46476258475628, 43.837993445647498 ], [ 1.465187050317848, 43.836959832614092 ], [ 1.465535938218844, 43.835911594119004 ], [ 1.465808292181783, 43.834851602617647 ], [ 1.466003365703384, 43.833782762925658 ], [ 1.466120624100683, 43.83270800426304 ], [ 1.466159745976563, 43.831630272229631 ] ] ] } },
{ "type": "Feature", "properties": { "name": "Villaudric", "feature_type": "mrr", "metric_roundness": 72.31, "metric_rectangularity": 73.94, "metric_mobile_fit": 62.01, "metric_aspect_ratio": 0.942, "metric_area_km2": 22.93 }, "geometry": { "type": "Polygon", "coordinates": [ [ [ 1.445175665961606, 43.806469924571793 ], [ 1.401259457524065, 43.827291261640227 ], [ 1.427409609656823, 43.855995806035978 ], [ 1.471325818094364, 43.835184482443815 ], [ 1.445175665961606, 43.806469924571793 ] ] ] } }
]
}
