{
"type": "FeatureCollection",
"name": "virey_sous_bar",
"crs": { "type": "name", "properties": { "name": "urn:ogc:def:crs:OGC:1.3:CRS84" } },
"features": [
{ "type": "Feature", "properties": { "name": "Virey-sous-Bar", "metric_roundness": 61.92, "metric_rectangularity": 76.83, "metric_mobile_fit": 7.74, "metric_aspect_ratio": 1.485, "metric_area_km2": 23.12 }, "geometry": { "type": "Polygon", "coordinates": [ [ [ 4.275439, 48.1339875 ], [ 4.2767026, 48.1284433 ], [ 4.2903393, 48.1213382 ], [ 4.3108184, 48.1252317 ], [ 4.329364, 48.1212435 ], [ 4.3355386, 48.1341429 ], [ 4.335267, 48.141934499999977 ], [ 4.3147809, 48.148250899999987 ], [ 4.2799495, 48.1433125 ], [ 4.275439, 48.1339875 ] ] ] } }
]
}
