{
"type": "FeatureCollection",
"name": "vito_d_asio",
"crs": { "type": "name", "properties": { "name": "urn:ogc:def:crs:OGC:1.3:CRS84" } },
"features": [
{ "type": "Feature", "properties": { "name": "Vito d'Asio", "metric_roundness": 29.52, "metric_rectangularity": 54.86, "metric_mobile_fit": 86.69, "metric_aspect_ratio": 0.429, "metric_area_km2": 111.65 }, "geometry": { "type": "Polygon", "coordinates": [ [ [ 12.937678, 46.211916 ], [ 12.949142, 46.2162242 ], [ 12.9563841, 46.214348399999984 ], [ 12.9581815, 46.2251287 ], [ 12.9744363, 46.236197199999985 ], [ 12.9713407, 46.2469531 ], [ 12.9767154, 46.255449199999987 ], [ 12.975084, 46.2642112 ], [ 12.9779999, 46.268236599999973 ], [ 12.9905885, 46.273251 ], [ 12.9765282, 46.2818398 ], [ 12.9669018, 46.2841427 ], [ 12.9567335, 46.2932855 ], [ 12.9551878, 46.3027173 ], [ 12.9745469, 46.316502 ], [ 12.973565, 46.328256 ], [ 12.9639591, 46.3316022 ], [ 12.961212, 46.337010499999984 ], [ 12.9372166, 46.3341111 ], [ 12.9170389, 46.3453624 ], [ 12.90645, 46.334775 ], [ 12.9172183, 46.3325408 ], [ 12.9217871, 46.321810499999984 ], [ 12.9132805, 46.3096294 ], [ 12.9141055, 46.298112599999982 ], [ 12.9059595, 46.296912 ], [ 12.9227741, 46.2880345 ], [ 12.916897, 46.272427699999973 ], [ 12.9065589, 46.2658099 ], [ 12.9233725, 46.25849239999998 ], [ 12.9272271, 46.2295662 ], [ 12.9211064, 46.2171011 ], [ 12.9231455, 46.20914 ], [ 12.937678, 46.211916 ] ] ] } }
]
}
