{
"type": "FeatureCollection",
"name": "viveros",
"crs": { "type": "name", "properties": { "name": "urn:ogc:def:crs:OGC:1.3:CRS84" } },
"features": [
{ "type": "Feature", "properties": { "name": "Viveros", "metric_roundness": 45.08, "metric_rectangularity": 53.38, "metric_mobile_fit": 83.42, "metric_aspect_ratio": 0.728, "metric_area_km2": 107.78 }, "geometry": { "type": "Polygon", "coordinates": [ [ [ -2.5818408, 38.8679135 ], [ -2.5857995, 38.8667638 ], [ -2.6031952, 38.8443808 ], [ -2.6076993, 38.8176744 ], [ -2.6180546, 38.8117496 ], [ -2.6198064, 38.8078668 ], [ -2.6120797, 38.7979536 ], [ -2.6119345, 38.7847999 ], [ -2.6207795, 38.7816741 ], [ -2.6215985, 38.7790639 ], [ -2.6135688, 38.7690834 ], [ -2.6036263, 38.7686584 ], [ -2.5995474, 38.76229 ], [ -2.6002158, 38.7549932 ], [ -2.5818408, 38.751095299999989 ], [ -2.5754306, 38.749735499999986 ], [ -2.5420727, 38.75785459999998 ], [ -2.5296035, 38.7662015 ], [ -2.5256586, 38.7700591 ], [ -2.5260098, 38.7772187 ], [ -2.5132663, 38.782094199999982 ], [ -2.507746, 38.790932 ], [ -2.5301169, 38.794762899999988 ], [ -2.5489922, 38.8053648 ], [ -2.569281, 38.8075853 ], [ -2.5760049, 38.816982199999984 ], [ -2.5660514, 38.8314234 ], [ -2.5622321, 38.8458136 ], [ -2.5623485, 38.859132399999979 ], [ -2.546717, 38.8682825 ], [ -2.5485765, 38.869507 ], [ -2.552203, 38.870411 ], [ -2.5581945, 38.8708495 ], [ -2.5631065, 38.8707505 ], [ -2.5693275, 38.8715475 ], [ -2.5818408, 38.8679135 ] ] ] } }
]
}
