{
"type": "FeatureCollection",
"name": "mladotice",
"crs": { "type": "name", "properties": { "name": "urn:ogc:def:crs:OGC:1.3:CRS84" } },
"features": [
{ "type": "Feature", "properties": { "name": "Mladotice", "metric_roundness": 49.37, "metric_rectangularity": 63.03, "metric_mobile_fit": 48.37, "metric_aspect_ratio": 1.079, "metric_area_km2": 55.07 }, "geometry": { "type": "Polygon", "coordinates": [ [ [ 13.3530489, 49.9666528 ], [ 13.3827783, 49.9653944 ], [ 13.383859, 49.9708901 ], [ 13.391026, 49.9709115 ], [ 13.3895779, 49.980825099999983 ], [ 13.3927579, 49.986957499999981 ], [ 13.3696723, 49.990260799999987 ], [ 13.3656982, 49.996901 ], [ 13.3694015, 50.0031115 ], [ 13.373101, 50.010021 ], [ 13.359613, 50.0168037 ], [ 13.3370177, 50.017550599999979 ], [ 13.3046065, 50.0115615 ], [ 13.3019762, 50.0072779 ], [ 13.310047, 49.995216 ], [ 13.3146272, 49.9910176 ], [ 13.3137194, 49.9853958 ], [ 13.3375541, 49.9835307 ], [ 13.342305, 49.972036 ], [ 13.352497, 49.963451 ], [ 13.3530489, 49.9666528 ] ] ] } }
]
}
