{
"type": "FeatureCollection",
"name": "mladejov_na_morave",
"crs": { "type": "name", "properties": { "name": "urn:ogc:def:crs:OGC:1.3:CRS84" } },
"features": [
{ "type": "Feature", "properties": { "name": "Mladějov na Moravě", "metric_roundness": 63.66, "metric_rectangularity": 71.91, "metric_mobile_fit": 71.53, "metric_aspect_ratio": 0.847, "metric_area_km2": 22.27 }, "geometry": { "type": "Polygon", "coordinates": [ [ [ 16.5680365, 49.819164 ], [ 16.5728255, 49.8102818 ], [ 16.5708665, 49.8060575 ], [ 16.5843119, 49.803688699999981 ], [ 16.5864258, 49.8079685 ], [ 16.6162615, 49.814769 ], [ 16.6117058, 49.8250701 ], [ 16.5866235, 49.841096 ], [ 16.5687601, 49.834961699999987 ], [ 16.567139, 49.831138 ], [ 16.5680365, 49.819164 ] ] ] } }
]
}
