{
"type": "FeatureCollection",
"name": "jade",
"crs": { "type": "name", "properties": { "name": "urn:ogc:def:crs:OGC:1.3:CRS84" } },
"features": [
{ "type": "Feature", "properties": { "name": "Jade", "metric_roundness": 33.5, "metric_rectangularity": 50.34, "metric_mobile_fit": 97.61, "metric_aspect_ratio": 0.539, "metric_area_km2": 271.68 }, "geometry": { "type": "Polygon", "coordinates": [ [ [ 8.2976202, 53.442019699999989 ], [ 8.2950552, 53.4279067 ], [ 8.2678698, 53.405508 ], [ 8.2501124, 53.398658499999989 ], [ 8.2251177, 53.400675299999982 ], [ 8.2042407, 53.4033367 ], [ 8.195555, 53.4091715 ], [ 8.1958599, 53.402880499999988 ], [ 8.2069137, 53.394458799999974 ], [ 8.1994476, 53.3838151 ], [ 8.2041011, 53.372303699999989 ], [ 8.2007518, 53.365303 ], [ 8.1871792, 53.355844 ], [ 8.173923, 53.354041 ], [ 8.1782599, 53.347116299999989 ], [ 8.167439, 53.3439554 ], [ 8.1653532, 53.339699 ], [ 8.1738234, 53.330997199999985 ], [ 8.17077, 53.326399599999981 ], [ 8.172327, 53.322034199999983 ], [ 8.1896122, 53.3202092 ], [ 8.1935125, 53.314585099999974 ], [ 8.2114268, 53.3035749 ], [ 8.2251177, 53.3048389 ], [ 8.2420891, 53.3077691 ], [ 8.2508234, 53.3061078 ], [ 8.252136, 53.3007986 ], [ 8.2618654, 53.289636699999974 ], [ 8.271395, 53.283832 ], [ 8.2762612, 53.3008962 ], [ 8.31701, 53.3012145 ], [ 8.3145041, 53.3132601 ], [ 8.3064645, 53.322959899999987 ], [ 8.3060175, 53.3292123 ], [ 8.2990817, 53.3377619 ], [ 8.2948416, 53.352079499999988 ], [ 8.3099528, 53.3562895 ], [ 8.312669, 53.3627395 ], [ 8.3143689, 53.375031099999987 ], [ 8.3100499, 53.380237199999989 ], [ 8.3079838, 53.4057527 ], [ 8.3146051, 53.422546299999986 ], [ 8.3102332, 53.427699199999985 ], [ 8.3192405, 53.4506321 ], [ 8.3129185, 53.454319 ], [ 8.2976202, 53.442019699999989 ] ] ] } }
]
}
