{
"type": "FeatureCollection",
"name": "jamnik_okres_liptovsky_mikulas",
"crs": { "type": "name", "properties": { "name": "urn:ogc:def:crs:OGC:1.3:CRS84" } },
"features": [
{ "type": "Feature", "properties": { "name": "Jamník (okres Liptovský Mikuláš)", "feature_type": "entity", "metric_roundness": 20.8, "metric_rectangularity": 53.01, "metric_mobile_fit": 92.1, "metric_aspect_ratio": 0.484, "metric_area_km2": 108.72 }, "geometry": { "type": "Polygon", "coordinates": [ [ [ 19.6979766, 49.080359699999988 ], [ 19.694345, 49.071648 ], [ 19.6911875, 49.0666 ], [ 19.7015348, 49.0614966 ], [ 19.7190965, 49.059743 ], [ 19.7372355, 49.0717615 ], [ 19.747484, 49.089363699999986 ], [ 19.7594535, 49.0944675 ], [ 19.7688765, 49.0935625 ], [ 19.7847594, 49.110605199999974 ], [ 19.7898478, 49.1226425 ], [ 19.7895678, 49.1305426 ], [ 19.7964826, 49.1422263 ], [ 19.7833971, 49.1607972 ], [ 19.7926158, 49.1728143 ], [ 19.794379, 49.1846137 ], [ 19.8003212, 49.192552 ], [ 19.7952005, 49.198745 ], [ 19.7848477, 49.1995503 ], [ 19.7780418, 49.2046326 ], [ 19.763548, 49.207416 ], [ 19.7570823, 49.2004303 ], [ 19.7482275, 49.1971275 ], [ 19.750665, 49.1932785 ], [ 19.7511404, 49.18666649999998 ], [ 19.7430578, 49.179227799999985 ], [ 19.7412545, 49.173647 ], [ 19.7475432, 49.17059159999998 ], [ 19.7545787, 49.161257399999982 ], [ 19.7398685, 49.152114499999982 ], [ 19.7476911, 49.149302 ], [ 19.7494399, 49.1353575 ], [ 19.7577092, 49.1329573 ], [ 19.7540926, 49.123837 ], [ 19.7649981, 49.123077199999969 ], [ 19.7581334, 49.1153595 ], [ 19.7428355, 49.109896299999988 ], [ 19.7290786, 49.091562499999988 ], [ 19.7256414, 49.090897899999987 ], [ 19.718702, 49.095892 ], [ 19.7108205, 49.090484 ], [ 19.6979766, 49.080359699999988 ] ] ] } },
{ "type": "Feature", "properties": { "name": "Jamník (okres Liptovský Mikuláš)", "feature_type": "circle", "metric_roundness": 20.8, "metric_rectangularity": 53.01, "metric_mobile_fit": 92.1, "metric_aspect_ratio": 0.484, "metric_area_km2": 108.72 }, "geometry": { "type": "Polygon", "coordinates": [ [ [ 19.854072047657979, 49.133483614729791 ], [ 19.853913225649841, 49.129515022775536 ], [ 19.853437194945531, 49.125556992069633 ], [ 19.852645260312105, 49.121620375193459 ], [ 19.851539592387351, 49.117715968587689 ], [ 19.850123221730207, 49.113854482889501 ], [ 19.848400030514181, 49.11004651347767 ], [ 19.846374741886617, 49.106302511307462 ], [ 19.844052907022881, 49.102632754116634 ], [ 19.841440889910935, 49.099047318083024 ], [ 19.838545849908126, 49.095556050013315 ], [ 19.835375722117867, 49.092168540141401 ], [ 19.831939195640086, 49.088894095613064 ], [ 19.828245689754979, 49.085741714732386 ], [ 19.824305328105456, 49.08272006204291 ], [ 19.820128910948899, 49.079837444314776 ], [ 19.815727885554434, 49.077101787506606 ], [ 19.81111431482676, 49.074520614768019 ], [ 19.806300844242557, 49.072101025546353 ], [ 19.801300667190112, 49.069849675857554 ], [ 19.796127488807166, 49.067772759778521 ], [ 19.790795488416087, 49.065875992214373 ], [ 19.785319280659326, 49.064164592990728 ], [ 19.779713875441693, 49.062643272317295 ], [ 19.773994636789276, 49.061316217665023 ], [ 19.768177240737664, 49.060187082095212 ], [ 19.762277632365077, 49.059258974074723 ], [ 19.756311982087993, 49.058534448806945 ], [ 19.750296641339148, 49.05801550110408 ], [ 19.74424809774942, 49.057703559821476 ], [ 19.738182929956352, 49.057599483870476 ], [ 19.732117762163291, 49.057703559821476 ], [ 19.726069218573556, 49.05801550110408 ], [ 19.720053877824714, 49.058534448806945 ], [ 19.714088227547627, 49.059258974074723 ], [ 19.708188619175043, 49.060187082095212 ], [ 19.702371223123432, 49.061316217665023 ], [ 19.696651984471011, 49.062643272317295 ], [ 19.691046579253378, 49.064164592990728 ], [ 19.685570371496617, 49.065875992214373 ], [ 19.680238371105538, 49.067772759778521 ], [ 19.675065192722599, 49.069849675857554 ], [ 19.670065015670151, 49.072101025546353 ], [ 19.665251545085944, 49.074520614768019 ], [ 19.66063797435827, 49.077101787506606 ], [ 19.656236948963805, 49.079837444314776 ], [ 19.652060531807248, 49.08272006204291 ], [ 19.648120170157725, 49.085741714732386 ], [ 19.644426664272622, 49.088894095613064 ], [ 19.640990137794841, 49.092168540141401 ], [ 19.637820010004582, 49.095556050013315 ], [ 19.634924970001769, 49.099047318083024 ], [ 19.632312952889823, 49.102632754116634 ], [ 19.629991118026087, 49.106302511307462 ], [ 19.627965829398526, 49.11004651347767 ], [ 19.6262426381825, 49.113854482889501 ], [ 19.624826267525354, 49.117715968587689 ], [ 19.623720599600603, 49.121620375193459 ], [ 19.622928664967176, 49.125556992069633 ], [ 19.622452634262864, 49.129515022775536 ], [ 19.622293812254725, 49.133483614729791 ], [ 19.622452634262864, 49.137451888999138 ], [ 19.622928664967176, 49.141408970130939 ], [ 19.623720599600603, 49.145344015947586 ], [ 19.624826267525354, 49.149246247221271 ], [ 19.6262426381825, 49.153104977148253 ], [ 19.627965829398526, 49.156909640542601 ], [ 19.629991118026087, 49.160649822670514 ], [ 19.632312952889823, 49.164315287647476 ], [ 19.634924970001769, 49.167896006322096 ], [ 19.637820010004582, 49.171382183572106 ], [ 19.640990137794841, 49.174764284939762 ], [ 19.644426664272622, 49.178033062536016 ], [ 19.648120170157725, 49.181179580144914 ], [ 19.652060531807248, 49.184195237462191 ], [ 19.656236948963805, 49.18707179340425 ], [ 19.66063797435827, 49.189801388426694 ], [ 19.665251545085944, 49.192376565794063 ], [ 19.670065015670151, 49.194790291745583 ], [ 19.675065192722599, 49.197035974504466 ], [ 19.680238371105538, 49.199107482081864 ], [ 19.685570371496617, 49.200999158829276 ], [ 19.691046579253378, 49.202705840697099 ], [ 19.696651984471011, 49.204222869159899 ], [ 19.702371223123432, 49.205546103773059 ], [ 19.708188619175043, 49.206671933328352 ], [ 19.714088227547627, 49.207597285580256 ], [ 19.720053877824714, 49.208319635518109 ], [ 19.726069218573556, 49.208837012163073 ], [ 19.732117762163291, 49.209148003872592 ], [ 19.738182929956352, 49.209251762139026 ], [ 19.74424809774942, 49.209148003872592 ], [ 19.750296641339148, 49.208837012163073 ], [ 19.756311982087993, 49.208319635518109 ], [ 19.762277632365077, 49.207597285580256 ], [ 19.768177240737664, 49.206671933328352 ], [ 19.773994636789276, 49.205546103773059 ], [ 19.779713875441693, 49.204222869159899 ], [ 19.785319280659326, 49.202705840697099 ], [ 19.790795488416087, 49.200999158829276 ], [ 19.796127488807166, 49.199107482081864 ], [ 19.801300667190112, 49.197035974504466 ], [ 19.806300844242557, 49.194790291745583 ], [ 19.81111431482676, 49.192376565794063 ], [ 19.815727885554434, 49.189801388426694 ], [ 19.820128910948899, 49.18707179340425 ], [ 19.824305328105456, 49.184195237462191 ], [ 19.828245689754979, 49.181179580144914 ], [ 19.831939195640086, 49.178033062536016 ], [ 19.835375722117867, 49.174764284939762 ], [ 19.838545849908126, 49.171382183572106 ], [ 19.841440889910935, 49.167896006322096 ], [ 19.844052907022881, 49.164315287647476 ], [ 19.846374741886617, 49.160649822670514 ], [ 19.848400030514181, 49.156909640542601 ], [ 19.850123221730207, 49.153104977148253 ], [ 19.851539592387351, 49.149246247221271 ], [ 19.852645260312105, 49.145344015947586 ], [ 19.853437194945531, 49.141408970130939 ], [ 19.853913225649841, 49.137451888999138 ], [ 19.854072047657979, 49.133483614729791 ] ] ] } },
{ "type": "Feature", "properties": { "name": "Jamník (okres Liptovský Mikuláš)", "feature_type": "mrr", "metric_roundness": 20.8, "metric_rectangularity": 53.01, "metric_mobile_fit": 92.1, "metric_aspect_ratio": 0.484, "metric_area_km2": 108.72 }, "geometry": { "type": "Polygon", "coordinates": [ [ [ 19.689910753012612, 49.063674422193785 ], [ 19.753547555825453, 49.209284131300286 ], [ 19.82228613941308, 49.196442037314206 ], [ 19.758649336600239, 49.050794551258228 ], [ 19.689910753012612, 49.063674422193785 ] ] ] } }
]
}
