{
"type": "FeatureCollection",
"name": "janiky",
"crs": { "type": "name", "properties": { "name": "urn:ogc:def:crs:OGC:1.3:CRS84" } },
"features": [
{ "type": "Feature", "properties": { "name": "Janíky", "feature_type": "entity", "metric_roundness": 43.24, "metric_rectangularity": 61.93, "metric_mobile_fit": 82.53, "metric_aspect_ratio": 0.737, "metric_area_km2": 25.54 }, "geometry": { "type": "Polygon", "coordinates": [ [ [ 17.4012345, 48.120978499999985 ], [ 17.4352075, 48.144096 ], [ 17.4207995, 48.152803 ], [ 17.3999491, 48.1534158 ], [ 17.3990132, 48.1570597 ], [ 17.4090682, 48.164655499999988 ], [ 17.4007095, 48.172973599999978 ], [ 17.3962615, 48.1682475 ], [ 17.3852506, 48.1543936 ], [ 17.379203, 48.151208 ], [ 17.3777625, 48.1474605 ], [ 17.3896814, 48.1423102 ], [ 17.37905, 48.130530499999985 ], [ 17.4012345, 48.120978499999985 ] ] ] } },
{ "type": "Feature", "properties": { "name": "Janíky", "feature_type": "circle", "metric_roundness": 43.24, "metric_rectangularity": 61.93, "metric_mobile_fit": 82.53, "metric_aspect_ratio": 0.737, "metric_area_km2": 25.54 }, "geometry": { "type": "Polygon", "coordinates": [ [ [ 17.439936752323614, 48.146982634394575 ], [ 17.43988335248476, 48.145621978854209 ], [ 17.439723299333437, 48.144265016852437 ], [ 17.439457031564217, 48.142915468170486 ], [ 17.439085278998533, 48.141577032560065 ], [ 17.438609060584341, 48.140253379594583 ], [ 17.438029681603204, 48.138948138599943 ], [ 17.437348730092641, 48.137664888692811 ], [ 17.436568072493408, 48.13640714895358 ], [ 17.435689848533727, 48.135178368761267 ], [ 17.434716465364421, 48.133981918317119 ], [ 17.433650590961101, 48.132821079383014 ], [ 17.432495146811416, 48.131699036260315 ], [ 17.431253299907471, 48.130618867034372 ], [ 17.429928454065305, 48.129583535108679 ], [ 17.428524240595284, 48.128595881052419 ], [ 17.427044508348924, 48.127658614784082 ], [ 17.425493313169458, 48.126774308112743 ], [ 17.423874906775051, 48.125945387657943 ], [ 17.422193725105135, 48.125174128167856 ], [ 17.42045437616181, 48.124462646254393 ], [ 17.418661627379624, 48.123812894562761 ], [ 17.416820392558389, 48.123226656391736 ], [ 17.414935718394755, 48.122705540779769 ], [ 17.413012770649608, 48.122250978070632 ], [ 17.411056819989053, 48.121864215970945 ], [ 17.409073227537895, 48.121546316110795 ], [ 17.407067430185169, 48.121298151117053 ], [ 17.405044925681992, 48.121120402207389 ], [ 17.403011257572626, 48.121013557312033 ], [ 17.400972, 48.120977909728332 ], [ 17.398932742427373, 48.121013557312033 ], [ 17.396899074318007, 48.121120402207389 ], [ 17.39487656981483, 48.121298151117053 ], [ 17.3928707724621, 48.121546316110795 ], [ 17.390887180010942, 48.121864215970945 ], [ 17.388931229350391, 48.122250978070632 ], [ 17.387008281605244, 48.122705540779769 ], [ 17.38512360744161, 48.123226656391736 ], [ 17.383282372620371, 48.123812894562761 ], [ 17.381489623838192, 48.124462646254393 ], [ 17.379750274894864, 48.125174128167856 ], [ 17.378069093224948, 48.125945387657943 ], [ 17.376450686830541, 48.126774308112743 ], [ 17.374899491651075, 48.127658614784082 ], [ 17.373419759404715, 48.128595881052419 ], [ 17.372015545934694, 48.129583535108679 ], [ 17.370690700092531, 48.130618867034372 ], [ 17.36944885318858, 48.131699036260315 ], [ 17.368293409038895, 48.132821079383014 ], [ 17.367227534635578, 48.133981918317119 ], [ 17.366254151466272, 48.135178368761267 ], [ 17.365375927506591, 48.13640714895358 ], [ 17.364595269907358, 48.137664888692811 ], [ 17.363914318396798, 48.138948138599943 ], [ 17.363334939415662, 48.140253379594583 ], [ 17.362858721001466, 48.141577032560065 ], [ 17.362486968435785, 48.142915468170486 ], [ 17.362220700666562, 48.144265016852437 ], [ 17.362060647515236, 48.145621978854209 ], [ 17.362007247676381, 48.146982634394575 ], [ 17.362060647515236, 48.14834325386331 ], [ 17.362220700666562, 48.149700108045359 ], [ 17.362486968435785, 48.151049478340816 ], [ 17.362858721001466, 48.152387666952393 ], [ 17.363334939415662, 48.15371100701288 ], [ 17.363914318396798, 48.155015872624602 ], [ 17.364595269907358, 48.156298688783664 ], [ 17.365375927506591, 48.157555941161924 ], [ 17.366254151466272, 48.158784185720002 ], [ 17.367227534635578, 48.159980058125157 ], [ 17.368293409038895, 48.161140282948629 ], [ 17.36944885318858, 48.162261682617384 ], [ 17.370690700092531, 48.163341186095884 ], [ 17.372015545934694, 48.164375837274712 ], [ 17.373419759404715, 48.165362803043081 ], [ 17.374899491651075, 48.166299381023542 ], [ 17.376450686830541, 48.167183006948015 ], [ 17.378069093224948, 48.168011261655401 ], [ 17.379750274894864, 48.168781877691572 ], [ 17.381489623838192, 48.169492745494438 ], [ 17.383282372620371, 48.17014191914712 ], [ 17.38512360744161, 48.170727621683945 ], [ 17.387008281605244, 48.171248249934983 ], [ 17.388931229350391, 48.1717023788961 ], [ 17.390887180010942, 48.172088765612919 ], [ 17.3928707724621, 48.172406352568096 ], [ 17.39487656981483, 48.172654270563029 ], [ 17.396899074318007, 48.172831841086214 ], [ 17.398932742427373, 48.172938578161883 ], [ 17.400972, 48.172974189673944 ], [ 17.403011257572626, 48.172938578161883 ], [ 17.405044925681992, 48.172831841086214 ], [ 17.407067430185169, 48.172654270563029 ], [ 17.409073227537895, 48.172406352568096 ], [ 17.411056819989053, 48.172088765612919 ], [ 17.413012770649608, 48.1717023788961 ], [ 17.414935718394755, 48.171248249934983 ], [ 17.416820392558389, 48.170727621683945 ], [ 17.418661627379624, 48.17014191914712 ], [ 17.42045437616181, 48.169492745494438 ], [ 17.422193725105135, 48.168781877691572 ], [ 17.423874906775051, 48.168011261655401 ], [ 17.425493313169458, 48.167183006948015 ], [ 17.427044508348924, 48.166299381023542 ], [ 17.428524240595284, 48.165362803043081 ], [ 17.429928454065305, 48.164375837274712 ], [ 17.431253299907471, 48.163341186095884 ], [ 17.432495146811416, 48.162261682617384 ], [ 17.433650590961101, 48.161140282948629 ], [ 17.434716465364421, 48.159980058125157 ], [ 17.435689848533727, 48.158784185720016 ], [ 17.436568072493408, 48.157555941161924 ], [ 17.437348730092641, 48.156298688783664 ], [ 17.438029681603204, 48.155015872624602 ], [ 17.438609060584341, 48.15371100701288 ], [ 17.439085278998533, 48.152387666952393 ], [ 17.439457031564217, 48.151049478340816 ], [ 17.439723299333437, 48.149700108045359 ], [ 17.43988335248476, 48.14834325386331 ], [ 17.439936752323614, 48.146982634394575 ] ] ] } },
{ "type": "Feature", "properties": { "name": "Janíky", "feature_type": "mrr", "metric_roundness": 43.24, "metric_rectangularity": 61.93, "metric_mobile_fit": 82.53, "metric_aspect_ratio": 0.737, "metric_area_km2": 25.54 }, "geometry": { "type": "Polygon", "coordinates": [ [ [ 17.43993364352778, 48.147311154947751 ], [ 17.397510872577655, 48.118444057723352 ], [ 17.358286731331233, 48.144120933572914 ], [ 17.4007095, 48.172973599999978 ], [ 17.43993364352778, 48.147311154947751 ] ] ] } }
]
}
