{
"type": "FeatureCollection",
"name": "jasov",
"crs": { "type": "name", "properties": { "name": "urn:ogc:def:crs:OGC:1.3:CRS84" } },
"features": [
{ "type": "Feature", "properties": { "name": "Jasov", "metric_roundness": 24.03, "metric_rectangularity": 36.17, "metric_mobile_fit": 90.94, "metric_aspect_ratio": 0.653, "metric_area_km2": 81.85 }, "geometry": { "type": "Polygon", "coordinates": [ [ [ 21.0051312, 48.6761293 ], [ 20.9933253, 48.6859265 ], [ 20.990358, 48.691708 ], [ 20.9835576, 48.697685199999981 ], [ 20.9739054, 48.6937591 ], [ 20.9561966, 48.705387399999985 ], [ 20.9530059, 48.722158199999981 ], [ 20.9480425, 48.7280899 ], [ 20.950697, 48.746705599999984 ], [ 20.9471023, 48.7544034 ], [ 20.9490649, 48.76361439999998 ], [ 20.9442055, 48.7717995 ], [ 20.9316105, 48.766152 ], [ 20.9236584, 48.750914199999983 ], [ 20.9228805, 48.7403567 ], [ 20.9275923, 48.73207739999998 ], [ 20.9267622, 48.713893 ], [ 20.9372318, 48.693400099999984 ], [ 20.9107757, 48.6884509 ], [ 20.9029112, 48.6817628 ], [ 20.9065437, 48.675224 ], [ 20.9222455, 48.668232499999988 ], [ 20.9414444, 48.670119199999981 ], [ 20.9611533, 48.6664429 ], [ 20.9842058, 48.667070099999989 ], [ 21.0016695, 48.654286199999987 ], [ 21.0072592, 48.666617 ], [ 21.019231, 48.6716845 ], [ 21.0051312, 48.6761293 ] ] ] } }
]
}
