{
"type": "FeatureCollection",
"name": "roales",
"crs": { "type": "name", "properties": { "name": "urn:ogc:def:crs:OGC:1.3:CRS84" } },
"features": [
{ "type": "Feature", "properties": { "name": "Roales", "metric_roundness": 44.72, "metric_rectangularity": 54.76, "metric_mobile_fit": 76.43, "metric_aspect_ratio": 0.798, "metric_area_km2": 19.07 }, "geometry": { "type": "Polygon", "coordinates": [ [ [ -5.7819615, 41.572776499999989 ], [ -5.7897433, 41.5690537 ], [ -5.7860474, 41.5618886 ], [ -5.7867145, 41.550688499999985 ], [ -5.7962799, 41.5427847 ], [ -5.807808, 41.539848 ], [ -5.8050025, 41.5306926 ], [ -5.7945706, 41.5271654 ], [ -5.7733819, 41.5350051 ], [ -5.7678279, 41.534479399999988 ], [ -5.7640608, 41.5290003 ], [ -5.7591605, 41.529590499999983 ], [ -5.7634434, 41.5378159 ], [ -5.7616741, 41.5454839 ], [ -5.7675206, 41.5623181 ], [ -5.765545, 41.5658 ], [ -5.7819615, 41.572776499999989 ] ] ] } }
]
}
