{
"type": "FeatureCollection",
"name": "roffiac",
"crs": { "type": "name", "properties": { "name": "urn:ogc:def:crs:OGC:1.3:CRS84" } },
"features": [
{ "type": "Feature", "properties": { "name": "Roffiac", "metric_roundness": 46.26, "metric_rectangularity": 63.24, "metric_mobile_fit": 13.55, "metric_aspect_ratio": 1.427, "metric_area_km2": 43.9 }, "geometry": { "type": "Polygon", "coordinates": [ [ [ 3.0369656, 45.035525199999981 ], [ 3.0444848, 45.0366039 ], [ 3.0597223, 45.031851599999982 ], [ 3.0638039, 45.032893699999988 ], [ 3.0644235, 45.0357435 ], [ 3.05944, 45.038734099999985 ], [ 3.0586531, 45.0449563 ], [ 3.0498197, 45.0584435 ], [ 3.0343314, 45.0586784 ], [ 3.0303286, 45.0637898 ], [ 3.0086115, 45.07135 ], [ 2.9959645, 45.069986 ], [ 2.994618, 45.066266499999983 ], [ 2.9843482, 45.063201799999987 ], [ 2.9792946, 45.0556561 ], [ 2.9722295, 45.053654 ], [ 2.966072, 45.042165 ], [ 2.9761308, 45.043975599999982 ], [ 2.9879954, 45.036602399999985 ], [ 3.0029616, 45.038942299999974 ], [ 3.019149, 45.0226555 ], [ 3.0239395, 45.024335 ], [ 3.0369656, 45.035525199999981 ] ] ] } }
]
}
