{
"type": "FeatureCollection",
"name": "romiguieres",
"crs": { "type": "name", "properties": { "name": "urn:ogc:def:crs:OGC:1.3:CRS84" } },
"features": [
{ "type": "Feature", "properties": { "name": "Romiguières", "feature_type": "entity", "metric_roundness": 48.52, "metric_rectangularity": 60.8, "metric_mobile_fit": 83.18, "metric_aspect_ratio": 0.731, "metric_area_km2": 6.73 }, "geometry": { "type": "Polygon", "coordinates": [ [ [ 3.2293551, 43.824535299999987 ], [ 3.2226915, 43.817778 ], [ 3.224617, 43.817897 ], [ 3.2266515, 43.8169815 ], [ 3.230651, 43.813928499999989 ], [ 3.231662, 43.811088 ], [ 3.236547, 43.805396499999979 ], [ 3.243919, 43.803561 ], [ 3.246801, 43.8138035 ], [ 3.2490395, 43.82957949999998 ], [ 3.2432245, 43.8289775 ], [ 3.239145, 43.8272485 ], [ 3.2362485, 43.8271885 ], [ 3.2293551, 43.824535299999987 ] ] ] } },
{ "type": "Feature", "properties": { "name": "Romiguières", "feature_type": "circle", "metric_roundness": 48.52, "metric_rectangularity": 60.8, "metric_mobile_fit": 83.18, "metric_aspect_ratio": 0.731, "metric_area_km2": 6.73 }, "geometry": { "type": "Polygon", "coordinates": [ [ [ 3.260425671439322, 43.817077141212437 ], [ 3.260399797621124, 43.816364183073318 ], [ 3.260322247084869, 43.815653170625282 ], [ 3.260193232391186, 43.814946052808523 ], [ 3.260013107160381, 43.814244767956787 ], [ 3.259782365103194, 43.813551238482553 ], [ 3.259501638667563, 43.812867365605193 ], [ 3.259171697305136, 43.812195024136649 ], [ 3.258793445362253, 43.811536057338607 ], [ 3.258367919601197, 43.810892271865704 ], [ 3.257896286358502, 43.810265432808386 ], [ 3.257379838348104, 43.809657258849278 ], [ 3.256819991118101, 43.809069417546226 ], [ 3.256218279170835, 43.808503520755117 ], [ 3.255576351756929, 43.807961120205093 ], [ 3.254895968354806, 43.807443703238221 ], [ 3.254178993848079, 43.806952688725666 ], [ 3.253427393414032, 43.806489423171243 ], [ 3.252643227137213, 43.806055177013555 ], [ 3.25182864436288, 43.805651141136472 ], [ 3.250985877805797, 43.805278423597976 ], [ 3.250117237430517, 43.80493804658623 ], [ 3.249225104119929, 43.804630943611286 ], [ 3.248311923149427, 43.804357956940265 ], [ 3.247380197484576, 43.804119835283103 ], [ 3.24643248092066, 43.803917231735134 ], [ 3.245471371082906, 43.803750701982509 ], [ 3.244499502306574, 43.803620702774978 ], [ 3.243519538416426, 43.803527590670804 ], [ 3.242534165425366, 43.80347162105668 ], [ 3.241546084172273, 43.803452947445969 ], [ 3.24055800291918, 43.80347162105668 ], [ 3.239572629928121, 43.803527590670804 ], [ 3.238592666037972, 43.803620702774978 ], [ 3.23762079726164, 43.803750701982509 ], [ 3.236659687423886, 43.803917231735134 ], [ 3.23571197085997, 43.804119835283103 ], [ 3.23478024519512, 43.804357956940265 ], [ 3.233867064224617, 43.804630943611286 ], [ 3.232974930914029, 43.80493804658623 ], [ 3.232106290538749, 43.805278423597976 ], [ 3.231263523981666, 43.805651141136472 ], [ 3.230448941207333, 43.806055177013555 ], [ 3.229664774930515, 43.806489423171243 ], [ 3.228913174496468, 43.806952688725666 ], [ 3.22819619998974, 43.807443703238221 ], [ 3.227515816587617, 43.807961120205093 ], [ 3.226873889173712, 43.808503520755117 ], [ 3.226272177226446, 43.809069417546226 ], [ 3.225712329996442, 43.809657258849278 ], [ 3.225195881986044, 43.810265432808386 ], [ 3.224724248743349, 43.810892271865704 ], [ 3.224298722982294, 43.811536057338607 ], [ 3.223920471039411, 43.812195024136649 ], [ 3.223590529676984, 43.812867365605193 ], [ 3.223309803241353, 43.813551238482553 ], [ 3.223079061184165, 43.814244767956787 ], [ 3.222898935953361, 43.814946052808523 ], [ 3.222769921259677, 43.815653170625282 ], [ 3.222692370723422, 43.816364183073318 ], [ 3.222666496905224, 43.817077141212437 ], [ 3.222692370723422, 43.817790090838955 ], [ 3.222769921259677, 43.818501077842456 ], [ 3.222898935953361, 43.819208153561505 ], [ 3.223079061184165, 43.819909380123612 ], [ 3.223309803241353, 43.820602835754912 ], [ 3.223590529676984, 43.821286620045072 ], [ 3.223920471039411, 43.821958859152737 ], [ 3.224298722982294, 43.822617710937713 ], [ 3.224724248743349, 43.823261370005469 ], [ 3.225195881986044, 43.823888072650476 ], [ 3.225712329996442, 43.824496101684666 ], [ 3.226272177226446, 43.82508379113802 ], [ 3.226873889173712, 43.825649530818353 ], [ 3.227515816587617, 43.826191770717877 ], [ 3.22819619998974, 43.82670902525463 ], [ 3.228913174496468, 43.827199877337058 ], [ 3.229664774930515, 43.827662982240966 ], [ 3.230448941207333, 43.828097071287885 ], [ 3.231263523981666, 43.828500955315285 ], [ 3.232106290538749, 43.828873527928863 ], [ 3.232974930914029, 43.829213768528298 ], [ 3.233867064224617, 43.829520745098087 ], [ 3.23478024519512, 43.829793616756042 ], [ 3.23571197085997, 43.83003163605234 ], [ 3.236659687423886, 43.830234151013116 ], [ 3.23762079726164, 43.830400606922815 ], [ 3.238592666037972, 43.830530547840702 ], [ 3.239572629928121, 43.830623617847181 ], [ 3.24055800291918, 43.830679562016755 ], [ 3.241546084172273, 43.830698227114873 ], [ 3.242534165425366, 43.830679562016755 ], [ 3.243519538416426, 43.830623617847181 ], [ 3.244499502306574, 43.830530547840702 ], [ 3.245471371082906, 43.830400606922815 ], [ 3.24643248092066, 43.830234151013116 ], [ 3.247380197484576, 43.83003163605234 ], [ 3.248311923149427, 43.829793616756042 ], [ 3.249225104119929, 43.829520745098087 ], [ 3.250117237430517, 43.829213768528298 ], [ 3.250985877805797, 43.828873527928863 ], [ 3.25182864436288, 43.828500955315285 ], [ 3.252643227137213, 43.828097071287885 ], [ 3.253427393414032, 43.827662982240966 ], [ 3.254178993848079, 43.827199877337058 ], [ 3.254895968354806, 43.82670902525463 ], [ 3.255576351756929, 43.826191770717877 ], [ 3.256218279170835, 43.825649530818353 ], [ 3.256819991118101, 43.82508379113802 ], [ 3.257379838348104, 43.824496101684666 ], [ 3.257896286358502, 43.823888072650476 ], [ 3.258367919601197, 43.823261370005469 ], [ 3.258793445362253, 43.822617710937713 ], [ 3.259171697305136, 43.821958859152737 ], [ 3.259501638667563, 43.821286620045072 ], [ 3.259782365103194, 43.820602835754912 ], [ 3.260013107160381, 43.819909380123612 ], [ 3.260193232391186, 43.819208153561505 ], [ 3.260322247084869, 43.818501077842456 ], [ 3.260399797621124, 43.817790090838955 ], [ 3.260425671439322, 43.817077141212437 ] ] ] } },
{ "type": "Feature", "properties": { "name": "Romiguières", "feature_type": "mrr", "metric_roundness": 48.52, "metric_rectangularity": 60.8, "metric_mobile_fit": 83.18, "metric_aspect_ratio": 0.731, "metric_area_km2": 6.73 }, "geometry": { "type": "Polygon", "coordinates": [ [ [ 3.2490395, 43.82957949999998 ], [ 3.245333158773403, 43.80345651404928 ], [ 3.220915674422689, 43.805260601527522 ], [ 3.224622015704196, 43.831382799142432 ], [ 3.2490395, 43.82957949999998 ] ] ] } }
]
}
