{
"type": "FeatureCollection",
"name": "rozay_en_brie",
"crs": { "type": "name", "properties": { "name": "urn:ogc:def:crs:OGC:1.3:CRS84" } },
"features": [
{ "type": "Feature", "properties": { "name": "Rozay-en-Brie", "feature_type": "entity", "metric_roundness": 48.2, "metric_rectangularity": 60.82, "metric_mobile_fit": 56.17, "metric_aspect_ratio": 1.001, "metric_area_km2": 6.92 }, "geometry": { "type": "Polygon", "coordinates": [ [ [ 2.9666737, 48.687314399999984 ], [ 2.9588774, 48.6919389 ], [ 2.9476541, 48.6897236 ], [ 2.946694, 48.686933 ], [ 2.954314, 48.6803902 ], [ 2.9735205, 48.671367 ], [ 2.9778777, 48.680681199999988 ], [ 2.977496, 48.6899615 ], [ 2.9666737, 48.687314399999984 ] ] ] } },
{ "type": "Feature", "properties": { "name": "Rozay-en-Brie", "feature_type": "circle", "metric_roundness": 48.2, "metric_rectangularity": 60.82, "metric_mobile_fit": 56.17, "metric_aspect_ratio": 1.001, "metric_area_km2": 6.92 }, "geometry": { "type": "Polygon", "coordinates": [ [ [ 2.981930574428052, 48.68185689488903 ], [ 2.981904248546558, 48.681193122103657 ], [ 2.981825343059489, 48.680531159961809 ], [ 2.981694074241299, 48.679872822963091 ], [ 2.981510801890694, 48.679219915741129 ], [ 2.981276028344449, 48.678574228115238 ], [ 2.980990397100536, 48.677937530182 ], [ 2.980654691054339, 48.677311567460094 ], [ 2.980269830352796, 48.67669805610187 ], [ 2.97983686987234, 48.676098678184786 ], [ 2.979356996327552, 48.675515077095582 ], [ 2.978831525018463, 48.674948853020084 ], [ 2.978261896225406, 48.674401558550819 ], [ 2.977649671261309, 48.67387469442486 ], [ 2.976996528192243, 48.673369705403331 ], [ 2.97630425723796, 48.672887976304139 ], [ 2.975574755865027, 48.672430828198877 ], [ 2.974810023586001, 48.671999514784389 ], [ 2.974012156478903, 48.671595218938855 ], [ 2.973183341442014, 48.671219049472271 ], [ 2.972325850199739, 48.670872038079992 ], [ 2.971442033075971, 48.670555136507858 ], [ 2.970534312552012, 48.670269213936855 ], [ 2.969605176626723, 48.670015054594472 ], [ 2.968657171997093, 48.669793355599282 ], [ 2.967692897077916, 48.669604725044906 ], [ 2.96671499487972, 48.669449680328519 ], [ 2.965726145764456, 48.669328646728623 ], [ 2.964729060098817, 48.66924195623595 ], [ 2.963726470825303, 48.669189846640798 ], [ 2.962721125971426, 48.669172460879395 ], [ 2.961715781117549, 48.669189846640798 ], [ 2.960713191844035, 48.66924195623595 ], [ 2.959716106178396, 48.669328646728623 ], [ 2.958727257063132, 48.669449680328519 ], [ 2.957749354864936, 48.669604725044906 ], [ 2.956785079945758, 48.669793355599282 ], [ 2.955837075316129, 48.670015054594472 ], [ 2.954907939390841, 48.670269213936855 ], [ 2.954000218866881, 48.670555136507858 ], [ 2.953116401743113, 48.670872038079992 ], [ 2.952258910500838, 48.671219049472271 ], [ 2.951430095463949, 48.671595218938855 ], [ 2.95063222835685, 48.671999514784389 ], [ 2.949867496077824, 48.672430828198877 ], [ 2.949137994704892, 48.672887976304139 ], [ 2.948445723750609, 48.673369705403331 ], [ 2.947792580681543, 48.67387469442486 ], [ 2.947180355717446, 48.674401558550819 ], [ 2.946610726924389, 48.674948853020084 ], [ 2.9460852556153, 48.675515077095582 ], [ 2.945605382070512, 48.676098678184786 ], [ 2.945172421590056, 48.67669805610187 ], [ 2.944787560888513, 48.677311567460094 ], [ 2.944451854842316, 48.677937530182 ], [ 2.944166223598403, 48.678574228115238 ], [ 2.943931450052157, 48.679219915741129 ], [ 2.943748177701553, 48.679872822963091 ], [ 2.943616908883363, 48.680531159961809 ], [ 2.943538003396294, 48.681193122103657 ], [ 2.9435116775148, 48.68185689488903 ], [ 2.943538003396294, 48.682520658926968 ], [ 2.943616908883363, 48.683182594922336 ], [ 2.943748177701553, 48.683840888662012 ], [ 2.943931450052157, 48.684493735986329 ], [ 2.944166223598403, 48.685139347732203 ], [ 2.944451854842316, 48.685775954634416 ], [ 2.944787560888513, 48.68640181217166 ], [ 2.945172421590056, 48.687015205343982 ], [ 2.945605382070512, 48.687614453368816 ], [ 2.9460852556153, 48.688197914282547 ], [ 2.946610726924389, 48.688763989435138 ], [ 2.947180355717446, 48.689311127865679 ], [ 2.947792580681543, 48.689837830546701 ], [ 2.948445723750609, 48.69034265448591 ], [ 2.949137994704892, 48.690824216674073 ], [ 2.949867496077824, 48.691281197868292 ], [ 2.95063222835685, 48.691712346200468 ], [ 2.951430095463949, 48.692116480601072 ], [ 2.952258910500838, 48.692492494028933 ], [ 2.953116401743113, 48.692839356498304 ], [ 2.954000218866881, 48.693156117894965 ], [ 2.954907939390841, 48.693441910573718 ], [ 2.955837075316129, 48.693695951730213 ], [ 2.956785079945758, 48.693917545540735 ], [ 2.957749354864936, 48.694106085064092 ], [ 2.958727257063132, 48.694261053900469 ], [ 2.959716106178396, 48.694382027602714 ], [ 2.960713191844035, 48.694468674836351 ], [ 2.961715781117549, 48.694520758285023 ], [ 2.962721125971426, 48.694538135298991 ], [ 2.963726470825303, 48.694520758285023 ], [ 2.964729060098817, 48.694468674836351 ], [ 2.965726145764456, 48.694382027602714 ], [ 2.96671499487972, 48.694261053900469 ], [ 2.967692897077916, 48.694106085064092 ], [ 2.968657171997093, 48.693917545540735 ], [ 2.969605176626723, 48.693695951730213 ], [ 2.970534312552012, 48.693441910573718 ], [ 2.971442033075971, 48.693156117894965 ], [ 2.972325850199739, 48.692839356498304 ], [ 2.973183341442014, 48.692492494028933 ], [ 2.974012156478903, 48.692116480601072 ], [ 2.974810023586001, 48.691712346200468 ], [ 2.975574755865027, 48.691281197868292 ], [ 2.97630425723796, 48.690824216674073 ], [ 2.976996528192243, 48.69034265448591 ], [ 2.977649671261309, 48.689837830546701 ], [ 2.978261896225406, 48.689311127865679 ], [ 2.978831525018463, 48.688763989435138 ], [ 2.979356996327552, 48.688197914282547 ], [ 2.97983686987234, 48.687614453368816 ], [ 2.980269830352796, 48.687015205343982 ], [ 2.980654691054339, 48.68640181217166 ], [ 2.980990397100536, 48.685775954634416 ], [ 2.981276028344449, 48.685139347732203 ], [ 2.981510801890694, 48.684493735986329 ], [ 2.981694074241299, 48.683840888662012 ], [ 2.981825343059489, 48.683182594922336 ], [ 2.981904248546558, 48.682520658926968 ], [ 2.981930574428052, 48.68185689488903 ] ] ] } },
{ "type": "Feature", "properties": { "name": "Rozay-en-Brie", "feature_type": "mrr", "metric_roundness": 48.2, "metric_rectangularity": 60.82, "metric_mobile_fit": 56.17, "metric_aspect_ratio": 1.001, "metric_area_km2": 6.92 }, "geometry": { "type": "Polygon", "coordinates": [ [ [ 2.948190657156965, 48.693073857300384 ], [ 2.980072599981239, 48.689687844685352 ], [ 2.975555585282264, 48.671150778194217 ], [ 2.943673642457991, 48.674538037177747 ], [ 2.948190657156965, 48.693073857300384 ] ] ] } }
]
}
