{
"type": "FeatureCollection",
"name": "cologno_monzese",
"crs": { "type": "name", "properties": { "name": "urn:ogc:def:crs:OGC:1.3:CRS84" } },
"features": [
{ "type": "Feature", "properties": { "name": "Cologno Monzese", "feature_type": "entity", "metric_roundness": 51.98, "metric_rectangularity": 56.52, "metric_mobile_fit": 55.16, "metric_aspect_ratio": 1.011, "metric_area_km2": 16.82 }, "geometry": { "type": "Polygon", "coordinates": [ [ [ 9.2812381, 45.522721499999982 ], [ 9.30305, 45.52607 ], [ 9.3084743, 45.529673399999986 ], [ 9.305093, 45.536653 ], [ 9.2928707, 45.5424819 ], [ 9.2760754, 45.5454922 ], [ 9.2686095, 45.551276 ], [ 9.2628539, 45.548732499999986 ], [ 9.2604102, 45.543858299999982 ], [ 9.2646385, 45.537762099999981 ], [ 9.2653436, 45.529472699999985 ], [ 9.2586945, 45.519057499999974 ], [ 9.268408, 45.516783 ], [ 9.2812381, 45.522721499999982 ] ] ] } },
{ "type": "Feature", "properties": { "name": "Cologno Monzese", "feature_type": "circle", "metric_roundness": 51.98, "metric_rectangularity": 56.52, "metric_mobile_fit": 55.16, "metric_aspect_ratio": 1.011, "metric_area_km2": 16.82 }, "geometry": { "type": "Polygon", "coordinates": [ [ [ 9.308801158703412, 45.532706494508524 ], [ 9.308761633359937, 45.531649138463351 ], [ 9.308643165665726, 45.530594660760556 ], [ 9.308446080332498, 45.529545951894256 ], [ 9.308170917557449, 45.528505886706384 ], [ 9.30781843154262, 45.52747731650242 ], [ 9.307389588427679, 45.526463061230118 ], [ 9.306885563641792, 45.525465901742415 ], [ 9.306307738681866, 45.524488572166 ], [ 9.30565769732595, 45.523533752396553 ], [ 9.304937221292217, 45.522604060741166 ], [ 9.304148285355396, 45.521702046728556 ], [ 9.303293051934054, 45.520830184106579 ], [ 9.302373865163547, 45.519990864046648 ], [ 9.301393244470926, 45.519186388573743 ], [ 9.300353877669345, 45.51841896424024 ], [ 9.299258613590961, 45.517690696060932 ], [ 9.298110454278484, 45.517003581726371 ], [ 9.296912546756781, 45.516359506110177 ], [ 9.295668174407101, 45.515760236085889 ], [ 9.294380747967566, 45.515207415667597 ], [ 9.293053796184552, 45.51470256148778 ], [ 9.291690956140663, 45.514247058625173 ], [ 9.290295963285731, 45.513842156793963 ], [ 9.288872641198205, 45.513488966905179 ], [ 9.287424891104992, 45.513188458009623 ], [ 9.28595668118847, 45.51294145463104 ], [ 9.284472035709962, 45.512748634496852 ], [ 9.282975023979532, 45.512610526672788 ], [ 9.28146974920227, 45.512527510106594 ], [ 9.279960337231717, 45.512499812584984 ], [ 9.278450925261163, 45.512527510106594 ], [ 9.276945650483903, 45.512610526672788 ], [ 9.275448638753472, 45.512748634496852 ], [ 9.273963993274965, 45.51294145463104 ], [ 9.272495783358439, 45.513188458009623 ], [ 9.271048033265227, 45.513488966905179 ], [ 9.269624711177704, 45.513842156793963 ], [ 9.268229718322772, 45.514247058625173 ], [ 9.266866878278883, 45.51470256148778 ], [ 9.265539926495869, 45.515207415667597 ], [ 9.264252500056333, 45.515760236085889 ], [ 9.263008127706652, 45.516359506110177 ], [ 9.26181022018495, 45.517003581726371 ], [ 9.260662060872473, 45.517690696060932 ], [ 9.25956679679409, 45.51841896424024 ], [ 9.258527429992508, 45.519186388573743 ], [ 9.257546809299887, 45.519990864046648 ], [ 9.256627622529379, 45.520830184106579 ], [ 9.255772389108037, 45.521702046728556 ], [ 9.254983453171215, 45.522604060741166 ], [ 9.254262977137484, 45.523533752396553 ], [ 9.253612935781568, 45.524488572166 ], [ 9.25303511082164, 45.525465901742415 ], [ 9.252531086035754, 45.526463061230118 ], [ 9.252102242920813, 45.52747731650242 ], [ 9.251749756905983, 45.528505886706384 ], [ 9.251474594130936, 45.529545951894256 ], [ 9.251277508797708, 45.530594660760556 ], [ 9.251159041103497, 45.531649138463351 ], [ 9.251119515760021, 45.532706494508524 ], [ 9.251159041103497, 45.533763830675014 ], [ 9.251277508797708, 45.534818248959532 ], [ 9.251474594130936, 45.53586685951894 ], [ 9.251749756905983, 45.536906788588404 ], [ 9.252102242920813, 45.537935186353778 ], [ 9.252531086035754, 45.538949234756579 ], [ 9.25303511082164, 45.53994615521038 ], [ 9.253612935781568, 45.540923216207389 ], [ 9.254262977137484, 45.541877740794561 ], [ 9.254983453171215, 45.54280711389886 ], [ 9.255772389108037, 45.543708789481684 ], [ 9.256627622529379, 45.544580297503096 ], [ 9.257546809299887, 45.545419250676751 ], [ 9.258527429992508, 45.546223350997352 ], [ 9.25956679679409, 45.546990396022785 ], [ 9.260662060872473, 45.547718284894017 ], [ 9.26181022018495, 45.548405024076288 ], [ 9.263008127706652, 45.549048732806213 ], [ 9.264252500056333, 45.549647648229936 ], [ 9.265539926495869, 45.550200130218457 ], [ 9.266866878278883, 45.550704665847206 ], [ 9.268229718322772, 45.551159873527553 ], [ 9.269624711177704, 45.551564506779371 ], [ 9.271048033265227, 45.551917457634275 ], [ 9.272495783358439, 45.552217759660344 ], [ 9.273963993274965, 45.552464590600358 ], [ 9.275448638753472, 45.552657274616131 ], [ 9.276945650483903, 45.552795284133325 ], [ 9.278450925261163, 45.552878241281242 ], [ 9.279960337231717, 45.552905918924154 ], [ 9.28146974920227, 45.552878241281242 ], [ 9.282975023979532, 45.552795284133325 ], [ 9.284472035709962, 45.552657274616131 ], [ 9.28595668118847, 45.552464590600358 ], [ 9.287424891104992, 45.552217759660344 ], [ 9.288872641198205, 45.551917457634275 ], [ 9.290295963285731, 45.551564506779371 ], [ 9.291690956140663, 45.551159873527553 ], [ 9.293053796184552, 45.550704665847206 ], [ 9.294380747967566, 45.550200130218457 ], [ 9.295668174407101, 45.549647648229936 ], [ 9.296912546756781, 45.549048732806213 ], [ 9.298110454278484, 45.548405024076288 ], [ 9.299258613590961, 45.547718284894017 ], [ 9.300353877669345, 45.546990396022785 ], [ 9.301393244470926, 45.546223350997352 ], [ 9.302373865163547, 45.545419250676751 ], [ 9.303293051934054, 45.544580297503096 ], [ 9.304148285355396, 45.543708789481684 ], [ 9.304937221292217, 45.54280711389886 ], [ 9.30565769732595, 45.541877740794561 ], [ 9.306307738681866, 45.540923216207389 ], [ 9.306885563641792, 45.53994615521038 ], [ 9.307389588427679, 45.538949234756579 ], [ 9.30781843154262, 45.537935186353778 ], [ 9.308170917557449, 45.536906788588404 ], [ 9.308446080332498, 45.53586685951894 ], [ 9.308643165665726, 45.534818248959532 ], [ 9.308761633359937, 45.533763830675014 ], [ 9.308801158703412, 45.532706494508524 ] ] ] } },
{ "type": "Feature", "properties": { "name": "Cologno Monzese", "feature_type": "mrr", "metric_roundness": 51.98, "metric_rectangularity": 56.52, "metric_mobile_fit": 55.16, "metric_aspect_ratio": 1.011, "metric_area_km2": 16.82 }, "geometry": { "type": "Polygon", "coordinates": [ [ [ 9.309874380610482, 45.5278993332402 ], [ 9.261018411122944, 45.514801763826434 ], [ 9.244609122886654, 45.544844905848628 ], [ 9.293465092374191, 45.55793548040922 ], [ 9.309874380610482, 45.5278993332402 ] ] ] } }
]
}
