{
"type": "FeatureCollection",
"name": "commentry",
"crs": { "type": "name", "properties": { "name": "urn:ogc:def:crs:OGC:1.3:CRS84" } },
"features": [
{ "type": "Feature", "properties": { "name": "Commentry", "feature_type": "entity", "metric_roundness": 54.46, "metric_rectangularity": 64.65, "metric_mobile_fit": 65.21, "metric_aspect_ratio": 0.91, "metric_area_km2": 43.41 }, "geometry": { "type": "Polygon", "coordinates": [ [ [ 2.755212, 46.258501699999982 ], [ 2.7665953, 46.2584469 ], [ 2.7710225, 46.254402 ], [ 2.7746677, 46.2641989 ], [ 2.7739449, 46.2709848 ], [ 2.7788621, 46.279296099999982 ], [ 2.77533, 46.289334399999987 ], [ 2.7866507, 46.2929568 ], [ 2.7877045, 46.295589 ], [ 2.7541848, 46.301099199999989 ], [ 2.7326995, 46.299663 ], [ 2.7250681, 46.2993779 ], [ 2.7204262, 46.296078 ], [ 2.7172415, 46.288862399999985 ], [ 2.7199656, 46.282407899999981 ], [ 2.713845, 46.276154 ], [ 2.7242866, 46.273446799999981 ], [ 2.740927, 46.2450215 ], [ 2.755212, 46.258501699999982 ] ] ] } },
{ "type": "Feature", "properties": { "name": "Commentry", "feature_type": "circle", "metric_roundness": 54.46, "metric_rectangularity": 64.65, "metric_mobile_fit": 65.21, "metric_aspect_ratio": 0.91, "metric_area_km2": 43.41 }, "geometry": { "type": "Polygon", "coordinates": [ [ [ 2.798804547079277, 46.275070988057919 ], [ 2.798742522930996, 46.273433790011303 ], [ 2.798556620490031, 46.271801030700935 ], [ 2.798247349302052, 46.270177186006968 ], [ 2.797815557057887, 46.268566707768287 ], [ 2.797262427270064, 46.266974011569388 ], [ 2.796589476028883, 46.265403464622537 ], [ 2.795798547846922, 46.263859373778438 ], [ 2.79489181060335, 46.262345973698508 ], [ 2.793871749601924, 46.260867415221583 ], [ 2.792741160758947, 46.259427753956949 ], [ 2.791503142939851, 46.25803093913553 ], [ 2.790161089465423, 46.256680802750083 ], [ 2.788718678810953, 46.25538104901441 ], [ 2.787179864523784, 46.254135244171238 ], [ 2.785548864386915, 46.252946806676626 ], [ 2.783830148858351, 46.25181899778876 ], [ 2.782028428817892, 46.250754912587034 ], [ 2.78014864265493, 46.249757471446664 ], [ 2.778195942732677, 46.248829411992602 ], [ 2.776175681265888, 46.24797328155524 ], [ 2.774093395650819, 46.247191430149094 ], [ 2.771954793287601, 46.246486003994171 ], [ 2.769765735936659, 46.245858939597916 ], [ 2.767532223652034, 46.245311958414824 ], [ 2.765260378335649, 46.244846562098225 ], [ 2.762956426957599, 46.244464028357953 ], [ 2.760626684488469, 46.244165407435219 ], [ 2.758277536590427, 46.243951519205005 ], [ 2.755915422114574, 46.243822950913675 ], [ 2.7535468154525, 46.243780055558524 ], [ 2.751178208790426, 46.243822950913675 ], [ 2.748816094314573, 46.243951519205005 ], [ 2.74646694641653, 46.244165407435219 ], [ 2.7441372039474, 46.244464028357953 ], [ 2.741833252569351, 46.244846562098225 ], [ 2.739561407252965, 46.245311958414824 ], [ 2.73732789496834, 46.245858939597916 ], [ 2.735138837617399, 46.246486003994171 ], [ 2.733000235254181, 46.247191430149094 ], [ 2.730917949639111, 46.24797328155524 ], [ 2.728897688172323, 46.248829411992602 ], [ 2.726944988250069, 46.249757471446664 ], [ 2.725065202087107, 46.250754912587034 ], [ 2.723263482046648, 46.25181899778876 ], [ 2.721544766518085, 46.252946806676626 ], [ 2.719913766381215, 46.254135244171238 ], [ 2.718374952094046, 46.25538104901441 ], [ 2.716932541439576, 46.256680802750083 ], [ 2.715590487965149, 46.25803093913553 ], [ 2.714352470146052, 46.259427753956949 ], [ 2.713221881303075, 46.260867415221583 ], [ 2.71220182030165, 46.262345973698508 ], [ 2.711295083058078, 46.263859373778438 ], [ 2.710504154876116, 46.265403464622537 ], [ 2.709831203634935, 46.266974011569388 ], [ 2.709278073847113, 46.268566707768287 ], [ 2.708846281602948, 46.270177186006968 ], [ 2.708537010414968, 46.271801030700935 ], [ 2.708351107974003, 46.273433790011303 ], [ 2.708289083825723, 46.275070988057919 ], [ 2.708351107974003, 46.276708137193935 ], [ 2.708537010414968, 46.278340750308402 ], [ 2.708846281602948, 46.279964353122892 ], [ 2.709278073847113, 46.281574496448613 ], [ 2.709831203634935, 46.28316676837045 ], [ 2.710504154876116, 46.284736806324602 ], [ 2.711295083058078, 46.286280309037004 ], [ 2.71220182030165, 46.287793048289934 ], [ 2.713221881303075, 46.289270880484708 ], [ 2.714352470146052, 46.290709757969346 ], [ 2.715590487965149, 46.292105740100183 ], [ 2.716932541439576, 46.293455004007605 ], [ 2.718374952094046, 46.294753855036831 ], [ 2.719913766381215, 46.295998736835415 ], [ 2.721544766518085, 46.297186241060338 ], [ 2.723263482046648, 46.298313116678536 ], [ 2.725065202087107, 46.299376278835695 ], [ 2.726944988250069, 46.300372817269675 ], [ 2.728897688172323, 46.301300004245761 ], [ 2.730917949639111, 46.302155301992627 ], [ 2.733000235254181, 46.302936369618848 ], [ 2.735138837617399, 46.303641069491718 ], [ 2.73732789496834, 46.30426747306106 ], [ 2.739561407252965, 46.304813866112546 ], [ 2.741833252569351, 46.305278753436525 ], [ 2.7441372039474, 46.305660862899821 ], [ 2.74646694641653, 46.30595914890965 ], [ 2.748816094314573, 46.306172795260437 ], [ 2.751178208790426, 46.30630121735588 ], [ 2.7535468154525, 46.306344063800438 ], [ 2.755915422114574, 46.30630121735588 ], [ 2.758277536590427, 46.306172795260437 ], [ 2.760626684488469, 46.30595914890965 ], [ 2.762956426957599, 46.305660862899821 ], [ 2.765260378335649, 46.305278753436525 ], [ 2.767532223652034, 46.304813866112546 ], [ 2.769765735936659, 46.30426747306106 ], [ 2.771954793287601, 46.303641069491718 ], [ 2.774093395650819, 46.302936369618848 ], [ 2.776175681265888, 46.302155301992627 ], [ 2.778195942732677, 46.301300004245761 ], [ 2.78014864265493, 46.300372817269675 ], [ 2.782028428817892, 46.299376278835695 ], [ 2.783830148858351, 46.298313116678536 ], [ 2.785548864386915, 46.297186241060338 ], [ 2.787179864523784, 46.295998736835415 ], [ 2.788718678810953, 46.294753855036831 ], [ 2.790161089465423, 46.293455004007605 ], [ 2.791503142939851, 46.292105740100183 ], [ 2.792741160758947, 46.290709757969346 ], [ 2.793871749601924, 46.289270880484708 ], [ 2.79489181060335, 46.287793048289934 ], [ 2.795798547846922, 46.286280309037004 ], [ 2.796589476028883, 46.284736806324602 ], [ 2.797262427270064, 46.28316676837045 ], [ 2.797815557057887, 46.281574496448613 ], [ 2.798247349302052, 46.279964353122892 ], [ 2.798556620490031, 46.278340750308402 ], [ 2.798742522930996, 46.276708137193935 ], [ 2.798804547079277, 46.275070988057919 ] ] ] } },
{ "type": "Feature", "properties": { "name": "Commentry", "feature_type": "mrr", "metric_roundness": 54.46, "metric_rectangularity": 64.65, "metric_mobile_fit": 65.21, "metric_aspect_ratio": 0.91, "metric_area_km2": 43.41 }, "geometry": { "type": "Polygon", "coordinates": [ [ [ 2.787717076610276, 46.295586565306245 ], [ 2.765307805457905, 46.240297065412449 ], [ 2.702490170256412, 46.252468839819613 ], [ 2.724899441408783, 46.307746067383853 ], [ 2.787717076610276, 46.295586565306245 ] ] ] } }
]
}
