{
"type": "FeatureCollection",
"name": "conamara_south",
"crs": { "type": "name", "properties": { "name": "urn:ogc:def:crs:OGC:1.3:CRS84" } },
"features": [
{ "type": "Feature", "properties": { "name": "Conamara South", "feature_type": "entity", "metric_roundness": 36.64, "metric_rectangularity": 70.58, "metric_mobile_fit": -52.8, "metric_aspect_ratio": 2.09, "metric_area_km2": 1236.13 }, "geometry": { "type": "Polygon", "coordinates": [ [ [ -9.1516522, 53.386344 ], [ -9.1572113, 53.378024699999969 ], [ -9.1654467, 53.375253699999973 ], [ -9.1767733, 53.374817599999986 ], [ -9.1983297, 53.379567 ], [ -9.2002504, 53.374110699999981 ], [ -9.2069369, 53.3714049 ], [ -9.2225168, 53.373041699999987 ], [ -9.2414905, 53.38119219999998 ], [ -9.2552904, 53.3700285 ], [ -9.2810436, 53.360312799999981 ], [ -9.2870009, 53.367341 ], [ -9.3207981, 53.370911099999987 ], [ -9.3332618, 53.380091299999982 ], [ -9.3525948, 53.375488499999989 ], [ -9.3540352, 53.362662599999986 ], [ -9.3775356, 53.357805199999987 ], [ -9.3923652, 53.3580305 ], [ -9.4164781, 53.373341599999989 ], [ -9.4204031, 53.370113199999977 ], [ -9.4205678, 53.3601509 ], [ -9.4321792, 53.3509565 ], [ -9.4460261, 53.348455799999989 ], [ -9.4676878, 53.362756099999984 ], [ -9.4749895, 53.3580295 ], [ -9.4709292, 53.351148 ], [ -9.4796945, 53.343581099999987 ], [ -9.4895069, 53.3436383 ], [ -9.4911987, 53.3378443 ], [ -9.5032275, 53.325490599999988 ], [ -9.5125594, 53.314888299999986 ], [ -9.5305768, 53.303458299999981 ], [ -9.5533449, 53.296714599999987 ], [ -9.5570794, 53.2999503 ], [ -9.5564405, 53.303832499999984 ], [ -9.5581954, 53.3180404 ], [ -9.5649559, 53.3256904 ], [ -9.5634822, 53.335667 ], [ -9.5692013, 53.344032 ], [ -9.5740009, 53.341362 ], [ -9.5697398, 53.3351511 ], [ -9.5728678, 53.3327648 ], [ -9.621897, 53.324907599999982 ], [ -9.6229237, 53.3164416 ], [ -9.6128778, 53.3115028 ], [ -9.6088801, 53.2959928 ], [ -9.6022601, 53.29287 ], [ -9.6098089, 53.285180399999987 ], [ -9.6026113, 53.2858534 ], [ -9.6000349, 53.2823126 ], [ -9.606428, 53.273583399999978 ], [ -9.6188798, 53.2667253 ], [ -9.6274711, 53.2568778 ], [ -9.6298902, 53.249252 ], [ -9.6245433, 53.238817299999987 ], [ -9.6137415, 53.2334306 ], [ -9.6017615, 53.239308 ], [ -9.586469, 53.238262399999989 ], [ -9.5791045, 53.246678599999974 ], [ -9.5751244, 53.258517299999987 ], [ -9.5794993, 53.2718957 ], [ -9.5683318, 53.280052299999987 ], [ -9.5526612, 53.2813127 ], [ -9.5575773, 53.285644899999987 ], [ -9.5556868, 53.287775599999989 ], [ -9.5454991, 53.2852709 ], [ -9.542358, 53.280926399999984 ], [ -9.5637925, 53.2646297 ], [ -9.56419, 53.2610999 ], [ -9.5576342, 53.252079 ], [ -9.5490549, 53.2581067 ], [ -9.5464766, 53.2444241 ], [ -9.5519663, 53.2419503 ], [ -9.5517296, 53.23735929999998 ], [ -9.5337161, 53.2299153 ], [ -9.523685, 53.222551599999989 ], [ -9.5093719, 53.222614299999975 ], [ -9.4868172, 53.2284157 ], [ -9.4672454, 53.2268353 ], [ -9.4501657, 53.233472799999987 ], [ -9.3975034, 53.234232799999987 ], [ -9.3593764, 53.241897 ], [ -9.3157499, 53.2397165 ], [ -9.2268185, 53.2489731 ], [ -9.2151414, 53.245592 ], [ -9.1798212, 53.245490499999988 ], [ -9.1280495, 53.251243 ], [ -9.1348873, 53.2594606 ], [ -9.1413552, 53.2758323 ], [ -9.1314461, 53.2833191 ], [ -9.1199715, 53.281152 ], [ -9.1127973, 53.283708399999988 ], [ -9.1000977, 53.296960599999984 ], [ -9.087628, 53.3025885 ], [ -9.0774642, 53.3037388 ], [ -9.064866, 53.318991 ], [ -9.0559922, 53.328239499999981 ], [ -9.0924438, 53.335606 ], [ -9.1014626, 53.347118699999989 ], [ -9.1030521, 53.353804 ], [ -9.0971609, 53.371738899999983 ], [ -9.105283, 53.3865985 ], [ -9.1516522, 53.386344 ] ] ] } },
{ "type": "Feature", "properties": { "name": "Conamara South", "feature_type": "circle", "metric_roundness": 36.64, "metric_rectangularity": 70.58, "metric_mobile_fit": -52.8, "metric_aspect_ratio": 2.09, "metric_area_km2": 1236.13 }, "geometry": { "type": "Polygon", "coordinates": [ [ [ -9.048484768060877, 53.288764003673194 ], [ -9.048888310367142, 53.27955079028559 ], [ -9.050097831204527, 53.270360851311651 ], [ -9.052110015360485, 53.261219399939044 ], [ -9.05491934757811, 53.252151532425387 ], [ -9.058518127673072, 53.243182158873253 ], [ -9.062896491639279, 53.234335934345268 ], [ -9.068042438685429, 53.225637190514263 ], [ -9.073941864128368, 53.217109868044673 ], [ -9.080578598053014, 53.208777449900239 ], [ -9.087934449632996, 53.200662895772844 ], [ -9.095989256990434, 53.192788577825226 ], [ -9.10472094245824, 53.185176217938228 ], [ -9.114105573093481, 53.177846826650388 ], [ -9.124117426275905, 53.170820643973734 ], [ -9.13472906021185, 53.16411708226569 ], [ -9.145911389150308, 53.157754671331595 ], [ -9.157633763104933, 53.15175100592716 ], [ -9.169864051863522, 53.146122695823031 ], [ -9.182568733054707, 53.140885318587692 ], [ -9.195712984030438, 53.13605337523623 ], [ -9.209260777312432, 53.131640248884914 ], [ -9.223174979341001, 53.127658166542503 ], [ -9.237417452255551, 53.124118164159754 ], [ -9.2519491584278, 53.121030055048699 ], [ -9.26673026746122, 53.118402401773039 ], [ -9.28172026536337, 53.116242491599827 ], [ -9.296878065591947, 53.114556315591834 ], [ -9.312162121670125, 53.113348551408002 ], [ -9.327530541062579, 53.112622549867744 ], [ -9.3429412, 53.11238032532281 ], [ -9.358351858937418, 53.112622549867744 ], [ -9.37372027832987, 53.113348551408002 ], [ -9.38900433440805, 53.114556315591834 ], [ -9.404162134636625, 53.116242491599827 ], [ -9.419152132538777, 53.118402401773039 ], [ -9.433933241572197, 53.121030055048699 ], [ -9.448464947744446, 53.124118164159754 ], [ -9.462707420658994, 53.127658166542503 ], [ -9.476621622687563, 53.131640248884914 ], [ -9.490169415969557, 53.13605337523623 ], [ -9.503313666945289, 53.140885318587692 ], [ -9.516018348136475, 53.146122695823031 ], [ -9.528248636895068, 53.15175100592716 ], [ -9.539971010849687, 53.157754671331595 ], [ -9.551153339788145, 53.16411708226569 ], [ -9.561764973724094, 53.170820643973734 ], [ -9.571776826906516, 53.177846826650388 ], [ -9.581161457541757, 53.185176217938228 ], [ -9.589893143009565, 53.192788577825226 ], [ -9.597947950366999, 53.200662895772844 ], [ -9.605303801946985, 53.208777449900239 ], [ -9.61194053587163, 53.217109868044673 ], [ -9.617839961314568, 53.225637190514263 ], [ -9.62298590836072, 53.234335934345268 ], [ -9.627364272326924, 53.243182158873253 ], [ -9.630963052421887, 53.252151532425387 ], [ -9.633772384639514, 53.261219399939044 ], [ -9.635784568795474, 53.270360851311651 ], [ -9.636994089632854, 53.27955079028559 ], [ -9.637397631939118, 53.288764003673194 ], [ -9.636994089632854, 53.297975230726919 ], [ -9.635784568795474, 53.307159232462112 ], [ -9.633772384639514, 53.316290860741177 ], [ -9.630963052421887, 53.325345126931182 ], [ -9.627364272326924, 53.334297269949531 ], [ -9.62298590836072, 53.343122823516204 ], [ -9.617839961314568, 53.351797682435169 ], [ -9.61194053587163, 53.360298167731621 ], [ -9.605303801946985, 53.36860109047705 ], [ -9.597947950366999, 53.376683814138879 ], [ -9.589893143009565, 53.384524315297043 ], [ -9.581161457541757, 53.392101242575777 ], [ -9.571776826906516, 53.399393973644656 ], [ -9.561764973724094, 53.406382670149476 ], [ -9.551153339788145, 53.413048330439636 ], [ -9.539971010849689, 53.41937283996581 ], [ -9.528248636895068, 53.425339019227906 ], [ -9.516018348136475, 53.430930669160794 ], [ -9.503313666945289, 53.436132613851726 ], [ -9.490169415969557, 53.440930740490941 ], [ -9.476621622687563, 53.445312036463882 ], [ -9.462707420658996, 53.449264623500653 ], [ -9.448464947744446, 53.452777788805697 ], [ -9.433933241572197, 53.455842013098064 ], [ -9.419152132538777, 53.458448995499595 ], [ -9.404162134636625, 53.460591675216229 ], [ -9.38900433440805, 53.462264249964434 ], [ -9.373720278329872, 53.463462191102451 ], [ -9.358351858937418, 53.464182255433457 ], [ -9.3429412, 53.464422493654489 ], [ -9.327530541062579, 53.464182255433457 ], [ -9.312162121670125, 53.463462191102451 ], [ -9.296878065591947, 53.462264249964434 ], [ -9.281720265363372, 53.460591675216229 ], [ -9.26673026746122, 53.458448995499595 ], [ -9.2519491584278, 53.455842013098064 ], [ -9.237417452255551, 53.452777788805697 ], [ -9.223174979341001, 53.449264623500653 ], [ -9.209260777312432, 53.445312036463882 ], [ -9.195712984030438, 53.440930740490941 ], [ -9.182568733054707, 53.436132613851726 ], [ -9.169864051863522, 53.430930669160794 ], [ -9.157633763104933, 53.425339019227906 ], [ -9.145911389150308, 53.41937283996581 ], [ -9.134729060211852, 53.413048330439636 ], [ -9.124117426275905, 53.406382670149476 ], [ -9.114105573093481, 53.399393973644656 ], [ -9.10472094245824, 53.392101242575777 ], [ -9.095989256990434, 53.38452431529705 ], [ -9.087934449632996, 53.376683814138879 ], [ -9.080578598053014, 53.36860109047705 ], [ -9.073941864128368, 53.360298167731621 ], [ -9.068042438685431, 53.351797682435169 ], [ -9.062896491639279, 53.343122823516204 ], [ -9.058518127673072, 53.334297269949531 ], [ -9.05491934757811, 53.325345126931182 ], [ -9.052110015360485, 53.316290860741177 ], [ -9.050097831204527, 53.307159232462112 ], [ -9.048888310367142, 53.297975230726919 ], [ -9.048484768060877, 53.288764003673194 ] ] ] } },
{ "type": "Feature", "properties": { "name": "Conamara South", "feature_type": "mrr", "metric_roundness": 36.64, "metric_rectangularity": 70.58, "metric_mobile_fit": -52.8, "metric_aspect_ratio": 2.09, "metric_area_km2": 1236.13 }, "geometry": { "type": "Polygon", "coordinates": [ [ [ -9.041795392877608, 53.255068112263949 ], [ -9.623197680342576, 53.2147100908184 ], [ -9.651015687885554, 53.358103632600866 ], [ -9.069613400420589, 53.398326405831988 ], [ -9.041795392877608, 53.255068112263949 ] ] ] } }
]
}
