{
"type": "FeatureCollection",
"name": "condat_sur_vezere",
"crs": { "type": "name", "properties": { "name": "urn:ogc:def:crs:OGC:1.3:CRS84" } },
"features": [
{ "type": "Feature", "properties": { "name": "Condat-sur-Vézère", "metric_roundness": 68.0, "metric_rectangularity": 78.57, "metric_mobile_fit": 48.18, "metric_aspect_ratio": 1.081, "metric_area_km2": 32.62 }, "geometry": { "type": "Polygon", "coordinates": [ [ [ 1.1976373, 45.1052761 ], [ 1.194452, 45.096423 ], [ 1.2316405, 45.084942499999983 ], [ 1.2399216, 45.0855392 ], [ 1.2426691, 45.090534 ], [ 1.2613235, 45.104387499999987 ], [ 1.2604738, 45.113306799999975 ], [ 1.253994, 45.119394499999984 ], [ 1.2463513, 45.121446799999987 ], [ 1.2387103, 45.128617 ], [ 1.2293341, 45.122743399999983 ], [ 1.2179395, 45.126611 ], [ 1.1976373, 45.1052761 ] ] ] } }
]
}
