{
"type": "FeatureCollection",
"name": "cosse_en_champagne",
"crs": { "type": "name", "properties": { "name": "urn:ogc:def:crs:OGC:1.3:CRS84" } },
"features": [
{ "type": "Feature", "properties": { "name": "Cossé-en-Champagne", "feature_type": "entity", "metric_roundness": 52.08, "metric_rectangularity": 59.53, "metric_mobile_fit": 57.02, "metric_aspect_ratio": 0.992, "metric_area_km2": 47.12 }, "geometry": { "type": "Polygon", "coordinates": [ [ [ -0.3697895, 47.961109 ], [ -0.360615, 47.959836 ], [ -0.355129, 47.958658 ], [ -0.3488005, 47.955384 ], [ -0.345024, 47.954885499999989 ], [ -0.336736, 47.9512515 ], [ -0.334857, 47.9498545 ], [ -0.3281605, 47.947218 ], [ -0.325121, 47.9453525 ], [ -0.3116685, 47.940303499999985 ], [ -0.2965982, 47.9437657 ], [ -0.289596, 47.9509573 ], [ -0.2802818, 47.954981899999986 ], [ -0.279986, 47.9575423 ], [ -0.288348, 47.9613 ], [ -0.3013634, 47.966341 ], [ -0.2982932, 47.9718893 ], [ -0.2996515, 47.97878129999998 ], [ -0.3112082, 47.993475 ], [ -0.312448, 48.0010665 ], [ -0.3202796, 47.994935899999987 ], [ -0.3236114, 47.984346599999988 ], [ -0.3621722, 47.9765474 ], [ -0.3700435, 47.966052 ], [ -0.3697895, 47.961109 ] ] ] } },
{ "type": "Feature", "properties": { "name": "Cossé-en-Champagne", "feature_type": "circle", "metric_roundness": 52.08, "metric_rectangularity": 59.53, "metric_mobile_fit": 57.02, "metric_aspect_ratio": 0.992, "metric_area_km2": 47.12 }, "geometry": { "type": "Polygon", "coordinates": [ [ [ -0.275047256033966, 47.969613429020129 ], [ -0.275113343266308, 47.9679236754667 ], [ -0.275311423822824, 47.966238498351807 ], [ -0.275640954778478, 47.964562517307257 ], [ -0.276101032911825, 47.962900327203322 ], [ -0.27669039718068, 47.961256485542243 ], [ -0.277407432178551, 47.959635499949435 ], [ -0.278250172562347, 47.958041815796747 ], [ -0.279216308439256, 47.956479803992188 ], [ -0.280303191697993, 47.954953748969643 ], [ -0.281507843267095, 47.953467836911898 ], [ -0.282826961280345, 47.952026144239682 ], [ -0.28425693012696, 47.950632626398601 ], [ -0.285793830361727, 47.94929110697521 ], [ -0.287433449447932, 47.948005267172377 ], [ -0.289171293303626, 47.946778635673496 ], [ -0.291002598619599, 47.945614578923653 ], [ -0.292922345915271, 47.944516291854896 ], [ -0.294925273296745, 47.943486789081732 ], [ -0.29700589087929, 47.942528896591284 ], [ -0.299158495834735, 47.94164524395152 ], [ -0.301377188022521, 47.940838257059418 ], [ -0.303655886161583, 47.940110151449403 ], [ -0.30598834449871, 47.939462926180781 ], [ -0.308368169927729, 47.938898358321566 ], [ -0.310788839512558, 47.938417998043988 ], [ -0.313243718366123, 47.938023164345701 ], [ -0.315726077836124, 47.937714941408558 ], [ -0.318229113947799, 47.93749417560538 ], [ -0.320745966053151, 47.937361473163065 ], [ -0.323269735635504, 47.937317198488657 ], [ -0.325793505217856, 47.937361473163065 ], [ -0.328310357323208, 47.93749417560538 ], [ -0.330813393434884, 47.937714941408558 ], [ -0.333295752904884, 47.938023164345701 ], [ -0.335750631758449, 47.938417998043988 ], [ -0.338171301343278, 47.938898358321566 ], [ -0.340551126772297, 47.939462926180781 ], [ -0.342883585109424, 47.940110151449403 ], [ -0.345162283248486, 47.940838257059418 ], [ -0.347380975436273, 47.94164524395152 ], [ -0.349533580391717, 47.942528896591284 ], [ -0.351614197974262, 47.943486789081732 ], [ -0.353617125355736, 47.944516291854896 ], [ -0.355536872651408, 47.945614578923653 ], [ -0.357368177967381, 47.946778635673496 ], [ -0.359106021823076, 47.948005267172377 ], [ -0.36074564090928, 47.94929110697521 ], [ -0.362282541144047, 47.950632626398601 ], [ -0.363712509990662, 47.952026144239682 ], [ -0.365031628003912, 47.953467836911898 ], [ -0.366236279573014, 47.954953748969643 ], [ -0.367323162831752, 47.956479803992188 ], [ -0.36828929870866, 47.958041815796747 ], [ -0.369132039092456, 47.959635499949435 ], [ -0.369849074090327, 47.961256485542243 ], [ -0.370438438359183, 47.962900327203322 ], [ -0.370898516492529, 47.964562517307257 ], [ -0.371228047448183, 47.966238498351807 ], [ -0.371426128004699, 47.9679236754667 ], [ -0.371492215237041, 47.969613429020129 ], [ -0.371426128004699, 47.971303127288309 ], [ -0.371228047448183, 47.972988139153152 ], [ -0.370898516492529, 47.974663846793391 ], [ -0.370438438359183, 47.976325658334233 ], [ -0.369849074090327, 47.977969020421014 ], [ -0.369132039092456, 47.97958943068268 ], [ -0.36828929870866, 47.981182450050802 ], [ -0.367323162831752, 47.982743714900906 ], [ -0.366236279573014, 47.984268948982901 ], [ -0.365031628003912, 47.985753975108395 ], [ -0.363712509990662, 47.987194726563118 ], [ -0.362282541144047, 47.988587258213634 ], [ -0.36074564090928, 47.989927757278316 ], [ -0.359106021823076, 47.991212553733561 ], [ -0.357368177967381, 47.992438130327081 ], [ -0.355536872651408, 47.993601132171591 ], [ -0.353617125355736, 47.994698375892781 ], [ -0.351614197974262, 47.995726858307286 ], [ -0.349533580391717, 47.996683764607255 ], [ -0.347380975436273, 47.997566476029604 ], [ -0.345162283248486, 47.998372576989546 ], [ -0.342883585109424, 47.999099861659111 ], [ -0.340551126772297, 47.999746339973392 ], [ -0.338171301343278, 48.000310243048148 ], [ -0.335750631758449, 48.000790027994661 ], [ -0.333295752904884, 48.001184382118758 ], [ -0.330813393434884, 48.001492226492857 ], [ -0.328310357323208, 48.001712718891781 ], [ -0.325793505217856, 48.001845256084081 ], [ -0.323269735635504, 48.001889475473256 ], [ -0.320745966053151, 48.001845256084081 ], [ -0.318229113947799, 48.001712718891781 ], [ -0.315726077836124, 48.001492226492857 ], [ -0.313243718366123, 48.001184382118758 ], [ -0.310788839512558, 48.000790027994661 ], [ -0.308368169927729, 48.000310243048148 ], [ -0.30598834449871, 47.999746339973392 ], [ -0.303655886161583, 47.999099861659111 ], [ -0.301377188022521, 47.998372576989546 ], [ -0.299158495834735, 47.997566476029604 ], [ -0.29700589087929, 47.996683764607255 ], [ -0.294925273296745, 47.995726858307286 ], [ -0.292922345915271, 47.994698375892781 ], [ -0.291002598619599, 47.993601132171591 ], [ -0.289171293303626, 47.992438130327081 ], [ -0.287433449447932, 47.991212553733561 ], [ -0.285793830361727, 47.989927757278316 ], [ -0.28425693012696, 47.988587258213634 ], [ -0.282826961280345, 47.987194726563118 ], [ -0.281507843267095, 47.985753975108395 ], [ -0.280303191697993, 47.984268948982901 ], [ -0.279216308439256, 47.982743714900906 ], [ -0.278250172562347, 47.981182450050802 ], [ -0.277407432178551, 47.97958943068268 ], [ -0.27669039718068, 47.977969020421014 ], [ -0.276101032911825, 47.976325658334233 ], [ -0.275640954778478, 47.974663846793391 ], [ -0.275311423822824, 47.972988139153152 ], [ -0.275113343266308, 47.971303127288309 ], [ -0.275047256033966, 47.969613429020129 ] ] ] } },
{ "type": "Feature", "properties": { "name": "Cossé-en-Champagne", "feature_type": "mrr", "metric_roundness": 52.08, "metric_rectangularity": 59.53, "metric_mobile_fit": 57.02, "metric_aspect_ratio": 0.992, "metric_area_km2": 47.12 }, "geometry": { "type": "Polygon", "coordinates": [ [ [ -0.378120842446309, 47.968680625902159 ], [ -0.312448, 48.0010665 ], [ -0.265998880247414, 47.958865242243924 ], [ -0.331671717156075, 47.926452893081155 ], [ -0.378120842446309, 47.968680625902159 ] ] ] } }
]
}
