{
"type": "FeatureCollection",
"name": "coueron",
"crs": { "type": "name", "properties": { "name": "urn:ogc:def:crs:OGC:1.3:CRS84" } },
"features": [
{ "type": "Feature", "properties": { "name": "Couëron", "metric_roundness": 29.33, "metric_rectangularity": 43.59, "metric_mobile_fit": -32.03, "metric_aspect_ratio": 1.883, "metric_area_km2": 105.91 }, "geometry": { "type": "Polygon", "coordinates": [ [ [ -1.7446195, 47.2049765 ], [ -1.733179, 47.205612 ], [ -1.7093035, 47.207809 ], [ -1.7001125, 47.20687 ], [ -1.694739, 47.20573 ], [ -1.6878305, 47.2044474 ], [ -1.6901696, 47.209455799999979 ], [ -1.6775185, 47.206984 ], [ -1.6723808, 47.211680599999987 ], [ -1.6723801, 47.223523599999986 ], [ -1.6576996, 47.2436826 ], [ -1.6511755, 47.2481605 ], [ -1.6961138, 47.2591142 ], [ -1.719135, 47.273894499999983 ], [ -1.7243268, 47.2611907 ], [ -1.733018, 47.2533691 ], [ -1.7412732, 47.239060499999987 ], [ -1.7633926, 47.2354109 ], [ -1.7727456, 47.226920699999987 ], [ -1.8030444, 47.229586199999986 ], [ -1.8280144, 47.2433338 ], [ -1.8437595, 47.244448499999983 ], [ -1.8345078, 47.229940299999981 ], [ -1.8188678, 47.2213371 ], [ -1.8007432, 47.218588199999985 ], [ -1.7877133, 47.209862499999986 ], [ -1.7651478, 47.209398 ], [ -1.7477195, 47.205417499999989 ], [ -1.7446195, 47.2049765 ] ] ] } }
]
}
