{
"type": "FeatureCollection",
"name": "courbouzon",
"crs": { "type": "name", "properties": { "name": "urn:ogc:def:crs:OGC:1.3:CRS84" } },
"features": [
{ "type": "Feature", "properties": { "name": "Courbouzon", "metric_roundness": 18.75, "metric_rectangularity": 26.54, "metric_mobile_fit": 87.19, "metric_aspect_ratio": 0.691, "metric_area_km2": 17.0 }, "geometry": { "type": "Polygon", "coordinates": [ [ [ 1.5392972, 47.684358 ], [ 1.5422963, 47.6888279 ], [ 1.565716, 47.694689499999988 ], [ 1.5512921, 47.703748899999987 ], [ 1.5518374, 47.712466499999984 ], [ 1.5445054, 47.724999 ], [ 1.5312622, 47.731691899999987 ], [ 1.5248325, 47.728411 ], [ 1.5386765, 47.720924699999983 ], [ 1.5340733, 47.7148944 ], [ 1.5446016, 47.708351899999982 ], [ 1.5477568, 47.699315 ], [ 1.5447219, 47.6955452 ], [ 1.523867, 47.6888271 ], [ 1.51444, 47.680711499999987 ], [ 1.5015202, 47.676053799999984 ], [ 1.505232, 47.669133 ], [ 1.5299656, 47.676054799999982 ], [ 1.5410725, 47.6811215 ], [ 1.5392972, 47.684358 ] ] ] } }
]
}
