{
"type": "FeatureCollection",
"name": "cours_de_monsegur",
"crs": { "type": "name", "properties": { "name": "urn:ogc:def:crs:OGC:1.3:CRS84" } },
"features": [
{ "type": "Feature", "properties": { "name": "Cours-de-Monségur", "metric_roundness": 35.99, "metric_rectangularity": 41.63, "metric_mobile_fit": 50.18, "metric_aspect_ratio": 1.061, "metric_area_km2": 19.34 }, "geometry": { "type": "Polygon", "coordinates": [ [ [ 0.1218059, 44.6649133 ], [ 0.1078865, 44.6681538 ], [ 0.103114, 44.6645715 ], [ 0.1091106, 44.6598957 ], [ 0.1060293, 44.6431162 ], [ 0.1156695, 44.6394715 ], [ 0.118098, 44.638620499999988 ], [ 0.1206795, 44.6367385 ], [ 0.1233315, 44.636917 ], [ 0.1232925, 44.6343975 ], [ 0.1217725, 44.6313975 ], [ 0.1265955, 44.630505 ], [ 0.131837, 44.6285765 ], [ 0.1392635, 44.627142 ], [ 0.1377276, 44.6369567 ], [ 0.141191, 44.6413145 ], [ 0.1328936, 44.657685799999989 ], [ 0.167617, 44.668371499999985 ], [ 0.1631255, 44.670406 ], [ 0.143976, 44.665801699999989 ], [ 0.1335725, 44.6679575 ], [ 0.1218059, 44.6649133 ] ] ] } }
]
}
