{
"type": "FeatureCollection",
"name": "courmas",
"crs": { "type": "name", "properties": { "name": "urn:ogc:def:crs:OGC:1.3:CRS84" } },
"features": [
{ "type": "Feature", "properties": { "name": "Courmas", "feature_type": "entity", "metric_roundness": 44.38, "metric_rectangularity": 64.76, "metric_mobile_fit": 36.1, "metric_aspect_ratio": 1.201, "metric_area_km2": 6.36 }, "geometry": { "type": "Polygon", "coordinates": [ [ [ 3.8954525, 49.1817685 ], [ 3.899479, 49.180728 ], [ 3.9144838, 49.1844243 ], [ 3.9207225, 49.183367699999984 ], [ 3.9239655, 49.1870915 ], [ 3.9252725, 49.189456 ], [ 3.9272995, 49.190732499999989 ], [ 3.922982, 49.199246 ], [ 3.9192385, 49.198352 ], [ 3.910214, 49.1946965 ], [ 3.907898, 49.195634499999976 ], [ 3.902982, 49.191834 ], [ 3.902103, 49.18995 ], [ 3.893256, 49.183954 ], [ 3.8954525, 49.1817685 ] ] ] } },
{ "type": "Feature", "properties": { "name": "Courmas", "feature_type": "circle", "metric_roundness": 44.38, "metric_rectangularity": 64.76, "metric_mobile_fit": 36.1, "metric_aspect_ratio": 1.201, "metric_area_km2": 6.36 }, "geometry": { "type": "Polygon", "coordinates": [ [ [ 3.928407341447962, 49.190508021792859 ], [ 3.928381042094577, 49.189851640413437 ], [ 3.928302216119118, 49.1891970494571 ], [ 3.928171079578107, 49.188546043219006 ], [ 3.927987991907687, 49.187900406238924 ], [ 3.927753454938436, 49.187261908407834 ], [ 3.927468111519884, 49.186632300114177 ], [ 3.927132743758509, 49.186013307442771 ], [ 3.926748270874032, 49.185406627439612 ], [ 3.926315746679906, 49.184813923455714 ], [ 3.925836356694882, 49.184236820582655 ], [ 3.925311414893587, 49.18367690119252 ], [ 3.924742360105011, 49.18313570059442 ], [ 3.924130752068774, 49.182614702819691 ], [ 3.923478267159991, 49.182115336547227 ], [ 3.922786693794444, 49.181638971180341 ], [ 3.922057927526656, 49.181186913086002 ], [ 3.921293965854313, 49.180760402006548 ], [ 3.920496902743256, 49.180360607654329 ], [ 3.919668922888067, 49.179988626498108 ], [ 3.918812295723981, 49.17964547875048 ], [ 3.917929369206507, 49.17933210556459 ], [ 3.917022563375861, 49.179049366447821 ], [ 3.916094363723793, 49.178798036899636 ], [ 3.915147314381029, 49.178578806280179 ], [ 3.914184011143991, 49.178392275915499 ], [ 3.913207094359893, 49.178238957444634 ], [ 3.912219241689734, 49.178119271413173 ], [ 3.911223160769021, 49.178033546117156 ], [ 3.910221581786318, 49.177982016700597 ], [ 3.90921725, 49.177964824508948 ], [ 3.90821291821368, 49.177982016700597 ], [ 3.907211339230978, 49.178033546117156 ], [ 3.906215258310264, 49.178119271413173 ], [ 3.905227405640106, 49.178238957444634 ], [ 3.904250488856007, 49.178392275915499 ], [ 3.903287185618969, 49.178578806280179 ], [ 3.902340136276206, 49.178798036899636 ], [ 3.901411936624137, 49.179049366447821 ], [ 3.900505130793491, 49.17933210556459 ], [ 3.899622204276017, 49.17964547875048 ], [ 3.89876557711193, 49.179988626498108 ], [ 3.897937597256743, 49.180360607654329 ], [ 3.897140534145685, 49.180760402006548 ], [ 3.896376572473342, 49.181186913086002 ], [ 3.895647806205555, 49.181638971180341 ], [ 3.894956232840008, 49.182115336547227 ], [ 3.894303747931224, 49.182614702819691 ], [ 3.893692139894987, 49.18313570059442 ], [ 3.893123085106412, 49.18367690119252 ], [ 3.892598143305117, 49.184236820582655 ], [ 3.892118753320092, 49.184813923455714 ], [ 3.891686229125966, 49.185406627439612 ], [ 3.891301756241489, 49.186013307442771 ], [ 3.890966388480114, 49.186632300114177 ], [ 3.890681045061563, 49.187261908407834 ], [ 3.890446508092312, 49.187900406238924 ], [ 3.890263420421892, 49.188546043219006 ], [ 3.890132283880881, 49.1891970494571 ], [ 3.890053457905422, 49.189851640413437 ], [ 3.890027158552036, 49.190508021792859 ], [ 3.890053457905422, 49.191164394463861 ], [ 3.890132283880881, 49.191818959390396 ], [ 3.890263420421892, 49.192469922562438 ], [ 3.890446508092312, 49.193115499912103 ], [ 3.890681045061563, 49.193753922201722 ], [ 3.890966388480114, 49.194383439870485 ], [ 3.891301756241489, 49.195002327826508 ], [ 3.891686229125966, 49.195608890171052 ], [ 3.892118753320092, 49.196201464842211 ], [ 3.892598143305117, 49.196778428165189 ], [ 3.893123085106412, 49.19733819929683 ], [ 3.893692139894987, 49.197879244552361 ], [ 3.894303747931224, 49.198400081602443 ], [ 3.894956232840008, 49.198899283529109 ], [ 3.895647806205555, 49.199375482729621 ], [ 3.896376572473342, 49.199827374657616 ], [ 3.897140534145685, 49.200253721391249 ], [ 3.897937597256743, 49.200653355018815 ], [ 3.89876557711193, 49.201025180832488 ], [ 3.899622204276017, 49.201368180321623 ], [ 3.900505130793491, 49.201681413957424 ], [ 3.901411936624137, 49.201964023761448 ], [ 3.902340136276206, 49.202215235651032 ], [ 3.903287185618969, 49.202434361555106 ], [ 3.904250488856007, 49.202620801294906 ], [ 3.905227405640106, 49.202774044224292 ], [ 3.906215258310264, 49.202893670625336 ], [ 3.907211339230978, 49.202979352855309 ], [ 3.90821291821368, 49.203030856242052 ], [ 3.90921725, 49.203048039725296 ], [ 3.910221581786318, 49.203030856242052 ], [ 3.911223160769021, 49.202979352855309 ], [ 3.912219241689734, 49.202893670625336 ], [ 3.913207094359893, 49.202774044224292 ], [ 3.914184011143991, 49.202620801294906 ], [ 3.915147314381029, 49.202434361555106 ], [ 3.916094363723793, 49.202215235651032 ], [ 3.917022563375861, 49.201964023761448 ], [ 3.917929369206507, 49.201681413957424 ], [ 3.91881229572398, 49.201368180321623 ], [ 3.919668922888067, 49.201025180832488 ], [ 3.920496902743256, 49.200653355018815 ], [ 3.921293965854313, 49.200253721391249 ], [ 3.922057927526656, 49.199827374657616 ], [ 3.922786693794444, 49.199375482729621 ], [ 3.923478267159991, 49.198899283529109 ], [ 3.924130752068773, 49.198400081602443 ], [ 3.924742360105011, 49.197879244552361 ], [ 3.925311414893587, 49.19733819929683 ], [ 3.925836356694882, 49.196778428165189 ], [ 3.926315746679906, 49.196201464842211 ], [ 3.926748270874032, 49.195608890171052 ], [ 3.927132743758509, 49.195002327826508 ], [ 3.927468111519884, 49.194383439870485 ], [ 3.927753454938436, 49.193753922201722 ], [ 3.927987991907687, 49.193115499912103 ], [ 3.928171079578107, 49.192469922562438 ], [ 3.928302216119118, 49.191818959390396 ], [ 3.928381042094577, 49.191164394463861 ], [ 3.928407341447962, 49.190508021792859 ] ] ] } },
{ "type": "Feature", "properties": { "name": "Courmas", "feature_type": "mrr", "metric_roundness": 44.38, "metric_rectangularity": 64.76, "metric_mobile_fit": 36.1, "metric_aspect_ratio": 1.201, "metric_area_km2": 6.36 }, "geometry": { "type": "Polygon", "coordinates": [ [ [ 3.889214607391056, 49.191181290554113 ], [ 3.922982, 49.199246 ], [ 3.930549006043373, 49.185715082393543 ], [ 3.896781622867873, 49.177648169864639 ], [ 3.889214607391056, 49.191181290554113 ] ] ] } }
]
}
