{
"type": "FeatureCollection",
"name": "coussa",
"crs": { "type": "name", "properties": { "name": "urn:ogc:def:crs:OGC:1.3:CRS84" } },
"features": [
{ "type": "Feature", "properties": { "name": "Coussa", "metric_roundness": 57.73, "metric_rectangularity": 65.5, "metric_mobile_fit": 35.68, "metric_aspect_ratio": 1.206, "metric_area_km2": 14.7 }, "geometry": { "type": "Polygon", "coordinates": [ [ [ 1.6879976, 43.075384899999989 ], [ 1.6658529, 43.068551 ], [ 1.6637875, 43.064314 ], [ 1.667182, 43.0569505 ], [ 1.6764734, 43.057293 ], [ 1.6879825, 43.0517155 ], [ 1.692283, 43.0516515 ], [ 1.695287, 43.052568 ], [ 1.699466, 43.051245 ], [ 1.7006625, 43.0549445 ], [ 1.703101, 43.056037 ], [ 1.7070945, 43.056106 ], [ 1.7108325, 43.0600022 ], [ 1.710786, 43.066926499999987 ], [ 1.7117505, 43.068459 ], [ 1.710923, 43.0712935 ], [ 1.7122975, 43.07449050000001 ], [ 1.7051135, 43.0746375 ], [ 1.700042, 43.072307499999987 ], [ 1.697686, 43.0747725 ], [ 1.695617, 43.0789025 ], [ 1.6928895, 43.080638 ], [ 1.6879976, 43.075384899999989 ] ] ] } }
]
}
