{
"type": "FeatureCollection",
"name": "covarrubias",
"crs": { "type": "name", "properties": { "name": "urn:ogc:def:crs:OGC:1.3:CRS84" } },
"features": [
{ "type": "Feature", "properties": { "name": "Covarrubias", "metric_roundness": 56.0, "metric_rectangularity": 69.22, "metric_mobile_fit": 80.56, "metric_aspect_ratio": 0.757, "metric_area_km2": 67.2 }, "geometry": { "type": "Polygon", "coordinates": [ [ [ -3.5000289, 42.079219 ], [ -3.4968827, 42.086050199999981 ], [ -3.4985494, 42.0931722 ], [ -3.5109366, 42.096778699999987 ], [ -3.5169662, 42.1013493 ], [ -3.5374978, 42.095682 ], [ -3.5635156, 42.066047599999983 ], [ -3.571431, 42.063297 ], [ -3.5713208, 42.0498884 ], [ -3.5614338, 42.0514478 ], [ -3.5563638, 42.0482503 ], [ -3.5610685, 42.040690399999981 ], [ -3.5580205, 42.030783 ], [ -3.554736, 42.030891499999981 ], [ -3.553211, 42.0281028 ], [ -3.5465672, 42.0218775 ], [ -3.5378862, 42.0212524 ], [ -3.524587, 42.0343935 ], [ -3.5169662, 42.0390226 ], [ -3.5043142, 42.0467079 ], [ -3.494073, 42.045696499999984 ], [ -3.4897709, 42.050809 ], [ -3.4906774, 42.069228099999989 ], [ -3.4974685, 42.078094499999985 ], [ -3.5000289, 42.079219 ] ] ] } }
]
}
