{
"type": "FeatureCollection",
"name": "kirchberg",
"crs": { "type": "name", "properties": { "name": "urn:ogc:def:crs:OGC:1.3:CRS84" } },
"features": [
{ "type": "Feature", "properties": { "name": "Kirchberg", "feature_type": "entity", "metric_roundness": 52.5, "metric_rectangularity": 68.41, "metric_mobile_fit": 25.33, "metric_aspect_ratio": 1.309, "metric_area_km2": 37.61 }, "geometry": { "type": "Polygon", "coordinates": [ [ [ 12.0905013, 48.4080418 ], [ 12.1059344, 48.414000499999986 ], [ 12.098599, 48.4245625 ], [ 12.0859785, 48.424722599999988 ], [ 12.0776587, 48.428439699999984 ], [ 12.063101, 48.4225282 ], [ 12.0540059, 48.423569599999986 ], [ 12.0434054, 48.4208522 ], [ 12.0395256, 48.4161556 ], [ 12.0207705, 48.416308499999978 ], [ 12.0240153, 48.4142239 ], [ 12.024958, 48.4067545 ], [ 12.031005, 48.407313099999989 ], [ 12.0272999, 48.400616 ], [ 12.0359711, 48.395776299999966 ], [ 12.035765, 48.391739 ], [ 12.0478075, 48.385258 ], [ 12.0595956, 48.3925175 ], [ 12.0657044, 48.388512899999974 ], [ 12.0734901, 48.389543 ], [ 12.0740338, 48.3925233 ], [ 12.0688597, 48.3983742 ], [ 12.090099, 48.4016625 ], [ 12.0905013, 48.4080418 ] ] ] } },
{ "type": "Feature", "properties": { "name": "Kirchberg", "feature_type": "circle", "metric_roundness": 52.5, "metric_rectangularity": 68.41, "metric_mobile_fit": 25.33, "metric_aspect_ratio": 1.309, "metric_area_km2": 37.61 }, "geometry": { "type": "Polygon", "coordinates": [ [ [ 12.106055590998867, 48.411861502680757 ], [ 12.105996790210956, 48.410370974553942 ], [ 12.105820549016094, 48.408884488349436 ], [ 12.105527350479148, 48.407406118958797 ], [ 12.105117998236928, 48.405939919377019 ], [ 12.104593614295471, 48.404489909583901 ], [ 12.103955635954717, 48.403060065512086 ], [ 12.103205811868953, 48.40165430813223 ], [ 12.102346197253873, 48.400276492685478 ], [ 12.101379148253388, 48.398930398092858 ], [ 12.100307315481594, 48.397619716570944 ], [ 12.09913363675761, 48.396348043482554 ], [ 12.09786132905324, 48.395118867450627 ], [ 12.096493879675464, 48.393935560762664 ], [ 12.095035036707978, 48.392801370092407 ], [ 12.093488798737951, 48.3917194075647 ], [ 12.09185940389618, 48.39069264218822 ], [ 12.090151318240673, 48.389723891680134 ], [ 12.08836922351548, 48.388815814705353 ], [ 12.086518004318371, 48.387970903552301 ], [ 12.084602734712494, 48.387191477265326 ], [ 12.082628664318703, 48.386479675253341 ], [ 12.080601203926733, 48.385837451392369 ], [ 12.078525910664595, 48.385266568638556 ], [ 12.076408472766866, 48.38476859416685 ], [ 12.07425469398364, 48.384344895048905 ], [ 12.07207047767286, 48.383996634482415 ], [ 12.069861810619607, 48.383724768582326 ], [ 12.067634746626753, 48.383530043743214 ], [ 12.0653953899219, 48.383412994579935 ], [ 12.063149878426119, 48.383373942452629 ], [ 12.060904366930339, 48.383412994579935 ], [ 12.058665010225488, 48.383530043743214 ], [ 12.056437946232631, 48.383724768582326 ], [ 12.054229279179379, 48.383996634482415 ], [ 12.052045062868599, 48.384344895048905 ], [ 12.049891284085373, 48.38476859416685 ], [ 12.047773846187644, 48.385266568638556 ], [ 12.045698552925506, 48.385837451392369 ], [ 12.043671092533534, 48.386479675253341 ], [ 12.041697022139745, 48.387191477265326 ], [ 12.039781752533866, 48.387970903552301 ], [ 12.037930533336759, 48.388815814705353 ], [ 12.036148438611566, 48.389723891680134 ], [ 12.034440352956059, 48.39069264218822 ], [ 12.03281095811429, 48.3917194075647 ], [ 12.031264720144263, 48.392801370092407 ], [ 12.029805877176775, 48.393935560762664 ], [ 12.028438427798999, 48.395118867450627 ], [ 12.02716612009463, 48.396348043482554 ], [ 12.025992441370645, 48.397619716570944 ], [ 12.024920608598851, 48.398930398092858 ], [ 12.023953559598366, 48.400276492685478 ], [ 12.023093944983286, 48.40165430813223 ], [ 12.02234412089752, 48.403060065512086 ], [ 12.021706142556766, 48.404489909583901 ], [ 12.021181758615311, 48.405939919377019 ], [ 12.020772406373091, 48.407406118958797 ], [ 12.020479207836145, 48.408884488349436 ], [ 12.020302966641282, 48.410370974553942 ], [ 12.020244165853372, 48.411861502680757 ], [ 12.020302966641282, 48.413351987116712 ], [ 12.020479207836145, 48.414838342727307 ], [ 12.020772406373091, 48.416316496051827 ], [ 12.021181758615311, 48.41778239646252 ], [ 12.021706142556766, 48.419232027257372 ], [ 12.02234412089752, 48.420661416656138 ], [ 12.023093944983286, 48.422066648669642 ], [ 12.023953559598366, 48.423443873812765 ], [ 12.024920608598851, 48.424789319631977 ], [ 12.025992441370645, 48.426099301018809 ], [ 12.02716612009463, 48.427370230281255 ], [ 12.028438427798999, 48.428598626945885 ], [ 12.029805877176775, 48.429781127264135 ], [ 12.031264720144263, 48.430914493396997 ], [ 12.03281095811429, 48.431995622253439 ], [ 12.034440352956059, 48.433021553958667 ], [ 12.036148438611566, 48.43398947992938 ], [ 12.037930533336759, 48.43489675053447 ], [ 12.039781752533866, 48.435740882320275 ], [ 12.041697022139745, 48.436519564781364 ], [ 12.043671092533534, 48.437230666658316 ], [ 12.045698552925506, 48.43787224174595 ], [ 12.047773846187644, 48.438442534196199 ], [ 12.049891284085373, 48.438939983301623 ], [ 12.052045062868599, 48.439363227746568 ], [ 12.054229279179379, 48.439711109314842 ], [ 12.056437946232631, 48.43998267604389 ], [ 12.058665010225486, 48.44017718481691 ], [ 12.060904366930339, 48.4402941033863 ], [ 12.063149878426119, 48.440333111822753 ], [ 12.0653953899219, 48.4402941033863 ], [ 12.067634746626752, 48.44017718481691 ], [ 12.069861810619607, 48.43998267604389 ], [ 12.07207047767286, 48.439711109314842 ], [ 12.07425469398364, 48.439363227746568 ], [ 12.076408472766866, 48.438939983301623 ], [ 12.078525910664595, 48.438442534196199 ], [ 12.080601203926733, 48.43787224174595 ], [ 12.082628664318703, 48.437230666658316 ], [ 12.084602734712494, 48.436519564781364 ], [ 12.086518004318371, 48.435740882320275 ], [ 12.08836922351548, 48.43489675053447 ], [ 12.090151318240673, 48.43398947992938 ], [ 12.09185940389618, 48.433021553958667 ], [ 12.093488798737951, 48.431995622253439 ], [ 12.095035036707978, 48.430914493396997 ], [ 12.096493879675464, 48.429781127264135 ], [ 12.09786132905324, 48.428598626945885 ], [ 12.09913363675761, 48.427370230281255 ], [ 12.100307315481594, 48.426099301018809 ], [ 12.101379148253388, 48.424789319631977 ], [ 12.102346197253873, 48.423443873812765 ], [ 12.103205811868953, 48.422066648669642 ], [ 12.103955635954717, 48.420661416656138 ], [ 12.104593614295471, 48.419232027257372 ], [ 12.105117998236928, 48.41778239646252 ], [ 12.105527350479148, 48.416316496051827 ], [ 12.105820549016094, 48.414838342727307 ], [ 12.105996790210956, 48.413351987116712 ], [ 12.106055590998867, 48.411861502680757 ] ] ] } },
{ "type": "Feature", "properties": { "name": "Kirchberg", "feature_type": "mrr", "metric_roundness": 52.5, "metric_rectangularity": 68.41, "metric_mobile_fit": 25.33, "metric_aspect_ratio": 1.309, "metric_area_km2": 37.61 }, "geometry": { "type": "Polygon", "coordinates": [ [ [ 12.019640281733954, 48.416061557859585 ], [ 12.096574860203576, 48.432868333882631 ], [ 12.113703670896056, 48.398333148288735 ], [ 12.036769092426434, 48.381514953549804 ], [ 12.019640281733954, 48.416061557859585 ] ] ] } }
]
}
