{
"type": "FeatureCollection",
"name": "fensterbach",
"crs": { "type": "name", "properties": { "name": "urn:ogc:def:crs:OGC:1.3:CRS84" } },
"features": [
{ "type": "Feature", "properties": { "name": "Fensterbach", "metric_roundness": 32.17, "metric_rectangularity": 57.04, "metric_mobile_fit": 5.31, "metric_aspect_ratio": 1.509, "metric_area_km2": 62.25 }, "geometry": { "type": "Polygon", "coordinates": [ [ [ 12.0886271, 49.404433099999984 ], [ 12.0810034, 49.409444399999984 ], [ 12.058644, 49.4120792 ], [ 12.0478303, 49.4204168 ], [ 12.0357849, 49.4241825 ], [ 12.032832, 49.429714 ], [ 12.0196214, 49.433347 ], [ 12.0085907, 49.431379299999989 ], [ 11.9854233, 49.4332193 ], [ 11.9819336, 49.4308477 ], [ 11.9879067, 49.426793399999987 ], [ 11.97713, 49.42218 ], [ 12.0046045, 49.4067276 ], [ 12.0009997, 49.3975728 ], [ 12.0041524, 49.3927691 ], [ 12.0222371, 49.3962648 ], [ 12.0471785, 49.3934863 ], [ 12.0567796, 49.389639 ], [ 12.051227, 49.385617099999969 ], [ 12.0519862, 49.380751699999983 ], [ 12.063937, 49.380132499999988 ], [ 12.0732075, 49.382425 ], [ 12.1005707, 49.3812258 ], [ 12.0941693, 49.392442 ], [ 12.094882, 49.403965499999984 ], [ 12.0886271, 49.404433099999984 ] ] ] } }
]
}
