{
"type": "FeatureCollection",
"name": "jevisovka",
"crs": { "type": "name", "properties": { "name": "urn:ogc:def:crs:OGC:1.3:CRS84" } },
"features": [
{ "type": "Feature", "properties": { "name": "Jevišovka", "feature_type": "entity", "metric_roundness": 37.63, "metric_rectangularity": 56.11, "metric_mobile_fit": 95.35, "metric_aspect_ratio": 0.609, "metric_area_km2": 30.02 }, "geometry": { "type": "Polygon", "coordinates": [ [ [ 16.4239635, 48.851284 ], [ 16.4229297, 48.8481858 ], [ 16.4321832, 48.8350204 ], [ 16.4290539, 48.8211805 ], [ 16.4473532, 48.8176133 ], [ 16.461596, 48.81142 ], [ 16.468926, 48.8163175 ], [ 16.4758755, 48.829226 ], [ 16.4693342, 48.836007699999989 ], [ 16.4690861, 48.8403428 ], [ 16.4507756, 48.8446867 ], [ 16.4472592, 48.851696199999985 ], [ 16.4507868, 48.8629372 ], [ 16.436274, 48.868644 ], [ 16.4239635, 48.851284 ] ] ] } },
{ "type": "Feature", "properties": { "name": "Jevišovka", "feature_type": "circle", "metric_roundness": 37.63, "metric_rectangularity": 56.11, "metric_mobile_fit": 95.35, "metric_aspect_ratio": 0.609, "metric_area_km2": 30.02 }, "geometry": { "type": "Polygon", "coordinates": [ [ [ 16.494213665154849, 48.840040172084962 ], [ 16.494151612317896, 48.838480496314027 ], [ 16.493965623889547, 48.836925047140291 ], [ 16.493656209651157, 48.835378088537766 ], [ 16.493224217685647, 48.833843861598638 ], [ 16.492670832052962, 48.832326572897998 ], [ 16.491997569544665, 48.830830382948882 ], [ 16.491206275526491, 48.829359394779679 ], [ 16.490299118880333, 48.827917642665298 ], [ 16.489278586059509, 48.826509081043184 ], [ 16.48814747427355, 48.825137573644945 ], [ 16.486908883821229, 48.82380688287374 ], [ 16.485566209592886, 48.822520659456707 ], [ 16.484123131765251, 48.821282432401418 ], [ 16.48258360571435, 48.820095599284052 ], [ 16.480951851174069, 48.818963416896629 ], [ 16.479232340670183, 48.817888992279023 ], [ 16.47742978726146, 48.816875274161127 ], [ 16.475549131621509, 48.81592504483887 ], [ 16.473595528496705, 48.815040912506902 ], [ 16.471574332577426, 48.814225304069318 ], [ 16.469491083821186, 48.813480458448687 ], [ 16.467351492268033, 48.812808420412189 ], [ 16.465161422389691, 48.812211034931927 ], [ 16.462926877015459, 48.811689942095541 ], [ 16.460653980878895, 48.811246572581339 ], [ 16.458348963830314, 48.810882143710586 ], [ 16.456018143761234, 48.810597656088163 ], [ 16.453667909287446, 48.810393890841048 ], [ 16.451304702238282, 48.810271407462274 ], [ 16.448935, 48.810230542266623 ], [ 16.446565297761712, 48.810271407462274 ], [ 16.444202090712551, 48.810393890841048 ], [ 16.441851856238763, 48.810597656088163 ], [ 16.43952103616968, 48.810882143710586 ], [ 16.437216019121102, 48.811246572581339 ], [ 16.434943122984535, 48.811689942095541 ], [ 16.432708577610306, 48.812211034931927 ], [ 16.430518507731961, 48.812808420412189 ], [ 16.428378916178808, 48.813480458448687 ], [ 16.426295667422572, 48.814225304069318 ], [ 16.424274471503292, 48.815040912506902 ], [ 16.422320868378485, 48.81592504483887 ], [ 16.420440212738534, 48.816875274161127 ], [ 16.418637659329814, 48.817888992279023 ], [ 16.416918148825928, 48.818963416896629 ], [ 16.415286394285648, 48.820095599284052 ], [ 16.413746868234746, 48.821282432401418 ], [ 16.412303790407108, 48.822520659456707 ], [ 16.410961116178768, 48.82380688287374 ], [ 16.409722525726448, 48.825137573644945 ], [ 16.408591413940485, 48.826509081043184 ], [ 16.407570881119664, 48.827917642665298 ], [ 16.406663724473507, 48.829359394779679 ], [ 16.405872430455329, 48.830830382948882 ], [ 16.405199167947032, 48.832326572897998 ], [ 16.404645782314351, 48.833843861598638 ], [ 16.404213790348841, 48.835378088537766 ], [ 16.40390437611045, 48.836925047140291 ], [ 16.403718387682098, 48.838480496314027 ], [ 16.403656334845145, 48.840040172084962 ], [ 16.403718387682098, 48.841599799291096 ], [ 16.40390437611045, 48.843155103302522 ], [ 16.404213790348841, 48.844701821735647 ], [ 16.404645782314351, 48.846235716129627 ], [ 16.405199167947032, 48.847752583552833 ], [ 16.405872430455329, 48.849248268107807 ], [ 16.406663724473507, 48.850718672303366 ], [ 16.407570881119664, 48.852159768262759 ], [ 16.408591413940485, 48.853567608737499 ], [ 16.409722525726448, 48.854938337897025 ], [ 16.410961116178768, 48.856268201864729 ], [ 16.412303790407108, 48.857553558972086 ], [ 16.413746868234746, 48.858790889703023 ], [ 16.415286394285648, 48.85997680630166 ], [ 16.416918148825928, 48.861108062017564 ], [ 16.418637659329814, 48.862181559963659 ], [ 16.420440212738534, 48.863194361562861 ], [ 16.422320868378485, 48.864143694560788 ], [ 16.424274471503292, 48.865026960583144 ], [ 16.426295667422572, 48.865841742217285 ], [ 16.428378916178808, 48.866585809599272 ], [ 16.430518507731961, 48.867257126488475 ], [ 16.432708577610306, 48.86785385581382 ], [ 16.434943122984535, 48.868374364676654 ], [ 16.437216019121102, 48.868817228796779 ], [ 16.43952103616968, 48.869181236390155 ], [ 16.441851856238763, 48.869465391467486 ], [ 16.444202090712551, 48.869668916545237 ], [ 16.446565297761712, 48.869791254761722 ], [ 16.448935, 48.86983207139258 ], [ 16.451304702238282, 48.869791254761722 ], [ 16.453667909287446, 48.869668916545237 ], [ 16.456018143761234, 48.869465391467486 ], [ 16.458348963830314, 48.869181236390155 ], [ 16.460653980878895, 48.868817228796779 ], [ 16.462926877015459, 48.868374364676654 ], [ 16.465161422389691, 48.86785385581382 ], [ 16.467351492268033, 48.867257126488475 ], [ 16.469491083821186, 48.866585809599272 ], [ 16.471574332577426, 48.865841742217285 ], [ 16.473595528496705, 48.865026960583144 ], [ 16.475549131621509, 48.864143694560788 ], [ 16.47742978726146, 48.863194361562861 ], [ 16.479232340670183, 48.862181559963659 ], [ 16.480951851174069, 48.861108062017564 ], [ 16.48258360571435, 48.85997680630166 ], [ 16.484123131765251, 48.858790889703023 ], [ 16.485566209592886, 48.857553558972086 ], [ 16.486908883821229, 48.856268201864729 ], [ 16.48814747427355, 48.854938337897025 ], [ 16.489278586059509, 48.853567608737499 ], [ 16.490299118880333, 48.852159768262759 ], [ 16.491206275526491, 48.850718672303366 ], [ 16.491997569544665, 48.849248268107807 ], [ 16.492670832052962, 48.847752583552833 ], [ 16.493224217685647, 48.846235716129627 ], [ 16.493656209651157, 48.844701821735647 ], [ 16.493965623889547, 48.843155103302522 ], [ 16.494151612317896, 48.841599799291096 ], [ 16.494213665154849, 48.840040172084962 ] ] ] } },
{ "type": "Feature", "properties": { "name": "Jevišovka", "feature_type": "mrr", "metric_roundness": 37.63, "metric_rectangularity": 56.11, "metric_mobile_fit": 95.35, "metric_aspect_ratio": 0.609, "metric_area_km2": 30.02 }, "geometry": { "type": "Polygon", "coordinates": [ [ [ 16.43192764527269, 48.808503458861786 ], [ 16.418680083578579, 48.866916430181853 ], [ 16.466265561733863, 48.871588780276532 ], [ 16.479513123427978, 48.813181260811987 ], [ 16.43192764527269, 48.808503458861786 ] ] ] } }
]
}
