{
"type": "FeatureCollection",
"name": "siddi",
"crs": { "type": "name", "properties": { "name": "urn:ogc:def:crs:OGC:1.3:CRS84" } },
"features": [
{ "type": "Feature", "properties": { "name": "Siddi", "feature_type": "entity", "metric_roundness": 52.22, "metric_rectangularity": 69.16, "metric_mobile_fit": 24.95, "metric_aspect_ratio": 1.313, "metric_area_km2": 19.01 }, "geometry": { "type": "Polygon", "coordinates": [ [ [ 8.9041586, 39.667005 ], [ 8.9093335, 39.6745387 ], [ 8.908328, 39.6783255 ], [ 8.8900381, 39.685692 ], [ 8.8798447, 39.6861808 ], [ 8.876611, 39.6922715 ], [ 8.868732, 39.687418 ], [ 8.8649905, 39.682576 ], [ 8.8619848, 39.6695637 ], [ 8.8496945, 39.664895 ], [ 8.8598506, 39.6642761 ], [ 8.862746, 39.66155 ], [ 8.8834176, 39.6573114 ], [ 8.9027395, 39.6585515 ], [ 8.9041586, 39.667005 ] ] ] } },
{ "type": "Feature", "properties": { "name": "Siddi", "feature_type": "circle", "metric_roundness": 52.22, "metric_rectangularity": 69.16, "metric_mobile_fit": 24.95, "metric_aspect_ratio": 1.313, "metric_area_km2": 19.01 }, "geometry": { "type": "Polygon", "coordinates": [ [ [ 8.909598594230657, 39.671610576381063 ], [ 8.909556675338438, 39.670378390293877 ], [ 8.909431033558553, 39.669149559656205 ], [ 8.90922201326639, 39.667927452877414 ], [ 8.908930187372034, 39.666715420113853 ], [ 8.908556355749983, 39.665516784081376 ], [ 8.908101543046728, 39.664334830941264 ], [ 8.907566995872271, 39.663172801284496 ], [ 8.906954179383266, 39.662033881239189 ], [ 8.906264773267109, 39.660921193725805 ], [ 8.905500667138046, 39.659837789884008 ], [ 8.904663955357865, 39.658786640695105 ], [ 8.903756931295398, 39.657770628822824 ], [ 8.902782081040547, 39.656792540695399 ], [ 8.901742076590107, 39.655855058850484 ], [ 8.900639768523984, 39.654960754564222 ], [ 8.899478178191966, 39.654112080784934 ], [ 8.898260489432413, 39.653311365390884 ], [ 8.896990039845573, 39.652560804790831 ], [ 8.895670311645457, 39.651862457885187 ], [ 8.894304922115328, 39.651218240404454 ], [ 8.89289761369298, 39.650629919640693 ], [ 8.89145224371298, 39.650099109586684 ], [ 8.889972773833975, 39.649627266496239 ], [ 8.888463259180069, 39.649215684877987 ], [ 8.886927837226001, 39.648865493933918 ], [ 8.885370716456618, 39.648577654452389 ], [ 8.883796164831724, 39.648352956164381 ], [ 8.882208498087868, 39.648192015570352 ], [ 8.880612067909242, 39.648095274243659 ], [ 8.87901125, 39.648062997615341 ], [ 8.877410432090754, 39.648095274243659 ], [ 8.875814001912129, 39.648192015570352 ], [ 8.874226335168276, 39.648352956164381 ], [ 8.872651783543379, 39.648577654452389 ], [ 8.871094662773997, 39.648865493933918 ], [ 8.869559240819928, 39.649215684877987 ], [ 8.868049726166022, 39.649627266496239 ], [ 8.866570256287018, 39.650099109586684 ], [ 8.865124886307017, 39.650629919640693 ], [ 8.863717577884669, 39.651218240404454 ], [ 8.862352188354542, 39.651862457885187 ], [ 8.861032460154425, 39.652560804790831 ], [ 8.859762010567584, 39.653311365390884 ], [ 8.858544321808031, 39.654112080784934 ], [ 8.857382731476013, 39.654960754564222 ], [ 8.85628042340989, 39.655855058850484 ], [ 8.85524041895945, 39.656792540695399 ], [ 8.8542655687046, 39.657770628822824 ], [ 8.853358544642131, 39.658786640695105 ], [ 8.852521832861949, 39.659837789884008 ], [ 8.851757726732888, 39.660921193725805 ], [ 8.851068320616731, 39.662033881239189 ], [ 8.850455504127725, 39.663172801284496 ], [ 8.84992095695327, 39.664334830941264 ], [ 8.849466144250014, 39.665516784081376 ], [ 8.849092312627961, 39.666715420113853 ], [ 8.848800486733609, 39.667927452877414 ], [ 8.848591466441444, 39.669149559656205 ], [ 8.84846582466156, 39.670378390293877 ], [ 8.848423905769341, 39.671610576381063 ], [ 8.84846582466156, 39.672842740490886 ], [ 8.848591466441444, 39.674071505437283 ], [ 8.848800486733609, 39.67529350353059 ], [ 8.849092312627961, 39.676505385805271 ], [ 8.849466144250014, 39.677703831194236 ], [ 8.84992095695327, 39.678885555624937 ], [ 8.850455504127725, 39.680047321012196 ], [ 8.851068320616731, 39.681185944123271 ], [ 8.851757726732888, 39.682298305290992 ], [ 8.852521832861949, 39.683381356951188 ], [ 8.853358544642131, 39.68443213198114 ], [ 8.8542655687046, 39.68544775181649 ], [ 8.85524041895945, 39.686425434324221 ], [ 8.85628042340989, 39.68736250141076 ], [ 8.857382731476013, 39.688256386344129 ], [ 8.858544321808031, 39.689104640770516 ], [ 8.859762010567584, 39.689904941406191 ], [ 8.861032460154425, 39.690655096386571 ], [ 8.862352188354542, 39.691353051255291 ], [ 8.863717577884669, 39.691996894577095 ], [ 8.865124886307017, 39.692584863159276 ], [ 8.866570256287018, 39.69311534686765 ], [ 8.868049726166022, 39.693586893023898 ], [ 8.869559240819928, 39.693998210372648 ], [ 8.871094662773997, 39.694348172607341 ], [ 8.872651783543379, 39.694635821445381 ], [ 8.874226335168276, 39.694860369244523 ], [ 8.875814001912129, 39.695021201153089 ], [ 8.877410432090754, 39.695117876788508 ], [ 8.87901125, 39.695150131439469 ], [ 8.880612067909242, 39.695117876788508 ], [ 8.882208498087868, 39.695021201153089 ], [ 8.883796164831724, 39.694860369244523 ], [ 8.885370716456618, 39.694635821445381 ], [ 8.886927837226001, 39.694348172607341 ], [ 8.888463259180069, 39.693998210372648 ], [ 8.889972773833975, 39.693586893023898 ], [ 8.89145224371298, 39.69311534686765 ], [ 8.89289761369298, 39.692584863159276 ], [ 8.894304922115328, 39.691996894577095 ], [ 8.895670311645457, 39.691353051255291 ], [ 8.896990039845573, 39.690655096386571 ], [ 8.898260489432413, 39.689904941406191 ], [ 8.899478178191966, 39.689104640770516 ], [ 8.900639768523984, 39.688256386344129 ], [ 8.901742076590107, 39.68736250141076 ], [ 8.902782081040547, 39.686425434324221 ], [ 8.903756931295398, 39.68544775181649 ], [ 8.904663955357865, 39.68443213198114 ], [ 8.905500667138046, 39.683381356951188 ], [ 8.906264773267109, 39.682298305290992 ], [ 8.906954179383266, 39.681185944123271 ], [ 8.907566995872271, 39.680047321012196 ], [ 8.908101543046728, 39.678885555624937 ], [ 8.908556355749983, 39.677703831194236 ], [ 8.908930187372034, 39.676505385805271 ], [ 8.90922201326639, 39.67529350353059 ], [ 8.909431033558553, 39.674071505437283 ], [ 8.909556675338438, 39.672842740490886 ], [ 8.909598594230657, 39.671610576381063 ] ] ] } },
{ "type": "Feature", "properties": { "name": "Siddi", "feature_type": "mrr", "metric_roundness": 52.22, "metric_rectangularity": 69.16, "metric_mobile_fit": 24.95, "metric_aspect_ratio": 1.313, "metric_area_km2": 19.01 }, "geometry": { "type": "Polygon", "coordinates": [ [ [ 8.871640825566081, 39.694456636038844 ], [ 8.915180217521074, 39.675312202506746 ], [ 8.893233891437209, 39.645742372148966 ], [ 8.8496945, 39.664895 ], [ 8.871640825566081, 39.694456636038844 ] ] ] } }
]
}
