{
"type": "FeatureCollection",
"name": "sierpc",
"crs": { "type": "name", "properties": { "name": "urn:ogc:def:crs:OGC:1.3:CRS84" } },
"features": [
{ "type": "Feature", "properties": { "name": "Sierpc", "feature_type": "entity", "metric_roundness": 46.73, "metric_rectangularity": 58.55, "metric_mobile_fit": 38.56, "metric_aspect_ratio": 1.177, "metric_area_km2": 413.62 }, "geometry": { "type": "Polygon", "coordinates": [ [ [ 19.6510886, 52.898819 ], [ 19.6368059, 52.894684 ], [ 19.6305547, 52.8984552 ], [ 19.5996435, 52.8962486 ], [ 19.5977164, 52.891370599999988 ], [ 19.5854788, 52.8839461 ], [ 19.5823894, 52.8820718 ], [ 19.5778192, 52.883946099999982 ], [ 19.5648126, 52.8892801 ], [ 19.5548597, 52.8889483 ], [ 19.5459717, 52.883946099999982 ], [ 19.5452265, 52.8780164 ], [ 19.5449169, 52.875552 ], [ 19.5354865, 52.8764499 ], [ 19.5182031, 52.8686947 ], [ 19.508759, 52.8678445 ], [ 19.5160375, 52.860172 ], [ 19.5329116, 52.8572156 ], [ 19.5420818, 52.8345153 ], [ 19.551961, 52.8330398 ], [ 19.5507295, 52.830443099999975 ], [ 19.548269, 52.8252549 ], [ 19.5594845, 52.8225259 ], [ 19.565187, 52.8181941 ], [ 19.5851971, 52.816263 ], [ 19.589438, 52.811943899999982 ], [ 19.6002235, 52.809350199999983 ], [ 19.6040382, 52.804568599999982 ], [ 19.6197115, 52.803168599999985 ], [ 19.628294, 52.787315 ], [ 19.6448294, 52.7878534 ], [ 19.6503772, 52.794007899999983 ], [ 19.6594972, 52.7977758 ], [ 19.6701097, 52.7869521 ], [ 19.6806313, 52.784499 ], [ 19.6767475, 52.7716661 ], [ 19.6771969, 52.7666206 ], [ 19.6801917, 52.765103899999986 ], [ 19.6870702, 52.768540799999982 ], [ 19.6969883, 52.768216199999969 ], [ 19.7176092, 52.762949599999985 ], [ 19.7393689, 52.761406299999983 ], [ 19.7548586, 52.7679364 ], [ 19.7623718, 52.7768063 ], [ 19.7689755, 52.7758075 ], [ 19.7741968, 52.78632 ], [ 19.7654111, 52.809286299999982 ], [ 19.7586726, 52.817741699999978 ], [ 19.7678688, 52.830443099999975 ], [ 19.769269, 52.832377 ], [ 19.7670066, 52.8422848 ], [ 19.7810305, 52.847908499999981 ], [ 19.7853387, 52.850775499999976 ], [ 19.7645819, 52.869261799999983 ], [ 19.7517859, 52.8665422 ], [ 19.7232883, 52.8746594 ], [ 19.7216922, 52.8780164 ], [ 19.7207023, 52.880098599999982 ], [ 19.7243331, 52.883946099999982 ], [ 19.7271243, 52.886903799999985 ], [ 19.7184283, 52.890297099999984 ], [ 19.7066855, 52.883946099999982 ], [ 19.6957216, 52.8780164 ], [ 19.6922605, 52.8761445 ], [ 19.7013213, 52.8740926 ], [ 19.7069371, 52.867645099999983 ], [ 19.6959086, 52.8529222 ], [ 19.6986077, 52.8441974 ], [ 19.6847145, 52.834382899999987 ], [ 19.6635325, 52.830716199999976 ], [ 19.646072, 52.8338242 ], [ 19.6232348, 52.857428599999984 ], [ 19.6285587, 52.8666486 ], [ 19.6387666, 52.868898099999988 ], [ 19.6471974, 52.864062199999985 ], [ 19.6541452, 52.8644519 ], [ 19.6608925, 52.865754599999988 ], [ 19.6654549, 52.8731803 ], [ 19.6782937, 52.872318799999988 ], [ 19.691731, 52.875929 ], [ 19.6883141, 52.8780164 ], [ 19.6786078, 52.883946099999982 ], [ 19.6839251, 52.891742499999985 ], [ 19.6831159, 52.894775 ], [ 19.6751011, 52.898387799999981 ], [ 19.666508, 52.898204799999988 ], [ 19.661264, 52.9033862 ], [ 19.654424, 52.902777 ], [ 19.6510886, 52.898819 ] ] ] } },
{ "type": "Feature", "properties": { "name": "Sierpc", "feature_type": "circle", "metric_roundness": 46.73, "metric_rectangularity": 58.55, "metric_mobile_fit": 38.56, "metric_aspect_ratio": 1.177, "metric_area_km2": 413.62 }, "geometry": { "type": "Polygon", "coordinates": [ [ [ 19.791920294115307, 52.824155160596433 ], [ 19.791713599669965, 52.819385242037647 ], [ 19.791094082869034, 52.814627876060406 ], [ 19.790063441765007, 52.809896108678714 ], [ 19.788624501273514, 52.805202919951 ], [ 19.786781205430426, 52.800561188286707 ], [ 19.784538606581506, 52.795983654986635 ], [ 19.781902851534337, 52.791482889115969 ], [ 19.778881164710292, 52.787071252808538 ], [ 19.775481828342908, 52.782760867100073 ], [ 19.771714159776892, 52.778563578387114 ], [ 19.767588485929895, 52.774490925607175 ], [ 19.763116114987159, 52.770554108233711 ], [ 19.75830930540657, 52.766763955178014 ], [ 19.753181232319061, 52.763130894687457 ], [ 19.747745951416537, 52.759664925327222 ], [ 19.74201836042613, 52.756375588130055 ], [ 19.736014158276632, 52.753271939994853 ], [ 19.729749802068788, 52.750362528412381 ], [ 19.723242461967537, 52.747655367591946 ], [ 19.716509974139772, 52.745157916059604 ], [ 19.70957079186666, 52.742877055793983 ], [ 19.702443934964474, 52.740819072961486 ], [ 19.695148937652611, 52.738989640308191 ], [ 19.68770579501162, 52.737393801260787 ], [ 19.680134908178122, 52.736035955783976 ], [ 19.672457028426678, 52.734919848036661 ], [ 19.664693200292003, 52.734048555863787 ], [ 19.656864703887361, 52.733424482155399 ], [ 19.648992996577245, 52.733049348098874 ], [ 19.641099654164229, 52.732924188344455 ], [ 19.633206311751216, 52.733049348098874 ], [ 19.6253346044411, 52.733424482155399 ], [ 19.617506108036459, 52.734048555863787 ], [ 19.609742279901784, 52.734919848036661 ], [ 19.60206440015034, 52.736035955783976 ], [ 19.594493513316841, 52.737393801260787 ], [ 19.587050370675851, 52.738989640308191 ], [ 19.579755373363984, 52.740819072961486 ], [ 19.572628516461805, 52.742877055793983 ], [ 19.56568933418869, 52.745157916059604 ], [ 19.558956846360925, 52.747655367591946 ], [ 19.55244950625967, 52.750362528412381 ], [ 19.546185150051826, 52.753271939994853 ], [ 19.540180947902332, 52.756375588130055 ], [ 19.534453356911925, 52.759664925327222 ], [ 19.5290180760094, 52.763130894687457 ], [ 19.523890002921892, 52.766763955178014 ], [ 19.519083193341302, 52.770554108233711 ], [ 19.514610822398566, 52.774490925607175 ], [ 19.51048514855157, 52.778563578387114 ], [ 19.50671747998555, 52.782760867100073 ], [ 19.50331814361817, 52.787071252808538 ], [ 19.500296456794121, 52.791482889115969 ], [ 19.497660701746952, 52.795983654986635 ], [ 19.495418102898036, 52.800561188286707 ], [ 19.493574807054944, 52.805202919951 ], [ 19.492135866563451, 52.809896108678714 ], [ 19.491105225459425, 52.814627876060406 ], [ 19.490485708658497, 52.819385242037647 ], [ 19.490279014213151, 52.824155160596433 ], [ 19.490485708658497, 52.828924555595229 ], [ 19.491105225459425, 52.833680356628754 ], [ 19.492135866563451, 52.838409534828919 ], [ 19.493574807054944, 52.843099138504918 ], [ 19.495418102898036, 52.847736328525997 ], [ 19.497660701746952, 52.852308413350627 ], [ 19.500296456794121, 52.85680288360836 ], [ 19.50331814361817, 52.861207446141513 ], [ 19.50671747998555, 52.865510057416259 ], [ 19.51048514855157, 52.869698956214464 ], [ 19.514610822398566, 52.873762695520391 ], [ 19.519083193341302, 52.877690173518552 ], [ 19.523890002921892, 52.881470663621869 ], [ 19.5290180760094, 52.885093843452388 ], [ 19.534453356911925, 52.888549822699503 ], [ 19.540180947902332, 52.891829169784295 ], [ 19.546185150051826, 52.894922937261562 ], [ 19.55244950625967, 52.8978226858951 ], [ 19.558956846360925, 52.900520507344822 ], [ 19.56568933418869, 52.903009045408709 ], [ 19.572628516461805, 52.90528151576585 ], [ 19.579755373363984, 52.907331724171343 ], [ 19.587050370675851, 52.909154083057238 ], [ 19.594493513316841, 52.91074362649843 ], [ 19.60206440015034, 52.912096023506066 ], [ 19.609742279901784, 52.913207589615716 ], [ 19.617506108036459, 52.914075296741494 ], [ 19.6253346044411, 52.914696781271772 ], [ 19.633206311751216, 52.915070350386713 ], [ 19.641099654164229, 52.915194986581852 ], [ 19.648992996577245, 52.915070350386713 ], [ 19.656864703887361, 52.914696781271772 ], [ 19.664693200292003, 52.914075296741494 ], [ 19.672457028426678, 52.913207589615716 ], [ 19.680134908178122, 52.912096023506066 ], [ 19.68770579501162, 52.91074362649843 ], [ 19.695148937652611, 52.909154083057238 ], [ 19.702443934964474, 52.907331724171343 ], [ 19.70957079186666, 52.90528151576585 ], [ 19.716509974139772, 52.903009045408709 ], [ 19.723242461967537, 52.900520507344822 ], [ 19.729749802068788, 52.8978226858951 ], [ 19.736014158276632, 52.894922937261562 ], [ 19.74201836042613, 52.891829169784295 ], [ 19.747745951416537, 52.888549822699503 ], [ 19.753181232319061, 52.885093843452388 ], [ 19.75830930540657, 52.881470663621869 ], [ 19.763116114987159, 52.877690173518552 ], [ 19.767588485929895, 52.873762695520391 ], [ 19.771714159776892, 52.869698956214464 ], [ 19.775481828342908, 52.865510057416259 ], [ 19.778881164710292, 52.861207446141513 ], [ 19.781902851534337, 52.85680288360836 ], [ 19.784538606581506, 52.852308413350627 ], [ 19.786781205430426, 52.847736328525997 ], [ 19.788624501273514, 52.843099138504918 ], [ 19.790063441765007, 52.838409534828919 ], [ 19.791094082869034, 52.833680356628754 ], [ 19.791713599669965, 52.828924555595229 ], [ 19.791920294115307, 52.824155160596433 ] ] ] } },
{ "type": "Feature", "properties": { "name": "Sierpc", "feature_type": "mrr", "metric_roundness": 46.73, "metric_rectangularity": 58.55, "metric_mobile_fit": 38.56, "metric_aspect_ratio": 1.177, "metric_area_km2": 413.62 }, "geometry": { "type": "Polygon", "coordinates": [ [ [ 19.724637480041348, 52.741594579193972 ], [ 19.489562725006426, 52.853066541270906 ], [ 19.607325606697486, 52.943645220879084 ], [ 19.842400361732402, 52.832405842675229 ], [ 19.724637480041348, 52.741594579193972 ] ] ] } }
]
}
