{
"type": "FeatureCollection",
"name": "silistea_crucii",
"crs": { "type": "name", "properties": { "name": "urn:ogc:def:crs:OGC:1.3:CRS84" } },
"features": [
{ "type": "Feature", "properties": { "name": "Siliştea Crucii", "metric_roundness": 38.01, "metric_rectangularity": 59.12, "metric_mobile_fit": -8.2, "metric_aspect_ratio": 1.644, "metric_area_km2": 67.31 }, "geometry": { "type": "Polygon", "coordinates": [ [ [ 23.4725322, 44.0745029 ], [ 23.4657493, 44.0665304 ], [ 23.4481787, 44.0654349 ], [ 23.447065, 44.053641899999981 ], [ 23.4410029, 44.056345399999984 ], [ 23.4350064, 44.0498332 ], [ 23.417084, 44.0495035 ], [ 23.4177185, 44.0331608 ], [ 23.4439685, 44.032230699999985 ], [ 23.453192, 44.0289159 ], [ 23.4548625, 44.0236855 ], [ 23.4629902, 44.0270437 ], [ 23.4810475, 44.0207531 ], [ 23.4976695, 44.0317905 ], [ 23.5091962, 44.032858 ], [ 23.510696, 44.0558009 ], [ 23.5400605, 44.05579 ], [ 23.5399205, 44.0592015 ], [ 23.539993, 44.074159 ], [ 23.5241855, 44.074324 ], [ 23.4725322, 44.0745029 ] ] ] } }
]
}
