{
"type": "FeatureCollection",
"name": "silly_la_poterie",
"crs": { "type": "name", "properties": { "name": "urn:ogc:def:crs:OGC:1.3:CRS84" } },
"features": [
{ "type": "Feature", "properties": { "name": "Silly-la-Poterie", "metric_roundness": 48.38, "metric_rectangularity": 57.81, "metric_mobile_fit": 46.26, "metric_aspect_ratio": 1.1, "metric_area_km2": 5.44 }, "geometry": { "type": "Polygon", "coordinates": [ [ [ 3.16139, 49.2017935 ], [ 3.1615871, 49.1972527 ], [ 3.1537967, 49.1973893 ], [ 3.1510078, 49.1989349 ], [ 3.1513496, 49.203613399999988 ], [ 3.1457422, 49.20624609999998 ], [ 3.1394755, 49.20333 ], [ 3.1403449, 49.1963091 ], [ 3.135562, 49.196002 ], [ 3.1371268, 49.190737 ], [ 3.1436948, 49.1874056 ], [ 3.1544872, 49.1909723 ], [ 3.1554669, 49.19385 ], [ 3.163153, 49.193646 ], [ 3.167273, 49.200989 ], [ 3.16139, 49.2017935 ] ] ] } }
]
}
