{
"type": "FeatureCollection",
"name": "sils_im_domleschg",
"crs": { "type": "name", "properties": { "name": "urn:ogc:def:crs:OGC:1.3:CRS84" } },
"features": [
{ "type": "Feature", "properties": { "name": "Sils im Domleschg", "metric_roundness": 44.89, "metric_rectangularity": 54.51, "metric_mobile_fit": 62.87, "metric_aspect_ratio": 0.934, "metric_area_km2": 19.78 }, "geometry": { "type": "Polygon", "coordinates": [ [ [ 9.4661394, 46.6762927 ], [ 9.4659098, 46.6800505 ], [ 9.500916, 46.68972549999998 ], [ 9.4999335, 46.6913815 ], [ 9.496063, 46.693107 ], [ 9.4739331, 46.698756899999985 ], [ 9.4710363, 46.7030813 ], [ 9.451357, 46.710822 ], [ 9.4501575, 46.711986 ], [ 9.4435621, 46.6929245 ], [ 9.453494, 46.679074 ], [ 9.4508935, 46.672803 ], [ 9.4759475, 46.669856 ], [ 9.4661394, 46.6762927 ] ] ] } }
]
}
