{
"type": "FeatureCollection",
"name": "sisante",
"crs": { "type": "name", "properties": { "name": "urn:ogc:def:crs:OGC:1.3:CRS84" } },
"features": [
{ "type": "Feature", "properties": { "name": "Sisante", "metric_roundness": 34.01, "metric_rectangularity": 59.7, "metric_mobile_fit": 73.18, "metric_aspect_ratio": 0.831, "metric_area_km2": 225.52 }, "geometry": { "type": "Polygon", "coordinates": [ [ [ -2.0739439, 39.3202991 ], [ -2.0791526, 39.3318272 ], [ -2.0871263, 39.3389367 ], [ -2.0874202, 39.347048099999988 ], [ -2.096247, 39.35894 ], [ -2.1007115, 39.3619505 ], [ -2.1043025, 39.3652115 ], [ -2.106688, 39.3692855 ], [ -2.1059265, 39.3735315 ], [ -2.107258, 39.3783525 ], [ -2.104673, 39.384418499999988 ], [ -2.1020085, 39.384018 ], [ -2.0924284, 39.3904212 ], [ -2.094301, 39.393777 ], [ -2.0921839, 39.400346 ], [ -2.0951799, 39.404042099999984 ], [ -2.1178062, 39.4115239 ], [ -2.1184176, 39.4245819 ], [ -2.1322163, 39.4455119 ], [ -2.1491055, 39.451706 ], [ -2.1635357, 39.4612939 ], [ -2.1799162, 39.461389 ], [ -2.223304, 39.474808 ], [ -2.2355412, 39.4666275 ], [ -2.2406076, 39.4572563 ], [ -2.2443023, 39.4295482 ], [ -2.253592, 39.408467699999989 ], [ -2.2469168, 39.3914267 ], [ -2.233714, 39.382472499999984 ], [ -2.227412, 39.384018 ], [ -2.1939624, 39.3739822 ], [ -2.1850778, 39.3581853 ], [ -2.1769045, 39.356079 ], [ -2.15424, 39.3596765 ], [ -2.1393404, 39.3668527 ], [ -2.1265643, 39.3630402 ], [ -2.1149702, 39.3227229 ], [ -2.0922575, 39.3100545 ], [ -2.0770135, 39.307675 ], [ -2.0739439, 39.3202991 ] ] ] } }
]
}
