{
"type": "FeatureCollection",
"name": "bundorfer_forst",
"crs": { "type": "name", "properties": { "name": "urn:ogc:def:crs:OGC:1.3:CRS84" } },
"features": [
{ "type": "Feature", "properties": { "name": "Bundorfer Forst", "feature_type": "entity", "metric_roundness": 45.94, "metric_rectangularity": 58.29, "metric_mobile_fit": 48.48, "metric_aspect_ratio": 1.078, "metric_area_km2": 44.13 }, "geometry": { "type": "Polygon", "coordinates": [ [ [ 10.4415248, 50.2034002 ], [ 10.4505334, 50.196711399999984 ], [ 10.4518395, 50.2010855 ], [ 10.4972133, 50.2124801 ], [ 10.5041415, 50.225575499999984 ], [ 10.5131617, 50.2293215 ], [ 10.5158471, 50.2355702 ], [ 10.522907, 50.234623 ], [ 10.5225627, 50.2400998 ], [ 10.5161815, 50.242025 ], [ 10.5080973, 50.240370399999975 ], [ 10.5030661, 50.234326 ], [ 10.4989306, 50.233531199999973 ], [ 10.4859335, 50.2404003 ], [ 10.4861691, 50.2453836 ], [ 10.4643767, 50.249716499999984 ], [ 10.4628434, 50.246708399999989 ], [ 10.4688304, 50.240324 ], [ 10.4654785, 50.2361872 ], [ 10.4544744, 50.2391802 ], [ 10.441116, 50.231551 ], [ 10.4416033, 50.229135599999985 ], [ 10.4336265, 50.221164 ], [ 10.4415248, 50.2034002 ] ], [ [ 10.4892036, 50.22827479999998 ], [ 10.4921245, 50.224889499999989 ], [ 10.4876867, 50.2237343 ], [ 10.4839318, 50.226965899999989 ], [ 10.4892036, 50.22827479999998 ] ], [ [ 10.477635, 50.2153856 ], [ 10.4804098, 50.2122926 ], [ 10.4764661, 50.210810099999982 ], [ 10.471975, 50.2137945 ], [ 10.477635, 50.2153856 ] ], [ [ 10.469938, 50.233959399999989 ], [ 10.4718258, 50.2305673 ], [ 10.4688665, 50.228002199999985 ], [ 10.4651601, 50.2311638 ], [ 10.469938, 50.233959399999989 ] ] ] } },
{ "type": "Feature", "properties": { "name": "Bundorfer Forst", "feature_type": "circle", "metric_roundness": 45.94, "metric_rectangularity": 58.29, "metric_mobile_fit": 48.48, "metric_aspect_ratio": 1.078, "metric_area_km2": 44.13 }, "geometry": { "type": "Polygon", "coordinates": [ [ [ 10.532988477274579, 50.220618745203261 ], [ 10.532920379724297, 50.218954804069014 ], [ 10.532716273724104, 50.217295365880119 ], [ 10.532376718714357, 50.215644979753307 ], [ 10.531902645391737, 50.214008170460666 ], [ 10.531295353158267, 50.212389426014624 ], [ 10.530556506559751, 50.210793185348791 ], [ 10.529688130723356, 50.209223826128422 ], [ 10.528692605806889, 50.207685652724507 ], [ 10.527572660474947, 50.206182884384233 ], [ 10.526331364419841, 50.204719643631144 ], [ 10.524972119947776, 50.20329994492679 ], [ 10.523498652653371, 50.201927683625442 ], [ 10.521915001208058, 50.200606625252824 ], [ 10.520225506290371, 50.199340395138414 ], [ 10.518434798688444, 50.198132468430458 ], [ 10.516547786607346, 50.196986160521547 ], [ 10.514569642216021, 50.195904617911481 ], [ 10.512505787470753, 50.194890809533099 ], [ 10.510361879253937, 50.193947518565352 ], [ 10.508143793868978, 50.193077334756524 ], [ 10.505857610933736, 50.192282647279349 ], [ 10.503509596716727, 50.191565638137973 ], [ 10.501106186961714, 50.190928276145328 ], [ 10.498653969247769, 50.19037231148797 ], [ 10.496159664933201, 50.189899270893655 ], [ 10.493630110732758, 50.18951045341521 ], [ 10.491072239978674, 50.189206926842779 ], [ 10.488493063616895, 50.18898952475439 ], [ 10.485899650990547, 50.188858844213279 ], [ 10.483299110463376, 50.188815244118487 ], [ 10.480698569936207, 50.188858844213279 ], [ 10.47810515730986, 50.18898952475439 ], [ 10.475525980948078, 50.189206926842779 ], [ 10.472968110193996, 50.18951045341521 ], [ 10.470438555993551, 50.189899270893655 ], [ 10.467944251678984, 50.19037231148797 ], [ 10.46549203396504, 50.190928276145328 ], [ 10.463088624210025, 50.191565638137973 ], [ 10.460740609993016, 50.192282647279349 ], [ 10.458454427057776, 50.193077334756524 ], [ 10.456236341672815, 50.193947518565352 ], [ 10.454092433456001, 50.194890809533099 ], [ 10.452028578710733, 50.195904617911481 ], [ 10.45005043431941, 50.196986160521547 ], [ 10.448163422238309, 50.198132468430458 ], [ 10.446372714636382, 50.199340395138414 ], [ 10.444683219718696, 50.200606625252824 ], [ 10.443099568273382, 50.201927683625442 ], [ 10.441626100978977, 50.20329994492679 ], [ 10.440266856506911, 50.204719643631144 ], [ 10.439025560451805, 50.206182884384233 ], [ 10.437905615119865, 50.207685652724507 ], [ 10.436910090203398, 50.209223826128422 ], [ 10.436041714367002, 50.210793185348791 ], [ 10.435302867768485, 50.212389426014624 ], [ 10.434695575535017, 50.214008170460666 ], [ 10.434221502212395, 50.215644979753307 ], [ 10.43388194720265, 50.217295365880119 ], [ 10.433677841202455, 50.218954804069014 ], [ 10.433609743652175, 50.220618745203261 ], [ 10.433677841202455, 50.222282628298096 ], [ 10.43388194720265, 50.223941893004614 ], [ 10.434221502212395, 50.225591992106814 ], [ 10.434695575535017, 50.227228403977321 ], [ 10.435302867768485, 50.228846644957926 ], [ 10.436041714367002, 50.230442281631113 ], [ 10.436910090203398, 50.23201094294906 ], [ 10.437905615119865, 50.233548332187198 ], [ 10.439025560451805, 50.235050238689794 ], [ 10.440266856506911, 50.23651254937576 ], [ 10.441626100978977, 50.237931259973614 ], [ 10.443099568273382, 50.239302485954937 ], [ 10.444683219718696, 50.240622473137215 ], [ 10.446372714636382, 50.241887607927147 ], [ 10.448163422238309, 50.243094427177098 ], [ 10.45005043431941, 50.244239627628012 ], [ 10.452028578710733, 50.245320074913643 ], [ 10.454092433456001, 50.246332812101727 ], [ 10.456236341672815, 50.24727506774952 ], [ 10.458454427057776, 50.24814426345192 ], [ 10.460740609993016, 50.248938020862084 ], [ 10.463088624210025, 50.249654168165875 ], [ 10.46549203396504, 50.250290745992835 ], [ 10.467944251678984, 50.250846012747878 ], [ 10.470438555993551, 50.25131844934964 ], [ 10.472968110193996, 50.251706763362719 ], [ 10.475525980948078, 50.252009892513087 ], [ 10.47810515730986, 50.25222700757692 ], [ 10.480698569936207, 50.25235751463569 ], [ 10.483299110463376, 50.252401056691085 ], [ 10.485899650990547, 50.25235751463569 ], [ 10.488493063616895, 50.25222700757692 ], [ 10.491072239978674, 50.252009892513087 ], [ 10.493630110732758, 50.251706763362719 ], [ 10.496159664933201, 50.25131844934964 ], [ 10.498653969247769, 50.250846012747878 ], [ 10.501106186961714, 50.250290745992835 ], [ 10.503509596716727, 50.249654168165875 ], [ 10.505857610933734, 50.248938020862084 ], [ 10.508143793868978, 50.24814426345192 ], [ 10.510361879253937, 50.24727506774952 ], [ 10.512505787470753, 50.246332812101727 ], [ 10.514569642216021, 50.245320074913643 ], [ 10.516547786607346, 50.244239627628012 ], [ 10.518434798688444, 50.243094427177098 ], [ 10.520225506290371, 50.241887607927147 ], [ 10.521915001208058, 50.240622473137215 ], [ 10.523498652653371, 50.239302485954937 ], [ 10.524972119947776, 50.237931259973614 ], [ 10.526331364419841, 50.23651254937576 ], [ 10.527572660474947, 50.235050238689794 ], [ 10.528692605806889, 50.233548332187198 ], [ 10.529688130723356, 50.23201094294906 ], [ 10.530556506559751, 50.230442281631113 ], [ 10.531295353158267, 50.228846644957926 ], [ 10.531902645391737, 50.227228403977321 ], [ 10.532376718714357, 50.225591992106814 ], [ 10.532716273724104, 50.223941893004614 ], [ 10.532920379724297, 50.222282628298096 ], [ 10.532988477274579, 50.220618745203261 ] ] ] } },
{ "type": "Feature", "properties": { "name": "Bundorfer Forst", "feature_type": "mrr", "metric_roundness": 45.94, "metric_rectangularity": 58.29, "metric_mobile_fit": 48.48, "metric_aspect_ratio": 1.078, "metric_area_km2": 44.13 }, "geometry": { "type": "Polygon", "coordinates": [ [ [ 10.418208790804215, 50.213654794233982 ], [ 10.480363784935943, 50.262197639579149 ], [ 10.528552242275572, 50.236962492169987 ], [ 10.466397248143842, 50.188393942766787 ], [ 10.418208790804215, 50.213654794233982 ] ] ] } }
]
}
