{
"type": "FeatureCollection",
"name": "bunde",
"crs": { "type": "name", "properties": { "name": "urn:ogc:def:crs:OGC:1.3:CRS84" } },
"features": [
{ "type": "Feature", "properties": { "name": "Bunde", "metric_roundness": 33.79, "metric_rectangularity": 71.04, "metric_mobile_fit": 89.78, "metric_aspect_ratio": 0.46, "metric_area_km2": 283.37 }, "geometry": { "type": "Polygon", "coordinates": [ [ [ 7.3101677, 53.241854 ], [ 7.295947, 53.24707 ], [ 7.3051657, 53.2566816 ], [ 7.3005295, 53.2616763 ], [ 7.284886, 53.264813299999986 ], [ 7.285687, 53.277542299999986 ], [ 7.2582857, 53.2835464 ], [ 7.2476912, 53.280166799999989 ], [ 7.2403848, 53.2822246 ], [ 7.236577, 53.287985 ], [ 7.2359172, 53.274834399999989 ], [ 7.2265231, 53.2568297 ], [ 7.2193458, 53.2489193 ], [ 7.208935, 53.243064499999974 ], [ 7.2160224, 53.2098571 ], [ 7.217275, 53.203988299999985 ], [ 7.2101374, 53.1889173 ], [ 7.221608, 53.1806133 ], [ 7.2027189, 53.174700599999987 ], [ 7.1922897, 53.163273599999989 ], [ 7.1891805, 53.154936 ], [ 7.1879331, 53.146915399999983 ], [ 7.1795785, 53.1377591 ], [ 7.1807614, 53.129314199999982 ], [ 7.1848199, 53.121015 ], [ 7.2027945, 53.1132815 ], [ 7.2093425, 53.113884 ], [ 7.245216, 53.1175395 ], [ 7.2570744, 53.1198172 ], [ 7.2694897, 53.1403208 ], [ 7.2782229, 53.141925799999989 ], [ 7.276463, 53.1469154 ], [ 7.275596, 53.1493733 ], [ 7.2825147, 53.1668042 ], [ 7.2803548, 53.1728363 ], [ 7.2937697, 53.183571899999983 ], [ 7.3010198, 53.197702 ], [ 7.3076665, 53.2006219 ], [ 7.3066043, 53.205959499999985 ], [ 7.3085925, 53.2098571 ], [ 7.3138395, 53.220143499999985 ], [ 7.3101677, 53.241854 ] ] ] } }
]
}
