{
"type": "FeatureCollection",
"name": "busserolles",
"crs": { "type": "name", "properties": { "name": "urn:ogc:def:crs:OGC:1.3:CRS84" } },
"features": [
{ "type": "Feature", "properties": { "name": "Busserolles", "feature_type": "entity", "metric_roundness": 53.5, "metric_rectangularity": 65.54, "metric_mobile_fit": 64.54, "metric_aspect_ratio": 0.917, "metric_area_km2": 69.64 }, "geometry": { "type": "Polygon", "coordinates": [ [ [ 0.6820095, 45.659471499999988 ], [ 0.6916385, 45.665076299999988 ], [ 0.6980711, 45.6766 ], [ 0.6812975, 45.687447 ], [ 0.6553357, 45.6894887 ], [ 0.650886, 45.698544 ], [ 0.6399401, 45.6987156 ], [ 0.629741, 45.71457 ], [ 0.6269442, 45.7134168 ], [ 0.6279983, 45.708348799999982 ], [ 0.6217152, 45.699882699999989 ], [ 0.6149862, 45.698242799999989 ], [ 0.6110501, 45.6924555 ], [ 0.6050105, 45.694213 ], [ 0.6020488, 45.680125299999986 ], [ 0.5940446, 45.6754086 ], [ 0.6003905, 45.6717345 ], [ 0.626369, 45.664168 ], [ 0.6298775, 45.6494542 ], [ 0.628219, 45.635313 ], [ 0.6303255, 45.63566 ], [ 0.6331595, 45.637322 ], [ 0.6469425, 45.637576 ], [ 0.652618, 45.638651499999987 ], [ 0.6561785, 45.6375805 ], [ 0.6628475, 45.639705 ], [ 0.6648915, 45.64212 ], [ 0.6820095, 45.659471499999988 ] ] ] } },
{ "type": "Feature", "properties": { "name": "Busserolles", "feature_type": "circle", "metric_roundness": 53.5, "metric_rectangularity": 65.54, "metric_mobile_fit": 64.54, "metric_aspect_ratio": 0.917, "metric_area_km2": 69.64 }, "geometry": { "type": "Polygon", "coordinates": [ [ [ 0.698125385667704, 45.674849508043437 ], [ 0.69804612229889, 45.672734452027036 ], [ 0.697808549447833, 45.670625113625505 ], [ 0.697413318285204, 45.668527275370089 ], [ 0.696861512112148, 45.666446688913283 ], [ 0.69615464339103, 45.664389059246119 ], [ 0.695294649599879, 45.662360029036627 ], [ 0.694283887921901, 45.66036516313244 ], [ 0.693125128784598, 45.658409933270462 ], [ 0.69182154826622, 45.656499703036019 ], [ 0.690376719390357, 45.654639713112999 ], [ 0.688794602332531, 45.652835066866103 ], [ 0.687079533565623, 45.651090716295251 ], [ 0.685236213973912, 45.649411448401189 ], [ 0.683269695968271, 45.647801872000557 ], [ 0.681185369637862, 45.646266405026971 ], [ 0.678988947976277, 45.644809262353938 ], [ 0.67668645122262, 45.643434444173508 ], [ 0.674284190360447, 45.642145724963406 ], [ 0.671788749819802, 45.640946643073526 ], [ 0.669206969429752, 45.639840490961163 ], [ 0.666545925670888, 45.638830306102484 ], [ 0.663812912279187, 45.637918862605723 ], [ 0.661015420254385, 45.637108663549924 ], [ 0.658161117327672, 45.636401934070726 ], [ 0.655257826944969, 45.635800615212823 ], [ 0.652313506823409, 45.635306358566453 ], [ 0.64933622713979, 45.634920521703044 ], [ 0.646334148410776, 45.634644164423023 ], [ 0.64331549912549, 45.634478045826278 ], [ 0.640288553191801, 45.634422622213833 ], [ 0.637261607258112, 45.634478045826278 ], [ 0.634242957972826, 45.634644164423023 ], [ 0.631240879243812, 45.634920521703044 ], [ 0.628263599560193, 45.635306358566453 ], [ 0.625319279438633, 45.635800615212823 ], [ 0.62241598905593, 45.636401934070726 ], [ 0.619561686129217, 45.637108663549924 ], [ 0.616764194104415, 45.637918862605723 ], [ 0.614031180712713, 45.638830306102484 ], [ 0.61137013695385, 45.639840490961163 ], [ 0.6087883565638, 45.640946643073526 ], [ 0.606292916023155, 45.642145724963406 ], [ 0.603890655160982, 45.643434444173508 ], [ 0.601588158407324, 45.644809262353938 ], [ 0.59939173674574, 45.646266405026971 ], [ 0.597307410415331, 45.647801872000557 ], [ 0.59534089240969, 45.649411448401189 ], [ 0.593497572817979, 45.651090716295251 ], [ 0.591782504051071, 45.652835066866103 ], [ 0.590200386993244, 45.654639713112999 ], [ 0.588755558117382, 45.656499703036019 ], [ 0.587451977599004, 45.658409933270462 ], [ 0.586293218461701, 45.66036516313244 ], [ 0.585282456783722, 45.662360029036627 ], [ 0.584422462992572, 45.664389059246119 ], [ 0.583715594271454, 45.666446688913283 ], [ 0.583163788098398, 45.668527275370089 ], [ 0.582768556935769, 45.670625113625505 ], [ 0.582530984084712, 45.672734452027036 ], [ 0.582451720715898, 45.674849508043437 ], [ 0.582530984084712, 45.676964484124987 ], [ 0.582768556935769, 45.679073583597734 ], [ 0.583163788098398, 45.681171026548199 ], [ 0.583715594271454, 45.683251065654929 ], [ 0.584422462992572, 45.685308001923779 ], [ 0.585282456783722, 45.687336200283731 ], [ 0.5862932184617, 45.68933010500109 ], [ 0.587451977599004, 45.691284254869906 ], [ 0.588755558117382, 45.69319329813748 ], [ 0.590200386993244, 45.695052007124609 ], [ 0.591782504051071, 45.696855292500778 ], [ 0.593497572817979, 45.69859821717607 ], [ 0.59534089240969, 45.700276009772125 ], [ 0.597307410415331, 45.701884077636024 ], [ 0.59939173674574, 45.703418019361962 ], [ 0.601588158407324, 45.704873636787369 ], [ 0.603890655160982, 45.706246946431136 ], [ 0.606292916023155, 45.707534190343367 ], [ 0.608788356563799, 45.708731846337855 ], [ 0.61137013695385, 45.709836637579699 ], [ 0.614031180712713, 45.710845541502714 ], [ 0.616764194104415, 45.711755798032847 ], [ 0.619561686129217, 45.712564917095733 ], [ 0.62241598905593, 45.713270685388352 ], [ 0.625319279438633, 45.713871172396935 ], [ 0.628263599560193, 45.714364735645198 ], [ 0.631240879243812, 45.714750025158686 ], [ 0.634242957972826, 45.715025987133892 ], [ 0.637261607258112, 45.715191866801931 ], [ 0.640288553191801, 45.715247210479554 ], [ 0.64331549912549, 45.715191866801931 ], [ 0.646334148410776, 45.715025987133892 ], [ 0.64933622713979, 45.714750025158686 ], [ 0.652313506823409, 45.714364735645198 ], [ 0.655257826944968, 45.713871172396935 ], [ 0.658161117327672, 45.713270685388352 ], [ 0.661015420254385, 45.712564917095733 ], [ 0.663812912279187, 45.711755798032847 ], [ 0.666545925670888, 45.710845541502714 ], [ 0.669206969429752, 45.709836637579699 ], [ 0.671788749819802, 45.708731846337855 ], [ 0.674284190360447, 45.707534190343367 ], [ 0.67668645122262, 45.706246946431136 ], [ 0.678988947976277, 45.704873636787369 ], [ 0.681185369637862, 45.703418019361962 ], [ 0.683269695968271, 45.701884077636024 ], [ 0.685236213973912, 45.700276009772125 ], [ 0.687079533565623, 45.69859821717607 ], [ 0.688794602332531, 45.696855292500778 ], [ 0.690376719390357, 45.695052007124609 ], [ 0.69182154826622, 45.69319329813748 ], [ 0.693125128784598, 45.691284254869906 ], [ 0.694283887921901, 45.68933010500109 ], [ 0.695294649599879, 45.687336200283731 ], [ 0.69615464339103, 45.685308001923779 ], [ 0.696861512112148, 45.683251065654929 ], [ 0.697413318285204, 45.681171026548199 ], [ 0.697808549447833, 45.679073583597734 ], [ 0.69804612229889, 45.676964484124987 ], [ 0.698125385667704, 45.674849508043437 ] ] ] } },
{ "type": "Feature", "properties": { "name": "Busserolles", "feature_type": "mrr", "metric_roundness": 53.5, "metric_rectangularity": 65.54, "metric_mobile_fit": 64.54, "metric_aspect_ratio": 0.917, "metric_area_km2": 69.64 }, "geometry": { "type": "Polygon", "coordinates": [ [ [ 0.703233170002359, 45.675290556140766 ], [ 0.646415464857119, 45.625219565039849 ], [ 0.572939273854656, 45.665965078225469 ], [ 0.629756978999896, 45.715999647761862 ], [ 0.703233170002359, 45.675290556140766 ] ] ] } }
]
}
