{
"type": "FeatureCollection",
"name": "bustelo",
"crs": { "type": "name", "properties": { "name": "urn:ogc:def:crs:OGC:1.3:CRS84" } },
"features": [
{ "type": "Feature", "properties": { "name": "Bustelo", "feature_type": "entity", "metric_roundness": 55.89, "metric_rectangularity": 64.0, "metric_mobile_fit": 38.8, "metric_aspect_ratio": 1.174, "metric_area_km2": 16.43 }, "geometry": { "type": "Polygon", "coordinates": [ [ [ -7.4927609, 41.8026122 ], [ -7.516567, 41.79484 ], [ -7.5006133, 41.7866625 ], [ -7.4896999, 41.7733361 ], [ -7.475815, 41.771572 ], [ -7.464154, 41.7951985 ], [ -7.4668272, 41.7998038 ], [ -7.47623, 41.8048465 ], [ -7.4927609, 41.8026122 ] ] ] } },
{ "type": "Feature", "properties": { "name": "Bustelo", "feature_type": "circle", "metric_roundness": 55.89, "metric_rectangularity": 64.0, "metric_mobile_fit": 38.8, "metric_aspect_ratio": 1.174, "metric_area_km2": 16.43 }, "geometry": { "type": "Polygon", "coordinates": [ [ [ -7.462723649325405, 41.789032503181836 ], [ -7.462761316705802, 41.787959973873789 ], [ -7.462874215603319, 41.786890366424224 ], [ -7.463062036569925, 41.785826612773228 ], [ -7.463324264801407, 41.784771628960165 ], [ -7.463660181548411, 41.783728307127099 ], [ -7.464068866086479, 41.782699507586081 ], [ -7.464549198239705, 41.781688050972207 ], [ -7.465099861451038, 41.780696710504081 ], [ -7.465719346390897, 41.779728204372873 ], [ -7.46640595509412, 41.778785188281056 ], [ -7.467157805613978, 41.777870248151331 ], [ -7.467972837180453, 41.776985893025781 ], [ -7.468848815848678, 41.776134548175115 ], [ -7.469783340622009, 41.775318548436687 ], [ -7.470773850033002, 41.774540131800016 ], [ -7.471817629164208, 41.773801433257319 ], [ -7.472911817089584, 41.773104478936283 ], [ -7.474053414716082, 41.772451180531185 ], [ -7.475239293003958, 41.771843330047794 ], [ -7.476466201543256, 41.771282594876752 ], [ -7.477730777462948, 41.770770513208923 ], [ -7.47902955464834, 41.770308489805615 ], [ -7.480358973241445, 41.769897792135239 ], [ -7.481715389398303, 41.769539546887337 ], [ -7.483095085276515, 41.769234736873443 ], [ -7.484494279225576, 41.768984198323587 ], [ -7.485909136152133, 41.768788618585845 ], [ -7.487335778031691, 41.768648534235332 ], [ -7.488770294538027, 41.768564329597993 ], [ -7.490208753761104, 41.768536235693155 ], [ -7.491647212984184, 41.768564329597993 ], [ -7.49308172949052, 41.768648534235332 ], [ -7.494508371370078, 41.768788618585845 ], [ -7.495923228296633, 41.768984198323587 ], [ -7.497322422245696, 41.769234736873443 ], [ -7.498702118123906, 41.769539546887337 ], [ -7.500058534280766, 41.769897792135239 ], [ -7.501387952873869, 41.770308489805615 ], [ -7.502686730059263, 41.770770513208923 ], [ -7.503951305978955, 41.771282594876752 ], [ -7.505178214518251, 41.771843330047794 ], [ -7.506364092806129, 41.772451180531185 ], [ -7.507505690432627, 41.773104478936283 ], [ -7.508599878358001, 41.773801433257319 ], [ -7.509643657489208, 41.774540131800016 ], [ -7.510634166900201, 41.775318548436687 ], [ -7.511568691673533, 41.776134548175115 ], [ -7.512444670341756, 41.776985893025781 ], [ -7.513259701908233, 41.777870248151331 ], [ -7.514011552428089, 41.778785188281056 ], [ -7.514698161131312, 41.779728204372873 ], [ -7.515317646071171, 41.780696710504081 ], [ -7.515868309282505, 41.781688050972207 ], [ -7.516348641435731, 41.782699507586081 ], [ -7.5167573259738, 41.783728307127099 ], [ -7.517093242720803, 41.784771628960165 ], [ -7.517355470952285, 41.785826612773228 ], [ -7.517543291918892, 41.786890366424224 ], [ -7.517656190816409, 41.787959973873789 ], [ -7.517693858196806, 41.789032503181836 ], [ -7.517656190816409, 41.79010501454632 ], [ -7.517543291918892, 41.791174568361775 ], [ -7.517355470952285, 41.792238233275754 ], [ -7.517093242720803, 41.793293094221106 ], [ -7.5167573259738, 41.794336260401941 ], [ -7.516348641435731, 41.795364873211547 ], [ -7.515868309282505, 41.796376114060713 ], [ -7.515317646071171, 41.797367212094791 ], [ -7.514698161131312, 41.798335451778783 ], [ -7.514011552428089, 41.799278180329438 ], [ -7.513259701908233, 41.800192814974451 ], [ -7.512444670341756, 41.801076850018681 ], [ -7.511568691673533, 41.801927863698289 ], [ -7.510634166900201, 41.802743524804306 ], [ -7.509643657489208, 41.803521599057348 ], [ -7.508599878358001, 41.804259955216416 ], [ -7.507505690432627, 41.804956570905048 ], [ -7.506364092806129, 41.805609538139095 ], [ -7.505178214518251, 41.806217068541166 ], [ -7.503951305978955, 41.806777498227511 ], [ -7.502686730059263, 41.807289292354206 ], [ -7.501387952873869, 41.807751049310312 ], [ -7.500058534280766, 41.808161504546653 ], [ -7.498702118123906, 41.80851953402987 ], [ -7.497322422245696, 41.808824157312365 ], [ -7.495923228296633, 41.809074540209991 ], [ -7.494508371370078, 41.80926999708003 ], [ -7.49308172949052, 41.809409992693531 ], [ -7.491647212984184, 41.809494143696774 ], [ -7.490208753761104, 41.809522219658042 ], [ -7.488770294538027, 41.809494143696774 ], [ -7.487335778031691, 41.809409992693531 ], [ -7.485909136152133, 41.80926999708003 ], [ -7.484494279225576, 41.809074540209991 ], [ -7.483095085276515, 41.808824157312365 ], [ -7.481715389398303, 41.80851953402987 ], [ -7.480358973241445, 41.808161504546653 ], [ -7.47902955464834, 41.807751049310312 ], [ -7.477730777462948, 41.807289292354206 ], [ -7.476466201543256, 41.806777498227511 ], [ -7.475239293003958, 41.806217068541166 ], [ -7.474053414716082, 41.805609538139095 ], [ -7.472911817089584, 41.804956570905048 ], [ -7.471817629164208, 41.804259955216416 ], [ -7.470773850033002, 41.803521599057348 ], [ -7.469783340622009, 41.802743524804306 ], [ -7.468848815848678, 41.801927863698289 ], [ -7.467972837180453, 41.801076850018681 ], [ -7.467157805613978, 41.800192814974451 ], [ -7.46640595509412, 41.799278180329438 ], [ -7.465719346390897, 41.798335451778783 ], [ -7.465099861451038, 41.797367212094791 ], [ -7.464549198239705, 41.796376114060713 ], [ -7.464068866086479, 41.795364873211547 ], [ -7.463660181548411, 41.794336260401941 ], [ -7.463324264801407, 41.793293094221106 ], [ -7.463062036569925, 41.792238233275754 ], [ -7.462874215603319, 41.791174568361775 ], [ -7.462761316705802, 41.79010501454632 ], [ -7.462723649325405, 41.789032503181836 ] ] ] } },
{ "type": "Feature", "properties": { "name": "Bustelo", "feature_type": "mrr", "metric_roundness": 55.89, "metric_rectangularity": 64.0, "metric_mobile_fit": 38.8, "metric_aspect_ratio": 1.174, "metric_area_km2": 16.43 }, "geometry": { "type": "Polygon", "coordinates": [ [ [ -7.482068533160596, 41.767226785616693 ], [ -7.516567, 41.79484 ], [ -7.486618043288712, 41.815638160305468 ], [ -7.452119573084871, 41.788033905903767 ], [ -7.482068533160596, 41.767226785616693 ] ] ] } }
]
}
