{
"type": "FeatureCollection",
"name": "buttenheim_m",
"crs": { "type": "name", "properties": { "name": "urn:ogc:def:crs:OGC:1.3:CRS84" } },
"features": [
{ "type": "Feature", "properties": { "name": "Buttenheim, M", "feature_type": "entity", "metric_roundness": 48.28, "metric_rectangularity": 62.77, "metric_mobile_fit": 69.82, "metric_aspect_ratio": 0.864, "metric_area_km2": 72.15 }, "geometry": { "type": "Polygon", "coordinates": [ [ [ 11.0638068, 49.7948816 ], [ 11.0729061, 49.798266099999985 ], [ 11.0791942, 49.7939377 ], [ 11.0845587, 49.797887099999976 ], [ 11.0846592, 49.8024555 ], [ 11.098945, 49.8057185 ], [ 11.104435, 49.835643499999989 ], [ 11.0996287, 49.839318599999977 ], [ 11.1017636, 49.847372 ], [ 11.0948167, 49.8542846 ], [ 11.0954393, 49.8582551 ], [ 11.0822665, 49.861211 ], [ 11.071308, 49.8607625 ], [ 11.0549848, 49.8548623 ], [ 11.051121, 49.849445 ], [ 11.0502345, 49.8463112 ], [ 11.0545721, 49.842136599999982 ], [ 11.0485472, 49.8360712 ], [ 11.0474692, 49.819150699999973 ], [ 11.0337787, 49.817533899999987 ], [ 11.016541, 49.808149 ], [ 11.0130975, 49.8059306 ], [ 11.0237174, 49.7930411 ], [ 11.049184, 49.7949865 ], [ 11.0638068, 49.7948816 ] ] ] } },
{ "type": "Feature", "properties": { "name": "Buttenheim, M", "feature_type": "circle", "metric_roundness": 48.28, "metric_rectangularity": 62.77, "metric_mobile_fit": 69.82, "metric_aspect_ratio": 0.864, "metric_area_km2": 72.15 }, "geometry": { "type": "Polygon", "coordinates": [ [ [ 11.121552112486498, 49.825659089379101 ], [ 11.121467179598882, 49.823566640088302 ], [ 11.121212613731174, 49.821479835921181 ], [ 11.120789112630725, 49.819404397773056 ], [ 11.120197837084614, 49.817346016113063 ], [ 11.119440407738013, 49.815310335366952 ], [ 11.118518900652111, 49.813302938418133 ], [ 11.11743584161378, 49.811329331270173 ], [ 11.116194199212559, 49.809394927912784 ], [ 11.114797376703969, 49.807505035433543 ], [ 11.113249202681409, 49.805664839416465 ], [ 11.111553920582265, 49.803879389668232 ], [ 11.109716177056931, 49.802153586311718 ], [ 11.107741009232674, 49.800492166285835 ], [ 11.105633830907205, 49.798899690289126 ], [ 11.103400417709846, 49.797380530204116 ], [ 11.101046891270929, 49.795938857037392 ], [ 11.098579702442832, 49.794578629409358 ], [ 11.096005613618638, 49.793303582626294 ], [ 11.093331680196895, 49.792117218365163 ], [ 11.090565231243247, 49.791022795000593 ], [ 11.087713849401982, 49.790023318601236 ], [ 11.084785350112533, 49.789121534620953 ], [ 11.081787760187892, 49.788319920308361 ], [ 11.078729295813684, 49.787620677856467 ], [ 11.075618340028162, 49.787025728311491 ], [ 11.072463419744903, 49.786536706258389 ], [ 11.069273182381103, 49.786154955298237 ], [ 11.066056372155625, 49.785881524330044 ], [ 11.062821806121701, 49.785717164648034 ], [ 11.05957835, 49.785662327862156 ], [ 11.056334893878294, 49.785717164648034 ], [ 11.053100327844367, 49.785881524330044 ], [ 11.049883517618889, 49.786154955298237 ], [ 11.04669328025509, 49.786536706258389 ], [ 11.043538359971832, 49.787025728311491 ], [ 11.04042740418631, 49.787620677856467 ], [ 11.037368939812101, 49.788319920308361 ], [ 11.03437134988746, 49.789121534620953 ], [ 11.031442850598008, 49.790023318601236 ], [ 11.028591468756748, 49.791022795000593 ], [ 11.025825019803099, 49.792117218365163 ], [ 11.023151086381354, 49.793303582626294 ], [ 11.020576997557162, 49.794578629409358 ], [ 11.018109808729065, 49.795938857037392 ], [ 11.015756282290148, 49.797380530204116 ], [ 11.013522869092787, 49.798899690289126 ], [ 11.011415690767318, 49.800492166285835 ], [ 11.009440522943061, 49.802153586311718 ], [ 11.007602779417727, 49.803879389668232 ], [ 11.005907497318583, 49.805664839416465 ], [ 11.004359323296026, 49.807505035433543 ], [ 11.002962500787431, 49.809394927912784 ], [ 11.001720858386212, 49.811329331270173 ], [ 11.000637799347883, 49.813302938418133 ], [ 10.999716292261979, 49.815310335366952 ], [ 10.99895886291538, 49.817346016113063 ], [ 10.998367587369268, 49.819404397773056 ], [ 10.99794408626882, 49.821479835921181 ], [ 10.997689520401112, 49.823566640088302 ], [ 10.997604587513496, 49.825659089379101 ], [ 10.997689520401112, 49.827751448164904 ], [ 10.99794408626882, 49.829837981808566 ], [ 10.998367587369268, 49.831912972378738 ], [ 10.99895886291538, 49.833970734310014 ], [ 10.999716292261979, 49.836005629966543 ], [ 11.000637799347883, 49.838012085066502 ], [ 11.001720858386212, 49.839984603925444 ], [ 11.002962500787431, 49.841917784477147 ], [ 11.004359323296026, 49.843806333031395 ], [ 11.005907497318583, 49.845645078728481 ], [ 11.007602779417727, 49.847428987651746 ], [ 11.009440522943061, 49.849153176559895 ], [ 11.011415690767318, 49.850812926202281 ], [ 11.013522869092787, 49.852403694181426 ], [ 11.015756282290148, 49.853921127328178 ], [ 11.018109808729065, 49.855361073556701 ], [ 11.020576997557162, 49.856719593167227 ], [ 11.023151086381354, 49.857992969566922 ], [ 11.025825019803099, 49.859177719379872 ], [ 11.028591468756744, 49.860270601919659 ], [ 11.031442850598008, 49.861268627999245 ], [ 11.03437134988746, 49.86216906805479 ], [ 11.037368939812101, 49.86296945956196 ], [ 11.04042740418631, 49.863667613725063 ], [ 11.043538359971832, 49.864261621421427 ], [ 11.04669328025509, 49.864749858385132 ], [ 11.049883517618889, 49.865130989616759 ], [ 11.053100327844367, 49.865403973007105 ], [ 11.056334893878294, 49.86556806216575 ], [ 11.05957835, 49.865622808446659 ], [ 11.062821806121701, 49.86556806216575 ], [ 11.066056372155625, 49.865403973007105 ], [ 11.069273182381103, 49.865130989616759 ], [ 11.072463419744903, 49.864749858385132 ], [ 11.075618340028162, 49.864261621421427 ], [ 11.078729295813684, 49.863667613725063 ], [ 11.081787760187892, 49.86296945956196 ], [ 11.084785350112533, 49.86216906805479 ], [ 11.087713849401982, 49.861268627999245 ], [ 11.090565231243247, 49.860270601919659 ], [ 11.093331680196895, 49.859177719379872 ], [ 11.096005613618638, 49.857992969566922 ], [ 11.098579702442832, 49.856719593167227 ], [ 11.101046891270929, 49.855361073556701 ], [ 11.103400417709846, 49.853921127328178 ], [ 11.105633830907205, 49.852403694181426 ], [ 11.107741009232674, 49.850812926202281 ], [ 11.109716177056931, 49.849153176559895 ], [ 11.111553920582265, 49.847428987651746 ], [ 11.113249202681409, 49.845645078728481 ], [ 11.114797376703969, 49.843806333031395 ], [ 11.116194199212559, 49.841917784477147 ], [ 11.11743584161378, 49.839984603925444 ], [ 11.118518900652111, 49.838012085066502 ], [ 11.119440407738013, 49.836005629966543 ], [ 11.120197837084614, 49.833970734310014 ], [ 11.120789112630725, 49.831912972378738 ], [ 11.121212613731174, 49.829837981808566 ], [ 11.121467179598882, 49.827751448164904 ], [ 11.121552112486498, 49.825659089379101 ] ] ] } },
{ "type": "Feature", "properties": { "name": "Buttenheim, M", "feature_type": "mrr", "metric_roundness": 48.28, "metric_rectangularity": 62.77, "metric_mobile_fit": 69.82, "metric_aspect_ratio": 0.864, "metric_area_km2": 72.15 }, "geometry": { "type": "Polygon", "coordinates": [ [ [ 11.007128747866151, 49.798954016220392 ], [ 11.066664505630166, 49.868497409157705 ], [ 11.132591554263906, 49.845027643453463 ], [ 11.073055796499892, 49.775450482354181 ], [ 11.007128747866151, 49.798954016220392 ] ] ] } }
]
}
