{
"type": "FeatureCollection",
"name": "buxieres_sous_montaigut",
"crs": { "type": "name", "properties": { "name": "urn:ogc:def:crs:OGC:1.3:CRS84" } },
"features": [
{ "type": "Feature", "properties": { "name": "Buxières-sous-Montaigut", "feature_type": "entity", "metric_roundness": 64.5, "metric_rectangularity": 70.42, "metric_mobile_fit": 41.54, "metric_aspect_ratio": 1.147, "metric_area_km2": 23.73 }, "geometry": { "type": "Polygon", "coordinates": [ [ [ 2.8182297, 46.2168915 ], [ 2.8169372, 46.2034702 ], [ 2.810401, 46.196213 ], [ 2.8152645, 46.1894445 ], [ 2.818293, 46.1875875 ], [ 2.822038, 46.186222 ], [ 2.865144, 46.1898535 ], [ 2.8575472, 46.1950113 ], [ 2.8663122, 46.1999056 ], [ 2.866073, 46.205504 ], [ 2.8342848, 46.2197766 ], [ 2.8233085, 46.219956 ], [ 2.8182297, 46.2168915 ] ] ] } },
{ "type": "Feature", "properties": { "name": "Buxières-sous-Montaigut", "feature_type": "circle", "metric_roundness": 64.5, "metric_rectangularity": 70.42, "metric_mobile_fit": 41.54, "metric_aspect_ratio": 1.147, "metric_area_km2": 23.73 }, "geometry": { "type": "Polygon", "coordinates": [ [ [ 2.870712290896069, 46.20206898289991 ], [ 2.870670150364284, 46.200955160014239 ], [ 2.870543844273199, 46.199844367552117 ], [ 2.870333718819028, 46.198739650395687 ], [ 2.870040349941038, 46.197644036956518 ], [ 2.869664541742929, 46.196560530869988 ], [ 2.869207324288852, 46.195492102755509 ], [ 2.868669950780067, 46.194441682065474 ], [ 2.868053894120009, 46.193412149045294 ], [ 2.867360842877163, 46.192406326826543 ], [ 2.86659269665681, 46.191426973675277 ], [ 2.865751560894348, 46.190476775416741 ], [ 2.864839741084436, 46.189558338057374 ], [ 2.863859736461792, 46.188674180624709 ], [ 2.862814233150968, 46.18782672824463 ], [ 2.861706096803866, 46.187018305475675 ], [ 2.860538364745189, 46.186251129918269 ], [ 2.859314237647341, 46.185527306117123 ], [ 2.85803707075761, 46.184848819773428 ], [ 2.856710364701665, 46.184217532282958 ], [ 2.855337755888588, 46.183635175615407 ], [ 2.853923006543726, 46.183103347549029 ], [ 2.852469994396695, 46.182623507273959 ], [ 2.850982702052793, 46.182196971376342 ], [ 2.849465206076955, 46.18182491021463 ], [ 2.84792166582017, 46.181508344697946 ], [ 2.846356312018991, 46.181248143475592 ], [ 2.844773435199382, 46.181045020545668 ], [ 2.843177373916681, 46.180899533289121 ], [ 2.841572502863921, 46.180812080935112 ], [ 2.839963220881107, 46.180782903461719 ], [ 2.838353938898292, 46.180812080935112 ], [ 2.836749067845533, 46.180899533289121 ], [ 2.835153006562832, 46.181045020545668 ], [ 2.833570129743222, 46.181248143475592 ], [ 2.832004775942044, 46.181508344697946 ], [ 2.830461235685258, 46.18182491021463 ], [ 2.82894373970942, 46.182196971376342 ], [ 2.827456447365518, 46.182623507273959 ], [ 2.826003435218488, 46.183103347549029 ], [ 2.824588685873626, 46.183635175615407 ], [ 2.823216077060548, 46.184217532282958 ], [ 2.821889371004603, 46.184848819773428 ], [ 2.820612204114872, 46.185527306117123 ], [ 2.819388077017024, 46.186251129918269 ], [ 2.818220344958347, 46.187018305475675 ], [ 2.817112208611245, 46.18782672824463 ], [ 2.816066705300421, 46.188674180624709 ], [ 2.815086700677778, 46.189558338057374 ], [ 2.814174880867865, 46.190476775416741 ], [ 2.813333745105403, 46.191426973675277 ], [ 2.81256559888505, 46.192406326826543 ], [ 2.811872547642204, 46.193412149045294 ], [ 2.811256490982146, 46.194441682065474 ], [ 2.810719117473361, 46.195492102755509 ], [ 2.810261900019284, 46.196560530869988 ], [ 2.809886091821176, 46.197644036956518 ], [ 2.809592722943185, 46.198739650395687 ], [ 2.809382597489015, 46.199844367552117 ], [ 2.809256291397929, 46.200955160014239 ], [ 2.809214150866144, 46.20206898289991 ], [ 2.809256291397929, 46.2031827832053 ], [ 2.809382597489015, 46.20429350817399 ], [ 2.809592722943185, 46.205398113663307 ], [ 2.809886091821176, 46.20649357248513 ], [ 2.810261900019284, 46.207576882698085 ], [ 2.810719117473361, 46.208645075828819 ], [ 2.811256490982146, 46.209695224999436 ], [ 2.811872547642204, 46.210724452939388 ], [ 2.81256559888505, 46.211729939859609 ], [ 2.813333745105403, 46.212708931167633 ], [ 2.814174880867865, 46.213658745002654 ], [ 2.815086700677778, 46.214576779570038 ], [ 2.816066705300421, 46.21546052025537 ], [ 2.817112208611245, 46.216307546498697 ], [ 2.818220344958347, 46.217115538410361 ], [ 2.819388077017024, 46.217882283110463 ], [ 2.820612204114872, 46.218605680774864 ], [ 2.821889371004603, 46.219283750371233 ], [ 2.823216077060548, 46.219914635069756 ], [ 2.824588685873626, 46.220496607313805 ], [ 2.826003435218488, 46.221028073536949 ], [ 2.827456447365518, 46.221507578513503 ], [ 2.82894373970942, 46.221933809330899 ], [ 2.830461235685258, 46.222305598973229 ], [ 2.832004775942044, 46.222621929506182 ], [ 2.833570129743222, 46.222881934854982 ], [ 2.835153006562832, 46.223084903167567 ], [ 2.836749067845533, 46.223230278757001 ], [ 2.838353938898292, 46.223317663617586 ], [ 2.839963220881107, 46.223346818510706 ], [ 2.84157250286392, 46.223317663617586 ], [ 2.843177373916681, 46.223230278757001 ], [ 2.844773435199382, 46.223084903167567 ], [ 2.846356312018991, 46.222881934854982 ], [ 2.84792166582017, 46.222621929506182 ], [ 2.849465206076955, 46.222305598973229 ], [ 2.850982702052793, 46.221933809330899 ], [ 2.852469994396695, 46.221507578513503 ], [ 2.853923006543726, 46.221028073536949 ], [ 2.855337755888588, 46.220496607313805 ], [ 2.856710364701665, 46.219914635069756 ], [ 2.85803707075761, 46.219283750371233 ], [ 2.859314237647341, 46.218605680774864 ], [ 2.860538364745189, 46.217882283110463 ], [ 2.861706096803866, 46.217115538410361 ], [ 2.862814233150968, 46.216307546498697 ], [ 2.863859736461792, 46.21546052025537 ], [ 2.864839741084436, 46.214576779570038 ], [ 2.865751560894348, 46.213658745002654 ], [ 2.86659269665681, 46.212708931167633 ], [ 2.867360842877163, 46.211729939859609 ], [ 2.868053894120009, 46.210724452939388 ], [ 2.868669950780067, 46.209695224999436 ], [ 2.869207324288852, 46.208645075828819 ], [ 2.869664541742929, 46.207576882698085 ], [ 2.870040349941038, 46.20649357248513 ], [ 2.870333718819028, 46.205398113663307 ], [ 2.870543844273199, 46.20429350817399 ], [ 2.870670150364284, 46.2031827832053 ], [ 2.870712290896069, 46.20206898289991 ] ] ] } },
{ "type": "Feature", "properties": { "name": "Buxières-sous-Montaigut", "feature_type": "mrr", "metric_roundness": 64.5, "metric_rectangularity": 70.42, "metric_mobile_fit": 41.54, "metric_aspect_ratio": 1.147, "metric_area_km2": 23.73 }, "geometry": { "type": "Polygon", "coordinates": [ [ [ 2.811218206696443, 46.220153606230944 ], [ 2.866972271774265, 46.21924234195653 ], [ 2.865820811378203, 46.185505956781029 ], [ 2.810066746300381, 46.18641778080012 ], [ 2.811218206696443, 46.220153606230944 ] ] ] } }
]
}
