{
"type": "FeatureCollection",
"name": "ganserndorf",
"crs": { "type": "name", "properties": { "name": "urn:ogc:def:crs:OGC:1.3:CRS84" } },
"features": [
{ "type": "Feature", "properties": { "name": "Gänserndorf", "metric_roundness": 27.14, "metric_rectangularity": 61.1, "metric_mobile_fit": 89.63, "metric_aspect_ratio": 0.666, "metric_area_km2": 69.14 }, "geometry": { "type": "Polygon", "coordinates": [ [ [ 16.716501709511967, 48.31153533194334 ], [ 16.715875380966043, 48.311348699885443 ], [ 16.714988894220763, 48.310991529392304 ], [ 16.714460344678084, 48.310884163226618 ], [ 16.714197297858718, 48.310830668692432 ], [ 16.713887339346961, 48.310767731595199 ], [ 16.712413555704508, 48.310345573974985 ], [ 16.711043833741986, 48.309798828416255 ], [ 16.711424769007529, 48.308957270256357 ], [ 16.711616072273721, 48.308531784273015 ], [ 16.711635603566542, 48.308487729392048 ], [ 16.711694577936829, 48.30835519352577 ], [ 16.711713669892045, 48.30831268200982 ], [ 16.711901518691441, 48.307550826303768 ], [ 16.713276479847192, 48.306391560947446 ], [ 16.713715891976811, 48.306020990581288 ], [ 16.713765021001389, 48.305979677052974 ], [ 16.713921604466805, 48.305874647177305 ], [ 16.714075101001249, 48.305771957673372 ], [ 16.71545095932342, 48.305076420388843 ], [ 16.715501094794494, 48.305046421529582 ], [ 16.716152645789418, 48.304657430728788 ], [ 16.716501274075771, 48.304449214057705 ], [ 16.716854090334742, 48.304303090502835 ], [ 16.716890615706305, 48.304287892695811 ], [ 16.718405255345903, 48.303660313106455 ], [ 16.720760865286692, 48.303672086785504 ], [ 16.71856672926145, 48.302383022289931 ], [ 16.717925239441634, 48.302006144531148 ], [ 16.717707029040774, 48.30188022508716 ], [ 16.716868840847919, 48.301396604775462 ], [ 16.715064616108254, 48.300355449904721 ], [ 16.713908455810355, 48.299613997456206 ], [ 16.713687145675994, 48.299440260938361 ], [ 16.713615113755985, 48.299479989059222 ], [ 16.712977041545962, 48.299772866405 ], [ 16.712781954951762, 48.299819048854978 ], [ 16.712392885511669, 48.299878697047909 ], [ 16.711884040015907, 48.299935068546972 ], [ 16.711165055397888, 48.300065515848296 ], [ 16.711106289318558, 48.300068662187464 ], [ 16.710644528832368, 48.300093859080846 ], [ 16.710168086975205, 48.300140188765837 ], [ 16.709737187580384, 48.3001999612652 ], [ 16.709259830411437, 48.300275755972265 ], [ 16.708752605891885, 48.30030118371964 ], [ 16.708436789300027, 48.300321238158624 ], [ 16.706249157291406, 48.300459755503816 ], [ 16.706081723073385, 48.300468569876095 ], [ 16.705996597526276, 48.300473107827216 ], [ 16.705898693761373, 48.300478286148724 ], [ 16.7013777408363, 48.300256363032283 ], [ 16.701193385588265, 48.300129434097208 ], [ 16.70006002814149, 48.299349374528688 ], [ 16.700005380319521, 48.299312059556279 ], [ 16.699445679303437, 48.298930557411957 ], [ 16.698999821214009, 48.298604284229604 ], [ 16.698812581659837, 48.298463929654119 ], [ 16.698559308665683, 48.298281276276249 ], [ 16.697906988990745, 48.297686717097157 ], [ 16.697644758236546, 48.297449128231733 ], [ 16.696617362590366, 48.296518223353885 ], [ 16.696600549805144, 48.296498270912267 ], [ 16.696573390827542, 48.296474835950896 ], [ 16.696310267630391, 48.296225385235715 ], [ 16.69626201040791, 48.296180410875273 ], [ 16.695199399425839, 48.295173890781811 ], [ 16.695194944469396, 48.295169697721356 ], [ 16.693857015685435, 48.293907762481439 ], [ 16.693233819631605, 48.293194659873414 ], [ 16.693170633227822, 48.29312328443698 ], [ 16.693141139512527, 48.293086680733886 ], [ 16.693041416604654, 48.292976203776369 ], [ 16.693033544016913, 48.29296715729344 ], [ 16.692497916019729, 48.292351553559563 ], [ 16.692146271324699, 48.291947265330982 ], [ 16.692009588553695, 48.29178482277117 ], [ 16.691537472556885, 48.291528429444206 ], [ 16.691526835746025, 48.29152252390233 ], [ 16.690564712988309, 48.290993681194529 ], [ 16.690464782753757, 48.290948574923711 ], [ 16.690006821207923, 48.290741737764257 ], [ 16.689951640585818, 48.290716768824531 ], [ 16.689781942576023, 48.290640181014794 ], [ 16.689191467568456, 48.290407901456632 ], [ 16.687767248526296, 48.289855358856343 ], [ 16.687700957512948, 48.289829628778151 ], [ 16.687656396674925, 48.289812365899252 ], [ 16.687624055117045, 48.289823382406297 ], [ 16.687503560365258, 48.289850265687988 ], [ 16.685478926644844, 48.288973314510748 ], [ 16.68502190841766, 48.288870153668086 ], [ 16.683848685517606, 48.288684346293323 ], [ 16.683620639825087, 48.28864823591239 ], [ 16.68323807678799, 48.288500877159137 ], [ 16.683211506939301, 48.288490567672262 ], [ 16.683083077438585, 48.288440603595781 ], [ 16.68186419244141, 48.287965453524329 ], [ 16.679512948438614, 48.287039909220049 ], [ 16.679022036933333, 48.286816691465383 ], [ 16.678975469910512, 48.286795431454571 ], [ 16.678888188908413, 48.286755804307127 ], [ 16.678786726132262, 48.28670965209546 ], [ 16.675474424533839, 48.285449895120237 ], [ 16.674639389672937, 48.285203411633454 ], [ 16.67201317893721, 48.284428146286722 ], [ 16.671941924660352, 48.284413084267506 ], [ 16.671889951762942, 48.284402060729683 ], [ 16.671799146925, 48.284382967825998 ], [ 16.671659237590013, 48.284353399157446 ], [ 16.670476371503849, 48.284103361920884 ], [ 16.670357069402474, 48.284052312234984 ], [ 16.670335011570653, 48.284042860903106 ], [ 16.670312678655748, 48.284033327421575 ], [ 16.668393994339187, 48.283211756278234 ], [ 16.666484188343016, 48.282097283773709 ], [ 16.666360186233746, 48.28184297364502 ], [ 16.666195196303619, 48.281735785970383 ], [ 16.666124107863649, 48.281689653374826 ], [ 16.666167090348836, 48.281644844558322 ], [ 16.665971569841957, 48.281562120687632 ], [ 16.665937587569644, 48.281547608018101 ], [ 16.664070188849294, 48.280757453289944 ], [ 16.664054953872764, 48.280774366061493 ], [ 16.663967731494996, 48.280880134506766 ], [ 16.663531978395952, 48.281620369380896 ], [ 16.663316002316314, 48.281987595460116 ], [ 16.663215376258663, 48.282212323994138 ], [ 16.663186593099798, 48.282276623098589 ], [ 16.662846498277407, 48.283036355084526 ], [ 16.662684304435416, 48.283398888966097 ], [ 16.662490719047586, 48.283831378201278 ], [ 16.662384649966143, 48.284065985254635 ], [ 16.662236179725163, 48.284394452132325 ], [ 16.661937748506634, 48.285049266821581 ], [ 16.661722092470789, 48.285512187368568 ], [ 16.661393566069393, 48.286225843861629 ], [ 16.661190835241694, 48.286667504947239 ], [ 16.661170176660239, 48.286715544576808 ], [ 16.660884524651781, 48.287468938632138 ], [ 16.660613323978463, 48.288386593037217 ], [ 16.660484254227963, 48.288567923960947 ], [ 16.659335741653493, 48.290182052306811 ], [ 16.658563721275272, 48.291293725034343 ], [ 16.658555436483798, 48.291305486309277 ], [ 16.658534697523965, 48.291335520510899 ], [ 16.658487391693953, 48.291403588512452 ], [ 16.657905912369234, 48.292242945819297 ], [ 16.657841222003199, 48.292315561782679 ], [ 16.657403063293479, 48.29280661655195 ], [ 16.657094243441893, 48.293074019183756 ], [ 16.657056924088486, 48.293106417408794 ], [ 16.656316065040297, 48.293853349705465 ], [ 16.655500602654325, 48.294617622329056 ], [ 16.654839937256554, 48.29523755564604 ], [ 16.653752959878837, 48.296185131980238 ], [ 16.654845007673565, 48.29695833707693 ], [ 16.655455468948166, 48.297305912084127 ], [ 16.655951532459795, 48.297573828379939 ], [ 16.65668451735143, 48.297969578884619 ], [ 16.656790474417779, 48.298026876212056 ], [ 16.657357136124183, 48.298332836098204 ], [ 16.657881102729409, 48.298591574344705 ], [ 16.659798922442601, 48.299538588366644 ], [ 16.659846152999478, 48.299561727803891 ], [ 16.658648095151083, 48.300462733976794 ], [ 16.658343126965022, 48.30069194314855 ], [ 16.657896546903753, 48.301027566586484 ], [ 16.657462573280139, 48.301353644469081 ], [ 16.656537712266328, 48.302031819382989 ], [ 16.65653518545513, 48.302034502543016 ], [ 16.656504299735424, 48.302068427222281 ], [ 16.656416405495712, 48.302185551169586 ], [ 16.656391488324147, 48.302224167259894 ], [ 16.655713137447517, 48.303270379863427 ], [ 16.655293985754344, 48.304061684174819 ], [ 16.655100954534998, 48.304424991092944 ], [ 16.654964794039849, 48.304654503784334 ], [ 16.654859534767688, 48.304797691608393 ], [ 16.654913472291845, 48.304822262279501 ], [ 16.655007690917159, 48.304864680582455 ], [ 16.655841758578088, 48.305431499721685 ], [ 16.657477931765534, 48.306562522755087 ], [ 16.657933664418831, 48.306877591944435 ], [ 16.658197332292342, 48.307059853089754 ], [ 16.660206539132737, 48.308449747066838 ], [ 16.660224979413787, 48.308478391213605 ], [ 16.66023800424967, 48.308498366753106 ], [ 16.660263930779507, 48.308538501417218 ], [ 16.660350378499871, 48.30867198273527 ], [ 16.661218937180703, 48.310002714458406 ], [ 16.661290183287928, 48.310054968339564 ], [ 16.661294988973999, 48.310058342289047 ], [ 16.662790353454636, 48.311043954304168 ], [ 16.662818118563568, 48.311062247465927 ], [ 16.663453016423013, 48.31147994310551 ], [ 16.664078645780492, 48.311864587872307 ], [ 16.664644680993636, 48.312157749080036 ], [ 16.664651496416493, 48.312160885313489 ], [ 16.666101755934449, 48.312840009485711 ], [ 16.666398795055265, 48.313000859938676 ], [ 16.667506550128497, 48.313600639794998 ], [ 16.667636469225133, 48.313670927085518 ], [ 16.667698428081199, 48.313704536005979 ], [ 16.667765281909265, 48.313740795758278 ], [ 16.667818233894288, 48.313749813007597 ], [ 16.668928746155686, 48.314484103216699 ], [ 16.669311793098487, 48.314823182082208 ], [ 16.669914055485126, 48.315357114588778 ], [ 16.670083548800559, 48.315509367203795 ], [ 16.670094718110793, 48.315519311021994 ], [ 16.670640727412273, 48.316003262503401 ], [ 16.670784572615755, 48.316132390222158 ], [ 16.670948468828417, 48.316279400048167 ], [ 16.671216884675001, 48.316521280723819 ], [ 16.67142683742717, 48.316710546220861 ], [ 16.671662531726572, 48.316924282958468 ], [ 16.671876128128154, 48.317134421352101 ], [ 16.672137026233457, 48.317374714969809 ], [ 16.672398646808333, 48.317615707605128 ], [ 16.672643833263287, 48.317813234068204 ], [ 16.67277625159025, 48.31791990845727 ], [ 16.67302531801332, 48.318144063247388 ], [ 16.673281236692663, 48.318373963260484 ], [ 16.67340291759681, 48.31848364609305 ], [ 16.67365791962073, 48.318713931781126 ], [ 16.674446289632357, 48.31942356277338 ], [ 16.674599363061898, 48.319561514825914 ], [ 16.67487040071865, 48.319805833456577 ], [ 16.675049565774994, 48.319967345495606 ], [ 16.675088325996253, 48.320001076436043 ], [ 16.675167281034284, 48.320069847625149 ], [ 16.675365802609953, 48.320242598160647 ], [ 16.67555776757715, 48.32040995444482 ], [ 16.675671614680386, 48.320508965752694 ], [ 16.675715961448422, 48.320547668107316 ], [ 16.676050875578571, 48.320842370595834 ], [ 16.676328562921189, 48.321089106177716 ], [ 16.676474308669874, 48.321222134371311 ], [ 16.67651656449392, 48.321261886871959 ], [ 16.676621804294779, 48.321359253754601 ], [ 16.676783469284324, 48.321510911854347 ], [ 16.676876231291452, 48.321599003121456 ], [ 16.676939696889065, 48.321655703177456 ], [ 16.677089369666685, 48.321790958788114 ], [ 16.677378404907159, 48.322054382751411 ], [ 16.677954808561839, 48.322649343035287 ], [ 16.678076013923086, 48.322774340972018 ], [ 16.678434283403679, 48.323239972878532 ], [ 16.678570956149784, 48.323418366871635 ], [ 16.678591446050902, 48.323445058748064 ], [ 16.678717465395547, 48.323608992944379 ], [ 16.678861786017858, 48.323797070723181 ], [ 16.678879922729312, 48.323820768981648 ], [ 16.679294700712195, 48.324362564923213 ], [ 16.679346588941122, 48.324430130581888 ], [ 16.679400066687126, 48.32448468549827 ], [ 16.67960617342472, 48.324694936052708 ], [ 16.679626040585052, 48.324716153525429 ], [ 16.679652278459713, 48.324744030554207 ], [ 16.679919196359588, 48.325028252244174 ], [ 16.680064547649991, 48.325179924891984 ], [ 16.680128536920435, 48.325246692219309 ], [ 16.680265937481153, 48.325390219923122 ], [ 16.680406267500022, 48.325535193859807 ], [ 16.680558557134482, 48.325689727673996 ], [ 16.680755199364256, 48.325889174141857 ], [ 16.680866763773551, 48.326002652004014 ], [ 16.681742067100917, 48.326397676616835 ], [ 16.682651984373031, 48.326536539869188 ], [ 16.682721314965658, 48.326984270712735 ], [ 16.68301128769264, 48.327883212314219 ], [ 16.68327355081653, 48.328850386581365 ], [ 16.683322827394484, 48.32896925568479 ], [ 16.683361218843554, 48.329061787572513 ], [ 16.683414013124583, 48.329189108759195 ], [ 16.684245336915193, 48.330207343470924 ], [ 16.684696460561408, 48.330916801494688 ], [ 16.68470740411983, 48.330958622916533 ], [ 16.68471672172063, 48.330994098647778 ], [ 16.684727811719249, 48.331036095922606 ], [ 16.684747529038606, 48.331111247881104 ], [ 16.684862937117199, 48.331479860866331 ], [ 16.684981564362054, 48.332361220352858 ], [ 16.684987964804321, 48.33237039976909 ], [ 16.685404484210746, 48.332968307498206 ], [ 16.685439537696102, 48.333019608768723 ], [ 16.685738548675893, 48.333458384833641 ], [ 16.686561178391823, 48.334665838142882 ], [ 16.687253098706261, 48.335835274424049 ], [ 16.688254517947708, 48.337606228217901 ], [ 16.688479537131531, 48.337946470274851 ], [ 16.689034811981003, 48.33878571374904 ], [ 16.689077540339198, 48.338832381160813 ], [ 16.690544685309092, 48.340436026810828 ], [ 16.691471873317962, 48.34141768785242 ], [ 16.691879999551801, 48.34187977355888 ], [ 16.692342068643544, 48.342402966577183 ], [ 16.692372776625408, 48.342430802102619 ], [ 16.69346530763271, 48.343420194751936 ], [ 16.694501688384843, 48.344476023506793 ], [ 16.694468375158163, 48.344491300401437 ], [ 16.694296374384276, 48.344571352906094 ], [ 16.693040503751511, 48.345156888042602 ], [ 16.693082156665458, 48.345203495099838 ], [ 16.694609501199508, 48.346920332120995 ], [ 16.694711094402543, 48.347035076009419 ], [ 16.695636061069251, 48.347962840015612 ], [ 16.696622354757082, 48.348823641290835 ], [ 16.697407877251791, 48.349369348688818 ], [ 16.698513922241453, 48.35010161810559 ], [ 16.69857236794634, 48.350140445401735 ], [ 16.699475695952255, 48.350808335198707 ], [ 16.700172093313469, 48.351399187153767 ], [ 16.700294331830715, 48.351502885805935 ], [ 16.700380666117336, 48.351573768958502 ], [ 16.70101397900617, 48.352093691348244 ], [ 16.701836016864291, 48.352814964018584 ], [ 16.702757727010578, 48.353643461380798 ], [ 16.704314240113444, 48.355150096340708 ], [ 16.704680150195671, 48.355489474214721 ], [ 16.704787923205561, 48.355571978706344 ], [ 16.704832585220991, 48.355614713347492 ], [ 16.705026853419707, 48.35576206067082 ], [ 16.705182163279929, 48.3558795631956 ], [ 16.705187984341279, 48.35588389647156 ], [ 16.705206309248723, 48.355897681672644 ], [ 16.705245104605957, 48.355927080704362 ], [ 16.70535568079347, 48.356021478240571 ], [ 16.705364133897778, 48.356028886553773 ], [ 16.705518270867312, 48.356173973346664 ], [ 16.706625861529581, 48.357106184430386 ], [ 16.708213051554896, 48.358437665159165 ], [ 16.708227274356236, 48.358446526779481 ], [ 16.708273302100395, 48.358474905055495 ], [ 16.708325802283468, 48.358507237435127 ], [ 16.708526235745502, 48.358630721506096 ], [ 16.708866719209215, 48.358840452949352 ], [ 16.709648347788406, 48.359322091407577 ], [ 16.710036558534515, 48.359561228562889 ], [ 16.710018337513276, 48.35960704434445 ], [ 16.70998770525588, 48.359684191922739 ], [ 16.709854264800711, 48.360020198903932 ], [ 16.709921279190123, 48.360121707159188 ], [ 16.710246356323221, 48.360219337423601 ], [ 16.710477886870358, 48.360127723377694 ], [ 16.710563580452675, 48.360173858440689 ], [ 16.710738902170785, 48.360268445283324 ], [ 16.710805916757959, 48.36030989960345 ], [ 16.710889406514138, 48.360357448854131 ], [ 16.710922239605544, 48.360376124713504 ], [ 16.710956896131517, 48.360395828125398 ], [ 16.711034904190235, 48.360440114854022 ], [ 16.711092444388797, 48.360473020237031 ], [ 16.711201851095581, 48.360576089915419 ], [ 16.711237845179276, 48.360610070067331 ], [ 16.711247468128153, 48.36065606916867 ], [ 16.711248834455791, 48.360662512089988 ], [ 16.711371049470472, 48.361253561145851 ], [ 16.711372820465492, 48.361262063141567 ], [ 16.711404956529904, 48.361416982311532 ], [ 16.711412896771918, 48.361455827364658 ], [ 16.711540858607258, 48.36172510392732 ], [ 16.711636349928934, 48.361830197339813 ], [ 16.711681181612107, 48.36187949720928 ], [ 16.712511374796769, 48.362793319238278 ], [ 16.712823046207642, 48.363134246547304 ], [ 16.713207796150375, 48.363553454713703 ], [ 16.713250250056397, 48.363599401665567 ], [ 16.713969392238255, 48.364444317274504 ], [ 16.714046621313301, 48.364530311053947 ], [ 16.71417109147075, 48.364669315347349 ], [ 16.714326307725965, 48.364842541109375 ], [ 16.714368564432331, 48.364889573831924 ], [ 16.714400647012681, 48.364925647363236 ], [ 16.714419019305939, 48.364946272525273 ], [ 16.714460566649006, 48.364992785589678 ], [ 16.71449732854013, 48.365030163878501 ], [ 16.715274485297911, 48.36583593400519 ], [ 16.715975110340274, 48.366551634982393 ], [ 16.71601954510734, 48.366596803223587 ], [ 16.717369206257334, 48.367984313507208 ], [ 16.718673145281358, 48.369324518686518 ], [ 16.719237135718434, 48.369904256194957 ], [ 16.720516114094572, 48.371218787345363 ], [ 16.721403036912783, 48.37087914181194 ], [ 16.722716084247466, 48.370375566506091 ], [ 16.723149012015472, 48.370247278418745 ], [ 16.723270962946241, 48.370211138106527 ], [ 16.723921408028968, 48.370018356348524 ], [ 16.724597559684117, 48.369817889970797 ], [ 16.725816742423778, 48.369567308368069 ], [ 16.726153799147696, 48.369497981866608 ], [ 16.726211268120561, 48.369486224644668 ], [ 16.726293803858905, 48.369469325797319 ], [ 16.727491117333873, 48.370984421728352 ], [ 16.728348547062637, 48.37199368455601 ], [ 16.728804210767382, 48.372440310983166 ], [ 16.729732845611444, 48.373588575627096 ], [ 16.729862371910311, 48.373731558763843 ], [ 16.729908709874586, 48.373782789056861 ], [ 16.730083560477674, 48.373975951360386 ], [ 16.730099142614151, 48.373990983324006 ], [ 16.730129180654494, 48.374020359786499 ], [ 16.730159358673308, 48.374047751378185 ], [ 16.730383721350496, 48.374260178324391 ], [ 16.730799744384839, 48.374654111755831 ], [ 16.731254061131967, 48.375207100741079 ], [ 16.731364290300167, 48.37535244567983 ], [ 16.732020954515647, 48.376218438224321 ], [ 16.732914419083002, 48.377462782907251 ], [ 16.732925667193008, 48.377461194315359 ], [ 16.733636707074378, 48.377348435522556 ], [ 16.734312338527836, 48.377213116195477 ], [ 16.734326612192703, 48.377210268712993 ], [ 16.734349308098761, 48.377208075815439 ], [ 16.734471206810536, 48.377191553463135 ], [ 16.734548054365316, 48.377180487355417 ], [ 16.734785746996767, 48.377149150873365 ], [ 16.734949932387341, 48.377159124879483 ], [ 16.735314396729851, 48.377181259945317 ], [ 16.735680217077949, 48.3772281141352 ], [ 16.735425166748524, 48.376580459105078 ], [ 16.73540214144462, 48.376522157785296 ], [ 16.735369837757474, 48.376439907672008 ], [ 16.735050260192274, 48.375815834031769 ], [ 16.734983498616504, 48.375690472023813 ], [ 16.736257829372793, 48.375613204574542 ], [ 16.736437804515884, 48.375602367212174 ], [ 16.737334336612271, 48.375419342405579 ], [ 16.73783012642744, 48.375161853334376 ], [ 16.738180248287353, 48.374980646616692 ], [ 16.738276766253183, 48.374925605890112 ], [ 16.738301112849243, 48.37490949841569 ], [ 16.738338538449391, 48.374884725497687 ], [ 16.738447965913917, 48.374812290635191 ], [ 16.738474639736641, 48.374794584512017 ], [ 16.738630617999906, 48.374708724504501 ], [ 16.738711741776111, 48.374666198019256 ], [ 16.738834891970075, 48.374605156498866 ], [ 16.738894457918029, 48.374573884072475 ], [ 16.739074743197225, 48.374487763306639 ], [ 16.739267738673067, 48.374395598513573 ], [ 16.740119371793693, 48.373988863183463 ], [ 16.740390578983298, 48.373859295943625 ], [ 16.740486790075678, 48.37381812777101 ], [ 16.740603755347031, 48.37375762520599 ], [ 16.740627416944974, 48.373745498819083 ], [ 16.740660707263736, 48.373770816064038 ], [ 16.740795728857957, 48.37387365121387 ], [ 16.741139024834787, 48.374132731418243 ], [ 16.741494028932699, 48.374315117601739 ], [ 16.741676222815034, 48.37440981956027 ], [ 16.741798545164006, 48.374344477256727 ], [ 16.741850112174887, 48.374316948611366 ], [ 16.742362287480539, 48.374037891468141 ], [ 16.742481523597849, 48.373972908773261 ], [ 16.742722241298324, 48.373852421139546 ], [ 16.742952886044701, 48.373736999598584 ], [ 16.743033607384408, 48.373696642585756 ], [ 16.74320629392469, 48.373610197213928 ], [ 16.744158512162716, 48.373145295550088 ], [ 16.74318949441744, 48.372041175358554 ], [ 16.742702731230739, 48.37143416623033 ], [ 16.742667394416504, 48.371390091828879 ], [ 16.742284520478421, 48.370874759936456 ], [ 16.741963281669705, 48.370390307252705 ], [ 16.741752458374563, 48.370057756943076 ], [ 16.741514854355614, 48.369636583422967 ], [ 16.741266870821214, 48.369246505447258 ], [ 16.74115740168908, 48.369073955832413 ], [ 16.740051713417497, 48.367414772668056 ], [ 16.739553680996814, 48.366742084307774 ], [ 16.739205256727189, 48.366318023424206 ], [ 16.738802560601886, 48.365814514997751 ], [ 16.738769877264158, 48.365773693311844 ], [ 16.738495514128118, 48.36551187241961 ], [ 16.738467260183246, 48.365484966889603 ], [ 16.73841003077467, 48.365430456604379 ], [ 16.73838234592375, 48.3654039846068 ], [ 16.737902122406002, 48.364945866285481 ], [ 16.737733458601159, 48.364762528254126 ], [ 16.736914663349154, 48.363873299766077 ], [ 16.736868826466544, 48.363823498035892 ], [ 16.73686235382722, 48.36381342295882 ], [ 16.736077075939701, 48.362601329992025 ], [ 16.736434015214904, 48.362344205501671 ], [ 16.736770107380895, 48.362020791676024 ], [ 16.737492057115173, 48.360988771031593 ], [ 16.737638356478037, 48.360838547233122 ], [ 16.738141179255354, 48.360482705719711 ], [ 16.738532055526303, 48.360263297814363 ], [ 16.739028983475162, 48.359984335538492 ], [ 16.739823507772822, 48.359550990771822 ], [ 16.740871865565239, 48.35895337233012 ], [ 16.740604146394986, 48.358506876714692 ], [ 16.740575630702043, 48.3584595410018 ], [ 16.741614078112541, 48.357953952081616 ], [ 16.741245966380912, 48.356891841474997 ], [ 16.741424233144109, 48.35682324069537 ], [ 16.74148124420396, 48.356236603223984 ], [ 16.741467314778394, 48.355756393697241 ], [ 16.74145703372491, 48.355401318720254 ], [ 16.741416416455834, 48.35459586596204 ], [ 16.741783397077199, 48.354504726365548 ], [ 16.741644211555368, 48.354087695610659 ], [ 16.741359612781693, 48.353267681466278 ], [ 16.741342558261643, 48.353217939746301 ], [ 16.741229239748517, 48.352890008664495 ], [ 16.740638250615945, 48.351283658553271 ], [ 16.74063526013957, 48.351262857429084 ], [ 16.740577554099467, 48.350854156416872 ], [ 16.740575247453904, 48.350839637881329 ], [ 16.740569406442159, 48.350806314941373 ], [ 16.740567027198047, 48.350778383005931 ], [ 16.740495311971259, 48.350271771174143 ], [ 16.740416872780333, 48.349470124229953 ], [ 16.740410437299278, 48.349403144777462 ], [ 16.740293006355895, 48.348811434132848 ], [ 16.740285074728053, 48.348770969338574 ], [ 16.74027975937717, 48.348743573442476 ], [ 16.740266934918537, 48.34868623473627 ], [ 16.740262885210662, 48.348667805534276 ], [ 16.740246927701133, 48.348595702334492 ], [ 16.740225965117759, 48.34846603171475 ], [ 16.741321157395461, 48.348125706723224 ], [ 16.741429068504864, 48.348078341153489 ], [ 16.742511773296744, 48.347622491829625 ], [ 16.74276897610584, 48.347514211893532 ], [ 16.742901420848195, 48.347457933357958 ], [ 16.743530842532056, 48.347181010095149 ], [ 16.743633328998627, 48.347135421840711 ], [ 16.744354075767045, 48.346815843359046 ], [ 16.744487274246051, 48.346752607947302 ], [ 16.745537545841152, 48.346254280423928 ], [ 16.746649065952994, 48.345724435466465 ], [ 16.746757884125216, 48.345672536164621 ], [ 16.746886638465146, 48.345607537258381 ], [ 16.746958008360838, 48.345571501415655 ], [ 16.747004283637356, 48.345548176007064 ], [ 16.747052521695444, 48.345523892676248 ], [ 16.747220636818792, 48.345439282046172 ], [ 16.747475809858962, 48.345316914601035 ], [ 16.74777811846964, 48.345172005935432 ], [ 16.748205856898878, 48.344967055452337 ], [ 16.748790504980185, 48.344659271014848 ], [ 16.749506966374646, 48.344265502888355 ], [ 16.749529159242147, 48.344253867350801 ], [ 16.75015456475376, 48.343898780688562 ], [ 16.750608220154117, 48.343607974606527 ], [ 16.750657064418938, 48.343576558883761 ], [ 16.750076142124328, 48.343169073697453 ], [ 16.74973508422066, 48.342943539484395 ], [ 16.749690582121868, 48.342913871847188 ], [ 16.749625259553408, 48.342873650215644 ], [ 16.748644782928803, 48.342270700485969 ], [ 16.748593149623218, 48.342241421648779 ], [ 16.748528739906174, 48.342204774184943 ], [ 16.74847542987365, 48.342174644087635 ], [ 16.748429824270289, 48.34214869990759 ], [ 16.747761096477397, 48.341769079189014 ], [ 16.747715667878634, 48.341743759821199 ], [ 16.747712302359929, 48.341741877655195 ], [ 16.745664354118315, 48.340589270476542 ], [ 16.745432892163777, 48.340464596911914 ], [ 16.74512118759667, 48.340298605362129 ], [ 16.744931255524396, 48.34019747460038 ], [ 16.744414087038724, 48.339817537756488 ], [ 16.743702993042756, 48.339304349601207 ], [ 16.743450588875163, 48.339089167478257 ], [ 16.742702541632951, 48.338350881089781 ], [ 16.742434771830936, 48.33801297525909 ], [ 16.742301914594925, 48.33784525257817 ], [ 16.74224534741715, 48.337767585235781 ], [ 16.741536295093979, 48.336784148486686 ], [ 16.740890609748259, 48.335767970697439 ], [ 16.739856155955451, 48.334657098555709 ], [ 16.739822477036565, 48.334615225837311 ], [ 16.73981748656735, 48.334609159223923 ], [ 16.738821988750679, 48.333375408198854 ], [ 16.738755180502753, 48.333283542745974 ], [ 16.737847834178112, 48.332038382466514 ], [ 16.736765711477549, 48.33028853113445 ], [ 16.735916810939944, 48.328981953815671 ], [ 16.735816508803047, 48.328797336372823 ], [ 16.73525999193836, 48.327772581885945 ], [ 16.73525798615594, 48.327768768869277 ], [ 16.735230498455678, 48.327718250505541 ], [ 16.735419323201842, 48.324449945056337 ], [ 16.735427439159274, 48.324302225942766 ], [ 16.735581828185783, 48.321521126006033 ], [ 16.735540159835764, 48.321528016098647 ], [ 16.733877436494225, 48.321805200873442 ], [ 16.732440522130076, 48.32204479575929 ], [ 16.731518891478732, 48.322218281922851 ], [ 16.730833568038918, 48.322347319094185 ], [ 16.728926401667866, 48.322632195043127 ], [ 16.72885862067394, 48.322642365340521 ], [ 16.727926280843228, 48.322782550727553 ], [ 16.725459148509291, 48.323035524575204 ], [ 16.725367421486649, 48.32304494989404 ], [ 16.723068754060453, 48.323269014122907 ], [ 16.723008387120352, 48.323274913418459 ], [ 16.722984232655463, 48.323279218155996 ], [ 16.721955387874253, 48.323461420783545 ], [ 16.720306288490828, 48.323639150478122 ], [ 16.720250391109261, 48.323645278445163 ], [ 16.719923284723347, 48.323680634407118 ], [ 16.717114049624627, 48.323967869614989 ], [ 16.71703841337991, 48.323975650143296 ], [ 16.714305990300073, 48.324254911969312 ], [ 16.713100305451182, 48.324378153949311 ], [ 16.711622763922467, 48.324529169913887 ], [ 16.711605363036934, 48.324529404708549 ], [ 16.711497606452827, 48.324531180768972 ], [ 16.711479449897016, 48.324534318642073 ], [ 16.709479321008676, 48.324876490068149 ], [ 16.708618009971694, 48.325045070845469 ], [ 16.70748233386211, 48.325265174140384 ], [ 16.7056054631718, 48.325632877060364 ], [ 16.703312812300826, 48.326111803744134 ], [ 16.702693302315382, 48.326264246962701 ], [ 16.702653705389203, 48.326274036289995 ], [ 16.702641369406201, 48.326248372835856 ], [ 16.702591109338442, 48.32607146573514 ], [ 16.702565860180549, 48.325816223734911 ], [ 16.702567173687068, 48.325624768947804 ], [ 16.702568867521006, 48.325391436340652 ], [ 16.702536140729354, 48.325197635230353 ], [ 16.702513561989999, 48.325139044827402 ], [ 16.702466987204499, 48.325018753756531 ], [ 16.702447451605533, 48.324988256591702 ], [ 16.702431524394836, 48.324963417321349 ], [ 16.703094089502276, 48.32475291603604 ], [ 16.703230975607436, 48.324410418033935 ], [ 16.703268834763733, 48.32431586465556 ], [ 16.703222843516492, 48.323750237813563 ], [ 16.703304935998762, 48.323553293381131 ], [ 16.704184415437219, 48.322577230176243 ], [ 16.704510874717794, 48.322289295267844 ], [ 16.706060442885896, 48.321317220020909 ], [ 16.707556278229941, 48.320526212372137 ], [ 16.70856170375988, 48.319980797339632 ], [ 16.708580989628281, 48.319972224934226 ], [ 16.708753536935745, 48.319895913195872 ], [ 16.70946000134651, 48.319583618851645 ], [ 16.710523020486157, 48.31920155268957 ], [ 16.71056034912926, 48.319188134754299 ], [ 16.710596637124475, 48.31903663059002 ], [ 16.710604380878031, 48.319004262811845 ], [ 16.711574667068387, 48.318740573919349 ], [ 16.712789993793574, 48.318502266780996 ], [ 16.713956746432682, 48.318343059111285 ], [ 16.715209930001265, 48.318190692552989 ], [ 16.716131288692583, 48.317994833241464 ], [ 16.715655738349469, 48.317497150464312 ], [ 16.714705250919852, 48.316667880156317 ], [ 16.713910560820437, 48.315960490351635 ], [ 16.713244212781905, 48.315384694841718 ], [ 16.712968413567282, 48.315146451127369 ], [ 16.713005147110021, 48.315134310078761 ], [ 16.714443055765795, 48.31466982953954 ], [ 16.71460089400599, 48.31461878569749 ], [ 16.714892389615102, 48.314524692807133 ], [ 16.715033972311833, 48.314478982578713 ], [ 16.715148979140057, 48.314441787457973 ], [ 16.715157539941195, 48.314260744087257 ], [ 16.715165985704008, 48.314098611852785 ], [ 16.715184939037481, 48.313774917703121 ], [ 16.7168029660271, 48.312998055689654 ], [ 16.716955011434472, 48.312881179427691 ], [ 16.717638522095665, 48.312356108998571 ], [ 16.71786203364378, 48.312184481641772 ], [ 16.716946559487376, 48.311747674815052 ], [ 16.716501709511967, 48.31153533194334 ] ] ] } }
]
}
