{
"type": "FeatureCollection",
"name": "szazhalombatta",
"crs": { "type": "name", "properties": { "name": "urn:ogc:def:crs:OGC:1.3:CRS84" } },
"features": [
{ "type": "Feature", "properties": { "name": "Százhalombatta", "feature_type": "entity", "metric_roundness": 45.59, "metric_rectangularity": 59.83, "metric_mobile_fit": 70.02, "metric_aspect_ratio": 0.862, "metric_area_km2": 60.28 }, "geometry": { "type": "Polygon", "coordinates": [ [ [ 18.9179262, 47.2907046 ], [ 18.9390604, 47.321700399999983 ], [ 18.9514264, 47.3354399 ], [ 18.951521, 47.3413755 ], [ 18.9290091, 47.3393016 ], [ 18.9158991, 47.3345513 ], [ 18.9029135, 47.3478181 ], [ 18.8924687, 47.3320979 ], [ 18.8906821, 47.322287 ], [ 18.8678135, 47.3145955 ], [ 18.8578185, 47.305116 ], [ 18.8798457, 47.301323 ], [ 18.8743586, 47.286713499999983 ], [ 18.8811362, 47.278368699999987 ], [ 18.919185, 47.274141499999985 ], [ 18.9177715, 47.277353 ], [ 18.9165735, 47.280747499999983 ], [ 18.916012, 47.2836495 ], [ 18.9179262, 47.2907046 ] ] ] } },
{ "type": "Feature", "properties": { "name": "Százhalombatta", "feature_type": "circle", "metric_roundness": 45.59, "metric_rectangularity": 59.83, "metric_mobile_fit": 70.02, "metric_aspect_ratio": 0.862, "metric_area_km2": 60.28 }, "geometry": { "type": "Polygon", "coordinates": [ [ [ 18.97391192974283, 47.31024607385941 ], [ 18.973832040875052, 47.308177482614433 ], [ 18.973592593241538, 47.306114480606361 ], [ 18.973194243151621, 47.304062723373868 ], [ 18.972638082455198, 47.302027836285063 ], [ 18.971925635550082, 47.300015399100765 ], [ 18.971058855203722, 47.29803093065582 ], [ 18.970040117200799, 47.296079873700748 ], [ 18.968872213831364, 47.294167579945636 ], [ 18.967558346237375, 47.292299295347703 ], [ 18.966102115638577, 47.290480145683205 ], [ 18.964507513461822, 47.288715122443996 ], [ 18.962778910400836, 47.287009069097785 ], [ 18.960921044436457, 47.285366667750495 ], [ 18.958939007850155, 47.283792426247949 ], [ 18.956838233266449, 47.282290665752932 ], [ 18.95462447876244, 47.280865508832377 ], [ 18.952303812085351, 47.279520868088241 ], [ 18.949882594021233, 47.278260435363713 ], [ 18.947367460960514, 47.277087671555435 ], [ 18.944765306708074, 47.27600579706013 ], [ 18.942083263587858, 47.275017782882699 ], [ 18.939328682893628, 47.27412634243089 ], [ 18.936509114739586, 47.27333392401966 ], [ 18.933632287366081, 47.272642704106318 ], [ 18.930706085956956, 47.272054581275853 ], [ 18.927738531026886, 47.271571170993184 ], [ 18.924737756437661, 47.271193801137336 ], [ 18.921711987103851, 47.270923508330284 ], [ 18.918669516448873, 47.270761035070564 ], [ 18.915618683673319, 47.270706827680236 ], [ 18.912567850897769, 47.270761035070564 ], [ 18.909525380242787, 47.270923508330284 ], [ 18.906499610908973, 47.271193801137336 ], [ 18.903498836319752, 47.271571170993184 ], [ 18.900531281389682, 47.272054581275853 ], [ 18.897605079980558, 47.272642704106318 ], [ 18.894728252607049, 47.27333392401966 ], [ 18.891908684453014, 47.27412634243089 ], [ 18.889154103758781, 47.275017782882699 ], [ 18.88647206063856, 47.27600579706013 ], [ 18.883869906386128, 47.277087671555435 ], [ 18.881354773325402, 47.278260435363713 ], [ 18.878933555261288, 47.279520868088241 ], [ 18.876612888584201, 47.280865508832377 ], [ 18.874399134080189, 47.282290665752932 ], [ 18.872298359496479, 47.283792426247949 ], [ 18.870316322910178, 47.285366667750495 ], [ 18.868458456945802, 47.287009069097785 ], [ 18.866729853884816, 47.288715122443996 ], [ 18.865135251708065, 47.290480145683205 ], [ 18.863679021109263, 47.292299295347703 ], [ 18.86236515351527, 47.294167579945636 ], [ 18.861197250145839, 47.296079873700748 ], [ 18.860178512142912, 47.29803093065582 ], [ 18.859311731796552, 47.300015399100765 ], [ 18.858599284891437, 47.302027836285063 ], [ 18.858043124195017, 47.304062723373868 ], [ 18.857644774105097, 47.306114480606361 ], [ 18.857405326471586, 47.308177482614433 ], [ 18.857325437603805, 47.31024607385941 ], [ 18.857405326471586, 47.312314584144389 ], [ 18.857644774105097, 47.314377344159482 ], [ 18.858043124195017, 47.316428701017358 ], [ 18.858599284891437, 47.318463033736471 ], [ 18.859311731796552, 47.320474768629822 ], [ 18.860178512142912, 47.322458394556989 ], [ 18.861197250145839, 47.324408477998276 ], [ 18.86236515351527, 47.326319677909609 ], [ 18.863679021109263, 47.328186760318168 ], [ 18.865135251708065, 47.330004612619128 ], [ 18.866729853884816, 47.331768257534826 ], [ 18.868458456945802, 47.333472866698763 ], [ 18.870316322910178, 47.335113773827764 ], [ 18.872298359496479, 47.33668648744699 ], [ 18.874399134080189, 47.338186703133481 ], [ 18.876612888584201, 47.339610315245515 ], [ 18.878933555261288, 47.340953428106417 ], [ 18.881354773325402, 47.342212366612777 ], [ 18.883869906386128, 47.34338368623893 ], [ 18.88647206063856, 47.344464182410917 ], [ 18.889154103758781, 47.345450899225021 ], [ 18.891908684453014, 47.34634113748767 ], [ 18.894728252607049, 47.347132462055377 ], [ 18.897605079980558, 47.347822708455155 ], [ 18.900531281389682, 47.348409988768054 ], [ 18.903498836319752, 47.348892696759968 ], [ 18.906499610908973, 47.349269512246281 ], [ 18.909525380242787, 47.349539404678822 ], [ 18.912567850897769, 47.349701635945642 ], [ 18.915618683673319, 47.349755762376006 ], [ 18.918669516448873, 47.349701635945642 ], [ 18.921711987103851, 47.349539404678822 ], [ 18.924737756437661, 47.349269512246281 ], [ 18.927738531026886, 47.348892696759968 ], [ 18.930706085956956, 47.348409988768054 ], [ 18.933632287366081, 47.347822708455155 ], [ 18.936509114739586, 47.347132462055377 ], [ 18.939328682893628, 47.34634113748767 ], [ 18.942083263587858, 47.345450899225021 ], [ 18.944765306708074, 47.344464182410917 ], [ 18.947367460960514, 47.34338368623893 ], [ 18.949882594021233, 47.342212366612777 ], [ 18.952303812085351, 47.340953428106417 ], [ 18.95462447876244, 47.339610315245515 ], [ 18.956838233266449, 47.338186703133481 ], [ 18.958939007850155, 47.33668648744699 ], [ 18.960921044436457, 47.335113773827764 ], [ 18.962778910400836, 47.333472866698763 ], [ 18.964507513461822, 47.331768257534826 ], [ 18.966102115638577, 47.330004612619128 ], [ 18.967558346237375, 47.328186760318168 ], [ 18.968872213831364, 47.326319677909609 ], [ 18.970040117200799, 47.324408477998276 ], [ 18.971058855203722, 47.322458394556989 ], [ 18.971925635550082, 47.320474768629822 ], [ 18.972638082455198, 47.318463033736471 ], [ 18.973194243151621, 47.316428701017358 ], [ 18.973592593241538, 47.314377344159482 ], [ 18.973832040875052, 47.312314584144389 ], [ 18.97391192974283, 47.31024607385941 ] ] ] } },
{ "type": "Feature", "properties": { "name": "Százhalombatta", "feature_type": "mrr", "metric_roundness": 45.59, "metric_rectangularity": 59.83, "metric_mobile_fit": 70.02, "metric_aspect_ratio": 0.862, "metric_area_km2": 60.28 }, "geometry": { "type": "Polygon", "coordinates": [ [ [ 18.954208491634823, 47.34072597203167 ], [ 18.916862524974551, 47.269723190265097 ], [ 18.847972290283373, 47.286392862930079 ], [ 18.885318256943645, 47.357373266202494 ], [ 18.954208491634823, 47.34072597203167 ] ] ] } }
]
}
