{
"type": "FeatureCollection",
"name": "szigetszentmiklos",
"crs": { "type": "name", "properties": { "name": "urn:ogc:def:crs:OGC:1.3:CRS84" } },
"features": [
{ "type": "Feature", "properties": { "name": "Szigetszentmiklós", "metric_roundness": 49.1, "metric_rectangularity": 60.78, "metric_mobile_fit": 73.89, "metric_aspect_ratio": 0.824, "metric_area_km2": 99.84 }, "geometry": { "type": "Polygon", "coordinates": [ [ [ 19.1034901, 47.387088099999986 ], [ 19.0938256, 47.3915442 ], [ 19.0818358, 47.404509299999987 ], [ 19.0670079, 47.4008815 ], [ 19.061776, 47.397842199999985 ], [ 19.0627802, 47.3925288 ], [ 19.0542488, 47.392605599999989 ], [ 19.0439055, 47.385872299999988 ], [ 19.0144183, 47.3902371 ], [ 18.993688, 47.38668149999998 ], [ 18.9980355, 47.3830825 ], [ 18.9996585, 47.381511499999981 ], [ 19.004598, 47.375677499999988 ], [ 19.00135, 47.3730855 ], [ 18.9914485, 47.365134 ], [ 18.992726, 47.3588485 ], [ 18.995483, 47.350158 ], [ 18.9965685, 47.343042 ], [ 18.9992955, 47.3364365 ], [ 19.0196326, 47.3198272 ], [ 19.0336255, 47.31236 ], [ 19.038259, 47.317346499999985 ], [ 19.0458653, 47.326516599999977 ], [ 19.0507608, 47.339643799999983 ], [ 19.061828, 47.346124 ], [ 19.0856549, 47.363584 ], [ 19.0975555, 47.379026 ], [ 19.1034901, 47.387088099999986 ] ] ] } }
]
}
