{
"type": "FeatureCollection",
"name": "szikszo",
"crs": { "type": "name", "properties": { "name": "urn:ogc:def:crs:OGC:1.3:CRS84" } },
"features": [
{ "type": "Feature", "properties": { "name": "Szikszó", "feature_type": "entity", "metric_roundness": 57.41, "metric_rectangularity": 69.55, "metric_mobile_fit": 34.02, "metric_aspect_ratio": 1.222, "metric_area_km2": 82.49 }, "geometry": { "type": "Polygon", "coordinates": [ [ [ 20.9668962, 48.165328 ], [ 20.967954, 48.170963 ], [ 20.985206, 48.174975399999987 ], [ 20.9902675, 48.184342 ], [ 20.9816973, 48.188825699999981 ], [ 20.9744194, 48.1988147 ], [ 20.9612922, 48.207325499999989 ], [ 20.930703, 48.220235500000015 ], [ 20.8938603, 48.215826799999988 ], [ 20.8889148, 48.2189805 ], [ 20.882407, 48.218186 ], [ 20.8813886, 48.207845099999986 ], [ 20.8890482, 48.1956418 ], [ 20.8886835, 48.187828499999966 ], [ 20.894208, 48.1790515 ], [ 20.898774, 48.1674875 ], [ 20.957538, 48.1608515 ], [ 20.9668962, 48.165328 ] ] ] } },
{ "type": "Feature", "properties": { "name": "Szikszó", "feature_type": "circle", "metric_roundness": 57.41, "metric_rectangularity": 69.55, "metric_mobile_fit": 34.02, "metric_aspect_ratio": 1.222, "metric_area_km2": 82.49 }, "geometry": { "type": "Polygon", "coordinates": [ [ [ 20.994572170509329, 48.19658525541778 ], [ 20.994488893269779, 48.194465344064028 ], [ 20.994239289808259, 48.192351155888304 ], [ 20.993824044270511, 48.190248486809637 ], [ 20.993244294815678, 48.188163101878907 ], [ 20.992501630496733, 48.186100719457649 ], [ 20.99159808690494, 48.184066995517526 ], [ 20.990536140590489, 48.182067508103344 ], [ 20.989318702274407, 48.180107742003088 ], [ 20.987949108870492, 48.17819307366689 ], [ 20.986431114339073, 48.176328756417384 ], [ 20.984768879397642, 48.174519905992 ], [ 20.982966960116634, 48.172771486457854 ], [ 20.981030295431548, 48.171088296538379 ], [ 20.978964193605666, 48.169474956389983 ], [ 20.976774317680491, 48.167935894865579 ], [ 20.974466669953703, 48.166475337300945 ], [ 20.972047575527331, 48.165097293858103 ], [ 20.969523664971046, 48.163805548458264 ], [ 20.96690185614824, 48.16260364833601 ], [ 20.964189335254659, 48.161494894243575 ], [ 20.961393537121538, 48.160482331333377 ], [ 20.958522124837209, 48.159568740744177 ], [ 20.955582968743169, 48.158756631914919 ], [ 20.952584124861968, 48.158048235647932 ], [ 20.949533812816235, 48.15744549794104 ], [ 20.946440393299262, 48.156950074606335 ], [ 20.943312345158933, 48.15656332669051 ], [ 20.940158242157764, 48.156286316710123 ], [ 20.936986729472842, 48.156119805712315 ], [ 20.9338065, 48.156064251169212 ], [ 20.930626270527149, 48.156119805712315 ], [ 20.927454757842224, 48.156286316710123 ], [ 20.924300654841055, 48.15656332669051 ], [ 20.921172606700722, 48.156950074606335 ], [ 20.918079187183757, 48.15744549794104 ], [ 20.91502887513802, 48.158048235647932 ], [ 20.912030031256819, 48.158756631914919 ], [ 20.909090875162779, 48.159568740744177 ], [ 20.906219462878454, 48.160482331333377 ], [ 20.903423664745329, 48.161494894243575 ], [ 20.900711143851751, 48.16260364833601 ], [ 20.898089335028946, 48.163805548458264 ], [ 20.895565424472654, 48.165097293858103 ], [ 20.893146330046282, 48.166475337300945 ], [ 20.890838682319497, 48.167935894865579 ], [ 20.888648806394318, 48.169474956389983 ], [ 20.88658270456844, 48.171088296538379 ], [ 20.884646039883357, 48.172771486457854 ], [ 20.882844120602343, 48.174519905992 ], [ 20.881181885660919, 48.176328756417384 ], [ 20.8796638911295, 48.17819307366689 ], [ 20.878294297725585, 48.180107742003088 ], [ 20.877076859409502, 48.182067508103344 ], [ 20.876014913095048, 48.184066995517526 ], [ 20.875111369503259, 48.186100719457649 ], [ 20.87436870518431, 48.188163101878907 ], [ 20.873788955729477, 48.190248486809637 ], [ 20.873373710191728, 48.192351155888304 ], [ 20.873124106730209, 48.194465344064028 ], [ 20.873040829490662, 48.19658525541778 ], [ 20.873124106730209, 48.198705079060346 ], [ 20.873373710191728, 48.200819005063444 ], [ 20.873788955729477, 48.202921240380476 ], [ 20.87436870518431, 48.205006024712972 ], [ 20.875111369503259, 48.20706764627964 ], [ 20.876014913095048, 48.209100457444947 ], [ 20.877076859409502, 48.211098890164607 ], [ 20.878294297725585, 48.213057471206113 ], [ 20.8796638911295, 48.214970837103074 ], [ 20.881181885660919, 48.216833748802671 ], [ 20.882844120602343, 48.218641105966967 ], [ 20.884646039883357, 48.22038796088934 ], [ 20.88658270456844, 48.222069531988552 ], [ 20.888648806394318, 48.223681216844369 ], [ 20.890838682319497, 48.225218604739588 ], [ 20.893146330046282, 48.226677488675044 ], [ 20.895565424472654, 48.228053876825385 ], [ 20.898089335028946, 48.229344003405096 ], [ 20.900711143851751, 48.230544338915756 ], [ 20.903423664745329, 48.231651599747316 ], [ 20.906219462878454, 48.232662757107839 ], [ 20.909090875162779, 48.233575045258071 ], [ 20.912030031256819, 48.234385969028828 ], [ 20.91502887513802, 48.235093310601556 ], [ 20.918079187183757, 48.235695135533852 ], [ 20.921172606700722, 48.236189798014195 ], [ 20.924300654841055, 48.23657594533195 ], [ 20.927454757842224, 48.236852521550844 ], [ 20.930626270527149, 48.237018770376118 ], [ 20.9338065, 48.237074237208034 ], [ 20.936986729472842, 48.237018770376118 ], [ 20.940158242157764, 48.236852521550844 ], [ 20.943312345158933, 48.23657594533195 ], [ 20.946440393299262, 48.236189798014195 ], [ 20.949533812816235, 48.235695135533852 ], [ 20.952584124861968, 48.235093310601556 ], [ 20.955582968743169, 48.234385969028828 ], [ 20.958522124837209, 48.233575045258071 ], [ 20.961393537121538, 48.232662757107839 ], [ 20.964189335254659, 48.231651599747316 ], [ 20.96690185614824, 48.230544338915756 ], [ 20.969523664971046, 48.229344003405096 ], [ 20.972047575527331, 48.228053876825385 ], [ 20.974466669953703, 48.226677488675044 ], [ 20.976774317680491, 48.225218604739588 ], [ 20.978964193605666, 48.223681216844369 ], [ 20.981030295431548, 48.222069531988552 ], [ 20.982966960116634, 48.22038796088934 ], [ 20.984768879397642, 48.218641105966967 ], [ 20.986431114339073, 48.216833748802671 ], [ 20.987949108870492, 48.214970837103074 ], [ 20.989318702274407, 48.213057471206113 ], [ 20.990536140590489, 48.211098890164607 ], [ 20.99159808690494, 48.209100457444947 ], [ 20.992501630496733, 48.20706764627964 ], [ 20.993244294815678, 48.205006024712972 ], [ 20.993824044270511, 48.202921240380476 ], [ 20.994239289808259, 48.200819005063444 ], [ 20.994488893269779, 48.198705079060346 ], [ 20.994572170509329, 48.19658525541778 ] ] ] } },
{ "type": "Feature", "properties": { "name": "Szikszó", "feature_type": "mrr", "metric_roundness": 57.41, "metric_rectangularity": 69.55, "metric_mobile_fit": 34.02, "metric_aspect_ratio": 1.222, "metric_area_km2": 82.49 }, "geometry": { "type": "Polygon", "coordinates": [ [ [ 20.983558049936615, 48.157912878226064 ], [ 20.870345804044167, 48.170697482277788 ], [ 20.884259066316009, 48.225474237291984 ], [ 20.997471312208461, 48.212703293807849 ], [ 20.983558049936615, 48.157912878226064 ] ] ] } }
]
}
