{
"type": "FeatureCollection",
"name": "zoutleeuw",
"crs": { "type": "name", "properties": { "name": "urn:ogc:def:crs:OGC:1.3:CRS84" } },
"features": [
{ "type": "Feature", "properties": { "name": "Zoutleeuw", "metric_roundness": 40.88, "metric_rectangularity": 58.06, "metric_mobile_fit": 94.16, "metric_aspect_ratio": 0.621, "metric_area_km2": 117.99 }, "geometry": { "type": "Polygon", "coordinates": [ [ [ 5.1163417, 50.869008799999982 ], [ 5.1156603, 50.8784263 ], [ 5.0915841, 50.8695279 ], [ 5.0778808, 50.880129499999988 ], [ 5.06539, 50.884666499999987 ], [ 5.0446385, 50.8754177 ], [ 5.059505, 50.860794 ], [ 5.0733365, 50.846217599999989 ], [ 5.0668093, 50.8428612 ], [ 5.0661511, 50.8362853 ], [ 5.0752748, 50.824401 ], [ 5.0733313, 50.819224599999984 ], [ 5.0856236, 50.8146319 ], [ 5.083844, 50.809746 ], [ 5.0740474, 50.8036751 ], [ 5.0734811, 50.7946072 ], [ 5.077909, 50.793812 ], [ 5.090222, 50.790913499999981 ], [ 5.0876579, 50.7861749 ], [ 5.0910327, 50.7829163 ], [ 5.1067975, 50.779068 ], [ 5.116589, 50.7909522 ], [ 5.1327287, 50.793365399999985 ], [ 5.1484183, 50.8074624 ], [ 5.1384563, 50.811143399999985 ], [ 5.1320501, 50.8171513 ], [ 5.1365861, 50.825399899999987 ], [ 5.1362687, 50.834543 ], [ 5.1425061, 50.8434435 ], [ 5.1399411, 50.848818099999988 ], [ 5.1466729, 50.8533131 ], [ 5.148443, 50.858078 ], [ 5.1163417, 50.869008799999982 ] ], [ [ 5.0906069, 50.8208644 ], [ 5.0941354, 50.819676899999983 ], [ 5.0894929, 50.8158816 ], [ 5.0854554, 50.817072499999981 ], [ 5.0906069, 50.8208644 ] ] ] } }
]
}
