{
"type": "FeatureCollection",
"name": "tadim",
"crs": { "type": "name", "properties": { "name": "urn:ogc:def:crs:OGC:1.3:CRS84" } },
"features": [
{ "type": "Feature", "properties": { "name": "Tadim", "feature_type": "entity", "metric_roundness": 49.23, "metric_rectangularity": 56.23, "metric_mobile_fit": 63.5, "metric_aspect_ratio": 0.928, "metric_area_km2": 4.73 }, "geometry": { "type": "Polygon", "coordinates": [ [ [ -8.5067542, 41.512999 ], [ -8.5101, 41.507973499999984 ], [ -8.5035374, 41.5105676 ], [ -8.501218, 41.506422 ], [ -8.4941585, 41.501332 ], [ -8.4901646, 41.5050155 ], [ -8.4823225, 41.505494499999976 ], [ -8.4823812, 41.5111119 ], [ -8.4964569, 41.5151943 ], [ -8.493043, 41.52064 ], [ -8.4937625, 41.523757 ], [ -8.5090535, 41.516211 ], [ -8.5067542, 41.512999 ] ] ] } },
{ "type": "Feature", "properties": { "name": "Tadim", "feature_type": "circle", "metric_roundness": 49.23, "metric_rectangularity": 56.23, "metric_mobile_fit": 63.5, "metric_aspect_ratio": 0.928, "metric_area_km2": 4.73 }, "geometry": { "type": "Polygon", "coordinates": [ [ [ -8.479653467523089, 41.512054688425117 ], [ -8.479674998971346, 41.511438969176908 ], [ -8.479739534299911, 41.510824931740025 ], [ -8.479846896621936, 41.510214259220312 ], [ -8.47999679166476, 41.509608625547699 ], [ -8.480188808576488, 41.5090096908867 ], [ -8.480422421052113, 41.508419097084278 ], [ -8.480696988776076, 41.507838463167353 ], [ -8.481011759177331, 41.507269380902414 ], [ -8.481365869492089, 41.506713410429391 ], [ -8.48175834912859, 41.506172075981951 ], [ -8.482188122327431, 41.50564686170565 ], [ -8.482654011110148, 41.505139207585877 ], [ -8.483154738507968, 41.504650505496393 ], [ -8.483688932061906, 41.50418209537964 ], [ -8.484255127584555, 41.503735261569169 ], [ -8.484851773173345, 41.503311229264398 ], [ -8.485477233464193, 41.502911161167397 ], [ -8.486129794113911, 41.502536154290993 ], [ -8.486807666499121, 41.502187236946945 ], [ -8.487508992618734, 41.501865365922534 ], [ -8.488231850186601, 41.501571423853377 ], [ -8.488974257900377, 41.501306216799776 ], [ -8.489734180872123, 41.501070472032985 ], [ -8.490509536205792, 41.500864836038048 ], [ -8.491298198706312, 41.500689872738178 ], [ -8.492098006704584, 41.500546061945954 ], [ -8.492906767982484, 41.500433798045428 ], [ -8.493722265781562, 41.500353388908842 ], [ -8.494542264879037, 41.500305055051037 ], [ -8.495364517714378, 41.500288929023647 ], [ -8.49618677054972, 41.500305055051037 ], [ -8.497006769647195, 41.500353388908842 ], [ -8.497822267446272, 41.500433798045428 ], [ -8.498631028724173, 41.500546061945954 ], [ -8.499430836722444, 41.500689872738178 ], [ -8.500219499222965, 41.500864836038048 ], [ -8.500994854556634, 41.501070472032985 ], [ -8.501754777528379, 41.501306216799776 ], [ -8.502497185242156, 41.501571423853377 ], [ -8.503220042810023, 41.501865365922534 ], [ -8.503921368929634, 41.502187236946945 ], [ -8.504599241314844, 41.502536154290993 ], [ -8.505251801964564, 41.502911161167397 ], [ -8.50587726225541, 41.503311229264398 ], [ -8.506473907844201, 41.503735261569169 ], [ -8.507040103366851, 41.50418209537964 ], [ -8.507574296920787, 41.504650505496393 ], [ -8.508075024318609, 41.505139207585877 ], [ -8.508540913101326, 41.50564686170565 ], [ -8.508970686300167, 41.506172075981951 ], [ -8.509363165936668, 41.506713410429391 ], [ -8.509717276251425, 41.507269380902414 ], [ -8.510032046652681, 41.507838463167353 ], [ -8.510306614376644, 41.508419097084278 ], [ -8.510540226852269, 41.5090096908867 ], [ -8.510732243763997, 41.509608625547699 ], [ -8.510882138806819, 41.510214259220312 ], [ -8.510989501128845, 41.510824931740025 ], [ -8.511054036457411, 41.511438969176908 ], [ -8.511075567905667, 41.512054688425117 ], [ -8.511054036457411, 41.512670401816926 ], [ -8.510989501128845, 41.513284421748757 ], [ -8.510882138806819, 41.513895065306542 ], [ -8.510732243763997, 41.514500658877701 ], [ -8.510540226852269, 41.515099542737047 ], [ -8.510306614376644, 41.515690075594215 ], [ -8.510032046652681, 41.516270639090024 ], [ -8.509717276251425, 41.516839642229542 ], [ -8.509363165936668, 41.517395525739737 ], [ -8.508970686300167, 41.51793676633973 ], [ -8.508540913101326, 41.518461880912163 ], [ -8.508075024318609, 41.518969430564049 ], [ -8.507574296920787, 41.519458024566191 ], [ -8.507040103366851, 41.519926324160366 ], [ -8.506473907844201, 41.520373046223938 ], [ -8.50587726225541, 41.520796966781816 ], [ -8.505251801964564, 41.521196924356239 ], [ -8.504599241314844, 41.521571823145301 ], [ -8.503921368929634, 41.521920636021456 ], [ -8.503220042810023, 41.52224240734202 ], [ -8.502497185242156, 41.522536255563722 ], [ -8.501754777528379, 41.522801375654502 ], [ -8.500994854556634, 41.523037041295865 ], [ -8.500219499222965, 41.523242606869687 ], [ -8.499430836722444, 41.523417509224309 ], [ -8.498631028724173, 41.523561269214881 ], [ -8.497822267446272, 41.523673493013952 ], [ -8.497006769647195, 41.523753873188618 ], [ -8.49618677054972, 41.523802189541364 ], [ -8.495364517714378, 41.523818309712354 ], [ -8.494542264879037, 41.523802189541364 ], [ -8.493722265781562, 41.523753873188618 ], [ -8.492906767982484, 41.523673493013952 ], [ -8.492098006704584, 41.523561269214881 ], [ -8.491298198706312, 41.523417509224309 ], [ -8.490509536205792, 41.523242606869687 ], [ -8.489734180872123, 41.523037041295865 ], [ -8.488974257900377, 41.522801375654502 ], [ -8.488231850186601, 41.522536255563722 ], [ -8.487508992618734, 41.52224240734202 ], [ -8.486807666499121, 41.521920636021456 ], [ -8.486129794113911, 41.521571823145301 ], [ -8.485477233464193, 41.521196924356239 ], [ -8.484851773173345, 41.520796966781816 ], [ -8.484255127584555, 41.520373046223938 ], [ -8.483688932061906, 41.519926324160366 ], [ -8.483154738507968, 41.519458024566191 ], [ -8.482654011110148, 41.518969430564049 ], [ -8.482188122327431, 41.518461880912163 ], [ -8.48175834912859, 41.51793676633973 ], [ -8.481365869492089, 41.517395525739737 ], [ -8.481011759177331, 41.516839642229542 ], [ -8.480696988776076, 41.516270639090024 ], [ -8.480422421052113, 41.515690075594215 ], [ -8.480188808576488, 41.515099542737047 ], [ -8.47999679166476, 41.514500658877701 ], [ -8.479846896621936, 41.513895065306542 ], [ -8.479739534299911, 41.513284421748757 ], [ -8.479674998971346, 41.512670401816926 ], [ -8.479653467523089, 41.512054688425117 ] ] ] } },
{ "type": "Feature", "properties": { "name": "Tadim", "feature_type": "mrr", "metric_roundness": 49.23, "metric_rectangularity": 56.23, "metric_mobile_fit": 63.5, "metric_aspect_ratio": 0.928, "metric_area_km2": 4.73 }, "geometry": { "type": "Polygon", "coordinates": [ [ [ -8.514837824727735, 41.513356249472864 ], [ -8.493588149297851, 41.523843037812483 ], [ -8.478916636497344, 41.507175625960635 ], [ -8.500166311927229, 41.496686137119973 ], [ -8.514837824727735, 41.513356249472864 ] ] ] } }
]
}
