{
"type": "FeatureCollection",
"name": "taize",
"crs": { "type": "name", "properties": { "name": "urn:ogc:def:crs:OGC:1.3:CRS84" } },
"features": [
{ "type": "Feature", "properties": { "name": "Taizé", "feature_type": "entity", "metric_roundness": 50.1, "metric_rectangularity": 67.83, "metric_mobile_fit": -7.84, "metric_aspect_ratio": 1.641, "metric_area_km2": 6.45 }, "geometry": { "type": "Polygon", "coordinates": [ [ [ 4.682863, 46.5030395 ], [ 4.6841741, 46.5105199 ], [ 4.6916621, 46.5159911 ], [ 4.6621395, 46.5179468 ], [ 4.656245, 46.514933399999983 ], [ 4.6560122, 46.5147616 ], [ 4.6558462, 46.514526199999985 ], [ 4.6557634, 46.5142502 ], [ 4.6557725, 46.513962199999987 ], [ 4.6558724, 46.513691899999984 ], [ 4.6560529, 46.513467399999989 ], [ 4.656296, 46.5133105 ], [ 4.660223, 46.5116045 ], [ 4.6638245, 46.5028905 ], [ 4.682863, 46.5030395 ] ] ] } },
{ "type": "Feature", "properties": { "name": "Taizé", "feature_type": "circle", "metric_roundness": 50.1, "metric_rectangularity": 67.83, "metric_mobile_fit": -7.84, "metric_aspect_ratio": 1.641, "metric_area_km2": 6.45 }, "geometry": { "type": "Polygon", "coordinates": [ [ [ 4.692083900874126, 46.513311327019039 ], [ 4.69205897776681, 46.512656324762268 ], [ 4.69198427675737, 46.512003109959359 ], [ 4.691860002596077, 46.511353473123563 ], [ 4.691686495909773, 46.510709195024667 ], [ 4.691464232268221, 46.51007204180619 ], [ 4.691193820880615, 46.509443760142076 ], [ 4.690876002925772, 46.508826072446155 ], [ 4.690511649520615, 46.508220672147374 ], [ 4.690101759332502, 46.507629219043984 ], [ 4.689647455841947, 46.507053334749337 ], [ 4.68914998426324, 46.506494598241886 ], [ 4.688610708131399, 46.505954541531601 ], [ 4.688031105564816, 46.505434645454848 ], [ 4.687412765213839, 46.504936335609088 ], [ 4.686757381906391, 46.504460978438949 ], [ 4.686066752002561, 46.504009877484137 ], [ 4.68534276847091, 46.503584269799752 ], [ 4.684587415699976, 46.503185322558849 ], [ 4.6838027640592, 46.502814129846563 ], [ 4.682990964224188, 46.502471709654749 ], [ 4.682154241281861, 46.502159001085438 ], [ 4.681294888631643, 46.501876861770711 ], [ 4.680415261699417, 46.501626065516319 ], [ 4.679517771481462, 46.501407300175515 ], [ 4.678604877936079, 46.501221165758807 ], [ 4.677679083241024, 46.501068172785146 ], [ 4.676742924935206, 46.500948740878933 ], [ 4.675798968963466, 46.500863197616773 ], [ 4.674849802643512, 46.500811777627149 ], [ 4.67389802757425, 46.50079462194563 ], [ 4.672946252504988, 46.500811777627149 ], [ 4.671997086185034, 46.500863197616773 ], [ 4.671053130213295, 46.500948740878933 ], [ 4.670116971907476, 46.501068172785146 ], [ 4.669191177212421, 46.501221165758807 ], [ 4.668278283667039, 46.501407300175515 ], [ 4.667380793449083, 46.501626065516319 ], [ 4.666501166516857, 46.501876861770711 ], [ 4.66564181386664, 46.502159001085438 ], [ 4.664805090924312, 46.502471709654749 ], [ 4.663993291089301, 46.502814129846563 ], [ 4.663208639448523, 46.503185322558849 ], [ 4.662453286677589, 46.503584269799752 ], [ 4.661729303145939, 46.504009877484137 ], [ 4.661038673242109, 46.504460978438949 ], [ 4.66038328993466, 46.504936335609088 ], [ 4.659764949583684, 46.505434645454848 ], [ 4.659185347017101, 46.505954541531601 ], [ 4.65864607088526, 46.506494598241886 ], [ 4.658148599306553, 46.507053334749337 ], [ 4.657694295815998, 46.507629219043984 ], [ 4.657284405627885, 46.508220672147374 ], [ 4.656920052222729, 46.508826072446155 ], [ 4.656602234267885, 46.509443760142076 ], [ 4.65633182288028, 46.51007204180619 ], [ 4.656109559238728, 46.510709195024667 ], [ 4.655936052552422, 46.511353473123563 ], [ 4.65581177839113, 46.512003109959359 ], [ 4.65573707738169, 46.512656324762268 ], [ 4.655712154274375, 46.513311327019039 ], [ 4.65573707738169, 46.513966321381552 ], [ 4.65581177839113, 46.514619512588276 ], [ 4.655936052552422, 46.515269110384416 ], [ 4.656109559238728, 46.515913334427943 ], [ 4.65633182288028, 46.516550419167579 ], [ 4.656602234267885, 46.517178618679644 ], [ 4.656920052222729, 46.517796211450381 ], [ 4.657284405627885, 46.518401505090871 ], [ 4.657694295815998, 46.518992840971421 ], [ 4.658148599306553, 46.519568598763001 ], [ 4.65864607088526, 46.520127200873176 ], [ 4.659185347017101, 46.520667116764407 ], [ 4.659764949583684, 46.521186867143221 ], [ 4.66038328993466, 46.521685028008442 ], [ 4.661038673242109, 46.522160234547684 ], [ 4.661729303145939, 46.522611184871607 ], [ 4.662453286677589, 46.523036643575445 ], [ 4.663208639448523, 46.523435445118416 ], [ 4.663993291089301, 46.523806497011662 ], [ 4.664805090924312, 46.524148782806179 ], [ 4.66564181386664, 46.52446136487243 ], [ 4.666501166516857, 46.524743386964325 ], [ 4.667380793449083, 46.524994076560418 ], [ 4.668278283667039, 46.525212746976038 ], [ 4.669191177212421, 46.525398799240705 ], [ 4.670116971907476, 46.525551723735525 ], [ 4.671053130213295, 46.525671101586376 ], [ 4.671997086185034, 46.525756605808901 ], [ 4.672946252504988, 46.525808002202318 ], [ 4.67389802757425, 46.525825149989615 ], [ 4.674849802643512, 46.525808002202318 ], [ 4.675798968963466, 46.525756605808901 ], [ 4.676742924935206, 46.525671101586376 ], [ 4.677679083241024, 46.525551723735525 ], [ 4.678604877936079, 46.525398799240705 ], [ 4.679517771481462, 46.525212746976038 ], [ 4.680415261699417, 46.524994076560418 ], [ 4.681294888631643, 46.524743386964325 ], [ 4.682154241281861, 46.52446136487243 ], [ 4.682990964224188, 46.524148782806179 ], [ 4.6838027640592, 46.523806497011662 ], [ 4.684587415699976, 46.523435445118416 ], [ 4.68534276847091, 46.523036643575445 ], [ 4.686066752002561, 46.522611184871607 ], [ 4.686757381906391, 46.522160234547684 ], [ 4.687412765213839, 46.521685028008442 ], [ 4.688031105564816, 46.521186867143221 ], [ 4.688610708131399, 46.520667116764407 ], [ 4.68914998426324, 46.520127200873176 ], [ 4.689647455841947, 46.519568598763001 ], [ 4.690101759332502, 46.518992840971421 ], [ 4.690511649520615, 46.518401505090871 ], [ 4.690876002925772, 46.517796211450381 ], [ 4.691193820880615, 46.517178618679644 ], [ 4.691464232268221, 46.516550419167579 ], [ 4.691686495909773, 46.515913334427943 ], [ 4.691860002596077, 46.515269110384416 ], [ 4.69198427675737, 46.514619512588276 ], [ 4.69205897776681, 46.513966321381552 ], [ 4.692083900874126, 46.513311327019039 ] ] ] } },
{ "type": "Feature", "properties": { "name": "Taizé", "feature_type": "mrr", "metric_roundness": 50.1, "metric_rectangularity": 67.83, "metric_mobile_fit": -7.84, "metric_aspect_ratio": 1.641, "metric_area_km2": 6.45 }, "geometry": { "type": "Polygon", "coordinates": [ [ [ 4.656334315231667, 46.518331352000779 ], [ 4.6916621, 46.5159911 ], [ 4.689590899498136, 46.501183158053976 ], [ 4.654263114776334, 46.503524047035569 ], [ 4.656334315231667, 46.518331352000779 ] ] ] } }
]
}
