{
"type": "FeatureCollection",
"name": "tannenberg",
"crs": { "type": "name", "properties": { "name": "urn:ogc:def:crs:OGC:1.3:CRS84" } },
"features": [
{ "type": "Feature", "properties": { "name": "Tannenberg", "feature_type": "entity", "metric_roundness": 36.37, "metric_rectangularity": 53.82, "metric_mobile_fit": 8.03, "metric_aspect_ratio": 1.482, "metric_area_km2": 19.3 }, "geometry": { "type": "Polygon", "coordinates": [ [ [ 12.980789, 50.603427 ], [ 12.9628818, 50.612138699999988 ], [ 12.9605055, 50.6201773 ], [ 12.947921, 50.624105 ], [ 12.944617, 50.627236 ], [ 12.939058, 50.6205154 ], [ 12.90712, 50.6067775 ], [ 12.9177523, 50.6033547 ], [ 12.9317533, 50.6054001 ], [ 12.9479643, 50.6027327 ], [ 12.9496519, 50.601202899999976 ], [ 12.9468935, 50.597173 ], [ 12.9516896, 50.5988379 ], [ 12.9672368, 50.595697 ], [ 12.9798405, 50.601809 ], [ 12.980789, 50.603427 ] ] ] } },
{ "type": "Feature", "properties": { "name": "Tannenberg", "feature_type": "circle", "metric_roundness": 36.37, "metric_rectangularity": 53.82, "metric_mobile_fit": 8.03, "metric_aspect_ratio": 1.482, "metric_area_km2": 19.3 }, "geometry": { "type": "Polygon", "coordinates": [ [ [ 12.980883456840326, 50.605102279821239 ], [ 12.980832846988427, 50.603875645383837 ], [ 12.980681156150816, 50.602652341221841 ], [ 12.980428800101532, 50.601435720719294 ], [ 12.980076470530967, 50.600229119197706 ], [ 12.979625133149986, 50.599035844767116 ], [ 12.979076025042975, 50.597859169248906 ], [ 12.978430651277089, 50.596702319195579 ], [ 12.97769078077696, 50.59556846703191 ], [ 12.976858441476201, 50.594460722342333 ], [ 12.975935914758983, 50.593382123328325 ], [ 12.974925729206909, 50.592335628459544 ], [ 12.973830653668362, 50.591324108341773 ], [ 12.972653689669277, 50.590350337824354 ], [ 12.971398063186166, 50.589416988368789 ], [ 12.97006721580394, 50.588526620699923 ], [ 12.968664795282766, 50.587681677760003 ], [ 12.967194645559816, 50.586884477985294 ], [ 12.965660796213289, 50.586137208923901 ], [ 12.964067451417625, 50.585441921212741 ], [ 12.962418978420164, 50.584800522930301 ], [ 12.960719895570799, 50.584214774341035 ], [ 12.958974859937525, 50.583686283046134 ], [ 12.957188654541714, 50.583216499554098 ], [ 12.955366175248198, 50.582806713283645 ], [ 12.953512417346046, 50.58245804901005 ], [ 12.951632461856807, 50.582171463764887 ], [ 12.94973146160781, 50.581947744197912 ], [ 12.947814627108595, 50.581787504408418 ], [ 12.945887212269291, 50.581691184252172 ], [ 12.9439545, 50.581659048128671 ], [ 12.942021787730706, 50.581691184252172 ], [ 12.940094372891403, 50.581787504408418 ], [ 12.938177538392187, 50.581947744197912 ], [ 12.93627653814319, 50.582171463764887 ], [ 12.934396582653951, 50.58245804901005 ], [ 12.932542824751797, 50.582806713283645 ], [ 12.930720345458283, 50.583216499554098 ], [ 12.928934140062472, 50.583686283046134 ], [ 12.927189104429198, 50.584214774341035 ], [ 12.925490021579835, 50.584800522930301 ], [ 12.923841548582372, 50.585441921212741 ], [ 12.922248203786708, 50.586137208923901 ], [ 12.920714354440181, 50.586884477985294 ], [ 12.919244204717229, 50.587681677760003 ], [ 12.917841784196057, 50.588526620699923 ], [ 12.916510936813831, 50.589416988368789 ], [ 12.915255310330719, 50.590350337824354 ], [ 12.914078346331634, 50.591324108341773 ], [ 12.912983270793088, 50.592335628459544 ], [ 12.911973085241016, 50.593382123328325 ], [ 12.911050558523796, 50.594460722342333 ], [ 12.910218219223038, 50.59556846703191 ], [ 12.909478348722908, 50.596702319195579 ], [ 12.908832974957022, 50.597859169248906 ], [ 12.908283866850011, 50.599035844767116 ], [ 12.907832529469029, 50.600229119197706 ], [ 12.907480199898465, 50.601435720719294 ], [ 12.907227843849183, 50.602652341221841 ], [ 12.907076153011568, 50.603875645383837 ], [ 12.907025543159671, 50.605102279821239 ], [ 12.907076153011568, 50.606328882283293 ], [ 12.907227843849183, 50.607552090869476 ], [ 12.907480199898465, 50.608768553242967 ], [ 12.907832529469029, 50.609974935814733 ], [ 12.908283866850011, 50.611167932873599 ], [ 12.908832974957022, 50.612344275637085 ], [ 12.909478348722908, 50.613500741198472 ], [ 12.910218219223038, 50.614634161345542 ], [ 12.911050558523796, 50.615741431227107 ], [ 12.911973085241016, 50.616819517843794 ], [ 12.912983270793088, 50.617865468339907 ], [ 12.914078346331634, 50.618876418073889 ], [ 12.915255310330719, 50.619849598445668 ], [ 12.916510936813831, 50.620782344459478 ], [ 12.917841784196057, 50.621672102001916 ], [ 12.919244204717229, 50.62251643481541 ], [ 12.920714354440181, 50.623313031148392 ], [ 12.922248203786708, 50.624059710064145 ], [ 12.923841548582372, 50.624754427391537 ], [ 12.925490021579835, 50.62539528130133 ], [ 12.927189104429198, 50.625980517493318 ], [ 12.928934140062472, 50.626508533980243 ], [ 12.930720345458283, 50.626977885455695 ], [ 12.932542824751797, 50.627387287234228 ], [ 12.934396582653951, 50.627735618753142 ], [ 12.93627653814319, 50.628021926626595 ], [ 12.938177538392187, 50.628245427243762 ], [ 12.940094372891403, 50.628405508904208 ], [ 12.942021787730706, 50.62850173348469 ], [ 12.9439545, 50.628533837632816 ], [ 12.945887212269291, 50.62850173348469 ], [ 12.947814627108595, 50.628405508904208 ], [ 12.94973146160781, 50.628245427243762 ], [ 12.951632461856807, 50.628021926626595 ], [ 12.953512417346042, 50.627735618753142 ], [ 12.955366175248198, 50.627387287234228 ], [ 12.957188654541714, 50.626977885455695 ], [ 12.958974859937525, 50.626508533980243 ], [ 12.960719895570799, 50.625980517493318 ], [ 12.962418978420164, 50.62539528130133 ], [ 12.964067451417625, 50.624754427391537 ], [ 12.965660796213289, 50.624059710064145 ], [ 12.967194645559816, 50.623313031148392 ], [ 12.968664795282766, 50.62251643481541 ], [ 12.97006721580394, 50.621672102001916 ], [ 12.971398063186166, 50.620782344459478 ], [ 12.972653689669277, 50.619849598445668 ], [ 12.973830653668362, 50.618876418073889 ], [ 12.974925729206909, 50.617865468339907 ], [ 12.975935914758983, 50.616819517843794 ], [ 12.976858441476201, 50.615741431227107 ], [ 12.97769078077696, 50.614634161345542 ], [ 12.978430651277089, 50.613500741198472 ], [ 12.979076025042975, 50.612344275637085 ], [ 12.979625133149986, 50.611167932873599 ], [ 12.980076470530967, 50.609974935814733 ], [ 12.980428800101532, 50.608768553242967 ], [ 12.980681156150816, 50.607552090869476 ], [ 12.980832846988427, 50.606328882283293 ], [ 12.980883456840326, 50.605102279821239 ] ] ] } },
{ "type": "Feature", "properties": { "name": "Tannenberg", "feature_type": "mrr", "metric_roundness": 36.37, "metric_rectangularity": 53.82, "metric_mobile_fit": 8.03, "metric_aspect_ratio": 1.482, "metric_area_km2": 19.3 }, "geometry": { "type": "Polygon", "coordinates": [ [ [ 12.90712, 50.6067775 ], [ 12.948250979974587, 50.629218237152386 ], [ 12.983034144849121, 50.603551992391161 ], [ 12.941903177594373, 50.581099012891514 ], [ 12.90712, 50.6067775 ] ] ] } }
]
}
