{
"type": "FeatureCollection",
"name": "rabke",
"crs": { "type": "name", "properties": { "name": "urn:ogc:def:crs:OGC:1.3:CRS84" } },
"features": [
{ "type": "Feature", "properties": { "name": "Räbke", "metric_roundness": 36.31, "metric_rectangularity": 44.93, "metric_mobile_fit": 18.88, "metric_aspect_ratio": 1.374, "metric_area_km2": 30.26 }, "geometry": { "type": "Polygon", "coordinates": [ [ [ 10.8774649, 52.2172127 ], [ 10.8646653, 52.206621 ], [ 10.8514483, 52.2029713 ], [ 10.8233804, 52.202494599999987 ], [ 10.8136845, 52.2063455 ], [ 10.8184783, 52.19515209999998 ], [ 10.8285805, 52.191231 ], [ 10.829993, 52.199206 ], [ 10.8363989, 52.1995983 ], [ 10.8510899, 52.1953711 ], [ 10.8564733, 52.186793599999987 ], [ 10.8688885, 52.180887 ], [ 10.87472, 52.180104499999985 ], [ 10.8809195, 52.179626 ], [ 10.8851665, 52.180071 ], [ 10.8911625, 52.183146 ], [ 10.8956136, 52.194220899999976 ], [ 10.9053775, 52.198614 ], [ 10.8997129, 52.198690699999979 ], [ 10.8859674, 52.208785299999988 ], [ 10.8884601, 52.2124752 ], [ 10.8993183, 52.21457179999998 ], [ 10.898877, 52.216687 ], [ 10.890674, 52.219745499999981 ], [ 10.887503, 52.220538 ], [ 10.8774649, 52.2172127 ] ] ] } }
]
}
