{
"type": "FeatureCollection",
"name": "rajka",
"crs": { "type": "name", "properties": { "name": "urn:ogc:def:crs:OGC:1.3:CRS84" } },
"features": [
{ "type": "Feature", "properties": { "name": "Rajka", "feature_type": "entity", "metric_roundness": 33.62, "metric_rectangularity": 67.44, "metric_mobile_fit": -11.35, "metric_aspect_ratio": 1.676, "metric_area_km2": 116.89 }, "geometry": { "type": "Polygon", "coordinates": [ [ [ 17.0946615, 47.9708715 ], [ 17.11689, 47.9609515 ], [ 17.1357332, 47.9482318 ], [ 17.1581141, 47.9647408 ], [ 17.1801535, 47.955461499999984 ], [ 17.2153788, 47.976085099999985 ], [ 17.2343764, 47.9831917 ], [ 17.244415, 47.9838525 ], [ 17.2783755, 47.9891273 ], [ 17.28055, 47.993935 ], [ 17.2519056, 48.001441 ], [ 17.2483052, 48.0050479 ], [ 17.2474275, 48.012009 ], [ 17.241788, 48.022465499999988 ], [ 17.2266763, 48.016433799999973 ], [ 17.203348, 48.019642599999976 ], [ 17.192844, 48.017862599999987 ], [ 17.1607975, 48.0066565 ], [ 17.0946615, 47.9708715 ] ] ] } },
{ "type": "Feature", "properties": { "name": "Rajka", "feature_type": "circle", "metric_roundness": 33.62, "metric_rectangularity": 67.44, "metric_mobile_fit": -11.35, "metric_aspect_ratio": 1.676, "metric_area_km2": 116.89 }, "geometry": { "type": "Polygon", "coordinates": [ [ [ 17.282133203580791, 47.98240453804835 ], [ 17.28200365699092, 47.979092990269777 ], [ 17.281615372299502, 47.975790307658357 ], [ 17.280969413767892, 47.972505545243202 ], [ 17.280067551923526, 47.969247710642563 ], [ 17.278912258707024, 47.966025739327307 ], [ 17.277506700696797, 47.962848470064003 ], [ 17.27585473042965, 47.959724620605662 ], [ 17.273960875841254, 47.956662763697466 ], [ 17.271830327855398, 47.95367130346456 ], [ 17.269468926156019, 47.950758452247804 ], [ 17.266883143181037, 47.947932207952391 ], [ 17.264080066381847, 47.945200331972892 ], [ 17.261067378797122, 47.942570327757103 ], [ 17.257853337994117, 47.940049420069059 ], [ 17.254446753435271, 47.937644535009973 ], [ 17.250856962332072, 47.935362280853838 ], [ 17.247093804052408, 47.933208929752148 ], [ 17.243167593151551, 47.931190400359895 ], [ 17.23908909110067, 47.929312241432491 ], [ 17.234869476790394, 47.927579616440504 ], [ 17.230520315890249, 47.925997289246361 ], [ 17.226053529147958, 47.924569610884085 ], [ 17.221481359715487, 47.923300507480192 ], [ 17.216816339591457, 47.922193469350397 ], [ 17.212071255271756, 47.921251541303725 ], [ 17.20725911270268, 47.920477314181852 ], [ 17.202393101632527, 47.919872917658232 ], [ 17.197486559459406, 47.919440014317928 ], [ 17.192552934674364, 47.919179795035006 ], [ 17.18760575, 47.919092975661144 ], [ 17.182658565325642, 47.919179795035006 ], [ 17.1777249405406, 47.919440014317928 ], [ 17.172818398367475, 47.919872917658232 ], [ 17.167952387297323, 47.920477314181852 ], [ 17.163140244728247, 47.921251541303725 ], [ 17.158395160408549, 47.922193469350397 ], [ 17.153730140284516, 47.923300507480192 ], [ 17.149157970852052, 47.924569610884085 ], [ 17.144691184109753, 47.925997289246361 ], [ 17.140342023209609, 47.927579616440504 ], [ 17.136122408899332, 47.929312241432491 ], [ 17.132043906848452, 47.931190400359895 ], [ 17.128117695947594, 47.933208929752148 ], [ 17.12435453766793, 47.935362280853838 ], [ 17.120764746564731, 47.937644535009973 ], [ 17.117358162005885, 47.940049420069059 ], [ 17.114144121202884, 47.942570327757103 ], [ 17.111131433618155, 47.945200331972892 ], [ 17.108328356818966, 47.947932207952391 ], [ 17.105742573843987, 47.950758452247804 ], [ 17.103381172144609, 47.95367130346456 ], [ 17.101250624158752, 47.956662763697466 ], [ 17.099356769570356, 47.959724620605662 ], [ 17.097704799303205, 47.962848470064003 ], [ 17.096299241292975, 47.966025739327307 ], [ 17.09514394807648, 47.969247710642563 ], [ 17.094242086232111, 47.972505545243202 ], [ 17.093596127700501, 47.975790307658357 ], [ 17.093207843009086, 47.979092990269777 ], [ 17.093078296419215, 47.98240453804835 ], [ 17.093207843009086, 47.985715873401766 ], [ 17.093596127700501, 47.989017921065141 ], [ 17.094242086232111, 47.992301632965962 ], [ 17.09514394807648, 47.995558012995666 ], [ 17.096299241292975, 47.998778141619979 ], [ 17.097704799303205, 48.001953200261255 ], [ 17.099356769570356, 48.005074495386545 ], [ 17.101250624158752, 48.008133482236516 ], [ 17.103381172144609, 48.011121788130986 ], [ 17.105742573843987, 48.014031235288719 ], [ 17.108328356818966, 48.016853863100131 ], [ 17.111131433618155, 48.019581949793626 ], [ 17.114144121202884, 48.022208033437622 ], [ 17.117358162005885, 48.024724932222725 ], [ 17.120764746564731, 48.027125763970105 ], [ 17.12435453766793, 48.029403964814684 ], [ 17.128117695947594, 48.031553307013908 ], [ 17.132043906848452, 48.03356791583515 ], [ 17.136122408899332, 48.035442285477586 ], [ 17.140342023209609, 48.037171293986823 ], [ 17.144691184109753, 48.038750217123365 ], [ 17.149157970852048, 48.040174741148725 ], [ 17.153730140284516, 48.041440974495941 ], [ 17.158395160408549, 48.0425454582942 ], [ 17.163140244728247, 48.043485175720264 ], [ 17.167952387297323, 48.044257560152452 ], [ 17.172818398367475, 48.044860502106175 ], [ 17.1777249405406, 48.045292354932926 ], [ 17.182658565325642, 48.045551939268286 ], [ 17.18760575, 48.045638546217155 ], [ 17.192552934674364, 48.045551939268286 ], [ 17.197486559459403, 48.045292354932926 ], [ 17.202393101632527, 48.044860502106175 ], [ 17.20725911270268, 48.044257560152452 ], [ 17.212071255271756, 48.043485175720264 ], [ 17.216816339591457, 48.0425454582942 ], [ 17.221481359715487, 48.041440974495941 ], [ 17.226053529147954, 48.040174741148725 ], [ 17.230520315890249, 48.038750217123365 ], [ 17.234869476790394, 48.037171293986823 ], [ 17.23908909110067, 48.035442285477586 ], [ 17.243167593151551, 48.03356791583515 ], [ 17.247093804052408, 48.031553307013908 ], [ 17.250856962332072, 48.029403964814684 ], [ 17.254446753435271, 48.027125763970105 ], [ 17.257853337994117, 48.024724932222725 ], [ 17.261067378797122, 48.022208033437622 ], [ 17.264080066381847, 48.019581949793626 ], [ 17.266883143181037, 48.016853863100131 ], [ 17.269468926156019, 48.014031235288719 ], [ 17.271830327855398, 48.011121788130986 ], [ 17.273960875841254, 48.008133482236516 ], [ 17.27585473042965, 48.005074495386545 ], [ 17.277506700696797, 48.001953200261255 ], [ 17.278912258707024, 47.998778141619979 ], [ 17.280067551923526, 47.995558012995666 ], [ 17.280969413767892, 47.992301632965962 ], [ 17.281615372299502, 47.989017921065141 ], [ 17.28200365699092, 47.985715873401766 ], [ 17.282133203580791, 47.98240453804835 ] ] ] } },
{ "type": "Feature", "properties": { "name": "Rajka", "feature_type": "mrr", "metric_roundness": 33.62, "metric_rectangularity": 67.44, "metric_mobile_fit": -11.35, "metric_aspect_ratio": 1.676, "metric_area_km2": 116.89 }, "geometry": { "type": "Polygon", "coordinates": [ [ [ 17.283012479907175, 47.990716088647183 ], [ 17.121750981104636, 47.935433503126816 ], [ 17.086567402600895, 47.981455373459248 ], [ 17.24782890140343, 48.036688714853724 ], [ 17.283012479907175, 47.990716088647183 ] ] ] } }
]
}
