{
"type": "FeatureCollection",
"name": "rans",
"crs": { "type": "name", "properties": { "name": "urn:ogc:def:crs:OGC:1.3:CRS84" } },
"features": [
{ "type": "Feature", "properties": { "name": "Rans", "feature_type": "entity", "metric_roundness": 40.6, "metric_rectangularity": 58.58, "metric_mobile_fit": 0.9, "metric_aspect_ratio": 1.553, "metric_area_km2": 13.4 }, "geometry": { "type": "Polygon", "coordinates": [ [ [ 5.7330609, 47.142285899999983 ], [ 5.7271038, 47.14661229999998 ], [ 5.7176623, 47.1404138 ], [ 5.7095443, 47.1394253 ], [ 5.7057655, 47.142158299999984 ], [ 5.711907, 47.145410399999975 ], [ 5.711801, 47.1493271 ], [ 5.699629, 47.148915 ], [ 5.6881045, 47.146145 ], [ 5.6853605, 47.144469 ], [ 5.688257, 47.1411875 ], [ 5.6925935, 47.131585 ], [ 5.695031, 47.132340499999984 ], [ 5.711951, 47.1351173 ], [ 5.7187027, 47.1271554 ], [ 5.7258924, 47.1243696 ], [ 5.729439, 47.126746 ], [ 5.7423561, 47.1362793 ], [ 5.7423205, 47.143653499999978 ], [ 5.7330609, 47.142285899999983 ] ] ] } },
{ "type": "Feature", "properties": { "name": "Rans", "feature_type": "circle", "metric_roundness": 40.6, "metric_rectangularity": 58.58, "metric_mobile_fit": 0.9, "metric_aspect_ratio": 1.553, "metric_area_km2": 13.4 }, "geometry": { "type": "Polygon", "coordinates": [ [ [ 5.74298501178205, 47.14037430768888 ], [ 5.742945094635838, 47.139337411305931 ], [ 5.742825452607329, 47.138303336845226 ], [ 5.742626413627006, 47.137274918881182 ], [ 5.742348523246878, 47.136254976646718 ], [ 5.741992543145161, 47.135246306301312 ], [ 5.74155944903857, 47.134251673260749 ], [ 5.741050428007948, 47.133273804609452 ], [ 5.740466875244557, 47.132315381616188 ], [ 5.739810390225961, 47.131379032374014 ], [ 5.739082772331964, 47.130467324584529 ], [ 5.738286015912634, 47.129582758506459 ], [ 5.73742230482194, 47.128727760088097 ], [ 5.736494006431941, 47.1279046743024 ], [ 5.735503665144002, 47.127115758703326 ], [ 5.734453995414754, 47.126363177221315 ], [ 5.733347874315963, 47.125648994214892 ], [ 5.732188333648676, 47.124975168794997 ], [ 5.730978551633263, 47.124343549437917 ], [ 5.729721844198136, 47.123755868901476 ], [ 5.728421655891024, 47.123213739458954 ], [ 5.727081550437702, 47.122718648463639 ], [ 5.725705200974067, 47.122271954256661 ], [ 5.72429637997833, 47.121874882429282 ], [ 5.722858948930914, 47.121528522450078 ], [ 5.721396847730406, 47.121233824666547 ], [ 5.719914083894566, 47.120991597689247 ], [ 5.718414721576006, 47.1208025061661 ], [ 5.716902870422617, 47.120667068952585 ], [ 5.715382674313325, 47.120585657683527 ], [ 5.7138583, 47.120558495749826 ], [ 5.712333925686673, 47.120585657683527 ], [ 5.710813729577382, 47.120667068952585 ], [ 5.709301878423992, 47.1208025061661 ], [ 5.707802516105432, 47.120991597689247 ], [ 5.706319752269592, 47.121233824666547 ], [ 5.704857651069084, 47.121528522450078 ], [ 5.703420220021669, 47.121874882429282 ], [ 5.702011399025931, 47.122271954256661 ], [ 5.700635049562296, 47.122718648463639 ], [ 5.699294944108974, 47.123213739458954 ], [ 5.697994755801862, 47.123755868901476 ], [ 5.696738048366735, 47.124343549437917 ], [ 5.695528266351323, 47.124975168794997 ], [ 5.694368725684035, 47.125648994214892 ], [ 5.693262604585245, 47.126363177221315 ], [ 5.692212934855997, 47.127115758703326 ], [ 5.691222593568057, 47.1279046743024 ], [ 5.690294295178059, 47.128727760088097 ], [ 5.689430584087363, 47.129582758506459 ], [ 5.688633827668035, 47.130467324584529 ], [ 5.687906209774037, 47.131379032374014 ], [ 5.68724972475544, 47.132315381616188 ], [ 5.686666171992051, 47.133273804609452 ], [ 5.686157150961428, 47.134251673260749 ], [ 5.685724056854838, 47.135246306301312 ], [ 5.685368076753121, 47.136254976646718 ], [ 5.685090186372992, 47.137274918881182 ], [ 5.684891147392668, 47.138303336845226 ], [ 5.684771505364159, 47.139337411305931 ], [ 5.684731588217948, 47.14037430768888 ], [ 5.684771505364159, 47.141411183850153 ], [ 5.684891147392668, 47.142445197867353 ], [ 5.685090186372992, 47.143473515828298 ], [ 5.685368076753121, 47.144493319595753 ], [ 5.685724056854838, 47.145501814527279 ], [ 5.686157150961428, 47.146496237128972 ], [ 5.686666171992051, 47.147473862622014 ], [ 5.68724972475544, 47.148432012401763 ], [ 5.687906209774037, 47.149368061368513 ], [ 5.688633827668035, 47.150279445110563 ], [ 5.689430584087363, 47.151163666919501 ], [ 5.690294295178059, 47.152018304618949 ], [ 5.691222593568057, 47.152841017188045 ], [ 5.692212934855997, 47.15362955116187 ], [ 5.693262604585245, 47.154381746791138 ], [ 5.694368725684035, 47.155095543944832 ], [ 5.695528266351323, 47.155768987739457 ], [ 5.696738048366735, 47.15640023387995 ], [ 5.697994755801862, 47.156987553697469 ], [ 5.699294944108974, 47.157529338870894 ], [ 5.700635049562296, 47.158024105818789 ], [ 5.702011399025931, 47.158470499750351 ], [ 5.703420220021669, 47.158867298364228 ], [ 5.704857651069084, 47.159213415185206 ], [ 5.706319752269592, 47.159507902529889 ], [ 5.707802516105432, 47.159749954093307 ], [ 5.709301878423992, 47.159938907149453 ], [ 5.710813729577382, 47.160074244359876 ], [ 5.712333925686673, 47.160155595185429 ], [ 5.7138583, 47.160182736897454 ], [ 5.715382674313325, 47.160155595185429 ], [ 5.716902870422617, 47.160074244359876 ], [ 5.718414721576006, 47.159938907149453 ], [ 5.719914083894566, 47.159749954093307 ], [ 5.721396847730406, 47.159507902529889 ], [ 5.722858948930914, 47.159213415185206 ], [ 5.72429637997833, 47.158867298364228 ], [ 5.725705200974067, 47.158470499750351 ], [ 5.727081550437702, 47.158024105818789 ], [ 5.728421655891024, 47.157529338870894 ], [ 5.729721844198136, 47.156987553697469 ], [ 5.730978551633263, 47.15640023387995 ], [ 5.732188333648676, 47.155768987739457 ], [ 5.733347874315963, 47.155095543944832 ], [ 5.734453995414754, 47.154381746791138 ], [ 5.735503665144002, 47.15362955116187 ], [ 5.736494006431941, 47.152841017188045 ], [ 5.73742230482194, 47.152018304618949 ], [ 5.738286015912634, 47.151163666919501 ], [ 5.739082772331963, 47.150279445110563 ], [ 5.739810390225961, 47.149368061368513 ], [ 5.740466875244557, 47.148432012401763 ], [ 5.741050428007948, 47.147473862622014 ], [ 5.74155944903857, 47.146496237128972 ], [ 5.741992543145161, 47.145501814527279 ], [ 5.742348523246878, 47.144493319595753 ], [ 5.742626413627006, 47.143473515828298 ], [ 5.742825452607329, 47.142445197867353 ], [ 5.742945094635838, 47.141411183850153 ], [ 5.74298501178205, 47.14037430768888 ] ] ] } },
{ "type": "Feature", "properties": { "name": "Rans", "feature_type": "mrr", "metric_roundness": 40.6, "metric_rectangularity": 58.58, "metric_mobile_fit": 0.9, "metric_aspect_ratio": 1.553, "metric_area_km2": 13.4 }, "geometry": { "type": "Polygon", "coordinates": [ [ [ 5.689347303893227, 47.153953123330055 ], [ 5.745218563071933, 47.143089970180604 ], [ 5.736485652763146, 47.122308959053946 ], [ 5.68061439358444, 47.133176358243603 ], [ 5.689347303893227, 47.153953123330055 ] ] ] } }
]
}
