{
"type": "FeatureCollection",
"name": "rantzau",
"crs": { "type": "name", "properties": { "name": "urn:ogc:def:crs:OGC:1.3:CRS84" } },
"features": [
{ "type": "Feature", "properties": { "name": "Rantzau", "metric_roundness": 40.53, "metric_rectangularity": 61.66, "metric_mobile_fit": 93.44, "metric_aspect_ratio": 0.628, "metric_area_km2": 48.79 }, "geometry": { "type": "Polygon", "coordinates": [ [ [ 10.4826298, 54.2578659 ], [ 10.4811646, 54.254420099999976 ], [ 10.4894399, 54.2498049 ], [ 10.4881638, 54.2421628 ], [ 10.4934626, 54.231849 ], [ 10.4994988, 54.224615199999988 ], [ 10.506042, 54.222967599999983 ], [ 10.5028441, 54.209402 ], [ 10.5107783, 54.2084323 ], [ 10.5283565, 54.21100749999998 ], [ 10.539091, 54.205059 ], [ 10.5382007, 54.217529599999985 ], [ 10.546425, 54.2163384 ], [ 10.5487584, 54.218334899999988 ], [ 10.5405525, 54.227957 ], [ 10.5321105, 54.2318032 ], [ 10.5369127, 54.2371421 ], [ 10.534866, 54.243788699999989 ], [ 10.5409725, 54.250387499999981 ], [ 10.5399074, 54.256288699999985 ], [ 10.5218615, 54.2574519 ], [ 10.5110145, 54.2679575 ], [ 10.5008041, 54.2631929 ], [ 10.4969254, 54.2574937 ], [ 10.492117, 54.25703 ], [ 10.4826298, 54.2578659 ] ] ] } }
]
}
