{
"type": "FeatureCollection",
"name": "ratte",
"crs": { "type": "name", "properties": { "name": "urn:ogc:def:crs:OGC:1.3:CRS84" } },
"features": [
{ "type": "Feature", "properties": { "name": "Ratte", "feature_type": "entity", "metric_roundness": 65.3, "metric_rectangularity": 75.24, "metric_mobile_fit": 33.94, "metric_aspect_ratio": 1.223, "metric_area_km2": 19.15 }, "geometry": { "type": "Polygon", "coordinates": [ [ [ 5.2891905, 46.630028399999986 ], [ 5.2975379, 46.625122499999975 ], [ 5.3212025, 46.629709 ], [ 5.332348, 46.635089 ], [ 5.3293216, 46.6462492 ], [ 5.3203321, 46.648133099999988 ], [ 5.3212985, 46.6531278 ], [ 5.3073285, 46.654335 ], [ 5.2978571, 46.6522864 ], [ 5.2916182, 46.646447599999988 ], [ 5.2820259, 46.6454727 ], [ 5.2810215, 46.6358405 ], [ 5.2803075, 46.6299165 ], [ 5.2891905, 46.630028399999986 ] ] ] } },
{ "type": "Feature", "properties": { "name": "Ratte", "feature_type": "circle", "metric_roundness": 65.3, "metric_rectangularity": 75.24, "metric_mobile_fit": 33.94, "metric_aspect_ratio": 1.223, "metric_area_km2": 19.15 }, "geometry": { "type": "Polygon", "coordinates": [ [ [ 5.332647433377494, 46.637865317340058 ], [ 5.332609813944439, 46.636878909111594 ], [ 5.332497058757523, 46.63589518665183 ], [ 5.332309476870879, 46.634916846496409 ], [ 5.332047582433417, 46.633946570572931 ], [ 5.331712093279587, 46.632987018845988 ], [ 5.33130392896184, 46.632040822020848 ], [ 5.3308242082302, 46.631110574325881 ], [ 5.330274245965848, 46.630198826393482 ], [ 5.329655549577121, 46.629308078259285 ], [ 5.328969814867817, 46.628440772498784 ], [ 5.328218921389109, 46.627599287520404 ], [ 5.327404927287829, 46.626785931033439 ], [ 5.326530063665228, 46.626002933709067 ], [ 5.325596728461685, 46.625252443051743 ], [ 5.324607479884117, 46.624536517498136 ], [ 5.323565029394112, 46.623857120759801 ], [ 5.322472234276005, 46.623216116425368 ], [ 5.321332089805257, 46.622615262837108 ], [ 5.320147721038607, 46.62205620825619 ], [ 5.318922374248525, 46.621540486329941 ], [ 5.317659408025386, 46.621069511873827 ], [ 5.316362284071823, 46.620644576979764 ], [ 5.315034557714428, 46.620266847461544 ], [ 5.31367986815886, 46.619937359647508 ], [ 5.312301928515025, 46.619657017529036 ], [ 5.31090451561971, 46.619426590273065 ], [ 5.309491459684527, 46.619246710105415 ], [ 5.308066633797573, 46.619117870570911 ], [ 5.306633943307567, 46.619040425175051 ], [ 5.305197315119555, 46.619014586411055 ], [ 5.303760686931544, 46.619040425175051 ], [ 5.302327996441538, 46.619117870570911 ], [ 5.300903170554584, 46.619246710105415 ], [ 5.2994901146194, 46.619426590273065 ], [ 5.298092701724085, 46.619657017529036 ], [ 5.29671476208025, 46.619937359647508 ], [ 5.295360072524682, 46.620266847461544 ], [ 5.294032346167288, 46.620644576979764 ], [ 5.292735222213724, 46.621069511873827 ], [ 5.291472255990585, 46.621540486329941 ], [ 5.290246909200503, 46.62205620825619 ], [ 5.289062540433854, 46.622615262837108 ], [ 5.287922395963105, 46.623216116425368 ], [ 5.286829600844999, 46.623857120759801 ], [ 5.285787150354994, 46.624536517498136 ], [ 5.284797901777425, 46.625252443051743 ], [ 5.283864566573882, 46.626002933709067 ], [ 5.282989702951281, 46.626785931033439 ], [ 5.282175708850001, 46.627599287520404 ], [ 5.281424815371294, 46.628440772498784 ], [ 5.28073908066199, 46.629308078259285 ], [ 5.280120384273263, 46.630198826393482 ], [ 5.279570422008911, 46.631110574325881 ], [ 5.27909070127727, 46.632040822020848 ], [ 5.278682536959524, 46.632987018845988 ], [ 5.278347047805693, 46.633946570572931 ], [ 5.278085153368232, 46.634916846496409 ], [ 5.277897571481588, 46.63589518665183 ], [ 5.277784816294672, 46.636878909111594 ], [ 5.277747196861617, 46.637865317340058 ], [ 5.277784816294672, 46.638851707587037 ], [ 5.277897571481588, 46.639835376299295 ], [ 5.278085153368232, 46.640813627530093 ], [ 5.278347047805693, 46.641783780326094 ], [ 5.278682536959524, 46.642743176071733 ], [ 5.27909070127727, 46.643689185770675 ], [ 5.279570422008911, 46.644619217244788 ], [ 5.280120384273263, 46.645530722230596 ], [ 5.28073908066199, 46.646421203354251 ], [ 5.281424815371294, 46.647288220965699 ], [ 5.282175708850001, 46.648129399813527 ], [ 5.282989702951281, 46.648942435542459 ], [ 5.283864566573882, 46.649725100995624 ], [ 5.284797901777425, 46.650475252304609 ], [ 5.285787150354994, 46.651190834750736 ], [ 5.286829600844999, 46.651869888381583 ], [ 5.287922395963105, 46.652510553367691 ], [ 5.289062540433854, 46.653111075084759 ], [ 5.290246909200503, 46.653669808907651 ], [ 5.291472255990585, 46.654185224703355 ], [ 5.292735222213724, 46.654655911010416 ], [ 5.294032346167288, 46.655080578893966 ], [ 5.295360072524682, 46.655458065465609 ], [ 5.29671476208025, 46.65578733705879 ], [ 5.298092701724085, 46.656067492051086 ], [ 5.2994901146194, 46.65629776332576 ], [ 5.300903170554584, 46.656477520365932 ], [ 5.302327996441538, 46.656606270975821 ], [ 5.303760686931544, 46.656683662624189 ], [ 5.305197315119555, 46.656709483406686 ], [ 5.306633943307567, 46.656683662624189 ], [ 5.308066633797573, 46.656606270975821 ], [ 5.309491459684527, 46.656477520365932 ], [ 5.31090451561971, 46.65629776332576 ], [ 5.312301928515025, 46.656067492051086 ], [ 5.31367986815886, 46.65578733705879 ], [ 5.315034557714428, 46.655458065465609 ], [ 5.316362284071823, 46.655080578893966 ], [ 5.317659408025386, 46.654655911010416 ], [ 5.318922374248524, 46.654185224703355 ], [ 5.320147721038607, 46.653669808907651 ], [ 5.321332089805257, 46.653111075084759 ], [ 5.322472234276005, 46.652510553367691 ], [ 5.323565029394112, 46.651869888381583 ], [ 5.324607479884117, 46.651190834750736 ], [ 5.325596728461685, 46.650475252304609 ], [ 5.326530063665228, 46.649725100995624 ], [ 5.327404927287829, 46.648942435542459 ], [ 5.328218921389109, 46.648129399813527 ], [ 5.328969814867817, 46.647288220965699 ], [ 5.329655549577121, 46.646421203354251 ], [ 5.330274245965847, 46.645530722230596 ], [ 5.3308242082302, 46.644619217244788 ], [ 5.33130392896184, 46.643689185770675 ], [ 5.331712093279587, 46.642743176071733 ], [ 5.332047582433417, 46.641783780326094 ], [ 5.332309476870879, 46.640813627530093 ], [ 5.332497058757523, 46.639835376299295 ], [ 5.332609813944439, 46.638851707587037 ], [ 5.332647433377494, 46.637865317340058 ] ] ] } },
{ "type": "Feature", "properties": { "name": "Ratte", "feature_type": "mrr", "metric_roundness": 65.3, "metric_rectangularity": 75.24, "metric_mobile_fit": 33.94, "metric_aspect_ratio": 1.223, "metric_area_km2": 19.15 }, "geometry": { "type": "Polygon", "coordinates": [ [ [ 5.335019730094387, 46.632386773482473 ], [ 5.283403431203619, 46.622382873606227 ], [ 5.273003715106976, 46.647685319652226 ], [ 5.324620013997744, 46.657684542783969 ], [ 5.335019730094387, 46.632386773482473 ] ] ] } }
]
}
