{
"type": "FeatureCollection",
"name": "geiswasser",
"crs": { "type": "name", "properties": { "name": "urn:ogc:def:crs:OGC:1.3:CRS84" } },
"features": [
{ "type": "Feature", "properties": { "name": "Geiswasser", "metric_roundness": 30.34, "metric_rectangularity": 59.99, "metric_mobile_fit": 92.62, "metric_aspect_ratio": 0.489, "metric_area_km2": 18.0 }, "geometry": { "type": "Polygon", "coordinates": [ [ [ 7.6046959, 47.963993799999983 ], [ 7.59575, 47.9538125 ], [ 7.602957, 47.9487795 ], [ 7.604535, 47.9499845 ], [ 7.6077005, 47.952553 ], [ 7.609558, 47.95423 ], [ 7.611555, 47.956492 ], [ 7.6129415, 47.958202 ], [ 7.617097, 47.963454 ], [ 7.620942, 47.968981499999984 ], [ 7.62159, 47.9709975 ], [ 7.6219525, 47.9728065 ], [ 7.6219665, 47.974749 ], [ 7.621651, 47.9765115 ], [ 7.6185145, 47.985796499999985 ], [ 7.616114, 47.9904745 ], [ 7.613442, 47.994688 ], [ 7.610187, 47.9986865 ], [ 7.608584, 48.000359499999981 ], [ 7.5937501, 47.9961516 ], [ 7.5859805, 47.99922549999998 ], [ 7.584314, 47.997317 ], [ 7.5961495, 47.9851276 ], [ 7.5956185, 47.977663299999982 ], [ 7.5988575, 47.970166 ], [ 7.6046959, 47.963993799999983 ] ] ] } }
]
}
