{
"type": "FeatureCollection",
"name": "gerderest",
"crs": { "type": "name", "properties": { "name": "urn:ogc:def:crs:OGC:1.3:CRS84" } },
"features": [
{ "type": "Feature", "properties": { "name": "Gerderest", "metric_roundness": 37.13, "metric_rectangularity": 64.26, "metric_mobile_fit": 80.13, "metric_aspect_ratio": 0.761, "metric_area_km2": 12.47 }, "geometry": { "type": "Polygon", "coordinates": [ [ [ -0.151798, 43.393406 ], [ -0.1500445, 43.394211 ], [ -0.150455, 43.398256 ], [ -0.1484135, 43.401225 ], [ -0.1487655, 43.403645 ], [ -0.1564375, 43.401139 ], [ -0.159058, 43.401573 ], [ -0.1599795, 43.4046175 ], [ -0.1601265, 43.407986 ], [ -0.161944, 43.4131765 ], [ -0.1649525, 43.417117 ], [ -0.166953, 43.422249 ], [ -0.168684, 43.423737 ], [ -0.175023, 43.423149 ], [ -0.1780785, 43.428122 ], [ -0.181987, 43.430018 ], [ -0.1841965, 43.4280785 ], [ -0.1882655, 43.410422499999981 ], [ -0.1768914, 43.402712699999988 ], [ -0.1695663, 43.393622 ], [ -0.1611305, 43.391985 ], [ -0.151798, 43.393406 ] ] ] } }
]
}
