{
"type": "FeatureCollection",
"name": "gez_ez_angles",
"crs": { "type": "name", "properties": { "name": "urn:ogc:def:crs:OGC:1.3:CRS84" } },
"features": [
{ "type": "Feature", "properties": { "name": "Gez-ez-Angles", "metric_roundness": 58.3, "metric_rectangularity": 73.89, "metric_mobile_fit": 69.46, "metric_aspect_ratio": 0.868, "metric_area_km2": 4.35 }, "geometry": { "type": "Polygon", "coordinates": [ [ [ 0.0170406, 43.080418299999984 ], [ 0.0225645, 43.079516 ], [ 0.0360245, 43.085737499999979 ], [ 0.030456, 43.098003 ], [ 0.027964, 43.098983 ], [ 0.012889, 43.086838 ], [ 0.0170406, 43.080418299999984 ] ] ] } }
]
}
