{
"type": "FeatureCollection",
"name": "sacey",
"crs": { "type": "name", "properties": { "name": "urn:ogc:def:crs:OGC:1.3:CRS84" } },
"features": [
{ "type": "Feature", "properties": { "name": "Sacey", "feature_type": "entity", "metric_roundness": 48.68, "metric_rectangularity": 60.03, "metric_mobile_fit": 61.1, "metric_aspect_ratio": 0.952, "metric_area_km2": 35.0 }, "geometry": { "type": "Polygon", "coordinates": [ [ [ -1.4381709, 48.5114387 ], [ -1.4589345, 48.5199025 ], [ -1.4710971, 48.522259 ], [ -1.476113, 48.514897399999981 ], [ -1.4957325, 48.5083115 ], [ -1.489942, 48.4893725 ], [ -1.4850592, 48.490540399999979 ], [ -1.4742868, 48.485850299999981 ], [ -1.4507302, 48.487170399999975 ], [ -1.4363185, 48.4777742 ], [ -1.4403605, 48.472175 ], [ -1.4238158, 48.4775691 ], [ -1.4320883, 48.490530299999975 ], [ -1.4313084, 48.4986313 ], [ -1.4339965, 48.501963 ], [ -1.4381709, 48.5114387 ] ] ] } },
{ "type": "Feature", "properties": { "name": "Sacey", "feature_type": "circle", "metric_roundness": 48.68, "metric_rectangularity": 60.03, "metric_mobile_fit": 61.1, "metric_aspect_ratio": 0.952, "metric_area_km2": 35.0 }, "geometry": { "type": "Polygon", "coordinates": [ [ [ -1.414558824045282, 48.49523197793647 ], [ -1.414617736228755, 48.493741076063564 ], [ -1.414794311304975, 48.49225421698776 ], [ -1.415088065293932, 48.490775476624435 ], [ -1.41549819303636, 48.48930890898847 ], [ -1.416023570400625, 48.487858535072682 ], [ -1.416662757363889, 48.486428331813087 ], [ -1.417414001959117, 48.485022221171285 ], [ -1.418275245077091, 48.48364405936411 ], [ -1.419244126110289, 48.482297626270245 ], [ -1.420317989423144, 48.480986615043257 ], [ -1.421493891630961, 48.479714621959559 ], [ -1.422768609667522, 48.478485136529656 ], [ -1.424138649619294, 48.47730153190011 ], [ -1.425600256302001, 48.476167055572695 ], [ -1.427149423553319, 48.475084820466876 ], [ -1.428781905213494, 48.474057796350216 ], [ -1.430493226763768, 48.473088801660843 ], [ -1.432278697590724, 48.472180495744659 ], [ -1.434133423842933, 48.47133537152893 ], [ -1.436052321844656, 48.470555748653048 ], [ -1.438030132029853, 48.469843767075268 ], [ -1.440061433358281, 48.469201381173697 ], [ -1.442140658174194, 48.468630354357785 ], [ -1.444262107466896, 48.468132254205671 ], [ -1.446419966491336, 48.467708448140961 ], [ -1.448608320705919, 48.467360099660858 ], [ -1.450821171983853, 48.467088165126675 ], [ -1.453052455053599, 48.466893391125318 ], [ -1.455296054123359, 48.466776312409472 ], [ -1.45754581964403, 48.466737250422085 ], [ -1.459795585164702, 48.466776312409472 ], [ -1.462039184234461, 48.466893391125318 ], [ -1.464270467304207, 48.467088165126675 ], [ -1.466483318582142, 48.467360099660858 ], [ -1.468671672796725, 48.467708448140961 ], [ -1.470829531821164, 48.468132254205671 ], [ -1.472950981113867, 48.468630354357785 ], [ -1.475030205929779, 48.469201381173697 ], [ -1.477061507258208, 48.469843767075268 ], [ -1.479039317443404, 48.470555748653048 ], [ -1.480958215445128, 48.47133537152893 ], [ -1.482812941697336, 48.472180495744659 ], [ -1.484598412524292, 48.473088801660843 ], [ -1.486309734074566, 48.474057796350216 ], [ -1.487942215734742, 48.475084820466876 ], [ -1.489491382986059, 48.476167055572695 ], [ -1.490952989668766, 48.47730153190011 ], [ -1.492323029620539, 48.478485136529656 ], [ -1.4935977476571, 48.479714621959559 ], [ -1.494773649864916, 48.480986615043257 ], [ -1.495847513177772, 48.482297626270245 ], [ -1.496816394210969, 48.48364405936411 ], [ -1.497677637328943, 48.485022221171285 ], [ -1.498428881924171, 48.486428331813087 ], [ -1.499068068887436, 48.487858535072682 ], [ -1.499593446251701, 48.48930890898847 ], [ -1.500003573994128, 48.490775476624435 ], [ -1.500297327983085, 48.49225421698776 ], [ -1.500473903059305, 48.493741076063564 ], [ -1.500532815242779, 48.49523197793647 ], [ -1.500473903059305, 48.496722835968292 ], [ -1.500297327983085, 48.498209564001122 ], [ -1.500003573994128, 48.499688087555342 ], [ -1.499593446251701, 48.501154354991456 ], [ -1.499068068887436, 48.502604348605729 ], [ -1.498428881924171, 48.504034095628782 ], [ -1.497677637328943, 48.505439679097655 ], [ -1.496816394210969, 48.506817248571338 ], [ -1.495847513177772, 48.508163030660867 ], [ -1.494773649864916, 48.50947333934522 ], [ -1.4935977476571, 48.510744586045185 ], [ -1.492323029620539, 48.511973289427793 ], [ -1.490952989668766, 48.513156084914762 ], [ -1.48949138298606, 48.514289733869447 ], [ -1.487942215734742, 48.515371132437274 ], [ -1.486309734074566, 48.516397320015933 ], [ -1.484598412524292, 48.517365487332597 ], [ -1.482812941697336, 48.518272984106247 ], [ -1.480958215445128, 48.519117326274717 ], [ -1.479039317443404, 48.519896202766922 ], [ -1.477061507258208, 48.520607481802116 ], [ -1.475030205929779, 48.521249216699424 ], [ -1.472950981113867, 48.521819651181907 ], [ -1.470829531821164, 48.522317224161156 ], [ -1.468671672796725, 48.522740573989395 ], [ -1.466483318582142, 48.523088542168011 ], [ -1.464270467304207, 48.523360176502401 ], [ -1.462039184234461, 48.523554733694681 ], [ -1.459795585164702, 48.523671681367581 ], [ -1.45754581964403, 48.523710699513863 ], [ -1.455296054123359, 48.523671681367581 ], [ -1.453052455053599, 48.523554733694681 ], [ -1.450821171983853, 48.523360176502401 ], [ -1.448608320705919, 48.523088542168011 ], [ -1.446419966491336, 48.522740573989395 ], [ -1.444262107466896, 48.522317224161156 ], [ -1.442140658174194, 48.521819651181907 ], [ -1.440061433358281, 48.521249216699424 ], [ -1.438030132029853, 48.520607481802116 ], [ -1.436052321844656, 48.519896202766922 ], [ -1.434133423842933, 48.519117326274717 ], [ -1.432278697590724, 48.518272984106247 ], [ -1.430493226763768, 48.517365487332597 ], [ -1.428781905213494, 48.516397320015933 ], [ -1.427149423553319, 48.515371132437274 ], [ -1.425600256302001, 48.514289733869447 ], [ -1.424138649619294, 48.513156084914762 ], [ -1.422768609667522, 48.511973289427793 ], [ -1.421493891630961, 48.510744586045185 ], [ -1.420317989423144, 48.50947333934522 ], [ -1.419244126110289, 48.508163030660867 ], [ -1.418275245077091, 48.506817248571338 ], [ -1.417414001959117, 48.505439679097655 ], [ -1.416662757363889, 48.504034095628782 ], [ -1.416023570400625, 48.502604348605729 ], [ -1.41549819303636, 48.501154354991456 ], [ -1.415088065293932, 48.499688087555342 ], [ -1.414794311304975, 48.498209564001122 ], [ -1.414617736228755, 48.496722835968292 ], [ -1.414558824045282, 48.49523197793647 ] ] ] } },
{ "type": "Feature", "properties": { "name": "Sacey", "feature_type": "mrr", "metric_roundness": 48.68, "metric_rectangularity": 60.03, "metric_mobile_fit": 61.1, "metric_aspect_ratio": 0.952, "metric_area_km2": 35.0 }, "geometry": { "type": "Polygon", "coordinates": [ [ [ -1.430714405892931, 48.468828543831492 ], [ -1.506228652485484, 48.495020304312817 ], [ -1.480635130341298, 48.527423065629222 ], [ -1.405120883748746, 48.501248045341192 ], [ -1.430714405892931, 48.468828543831492 ] ] ] } }
]
}
