{
"type": "FeatureCollection",
"name": "saint_martin_lestra",
"crs": { "type": "name", "properties": { "name": "urn:ogc:def:crs:OGC:1.3:CRS84" } },
"features": [
{ "type": "Feature", "properties": { "name": "Saint-Martin-Lestra", "metric_roundness": 46.97, "metric_rectangularity": 58.39, "metric_mobile_fit": 78.16, "metric_aspect_ratio": 0.781, "metric_area_km2": 32.92 }, "geometry": { "type": "Polygon", "coordinates": [ [ [ 4.3649988, 45.705350099999976 ], [ 4.365516, 45.698521 ], [ 4.3723083, 45.7028584 ], [ 4.3748881, 45.713315699999988 ], [ 4.3834748, 45.7195873 ], [ 4.392415, 45.739221 ], [ 4.4029235, 45.743917 ], [ 4.397999, 45.7514325 ], [ 4.3952425, 45.753328 ], [ 4.390679, 45.755077 ], [ 4.3852655, 45.7547255 ], [ 4.3805705, 45.752920499999988 ], [ 4.378021, 45.750043 ], [ 4.369097, 45.7485845 ], [ 4.366211, 45.748771499999989 ], [ 4.359162, 45.751104 ], [ 4.339657, 45.741464 ], [ 4.343096, 45.7405925 ], [ 4.3438955, 45.736078 ], [ 4.343646, 45.730998 ], [ 4.3480369, 45.725892 ], [ 4.3468329, 45.7104239 ], [ 4.3581609, 45.7095693 ], [ 4.360764, 45.7051925 ], [ 4.3649988, 45.705350099999976 ] ] ] } }
]
}
