{
"type": "FeatureCollection",
"name": "saint_georges_du_rosay",
"crs": { "type": "name", "properties": { "name": "urn:ogc:def:crs:OGC:1.3:CRS84" } },
"features": [
{ "type": "Feature", "properties": { "name": "Saint-Georges-du-Rosay", "metric_roundness": 65.14, "metric_rectangularity": 72.39, "metric_mobile_fit": 52.14, "metric_aspect_ratio": 1.041, "metric_area_km2": 39.05 }, "geometry": { "type": "Polygon", "coordinates": [ [ [ 0.5360883, 48.219492099999982 ], [ 0.5298385, 48.2170807 ], [ 0.5154928, 48.2201205 ], [ 0.4912085, 48.2123035 ], [ 0.4908765, 48.2102745 ], [ 0.4920405, 48.207774 ], [ 0.4916185, 48.204439499999985 ], [ 0.489124, 48.202692 ], [ 0.488656, 48.1987715 ], [ 0.490654, 48.195521 ], [ 0.49099, 48.1936365 ], [ 0.494462, 48.192432 ], [ 0.4955285, 48.1907845 ], [ 0.4977035, 48.190144499999988 ], [ 0.4995175, 48.1882845 ], [ 0.5054855, 48.190715499999989 ], [ 0.508304, 48.188961 ], [ 0.5084885, 48.185590499999989 ], [ 0.5098775, 48.180441 ], [ 0.5054145, 48.17538 ], [ 0.523021, 48.1775865 ], [ 0.527603, 48.177297 ], [ 0.528455, 48.1799185 ], [ 0.531238, 48.179152 ], [ 0.539367, 48.183279499999983 ], [ 0.5478465, 48.1850725 ], [ 0.548187, 48.189993399999985 ], [ 0.558536, 48.1990855 ], [ 0.547157, 48.211739299999984 ], [ 0.549745, 48.218244 ], [ 0.5360883, 48.219492099999982 ] ] ] } }
]
}
