{
"type": "FeatureCollection",
"name": "saint_paul_sur_isere",
"crs": { "type": "name", "properties": { "name": "urn:ogc:def:crs:OGC:1.3:CRS84" } },
"features": [
{ "type": "Feature", "properties": { "name": "Saint-Paul-sur-Isère", "feature_type": "entity", "metric_roundness": 37.21, "metric_rectangularity": 60.32, "metric_mobile_fit": 46.13, "metric_aspect_ratio": 1.101, "metric_area_km2": 42.57 }, "geometry": { "type": "Polygon", "coordinates": [ [ [ 6.3644965, 45.566310499999986 ], [ 6.3669305, 45.5645115 ], [ 6.370971, 45.563645 ], [ 6.378397, 45.560855 ], [ 6.3835311, 45.5648391 ], [ 6.3979133, 45.5596656 ], [ 6.4028803, 45.560401399999989 ], [ 6.417301, 45.5773938 ], [ 6.449244, 45.5917385 ], [ 6.447549, 45.593963 ], [ 6.4436625, 45.596042499999982 ], [ 6.4438265, 45.598244 ], [ 6.449333, 45.613581499999988 ], [ 6.44351, 45.612939 ], [ 6.4336525, 45.60981 ], [ 6.431716, 45.610579499999986 ], [ 6.429719, 45.610471499999981 ], [ 6.422186, 45.607549499999976 ], [ 6.416461, 45.607353 ], [ 6.4127435, 45.6082985 ], [ 6.4052735, 45.60901 ], [ 6.399388, 45.6058265 ], [ 6.3902265, 45.603171 ], [ 6.386453, 45.5928585 ], [ 6.3747025, 45.5805785 ], [ 6.3644965, 45.566310499999986 ] ] ] } },
{ "type": "Feature", "properties": { "name": "Saint-Paul-sur-Isère", "feature_type": "circle", "metric_roundness": 37.21, "metric_rectangularity": 60.32, "metric_mobile_fit": 46.13, "metric_aspect_ratio": 1.101, "metric_area_km2": 42.57 }, "geometry": { "type": "Polygon", "coordinates": [ [ [ 6.461137180249654, 45.589950976466298 ], [ 6.461062870293476, 45.587965093213533 ], [ 6.46084014410336, 45.58598458315636 ], [ 6.460469612156317, 45.584014875597731 ], [ 6.459952290054656, 45.582061370796332 ], [ 6.459289595742298, 45.58012942514916 ], [ 6.458483345618293, 45.578224336488404 ], [ 6.457535749558187, 45.576351329532997 ], [ 6.456449404856915, 45.57451554153517 ], [ 6.455227289109792, 45.572722008161499 ], [ 6.45387275205113, 45.570975649647842 ], [ 6.452389506372859, 45.569281257266333 ], [ 6.450781617548281, 45.567643480142188 ], [ 6.4490534926889, 45.566066812456896 ], [ 6.44720986846484, 45.564555581073634 ], [ 6.445255798121946, 45.563113933619221 ], [ 6.443196637631202, 45.561745827056122 ], [ 6.441038031008385, 45.560455016776366 ], [ 6.438785894844204, 45.559245046247867 ], [ 6.436446402087341, 45.55811923724243 ], [ 6.434025965124827, 45.557080680672613 ], [ 6.431531218206134, 45.556132228063319 ], [ 6.428968999259156, 45.555276483682171 ], [ 6.426346331147931, 45.554515797350703 ], [ 6.423670402423453, 45.553852257956692 ], [ 6.420948547620354, 45.553287687685973 ], [ 6.418188227153452, 45.552823636989892 ], [ 6.415397006869286, 45.552461380302745 ], [ 6.412582537308634, 45.552201912521191 ], [ 6.409752532736932, 45.552045946255681 ], [ 6.40691475, 45.551993909861601 ], [ 6.404076967263067, 45.552045946255681 ], [ 6.401246962691365, 45.552201912521191 ], [ 6.398432493130713, 45.552461380302745 ], [ 6.395641272846547, 45.552823636989892 ], [ 6.392880952379645, 45.553287687685973 ], [ 6.390159097576547, 45.553852257956692 ], [ 6.387483168852068, 45.554515797350703 ], [ 6.384860500740843, 45.555276483682171 ], [ 6.382298281793866, 45.556132228063319 ], [ 6.379803534875172, 45.557080680672613 ], [ 6.377383097912658, 45.55811923724243 ], [ 6.375043605155795, 45.559245046247867 ], [ 6.372791468991614, 45.560455016776366 ], [ 6.370632862368796, 45.561745827056122 ], [ 6.368573701878054, 45.563113933619221 ], [ 6.366619631535159, 45.564555581073634 ], [ 6.364776007311098, 45.566066812456896 ], [ 6.363047882451718, 45.567643480142188 ], [ 6.36143999362714, 45.569281257266333 ], [ 6.359956747948869, 45.570975649647842 ], [ 6.358602210890208, 45.572722008161499 ], [ 6.357380095143084, 45.57451554153517 ], [ 6.356293750441812, 45.576351329532997 ], [ 6.355346154381706, 45.578224336488404 ], [ 6.354539904257701, 45.58012942514916 ], [ 6.353877209945344, 45.582061370796332 ], [ 6.353359887843681, 45.584014875597731 ], [ 6.352989355896639, 45.58598458315636 ], [ 6.352766629706523, 45.587965093213533 ], [ 6.352692319750345, 45.589950976466298 ], [ 6.352766629706523, 45.591936789458181 ], [ 6.352989355896639, 45.593917089502526 ], [ 6.353359887843681, 45.595886449597309 ], [ 6.353877209945344, 45.597839473290733 ], [ 6.354539904257701, 45.599770809456928 ], [ 6.355346154381706, 45.601675166941298 ], [ 6.356293750441812, 45.603547329035848 ], [ 6.357380095143084, 45.605382167744814 ], [ 6.358602210890208, 45.607174657802254 ], [ 6.359956747948869, 45.608919890403058 ], [ 6.36143999362714, 45.610613086610869 ], [ 6.363047882451718, 45.612249610405989 ], [ 6.364776007311098, 45.613824981338674 ], [ 6.366619631535159, 45.615334886753232 ], [ 6.368573701878054, 45.616775193550446 ], [ 6.370632862368796, 45.618141959456359 ], [ 6.372791468991614, 45.619431443767482 ], [ 6.375043605155795, 45.620640117543459 ], [ 6.377383097912658, 45.621764673220007 ], [ 6.379803534875172, 45.622802033616288 ], [ 6.382298281793866, 45.623749360312914 ], [ 6.384860500740843, 45.624604061378001 ], [ 6.387483168852068, 45.625363798420814 ], [ 6.390159097576547, 45.626026492954153 ], [ 6.392880952379645, 45.626590332048664 ], [ 6.395641272846547, 45.627053773263931 ], [ 6.398432493130713, 45.627415548843224 ], [ 6.401246962691365, 45.627674669161024 ], [ 6.404076967263067, 45.627830425413762 ], [ 6.40691475, 45.62788239154699 ], [ 6.409752532736932, 45.627830425413762 ], [ 6.412582537308634, 45.627674669161024 ], [ 6.415397006869286, 45.627415548843224 ], [ 6.418188227153452, 45.627053773263931 ], [ 6.420948547620354, 45.626590332048664 ], [ 6.423670402423453, 45.626026492954153 ], [ 6.426346331147931, 45.625363798420814 ], [ 6.428968999259156, 45.624604061378001 ], [ 6.431531218206134, 45.623749360312914 ], [ 6.434025965124827, 45.622802033616288 ], [ 6.436446402087341, 45.621764673220007 ], [ 6.438785894844204, 45.620640117543459 ], [ 6.441038031008385, 45.619431443767482 ], [ 6.443196637631202, 45.618141959456359 ], [ 6.445255798121946, 45.616775193550446 ], [ 6.44720986846484, 45.615334886753232 ], [ 6.4490534926889, 45.613824981338674 ], [ 6.450781617548281, 45.612249610405989 ], [ 6.452389506372859, 45.610613086610869 ], [ 6.45387275205113, 45.608919890403058 ], [ 6.455227289109792, 45.607174657802254 ], [ 6.456449404856915, 45.605382167744814 ], [ 6.457535749558187, 45.603547329035848 ], [ 6.458483345618293, 45.601675166941298 ], [ 6.459289595742298, 45.599770809456928 ], [ 6.459952290054656, 45.597839473290733 ], [ 6.460469612156317, 45.595886449597309 ], [ 6.46084014410336, 45.593917089502526 ], [ 6.461062870293476, 45.591936789458181 ], [ 6.461137180249654, 45.589950976466298 ] ] ] } },
{ "type": "Feature", "properties": { "name": "Saint-Paul-sur-Isère", "feature_type": "mrr", "metric_roundness": 37.21, "metric_rectangularity": 60.32, "metric_mobile_fit": 46.13, "metric_aspect_ratio": 1.101, "metric_area_km2": 42.57 }, "geometry": { "type": "Polygon", "coordinates": [ [ [ 6.464890886031468, 45.602310243377929 ], [ 6.387210242123316, 45.549806097916679 ], [ 6.35056878398633, 45.57637299931956 ], [ 6.428249427894484, 45.628852311107892 ], [ 6.464890886031468, 45.602310243377929 ] ] ] } }
]
}
