{
"type": "FeatureCollection",
"name": "saint_georges_sur_allier",
"crs": { "type": "name", "properties": { "name": "urn:ogc:def:crs:OGC:1.3:CRS84" } },
"features": [
{ "type": "Feature", "properties": { "name": "Saint-Georges-sur-Allier", "feature_type": "entity", "metric_roundness": 60.87, "metric_rectangularity": 67.67, "metric_mobile_fit": 40.42, "metric_aspect_ratio": 1.158, "metric_area_km2": 19.14 }, "geometry": { "type": "Polygon", "coordinates": [ [ [ 3.257161, 45.732073 ], [ 3.257167, 45.720962 ], [ 3.2505755, 45.722365499999988 ], [ 3.248572, 45.721617 ], [ 3.2373105, 45.720268 ], [ 3.2325474, 45.712118799999978 ], [ 3.237025, 45.702771 ], [ 3.2406995, 45.7037305 ], [ 3.2420245, 45.7022805 ], [ 3.244705, 45.701359 ], [ 3.25159, 45.705480799999989 ], [ 3.2778245, 45.7008165 ], [ 3.28157, 45.705779 ], [ 3.282714, 45.712562 ], [ 3.2842845, 45.7143035 ], [ 3.2843995, 45.724694 ], [ 3.2842105, 45.724920499999982 ], [ 3.27513, 45.7272915 ], [ 3.2702985, 45.7302105 ], [ 3.2632365, 45.730494 ], [ 3.2607445, 45.731278499999988 ], [ 3.257161, 45.732073 ] ] ] } },
{ "type": "Feature", "properties": { "name": "Saint-Georges-sur-Allier", "feature_type": "circle", "metric_roundness": 60.87, "metric_rectangularity": 67.67, "metric_mobile_fit": 40.42, "metric_aspect_ratio": 1.158, "metric_area_km2": 19.14 }, "geometry": { "type": "Polygon", "coordinates": [ [ [ 3.289046361315755, 45.713846847332078 ], [ 3.289007400891971, 45.712807965857429 ], [ 3.288890626408433, 45.711771912652139 ], [ 3.288696357935883, 45.710741527703114 ], [ 3.2884251279507, 45.709719635616167 ], [ 3.288077679875422, 45.708709037869625 ], [ 3.287654966041071, 45.707712505129805 ], [ 3.287158145076886, 45.70673276964915 ], [ 3.286588578734595, 45.705772517768388 ], [ 3.285947828155953, 45.704834382542934 ], [ 3.285237649593758, 45.703920936514166 ], [ 3.284459989598084, 45.703034684645324 ], [ 3.283616979680926, 45.702178057441692 ], [ 3.282710930473869, 45.701353404273938 ], [ 3.281744325394811, 45.700562986923131 ], [ 3.280719813841087, 45.699808973365371 ], [ 3.279640203927652, 45.699093431813026 ], [ 3.278508454790235, 45.698418325029415 ], [ 3.277327668474556, 45.697785504932376 ], [ 3.27610108143383, 45.697196707501881 ], [ 3.274832055657878, 45.69665354800582 ], [ 3.273524069458141, 45.696157516557129 ], [ 3.272180707933877, 45.69570997401474 ], [ 3.270805653145648, 45.695312148239601 ], [ 3.269402674023048, 45.694965130716277 ], [ 3.267975616034335, 45.694669873549586 ], [ 3.266528390646259, 45.694427186844408 ], [ 3.265064964603017, 45.694237736476268 ], [ 3.263589349053669, 45.69410204225867 ], [ 3.262105588557869, 45.694020476512286 ], [ 3.26061775, 45.693993263040312 ], [ 3.25912991144213, 45.694020476512286 ], [ 3.25764615094633, 45.69410204225867 ], [ 3.256170535396983, 45.694237736476268 ], [ 3.25470710935374, 45.694427186844408 ], [ 3.253259883965665, 45.694669873549586 ], [ 3.251832825976952, 45.694965130716277 ], [ 3.250429846854352, 45.695312148239601 ], [ 3.249054792066123, 45.69570997401474 ], [ 3.247711430541858, 45.696157516557129 ], [ 3.246403444342122, 45.69665354800582 ], [ 3.245134418566169, 45.697196707501881 ], [ 3.243907831525444, 45.697785504932376 ], [ 3.242727045209764, 45.698418325029415 ], [ 3.241595296072348, 45.699093431813026 ], [ 3.240515686158912, 45.699808973365371 ], [ 3.239491174605188, 45.700562986923131 ], [ 3.23852456952613, 45.701353404273938 ], [ 3.237618520319074, 45.702178057441692 ], [ 3.236775510401916, 45.703034684645324 ], [ 3.235997850406242, 45.703920936514166 ], [ 3.235287671844046, 45.704834382542934 ], [ 3.234646921265404, 45.705772517768388 ], [ 3.234077354923114, 45.70673276964915 ], [ 3.233580533958929, 45.707712505129805 ], [ 3.233157820124578, 45.708709037869625 ], [ 3.232810372049299, 45.709719635616167 ], [ 3.232539142064117, 45.710741527703114 ], [ 3.232344873591567, 45.711771912652139 ], [ 3.232228099108029, 45.712807965857429 ], [ 3.232189138684244, 45.713846847332078 ], [ 3.232228099108029, 45.714885709494865 ], [ 3.232344873591567, 45.715921704976154 ], [ 3.232539142064117, 45.716951994421471 ], [ 3.232810372049299, 45.717973754271377 ], [ 3.233157820124578, 45.718984184496335 ], [ 3.233580533958929, 45.719980516265466 ], [ 3.234077354923114, 45.720960019528157 ], [ 3.234646921265404, 45.721920010487956 ], [ 3.235287671844046, 45.722857858948124 ], [ 3.235997850406242, 45.723770995509156 ], [ 3.236775510401916, 45.724656918598399 ], [ 3.237618520319074, 45.725513201312758 ], [ 3.23852456952613, 45.726337498055841 ], [ 3.239491174605188, 45.727127550951657 ], [ 3.240515686158912, 45.727881196017165 ], [ 3.241595296072348, 45.728596369077238 ], [ 3.242727045209764, 45.729271111405865 ], [ 3.243907831525444, 45.729903575078254 ], [ 3.245134418566169, 45.730492028019476 ], [ 3.246403444342122, 45.73103485873596 ], [ 3.247711430541858, 45.731530580716921 ], [ 3.249054792066123, 45.731977836494032 ], [ 3.250429846854352, 45.732375401348229 ], [ 3.251832825976952, 45.732722186653604 ], [ 3.253259883965665, 45.733017242849613 ], [ 3.25470710935374, 45.733259762033221 ], [ 3.256170535396983, 45.73344908016432 ], [ 3.25764615094633, 45.733584678878238 ], [ 3.25912991144213, 45.733666186900614 ], [ 3.26061775, 45.733693381060732 ], [ 3.262105588557869, 45.733666186900614 ], [ 3.263589349053669, 45.733584678878238 ], [ 3.265064964603017, 45.73344908016432 ], [ 3.266528390646259, 45.733259762033221 ], [ 3.267975616034335, 45.733017242849613 ], [ 3.269402674023048, 45.732722186653604 ], [ 3.270805653145648, 45.732375401348229 ], [ 3.272180707933877, 45.731977836494032 ], [ 3.273524069458141, 45.731530580716921 ], [ 3.274832055657877, 45.73103485873596 ], [ 3.27610108143383, 45.730492028019476 ], [ 3.277327668474556, 45.729903575078254 ], [ 3.278508454790235, 45.729271111405865 ], [ 3.279640203927652, 45.728596369077238 ], [ 3.280719813841087, 45.727881196017165 ], [ 3.281744325394811, 45.727127550951657 ], [ 3.282710930473869, 45.726337498055841 ], [ 3.283616979680926, 45.725513201312758 ], [ 3.284459989598084, 45.724656918598399 ], [ 3.285237649593758, 45.723770995509156 ], [ 3.285947828155953, 45.722857858948124 ], [ 3.286588578734595, 45.721920010487956 ], [ 3.287158145076886, 45.720960019528157 ], [ 3.287654966041071, 45.719980516265466 ], [ 3.288077679875422, 45.718984184496335 ], [ 3.2884251279507, 45.717973754271377 ], [ 3.288696357935883, 45.716951994421471 ], [ 3.288890626408433, 45.715921704976154 ], [ 3.289007400891971, 45.714885709494865 ], [ 3.289046361315755, 45.713846847332078 ] ] ] } },
{ "type": "Feature", "properties": { "name": "Saint-Georges-sur-Allier", "feature_type": "mrr", "metric_roundness": 60.87, "metric_rectangularity": 67.67, "metric_mobile_fit": 40.42, "metric_aspect_ratio": 1.158, "metric_area_km2": 19.14 }, "geometry": { "type": "Polygon", "coordinates": [ [ [ 3.239097541278546, 45.734633750286967 ], [ 3.288174741710614, 45.727676089839314 ], [ 3.279100850713967, 45.696479896392297 ], [ 3.2300236502819, 45.703441441787845 ], [ 3.239097541278546, 45.734633750286967 ] ] ] } }
]
}
