{
"type": "FeatureCollection",
"name": "saint_gervais_en_valliere",
"crs": { "type": "name", "properties": { "name": "urn:ogc:def:crs:OGC:1.3:CRS84" } },
"features": [
{ "type": "Feature", "properties": { "name": "Saint-Gervais-en-Vallière", "feature_type": "entity", "metric_roundness": 56.22, "metric_rectangularity": 68.62, "metric_mobile_fit": 30.22, "metric_aspect_ratio": 1.26, "metric_area_km2": 35.11 }, "geometry": { "type": "Polygon", "coordinates": [ [ [ 4.9349636, 46.9573955 ], [ 4.9314857, 46.949617699999976 ], [ 4.9318266, 46.934946599999989 ], [ 4.944586, 46.925456 ], [ 4.9596973, 46.9278918 ], [ 4.9621585, 46.9275965 ], [ 4.9643455, 46.928677 ], [ 4.9648635, 46.928268 ], [ 4.9660495, 46.928777499999974 ], [ 4.9664385, 46.928123 ], [ 4.9680735, 46.9288805 ], [ 4.970981, 46.926518 ], [ 4.974058, 46.92639 ], [ 4.975689, 46.927488499999988 ], [ 4.976997, 46.928963 ], [ 4.9764235, 46.929129499999988 ], [ 4.9777355, 46.930279 ], [ 4.987241, 46.9391965 ], [ 4.9878995, 46.9405755 ], [ 4.9936205, 46.94598 ], [ 4.994837, 46.947977 ], [ 5.004408, 46.9581065 ], [ 4.994984, 46.958955 ], [ 4.989339, 46.960436 ], [ 4.9878025, 46.959931 ], [ 4.9870595, 46.958193 ], [ 4.9833175, 46.959629 ], [ 4.9813315, 46.95936 ], [ 4.980984, 46.960313499999984 ], [ 4.9742515, 46.962449 ], [ 4.9668881, 46.961854099999989 ], [ 4.9666189, 46.9618736 ], [ 4.9663685, 46.9619708 ], [ 4.9661581, 46.962137899999981 ], [ 4.9660067, 46.962359899999981 ], [ 4.9659278, 46.962616699999984 ], [ 4.9659279, 46.9626527 ], [ 4.965912, 46.962771599999982 ], [ 4.965919, 46.962775 ], [ 4.965525, 46.964133499999981 ], [ 4.9655331, 46.964136599999989 ], [ 4.965527, 46.9641819 ], [ 4.9654509, 46.964443 ], [ 4.9653001, 46.9646691 ], [ 4.9650885, 46.964839599999983 ], [ 4.9648355, 46.964938899999986 ], [ 4.9645631, 46.964958499999987 ], [ 4.961213, 46.964682499999981 ], [ 4.9596973, 46.9631711 ], [ 4.955225, 46.963199 ], [ 4.9349636, 46.9573955 ] ] ] } },
{ "type": "Feature", "properties": { "name": "Saint-Gervais-en-Vallière", "feature_type": "circle", "metric_roundness": 56.22, "metric_rectangularity": 68.62, "metric_mobile_fit": 30.22, "metric_aspect_ratio": 1.26, "metric_area_km2": 35.11 }, "geometry": { "type": "Polygon", "coordinates": [ [ [ 5.008176510245923, 46.94652780254205 ], [ 5.008121610490521, 46.94509651819758 ], [ 5.007957061700731, 46.943669118791895 ], [ 5.007683314893347, 46.942249517197297 ], [ 5.00730112038934, 46.940841605220349 ], [ 5.00681152575728, 46.93944924292618 ], [ 5.006215872942022, 46.938076248046571 ], [ 5.00551579458653, 46.936726385500833 ], [ 5.004713209556912, 46.935403357058561 ], [ 5.003810317682951, 46.934110791172543 ], [ 5.002809593728511, 46.93285223301023 ], [ 5.001713780608393, 46.931631134711083 ], [ 5.000525881870191, 46.9304508458969 ], [ 4.999249153461775, 46.929314604461389 ], [ 4.997887094806968, 46.928225527664672 ], [ 4.996443439213869, 46.927186603557217 ], [ 4.994922143642111, 46.92620068275734 ], [ 4.993327377857111, 46.925270470605021 ], [ 4.991663513001036, 46.924398519713826 ], [ 4.989935109611802, 46.923587222941912 ], [ 4.988146905122961, 46.922838806801551 ], [ 4.986303800878718, 46.922155325325718 ], [ 4.984410848699693, 46.921538654408799 ], [ 4.982473237036234, 46.920990486637258 ], [ 4.980496276747227, 46.920512326624831 ], [ 4.978485386543411, 46.920105486865218 ], [ 4.976446078135053, 46.91977108411389 ], [ 4.974383941124755, 46.919510036309234 ], [ 4.972304627686722, 46.919323060041592 ], [ 4.970213837074557, 46.919210668577357 ], [ 4.9681173, 46.919173170443614 ], [ 4.966020762925441, 46.919210668577357 ], [ 4.963929972313277, 46.919323060041592 ], [ 4.961850658875244, 46.919510036309234 ], [ 4.959788521864945, 46.91977108411389 ], [ 4.957749213456588, 46.920105486865218 ], [ 4.95573832325277, 46.920512326624831 ], [ 4.953761362963764, 46.920990486637258 ], [ 4.951823751300306, 46.921538654408799 ], [ 4.94993079912128, 46.922155325325718 ], [ 4.948087694877038, 46.922838806801551 ], [ 4.946299490388196, 46.923587222941912 ], [ 4.944571086998962, 46.924398519713826 ], [ 4.942907222142887, 46.925270470605021 ], [ 4.941312456357887, 46.92620068275734 ], [ 4.93979116078613, 46.927186603557217 ], [ 4.93834750519303, 46.928225527664672 ], [ 4.936985446538223, 46.929314604461389 ], [ 4.935708718129808, 46.9304508458969 ], [ 4.934520819391604, 46.931631134711083 ], [ 4.933425006271488, 46.93285223301023 ], [ 4.932424282317048, 46.934110791172543 ], [ 4.931521390443085, 46.935403357058561 ], [ 4.930718805413468, 46.936726385500833 ], [ 4.930018727057976, 46.938076248046571 ], [ 4.929423074242718, 46.93944924292618 ], [ 4.928933479610659, 46.940841605220349 ], [ 4.928551285106651, 46.942249517197297 ], [ 4.928277538299268, 46.943669118791895 ], [ 4.928112989509477, 46.94509651819758 ], [ 4.928058089754075, 46.94652780254205 ], [ 4.928112989509477, 46.947959048617328 ], [ 4.928277538299268, 46.949386333634749 ], [ 4.928551285106651, 46.950805745975266 ], [ 4.928933479610659, 46.952213395905837 ], [ 4.929423074242718, 46.953605426232343 ], [ 4.930018727057976, 46.954978022860132 ], [ 4.930718805413468, 46.956327425233205 ], [ 4.931521390443085, 46.957649936623724 ], [ 4.932424282317048, 46.958941934243846 ], [ 4.933425006271488, 46.960199879152142 ], [ 4.934520819391604, 46.961420325928096 ], [ 4.935708718129808, 46.962599932088132 ], [ 4.936985446538223, 46.963735467217845 ], [ 4.93834750519303, 46.964823821795555 ], [ 4.93979116078613, 46.96586201568357 ], [ 4.941312456357887, 46.966847206263999 ], [ 4.942907222142887, 46.967776696197326 ], [ 4.944571086998962, 46.968647940782759 ], [ 4.946299490388196, 46.969458554900562 ], [ 4.948087694877038, 46.970206319517757 ], [ 4.94993079912128, 46.970889187739623 ], [ 4.951823751300306, 46.971505290390688 ], [ 4.953761362963764, 46.97205294111054 ], [ 4.95573832325277, 46.97253064095036 ], [ 4.957749213456588, 46.972937082458202 ], [ 4.959788521864945, 46.97327115324191 ], [ 4.961850658875244, 46.97353193900021 ], [ 4.963929972313277, 46.973718726013807 ], [ 4.966020762925441, 46.973831003089792 ], [ 4.9681173, 46.973868462954357 ], [ 4.970213837074557, 46.973831003089792 ], [ 4.972304627686722, 46.973718726013807 ], [ 4.974383941124755, 46.97353193900021 ], [ 4.976446078135053, 46.97327115324191 ], [ 4.978485386543411, 46.972937082458202 ], [ 4.980496276747227, 46.97253064095036 ], [ 4.982473237036234, 46.97205294111054 ], [ 4.984410848699693, 46.971505290390688 ], [ 4.986303800878718, 46.970889187739623 ], [ 4.988146905122961, 46.970206319517757 ], [ 4.989935109611802, 46.969458554900562 ], [ 4.991663513001036, 46.968647940782759 ], [ 4.993327377857111, 46.967776696197326 ], [ 4.994922143642111, 46.966847206263999 ], [ 4.996443439213869, 46.96586201568357 ], [ 4.997887094806968, 46.964823821795555 ], [ 4.999249153461775, 46.963735467217845 ], [ 5.000525881870191, 46.962599932088132 ], [ 5.001713780608393, 46.961420325928096 ], [ 5.002809593728511, 46.960199879152142 ], [ 5.003810317682951, 46.958941934243846 ], [ 5.004713209556912, 46.957649936623724 ], [ 5.00551579458653, 46.956327425233205 ], [ 5.006215872942022, 46.954978022860132 ], [ 5.00681152575728, 46.953605426232343 ], [ 5.00730112038934, 46.952213395905837 ], [ 5.007683314893347, 46.950805745975266 ], [ 5.007957061700731, 46.949386333634749 ], [ 5.008121610490521, 46.947959048617328 ], [ 5.008176510245923, 46.94652780254205 ] ] ] } },
{ "type": "Feature", "properties": { "name": "Saint-Gervais-en-Vallière", "feature_type": "mrr", "metric_roundness": 56.22, "metric_rectangularity": 68.62, "metric_mobile_fit": 30.22, "metric_aspect_ratio": 1.26, "metric_area_km2": 35.11 }, "geometry": { "type": "Polygon", "coordinates": [ [ [ 4.93882874943269, 46.969428625533268 ], [ 5.004408, 46.9581065 ], [ 4.989439348492998, 46.917706052743213 ], [ 4.923860100474445, 46.929036725941842 ], [ 4.93882874943269, 46.969428625533268 ] ] ] } }
]
}
