{
"type": "FeatureCollection",
"name": "saint_algis",
"crs": { "type": "name", "properties": { "name": "urn:ogc:def:crs:OGC:1.3:CRS84" } },
"features": [
{ "type": "Feature", "properties": { "name": "Saint-Algis", "feature_type": "entity", "metric_roundness": 52.54, "metric_rectangularity": 68.42, "metric_mobile_fit": 63.65, "metric_aspect_ratio": 0.926, "metric_area_km2": 16.7 }, "geometry": { "type": "Polygon", "coordinates": [ [ [ 3.8136515, 49.9100165 ], [ 3.8082915, 49.905448 ], [ 3.8032545, 49.897642 ], [ 3.8112855, 49.886930499999984 ], [ 3.8178914, 49.8863405 ], [ 3.8259244, 49.8793064 ], [ 3.8485405, 49.881103 ], [ 3.8392371, 49.896813199999983 ], [ 3.837702, 49.9065155 ], [ 3.8284145, 49.905598 ], [ 3.8219645, 49.908514499999981 ], [ 3.814787, 49.910811 ], [ 3.8136515, 49.9100165 ] ] ] } },
{ "type": "Feature", "properties": { "name": "Saint-Algis", "feature_type": "circle", "metric_roundness": 52.54, "metric_rectangularity": 68.42, "metric_mobile_fit": 63.65, "metric_aspect_ratio": 0.926, "metric_area_km2": 16.7 }, "geometry": { "type": "Polygon", "coordinates": [ [ [ 3.860238838380988, 49.89595928622839 ], [ 3.860199677215477, 49.894995906103752 ], [ 3.860082301056976, 49.894035147382866 ], [ 3.859887031625377, 49.893079643674611 ], [ 3.85961440414062, 49.892132014338856 ], [ 3.859265165855688, 49.891194857302594 ], [ 3.858840274008449, 49.89027074193335 ], [ 3.858340893197918, 49.889362201989208 ], [ 3.857768392192188, 49.888471728664918 ], [ 3.857124340176719, 49.88760176375331 ], [ 3.856410502453321, 49.886754692940826 ], [ 3.855628835601574, 49.885932839255709 ], [ 3.854781482115985, 49.885138456686768 ], [ 3.853870764533561, 49.884373723990699 ], [ 3.852899179067891, 49.883640738704827 ], [ 3.851869388767202, 49.882941511381851 ], [ 3.850784216215128, 49.882277960062794 ], [ 3.849646635794207, 49.881651905003253 ], [ 3.848459765533298, 49.881065063667648 ], [ 3.84722685856129, 49.880519046005524 ], [ 3.845951294190495, 49.880015350022695 ], [ 3.844636568654186, 49.879555357659946 ], [ 3.843286285523678, 49.879140330990474 ], [ 3.84190414583117, 49.878771408746786 ], [ 3.840493937925491, 49.878449603186588 ], [ 3.839059527088487, 49.878175797306632 ], [ 3.837604844940558, 49.87795074241204 ], [ 3.836133878664357, 49.877775056048023 ], [ 3.834650660076202, 49.877649220299709 ], [ 3.833159254575146, 49.877573580464862 ], [ 3.83166375, 49.877548344103211 ], [ 3.830168245424855, 49.877573580464862 ], [ 3.828676839923798, 49.877649220299709 ], [ 3.827193621335642, 49.877775056048023 ], [ 3.825722655059443, 49.87795074241204 ], [ 3.824267972911513, 49.878175797306632 ], [ 3.822833562074508, 49.878449603186588 ], [ 3.821423354168829, 49.878771408746786 ], [ 3.820041214476323, 49.879140330990474 ], [ 3.818690931345813, 49.879555357659946 ], [ 3.817376205809506, 49.880015350022695 ], [ 3.81610064143871, 49.880519046005524 ], [ 3.814867734466701, 49.881065063667648 ], [ 3.813680864205793, 49.881651905003253 ], [ 3.812543283784872, 49.882277960062794 ], [ 3.811458111232799, 49.882941511381851 ], [ 3.81042832093211, 49.883640738704827 ], [ 3.809456735466439, 49.884373723990699 ], [ 3.808546017884015, 49.885138456686768 ], [ 3.807698664398427, 49.885932839255709 ], [ 3.806916997546679, 49.886754692940826 ], [ 3.806203159823281, 49.88760176375331 ], [ 3.805559107807813, 49.888471728664918 ], [ 3.804986606802082, 49.889362201989208 ], [ 3.804487225991552, 49.89027074193335 ], [ 3.804062334144311, 49.891194857302594 ], [ 3.803713095859381, 49.892132014338856 ], [ 3.803440468374623, 49.893079643674611 ], [ 3.803245198943024, 49.894035147382866 ], [ 3.803127822784524, 49.894995906103752 ], [ 3.803088661619012, 49.89595928622839 ], [ 3.803127822784524, 49.896922647119936 ], [ 3.803245198943024, 49.897883348352217 ], [ 3.803440468374623, 49.898838756946226 ], [ 3.803713095859381, 49.899786254584207 ], [ 3.804062334144311, 49.900723244782036 ], [ 3.804487225991552, 49.901647160000131 ], [ 3.804986606802082, 49.902555468673313 ], [ 3.805559107807813, 49.903445682140671 ], [ 3.806203159823281, 49.904315361456412 ], [ 3.806916997546679, 49.905162124063153 ], [ 3.807698664398427, 49.905983650309444 ], [ 3.808546017884015, 49.906777689793927 ], [ 3.809456735466439, 49.907542067518818 ], [ 3.81042832093211, 49.908274689835949 ], [ 3.811458111232799, 49.908973550169364 ], [ 3.812543283784872, 49.909636734498868 ], [ 3.813680864205793, 49.910262426589668 ], [ 3.814867734466701, 49.910848912954094 ], [ 3.81610064143871, 49.911394587531767 ], [ 3.817376205809506, 49.911897956075777 ], [ 3.818690931345813, 49.912357640232798 ], [ 3.820041214476323, 49.912772381306418 ], [ 3.821423354168829, 49.913141043693187 ], [ 3.822833562074508, 49.913462617982432 ], [ 3.824267972911513, 49.913736223711254 ], [ 3.825722655059443, 49.913961111767435 ], [ 3.827193621335642, 49.914136666433663 ], [ 3.828676839923798, 49.914262407067753 ], [ 3.830168245424855, 49.914337989413987 ], [ 3.83166375, 49.914363206542525 ], [ 3.833159254575146, 49.914337989413987 ], [ 3.834650660076202, 49.914262407067753 ], [ 3.836133878664357, 49.914136666433663 ], [ 3.837604844940558, 49.913961111767435 ], [ 3.839059527088487, 49.913736223711254 ], [ 3.840493937925491, 49.913462617982432 ], [ 3.84190414583117, 49.913141043693187 ], [ 3.843286285523678, 49.912772381306418 ], [ 3.844636568654186, 49.912357640232798 ], [ 3.845951294190495, 49.911897956075777 ], [ 3.84722685856129, 49.911394587531767 ], [ 3.848459765533298, 49.910848912954094 ], [ 3.849646635794207, 49.910262426589668 ], [ 3.850784216215128, 49.909636734498868 ], [ 3.851869388767202, 49.908973550169364 ], [ 3.852899179067891, 49.908274689835949 ], [ 3.853870764533561, 49.907542067518818 ], [ 3.854781482115985, 49.906777689793927 ], [ 3.855628835601574, 49.905983650309444 ], [ 3.856410502453321, 49.905162124063153 ], [ 3.857124340176719, 49.904315361456412 ], [ 3.857768392192188, 49.903445682140671 ], [ 3.858340893197918, 49.902555468673313 ], [ 3.858840274008449, 49.901647160000131 ], [ 3.859265165855688, 49.900723244782036 ], [ 3.85961440414062, 49.899786254584207 ], [ 3.859887031625377, 49.898838756946226 ], [ 3.860082301056976, 49.897883348352217 ], [ 3.860199677215477, 49.896922647119936 ], [ 3.860238838380988, 49.89595928622839 ] ] ] } },
{ "type": "Feature", "properties": { "name": "Saint-Algis", "feature_type": "mrr", "metric_roundness": 52.54, "metric_rectangularity": 68.42, "metric_mobile_fit": 63.65, "metric_aspect_ratio": 0.926, "metric_area_km2": 16.7 }, "geometry": { "type": "Polygon", "coordinates": [ [ [ 3.834389592259134, 49.914279299507079 ], [ 3.8485405, 49.881103 ], [ 3.812991416977932, 49.874808769131576 ], [ 3.798840497962081, 49.907989392063158 ], [ 3.834389592259134, 49.914279299507079 ] ] ] } }
]
}
