{
"type": "FeatureCollection",
"name": "saint_jacques_d_atticieux",
"crs": { "type": "name", "properties": { "name": "urn:ogc:def:crs:OGC:1.3:CRS84" } },
"features": [
{ "type": "Feature", "properties": { "name": "Saint-Jacques-d'Atticieux", "metric_roundness": 25.16, "metric_rectangularity": 61.14, "metric_mobile_fit": 3.47, "metric_aspect_ratio": 1.528, "metric_area_km2": 10.73 }, "geometry": { "type": "Polygon", "coordinates": [ [ [ 4.639563, 45.324284 ], [ 4.6424735, 45.321884499999982 ], [ 4.6431795, 45.318899 ], [ 4.6604195, 45.319369499999986 ], [ 4.6713491, 45.331909399999986 ], [ 4.6900765, 45.3427585 ], [ 4.6980205, 45.344984499999988 ], [ 4.6801235, 45.34626 ], [ 4.6610163, 45.339500299999983 ], [ 4.6385585, 45.326194499999986 ], [ 4.639563, 45.324284 ] ] ] } }
]
}
