{
"type": "FeatureCollection",
"name": "sainte_suzanne_sur_vire",
"crs": { "type": "name", "properties": { "name": "urn:ogc:def:crs:OGC:1.3:CRS84" } },
"features": [
{ "type": "Feature", "properties": { "name": "Sainte-Suzanne-sur-Vire", "metric_roundness": 50.35, "metric_rectangularity": 72.04, "metric_mobile_fit": 80.91, "metric_aspect_ratio": 0.753, "metric_area_km2": 11.34 }, "geometry": { "type": "Polygon", "coordinates": [ [ [ -1.05521, 49.088156 ], [ -1.0616505, 49.084051499999987 ], [ -1.0715405, 49.080379499999985 ], [ -1.078098, 49.076225 ], [ -1.0645533, 49.0671815 ], [ -1.059159, 49.057841 ], [ -1.0522735, 49.0585838 ], [ -1.0422534, 49.0660004 ], [ -1.0440131, 49.0762951 ], [ -1.0504321, 49.0820186 ], [ -1.052049, 49.08901 ], [ -1.05521, 49.088156 ] ] ] } }
]
}
