{
"type": "FeatureCollection",
"name": "saint_jean_chambre",
"crs": { "type": "name", "properties": { "name": "urn:ogc:def:crs:OGC:1.3:CRS84" } },
"features": [
{ "type": "Feature", "properties": { "name": "Saint-Jean-Chambre", "metric_roundness": 51.7, "metric_rectangularity": 55.71, "metric_mobile_fit": 41.46, "metric_aspect_ratio": 1.148, "metric_area_km2": 31.41 }, "geometry": { "type": "Polygon", "coordinates": [ [ [ 4.547295, 44.912542800000011 ], [ 4.5394708, 44.9120334 ], [ 4.521924, 44.8993007 ], [ 4.5228486, 44.8948286 ], [ 4.532586, 44.8855225 ], [ 4.542907, 44.897182299999983 ], [ 4.561441, 44.890191499999986 ], [ 4.5713579, 44.897630799999988 ], [ 4.583259, 44.8955688 ], [ 4.598453, 44.900814499999981 ], [ 4.5984404, 44.9086442 ], [ 4.5940514, 44.9126173 ], [ 4.573152, 44.9220678 ], [ 4.5687346, 44.9292116 ], [ 4.5514055, 44.932739 ], [ 4.54915, 44.928555 ], [ 4.547295, 44.912542800000011 ] ] ] } }
]
}
