{
"type": "FeatureCollection",
"name": "saint_laurent_nouan",
"crs": { "type": "name", "properties": { "name": "urn:ogc:def:crs:OGC:1.3:CRS84" } },
"features": [
{ "type": "Feature", "properties": { "name": "Saint-Laurent-Nouan", "feature_type": "entity", "metric_roundness": 38.46, "metric_rectangularity": 46.04, "metric_mobile_fit": 41.61, "metric_aspect_ratio": 1.146, "metric_area_km2": 136.32 }, "geometry": { "type": "Polygon", "coordinates": [ [ [ 1.5422963, 47.6888279 ], [ 1.5392972, 47.684358 ], [ 1.5410725, 47.6811215 ], [ 1.5435865, 47.682263 ], [ 1.5485985, 47.676541499999978 ], [ 1.558595, 47.666894 ], [ 1.562679, 47.6608495 ], [ 1.5646725, 47.6610885 ], [ 1.5678235, 47.6549025 ], [ 1.5672625, 47.6523355 ], [ 1.577014, 47.6501735 ], [ 1.5773485, 47.6538367 ], [ 1.5825702, 47.657538599999988 ], [ 1.6075527, 47.66988 ], [ 1.6138203, 47.6836451 ], [ 1.6128166, 47.69421 ], [ 1.6247775, 47.701317 ], [ 1.6624596, 47.7109862 ], [ 1.7011724, 47.7111709 ], [ 1.706243, 47.707113499999984 ], [ 1.7125466, 47.694673699999981 ], [ 1.719374, 47.695921 ], [ 1.728058, 47.6995645 ], [ 1.713752, 47.7210621 ], [ 1.712464, 47.732881 ], [ 1.6947164, 47.7386981 ], [ 1.673921, 47.739638 ], [ 1.6557, 47.747193499999987 ], [ 1.6266315, 47.760974499999989 ], [ 1.6218527, 47.7447742 ], [ 1.6152833, 47.738053299999983 ], [ 1.5828645, 47.726438 ], [ 1.576804, 47.725074 ], [ 1.574691, 47.7237115 ], [ 1.5722725, 47.7204125 ], [ 1.5723695, 47.718344 ], [ 1.573337, 47.7158775 ], [ 1.578965, 47.709123 ], [ 1.57927, 47.703678 ], [ 1.5755745, 47.6992965 ], [ 1.565716, 47.694689499999988 ], [ 1.5422963, 47.6888279 ] ] ] } },
{ "type": "Feature", "properties": { "name": "Saint-Laurent-Nouan", "feature_type": "circle", "metric_roundness": 38.46, "metric_rectangularity": 46.04, "metric_mobile_fit": 41.61, "metric_aspect_ratio": 1.146, "metric_area_km2": 136.32 }, "geometry": { "type": "Polygon", "coordinates": [ [ [ 1.728099841390869, 47.697662716414236 ], [ 1.727969049763078, 47.694300941045427 ], [ 1.727577033370468, 47.690948164215079 ], [ 1.726924866702721, 47.687613578310255 ], [ 1.726014337303343, 47.684306327599757 ], [ 1.724847940870126, 47.681035483122137 ], [ 1.72342887441462, 47.677810017755874 ], [ 1.72176102749934, 47.674638781540764 ], [ 1.71984897157675, 47.671530477319095 ], [ 1.71769794745923, 47.668493636764538 ], [ 1.715313850954369, 47.6655365968656 ], [ 1.71270321670497, 47.662667476929748 ], [ 1.70987320027805, 47.659894156172577 ], [ 1.70683155855192, 47.657224251955419 ], [ 1.703586628455131, 47.654665098732643 ], [ 1.700147304115527, 47.652223727768373 ], [ 1.696523012482056, 47.649906847680185 ], [ 1.692723687486165, 47.647720825865072 ], [ 1.688759742813581, 47.645671670860686 ], [ 1.684642043361119, 47.643765015692225 ], [ 1.680381875456763, 47.642006102252644 ], [ 1.675990915924616, 47.640399766760879 ], [ 1.671481200079544, 47.638950426340045 ], [ 1.666865088739213, 47.637662066753975 ], [ 1.662155234343944, 47.63653823133771 ], [ 1.657364546277257, 47.63558201115351 ], [ 1.652506155482145, 47.634796036401241 ], [ 1.647593378470076, 47.634182469107508 ], [ 1.642639680821357, 47.633742997115142 ], [ 1.637658640276916, 47.633478829390043 ], [ 1.632663909522656, 47.633390692659304 ], [ 1.627669178768397, 47.633478829390043 ], [ 1.622688138223956, 47.633742997115142 ], [ 1.617734440575237, 47.634182469107508 ], [ 1.612821663563168, 47.634796036401241 ], [ 1.607963272768056, 47.63558201115351 ], [ 1.603172584701369, 47.63653823133771 ], [ 1.5984627303061, 47.637662066753975 ], [ 1.593846618965769, 47.638950426340031 ], [ 1.589336903120697, 47.640399766760879 ], [ 1.58494594358855, 47.642006102252644 ], [ 1.580685775684193, 47.643765015692225 ], [ 1.576568076231732, 47.645671670860686 ], [ 1.572604131559148, 47.647720825865072 ], [ 1.568804806563257, 47.649906847680185 ], [ 1.565180514929786, 47.652223727768373 ], [ 1.561741190590181, 47.654665098732643 ], [ 1.558496260493393, 47.657224251955419 ], [ 1.555454618767263, 47.659894156172577 ], [ 1.552624602340342, 47.662667476929748 ], [ 1.550013968090944, 47.6655365968656 ], [ 1.547629871586083, 47.668493636764538 ], [ 1.545478847468562, 47.671530477319095 ], [ 1.543566791545973, 47.674638781540764 ], [ 1.541898944630693, 47.677810017755874 ], [ 1.540479878175186, 47.681035483122137 ], [ 1.53931348174197, 47.684306327599757 ], [ 1.538402952342591, 47.687613578310255 ], [ 1.537750785674845, 47.690948164215079 ], [ 1.537358769282234, 47.694300941045427 ], [ 1.537227977654444, 47.697662716414236 ], [ 1.537358769282234, 47.701024275041007 ], [ 1.537750785674845, 47.704376404019875 ], [ 1.538402952342591, 47.707709918061795 ], [ 1.53931348174197, 47.711015684641524 ], [ 1.540479878175186, 47.714284648981 ], [ 1.541898944630693, 47.717507858800921 ], [ 1.543566791545973, 47.720676488773783 ], [ 1.545478847468562, 47.723781864611837 ], [ 1.547629871586083, 47.726815486725435 ], [ 1.550013968090944, 47.729769053387997 ], [ 1.552624602340342, 47.732634483345606 ], [ 1.555454618767263, 47.735403937810837 ], [ 1.558496260493393, 47.738069841782298 ], [ 1.561741190590181, 47.740624904633158 ], [ 1.565180514929786, 47.743062139914272 ], [ 1.568804806563257, 47.745374884319467 ], [ 1.572604131559148, 47.747556815763183 ], [ 1.576568076231732, 47.74960197052269 ], [ 1.580685775684193, 47.751504759400319 ], [ 1.58494594358855, 47.753259982862978 ], [ 1.589336903120697, 47.754862845119874 ], [ 1.593846618965769, 47.756308967101361 ], [ 1.5984627303061, 47.757594398305443 ], [ 1.603172584701369, 47.75871562748106 ], [ 1.607963272768056, 47.759669592120432 ], [ 1.612821663563168, 47.760453686735879 ], [ 1.617734440575237, 47.761065769899943 ], [ 1.622688138223956, 47.761504170030236 ], [ 1.627669178768397, 47.761767689904353 ], [ 1.632663909522656, 47.76185560989321 ], [ 1.637658640276916, 47.761767689904353 ], [ 1.642639680821357, 47.761504170030236 ], [ 1.647593378470076, 47.761065769899943 ], [ 1.652506155482145, 47.760453686735879 ], [ 1.657364546277257, 47.759669592120432 ], [ 1.662155234343944, 47.75871562748106 ], [ 1.666865088739212, 47.757594398305443 ], [ 1.671481200079544, 47.756308967101361 ], [ 1.675990915924615, 47.754862845119874 ], [ 1.680381875456763, 47.753259982862978 ], [ 1.684642043361119, 47.751504759400319 ], [ 1.688759742813581, 47.74960197052269 ], [ 1.692723687486165, 47.747556815763183 ], [ 1.696523012482056, 47.745374884319467 ], [ 1.700147304115527, 47.743062139914272 ], [ 1.703586628455131, 47.740624904633158 ], [ 1.70683155855192, 47.738069841782298 ], [ 1.70987320027805, 47.735403937810837 ], [ 1.71270321670497, 47.732634483345606 ], [ 1.715313850954369, 47.729769053387997 ], [ 1.71769794745923, 47.726815486725435 ], [ 1.71984897157675, 47.723781864611837 ], [ 1.72176102749934, 47.720676488773783 ], [ 1.72342887441462, 47.717507858800921 ], [ 1.724847940870126, 47.714284648981 ], [ 1.726014337303343, 47.711015684641524 ], [ 1.726924866702721, 47.707709918061795 ], [ 1.727577033370468, 47.704376404019875 ], [ 1.727969049763078, 47.701024275041007 ], [ 1.728099841390869, 47.697662716414236 ] ] ] } },
{ "type": "Feature", "properties": { "name": "Saint-Laurent-Nouan", "feature_type": "mrr", "metric_roundness": 38.46, "metric_rectangularity": 46.04, "metric_mobile_fit": 41.61, "metric_aspect_ratio": 1.146, "metric_area_km2": 136.32 }, "geometry": { "type": "Polygon", "coordinates": [ [ [ 1.735098380992495, 47.700971582487647 ], [ 1.565602372304289, 47.646504627560454 ], [ 1.510805403039574, 47.723803174902692 ], [ 1.680301411727779, 47.778189440947216 ], [ 1.735098380992495, 47.700971582487647 ] ] ] } }
]
}
