{
"type": "FeatureCollection",
"name": "saint_martial_le_mont",
"crs": { "type": "name", "properties": { "name": "urn:ogc:def:crs:OGC:1.3:CRS84" } },
"features": [
{ "type": "Feature", "properties": { "name": "Saint-Martial-le-Mont", "feature_type": "entity", "metric_roundness": 35.51, "metric_rectangularity": 44.76, "metric_mobile_fit": 85.9, "metric_aspect_ratio": 0.704, "metric_area_km2": 21.27 }, "geometry": { "type": "Polygon", "coordinates": [ [ [ 2.0880236, 46.0646055 ], [ 2.0754, 46.0753495 ], [ 2.0702605, 46.077747099999989 ], [ 2.0678345, 46.075872 ], [ 2.0740525, 46.0598715 ], [ 2.0796383, 46.0555708 ], [ 2.0747425, 46.046554799999988 ], [ 2.0772362, 46.0370145 ], [ 2.0690603, 46.0312513 ], [ 2.070921, 46.0260355 ], [ 2.0796325, 46.0286141 ], [ 2.0854979, 46.038109 ], [ 2.0916256, 46.0331153 ], [ 2.100644, 46.037078 ], [ 2.1053613, 46.039769 ], [ 2.1159468, 46.0385041 ], [ 2.1202545, 46.04364 ], [ 2.1164418, 46.045509 ], [ 2.1095385, 46.057384499999984 ], [ 2.099247, 46.061277499999989 ], [ 2.0880236, 46.0646055 ] ] ] } },
{ "type": "Feature", "properties": { "name": "Saint-Martial-le-Mont", "feature_type": "circle", "metric_roundness": 35.51, "metric_rectangularity": 44.76, "metric_mobile_fit": 85.9, "metric_aspect_ratio": 0.704, "metric_area_km2": 21.27 }, "geometry": { "type": "Polygon", "coordinates": [ [ [ 2.122136528817866, 46.05197307004827 ], [ 2.122082754771291, 46.050547877916152 ], [ 2.121921580022488, 46.049126555511634 ], [ 2.121653446340241, 46.047712999032072 ], [ 2.121279088660337, 46.046311083684543 ], [ 2.120799533071152, 46.044924653055901 ], [ 2.120216094001226, 46.043557508566458 ], [ 2.119530370616492, 46.042213399036235 ], [ 2.118744242437086, 46.04089601039248 ], [ 2.117859864185704, 46.039608955546839 ], [ 2.116879659881659, 46.038355764470353 ], [ 2.115806316196818, 46.037139874493349 ], [ 2.114642775091612, 46.03596462085757 ], [ 2.113392225751335, 46.03483322754623 ], [ 2.112058095844802, 46.033748798417832 ], [ 2.110644042129355, 46.03271430866814 ], [ 2.109153940427936, 46.031732596644133 ], [ 2.107591875005735, 46.030806356032713 ], [ 2.105962127375496, 46.029938128445956 ], [ 2.10426916456219, 46.029130296423425 ], [ 2.102517626859212, 46.028385076871281 ], [ 2.100712315109659, 46.027704514956412 ], [ 2.09885817754755, 46.027090478472495 ], [ 2.096960296235065, 46.026544652694092 ], [ 2.095023873132958, 46.026068535732762 ], [ 2.093054215842356, 46.025663434408528 ], [ 2.091056723056982, 46.025330460648071 ], [ 2.089036869765716, 46.025070528419747 ], [ 2.087000192246032, 46.024884351214162 ], [ 2.084952272889444, 46.024772440077186 ], [ 2.082898724900558, 46.024735102200985 ], [ 2.080845176911673, 46.024772440077186 ], [ 2.078797257555085, 46.024884351214162 ], [ 2.076760580035401, 46.025070528419747 ], [ 2.074740726744135, 46.025330460648071 ], [ 2.072743233958761, 46.025663434408528 ], [ 2.070773576668159, 46.026068535732762 ], [ 2.068837153566053, 46.026544652694092 ], [ 2.066939272253566, 46.027090478472495 ], [ 2.065085134691458, 46.027704514956412 ], [ 2.063279822941905, 46.028385076871281 ], [ 2.061528285238927, 46.029130296423425 ], [ 2.059835322425621, 46.029938128445956 ], [ 2.058205574795382, 46.030806356032713 ], [ 2.05664350937318, 46.031732596644133 ], [ 2.055153407671762, 46.03271430866814 ], [ 2.053739353956315, 46.033748798417832 ], [ 2.052405224049782, 46.03483322754623 ], [ 2.051154674709504, 46.03596462085757 ], [ 2.049991133604299, 46.037139874493349 ], [ 2.048917789919457, 46.038355764470353 ], [ 2.047937585615413, 46.039608955546839 ], [ 2.047053207364031, 46.04089601039248 ], [ 2.046267079184625, 46.042213399036235 ], [ 2.045581355799892, 46.043557508566458 ], [ 2.044997916729965, 46.044924653055901 ], [ 2.04451836114078, 46.046311083684543 ], [ 2.044144003460876, 46.047712999032072 ], [ 2.043875869778629, 46.049126555511634 ], [ 2.043714695029827, 46.050547877916152 ], [ 2.043660920983251, 46.05197307004827 ], [ 2.043714695029827, 46.053398225404408 ], [ 2.043875869778629, 46.054819437883928 ], [ 2.044144003460876, 46.056232812493811 ], [ 2.04451836114078, 46.057634476019615 ], [ 2.044997916729965, 46.059020587633469 ], [ 2.045581355799892, 46.06038734941027 ], [ 2.046267079184625, 46.061731016723073 ], [ 2.047053207364031, 46.063047908489658 ], [ 2.047937585615413, 46.064334417242264 ], [ 2.048917789919457, 46.065587018992979 ], [ 2.049991133604299, 46.066802282868238 ], [ 2.051154674709504, 46.067976880485993 ], [ 2.052405224049782, 46.069107595050518 ], [ 2.053739353956315, 46.070191330139799 ], [ 2.055153407671762, 46.071225118162104 ], [ 2.05664350937318, 46.072206128458738 ], [ 2.058205574795382, 46.073131675031043 ], [ 2.059835322425621, 46.073999223871027 ], [ 2.061528285238927, 46.07480639987557 ], [ 2.063279822941905, 46.075550993325997 ], [ 2.065085134691458, 46.076230965915144 ], [ 2.066939272253566, 46.076844456306077 ], [ 2.068837153566053, 46.077389785207373 ], [ 2.070773576668159, 46.077865459951333 ], [ 2.072743233958761, 46.07827017856296 ], [ 2.074740726744135, 46.078602833308679 ], [ 2.076760580035401, 46.078862513715308 ], [ 2.078797257555085, 46.079048509051248 ], [ 2.080845176911673, 46.079160310263241 ], [ 2.082898724900558, 46.079197611363469 ], [ 2.084952272889444, 46.079160310263241 ], [ 2.087000192246032, 46.079048509051248 ], [ 2.089036869765716, 46.078862513715308 ], [ 2.091056723056982, 46.078602833308679 ], [ 2.093054215842356, 46.07827017856296 ], [ 2.095023873132958, 46.077865459951333 ], [ 2.096960296235065, 46.077389785207373 ], [ 2.09885817754755, 46.076844456306077 ], [ 2.100712315109659, 46.076230965915144 ], [ 2.102517626859212, 46.075550993325997 ], [ 2.10426916456219, 46.07480639987557 ], [ 2.105962127375496, 46.073999223871027 ], [ 2.107591875005735, 46.073131675031043 ], [ 2.109153940427936, 46.072206128458738 ], [ 2.110644042129355, 46.071225118162104 ], [ 2.112058095844802, 46.070191330139799 ], [ 2.113392225751335, 46.069107595050518 ], [ 2.114642775091612, 46.067976880485993 ], [ 2.115806316196818, 46.066802282868238 ], [ 2.116879659881659, 46.065587018992979 ], [ 2.117859864185704, 46.064334417242264 ], [ 2.118744242437086, 46.063047908489658 ], [ 2.119530370616492, 46.061731016723073 ], [ 2.120216094001226, 46.06038734941027 ], [ 2.120799533071152, 46.059020587633469 ], [ 2.121279088660337, 46.057634476019615 ], [ 2.121653446340241, 46.056232812493811 ], [ 2.121921580022488, 46.054819437883928 ], [ 2.122082754771291, 46.053398225404408 ], [ 2.122136528817866, 46.05197307004827 ] ] ] } },
{ "type": "Feature", "properties": { "name": "Saint-Martial-le-Mont", "feature_type": "mrr", "metric_roundness": 35.51, "metric_rectangularity": 44.76, "metric_mobile_fit": 85.9, "metric_aspect_ratio": 0.704, "metric_area_km2": 21.27 }, "geometry": { "type": "Polygon", "coordinates": [ [ [ 2.122209358528163, 46.040238112060827 ], [ 2.070921, 46.0260355 ], [ 2.045188974937904, 46.070809540930597 ], [ 2.096477338041962, 46.085000645571732 ], [ 2.122209358528163, 46.040238112060827 ] ] ] } }
]
}
