{
"type": "FeatureCollection",
"name": "saint_haon_le_vieux",
"crs": { "type": "name", "properties": { "name": "urn:ogc:def:crs:OGC:1.3:CRS84" } },
"features": [
{ "type": "Feature", "properties": { "name": "Saint-Haon-le-Vieux", "feature_type": "entity", "metric_roundness": 31.91, "metric_rectangularity": 56.49, "metric_mobile_fit": -54.67, "metric_aspect_ratio": 2.109, "metric_area_km2": 33.53 }, "geometry": { "type": "Polygon", "coordinates": [ [ [ 3.8753627, 46.061830099999987 ], [ 3.8856555, 46.0564844 ], [ 3.910527, 46.060912 ], [ 3.9139027, 46.069972899999982 ], [ 3.920226, 46.0697026 ], [ 3.9233075, 46.064828 ], [ 3.925627, 46.064570499999988 ], [ 3.928322, 46.066107 ], [ 3.9496085, 46.068999 ], [ 3.9465957, 46.0746928 ], [ 3.95285, 46.0867705 ], [ 3.9421805, 46.0867875 ], [ 3.9064465, 46.086622199999987 ], [ 3.8679896, 46.081017699999983 ], [ 3.85058, 46.090122 ], [ 3.8631277, 46.079473199999988 ], [ 3.868731, 46.0617115 ], [ 3.8753627, 46.061830099999987 ] ] ] } },
{ "type": "Feature", "properties": { "name": "Saint-Haon-le-Vieux", "feature_type": "circle", "metric_roundness": 31.91, "metric_rectangularity": 56.49, "metric_mobile_fit": -54.67, "metric_aspect_ratio": 2.109, "metric_area_km2": 33.53 }, "geometry": { "type": "Polygon", "coordinates": [ [ [ 3.953257067604221, 46.082268039480006 ], [ 3.953185854162703, 46.080381672683203 ], [ 3.952972409029242, 46.078500412056492 ], [ 3.952617317242113, 46.076629414796209 ], [ 3.95212155208322, 46.074773810485766 ], [ 3.951486472410408, 46.072938687021498 ], [ 3.950713818932912, 46.07112907664721 ], [ 3.949805709440209, 46.069349942136014 ], [ 3.948764632997297, 46.067606163157414 ], [ 3.947593443122341, 46.065902522867674 ], [ 3.94629534996538, 46.064243694760243 ], [ 3.944873911509528, 46.062634229812971 ], [ 3.943333023818789, 46.061078543967618 ], [ 3.941676910359219, 46.059580905976752 ], [ 3.939910110422693, 46.058145425651524 ], [ 3.938037466685031, 46.05677604254344 ], [ 3.936064111932551, 46.05547651509152 ], [ 3.933995454993462, 46.05425041026534 ], [ 3.931837165912646, 46.053101093732742 ], [ 3.929595160410451, 46.052031720580075 ], [ 3.927275583668119, 46.051045226610711 ], [ 3.924884793484269, 46.050144320246432 ], [ 3.922429342848613, 46.049331475054437 ], [ 3.919915961980668, 46.048608922920906 ], [ 3.917351539882688, 46.047978647890517 ], [ 3.914743105457394, 46.047442380689027 ], [ 3.912097808242237, 46.047001593944628 ], [ 3.909422898813009, 46.046657498121313 ], [ 3.906725708910526, 46.046411038175947 ], [ 3.904013631344831, 46.046262890948292 ], [ 3.901294099732017, 46.046213463291501 ], [ 3.898574568119204, 46.046262890948292 ], [ 3.89586249055351, 46.046411038175947 ], [ 3.893165300651027, 46.046657498121313 ], [ 3.890490391221799, 46.047001593944628 ], [ 3.887845094006641, 46.047442380689027 ], [ 3.885236659581348, 46.047978647890517 ], [ 3.882672237483368, 46.048608922920906 ], [ 3.880158856615423, 46.049331475054437 ], [ 3.877703405979766, 46.050144320246432 ], [ 3.875312615795916, 46.051045226610711 ], [ 3.872993039053584, 46.052031720580075 ], [ 3.870751033551389, 46.053101093732742 ], [ 3.868592744470573, 46.05425041026534 ], [ 3.866524087531485, 46.05547651509152 ], [ 3.864550732779004, 46.05677604254344 ], [ 3.862678089041342, 46.058145425651524 ], [ 3.860911289104817, 46.059580905976752 ], [ 3.859255175645246, 46.061078543967618 ], [ 3.857714287954507, 46.062634229812971 ], [ 3.856292849498655, 46.064243694760243 ], [ 3.854994756341694, 46.065902522867674 ], [ 3.853823566466738, 46.067606163157414 ], [ 3.852782490023826, 46.069349942136014 ], [ 3.851874380531124, 46.07112907664721 ], [ 3.851101727053628, 46.072938687021498 ], [ 3.850466647380814, 46.074773810485766 ], [ 3.849970882221923, 46.076629414796209 ], [ 3.849615790434793, 46.078500412056492 ], [ 3.849402345301333, 46.080381672683203 ], [ 3.849331131859814, 46.082268039480006 ], [ 3.849402345301333, 46.084154341781868 ], [ 3.849615790434793, 46.086035409630384 ], [ 3.849970882221923, 46.087906087941356 ], [ 3.850466647380814, 46.089761250625834 ], [ 3.851101727053628, 46.091595814626032 ], [ 3.851874380531124, 46.093404753827734 ], [ 3.852782490023826, 46.095183112811384 ], [ 3.853823566466738, 46.096926020404268 ], [ 3.854994756341694, 46.098628702997246 ], [ 3.856292849498655, 46.100286497589586 ], [ 3.857714287954507, 46.101894864526848 ], [ 3.859255175645246, 46.103449399897308 ], [ 3.860911289104817, 46.104945847553232 ], [ 3.862678089041342, 46.106380110725041 ], [ 3.864550732779004, 46.107748263196598 ], [ 3.866524087531485, 46.109046560012004 ], [ 3.868592744470573, 46.110271447684816 ], [ 3.870751033551389, 46.111419573882564 ], [ 3.872993039053584, 46.112487796560437 ], [ 3.875312615795916, 46.113473192519919 ], [ 3.877703405979766, 46.11437306536925 ], [ 3.880158856615423, 46.115184952864645 ], [ 3.882672237483368, 46.115906633612624 ], [ 3.885236659581348, 46.116536133115609 ], [ 3.887845094006641, 46.117071729144669 ], [ 3.890490391221799, 46.117511956425133 ], [ 3.893165300651027, 46.117855610622577 ], [ 3.89586249055351, 46.11810175161871 ], [ 3.898574568119204, 46.118249706068234 ], [ 3.901294099732017, 46.118299069230105 ], [ 3.904013631344831, 46.118249706068234 ], [ 3.906725708910526, 46.11810175161871 ], [ 3.909422898813008, 46.117855610622577 ], [ 3.912097808242237, 46.117511956425133 ], [ 3.914743105457394, 46.117071729144669 ], [ 3.917351539882688, 46.116536133115609 ], [ 3.919915961980668, 46.115906633612624 ], [ 3.922429342848613, 46.115184952864645 ], [ 3.924884793484269, 46.11437306536925 ], [ 3.927275583668119, 46.113473192519919 ], [ 3.929595160410451, 46.112487796560437 ], [ 3.931837165912646, 46.111419573882564 ], [ 3.933995454993462, 46.110271447684816 ], [ 3.936064111932551, 46.109046560012004 ], [ 3.938037466685031, 46.107748263196598 ], [ 3.939910110422693, 46.106380110725041 ], [ 3.941676910359219, 46.104945847553232 ], [ 3.943333023818789, 46.103449399897308 ], [ 3.944873911509528, 46.101894864526848 ], [ 3.94629534996538, 46.100286497589586 ], [ 3.947593443122341, 46.098628702997246 ], [ 3.948764632997297, 46.096926020404268 ], [ 3.949805709440209, 46.095183112811384 ], [ 3.950713818932912, 46.093404753827734 ], [ 3.951486472410408, 46.091595814626032 ], [ 3.95212155208322, 46.089761250625834 ], [ 3.952617317242113, 46.087906087941356 ], [ 3.952972409029242, 46.086035409630384 ], [ 3.953185854162703, 46.084154341781868 ], [ 3.953257067604221, 46.082268039480006 ] ] ] } },
{ "type": "Feature", "properties": { "name": "Saint-Haon-le-Vieux", "feature_type": "mrr", "metric_roundness": 31.91, "metric_rectangularity": 56.49, "metric_mobile_fit": -54.67, "metric_aspect_ratio": 2.109, "metric_area_km2": 33.53 }, "geometry": { "type": "Polygon", "coordinates": [ [ [ 3.85058, 46.090122 ], [ 3.95285, 46.0867705 ], [ 3.950642138151502, 46.054353440853923 ], [ 3.848372138153185, 46.057706909958057 ], [ 3.85058, 46.090122 ] ] ] } }
]
}
