{
"type": "FeatureCollection",
"name": "saint_cyr_la_rosiere",
"crs": { "type": "name", "properties": { "name": "urn:ogc:def:crs:OGC:1.3:CRS84" } },
"features": [
{ "type": "Feature", "properties": { "name": "Saint-Cyr-la-Rosière", "metric_roundness": 59.37, "metric_rectangularity": 68.87, "metric_mobile_fit": 75.0, "metric_aspect_ratio": 0.812, "metric_area_km2": 42.41 }, "geometry": { "type": "Polygon", "coordinates": [ [ [ 0.6638108, 48.305371 ], [ 0.676115, 48.312572799999984 ], [ 0.6687786, 48.3257027 ], [ 0.668447, 48.3371132 ], [ 0.6454975, 48.3448545 ], [ 0.644967, 48.342914 ], [ 0.6402545, 48.342621 ], [ 0.6376265, 48.344201499999983 ], [ 0.6356015, 48.3463315 ], [ 0.630088, 48.3457925 ], [ 0.629709, 48.341291 ], [ 0.6284015, 48.3400125 ], [ 0.6275315, 48.337752 ], [ 0.627532, 48.33357 ], [ 0.618738, 48.334422499999988 ], [ 0.612021, 48.333605 ], [ 0.6095015, 48.334323499999989 ], [ 0.6065175, 48.332796 ], [ 0.6078839, 48.3218666 ], [ 0.6146314, 48.3125728 ], [ 0.6169705, 48.309351 ], [ 0.6321406, 48.305579699999988 ], [ 0.6376203, 48.289365899999986 ], [ 0.6405994, 48.2901889 ], [ 0.6448477, 48.2983124 ], [ 0.6560725, 48.296984 ], [ 0.6638108, 48.305371 ] ] ] } }
]
}
