{
"type": "FeatureCollection",
"name": "saint_benoit_des_ombres",
"crs": { "type": "name", "properties": { "name": "urn:ogc:def:crs:OGC:1.3:CRS84" } },
"features": [
{ "type": "Feature", "properties": { "name": "Saint-Benoît-des-Ombres", "feature_type": "entity", "metric_roundness": 79.42, "metric_rectangularity": 75.59, "metric_mobile_fit": 53.86, "metric_aspect_ratio": 1.024, "metric_area_km2": 8.93 }, "geometry": { "type": "Polygon", "coordinates": [ [ [ 0.601621, 49.228260499999983 ], [ 0.6124756, 49.2158583 ], [ 0.6245885, 49.217232 ], [ 0.6284255, 49.2173315 ], [ 0.6327445, 49.221536 ], [ 0.6329005, 49.230938 ], [ 0.624598, 49.2353951 ], [ 0.609656, 49.235809 ], [ 0.601621, 49.228260499999983 ] ] ] } },
{ "type": "Feature", "properties": { "name": "Saint-Benoît-des-Ombres", "feature_type": "circle", "metric_roundness": 79.42, "metric_rectangularity": 75.59, "metric_mobile_fit": 53.86, "metric_aspect_ratio": 1.024, "metric_area_km2": 8.93 }, "geometry": { "type": "Polygon", "coordinates": [ [ [ 0.63533942101823, 49.226268491600841 ], [ 0.635316126975745, 49.225687537798834 ], [ 0.63524630869564, 49.22510816954825 ], [ 0.635130157544968, 49.224531974941065 ], [ 0.634967991885961, 49.223960533425355 ], [ 0.634760256203416, 49.223395411474726 ], [ 0.634507519886401, 49.222838158292518 ], [ 0.634210475667592, 49.222290301562936 ], [ 0.633869937724548, 49.22175334326058 ], [ 0.633486839448097, 49.221228755529907 ], [ 0.633062230883989, 49.220717976646043 ], [ 0.632597275854782, 49.220222407068015 ], [ 0.632093248769893, 49.219743405595288 ], [ 0.631551531132527, 49.21928228563808 ], [ 0.630973607753075, 49.218840311612006 ], [ 0.630361062679347, 49.21841869546666 ], [ 0.629715574854814, 49.218018593357975 ], [ 0.629038913516736, 49.217641102473394 ], [ 0.628332933346805, 49.217287258018743 ], [ 0.627599569387597, 49.216958030374904 ], [ 0.626840831738746, 49.216654322432511 ], [ 0.62605880004741, 49.216376967111586 ], [ 0.625255617808097, 49.216126725073451 ], [ 0.624433486487495, 49.215904282630774 ], [ 0.623594659490409, 49.215710249861942 ], [ 0.622741435983331, 49.215545158934674 ], [ 0.621876154592588, 49.215409462643741 ], [ 0.621001186994327, 49.215303533166626 ], [ 0.620118931413917, 49.215227661040807 ], [ 0.619231806052578, 49.215182054365272 ], [ 0.618342242459262, 49.215166838228619 ], [ 0.617452678865946, 49.215182054365272 ], [ 0.616565553504607, 49.215227661040807 ], [ 0.615683297924197, 49.215303533166626 ], [ 0.614808330325936, 49.215409462643741 ], [ 0.613943048935193, 49.215545158934674 ], [ 0.613089825428115, 49.215710249861942 ], [ 0.612250998431029, 49.215904282630774 ], [ 0.611428867110427, 49.216126725073451 ], [ 0.610625684871114, 49.216376967111586 ], [ 0.609843653179778, 49.216654322432511 ], [ 0.609084915530927, 49.216958030374904 ], [ 0.608351551571719, 49.217287258018743 ], [ 0.607645571401788, 49.217641102473394 ], [ 0.60696891006371, 49.218018593357975 ], [ 0.606323422239177, 49.21841869546666 ], [ 0.605710877165449, 49.218840311612006 ], [ 0.605132953785997, 49.21928228563808 ], [ 0.604591236148631, 49.219743405595288 ], [ 0.604087209063742, 49.220222407068015 ], [ 0.603622254034536, 49.220717976646043 ], [ 0.603197645470427, 49.221228755529907 ], [ 0.602814547193976, 49.22175334326058 ], [ 0.602474009250932, 49.222290301562936 ], [ 0.602176965032123, 49.222838158292518 ], [ 0.601924228715108, 49.223395411474726 ], [ 0.601716493032563, 49.223960533425355 ], [ 0.601554327373556, 49.224531974941065 ], [ 0.601438176222884, 49.22510816954825 ], [ 0.601368357942779, 49.225687537798834 ], [ 0.601345063900294, 49.226268491600841 ], [ 0.601368357942779, 49.226849438572266 ], [ 0.601438176222884, 49.227428786405909 ], [ 0.601554327373556, 49.228004947233508 ], [ 0.601716493032563, 49.228576341977075 ], [ 0.601924228715108, 49.22914140467546 ], [ 0.602176965032123, 49.229698586774489 ], [ 0.602474009250932, 49.230246361368764 ], [ 0.602814547193976, 49.230783227383576 ], [ 0.603197645470427, 49.231307713685595 ], [ 0.603622254034535, 49.231818383110955 ], [ 0.604087209063742, 49.232313836399896 ], [ 0.604591236148631, 49.232792716027035 ], [ 0.605132953785997, 49.233253709917108 ], [ 0.605710877165449, 49.233695555035744 ], [ 0.606323422239177, 49.234117040845661 ], [ 0.60696891006371, 49.234517012618923 ], [ 0.607645571401788, 49.234894374596045 ], [ 0.608351551571719, 49.235248092983582 ], [ 0.609084915530927, 49.235577198781826 ], [ 0.609843653179778, 49.235880790435139 ], [ 0.610625684871114, 49.23615803629756 ], [ 0.611428867110427, 49.236408176907034 ], [ 0.612250998431029, 49.236630527062175 ], [ 0.613089825428115, 49.236824477695713 ], [ 0.613943048935193, 49.236989497539788 ], [ 0.614808330325936, 49.237125134578491 ], [ 0.615683297924197, 49.237231017283463 ], [ 0.616565553504607, 49.23730685562969 ], [ 0.617452678865946, 49.237352441888291 ], [ 0.618342242459262, 49.237367651194354 ], [ 0.619231806052578, 49.237352441888291 ], [ 0.620118931413917, 49.23730685562969 ], [ 0.621001186994327, 49.237231017283463 ], [ 0.621876154592588, 49.237125134578491 ], [ 0.622741435983331, 49.236989497539788 ], [ 0.623594659490409, 49.236824477695713 ], [ 0.624433486487495, 49.236630527062175 ], [ 0.625255617808097, 49.236408176907034 ], [ 0.62605880004741, 49.23615803629756 ], [ 0.626840831738746, 49.235880790435139 ], [ 0.627599569387597, 49.235577198781826 ], [ 0.628332933346805, 49.235248092983582 ], [ 0.629038913516736, 49.234894374596045 ], [ 0.629715574854814, 49.234517012618923 ], [ 0.630361062679347, 49.234117040845661 ], [ 0.630973607753075, 49.233695555035744 ], [ 0.631551531132527, 49.233253709917108 ], [ 0.632093248769893, 49.232792716027035 ], [ 0.632597275854782, 49.232313836399896 ], [ 0.633062230883988, 49.231818383110955 ], [ 0.633486839448097, 49.231307713685595 ], [ 0.633869937724547, 49.230783227383576 ], [ 0.634210475667592, 49.230246361368764 ], [ 0.634507519886401, 49.229698586774489 ], [ 0.634760256203416, 49.22914140467546 ], [ 0.634967991885961, 49.228576341977075 ], [ 0.635130157544968, 49.228004947233508 ], [ 0.63524630869564, 49.227428786405909 ], [ 0.635316126975745, 49.226849438572266 ], [ 0.63533942101823, 49.226268491600841 ] ] ] } },
{ "type": "Feature", "properties": { "name": "Saint-Benoît-des-Ombres", "feature_type": "mrr", "metric_roundness": 79.42, "metric_rectangularity": 75.59, "metric_mobile_fit": 53.86, "metric_aspect_ratio": 1.024, "metric_area_km2": 8.93 }, "geometry": { "type": "Polygon", "coordinates": [ [ [ 0.632978593868182, 49.235643985424048 ], [ 0.632647940168667, 49.215715516843211 ], [ 0.601416535963633, 49.215936577771714 ], [ 0.601747189663149, 49.235864957213039 ], [ 0.632978593868182, 49.235643985424048 ] ] ] } }
]
}
