{
"type": "FeatureCollection",
"name": "saint_meslin_du_bosc",
"crs": { "type": "name", "properties": { "name": "urn:ogc:def:crs:OGC:1.3:CRS84" } },
"features": [
{ "type": "Feature", "properties": { "name": "Saint-Meslin-du-Bosc", "feature_type": "entity", "metric_roundness": 40.32, "metric_rectangularity": 57.21, "metric_mobile_fit": 84.28, "metric_aspect_ratio": 0.72, "metric_area_km2": 3.61 }, "geometry": { "type": "Polygon", "coordinates": [ [ [ 0.886654, 49.205365 ], [ 0.8846795, 49.2092505 ], [ 0.888535, 49.211139499999987 ], [ 0.886277, 49.2158385 ], [ 0.880179, 49.224347 ], [ 0.8685206, 49.2199994 ], [ 0.866763, 49.216086 ], [ 0.8803223, 49.2119355 ], [ 0.882342, 49.204585 ], [ 0.886654, 49.205365 ] ] ] } },
{ "type": "Feature", "properties": { "name": "Saint-Meslin-du-Bosc", "feature_type": "circle", "metric_roundness": 40.32, "metric_rectangularity": 57.21, "metric_mobile_fit": 84.28, "metric_aspect_ratio": 0.72, "metric_area_km2": 3.61 }, "geometry": { "type": "Polygon", "coordinates": [ [ [ 0.896258911981537, 49.214459163862379 ], [ 0.896238127604558, 49.213940677608385 ], [ 0.896175831442154, 49.213423607073118 ], [ 0.896072194243776, 49.212909369577744 ], [ 0.895927500071781, 49.212399374721947 ], [ 0.895742145522836, 49.21189502051913 ], [ 0.895516638640877, 49.211397689562865 ], [ 0.895251597524593, 49.210908745235216 ], [ 0.894947748633259, 49.210429527967193 ], [ 0.894605924795568, 49.20996135156183 ], [ 0.894227062926898, 49.209505499589838 ], [ 0.893812201461297, 49.209063221867744 ], [ 0.893362477505205, 49.208635731028359 ], [ 0.892879123720727, 49.208224199192856 ], [ 0.892363464946987, 49.207829754753675 ], [ 0.891816914568843, 49.207453479277213 ], [ 0.891240970642889, 49.207096404534646 ], [ 0.890637211791394, 49.206759509669283 ], [ 0.890007292875403, 49.20644371850814 ], [ 0.889352940458879, 49.206149897025135 ], [ 0.888675948076314, 49.205878850963025 ], [ 0.887978171316769, 49.205631323620558 ], [ 0.887261522737841, 49.205407993810972 ], [ 0.886527966623472, 49.205209473997478 ], [ 0.885779513599982, 49.205036308610907 ], [ 0.885018215125084, 49.204888972554187 ], [ 0.88424615786498, 49.204767869897687 ], [ 0.883465457974956, 49.204673332769161 ], [ 0.882678255299145, 49.204605620441271 ], [ 0.881886707505362, 49.20456491861929 ], [ 0.88109298417109, 49.204551338930855 ], [ 0.880299260836819, 49.20456491861929 ], [ 0.879507713043036, 49.204605620441271 ], [ 0.878720510367224, 49.204673332769161 ], [ 0.8779398104772, 49.204767869897687 ], [ 0.877167753217097, 49.204888972554187 ], [ 0.876406454742199, 49.205036308610907 ], [ 0.875658001718709, 49.205209473997478 ], [ 0.87492444560434, 49.205407993810972 ], [ 0.874207797025412, 49.205631323620558 ], [ 0.873510020265867, 49.205878850963025 ], [ 0.872833027883301, 49.206149897025135 ], [ 0.872178675466778, 49.20644371850814 ], [ 0.871548756550787, 49.206759509669283 ], [ 0.870944997699292, 49.207096404534646 ], [ 0.870369053773338, 49.207453479277213 ], [ 0.869822503395193, 49.207829754753675 ], [ 0.869306844621454, 49.208224199192856 ], [ 0.868823490836976, 49.208635731028359 ], [ 0.868373766880884, 49.209063221867744 ], [ 0.867958905415283, 49.209505499589838 ], [ 0.867580043546613, 49.20996135156183 ], [ 0.867238219708922, 49.210429527967193 ], [ 0.866934370817588, 49.210908745235216 ], [ 0.866669329701303, 49.211397689562865 ], [ 0.866443822819345, 49.21189502051913 ], [ 0.8662584682704, 49.212399374721947 ], [ 0.866113774098405, 49.212909369577744 ], [ 0.866010136900027, 49.213423607073118 ], [ 0.865947840737623, 49.213940677608385 ], [ 0.865927056360644, 49.214459163862379 ], [ 0.865947840737623, 49.214977644677994 ], [ 0.866010136900027, 49.215494698957713 ], [ 0.866113774098405, 49.216008909558489 ], [ 0.8662584682704, 49.216518867175282 ], [ 0.866443822819345, 49.21702317420268 ], [ 0.866669329701303, 49.217520448563981 ], [ 0.866934370817588, 49.218009327497221 ], [ 0.867238219708922, 49.218488471287806 ], [ 0.867580043546613, 49.218956566937777 ], [ 0.867958905415283, 49.219412331761184 ], [ 0.868373766880884, 49.219854516896326 ], [ 0.868823490836976, 49.220281910724772 ], [ 0.869306844621454, 49.220693342188255 ], [ 0.869822503395193, 49.221087683993986 ], [ 0.870369053773338, 49.221463855700087 ], [ 0.870944997699292, 49.221820826672285 ], [ 0.871548756550787, 49.222157618904205 ], [ 0.872178675466778, 49.222473309693328 ], [ 0.872833027883301, 49.2227670341654 ], [ 0.873510020265867, 49.223037987640552 ], [ 0.874207797025412, 49.223285427834426 ], [ 0.87492444560434, 49.223508676888621 ], [ 0.875658001718709, 49.223707123224692 ], [ 0.876406454742199, 49.223880223216831 ], [ 0.877167753217097, 49.224027502678602 ], [ 0.8779398104772, 49.22414855815969 ], [ 0.878720510367224, 49.224243058049211 ], [ 0.879507713043036, 49.224310743482491 ], [ 0.880299260836819, 49.224351429048937 ], [ 0.88109298417109, 49.224365003298999 ], [ 0.881886707505362, 49.224351429048937 ], [ 0.882678255299145, 49.224310743482491 ], [ 0.883465457974956, 49.224243058049211 ], [ 0.88424615786498, 49.22414855815969 ], [ 0.885018215125084, 49.224027502678602 ], [ 0.885779513599982, 49.223880223216831 ], [ 0.886527966623472, 49.223707123224692 ], [ 0.887261522737841, 49.223508676888621 ], [ 0.887978171316769, 49.223285427834426 ], [ 0.888675948076314, 49.223037987640552 ], [ 0.889352940458879, 49.2227670341654 ], [ 0.890007292875403, 49.222473309693328 ], [ 0.890637211791394, 49.222157618904205 ], [ 0.891240970642889, 49.221820826672285 ], [ 0.891816914568843, 49.221463855700087 ], [ 0.892363464946987, 49.221087683993986 ], [ 0.892879123720727, 49.220693342188255 ], [ 0.893362477505205, 49.220281910724772 ], [ 0.893812201461297, 49.219854516896326 ], [ 0.894227062926898, 49.219412331761184 ], [ 0.894605924795568, 49.218956566937777 ], [ 0.894947748633259, 49.218488471287806 ], [ 0.895251597524593, 49.218009327497221 ], [ 0.895516638640877, 49.217520448563981 ], [ 0.895742145522836, 49.21702317420268 ], [ 0.895927500071781, 49.216518867175282 ], [ 0.896072194243776, 49.216008909558489 ], [ 0.896175831442154, 49.215494698957713 ], [ 0.896238127604558, 49.214977644677994 ], [ 0.896258911981537, 49.214459163862379 ] ] ] } },
{ "type": "Feature", "properties": { "name": "Saint-Meslin-du-Bosc", "feature_type": "mrr", "metric_roundness": 40.32, "metric_rectangularity": 57.21, "metric_mobile_fit": 84.28, "metric_aspect_ratio": 0.72, "metric_area_km2": 3.61 }, "geometry": { "type": "Polygon", "coordinates": [ [ [ 0.880179, 49.224347 ], [ 0.892500681414161, 49.207153125342103 ], [ 0.876639669270242, 49.202302106751731 ], [ 0.864317986996421, 49.219497667966053 ], [ 0.880179, 49.224347 ] ] ] } }
]
}
