{
"type": "FeatureCollection",
"name": "saint_hilaire_lez_cambrai",
"crs": { "type": "name", "properties": { "name": "urn:ogc:def:crs:OGC:1.3:CRS84" } },
"features": [
{ "type": "Feature", "properties": { "name": "Saint-Hilaire-lez-Cambrai", "feature_type": "entity", "metric_roundness": 45.04, "metric_rectangularity": 60.28, "metric_mobile_fit": -8.86, "metric_aspect_ratio": 1.651, "metric_area_km2": 15.97 }, "geometry": { "type": "Polygon", "coordinates": [ [ [ 3.398824, 50.191035 ], [ 3.3962601, 50.1826404 ], [ 3.3902225, 50.178839 ], [ 3.391507, 50.176755 ], [ 3.4007005, 50.16795 ], [ 3.4140446, 50.1701341 ], [ 3.4277354, 50.177277499999981 ], [ 3.443341, 50.174484 ], [ 3.4445331, 50.1813127 ], [ 3.4497435, 50.185305 ], [ 3.4437319, 50.1855392 ], [ 3.4397522, 50.190692 ], [ 3.4302347, 50.187865399999978 ], [ 3.399519, 50.1908495 ], [ 3.398824, 50.191035 ] ] ] } },
{ "type": "Feature", "properties": { "name": "Saint-Hilaire-lez-Cambrai", "feature_type": "circle", "metric_roundness": 45.04, "metric_rectangularity": 60.28, "metric_mobile_fit": -8.86, "metric_aspect_ratio": 1.651, "metric_area_km2": 15.97 }, "geometry": { "type": "Polygon", "coordinates": [ [ [ 3.450168720979322, 50.182072109408111 ], [ 3.450127352497812, 50.181060474578068 ], [ 3.450003360441414, 50.180051591232363 ], [ 3.449797084663735, 50.179048224912989 ], [ 3.449509090552344, 50.178053126212411 ], [ 3.449140167479083, 50.177069023229457 ], [ 3.448691326636452, 50.176098614085284 ], [ 3.448163798266001, 50.175144559519623 ], [ 3.447559028286327, 50.174209475587865 ], [ 3.446878674329906, 50.173295926479021 ], [ 3.446124601199642, 50.172406417474427 ], [ 3.445298875757571, 50.171543388066681 ], [ 3.444403761259732, 50.170709205257637 ], [ 3.443441711152747, 50.169906157054243 ], [ 3.442415362349088, 50.169136446180062 ], [ 3.441327527999484, 50.168402184019989 ], [ 3.440181189782273, 50.167705384814852 ], [ 3.438979489730828, 50.167047960122147 ], [ 3.437725721621461, 50.166431713558175 ], [ 3.436423321945411, 50.165858335836283 ], [ 3.435075860489661, 50.165329400114899 ], [ 3.433687030552401, 50.164846357668445 ], [ 3.432260638819952, 50.164410533893061 ], [ 3.430800594932906, 50.164023124658328 ], [ 3.429310900770071, 50.163685193015169 ], [ 3.427795639479599, 50.163397666269034 ], [ 3.426258964287364, 50.163161333426693 ], [ 3.424705087113254, 50.1629768430235 ], [ 3.423138267026595, 50.162844701337498 ], [ 3.421562798572336, 50.162765270995131 ], [ 3.419983, 50.162738769972513 ], [ 3.418403201427664, 50.162765270995131 ], [ 3.416827732973405, 50.162844701337498 ], [ 3.415260912886746, 50.1629768430235 ], [ 3.413707035712636, 50.163161333426693 ], [ 3.412170360520401, 50.163397666269034 ], [ 3.410655099229929, 50.163685193015169 ], [ 3.409165405067094, 50.164023124658328 ], [ 3.407705361180048, 50.164410533893061 ], [ 3.406278969447599, 50.164846357668445 ], [ 3.404890139510339, 50.165329400114899 ], [ 3.403542678054589, 50.165858335836283 ], [ 3.402240278378539, 50.166431713558175 ], [ 3.400986510269172, 50.167047960122147 ], [ 3.399784810217727, 50.167705384814852 ], [ 3.398638472000516, 50.168402184019989 ], [ 3.397550637650912, 50.169136446180062 ], [ 3.396524288847253, 50.169906157054243 ], [ 3.395562238740268, 50.170709205257637 ], [ 3.394667124242429, 50.171543388066681 ], [ 3.393841398800358, 50.172406417474427 ], [ 3.393087325670094, 50.173295926479021 ], [ 3.392406971713673, 50.174209475587865 ], [ 3.391802201733999, 50.175144559519623 ], [ 3.391274673363548, 50.176098614085284 ], [ 3.390825832520917, 50.177069023229457 ], [ 3.390456909447656, 50.178053126212411 ], [ 3.390168915336265, 50.179048224912989 ], [ 3.389962639558586, 50.180051591232363 ], [ 3.389838647502188, 50.181060474578068 ], [ 3.389797279020678, 50.182072109408111 ], [ 3.389838647502188, 50.183083722813862 ], [ 3.389962639558586, 50.184092542121419 ], [ 3.390168915336265, 50.185095802490387 ], [ 3.390456909447656, 50.186090754489143 ], [ 3.390825832520917, 50.187074671626142 ], [ 3.391274673363548, 50.188044857816394 ], [ 3.391802201733999, 50.188998654762898 ], [ 3.392406971713673, 50.189933449232797 ], [ 3.393087325670094, 50.190846680208473 ], [ 3.393841398800358, 50.191735845894122 ], [ 3.394667124242429, 50.192598510558639 ], [ 3.395562238740268, 50.193432311196368 ], [ 3.396524288847253, 50.194234963987512 ], [ 3.397550637650912, 50.195004270540714 ], [ 3.398638472000516, 50.195738123900917 ], [ 3.399784810217727, 50.196434514306183 ], [ 3.400986510269172, 50.197091534677917 ], [ 3.402240278378539, 50.197707385829638 ], [ 3.403542678054589, 50.198280381380222 ], [ 3.404890139510339, 50.198808952358391 ], [ 3.406278969447599, 50.199291651485922 ], [ 3.407705361180048, 50.199727157128159 ], [ 3.409165405067094, 50.20011427690104 ], [ 3.410655099229929, 50.200451950925057 ], [ 3.412170360520401, 50.200739254717277 ], [ 3.413707035712636, 50.20097540171367 ], [ 3.415260912886746, 50.201159745415048 ], [ 3.416827732973405, 50.201291781150651 ], [ 3.418403201427664, 50.201371147454878 ], [ 3.419983, 50.201397627053204 ], [ 3.421562798572336, 50.201371147454878 ], [ 3.423138267026595, 50.201291781150651 ], [ 3.424705087113254, 50.201159745415048 ], [ 3.426258964287364, 50.20097540171367 ], [ 3.427795639479599, 50.200739254717277 ], [ 3.429310900770071, 50.200451950925057 ], [ 3.430800594932906, 50.20011427690104 ], [ 3.432260638819952, 50.199727157128159 ], [ 3.433687030552401, 50.199291651485922 ], [ 3.435075860489661, 50.198808952358391 ], [ 3.436423321945411, 50.198280381380222 ], [ 3.437725721621461, 50.197707385829638 ], [ 3.438979489730828, 50.197091534677917 ], [ 3.440181189782273, 50.196434514306183 ], [ 3.441327527999484, 50.195738123900917 ], [ 3.442415362349088, 50.195004270540714 ], [ 3.443441711152747, 50.194234963987512 ], [ 3.444403761259732, 50.193432311196368 ], [ 3.445298875757571, 50.192598510558639 ], [ 3.446124601199642, 50.191735845894122 ], [ 3.446878674329906, 50.190846680208473 ], [ 3.447559028286327, 50.189933449232797 ], [ 3.448163798266001, 50.188998654762898 ], [ 3.448691326636452, 50.188044857816394 ], [ 3.449140167479083, 50.187074671626142 ], [ 3.449509090552344, 50.186090754489143 ], [ 3.449797084663735, 50.185095802490387 ], [ 3.450003360441414, 50.184092542121419 ], [ 3.450127352497812, 50.183083722813862 ], [ 3.450168720979322, 50.182072109408111 ] ] ] } },
{ "type": "Feature", "properties": { "name": "Saint-Hilaire-lez-Cambrai", "feature_type": "mrr", "metric_roundness": 45.04, "metric_rectangularity": 60.28, "metric_mobile_fit": -8.86, "metric_aspect_ratio": 1.651, "metric_area_km2": 15.97 }, "geometry": { "type": "Polygon", "coordinates": [ [ [ 3.453220709237157, 50.175997785078231 ], [ 3.394637105417707, 50.167020804867143 ], [ 3.386378013765617, 50.189128596542808 ], [ 3.444961617585065, 50.198101423293402 ], [ 3.453220709237157, 50.175997785078231 ] ] ] } }
]
}
