{
"type": "FeatureCollection",
"name": "saint_bonnet_les_allier",
"crs": { "type": "name", "properties": { "name": "urn:ogc:def:crs:OGC:1.3:CRS84" } },
"features": [
{ "type": "Feature", "properties": { "name": "Saint-Bonnet-lès-Allier", "metric_roundness": 52.88, "metric_rectangularity": 72.9, "metric_mobile_fit": 85.93, "metric_aspect_ratio": 0.703, "metric_area_km2": 3.07 }, "geometry": { "type": "Polygon", "coordinates": [ [ [ 3.257161, 45.732073 ], [ 3.2607445, 45.731278499999988 ], [ 3.2623574, 45.740581 ], [ 3.256075, 45.747828 ], [ 3.2495191, 45.7460621 ], [ 3.2456836, 45.7430569 ], [ 3.2491426, 45.739241 ], [ 3.2498259, 45.735566199999987 ], [ 3.2533185, 45.7328245 ], [ 3.257161, 45.732073 ] ] ] } }
]
}
