{
"type": "FeatureCollection",
"name": "saint_langis_les_mortagne",
"crs": { "type": "name", "properties": { "name": "urn:ogc:def:crs:OGC:1.3:CRS84" } },
"features": [
{ "type": "Feature", "properties": { "name": "Saint-Langis-lès-Mortagne", "metric_roundness": 37.28, "metric_rectangularity": 63.78, "metric_mobile_fit": 95.02, "metric_aspect_ratio": 0.513, "metric_area_km2": 29.27 }, "geometry": { "type": "Polygon", "coordinates": [ [ [ 0.539839, 48.482912 ], [ 0.5374855, 48.48445 ], [ 0.5353975, 48.487746 ], [ 0.5464475, 48.49098 ], [ 0.5464295, 48.4989825 ], [ 0.555646, 48.4989065 ], [ 0.5534674, 48.5094659 ], [ 0.5456417, 48.5170879 ], [ 0.5393303, 48.5192574 ], [ 0.5410817, 48.5317785 ], [ 0.5447635, 48.536112499999987 ], [ 0.5364813, 48.539535599999979 ], [ 0.5095865, 48.5314565 ], [ 0.5216185, 48.50805159999998 ], [ 0.5157305, 48.4873 ], [ 0.519591, 48.485202 ], [ 0.5209915, 48.4823005 ], [ 0.5315685, 48.4815275 ], [ 0.535881, 48.4800195 ], [ 0.5410125, 48.480233 ], [ 0.539839, 48.482912 ] ] ] } }
]
}
