{
"type": "FeatureCollection",
"name": "saint_heand",
"crs": { "type": "name", "properties": { "name": "urn:ogc:def:crs:OGC:1.3:CRS84" } },
"features": [
{ "type": "Feature", "properties": { "name": "Saint-Héand", "feature_type": "entity", "metric_roundness": 63.34, "metric_rectangularity": 73.1, "metric_mobile_fit": 64.02, "metric_aspect_ratio": 0.922, "metric_area_km2": 64.08 }, "geometry": { "type": "Polygon", "coordinates": [ [ [ 4.3443404, 45.544557499999989 ], [ 4.3441458, 45.534684499999976 ], [ 4.3494264, 45.5217704 ], [ 4.344904, 45.515348 ], [ 4.3478906, 45.5062029 ], [ 4.3589125, 45.501146499999983 ], [ 4.3817206, 45.5097546 ], [ 4.3989455, 45.507389499999981 ], [ 4.412218, 45.501249499999986 ], [ 4.424941, 45.522972 ], [ 4.4154066, 45.5362346 ], [ 4.4169095, 45.54598 ], [ 4.4065751, 45.5492611 ], [ 4.4037805, 45.557923 ], [ 4.3895204, 45.559282299999985 ], [ 4.3749053, 45.555316399999988 ], [ 4.3651093, 45.5578304 ], [ 4.3599225, 45.562515 ], [ 4.3443404, 45.544557499999989 ] ] ] } },
{ "type": "Feature", "properties": { "name": "Saint-Héand", "feature_type": "circle", "metric_roundness": 63.34, "metric_rectangularity": 73.1, "metric_mobile_fit": 64.02, "metric_aspect_ratio": 0.922, "metric_area_km2": 64.08 }, "geometry": { "type": "Polygon", "coordinates": [ [ [ 4.435347401718102, 45.531173385768895 ], [ 4.435277522544553, 45.529303959532527 ], [ 4.435068076557861, 45.527439595384223 ], [ 4.434719637834918, 45.525585404179338 ], [ 4.434233161422044, 45.523746469389188 ], [ 4.433609980717272, 45.521927833153789 ], [ 4.432851803815597, 45.520134482442565 ], [ 4.431960708827206, 45.518371335361152 ], [ 4.430939138181524, 45.516643227642099 ], [ 4.429789891932681, 45.514954899356859 ], [ 4.428516120084764, 45.513310981885787 ], [ 4.427121313957866, 45.51171598518232 ], [ 4.425609296618631, 45.510174285366723 ], [ 4.423984212401487, 45.50869011268383 ], [ 4.422250515549314, 45.507267539858347 ], [ 4.420412958004678, 45.505910470880181 ], [ 4.41847657638508, 45.504622630251127 ], [ 4.416446678177945, 45.503407552722884 ], [ 4.414328827193159, 45.502268573555213 ], [ 4.412128828313063, 45.501208819321427 ], [ 4.409852711581668, 45.500231199287064 ], [ 4.407506715676723, 45.49933839738592 ], [ 4.405097270809935, 45.498532864815935 ], [ 4.402630981102207, 45.497816813275875 ], [ 4.400114606482195, 45.497192208861641 ], [ 4.397555044157826, 45.496660766639586 ], [ 4.394959309711514, 45.49622394591195 ], [ 4.392334517870951, 45.495882946188047 ], [ 4.389687863008126, 45.495638703872068 ], [ 4.387026599420048, 45.49549188967746 ], [ 4.384358021445233, 45.495442906774592 ], [ 4.381689443470417, 45.49549188967746 ], [ 4.37902817988234, 45.495638703872068 ], [ 4.376381525019513, 45.495882946188047 ], [ 4.373756733178951, 45.49622394591195 ], [ 4.371160998732639, 45.496660766639586 ], [ 4.368601436408269, 45.497192208861641 ], [ 4.366085061788259, 45.497816813275875 ], [ 4.36361877208053, 45.498532864815935 ], [ 4.361209327213743, 45.49933839738592 ], [ 4.358863331308798, 45.500231199287064 ], [ 4.356587214577402, 45.501208819321427 ], [ 4.354387215697307, 45.502268573555213 ], [ 4.352269364712521, 45.503407552722884 ], [ 4.350239466505385, 45.504622630251127 ], [ 4.348303084885788, 45.505910470880181 ], [ 4.346465527341151, 45.507267539858347 ], [ 4.344731830488978, 45.50869011268383 ], [ 4.343106746271834, 45.510174285366723 ], [ 4.341594728932599, 45.51171598518232 ], [ 4.340199922805703, 45.513310981885787 ], [ 4.338926150957784, 45.514954899356859 ], [ 4.337776904708941, 45.516643227642099 ], [ 4.33675533406326, 45.518371335361152 ], [ 4.335864239074869, 45.520134482442565 ], [ 4.335106062173193, 45.521927833153789 ], [ 4.334482881468421, 45.523746469389188 ], [ 4.333996405055547, 45.525585404179338 ], [ 4.333647966332605, 45.527439595384223 ], [ 4.333438520345913, 45.529303959532527 ], [ 4.333368641172363, 45.531173385768895 ], [ 4.333438520345913, 45.533042749870802 ], [ 4.333647966332605, 45.534906928296486 ], [ 4.333996405055547, 45.536760812225424 ], [ 4.334482881468421, 45.538599321552866 ], [ 4.335106062173193, 45.540417418800246 ], [ 4.335864239074869, 45.542210122903427 ], [ 4.33675533406326, 45.543972522841138 ], [ 4.337776904708941, 45.545699791066703 ], [ 4.338926150957784, 45.547387196706339 ], [ 4.340199922805703, 45.549030118488375 ], [ 4.341594728932599, 45.550624057368374 ], [ 4.343106746271834, 45.552164648815783 ], [ 4.344731830488978, 45.553647674729319 ], [ 4.346465527341151, 45.555069074948499 ], [ 4.348303084885788, 45.55642495833073 ], [ 4.350239466505385, 45.557711613363871 ], [ 4.352269364712521, 45.558925518285847 ], [ 4.354387215697307, 45.560063350684224 ], [ 4.356587214577402, 45.561121996549936 ], [ 4.358863331308798, 45.562098558760951 ], [ 4.361209327213743, 45.562990364973203 ], [ 4.36361877208053, 45.563794974897725 ], [ 4.366085061788259, 45.564510186944439 ], [ 4.368601436408269, 45.565134044215128 ], [ 4.371160998732639, 45.565664839829296 ], [ 4.373756733178951, 45.566101121569027 ], [ 4.376381525019513, 45.566441695830321 ], [ 4.37902817988234, 45.566685630870424 ], [ 4.381689443470417, 45.566832259342476 ], [ 4.384358021445233, 45.56688118011089 ], [ 4.387026599420048, 45.566832259342476 ], [ 4.389687863008126, 45.566685630870424 ], [ 4.392334517870951, 45.566441695830321 ], [ 4.394959309711514, 45.566101121569027 ], [ 4.397555044157826, 45.565664839829296 ], [ 4.400114606482195, 45.565134044215128 ], [ 4.402630981102207, 45.564510186944439 ], [ 4.405097270809935, 45.563794974897725 ], [ 4.407506715676723, 45.562990364973203 ], [ 4.409852711581667, 45.562098558760951 ], [ 4.412128828313063, 45.561121996549936 ], [ 4.414328827193159, 45.560063350684224 ], [ 4.416446678177945, 45.558925518285847 ], [ 4.41847657638508, 45.557711613363871 ], [ 4.420412958004678, 45.55642495833073 ], [ 4.422250515549314, 45.555069074948499 ], [ 4.423984212401487, 45.553647674729319 ], [ 4.425609296618631, 45.552164648815783 ], [ 4.427121313957866, 45.550624057368374 ], [ 4.428516120084764, 45.549030118488375 ], [ 4.429789891932681, 45.547387196706339 ], [ 4.430939138181524, 45.545699791066703 ], [ 4.431960708827206, 45.543972522841138 ], [ 4.432851803815597, 45.542210122903427 ], [ 4.433609980717272, 45.540417418800246 ], [ 4.434233161422044, 45.538599321552866 ], [ 4.434719637834918, 45.536760812225424 ], [ 4.435068076557861, 45.534906928296486 ], [ 4.435277522544553, 45.533042749870802 ], [ 4.435347401718102, 45.531173385768895 ] ] ] } },
{ "type": "Feature", "properties": { "name": "Saint-Héand", "feature_type": "mrr", "metric_roundness": 63.34, "metric_rectangularity": 73.1, "metric_mobile_fit": 64.02, "metric_aspect_ratio": 0.922, "metric_area_km2": 64.08 }, "geometry": { "type": "Polygon", "coordinates": [ [ [ 4.425026359708229, 45.501274249647508 ], [ 4.344277865134266, 45.501118222674677 ], [ 4.344036360776124, 45.562484337916651 ], [ 4.424784855350087, 45.562640194739515 ], [ 4.425026359708229, 45.501274249647508 ] ] ] } }
]
}
