{
"type": "FeatureCollection",
"name": "saint_medard_de_mussidan",
"crs": { "type": "name", "properties": { "name": "urn:ogc:def:crs:OGC:1.3:CRS84" } },
"features": [
{ "type": "Feature", "properties": { "name": "Saint-Médard-de-Mussidan", "metric_roundness": 47.96, "metric_rectangularity": 54.67, "metric_mobile_fit": 74.89, "metric_aspect_ratio": 0.814, "metric_area_km2": 47.74 }, "geometry": { "type": "Polygon", "coordinates": [ [ [ 0.3622374, 44.9998791 ], [ 0.3608566, 45.0058533 ], [ 0.3621018, 45.013352 ], [ 0.360549, 45.0175815 ], [ 0.3505053, 45.0297251 ], [ 0.360285, 45.0421945 ], [ 0.3543859, 45.045780199999989 ], [ 0.340647, 45.04654 ], [ 0.3324397, 45.052166199999974 ], [ 0.3180328, 45.0446802 ], [ 0.3074402, 45.045207 ], [ 0.299705, 45.039441499999988 ], [ 0.2865297, 45.034584699999989 ], [ 0.2844802, 45.0272065 ], [ 0.2881275, 45.027440499999983 ], [ 0.2955909, 45.031697199999989 ], [ 0.3067436, 45.025471 ], [ 0.3057948, 45.015745899999985 ], [ 0.3117295, 45.008803399999984 ], [ 0.3092985, 45.002527 ], [ 0.3357285, 45.0011824 ], [ 0.3448333, 44.9937828 ], [ 0.3483682, 44.9863105 ], [ 0.353109, 44.9846065 ], [ 0.3622374, 44.9998791 ] ] ] } }
]
}
