{
"type": "FeatureCollection",
"name": "saint_beauzely",
"crs": { "type": "name", "properties": { "name": "urn:ogc:def:crs:OGC:1.3:CRS84" } },
"features": [
{ "type": "Feature", "properties": { "name": "Saint-Beauzély", "metric_roundness": 42.97, "metric_rectangularity": 59.42, "metric_mobile_fit": 16.47, "metric_aspect_ratio": 1.398, "metric_area_km2": 60.39 }, "geometry": { "type": "Polygon", "coordinates": [ [ [ 2.9626185, 44.1902763 ], [ 2.957984, 44.192661399999984 ], [ 2.9493311, 44.1886093 ], [ 2.94676, 44.1886093 ], [ 2.9291598, 44.195757 ], [ 2.902721, 44.1940835 ], [ 2.9094706, 44.1886093 ], [ 2.9163563, 44.183024599999989 ], [ 2.914143, 44.1793585 ], [ 2.9259541, 44.1723625 ], [ 2.940892, 44.1635144 ], [ 2.9415462, 44.156916099999982 ], [ 2.9656158, 44.1395738 ], [ 2.9972754, 44.1429651 ], [ 3.007707, 44.1521995 ], [ 3.0086209, 44.1723625 ], [ 3.0089575, 44.1797875 ], [ 3.01102, 44.185035 ], [ 3.011868, 44.1886093 ], [ 3.0122045, 44.1900275 ], [ 3.0063735, 44.189434 ], [ 3.002328, 44.190852 ], [ 2.994931, 44.1888195 ], [ 2.989628, 44.190605 ], [ 2.9864181, 44.1886093 ], [ 2.9828945, 44.1864185 ], [ 2.9863671, 44.1792836 ], [ 2.9791279, 44.1761894 ], [ 2.9631075, 44.1841466 ], [ 2.9627515, 44.1886093 ], [ 2.9626185, 44.1902763 ] ] ] } }
]
}
