{
"type": "FeatureCollection",
"name": "sainte_marie_cappel",
"crs": { "type": "name", "properties": { "name": "urn:ogc:def:crs:OGC:1.3:CRS84" } },
"features": [
{ "type": "Feature", "properties": { "name": "Sainte-Marie-Cappel", "metric_roundness": 67.3, "metric_rectangularity": 72.93, "metric_mobile_fit": 63.01, "metric_aspect_ratio": 0.932, "metric_area_km2": 18.75 }, "geometry": { "type": "Polygon", "coordinates": [ [ [ 2.527716, 50.791542 ], [ 2.522259, 50.792447 ], [ 2.5181705, 50.796722 ], [ 2.5091347, 50.7962843 ], [ 2.4952677, 50.7814875 ], [ 2.498349, 50.766554 ], [ 2.5171714, 50.7654205 ], [ 2.524926, 50.767951 ], [ 2.5414264, 50.779279599999988 ], [ 2.5322664, 50.785089399999983 ], [ 2.5327445, 50.7890595 ], [ 2.527716, 50.791542 ] ] ] } }
]
}
