{
"type": "FeatureCollection",
"name": "saint_germain_sur_ecole",
"crs": { "type": "name", "properties": { "name": "urn:ogc:def:crs:OGC:1.3:CRS84" } },
"features": [
{ "type": "Feature", "properties": { "name": "Saint-Germain-sur-École", "metric_roundness": 34.22, "metric_rectangularity": 60.29, "metric_mobile_fit": 90.36, "metric_aspect_ratio": 0.466, "metric_area_km2": 5.67 }, "geometry": { "type": "Polygon", "coordinates": [ [ [ 2.5027626, 48.484018899999981 ], [ 2.5034089, 48.4720262 ], [ 2.5058999, 48.4695969 ], [ 2.5028478, 48.466134 ], [ 2.5059355, 48.461155 ], [ 2.513948, 48.46332589999998 ], [ 2.5219045, 48.4717685 ], [ 2.5117254, 48.482084499999985 ], [ 2.5111395, 48.486534 ], [ 2.510132, 48.488379 ], [ 2.5027626, 48.484018899999981 ] ] ] } }
]
}
