{
"type": "FeatureCollection",
"name": "saint_agathon",
"crs": { "type": "name", "properties": { "name": "urn:ogc:def:crs:OGC:1.3:CRS84" } },
"features": [
{ "type": "Feature", "properties": { "name": "Saint-Agathon", "feature_type": "entity", "metric_roundness": 49.13, "metric_rectangularity": 74.61, "metric_mobile_fit": 17.17, "metric_aspect_ratio": 1.391, "metric_area_km2": 33.14 }, "geometry": { "type": "Polygon", "coordinates": [ [ [ -3.1244793, 48.575846 ], [ -3.1361526, 48.5719431 ], [ -3.1376162, 48.564728599999988 ], [ -3.1410145, 48.5619965 ], [ -3.1363795, 48.5596605 ], [ -3.1282176, 48.5592949 ], [ -3.1057096, 48.546633299999989 ], [ -3.0724001, 48.547251499999987 ], [ -3.060046, 48.555024499999988 ], [ -3.0581235, 48.5579505 ], [ -3.0594515, 48.561909799999981 ], [ -3.0695986, 48.5666053 ], [ -3.0796603, 48.5656243 ], [ -3.0932099, 48.5705476 ], [ -3.108961, 48.584464 ], [ -3.1186526, 48.5860741 ], [ -3.123867, 48.5828395 ], [ -3.1244793, 48.575846 ] ] ] } },
{ "type": "Feature", "properties": { "name": "Saint-Agathon", "feature_type": "circle", "metric_roundness": 49.13, "metric_rectangularity": 74.61, "metric_mobile_fit": 17.17, "metric_aspect_ratio": 1.391, "metric_area_km2": 33.14 }, "geometry": { "type": "Polygon", "coordinates": [ [ [ -3.057745779771615, 48.561653885490436 ], [ -3.057802840420626, 48.560211734225 ], [ -3.057973865968387, 48.558773494847713 ], [ -3.058258387645759, 48.557343109977317 ], [ -3.058655625598602, 48.555924501034319 ], [ -3.059164491025298, 48.554521557483469 ], [ -3.059783589161083, 48.553138126160427 ], [ -3.060511223101001, 48.5517780007117 ], [ -3.061345398450999, 48.550444911177365 ], [ -3.062283828794426, 48.549142513744968 ], [ -3.06332394195894, 48.547874380703213 ], [ -3.064462887066653, 48.546643990623068 ], [ -3.065697542348195, 48.545454718793629 ], [ -3.067024523699256, 48.544309827939095 ], [ -3.068440193956192, 48.543212459242966 ], [ -3.06994067286523, 48.542165623704072 ], [ -3.071521847717978, 48.541172193848688 ], [ -3.07317938462407, 48.540234895821889 ], [ -3.07490874039006, 48.539356301879977 ], [ -3.076705174972, 48.538538823305267 ], [ -3.078563764467571, 48.537784703762718 ], [ -3.080479414612152, 48.537096013117193 ], [ -3.082446874741854, 48.536474641728603 ], [ -3.084460752185216, 48.53592229524093 ], [ -3.086515527044151, 48.535440489879626 ], [ -3.088605567323594, 48.535030548270797 ], [ -3.090725144368418, 48.534693595793698 ], [ -3.092868448565272, 48.534430557476895 ], [ -3.095029605266332, 48.534242155446741 ], [ -3.097202690891299, 48.534128906935457 ], [ -3.099381749163527, 48.534091122854207 ], [ -3.101560807435755, 48.534128906935457 ], [ -3.103733893060723, 48.534242155446741 ], [ -3.105895049761782, 48.534430557476895 ], [ -3.108038353958636, 48.534693595793698 ], [ -3.11015793100346, 48.535030548270797 ], [ -3.112247971282903, 48.535440489879626 ], [ -3.114302746141838, 48.53592229524093 ], [ -3.1163166235852, 48.536474641728603 ], [ -3.118284083714902, 48.537096013117193 ], [ -3.120199733859483, 48.537784703762718 ], [ -3.122058323355054, 48.538538823305267 ], [ -3.123854757936994, 48.539356301879977 ], [ -3.125584113702985, 48.540234895821889 ], [ -3.127241650609077, 48.541172193848688 ], [ -3.128822825461824, 48.542165623704072 ], [ -3.130323304370862, 48.543212459242966 ], [ -3.131738974627798, 48.544309827939095 ], [ -3.133065955978859, 48.545454718793629 ], [ -3.134300611260401, 48.546643990623068 ], [ -3.135439556368115, 48.547874380703213 ], [ -3.136479669532628, 48.549142513744968 ], [ -3.137418099876055, 48.550444911177365 ], [ -3.138252275226053, 48.5517780007117 ], [ -3.138979909165971, 48.553138126160427 ], [ -3.139599007301757, 48.554521557483469 ], [ -3.140107872728453, 48.555924501034319 ], [ -3.140505110681295, 48.557343109977317 ], [ -3.140789632358667, 48.558773494847713 ], [ -3.140960657906428, 48.560211734225 ], [ -3.14101771855544, 48.561653885490436 ], [ -3.140960657906428, 48.563095995638996 ], [ -3.140789632358667, 48.564534112116171 ], [ -3.140505110681295, 48.565964293649735 ], [ -3.140107872728453, 48.567382621046995 ], [ -3.139599007301757, 48.568785207927831 ], [ -3.138979909165971, 48.570168211364383 ], [ -3.138252275226053, 48.571527842398119 ], [ -3.137418099876055, 48.57286037640592 ], [ -3.136479669532628, 48.574162163286658 ], [ -3.135439556368115, 48.57542963744099 ], [ -3.134300611260401, 48.576659327516865 ], [ -3.133065955978859, 48.577847865894576 ], [ -3.131738974627798, 48.578991997885758 ], [ -3.130323304370862, 48.580088590621187 ], [ -3.128822825461824, 48.581134641603626 ], [ -3.127241650609077, 48.582127286902555 ], [ -3.125584113702985, 48.583063808968681 ], [ -3.123854757936994, 48.583941644047272 ], [ -3.122058323355054, 48.584758389170275 ], [ -3.120199733859483, 48.585511808708603 ], [ -3.118284083714902, 48.586199840466762 ], [ -3.1163166235852, 48.586820601303756 ], [ -3.114302746141838, 48.587372392264939 ], [ -3.112247971282903, 48.587853703211316 ], [ -3.11015793100346, 48.588263216933704 ], [ -3.108038353958636, 48.588599812740839 ], [ -3.105895049761782, 48.588862569511932 ], [ -3.103733893060723, 48.589050768205269 ], [ -3.101560807435755, 48.589163893816476 ], [ -3.099381749163527, 48.589201636780857 ], [ -3.097202690891299, 48.589163893816476 ], [ -3.095029605266332, 48.589050768205269 ], [ -3.092868448565272, 48.588862569511932 ], [ -3.090725144368418, 48.588599812740839 ], [ -3.088605567323594, 48.588263216933704 ], [ -3.086515527044151, 48.587853703211316 ], [ -3.084460752185216, 48.587372392264939 ], [ -3.082446874741854, 48.586820601303756 ], [ -3.080479414612152, 48.586199840466762 ], [ -3.078563764467571, 48.585511808708603 ], [ -3.076705174972, 48.584758389170275 ], [ -3.07490874039006, 48.583941644047272 ], [ -3.07317938462407, 48.583063808968681 ], [ -3.071521847717978, 48.582127286902555 ], [ -3.06994067286523, 48.581134641603626 ], [ -3.068440193956192, 48.580088590621187 ], [ -3.067024523699256, 48.578991997885758 ], [ -3.065697542348195, 48.577847865894576 ], [ -3.064462887066653, 48.576659327516865 ], [ -3.06332394195894, 48.57542963744099 ], [ -3.062283828794426, 48.574162163286658 ], [ -3.061345398450999, 48.57286037640592 ], [ -3.060511223101001, 48.571527842398119 ], [ -3.059783589161083, 48.570168211364383 ], [ -3.059164491025298, 48.568785207927831 ], [ -3.058655625598602, 48.567382621046995 ], [ -3.058258387645759, 48.565964293649735 ], [ -3.057973865968387, 48.564534112116171 ], [ -3.057802840420626, 48.563095995638996 ], [ -3.057745779771615, 48.561653885490436 ] ] ] } },
{ "type": "Feature", "properties": { "name": "Saint-Agathon", "feature_type": "mrr", "metric_roundness": 49.13, "metric_rectangularity": 74.61, "metric_mobile_fit": 17.17, "metric_aspect_ratio": 1.391, "metric_area_km2": 33.14 }, "geometry": { "type": "Polygon", "coordinates": [ [ [ -3.118628938371022, 48.588849373609641 ], [ -3.054939822908976, 48.559953008556626 ], [ -3.081192880588421, 48.53460829831716 ], [ -3.144881996050467, 48.563519141991947 ], [ -3.118628938371022, 48.588849373609641 ] ] ] } }
]
}
