{
"type": "FeatureCollection",
"name": "saint_quentin_de_chalais",
"crs": { "type": "name", "properties": { "name": "urn:ogc:def:crs:OGC:1.3:CRS84" } },
"features": [
{ "type": "Feature", "properties": { "name": "Saint-Quentin-de-Chalais", "metric_roundness": 49.94, "metric_rectangularity": 68.64, "metric_mobile_fit": 94.63, "metric_aspect_ratio": 0.616, "metric_area_km2": 25.19 }, "geometry": { "type": "Polygon", "coordinates": [ [ [ 0.056956, 45.245781 ], [ 0.0555805, 45.227159499999985 ], [ 0.0649461, 45.2211662 ], [ 0.0767969, 45.220288499999988 ], [ 0.0920015, 45.2275135 ], [ 0.0901968, 45.2396628 ], [ 0.0990025, 45.244025 ], [ 0.0809245, 45.2616155 ], [ 0.0725766, 45.2647981 ], [ 0.0721895, 45.268663 ], [ 0.0640095, 45.269225499999983 ], [ 0.0619425, 45.2699025 ], [ 0.0566915, 45.2525255 ], [ 0.056956, 45.245781 ] ] ] } }
]
}
