{
"type": "FeatureCollection",
"name": "saint_fargeau_ponthierry",
"crs": { "type": "name", "properties": { "name": "urn:ogc:def:crs:OGC:1.3:CRS84" } },
"features": [
{ "type": "Feature", "properties": { "name": "Saint-Fargeau-Ponthierry", "feature_type": "entity", "metric_roundness": 37.71, "metric_rectangularity": 52.89, "metric_mobile_fit": 95.38, "metric_aspect_ratio": 0.609, "metric_area_km2": 37.42 }, "geometry": { "type": "Polygon", "coordinates": [ [ [ 2.5098613, 48.5420872 ], [ 2.5012997, 48.5291945 ], [ 2.4976065, 48.517236499999989 ], [ 2.5071441, 48.516583399999973 ], [ 2.508825, 48.509341899999981 ], [ 2.5138175, 48.509526499999986 ], [ 2.527706, 48.515034 ], [ 2.5462809, 48.521099099999986 ], [ 2.5479127, 48.527496899999988 ], [ 2.556739, 48.529996499999989 ], [ 2.5489855, 48.5372925 ], [ 2.5374885, 48.539658499999987 ], [ 2.5344475, 48.540877 ], [ 2.5305345, 48.544255 ], [ 2.529465, 48.547942499999984 ], [ 2.5299495, 48.551043499999984 ], [ 2.5315145, 48.553153 ], [ 2.5472665, 48.564003499999977 ], [ 2.5483585, 48.566249 ], [ 2.5478955, 48.5685145 ], [ 2.545263, 48.571027499999985 ], [ 2.542694, 48.5723355 ], [ 2.537348, 48.573379 ], [ 2.5315915, 48.573658 ], [ 2.5203159, 48.569692 ], [ 2.5193829, 48.5629692 ], [ 2.49931, 48.542908499999989 ], [ 2.5098613, 48.5420872 ] ] ] } },
{ "type": "Feature", "properties": { "name": "Saint-Fargeau-Ponthierry", "feature_type": "circle", "metric_roundness": 37.71, "metric_rectangularity": 52.89, "metric_mobile_fit": 95.38, "metric_aspect_ratio": 0.609, "metric_area_km2": 37.42 }, "geometry": { "type": "Polygon", "coordinates": [ [ [ 2.576251357356995, 48.540849553651476 ], [ 2.576182153890573, 48.539099780152362 ], [ 2.575974733173201, 48.537354742424633 ], [ 2.575629663730645, 48.535619224237564 ], [ 2.575147891374262, 48.533897983754116 ], [ 2.574530736608595, 48.53219574047565 ], [ 2.573779891011957, 48.530517162287481 ], [ 2.572897412599938, 48.528866852640938 ], [ 2.571885720184526, 48.527249337907307 ], [ 2.570747586744309, 48.525669054938604 ], [ 2.569486131823937, 48.524130338869732 ], [ 2.568104812983662, 48.522637411195753 ], [ 2.566607416322412, 48.521194368157424 ], [ 2.564998046100354, 48.519805169467382 ], [ 2.563281113489399, 48.518473627408241 ], [ 2.561461324482492, 48.517203396333194 ], [ 2.559543666994808, 48.51599796259827 ], [ 2.557533397192227, 48.514860634954545 ], [ 2.555436025084545, 48.513794535427145 ], [ 2.553257299422923, 48.512802590706585 ], [ 2.551003191942958, 48.511887524076712 ], [ 2.548679880996572, 48.511051847901733 ], [ 2.546293734617577, 48.510297856693725 ], [ 2.543851293067339, 48.509627620779867 ], [ 2.541359250908375, 48.509042980587367 ], [ 2.538824438655024, 48.508545541562235 ], [ 2.536253804051479, 48.508136669736089 ], [ 2.533654393028505, 48.507817487953659 ], [ 2.531033330391034, 48.507588872771493 ], [ 2.528397800289568, 48.507451452036719 ], [ 2.525755026528921, 48.507405603152769 ], [ 2.523112252768273, 48.507451452036719 ], [ 2.520476722666806, 48.507588872771493 ], [ 2.517855660029336, 48.507817487953659 ], [ 2.515256249006363, 48.508136669736089 ], [ 2.512685614402817, 48.508545541562235 ], [ 2.510150802149466, 48.509042980587367 ], [ 2.507658759990502, 48.509627620779867 ], [ 2.505216318440264, 48.510297856693725 ], [ 2.50283017206127, 48.511051847901733 ], [ 2.500506861114884, 48.511887524076712 ], [ 2.498252753634918, 48.512802590706585 ], [ 2.496074027973297, 48.513794535427145 ], [ 2.493976655865615, 48.514860634954545 ], [ 2.491966386063033, 48.51599796259827 ], [ 2.49004872857535, 48.517203396333194 ], [ 2.488228939568442, 48.518473627408241 ], [ 2.486512006957487, 48.519805169467382 ], [ 2.484902636735428, 48.521194368157424 ], [ 2.483405240074179, 48.522637411195753 ], [ 2.482023921233904, 48.524130338869732 ], [ 2.480762466313531, 48.525669054938604 ], [ 2.479624332873315, 48.527249337907307 ], [ 2.478612640457903, 48.528866852640938 ], [ 2.477730162045884, 48.530517162287481 ], [ 2.476979316449246, 48.53219574047565 ], [ 2.476362161683578, 48.533897983754116 ], [ 2.475880389327196, 48.535619224237564 ], [ 2.47553531988464, 48.537354742424633 ], [ 2.475327899167267, 48.539099780152362 ], [ 2.475258695700846, 48.540849553651476 ], [ 2.475327899167267, 48.542599266666436 ], [ 2.47553531988464, 48.544344123604404 ], [ 2.475880389327196, 48.546079342676855 ], [ 2.476362161683578, 48.547800168998002 ], [ 2.476979316449246, 48.549501887604137 ], [ 2.477730162045884, 48.551179836358351 ], [ 2.478612640457903, 48.552829418705542 ], [ 2.479624332873315, 48.554446116242872 ], [ 2.480762466313531, 48.556025501071694 ], [ 2.482023921233904, 48.557563247897313 ], [ 2.483405240074179, 48.559055145843899 ], [ 2.484902636735428, 48.560497109952614 ], [ 2.486512006957487, 48.5618851923318 ], [ 2.488228939568442, 48.563215592929367 ], [ 2.49004872857535, 48.564484669898228 ], [ 2.491966386063033, 48.565688949526979 ], [ 2.493976655865615, 48.566825135709173 ], [ 2.496074027973297, 48.567890118925774 ], [ 2.498252753634918, 48.568880984716799 ], [ 2.500506861114884, 48.569795021619392 ], [ 2.50283017206127, 48.570629728551225 ], [ 2.505216318440264, 48.571382821619459 ], [ 2.507658759990502, 48.572052240337143 ], [ 2.510150802149466, 48.572636153230405 ], [ 2.512685614402817, 48.573132962821703 ], [ 2.515256249006362, 48.57354130997561 ], [ 2.517855660029336, 48.573860077595825 ], [ 2.520476722666806, 48.574088393663445 ], [ 2.523112252768273, 48.574225633608485 ], [ 2.525755026528921, 48.574271422008295 ], [ 2.528397800289568, 48.574225633608485 ], [ 2.531033330391034, 48.574088393663445 ], [ 2.533654393028505, 48.573860077595825 ], [ 2.536253804051478, 48.57354130997561 ], [ 2.538824438655024, 48.573132962821703 ], [ 2.541359250908375, 48.572636153230405 ], [ 2.543851293067339, 48.572052240337143 ], [ 2.546293734617577, 48.571382821619459 ], [ 2.548679880996572, 48.570629728551225 ], [ 2.551003191942958, 48.569795021619392 ], [ 2.553257299422923, 48.568880984716799 ], [ 2.555436025084545, 48.567890118925774 ], [ 2.557533397192227, 48.566825135709173 ], [ 2.559543666994808, 48.565688949526979 ], [ 2.561461324482492, 48.564484669898228 ], [ 2.563281113489399, 48.563215592929367 ], [ 2.564998046100354, 48.5618851923318 ], [ 2.566607416322412, 48.560497109952614 ], [ 2.568104812983662, 48.559055145843899 ], [ 2.569486131823937, 48.557563247897313 ], [ 2.570747586744309, 48.556025501071694 ], [ 2.571885720184526, 48.554446116242872 ], [ 2.572897412599938, 48.552829418705542 ], [ 2.573779891011957, 48.551179836358351 ], [ 2.574530736608595, 48.549501887604137 ], [ 2.575147891374262, 48.547800168998002 ], [ 2.575629663730645, 48.546079342676855 ], [ 2.575974733173201, 48.544344123604404 ], [ 2.576182153890573, 48.542599266666436 ], [ 2.576251357356995, 48.540849553651476 ] ] ] } },
{ "type": "Feature", "properties": { "name": "Saint-Fargeau-Ponthierry", "feature_type": "mrr", "metric_roundness": 37.71, "metric_rectangularity": 52.89, "metric_mobile_fit": 95.38, "metric_aspect_ratio": 0.609, "metric_area_km2": 37.42 }, "geometry": { "type": "Polygon", "coordinates": [ [ [ 2.497105447093195, 48.509683080554225 ], [ 2.501409842291683, 48.574535529232854 ], [ 2.559583411210749, 48.572844125319563 ], [ 2.555279016012173, 48.507989508145286 ], [ 2.497105447093195, 48.509683080554225 ] ] ] } }
]
}
