{
"type": "FeatureCollection",
"name": "saint_julien_de_jonzy",
"crs": { "type": "name", "properties": { "name": "urn:ogc:def:crs:OGC:1.3:CRS84" } },
"features": [
{ "type": "Feature", "properties": { "name": "Saint-Julien-de-Jonzy", "metric_roundness": 49.81, "metric_rectangularity": 65.88, "metric_mobile_fit": 20.25, "metric_aspect_ratio": 1.36, "metric_area_km2": 47.38 }, "geometry": { "type": "Polygon", "coordinates": [ [ [ 4.1425744, 46.2611661 ], [ 4.111864, 46.266168 ], [ 4.1059805, 46.2648928 ], [ 4.1028842, 46.251682 ], [ 4.0954025, 46.252656 ], [ 4.0961725, 46.248369499999981 ], [ 4.1078811, 46.242803199999976 ], [ 4.1198349, 46.229892 ], [ 4.1326005, 46.2293492 ], [ 4.1351715, 46.2253495 ], [ 4.1470067, 46.2281994 ], [ 4.1532436, 46.2250766 ], [ 4.1860825, 46.225879 ], [ 4.1710721, 46.252331 ], [ 4.169354, 46.2663785 ], [ 4.1664305, 46.2681805 ], [ 4.1651835, 46.26968549999998 ], [ 4.155825, 46.271186 ], [ 4.1425744, 46.2611661 ] ] ] } }
]
}
