{
"type": "FeatureCollection",
"name": "saint_aubin_en_bray",
"crs": { "type": "name", "properties": { "name": "urn:ogc:def:crs:OGC:1.3:CRS84" } },
"features": [
{ "type": "Feature", "properties": { "name": "Saint-Aubin-en-Bray", "feature_type": "entity", "metric_roundness": 36.99, "metric_rectangularity": 63.32, "metric_mobile_fit": 90.18, "metric_aspect_ratio": 0.661, "metric_area_km2": 14.55 }, "geometry": { "type": "Polygon", "coordinates": [ [ [ 1.9027154, 49.423938799999981 ], [ 1.9004247, 49.427274 ], [ 1.8925947, 49.4248492 ], [ 1.8911648, 49.4274331 ], [ 1.913016, 49.4410635 ], [ 1.897141, 49.441269399999989 ], [ 1.88954, 49.444482 ], [ 1.8816672, 49.443677399999984 ], [ 1.8806845, 49.439499 ], [ 1.8825338, 49.436749399999989 ], [ 1.8808753, 49.4285504 ], [ 1.8749331, 49.420314599999983 ], [ 1.872779, 49.4090345 ], [ 1.876977, 49.409141 ], [ 1.889556, 49.404866499999983 ], [ 1.9027154, 49.423938799999981 ] ] ] } },
{ "type": "Feature", "properties": { "name": "Saint-Aubin-en-Bray", "feature_type": "circle", "metric_roundness": 36.99, "metric_rectangularity": 63.32, "metric_mobile_fit": 90.18, "metric_aspect_ratio": 0.661, "metric_area_km2": 14.55 }, "geometry": { "type": "Polygon", "coordinates": [ [ [ 1.924692859558805, 49.42505161351562 ], [ 1.924649285123564, 49.423969239422362 ], [ 1.924518681252338, 49.422889808262546 ], [ 1.924301405921262, 49.421816278974951 ], [ 1.923998054666914, 49.420751594513639 ], [ 1.923609458953997, 49.419698673776175 ], [ 1.923136683896349, 49.418660403595766 ], [ 1.922581025337541, 49.417639630819359 ], [ 1.92194400629906, 49.41663915449346 ], [ 1.92122737280581, 49.415661718179166 ], [ 1.920433089100386, 49.41471000241782 ], [ 1.919563332259212, 49.413786617367805 ], [ 1.918620486225335, 49.412894095633099 ], [ 1.917607135274197, 49.412034885303292 ], [ 1.916526056930319, 49.411211343224352 ], [ 1.915380214354296, 49.410425728518874 ], [ 1.914172748220981, 49.409680196373643 ], [ 1.912906968111117, 49.408976792111964 ], [ 1.911586343440002, 49.408317445567093 ], [ 1.910214493948063, 49.407703965772299 ], [ 1.908795179779402, 49.407138035982719 ], [ 1.9073322911755, 49.406621209042441 ], [ 1.905829837812337, 49.406154903109993 ], [ 1.904291937810145, 49.405740397753988 ], [ 1.902722806445932, 49.405378830430067 ], [ 1.901126744599701, 49.40507119334854 ], [ 1.89950812696603, 49.40481833074206 ], [ 1.897871390063343, 49.404620936540297 ], [ 1.896221020073725, 49.404479552458682 ], [ 1.894561540546598, 49.404394566506241 ], [ 1.8928975, 49.404366211916745 ], [ 1.891233459453401, 49.404394566506241 ], [ 1.889573979926276, 49.404479552458682 ], [ 1.887923609936656, 49.404620936540297 ], [ 1.88628687303397, 49.40481833074206 ], [ 1.884668255400299, 49.40507119334854 ], [ 1.883072193554068, 49.405378830430067 ], [ 1.881503062189856, 49.405740397753988 ], [ 1.879965162187664, 49.406154903109993 ], [ 1.878462708824499, 49.406621209042441 ], [ 1.876999820220598, 49.407138035982719 ], [ 1.875580506051936, 49.407703965772299 ], [ 1.874208656559998, 49.408317445567093 ], [ 1.872888031888883, 49.408976792111964 ], [ 1.871622251779019, 49.409680196373643 ], [ 1.870414785645705, 49.410425728518874 ], [ 1.869268943069681, 49.411211343224352 ], [ 1.868187864725803, 49.412034885303292 ], [ 1.867174513774665, 49.412894095633099 ], [ 1.866231667740788, 49.413786617367805 ], [ 1.865361910899614, 49.41471000241782 ], [ 1.86456762719419, 49.415661718179166 ], [ 1.86385099370094, 49.41663915449346 ], [ 1.863213974662459, 49.417639630819359 ], [ 1.862658316103651, 49.418660403595766 ], [ 1.862185541046003, 49.419698673776175 ], [ 1.861796945333086, 49.420751594513639 ], [ 1.861493594078738, 49.421816278974951 ], [ 1.861276318747662, 49.422889808262546 ], [ 1.861145714876436, 49.423969239422362 ], [ 1.861102140441195, 49.42505161351562 ], [ 1.861145714876436, 49.426133963732219 ], [ 1.861276318747662, 49.427213323523667 ], [ 1.861493594078738, 49.428286734733085 ], [ 1.861796945333086, 49.429351255700126 ], [ 1.862185541046003, 49.430403969318505 ], [ 1.862658316103651, 49.431441991024236 ], [ 1.863213974662459, 49.432462476692713 ], [ 1.86385099370094, 49.433462630423065 ], [ 1.86456762719419, 49.434439712188592 ], [ 1.865361910899614, 49.435391045332494 ], [ 1.866231667740788, 49.436314023888407 ], [ 1.867174513774665, 49.437206119705984 ], [ 1.868187864725802, 49.438064889362074 ], [ 1.869268943069681, 49.438887980838835 ], [ 1.870414785645705, 49.439673139950564 ], [ 1.871622251779019, 49.440418216502039 ], [ 1.872888031888883, 49.441121170161537 ], [ 1.874208656559998, 49.441780076032714 ], [ 1.875580506051936, 49.442393129910393 ], [ 1.876999820220598, 49.442958653205878 ], [ 1.878462708824499, 49.443475097528726 ], [ 1.879965162187664, 49.443941048912443 ], [ 1.881503062189856, 49.444355231672901 ], [ 1.883072193554068, 49.444716511888927 ], [ 1.884668255400299, 49.445023900495784 ], [ 1.88628687303397, 49.445276555983185 ], [ 1.887923609936656, 49.445473786690691 ], [ 1.889573979926275, 49.445615052694144 ], [ 1.891233459453401, 49.445699967278216 ], [ 1.8928975, 49.445728297991053 ], [ 1.894561540546598, 49.445699967278216 ], [ 1.896221020073724, 49.445615052694144 ], [ 1.897871390063343, 49.445473786690691 ], [ 1.89950812696603, 49.445276555983185 ], [ 1.901126744599701, 49.445023900495784 ], [ 1.902722806445932, 49.444716511888927 ], [ 1.904291937810145, 49.444355231672901 ], [ 1.905829837812336, 49.443941048912443 ], [ 1.9073322911755, 49.443475097528726 ], [ 1.908795179779402, 49.442958653205878 ], [ 1.910214493948063, 49.442393129910393 ], [ 1.911586343440002, 49.441780076032714 ], [ 1.912906968111117, 49.441121170161537 ], [ 1.914172748220981, 49.440418216502039 ], [ 1.915380214354296, 49.439673139950564 ], [ 1.916526056930319, 49.438887980838835 ], [ 1.917607135274197, 49.438064889362074 ], [ 1.918620486225335, 49.437206119705984 ], [ 1.919563332259212, 49.436314023888407 ], [ 1.920433089100386, 49.435391045332494 ], [ 1.92122737280581, 49.434439712188592 ], [ 1.92194400629906, 49.433462630423065 ], [ 1.922581025337541, 49.432462476692713 ], [ 1.923136683896349, 49.431441991024236 ], [ 1.923609458953997, 49.430403969318505 ], [ 1.923998054666914, 49.429351255700126 ], [ 1.924301405921262, 49.428286734733085 ], [ 1.924518681252338, 49.427213323523667 ], [ 1.924649285123564, 49.426133963732219 ], [ 1.924692859558805, 49.42505161351562 ] ] ] } },
{ "type": "Feature", "properties": { "name": "Saint-Aubin-en-Bray", "feature_type": "mrr", "metric_roundness": 36.99, "metric_rectangularity": 63.32, "metric_mobile_fit": 90.18, "metric_aspect_ratio": 0.661, "metric_area_km2": 14.55 }, "geometry": { "type": "Polygon", "coordinates": [ [ [ 1.891487769870196, 49.404386557254874 ], [ 1.862787863645726, 49.411516483345117 ], [ 1.884316097329433, 49.448188097517487 ], [ 1.913016, 49.4410635 ], [ 1.891487769870196, 49.404386557254874 ] ] ] } }
]
}
