{
"type": "FeatureCollection",
"name": "sains",
"crs": { "type": "name", "properties": { "name": "urn:ogc:def:crs:OGC:1.3:CRS84" } },
"features": [
{ "type": "Feature", "properties": { "name": "Sains", "metric_roundness": 35.26, "metric_rectangularity": 59.15, "metric_mobile_fit": -32.76, "metric_aspect_ratio": 1.89, "metric_area_km2": 23.2 }, "geometry": { "type": "Polygon", "coordinates": [ [ [ -1.5923126, 48.566936 ], [ -1.6093319, 48.5592195 ], [ -1.620415, 48.569306 ], [ -1.6317005, 48.5670195 ], [ -1.6349053, 48.5628053 ], [ -1.629926, 48.5546267 ], [ -1.6354895, 48.542176 ], [ -1.621481, 48.542439 ], [ -1.5821088, 48.5491599 ], [ -1.5731464, 48.5584877 ], [ -1.558018, 48.5564265 ], [ -1.5601863, 48.5640476 ], [ -1.5745775, 48.5660775 ], [ -1.5923126, 48.566936 ] ] ] } }
]
}
