{
"type": "FeatureCollection",
"name": "san_miguel_de_aguayo",
"crs": { "type": "name", "properties": { "name": "urn:ogc:def:crs:OGC:1.3:CRS84" } },
"features": [
{ "type": "Feature", "properties": { "name": "San Miguel de Aguayo", "metric_roundness": 64.19, "metric_rectangularity": 75.78, "metric_mobile_fit": 40.09, "metric_aspect_ratio": 1.162, "metric_area_km2": 68.49 }, "geometry": { "type": "Polygon", "coordinates": [ [ [ -3.960061, 43.0895635 ], [ -3.9817446, 43.0992414 ], [ -3.9999735, 43.101852699999988 ], [ -4.0091425, 43.097984 ], [ -4.015254, 43.092905 ], [ -4.0237085, 43.091777 ], [ -4.0373925, 43.0891495 ], [ -4.0417045, 43.089711 ], [ -4.0543455, 43.0794505 ], [ -4.054132, 43.077457 ], [ -4.056682, 43.0671925 ], [ -4.0533985, 43.06739 ], [ -4.053142, 43.0615995 ], [ -4.0546835, 43.0589775 ], [ -4.0434275, 43.0437005 ], [ -4.0320871, 43.039088899999989 ], [ -4.0027238, 43.045585599999988 ], [ -3.956879, 43.077124 ], [ -3.960061, 43.0895635 ] ] ] } }
]
}
