{
"type": "FeatureCollection",
"name": "san_paolo",
"crs": { "type": "name", "properties": { "name": "urn:ogc:def:crs:OGC:1.3:CRS84" } },
"features": [
{ "type": "Feature", "properties": { "name": "San Paolo", "metric_roundness": 59.2, "metric_rectangularity": 64.28, "metric_mobile_fit": 34.74, "metric_aspect_ratio": 1.215, "metric_area_km2": 38.99 }, "geometry": { "type": "Polygon", "coordinates": [ [ [ 10.0723944, 45.3767843 ], [ 10.0625578, 45.381521699999986 ], [ 10.062816, 45.387747 ], [ 10.0468058, 45.3920684 ], [ 10.0395772, 45.390998 ], [ 10.0306225, 45.3960735 ], [ 10.0210607, 45.396053099999989 ], [ 10.0154304, 45.3883167 ], [ 9.9991222, 45.3899938 ], [ 9.9951819, 45.3791412 ], [ 9.991601, 45.3782995 ], [ 9.9940772, 45.3706446 ], [ 10.0029788, 45.368482199999988 ], [ 10.0039363, 45.3646398 ], [ 10.0085873, 45.3621041 ], [ 10.0090681, 45.3535088 ], [ 10.02164, 45.348661399999983 ], [ 10.0356305, 45.349155499999988 ], [ 10.0543539, 45.3736093 ], [ 10.073611, 45.37360349999998 ], [ 10.0723944, 45.3767843 ] ] ] } }
]
}
