{
"type": "FeatureCollection",
"name": "sankt_radegund_bei_graz",
"crs": { "type": "name", "properties": { "name": "urn:ogc:def:crs:OGC:1.3:CRS84" } },
"features": [
{ "type": "Feature", "properties": { "name": "Sankt Radegund bei Graz", "feature_type": "entity", "metric_roundness": 54.93, "metric_rectangularity": 67.73, "metric_mobile_fit": 67.02, "metric_aspect_ratio": 0.892, "metric_area_km2": 46.77 }, "geometry": { "type": "Polygon", "coordinates": [ [ [ 15.4696851, 47.2086664 ], [ 15.464827, 47.198686 ], [ 15.46269, 47.1980025 ], [ 15.4600085, 47.198168 ], [ 15.4568175, 47.1970195 ], [ 15.450605, 47.196423 ], [ 15.4428431, 47.168493 ], [ 15.4525842, 47.1647257 ], [ 15.4632127, 47.171419199999988 ], [ 15.474924, 47.1670665 ], [ 15.4837051, 47.1549455 ], [ 15.5074715, 47.1505482 ], [ 15.5107515, 47.152636499999979 ], [ 15.5125487, 47.1558377 ], [ 15.5106966, 47.1617594 ], [ 15.5191394, 47.1707146 ], [ 15.5020677, 47.1850544 ], [ 15.5109055, 47.1897865 ], [ 15.491329, 47.2006126 ], [ 15.486866, 47.205983499999988 ], [ 15.4696851, 47.2086664 ] ] ] } },
{ "type": "Feature", "properties": { "name": "Sankt Radegund bei Graz", "feature_type": "circle", "metric_roundness": 54.93, "metric_rectangularity": 67.73, "metric_mobile_fit": 67.02, "metric_aspect_ratio": 0.892, "metric_area_km2": 46.77 }, "geometry": { "type": "Polygon", "coordinates": [ [ [ 15.533705425604778, 47.179119969915781 ], [ 15.533641320710396, 47.177455971427172 ], [ 15.533449181734317, 47.175796481908883 ], [ 15.533129535316116, 47.174146050546376 ], [ 15.532683257584404, 47.172509202116402 ], [ 15.532111571755433, 47.17089042457328 ], [ 15.531416044780309, 47.169294156731702 ], [ 15.530598583050136, 47.167724776079844 ], [ 15.529661427170691, 47.166186586756609 ], [ 15.5286071458211, 47.164683807726028 ], [ 15.527438628713259, 47.163220561181653 ], [ 15.526159078671339, 47.161800861213131 ], [ 15.524772002853062, 47.160428602766181 ], [ 15.523281203136834, 47.159107550926919 ], [ 15.521690765701051, 47.157841330560096 ], [ 15.52000504982418, 47.156633416330344 ], [ 15.51822867593626, 47.155487123134009 ], [ 15.516366512954646, 47.154405596968502 ], [ 15.514423664938633, 47.15339180626458 ], [ 15.512405457099588, 47.152448533705687 ], [ 15.510317421204913, 47.151578368557587 ], [ 15.508165280415859, 47.150783699529512 ], [ 15.505954933600737, 47.150066708186806 ], [ 15.503692439166521, 47.149429362933887 ], [ 15.5013839984532, 47.148873413584106 ], [ 15.499035938736304, 47.148400386531918 ], [ 15.496654695884306, 47.148011580540903 ], [ 15.494246796718352, 47.147708063159541 ], [ 15.491818841122681, 47.14749066777474 ], [ 15.489377483954815, 47.147359991311554 ], [ 15.486929416805051, 47.147316392585388 ], [ 15.48448134965529, 47.147359991311554 ], [ 15.482039992487419, 47.14749066777474 ], [ 15.47961203689175, 47.147708063159541 ], [ 15.477204137725796, 47.148011580540903 ], [ 15.474822894873798, 47.148400386531918 ], [ 15.472474835156902, 47.148873413584106 ], [ 15.470166394443581, 47.149429362933887 ], [ 15.467903900009368, 47.150066708186806 ], [ 15.465693553194242, 47.150783699529512 ], [ 15.463541412405188, 47.151578368557587 ], [ 15.461453376510514, 47.152448533705687 ], [ 15.459435168671469, 47.15339180626458 ], [ 15.457492320655456, 47.154405596968502 ], [ 15.455630157673841, 47.155487123134009 ], [ 15.453853783785922, 47.156633416330344 ], [ 15.452168067909051, 47.157841330560096 ], [ 15.450577630473271, 47.159107550926919 ], [ 15.449086830757039, 47.160428602766181 ], [ 15.447699754938766, 47.161800861213131 ], [ 15.446420204896842, 47.163220561181653 ], [ 15.445251687789002, 47.164683807726028 ], [ 15.444197406439411, 47.166186586756609 ], [ 15.443260250559966, 47.167724776079844 ], [ 15.442442788829792, 47.169294156731702 ], [ 15.441747261854673, 47.17089042457328 ], [ 15.441175576025696, 47.172509202116402 ], [ 15.440729298293986, 47.174146050546376 ], [ 15.440409651875783, 47.175796481908883 ], [ 15.440217512899705, 47.177455971427172 ], [ 15.440153408005324, 47.179119969915781 ], [ 15.440217512899705, 47.180783916256537 ], [ 15.440409651875783, 47.182443249902626 ], [ 15.440729298293986, 47.184093423376339 ], [ 15.441175576025696, 47.185729914726416 ], [ 15.441747261854673, 47.18734823991079 ], [ 15.442442788829792, 47.188943965070898 ], [ 15.443260250559966, 47.190512718664294 ], [ 15.444197406439411, 47.192050203422262 ], [ 15.445251687789002, 47.193552208100151 ], [ 15.446420204896842, 47.195014618988367 ], [ 15.447699754938766, 47.196433431152883 ], [ 15.449086830757039, 47.197804759374961 ], [ 15.450577630473271, 47.199124848760221 ], [ 15.452168067909051, 47.200390084988754 ], [ 15.453853783785922, 47.20159700417836 ], [ 15.455630157673841, 47.202742302334556 ], [ 15.457492320655456, 47.203822844361802 ], [ 15.459435168671469, 47.204835672611779 ], [ 15.461453376510514, 47.205778014945857 ], [ 15.463541412405188, 47.206647292290036 ], [ 15.465693553194242, 47.207441125662044 ], [ 15.467903900009368, 47.20815734265215 ], [ 15.470166394443581, 47.208793983339902 ], [ 15.472474835156902, 47.209349305631314 ], [ 15.474822894873798, 47.209821790002117 ], [ 15.477204137725796, 47.210210143634455 ], [ 15.47961203689175, 47.210513303935997 ], [ 15.482039992487419, 47.210730441432048 ], [ 15.48448134965529, 47.210860962023077 ], [ 15.486929416805051, 47.210904508601388 ], [ 15.489377483954815, 47.210860962023077 ], [ 15.491818841122681, 47.210730441432048 ], [ 15.494246796718352, 47.210513303935997 ], [ 15.496654695884306, 47.210210143634455 ], [ 15.499035938736304, 47.209821790002117 ], [ 15.5013839984532, 47.209349305631314 ], [ 15.503692439166521, 47.208793983339902 ], [ 15.505954933600737, 47.20815734265215 ], [ 15.508165280415859, 47.207441125662044 ], [ 15.510317421204913, 47.206647292290036 ], [ 15.512405457099588, 47.205778014945857 ], [ 15.514423664938633, 47.204835672611779 ], [ 15.516366512954646, 47.203822844361802 ], [ 15.51822867593626, 47.202742302334556 ], [ 15.52000504982418, 47.20159700417836 ], [ 15.521690765701051, 47.200390084988754 ], [ 15.523281203136834, 47.199124848760221 ], [ 15.524772002853062, 47.197804759374961 ], [ 15.526159078671339, 47.196433431152883 ], [ 15.527438628713259, 47.195014618988367 ], [ 15.5286071458211, 47.193552208100151 ], [ 15.529661427170691, 47.192050203422262 ], [ 15.530598583050136, 47.190512718664294 ], [ 15.531416044780309, 47.188943965070898 ], [ 15.532111571755433, 47.18734823991079 ], [ 15.532683257584404, 47.185729914726416 ], [ 15.533129535316116, 47.184093423376339 ], [ 15.533449181734317, 47.182443249902626 ], [ 15.533641320710396, 47.180783916256537 ], [ 15.533705425604778, 47.179119969915781 ] ] ] } },
{ "type": "Feature", "properties": { "name": "Sankt Radegund bei Graz", "feature_type": "mrr", "metric_roundness": 54.93, "metric_rectangularity": 67.73, "metric_mobile_fit": 67.02, "metric_aspect_ratio": 0.892, "metric_area_km2": 46.77 }, "geometry": { "type": "Polygon", "coordinates": [ [ [ 15.530786614115103, 47.19699516252372 ], [ 15.509787123906746, 47.149602875890153 ], [ 15.436507668827154, 47.164612038267585 ], [ 15.457507159035508, 47.211990934958109 ], [ 15.530786614115103, 47.19699516252372 ] ] ] } }
]
}
