{
"type": "FeatureCollection",
"name": "santa_maria_maggiore",
"crs": { "type": "name", "properties": { "name": "urn:ogc:def:crs:OGC:1.3:CRS84" } },
"features": [
{ "type": "Feature", "properties": { "name": "Santa Maria Maggiore", "metric_roundness": 17.17, "metric_rectangularity": 46.99, "metric_mobile_fit": 75.66, "metric_aspect_ratio": 0.319, "metric_area_km2": 112.39 }, "geometry": { "type": "Polygon", "coordinates": [ [ [ 8.432686, 46.168145399999979 ], [ 8.4295962, 46.1593262 ], [ 8.4416637, 46.1324888 ], [ 8.4450271, 46.1133008 ], [ 8.4422983, 46.107939399999985 ], [ 8.421667, 46.1008296 ], [ 8.4128445, 46.094899 ], [ 8.4198402, 46.088923799999989 ], [ 8.4154778, 46.0725561 ], [ 8.420895, 46.069964 ], [ 8.4256295, 46.073625199999988 ], [ 8.4576926, 46.0774746 ], [ 8.4581564, 46.0860056 ], [ 8.4658607, 46.0915941 ], [ 8.4625795, 46.100962899999985 ], [ 8.4705472, 46.113888599999989 ], [ 8.461337, 46.121413499999981 ], [ 8.4700496, 46.1247536 ], [ 8.474549, 46.1360105 ], [ 8.4597094, 46.142835499999983 ], [ 8.4579955, 46.1541424 ], [ 8.4502205, 46.1673107 ], [ 8.4606591, 46.1751408 ], [ 8.4691943, 46.187433899999988 ], [ 8.4818396, 46.1876123 ], [ 8.4795576, 46.197364499999985 ], [ 8.493861, 46.2082285 ], [ 8.4920433, 46.2165489 ], [ 8.4686156, 46.228121599999987 ], [ 8.4686835, 46.232895 ], [ 8.4641065, 46.244550499999981 ], [ 8.4607695, 46.244779 ], [ 8.4590055, 46.246029 ], [ 8.453751, 46.247513499999982 ], [ 8.4501795, 46.2481595 ], [ 8.4472735, 46.247899 ], [ 8.4445265, 46.248877499999985 ], [ 8.4373303, 46.2455924 ], [ 8.4356527, 46.241082299999981 ], [ 8.4451779, 46.227512499999989 ], [ 8.4281441, 46.2176727 ], [ 8.4345038, 46.210334499999981 ], [ 8.4486871, 46.2030807 ], [ 8.4488343, 46.1977995 ], [ 8.4177565, 46.192098099999988 ], [ 8.411441, 46.179966 ], [ 8.4208541, 46.171198899999986 ], [ 8.428276, 46.169714 ], [ 8.432686, 46.168145399999979 ] ] ] } }
]
}
