{
"type": "FeatureCollection",
"name": "santa_brigida",
"crs": { "type": "name", "properties": { "name": "urn:ogc:def:crs:OGC:1.3:CRS84" } },
"features": [
{ "type": "Feature", "properties": { "name": "Santa Brígida", "feature_type": "entity", "metric_roundness": 40.24, "metric_rectangularity": 73.5, "metric_mobile_fit": -5.08, "metric_aspect_ratio": 1.613, "metric_area_km2": 30.13 }, "geometry": { "type": "Polygon", "coordinates": [ [ [ -15.539145, 28.0383425 ], [ -15.5315273, 28.0322074 ], [ -15.5131035, 28.007795 ], [ -15.5090986, 28.0132873 ], [ -15.503015, 28.013474 ], [ -15.4899318, 28.016777199999986 ], [ -15.4832336, 28.0225166 ], [ -15.456529, 28.0251315 ], [ -15.4519237, 28.03002 ], [ -15.4524155, 28.0334322 ], [ -15.4670759, 28.042032 ], [ -15.4774524, 28.055516 ], [ -15.507034, 28.0482415 ], [ -15.539145, 28.0383425 ] ] ] } },
{ "type": "Feature", "properties": { "name": "Santa Brígida", "feature_type": "circle", "metric_roundness": 40.24, "metric_rectangularity": 73.5, "metric_mobile_fit": -5.08, "metric_aspect_ratio": 1.613, "metric_area_km2": 30.13 }, "geometry": { "type": "Polygon", "coordinates": [ [ [ -15.451669621654325, 28.034181330462612 ], [ -15.451729736740024, 28.032154969715418 ], [ -15.451909917225846, 28.0301341250813 ], [ -15.452209669249603, 28.028124336025233 ], [ -15.45262817121184, 28.026131112016138 ], [ -15.45316427602776, 28.024159917417318 ], [ -15.453816514271328, 28.022216156497244 ], [ -15.454583098202862, 28.020305158601829 ], [ -15.455461926669084, 28.018432163529244 ], [ -15.456450590862255, 28.016602307147259 ], [ -15.457546380922544, 28.01482060729295 ], [ -15.458746293365559, 28.013091949993754 ], [ -15.460047039314709, 28.011421076047579 ], [ -15.461445053515753, 28.009812567999379 ], [ -15.46293650410894, 28.008270837550164 ], [ -15.464517303131867, 28.006800113433076 ], [ -15.466183117724292, 28.00540442979041 ], [ -15.467929382004206, 28.004087615083492 ], [ -15.469751309582598, 28.002853281566463 ], [ -15.471643906682615, 28.001704815352973 ], [ -15.473601985827161, 28.000645367103356 ], [ -15.475620180057406, 27.999677843358381 ], [ -15.477692957643248, 27.998804898543355 ], [ -15.479814637245395, 27.998028927665121 ], [ -15.481979403487545, 27.997352059722015 ], [ -15.484181322895891, 27.996776151845268 ], [ -15.486414360162387, 27.996302784188146 ], [ -15.488672394687111, 27.995933255577011 ], [ -15.490949237354373, 27.99566857993646 ], [ -15.493238647496691, 27.995509483498488 ], [ -15.49553435, 27.995456402803459 ], [ -15.497830052503305, 27.995509483498488 ], [ -15.500119462645625, 27.99566857993646 ], [ -15.502396305312889, 27.995933255577011 ], [ -15.504654339837611, 27.996302784188146 ], [ -15.506887377104105, 27.996776151845268 ], [ -15.509089296512451, 27.997352059722015 ], [ -15.511254062754601, 27.998028927665121 ], [ -15.51337574235675, 27.998804898543355 ], [ -15.51544851994259, 27.999677843358381 ], [ -15.517466714172837, 28.000645367103356 ], [ -15.519424793317381, 28.001704815352973 ], [ -15.5213173904174, 28.002853281566463 ], [ -15.52313931799579, 28.004087615083492 ], [ -15.524885582275704, 28.00540442979041 ], [ -15.526551396868129, 28.006800113433076 ], [ -15.528132195891056, 28.008270837550164 ], [ -15.529623646484245, 28.009812567999379 ], [ -15.531021660685287, 28.011421076047579 ], [ -15.532322406634437, 28.013091949993754 ], [ -15.533522319077456, 28.01482060729295 ], [ -15.534618109137742, 28.016602307147259 ], [ -15.535606773330914, 28.018432163529244 ], [ -15.536485601797136, 28.020305158601829 ], [ -15.537252185728669, 28.022216156497244 ], [ -15.537904423972238, 28.024159917417318 ], [ -15.53844052878816, 28.026131112016138 ], [ -15.538859030750393, 28.028124336025233 ], [ -15.539158782774154, 28.0301341250813 ], [ -15.539338963259974, 28.032154969715418 ], [ -15.539399078345671, 28.034181330462612 ], [ -15.539338963259974, 28.036207653050369 ], [ -15.539158782774154, 28.038228383624272 ], [ -15.538859030750393, 28.04023798396905 ], [ -15.53844052878816, 28.042230946683283 ], [ -15.537904423972238, 28.044201810266504 ], [ -15.537252185728669, 28.046145174076909 ], [ -15.536485601797136, 28.04805571311941 ], [ -15.535606773330914, 28.049928192623124 ], [ -15.534618109137742, 28.051757482368991 ], [ -15.533522319077456, 28.053538570728062 ], [ -15.532322406634437, 28.055266578372603 ], [ -15.531021660685287, 28.056936771622471 ], [ -15.529623646484245, 28.058544575390563 ], [ -15.528132195891056, 28.060085585692111 ], [ -15.526551396868129, 28.061555581684026 ], [ -15.524885582275704, 28.062950537201559 ], [ -15.52313931799579, 28.064266631760837 ], [ -15.5213173904174, 28.065500260997808 ], [ -15.519424793317381, 28.066648046515091 ], [ -15.517466714172837, 28.067706845110155 ], [ -15.51544851994259, 28.068673757360035 ], [ -15.51337574235675, 28.069546135539053 ], [ -15.511254062754601, 28.070321590848547 ], [ -15.509089296512451, 28.070997999938882 ], [ -15.506887377104105, 28.071573510706074 ], [ -15.504654339837611, 28.072046547347707 ], [ -15.502396305312889, 28.072415814664073 ], [ -15.500119462645625, 28.072680301593373 ], [ -15.497830052503305, 28.072839283971181 ], [ -15.49553435, 28.072892326506796 ], [ -15.493238647496691, 28.072839283971181 ], [ -15.490949237354373, 28.072680301593373 ], [ -15.488672394687111, 28.072415814664073 ], [ -15.486414360162387, 28.072046547347707 ], [ -15.484181322895891, 28.071573510706074 ], [ -15.481979403487545, 28.070997999938882 ], [ -15.479814637245395, 28.070321590848547 ], [ -15.477692957643248, 28.069546135539053 ], [ -15.475620180057406, 28.068673757360035 ], [ -15.473601985827161, 28.067706845110155 ], [ -15.471643906682615, 28.066648046515091 ], [ -15.469751309582598, 28.065500260997808 ], [ -15.467929382004206, 28.064266631760837 ], [ -15.466183117724292, 28.062950537201559 ], [ -15.464517303131867, 28.061555581684026 ], [ -15.46293650410894, 28.060085585692111 ], [ -15.461445053515753, 28.058544575390563 ], [ -15.460047039314709, 28.056936771622471 ], [ -15.458746293365559, 28.055266578372603 ], [ -15.457546380922544, 28.053538570728062 ], [ -15.456450590862255, 28.051757482368991 ], [ -15.455461926669084, 28.049928192623124 ], [ -15.454583098202862, 28.04805571311941 ], [ -15.453816514271328, 28.046145174076909 ], [ -15.45316427602776, 28.044201810266504 ], [ -15.45262817121184, 28.042230946683283 ], [ -15.452209669249603, 28.04023798396905 ], [ -15.451909917225846, 28.038228383624272 ], [ -15.451729736740024, 28.036207653050369 ], [ -15.451669621654325, 28.034181330462612 ] ] ] } },
{ "type": "Feature", "properties": { "name": "Santa Brígida", "feature_type": "mrr", "metric_roundness": 40.24, "metric_rectangularity": 73.5, "metric_mobile_fit": -5.08, "metric_aspect_ratio": 1.613, "metric_area_km2": 30.13 }, "geometry": { "type": "Polygon", "coordinates": [ [ [ -15.449944682829036, 28.027148992725827 ], [ -15.525624614319229, 28.003957692530147 ], [ -15.539166574356674, 28.038397356473805 ], [ -15.463486642866483, 28.061581236420032 ], [ -15.449944682829036, 28.027148992725827 ] ] ] } }
]
}
