{
"type": "FeatureCollection",
"name": "sappada",
"crs": { "type": "name", "properties": { "name": "urn:ogc:def:crs:OGC:1.3:CRS84" } },
"features": [
{ "type": "Feature", "properties": { "name": "Sappada", "metric_roundness": 34.7, "metric_rectangularity": 55.22, "metric_mobile_fit": 80.89, "metric_aspect_ratio": 0.754, "metric_area_km2": 131.48 }, "geometry": { "type": "Polygon", "coordinates": [ [ [ 12.7128606, 46.6260616 ], [ 12.7060648, 46.6196343 ], [ 12.7074576, 46.6024248 ], [ 12.6868593, 46.599097199999981 ], [ 12.6754224, 46.5862699 ], [ 12.6620764, 46.5792338 ], [ 12.6556425, 46.571393 ], [ 12.6435125, 46.5752761 ], [ 12.6369109, 46.5720625 ], [ 12.6200729, 46.542927299999981 ], [ 12.6215425, 46.526501 ], [ 12.6306015, 46.5121805 ], [ 12.6776861, 46.527105899999988 ], [ 12.696806, 46.540161 ], [ 12.7161798, 46.544817199999969 ], [ 12.7269929, 46.539696899999988 ], [ 12.7496615, 46.543995499999987 ], [ 12.7329791, 46.5582184 ], [ 12.7331269, 46.5706631 ], [ 12.741744, 46.5768451 ], [ 12.7389867, 46.588578799999986 ], [ 12.7411846, 46.595180599999985 ], [ 12.7295019, 46.6110614 ], [ 12.728371, 46.6191837 ], [ 12.7306421, 46.6243288 ], [ 12.7274515, 46.630394 ], [ 12.7128606, 46.6260616 ] ] ] } }
]
}
