{
"type": "FeatureCollection",
"name": "saraiu",
"crs": { "type": "name", "properties": { "name": "urn:ogc:def:crs:OGC:1.3:CRS84" } },
"features": [
{ "type": "Feature", "properties": { "name": "Saraiu", "metric_roundness": 48.43, "metric_rectangularity": 61.7, "metric_mobile_fit": 19.05, "metric_aspect_ratio": 1.372, "metric_area_km2": 245.62 }, "geometry": { "type": "Polygon", "coordinates": [ [ [ 28.136613, 44.7582289 ], [ 28.1346222, 44.744014799999988 ], [ 28.1239777, 44.7396319 ], [ 28.1161416, 44.7229208 ], [ 28.108215, 44.720782699999987 ], [ 28.1073743, 44.711751199999988 ], [ 28.105066, 44.710963 ], [ 28.09816, 44.7105306 ], [ 28.0972028, 44.7079903 ], [ 28.1132236, 44.6961989 ], [ 28.1112949, 44.6905371 ], [ 28.1231135, 44.6846815 ], [ 28.1276059, 44.691564899999989 ], [ 28.1328227, 44.692809499999989 ], [ 28.1477723, 44.685863399999988 ], [ 28.1553577, 44.6751795 ], [ 28.1675004, 44.6704224 ], [ 28.172322, 44.662051399999989 ], [ 28.1903155, 44.662266500000015 ], [ 28.1904316, 44.659546 ], [ 28.1837343, 44.6551597 ], [ 28.18196, 44.646769 ], [ 28.207554, 44.64625 ], [ 28.2039408, 44.6503331 ], [ 28.2051825, 44.6532812 ], [ 28.2122333, 44.6531499 ], [ 28.2340051, 44.6672459 ], [ 28.2289256, 44.674015499999982 ], [ 28.2310826, 44.6759642 ], [ 28.2670697, 44.6770122 ], [ 28.2741626, 44.6848982 ], [ 28.3032017, 44.68673 ], [ 28.3145965, 44.6960635 ], [ 28.3255367, 44.7073385 ], [ 28.3130411, 44.7110561 ], [ 28.2919369, 44.7081131 ], [ 28.2751269, 44.698329199999982 ], [ 28.2692123, 44.699150199999984 ], [ 28.2781956, 44.711204599999988 ], [ 28.2702407, 44.711691 ], [ 28.2733664, 44.718816599999982 ], [ 28.261841, 44.7280309 ], [ 28.2591993, 44.745588099999985 ], [ 28.2627275, 44.7505638 ], [ 28.2616411, 44.7553722 ], [ 28.2419081, 44.7563436 ], [ 28.2371164, 44.7645341 ], [ 28.2194232, 44.7632069 ], [ 28.2139411, 44.754033099999987 ], [ 28.1954963, 44.7543407 ], [ 28.18637, 44.7584045 ], [ 28.136613, 44.7582289 ] ] ] } }
]
}
