{
"type": "FeatureCollection",
"name": "sarnois",
"crs": { "type": "name", "properties": { "name": "urn:ogc:def:crs:OGC:1.3:CRS84" } },
"features": [
{ "type": "Feature", "properties": { "name": "Sarnois", "feature_type": "entity", "metric_roundness": 46.52, "metric_rectangularity": 69.6, "metric_mobile_fit": -3.84, "metric_aspect_ratio": 1.601, "metric_area_km2": 12.62 }, "geometry": { "type": "Polygon", "coordinates": [ [ [ 1.9005068, 49.6793888 ], [ 1.909365, 49.670266499999983 ], [ 1.9317096, 49.672072599999986 ], [ 1.9531255, 49.682330499999985 ], [ 1.9518079, 49.6837988 ], [ 1.9488664, 49.684217399999987 ], [ 1.9471336, 49.6851322 ], [ 1.9453619, 49.68472 ], [ 1.9433511, 49.6872957 ], [ 1.9377355, 49.690956 ], [ 1.9365715, 49.689515499999978 ], [ 1.9359325, 49.6915335 ], [ 1.920651, 49.6861295 ], [ 1.909983, 49.6856885 ], [ 1.907344, 49.68680149999998 ], [ 1.903763, 49.684633 ], [ 1.9005068, 49.6793888 ] ] ] } },
{ "type": "Feature", "properties": { "name": "Sarnois", "feature_type": "circle", "metric_roundness": 46.52, "metric_rectangularity": 69.6, "metric_mobile_fit": -3.84, "metric_aspect_ratio": 1.601, "metric_area_km2": 12.62 }, "geometry": { "type": "Polygon", "coordinates": [ [ [ 1.953223521207834, 49.680859672246534 ], [ 1.953187330823371, 49.679965412891221 ], [ 1.953078858865309, 49.679073588259577 ], [ 1.952898402647746, 49.678186642982752 ], [ 1.952646456788631, 49.677307008450121 ], [ 1.95232371185405, 49.676437096141314 ], [ 1.951931052465436, 49.675579291011445 ], [ 1.95146955487488, 49.674735944947756 ], [ 1.950940484015199, 49.673909370315464 ], [ 1.950345290032844, 49.673101833610907 ], [ 1.949685604313151, 49.672315549239194 ], [ 1.94896323500882, 49.671552673433716 ], [ 1.948180162083906, 49.670815298334155 ], [ 1.947338531886864, 49.670105446239525 ], [ 1.946440651267563, 49.669425064051921 ], [ 1.94548898125437, 49.668776017926632 ], [ 1.944486130308642, 49.668160088143075 ], [ 1.943434847175113, 49.667578964211081 ], [ 1.942338013347778, 49.667034240225973 ], [ 1.941198635171919, 49.666527410485251 ], [ 1.940019835603917, 49.666059865379154 ], [ 1.938804845651452, 49.665632887566566 ], [ 1.937556995517531, 49.665247648446616 ], [ 1.936279705472633, 49.664905204936225 ], [ 1.934976476479988, 49.664606496562051 ], [ 1.933650880599679, 49.664352342875432 ], [ 1.932306551197873, 49.664143441197034 ], [ 1.930947172988017, 49.66398036469792 ], [ 1.929576471931293, 49.66386356082208 ], [ 1.928198205024024, 49.663793350054924 ], [ 1.92681615, 49.66376992504123 ], [ 1.925434094975975, 49.663793350054924 ], [ 1.924055828068706, 49.66386356082208 ], [ 1.922685127011983, 49.66398036469792 ], [ 1.921325748802127, 49.664143441197034 ], [ 1.91998141940032, 49.664352342875432 ], [ 1.918655823520011, 49.664606496562051 ], [ 1.917352594527367, 49.664905204936225 ], [ 1.916075304482468, 49.665247648446616 ], [ 1.914827454348547, 49.665632887566566 ], [ 1.913612464396083, 49.666059865379154 ], [ 1.912433664828081, 49.666527410485251 ], [ 1.911294286652222, 49.667034240225973 ], [ 1.910197452824887, 49.667578964211081 ], [ 1.909146169691358, 49.668160088143075 ], [ 1.90814331874563, 49.668776017926632 ], [ 1.907191648732437, 49.669425064051921 ], [ 1.906293768113136, 49.670105446239525 ], [ 1.905452137916094, 49.670815298334155 ], [ 1.904669064991179, 49.671552673433716 ], [ 1.903946695686849, 49.672315549239194 ], [ 1.903287009967155, 49.673101833610907 ], [ 1.9026918159848, 49.673909370315464 ], [ 1.90216274512512, 49.674735944947756 ], [ 1.901701247534564, 49.675579291011445 ], [ 1.90130858814595, 49.676437096141314 ], [ 1.900985843211369, 49.677307008450121 ], [ 1.900733897352254, 49.678186642982752 ], [ 1.90055344113469, 49.679073588259577 ], [ 1.900444969176629, 49.679965412891221 ], [ 1.900408778792165, 49.680859672246534 ], [ 1.900444969176629, 49.681753915155291 ], [ 1.90055344113469, 49.682645690627474 ], [ 1.900733897352254, 49.683532554570526 ], [ 1.900985843211369, 49.68441207648619 ], [ 1.90130858814595, 49.685281846128689 ], [ 1.901701247534564, 49.686139480105979 ], [ 1.90216274512512, 49.686982628406021 ], [ 1.9026918159848, 49.687808980830319 ], [ 1.903287009967155, 49.688616273317116 ], [ 1.903946695686849, 49.689402294136968 ], [ 1.904669064991179, 49.690164889944057 ], [ 1.905452137916094, 49.690901971666392 ], [ 1.906293768113136, 49.691611520219269 ], [ 1.907191648732437, 49.692291592026258 ], [ 1.90814331874563, 49.692940324332668 ], [ 1.909146169691358, 49.693555940297344 ], [ 1.910197452824887, 49.694136753848724 ], [ 1.911294286652222, 49.694681174292086 ], [ 1.912433664828081, 49.695187710655588 ], [ 1.913612464396083, 49.69565497576329 ], [ 1.914827454348547, 49.696081690024045 ], [ 1.916075304482468, 49.696466684926236 ], [ 1.917352594527367, 49.69680890622864 ], [ 1.918655823520011, 49.697107416839167 ], [ 1.91998141940032, 49.697361399373222 ], [ 1.921325748802127, 49.697570158385325 ], [ 1.922685127011983, 49.697733122267465 ], [ 1.924055828068706, 49.697849844809546 ], [ 1.925434094975975, 49.697920006417256 ], [ 1.92681615, 49.697943414984387 ], [ 1.928198205024024, 49.697920006417256 ], [ 1.929576471931293, 49.697849844809546 ], [ 1.930947172988017, 49.697733122267465 ], [ 1.932306551197873, 49.697570158385325 ], [ 1.933650880599679, 49.697361399373222 ], [ 1.934976476479988, 49.697107416839167 ], [ 1.936279705472633, 49.69680890622864 ], [ 1.937556995517531, 49.696466684926236 ], [ 1.938804845651452, 49.696081690024045 ], [ 1.940019835603917, 49.69565497576329 ], [ 1.941198635171919, 49.695187710655588 ], [ 1.942338013347778, 49.694681174292086 ], [ 1.943434847175113, 49.694136753848724 ], [ 1.944486130308642, 49.693555940297344 ], [ 1.94548898125437, 49.692940324332668 ], [ 1.946440651267563, 49.692291592026258 ], [ 1.947338531886864, 49.691611520219269 ], [ 1.948180162083906, 49.690901971666392 ], [ 1.94896323500882, 49.690164889944057 ], [ 1.949685604313151, 49.689402294136968 ], [ 1.950345290032844, 49.688616273317116 ], [ 1.950940484015199, 49.687808980830319 ], [ 1.95146955487488, 49.686982628406021 ], [ 1.951931052465436, 49.686139480105979 ], [ 1.95232371185405, 49.685281846128689 ], [ 1.952646456788631, 49.68441207648619 ], [ 1.952898402647746, 49.683532554570526 ], [ 1.953078858865309, 49.682645690627474 ], [ 1.953187330823371, 49.681753915155291 ], [ 1.953223521207834, 49.680859672246534 ] ] ] } },
{ "type": "Feature", "properties": { "name": "Sarnois", "feature_type": "mrr", "metric_roundness": 46.52, "metric_rectangularity": 69.6, "metric_mobile_fit": -3.84, "metric_aspect_ratio": 1.601, "metric_area_km2": 12.62 }, "geometry": { "type": "Polygon", "coordinates": [ [ [ 1.898175698720516, 49.685283855216412 ], [ 1.948653263568508, 49.693638906803024 ], [ 1.95561639708249, 49.676030909856195 ], [ 1.905138832234498, 49.667672831859463 ], [ 1.898175698720516, 49.685283855216412 ] ] ] } }
]
}
