{
"type": "FeatureCollection",
"name": "sarras",
"crs": { "type": "name", "properties": { "name": "urn:ogc:def:crs:OGC:1.3:CRS84" } },
"features": [
{ "type": "Feature", "properties": { "name": "Sarras", "metric_roundness": 40.11, "metric_rectangularity": 47.18, "metric_mobile_fit": 30.93, "metric_aspect_ratio": 1.253, "metric_area_km2": 22.97 }, "geometry": { "type": "Polygon", "coordinates": [ [ [ 4.782238, 45.206859 ], [ 4.781361, 45.193194399999982 ], [ 4.7597361, 45.188964299999988 ], [ 4.7541797, 45.190791499999989 ], [ 4.7449317, 45.188648 ], [ 4.7420215, 45.184797 ], [ 4.7504885, 45.182132 ], [ 4.757785, 45.178959 ], [ 4.7620475, 45.1760315 ], [ 4.76797, 45.174695499999984 ], [ 4.7841002, 45.175887699999983 ], [ 4.7784572, 45.169847499999975 ], [ 4.7796898, 45.167385599999989 ], [ 4.8012861, 45.179096399999985 ], [ 4.810237, 45.1749235 ], [ 4.8120265, 45.179931 ], [ 4.8121435, 45.182315499999987 ], [ 4.8105145, 45.186042 ], [ 4.805862, 45.1917545 ], [ 4.8062728, 45.19718049999998 ], [ 4.8122095, 45.204949 ], [ 4.784542, 45.204004499999982 ], [ 4.782238, 45.206859 ] ] ] } }
]
}
