{
"type": "FeatureCollection",
"name": "suja",
"crs": { "type": "name", "properties": { "name": "urn:ogc:def:crs:OGC:1.3:CRS84" } },
"features": [
{ "type": "Feature", "properties": { "name": "Šuja", "feature_type": "entity", "metric_roundness": 40.65, "metric_rectangularity": 76.4, "metric_mobile_fit": 92.98, "metric_aspect_ratio": 0.492, "metric_area_km2": 5.15 }, "geometry": { "type": "Polygon", "coordinates": [ [ [ 18.6407245, 49.073328499999988 ], [ 18.6381238, 49.0775489 ], [ 18.6333437, 49.078159599999985 ], [ 18.624691, 49.0717632 ], [ 18.62373, 49.065609 ], [ 18.6249004, 49.055544699999984 ], [ 18.636614, 49.058598 ], [ 18.6407245, 49.073328499999988 ] ] ] } },
{ "type": "Feature", "properties": { "name": "Šuja", "feature_type": "circle", "metric_roundness": 40.65, "metric_rectangularity": 76.4, "metric_mobile_fit": 92.98, "metric_aspect_ratio": 0.492, "metric_area_km2": 5.15 }, "geometry": { "type": "Polygon", "coordinates": [ [ [ 18.649559271129394, 49.066548018019986 ], [ 18.649534538108583, 49.065929184307052 ], [ 18.649460406837644, 49.065312039099112 ], [ 18.64933708050523, 49.06469827404289 ], [ 18.649164897140253, 49.064089571582265 ], [ 18.648944328685342, 49.063487600345134 ], [ 18.648675979703302, 49.062894010567391 ], [ 18.648360585720052, 49.062310429566793 ], [ 18.647999011208562, 49.061738457278949 ], [ 18.647592247219436, 49.061179661867826 ], [ 18.647141408664503, 49.060635575422914 ], [ 18.646647731260895, 49.060107689754595 ], [ 18.646112568144076, 49.059597452299776 ], [ 18.645537386158932, 49.059106262148539 ], [ 18.644923761839316, 49.058635466203235 ], [ 18.644273377086829, 49.058186355480274 ], [ 18.643588014560876, 49.057760161564971 ], [ 18.642869552792494, 49.057358053229308 ], [ 18.642119961035458, 49.056981133221747 ], [ 18.641341293868667, 49.056630435238091 ], [ 18.6405356855647, 49.056306921081884 ], [ 18.639705344239918, 49.056011478021894 ], [ 18.638852545802184, 49.055744916354357 ], [ 18.637979627712731, 49.055507967176354 ], [ 18.637088982579375, 49.055301280376852 ], [ 18.636183051598511, 49.055125422850693 ], [ 18.635264317863989, 49.05498087694059 ], [ 18.634335299561116, 49.05486803911144 ], [ 18.633398543064484, 49.054787218860696 ], [ 18.632456615958535, 49.054738637867601 ], [ 18.6315121, 49.054722429383908 ], [ 18.630567584041465, 49.054738637867601 ], [ 18.629625656935513, 49.054787218860696 ], [ 18.628688900438885, 49.05486803911144 ], [ 18.627759882136008, 49.05498087694059 ], [ 18.626841148401486, 49.055125422850693 ], [ 18.625935217420622, 49.055301280376852 ], [ 18.625044572287262, 49.055507967176354 ], [ 18.624171654197813, 49.055744916354357 ], [ 18.623318855760079, 49.056011478021894 ], [ 18.6224885144353, 49.056306921081884 ], [ 18.621682906131333, 49.056630435238091 ], [ 18.620904238964542, 49.056981133221747 ], [ 18.620154647207503, 49.057358053229308 ], [ 18.619436185439124, 49.057760161564971 ], [ 18.618750822913167, 49.058186355480274 ], [ 18.618100438160685, 49.058635466203235 ], [ 18.617486813841065, 49.059106262148539 ], [ 18.616911631855924, 49.059597452299776 ], [ 18.616376468739098, 49.060107689754595 ], [ 18.615882791335494, 49.060635575422914 ], [ 18.615431952780561, 49.061179661867826 ], [ 18.615025188791439, 49.061738457278949 ], [ 18.614663614279944, 49.062310429566793 ], [ 18.614348220296694, 49.062894010567391 ], [ 18.614079871314658, 49.063487600345134 ], [ 18.613859302859748, 49.064089571582265 ], [ 18.613687119494767, 49.06469827404289 ], [ 18.613563793162356, 49.065312039099112 ], [ 18.613489661891414, 49.065929184307052 ], [ 18.613464928870602, 49.066548018019986 ], [ 18.613489661891414, 49.067166844026097 ], [ 18.613563793162356, 49.067783966197993 ], [ 18.613687119494767, 49.068397693141328 ], [ 18.613859302859748, 49.069006342829795 ], [ 18.614079871314658, 49.069608247213708 ], [ 18.614348220296694, 49.070201756789608 ], [ 18.614663614279944, 49.070785245118451 ], [ 18.615025188791439, 49.071357113279959 ], [ 18.615431952780561, 49.071915794250977 ], [ 18.615882791335494, 49.072459757195887 ], [ 18.616376468739098, 49.072987511657352 ], [ 18.616911631855924, 49.073497611636029 ], [ 18.617486813841065, 49.073988659548043 ], [ 18.618100438160685, 49.074459310049448 ], [ 18.618750822913167, 49.074908273717348 ], [ 18.619436185439124, 49.075334320577568 ], [ 18.620154647207503, 49.075736283469325 ], [ 18.620904238964542, 49.076113061237663 ], [ 18.621682906131333, 49.076463621745184 ], [ 18.6224885144353, 49.076787004694545 ], [ 18.623318855760079, 49.077082324254519 ], [ 18.624171654197813, 49.077348771481972 ], [ 18.625044572287262, 49.077585616533632 ], [ 18.625935217420622, 49.077792210661379 ], [ 18.626841148401486, 49.077967987985687 ], [ 18.627759882136008, 49.078112467042573 ], [ 18.628688900438885, 49.078225252099564 ], [ 18.629625656935513, 49.078306034237428 ], [ 18.630567584041465, 49.078354592194486 ], [ 18.6315121, 49.078370792971334 ], [ 18.632456615958535, 49.078354592194486 ], [ 18.633398543064484, 49.078306034237428 ], [ 18.634335299561116, 49.078225252099564 ], [ 18.635264317863989, 49.078112467042573 ], [ 18.636183051598511, 49.077967987985687 ], [ 18.637088982579375, 49.077792210661379 ], [ 18.637979627712731, 49.077585616533632 ], [ 18.638852545802184, 49.077348771481972 ], [ 18.639705344239918, 49.077082324254519 ], [ 18.6405356855647, 49.076787004694545 ], [ 18.641341293868667, 49.076463621745184 ], [ 18.642119961035458, 49.076113061237663 ], [ 18.642869552792494, 49.075736283469325 ], [ 18.643588014560876, 49.075334320577568 ], [ 18.644273377086829, 49.074908273717348 ], [ 18.644923761839316, 49.074459310049448 ], [ 18.645537386158932, 49.073988659548043 ], [ 18.646112568144076, 49.073497611636029 ], [ 18.646647731260895, 49.072987511657352 ], [ 18.647141408664503, 49.072459757195887 ], [ 18.647592247219436, 49.071915794250977 ], [ 18.647999011208562, 49.071357113279959 ], [ 18.648360585720052, 49.070785245118451 ], [ 18.648675979703302, 49.070201756789608 ], [ 18.648944328685342, 49.069608247213708 ], [ 18.649164897140253, 49.069006342829795 ], [ 18.64933708050523, 49.068397693141328 ], [ 18.649460406837644, 49.067783966197993 ], [ 18.649534538108583, 49.067166844026097 ], [ 18.649559271129394, 49.066548018019986 ] ] ] } },
{ "type": "Feature", "properties": { "name": "Šuja", "feature_type": "mrr", "metric_roundness": 40.65, "metric_rectangularity": 76.4, "metric_mobile_fit": 92.98, "metric_aspect_ratio": 0.492, "metric_area_km2": 5.15 }, "geometry": { "type": "Polygon", "coordinates": [ [ [ 18.641790522187971, 49.077148010387127 ], [ 18.635410813769013, 49.054285400049118 ], [ 18.620318639441052, 49.056093644998661 ], [ 18.626698347860014, 49.078955423554433 ], [ 18.641790522187971, 49.077148010387127 ] ] ] } }
]
}
