{
"type": "FeatureCollection",
"name": "sundern_sauerland_stadt",
"crs": { "type": "name", "properties": { "name": "urn:ogc:def:crs:OGC:1.3:CRS84" } },
"features": [
{ "type": "Feature", "properties": { "name": "Sundern (Sauerland), Stadt", "feature_type": "entity", "metric_roundness": 65.58, "metric_rectangularity": 69.18, "metric_mobile_fit": 67.85, "metric_aspect_ratio": 0.884, "metric_area_km2": 492.58 }, "geometry": { "type": "Polygon", "coordinates": [ [ [ 7.942161, 51.2395445 ], [ 7.9674273, 51.241138 ], [ 7.9960522, 51.235339699999983 ], [ 8.0201475, 51.246107599999988 ], [ 8.0282592, 51.243497899999987 ], [ 8.0288286, 51.23821 ], [ 8.0396273, 51.2376814 ], [ 8.0483701, 51.2411752 ], [ 8.0537816, 51.2470277 ], [ 8.0657885, 51.246682 ], [ 8.0749166, 51.264947 ], [ 8.0814369, 51.2663781 ], [ 8.0871186, 51.2621464 ], [ 8.1035845, 51.266341 ], [ 8.1013526, 51.2684186 ], [ 8.1053195, 51.278965299999989 ], [ 8.0978286, 51.287601799999983 ], [ 8.0977841, 51.295406499999984 ], [ 8.1165657, 51.3060527 ], [ 8.1255701, 51.3177529 ], [ 8.1069025, 51.330536 ], [ 8.1303261, 51.3431027 ], [ 8.123096, 51.3530488 ], [ 8.110881, 51.361644 ], [ 8.08887, 51.355843799999974 ], [ 8.0483332, 51.3548825 ], [ 8.0332203, 51.358062399999987 ], [ 8.0248558, 51.3644445 ], [ 8.0290349, 51.3742241 ], [ 8.0244844, 51.3776386 ], [ 8.0149574, 51.3766377 ], [ 8.0076555, 51.370455199999988 ], [ 7.9950817, 51.3775654 ], [ 7.9945297, 51.38076479999998 ], [ 7.9980441, 51.3841619 ], [ 8.0094926, 51.38407429999998 ], [ 8.0111901, 51.390567 ], [ 7.9998174, 51.3926041 ], [ 7.9770175, 51.3936656 ], [ 7.9589281, 51.3911473 ], [ 7.9534784, 51.3847587 ], [ 7.9460885, 51.3814657 ], [ 7.9327468, 51.3815504 ], [ 7.9129534, 51.372635699999975 ], [ 7.906257, 51.375036499999986 ], [ 7.9065976, 51.365507199999982 ], [ 7.910978, 51.355308799999982 ], [ 7.9083029, 51.348043599999983 ], [ 7.9289916, 51.3366349 ], [ 7.931967, 51.3212418 ], [ 7.9054832, 51.3069181 ], [ 7.9159588, 51.3002645 ], [ 7.9168389, 51.296724299999987 ], [ 7.9134345, 51.292165 ], [ 7.9109716, 51.284118799999987 ], [ 7.9146261, 51.279880899999988 ], [ 7.9068726, 51.279591 ], [ 7.9045268, 51.276871299999989 ], [ 7.9212273, 51.259463399999987 ], [ 7.9185535, 51.2499925 ], [ 7.9199233, 51.2446796 ], [ 7.9304298, 51.2446893 ], [ 7.9338585, 51.2354938 ], [ 7.939839, 51.2340125 ], [ 7.942161, 51.2395445 ] ] ] } },
{ "type": "Feature", "properties": { "name": "Sundern (Sauerland), Stadt", "feature_type": "circle", "metric_roundness": 65.58, "metric_rectangularity": 69.18, "metric_mobile_fit": 67.85, "metric_aspect_ratio": 0.884, "metric_area_km2": 492.58 }, "geometry": { "type": "Polygon", "coordinates": [ [ [ 8.139975600055912, 51.311578098532991 ], [ 8.139785190036179, 51.307032589975336 ], [ 8.139214481877609, 51.302499091912857 ], [ 8.138265039851598, 51.297990035861368 ], [ 8.136939466312739, 51.293517789961825 ], [ 8.135241394565972, 51.289094624980237 ], [ 8.13317547890791, 51.28473268053591 ], [ 8.130747381869782, 51.280443931652187 ], [ 8.127963758696794, 51.276240155723031 ], [ 8.124832239106571, 51.272132899988584 ], [ 8.121361406376641, 51.268133449611362 ], [ 8.117560773818267, 51.264252796443593 ], [ 8.113440758701108, 51.260501608574614 ], [ 8.109012653700225, 51.256890200745403 ], [ 8.104288595943627, 51.253428505714922 ], [ 8.099281533745264, 51.25012604666113 ], [ 8.094005191114585, 51.24699191069589 ], [ 8.088474030139983, 51.244034723570898 ], [ 8.082703211349225, 51.241262625648233 ], [ 8.076708552155493, 51.238683249205373 ], [ 8.070506483502951, 51.236303697141317 ], [ 8.064114004830678, 51.234130523146213 ], [ 8.057548637478378, 51.232169713392707 ], [ 8.05082837666161, 51.230426669803222 ], [ 8.043971642148151, 51.228906194942383 ], [ 8.0369972277707, 51.227612478579282 ], [ 8.029924249914277, 51.226549085959775 ], [ 8.022772095119553, 51.22571894782309 ], [ 8.01556036694568, 51.225124352192893 ], [ 8.008308832238297, 51.22476693796699 ], [ 8.001037366949994, 51.224647690324943 ], [ 7.993765901661691, 51.22476693796699 ], [ 7.98651436695431, 51.225124352192893 ], [ 7.979302638780435, 51.22571894782309 ], [ 7.972150483985712, 51.226549085959775 ], [ 7.96507750612929, 51.227612478579282 ], [ 7.958103091751838, 51.228906194942383 ], [ 7.95124635723838, 51.230426669803222 ], [ 7.944526096421611, 51.232169713392707 ], [ 7.937960729069309, 51.234130523146213 ], [ 7.931568250397037, 51.236303697141317 ], [ 7.925366181744496, 51.238683249205373 ], [ 7.919371522550763, 51.241262625648233 ], [ 7.913600703760006, 51.244034723570898 ], [ 7.908069542785404, 51.24699191069589 ], [ 7.902793200154724, 51.25012604666113 ], [ 7.897786137956361, 51.253428505714922 ], [ 7.893062080199765, 51.256890200745403 ], [ 7.88863397519888, 51.260501608574614 ], [ 7.884513960081722, 51.264252796443593 ], [ 7.880713327523345, 51.268133449611362 ], [ 7.877242494793419, 51.272132899988584 ], [ 7.874110975203195, 51.276240155723031 ], [ 7.871327352030205, 51.280443931652187 ], [ 7.868899254992078, 51.28473268053591 ], [ 7.866833339334018, 51.289094624980237 ], [ 7.865135267587249, 51.293517789961825 ], [ 7.863809694048391, 51.297990035861368 ], [ 7.86286025202238, 51.302499091912857 ], [ 7.862289543863811, 51.307032589975336 ], [ 7.862099133844078, 51.311578098532991 ], [ 7.862289543863811, 51.316123156829214 ], [ 7.86286025202238, 51.320655309040582 ], [ 7.863809694048391, 51.325162138396699 ], [ 7.865135267587249, 51.329631301152823 ], [ 7.866833339334018, 51.334050560322567 ], [ 7.868899254992078, 51.338407819079571 ], [ 7.871327352030205, 51.342691153737974 ], [ 7.874110975203195, 51.346888846223294 ], [ 7.877242494793419, 51.350989415946941 ], [ 7.880713327523345, 51.354981650999846 ], [ 7.884513960081722, 51.358854638582443 ], [ 7.88863397519888, 51.362597794591252 ], [ 7.893062080199765, 51.366200892284098 ], [ 7.897786137956361, 51.369654089949613 ], [ 7.902793200154724, 51.372947957508821 ], [ 7.908069542785404, 51.376073501980088 ], [ 7.913600703760006, 51.379022191741875 ], [ 7.919371522550763, 51.381785979530989 ], [ 7.925366181744496, 51.38435732411746 ], [ 7.931568250397037, 51.386729210600926 ], [ 7.937960729069309, 51.388895169276879 ], [ 7.944526096421611, 51.39084929302512 ], [ 7.95124635723838, 51.392586253176425 ], [ 7.958103091751838, 51.394101313817494 ], [ 7.965077506129289, 51.395390344498445 ], [ 7.972150483985712, 51.396449831310683 ], [ 7.979302638780435, 51.397276886307736 ], [ 7.98651436695431, 51.397869255245404 ], [ 7.993765901661691, 51.398225323621908 ], [ 8.001037366949994, 51.39834412100312 ], [ 8.008308832238297, 51.398225323621908 ], [ 8.01556036694568, 51.397869255245404 ], [ 8.022772095119553, 51.397276886307736 ], [ 8.029924249914277, 51.396449831310683 ], [ 8.0369972277707, 51.395390344498445 ], [ 8.043971642148151, 51.394101313817494 ], [ 8.05082837666161, 51.392586253176425 ], [ 8.057548637478378, 51.39084929302512 ], [ 8.064114004830678, 51.388895169276879 ], [ 8.070506483502951, 51.386729210600926 ], [ 8.076708552155493, 51.38435732411746 ], [ 8.082703211349225, 51.381785979530989 ], [ 8.088474030139983, 51.379022191741875 ], [ 8.094005191114585, 51.376073501980088 ], [ 8.099281533745264, 51.372947957508821 ], [ 8.104288595943627, 51.369654089949613 ], [ 8.109012653700225, 51.366200892284098 ], [ 8.113440758701108, 51.362597794591252 ], [ 8.117560773818267, 51.358854638582443 ], [ 8.121361406376641, 51.354981650999846 ], [ 8.124832239106571, 51.350989415946941 ], [ 8.127963758696794, 51.346888846223294 ], [ 8.130747381869782, 51.342691153737974 ], [ 8.13317547890791, 51.338407819079571 ], [ 8.135241394565972, 51.334050560322567 ], [ 8.136939466312739, 51.329631301152823 ], [ 8.138265039851598, 51.325162138396699 ], [ 8.139214481877609, 51.320655309040582 ], [ 8.139785190036179, 51.316123156829214 ], [ 8.139975600055912, 51.311578098532991 ] ] ] } },
{ "type": "Feature", "properties": { "name": "Sundern (Sauerland), Stadt", "feature_type": "mrr", "metric_roundness": 65.58, "metric_rectangularity": 69.18, "metric_mobile_fit": 67.85, "metric_aspect_ratio": 0.884, "metric_area_km2": 492.58 }, "geometry": { "type": "Polygon", "coordinates": [ [ [ 7.903776928602332, 51.234261193526791 ], [ 7.90659430429606, 51.39414956783785 ], [ 8.131199410577091, 51.392606003499473 ], [ 8.128382034883366, 51.23271224055987 ], [ 7.903776928602332, 51.234261193526791 ] ] ] } }
]
}
