{
"type": "FeatureCollection",
"name": "niederndorferberg",
"crs": { "type": "name", "properties": { "name": "urn:ogc:def:crs:OGC:1.3:CRS84" } },
"features": [
{ "type": "Feature", "properties": { "name": "Niederndorferberg", "metric_roundness": 54.59, "metric_rectangularity": 61.21, "metric_mobile_fit": 65.93, "metric_aspect_ratio": 0.903, "metric_area_km2": 27.02 }, "geometry": { "type": "Polygon", "coordinates": [ [ [ 12.2203828, 47.6634376 ], [ 12.2324287, 47.657500399999989 ], [ 12.2382167, 47.648928399999988 ], [ 12.246017, 47.6464715 ], [ 12.2586515, 47.6601973 ], [ 12.2571775, 47.6791 ], [ 12.2431465, 47.691672 ], [ 12.2358175, 47.684472799999988 ], [ 12.212631, 47.683913399999987 ], [ 12.2101073, 47.6809913 ], [ 12.2134559, 47.674439299999982 ], [ 12.1981667, 47.670320599999982 ], [ 12.1980305, 47.662833 ], [ 12.2203828, 47.6634376 ] ] ] } }
]
}
