{
"type": "FeatureCollection",
"name": "niederwallmenach",
"crs": { "type": "name", "properties": { "name": "urn:ogc:def:crs:OGC:1.3:CRS84" } },
"features": [
{ "type": "Feature", "properties": { "name": "Niederwallmenach", "feature_type": "entity", "metric_roundness": 50.07, "metric_rectangularity": 59.41, "metric_mobile_fit": 81.66, "metric_aspect_ratio": 0.746, "metric_area_km2": 16.65 }, "geometry": { "type": "Polygon", "coordinates": [ [ [ 7.814112, 50.181186199999985 ], [ 7.793356, 50.172151 ], [ 7.7983503, 50.1688176 ], [ 7.7961906, 50.1622877 ], [ 7.8015107, 50.1506818 ], [ 7.810853, 50.1465165 ], [ 7.8248494, 50.151793499999989 ], [ 7.8280765, 50.157094 ], [ 7.8192836, 50.162923499999984 ], [ 7.8211101, 50.168235599999981 ], [ 7.8325515, 50.174872 ], [ 7.83466, 50.17502 ], [ 7.835419, 50.1777205 ], [ 7.8262655, 50.182639 ], [ 7.824598, 50.181636499999982 ], [ 7.814112, 50.181186199999985 ] ] ] } },
{ "type": "Feature", "properties": { "name": "Niederwallmenach", "feature_type": "circle", "metric_roundness": 50.07, "metric_rectangularity": 59.41, "metric_mobile_fit": 81.66, "metric_aspect_ratio": 0.746, "metric_area_km2": 16.65 }, "geometry": { "type": "Polygon", "coordinates": [ [ [ 7.847788373082827, 50.164581162433713 ], [ 7.847748315585487, 50.16360122841381 ], [ 7.847628252888286, 50.162623960317184 ], [ 7.847428514074729, 50.161652037014299 ], [ 7.847149646615021, 50.16068812288735 ], [ 7.846792414865485, 50.159734860522939 ], [ 7.846357797973517, 50.158794863462703 ], [ 7.845846987193806, 50.15787070903194 ], [ 7.845261382623193, 50.156964931265954 ], [ 7.844602589363105, 50.156080013953563 ], [ 7.84387241312007, 50.155218383816973 ], [ 7.843072855256422, 50.154382403846895 ], [ 7.842206107304684, 50.153574366811291 ], [ 7.841274544960748, 50.152796488955588 ], [ 7.840280721572245, 50.15205090391202 ], [ 7.839227361140003, 50.151339656834843 ], [ 7.838117350851751, 50.150664698777554 ], [ 7.836953733168529, 50.150027881328008 ], [ 7.835739697485527, 50.149430951516059 ], [ 7.834478571390167, 50.148875547008018 ], [ 7.833173811541414, 50.148363191601213 ], [ 7.831828994195321, 50.147895291031269 ], [ 7.830447805402759, 50.147473129103659 ], [ 7.8290340309062, 50.147097864160408 ], [ 7.827591545763272, 50.146770525891711 ], [ 7.826124303725481, 50.146492012501447 ], [ 7.824636326401272, 50.146263088234313 ], [ 7.823131692233058, 50.146084381271748 ], [ 7.821614525318511, 50.145956382002282 ], [ 7.820088984106683, 50.14587944167112 ], [ 7.81855925, 50.145853771413101 ], [ 7.817029515893318, 50.14587944167112 ], [ 7.815503974681491, 50.145956382002282 ], [ 7.813986807766944, 50.146084381271748 ], [ 7.812482173598729, 50.146263088234313 ], [ 7.810994196274519, 50.146492012501447 ], [ 7.80952695423673, 50.146770525891711 ], [ 7.808084469093801, 50.147097864160408 ], [ 7.806670694597241, 50.147473129103659 ], [ 7.805289505804678, 50.147895291031269 ], [ 7.803944688458587, 50.148363191601213 ], [ 7.802639928609834, 50.148875547008018 ], [ 7.801378802514472, 50.149430951516059 ], [ 7.800164766831473, 50.150027881328008 ], [ 7.799001149148251, 50.150664698777554 ], [ 7.797891138859998, 50.151339656834843 ], [ 7.796837778427755, 50.15205090391202 ], [ 7.795843955039252, 50.152796488955588 ], [ 7.794912392695317, 50.153574366811291 ], [ 7.794045644743578, 50.154382403846895 ], [ 7.79324608687993, 50.155218383816973 ], [ 7.792515910636896, 50.156080013953563 ], [ 7.791857117376808, 50.156964931265954 ], [ 7.791271512806196, 50.15787070903194 ], [ 7.790760702026485, 50.158794863462703 ], [ 7.790326085134516, 50.159734860522939 ], [ 7.78996885338498, 50.16068812288735 ], [ 7.789689985925272, 50.161652037014299 ], [ 7.789490247111716, 50.162623960317184 ], [ 7.789370184414513, 50.16360122841381 ], [ 7.789330126917174, 50.164581162433713 ], [ 7.789370184414513, 50.165561076363446 ], [ 7.789490247111716, 50.166538284409697 ], [ 7.789689985925272, 50.167510108359934 ], [ 7.78996885338498, 50.168473884920473 ], [ 7.790326085134516, 50.16942697301193 ], [ 7.790760702026485, 50.170366761002029 ], [ 7.791271512806196, 50.171290673856106 ], [ 7.791857117376808, 50.172196180185594 ], [ 7.792515910636896, 50.173080799175622 ], [ 7.79324608687993, 50.173942107372433 ], [ 7.794045644743578, 50.174777745312582 ], [ 7.794912392695317, 50.175585423975448 ], [ 7.795843955039252, 50.176362931042021 ], [ 7.796837778427755, 50.177108136942493 ], [ 7.797891138859998, 50.177819000676585 ], [ 7.799001149148251, 50.178493575390803 ], [ 7.800164766831473, 50.179130013697254 ], [ 7.801378802514472, 50.179726572720071 ], [ 7.802639928609834, 50.180281618855382 ], [ 7.803944688458587, 50.180793632232266 ], [ 7.805289505804678, 50.181261210862452 ], [ 7.806670694597241, 50.181683074467699 ], [ 7.808084469093801, 50.182058067974474 ], [ 7.80952695423673, 50.182385164666478 ], [ 7.810994196274519, 50.182663468986625 ], [ 7.812482173598729, 50.182892218980818 ], [ 7.813986807766944, 50.183070788376973 ], [ 7.815503974681491, 50.183198688293807 ], [ 7.817029515893318, 50.183275568574594 ], [ 7.81855925, 50.183301218742457 ], [ 7.820088984106683, 50.183275568574594 ], [ 7.821614525318511, 50.183198688293807 ], [ 7.823131692233058, 50.183070788376973 ], [ 7.824636326401272, 50.182892218980818 ], [ 7.826124303725481, 50.182663468986625 ], [ 7.827591545763272, 50.182385164666478 ], [ 7.8290340309062, 50.182058067974474 ], [ 7.830447805402759, 50.181683074467699 ], [ 7.831828994195321, 50.181261210862452 ], [ 7.833173811541414, 50.180793632232266 ], [ 7.834478571390167, 50.180281618855382 ], [ 7.835739697485527, 50.179726572720071 ], [ 7.836953733168529, 50.179130013697254 ], [ 7.838117350851751, 50.178493575390803 ], [ 7.839227361140003, 50.177819000676585 ], [ 7.840280721572245, 50.177108136942493 ], [ 7.841274544960748, 50.176362931042021 ], [ 7.842206107304684, 50.175585423975448 ], [ 7.843072855256422, 50.174777745312582 ], [ 7.84387241312007, 50.173942107372433 ], [ 7.844602589363105, 50.173080799175622 ], [ 7.845261382623193, 50.172196180185594 ], [ 7.845846987193806, 50.171290673856106 ], [ 7.846357797973517, 50.170366761002029 ], [ 7.846792414865485, 50.16942697301193 ], [ 7.847149646615021, 50.168473884920473 ], [ 7.847428514074729, 50.167510108359934 ], [ 7.847628252888286, 50.166538284409697 ], [ 7.847748315585487, 50.165561076363446 ], [ 7.847788373082827, 50.164581162433713 ] ] ] } },
{ "type": "Feature", "properties": { "name": "Niederwallmenach", "feature_type": "mrr", "metric_roundness": 50.07, "metric_rectangularity": 59.41, "metric_mobile_fit": 81.66, "metric_aspect_ratio": 0.746, "metric_area_km2": 16.65 }, "geometry": { "type": "Polygon", "coordinates": [ [ [ 7.791471463758861, 50.178479686547604 ], [ 7.833725257445946, 50.183530698803793 ], [ 7.843378355962551, 50.150407223741368 ], [ 7.801124562275466, 50.14535270974195 ], [ 7.791471463758861, 50.178479686547604 ] ] ] } }
]
}
