{
"type": "FeatureCollection",
"name": "niedergorsdorf",
"crs": { "type": "name", "properties": { "name": "urn:ogc:def:crs:OGC:1.3:CRS84" } },
"features": [
{ "type": "Feature", "properties": { "name": "Niedergörsdorf", "metric_roundness": 40.95, "metric_rectangularity": 62.98, "metric_mobile_fit": 25.25, "metric_aspect_ratio": 1.31, "metric_area_km2": 540.58 }, "geometry": { "type": "Polygon", "coordinates": [ [ [ 12.8099387, 51.9625631 ], [ 12.8431374, 51.9672378 ], [ 12.8506597, 51.9565673 ], [ 12.85273, 51.935005499999988 ], [ 12.8556302, 51.9348642 ], [ 12.8867312, 51.9344463 ], [ 12.8937664, 51.9284352 ], [ 12.9154203, 51.932402599999975 ], [ 12.9205365, 51.9392177 ], [ 12.9585559, 51.934845299999985 ], [ 12.9572496, 51.922967199999981 ], [ 12.9757306, 51.9192993 ], [ 12.973713, 51.901607 ], [ 12.9871267, 51.90396 ], [ 13.0074455, 51.902900599999988 ], [ 13.0211397, 51.897975099999989 ], [ 13.0244462, 51.902718399999983 ], [ 13.0437328, 51.9004231 ], [ 13.0475775, 51.8924522 ], [ 13.0388384, 51.890609799999986 ], [ 13.0382326, 51.8816869 ], [ 13.0298234, 51.8798383 ], [ 13.0381814, 51.871898699999988 ], [ 13.0793914, 51.868085799999989 ], [ 13.085005, 51.8740165 ], [ 13.0869804, 51.8954275 ], [ 13.083751, 51.906138 ], [ 13.1056014, 51.908426899999981 ], [ 13.1226161, 51.9140138 ], [ 13.1176795, 51.919704799999984 ], [ 13.0988676, 51.9257943 ], [ 13.095717, 51.9379966 ], [ 13.0998227, 51.940750199999989 ], [ 13.125249, 51.943393199999988 ], [ 13.1199095, 51.9632165 ], [ 13.0912051, 51.9681188 ], [ 13.0664543, 51.9636938 ], [ 13.0652994, 51.9703331 ], [ 13.056109, 51.9711089 ], [ 13.0544611, 51.9756389 ], [ 13.0247219, 51.979283 ], [ 13.0256867, 51.9877619 ], [ 13.0321836, 51.9923589 ], [ 13.0178969, 51.9966179 ], [ 13.0217722, 52.007660799999989 ], [ 13.0111487, 52.012047699999982 ], [ 13.0041914, 52.018855 ], [ 12.9920588, 52.016932699999984 ], [ 12.9759225, 52.0243725 ], [ 12.9597216, 52.025634399999973 ], [ 12.941203, 52.0335767 ], [ 12.9180247, 52.032925899999974 ], [ 12.9064633, 52.0353275 ], [ 12.8756562, 52.0203602 ], [ 12.8652834, 52.022789499999988 ], [ 12.8615929, 52.0193176 ], [ 12.8556302, 52.0195691 ], [ 12.8496187, 52.011619499999981 ], [ 12.8470707, 52.003421499999988 ], [ 12.8425438, 51.9972335 ], [ 12.816201, 51.993295799999984 ], [ 12.8139808, 51.9898294 ], [ 12.7730539, 51.982456699999986 ], [ 12.7697805, 51.9792745 ], [ 12.7761081, 51.975618899999986 ], [ 12.776022, 51.9651165 ], [ 12.8099387, 51.9625631 ] ] ] } }
]
}
