{
"type": "FeatureCollection",
"name": "nizerolles",
"crs": { "type": "name", "properties": { "name": "urn:ogc:def:crs:OGC:1.3:CRS84" } },
"features": [
{ "type": "Feature", "properties": { "name": "Nizerolles", "feature_type": "entity", "metric_roundness": 48.84, "metric_rectangularity": 73.91, "metric_mobile_fit": 72.85, "metric_aspect_ratio": 0.834, "metric_area_km2": 36.41 }, "geometry": { "type": "Polygon", "coordinates": [ [ [ 3.6508469, 46.0785489 ], [ 3.6558819, 46.082056099999974 ], [ 3.6648104, 46.081372599999973 ], [ 3.6766065, 46.0917785 ], [ 3.6742618, 46.0989968 ], [ 3.6650788, 46.104665299999986 ], [ 3.6643433, 46.1091604 ], [ 3.6607979, 46.1097838 ], [ 3.6605298, 46.1098769 ], [ 3.6603046, 46.110047599999987 ], [ 3.6601437, 46.110279899999981 ], [ 3.6600631, 46.1105508 ], [ 3.6600709, 46.110833299999989 ], [ 3.6601662, 46.1110993 ], [ 3.6603395, 46.1113225 ], [ 3.6605745, 46.1114817 ], [ 3.6638318, 46.112998399999988 ], [ 3.6645618, 46.116518799999987 ], [ 3.652317, 46.1264321 ], [ 3.655522, 46.131889 ], [ 3.6456215, 46.1351016 ], [ 3.6376503, 46.128334199999983 ], [ 3.608576, 46.127838 ], [ 3.6138948, 46.121080299999988 ], [ 3.619119, 46.105628 ], [ 3.6334018, 46.097407499999989 ], [ 3.6367011, 46.0885227 ], [ 3.642939, 46.081959499999989 ], [ 3.6508469, 46.0785489 ] ] ] } },
{ "type": "Feature", "properties": { "name": "Nizerolles", "feature_type": "circle", "metric_roundness": 48.84, "metric_rectangularity": 73.91, "metric_mobile_fit": 72.85, "metric_aspect_ratio": 0.834, "metric_area_km2": 36.41 }, "geometry": { "type": "Polygon", "coordinates": [ [ [ 3.681565339282172, 46.105253748608867 ], [ 3.681505359526059, 46.103665616285618 ], [ 3.681325584658063, 46.102081791359815 ], [ 3.681026507428602, 46.100506615547104 ], [ 3.680608947587573, 46.098944407224174 ], [ 3.680074049637474, 46.097399449582205 ], [ 3.67942327969641, 46.095875978872805 ], [ 3.678658421479551, 46.094378172778903 ], [ 3.677781571410106, 46.092910138942628 ], [ 3.676795132873168, 46.091475903681697 ], [ 3.675701809628198, 46.090079400925809 ], [ 3.674504598398216, 46.088724461403437 ], [ 3.673206780655985, 46.087414802109059 ], [ 3.671811913629726, 46.08615401608008 ], [ 3.670323820553005, 46.084945562511848 ], [ 3.668746580185505, 46.083792757238207 ], [ 3.667084515633444, 46.082698763604228 ], [ 3.665342182500229, 46.081666583756352 ], [ 3.663524356399869, 46.08069905037447 ], [ 3.661636019867351, 46.079798818868845 ], [ 3.659682348701855, 46.078968360063861 ], [ 3.657668697780247, 46.078209953388871 ], [ 3.655600586379734, 46.077525680595443 ], [ 3.653483683049913, 46.076917420018411 ], [ 3.651323790075668, 46.076386841396889 ], [ 3.649126827573508, 46.075935401269845 ], [ 3.646898817264945, 46.075564338959033 ], [ 3.644645865971363, 46.07527467315073 ], [ 3.642374148875661, 46.075067199085616 ], [ 3.640089892596491, 46.07494248636511 ], [ 3.637799358121539, 46.074900877379854 ], [ 3.635508823646587, 46.07494248636511 ], [ 3.633224567367417, 46.075067199085616 ], [ 3.630952850271715, 46.07527467315073 ], [ 3.628699898978134, 46.075564338959033 ], [ 3.62647188866957, 46.075935401269845 ], [ 3.62427492616741, 46.076386841396889 ], [ 3.622115033193165, 46.076917420018411 ], [ 3.619998129863345, 46.077525680595443 ], [ 3.617930018462832, 46.078209953388871 ], [ 3.615916367541223, 46.078968360063861 ], [ 3.613962696375727, 46.079798818868845 ], [ 3.612074359843209, 46.08069905037447 ], [ 3.61025653374285, 46.081666583756352 ], [ 3.608514200609635, 46.082698763604228 ], [ 3.606852136057573, 46.083792757238207 ], [ 3.605274895690074, 46.084945562511848 ], [ 3.603786802613352, 46.08615401608008 ], [ 3.602391935587093, 46.087414802109059 ], [ 3.601094117844863, 46.088724461403437 ], [ 3.59989690661488, 46.090079400925809 ], [ 3.598803583369911, 46.091475903681697 ], [ 3.597817144832972, 46.092910138942628 ], [ 3.596940294763527, 46.094378172778903 ], [ 3.596175436546669, 46.095875978872805 ], [ 3.595524666605604, 46.097399449582205 ], [ 3.594989768655506, 46.098944407224174 ], [ 3.594572208814476, 46.100506615547104 ], [ 3.594273131585015, 46.102081791359815 ], [ 3.59409335671702, 46.103665616285618 ], [ 3.594033376960907, 46.105253748608867 ], [ 3.59409335671702, 46.10684183518142 ], [ 3.594273131585015, 46.108425523356381 ], [ 3.594572208814476, 46.110000472916369 ], [ 3.594989768655506, 46.111562367963579 ], [ 3.595524666605604, 46.11310692873915 ], [ 3.596175436546669, 46.114629923339614 ], [ 3.596940294763527, 46.116127179298388 ], [ 3.597817144832972, 46.117594595000753 ], [ 3.598803583369911, 46.1190281509014 ], [ 3.59989690661488, 46.120423920513829 ], [ 3.601094117844863, 46.121778081142054 ], [ 3.602391935587093, 46.123086924325321 ], [ 3.603786802613352, 46.124346865967709 ], [ 3.605274895690074, 46.125554456125165 ], [ 3.606852136057573, 46.126706388423521 ], [ 3.608514200609635, 46.12779950908223 ], [ 3.61025653374285, 46.128830825519337 ], [ 3.612074359843209, 46.129797514514678 ], [ 3.613962696375727, 46.130696929909242 ], [ 3.615916367541223, 46.131526609820149 ], [ 3.617930018462832, 46.132284283351758 ], [ 3.619998129863344, 46.132967876784974 ], [ 3.622115033193165, 46.133575519228181 ], [ 3.62427492616741, 46.134105547714654 ], [ 3.62647188866957, 46.134556511732839 ], [ 3.628699898978134, 46.134927177177296 ], [ 3.630952850271715, 46.135216529709943 ], [ 3.633224567367417, 46.135423777522377 ], [ 3.635508823646587, 46.135548353492062 ], [ 3.637799358121539, 46.135589916726623 ], [ 3.640089892596491, 46.135548353492062 ], [ 3.642374148875661, 46.135423777522377 ], [ 3.644645865971363, 46.135216529709943 ], [ 3.646898817264945, 46.134927177177296 ], [ 3.649126827573508, 46.134556511732839 ], [ 3.651323790075668, 46.134105547714654 ], [ 3.653483683049913, 46.133575519228181 ], [ 3.655600586379733, 46.132967876784974 ], [ 3.657668697780247, 46.132284283351758 ], [ 3.659682348701855, 46.131526609820149 ], [ 3.661636019867351, 46.130696929909242 ], [ 3.663524356399869, 46.129797514514678 ], [ 3.665342182500229, 46.128830825519337 ], [ 3.667084515633444, 46.12779950908223 ], [ 3.668746580185505, 46.126706388423521 ], [ 3.670323820553005, 46.125554456125165 ], [ 3.671811913629726, 46.124346865967709 ], [ 3.673206780655985, 46.123086924325321 ], [ 3.674504598398216, 46.121778081142054 ], [ 3.675701809628198, 46.120423920513829 ], [ 3.676795132873168, 46.1190281509014 ], [ 3.677781571410106, 46.117594595000753 ], [ 3.678658421479551, 46.116127179298388 ], [ 3.67942327969641, 46.114629923339614 ], [ 3.680074049637474, 46.11310692873915 ], [ 3.680608947587573, 46.111562367963579 ], [ 3.681026507428602, 46.110000472916369 ], [ 3.681325584658063, 46.108425523356381 ], [ 3.681505359526059, 46.10684183518142 ], [ 3.681565339282172, 46.105253748608867 ] ] ] } },
{ "type": "Feature", "properties": { "name": "Nizerolles", "feature_type": "mrr", "metric_roundness": 48.84, "metric_rectangularity": 73.91, "metric_mobile_fit": 72.85, "metric_aspect_ratio": 0.834, "metric_area_km2": 36.41 }, "geometry": { "type": "Polygon", "coordinates": [ [ [ 3.651910490552535, 46.139363659148316 ], [ 3.681549485203625, 46.08582872883143 ], [ 3.636685999526529, 46.073884763885751 ], [ 3.607047004875438, 46.127431289441077 ], [ 3.651910490552535, 46.139363659148316 ] ] ] } }
]
}
