{
"type": "FeatureCollection",
"name": "guttenbach",
"crs": { "type": "name", "properties": { "name": "urn:ogc:def:crs:OGC:1.3:CRS84" } },
"features": [
{ "type": "Feature", "properties": { "name": "Güttenbach", "feature_type": "entity", "metric_roundness": 54.3, "metric_rectangularity": 67.34, "metric_mobile_fit": 77.53, "metric_aspect_ratio": 0.787, "metric_area_km2": 34.38 }, "geometry": { "type": "Polygon", "coordinates": [ [ [ 16.27715061617306, 47.197298426666912 ], [ 16.277256782972415, 47.197264348912697 ], [ 16.277375288195998, 47.197136218771483 ], [ 16.277630799570804, 47.197153206895507 ], [ 16.277643287140616, 47.197144960507977 ], [ 16.277653959773762, 47.197134960187078 ], [ 16.277649560275442, 47.197110492483276 ], [ 16.277637834180961, 47.197099180132106 ], [ 16.277670886101422, 47.197064020064367 ], [ 16.277748593499151, 47.197050306410262 ], [ 16.277845985358617, 47.196986741078462 ], [ 16.277916931199535, 47.196977343976776 ], [ 16.278056783388404, 47.196881526592747 ], [ 16.278133345803841, 47.196878107023373 ], [ 16.278187131775184, 47.196857087683576 ], [ 16.278194230379651, 47.196766232125597 ], [ 16.278291105875962, 47.196738516363041 ], [ 16.278320842163261, 47.196731624873486 ], [ 16.278362061280809, 47.196684187872719 ], [ 16.278411861140402, 47.196686502240091 ], [ 16.278513876527015, 47.196651450072324 ], [ 16.278638735342295, 47.196580600922914 ], [ 16.278647343047574, 47.196557237654041 ], [ 16.278727062839277, 47.196498990629166 ], [ 16.278798087926777, 47.196491031578041 ], [ 16.278890240578626, 47.19651377076034 ], [ 16.278921483677316, 47.196519716131263 ], [ 16.278968628745446, 47.196517056548046 ], [ 16.278977748002195, 47.196481524378449 ], [ 16.27898043763026, 47.19646101534542 ], [ 16.279049822717838, 47.196428337035847 ], [ 16.279089174341451, 47.196321250302915 ], [ 16.27914399424046, 47.196306956890233 ], [ 16.279256888943578, 47.196268021051132 ], [ 16.279272677082044, 47.19626212025787 ], [ 16.279315895324018, 47.196245875703575 ], [ 16.279340195709725, 47.196214903244098 ], [ 16.279255303016615, 47.196113730356032 ], [ 16.279340489467859, 47.19600419774693 ], [ 16.279458012785025, 47.195981979824005 ], [ 16.279596045678019, 47.195896292136972 ], [ 16.279696676419938, 47.195717747937984 ], [ 16.279810937974116, 47.195693903189202 ], [ 16.279832224350553, 47.195689480867088 ], [ 16.279860492177651, 47.195644359141021 ], [ 16.279861191283949, 47.195618949254246 ], [ 16.279812351293089, 47.195569788950912 ], [ 16.279795854207933, 47.195494130233996 ], [ 16.279882836942797, 47.195495212157226 ], [ 16.279923165983412, 47.195434201224352 ], [ 16.279911922997922, 47.19540783961564 ], [ 16.279939988001296, 47.195375689138203 ], [ 16.279991039925829, 47.195317462264541 ], [ 16.279977941085914, 47.19526962865482 ], [ 16.280002425536438, 47.195249096126759 ], [ 16.280064991466645, 47.195241084902776 ], [ 16.280140964454219, 47.195174919975216 ], [ 16.280144287806113, 47.195161057606661 ], [ 16.280111866999686, 47.195143437605083 ], [ 16.280113160170078, 47.195123955110695 ], [ 16.280111147051311, 47.195109150270952 ], [ 16.280207618599292, 47.195060013251656 ], [ 16.280217097859392, 47.195057066800892 ], [ 16.28035996118075, 47.19506057469782 ], [ 16.280448483554022, 47.195037124949131 ], [ 16.280539000893334, 47.194971213786957 ], [ 16.280512165804712, 47.194940033156939 ], [ 16.28052869480269, 47.194933212590911 ], [ 16.280671012308407, 47.194919806331605 ], [ 16.280729442160425, 47.194899205823326 ], [ 16.28085832453586, 47.194831941673975 ], [ 16.280855492949136, 47.194757370186345 ], [ 16.280887368841718, 47.194667944237132 ], [ 16.280887924337648, 47.194623359116257 ], [ 16.280830790219138, 47.194532004092501 ], [ 16.280815946734776, 47.194516900914081 ], [ 16.280833975271975, 47.194499056389397 ], [ 16.280915929501504, 47.194341073466781 ], [ 16.280937613397832, 47.194305846299216 ], [ 16.280986688227181, 47.194304666611039 ], [ 16.281122898631054, 47.194328695111388 ], [ 16.281220555818688, 47.194236846615752 ], [ 16.281235387663056, 47.194163979073238 ], [ 16.281284681360756, 47.194147756586183 ], [ 16.281438713633005, 47.194200046918326 ], [ 16.281509576481387, 47.194201094479148 ], [ 16.281574427293279, 47.194153494843192 ], [ 16.281632856608802, 47.194075987338891 ], [ 16.281587541052218, 47.194035560685357 ], [ 16.281525479313132, 47.193924524283474 ], [ 16.281470024930925, 47.193922627793164 ], [ 16.281386111521027, 47.193848533746369 ], [ 16.281276594077291, 47.193829397475596 ], [ 16.281288651454059, 47.193713831790021 ], [ 16.281340586511369, 47.193678632109552 ], [ 16.281415905589427, 47.193648229799081 ], [ 16.281435750419728, 47.19351121266557 ], [ 16.281521593245074, 47.193484769916004 ], [ 16.281480137005619, 47.193440101429232 ], [ 16.281447524594764, 47.193435632903963 ], [ 16.281395670197828, 47.193458044597968 ], [ 16.281361987631389, 47.193446220301574 ], [ 16.281368087531987, 47.193415808358466 ], [ 16.281352154508657, 47.193364536584603 ], [ 16.281253656510568, 47.193249130453019 ], [ 16.281181299344851, 47.19322597111556 ], [ 16.281188113484891, 47.193051833764272 ], [ 16.281368057383531, 47.193019174356628 ], [ 16.281331720283813, 47.192912244411502 ], [ 16.281179005039295, 47.192902509788446 ], [ 16.281112103555589, 47.192863451909041 ], [ 16.281085164361489, 47.192816156614292 ], [ 16.281140210720082, 47.192791771572701 ], [ 16.281189335493181, 47.192727471065865 ], [ 16.281210100599715, 47.192587999022017 ], [ 16.281090369304902, 47.1925609331199 ], [ 16.281060402750857, 47.192532805047804 ], [ 16.28110513416782, 47.192406219184747 ], [ 16.281062881134147, 47.192356708926006 ], [ 16.280991066347905, 47.192329033368786 ], [ 16.280931931969103, 47.192263392146074 ], [ 16.280923532183884, 47.192186083375773 ], [ 16.280918442567444, 47.192139753425629 ], [ 16.280877659071272, 47.192031227616887 ], [ 16.280899374078693, 47.191918293429964 ], [ 16.280912303834967, 47.191851597976999 ], [ 16.280863064270982, 47.191790472934692 ], [ 16.280873518572339, 47.191764720574525 ], [ 16.281035710408528, 47.191714602545659 ], [ 16.281056943328526, 47.191635716643525 ], [ 16.281025680625916, 47.191508395889244 ], [ 16.280884736464536, 47.191392106907543 ], [ 16.280868419384195, 47.191319685166938 ], [ 16.280993788190148, 47.191258274209837 ], [ 16.28105566019282, 47.191228400075609 ], [ 16.281116566087519, 47.191166946180068 ], [ 16.281209536183894, 47.191142840313745 ], [ 16.28122492152762, 47.191068067528484 ], [ 16.281207724729775, 47.191053385484217 ], [ 16.281055440288323, 47.191058406565354 ], [ 16.280958326644242, 47.190998610386643 ], [ 16.280952429997257, 47.190980484446818 ], [ 16.280943515753087, 47.190851234783132 ], [ 16.280969358551186, 47.190760254027083 ], [ 16.280938007801986, 47.190711992366914 ], [ 16.281000333418522, 47.190678414788543 ], [ 16.280980576334478, 47.190634355245457 ], [ 16.280878689426501, 47.190602685573992 ], [ 16.280884884400603, 47.190573981985565 ], [ 16.280947188833341, 47.190513932647647 ], [ 16.280869865912202, 47.190460827686941 ], [ 16.280800613608413, 47.190360511965409 ], [ 16.280817291322318, 47.190233031262963 ], [ 16.280703172833086, 47.190121630650999 ], [ 16.280726252072412, 47.189988131609248 ], [ 16.28066132628139, 47.189896708074635 ], [ 16.280741086761349, 47.189856016420094 ], [ 16.28068167658434, 47.189735546726844 ], [ 16.280640048561565, 47.189694844305535 ], [ 16.280145464026621, 47.189252567636366 ], [ 16.280097862258444, 47.189109281736364 ], [ 16.280247569301416, 47.188638091353759 ], [ 16.280262976412718, 47.188623015938077 ], [ 16.280450245400885, 47.188435115869616 ], [ 16.280730252368439, 47.188240403909525 ], [ 16.281156680602969, 47.187997241370987 ], [ 16.281342616264663, 47.187946778261477 ], [ 16.281370572535373, 47.187938851396162 ], [ 16.281641139390285, 47.18786170607116 ], [ 16.281918301334848, 47.187846068147181 ], [ 16.282418917944334, 47.187789618323038 ], [ 16.282782122865061, 47.187779764395444 ], [ 16.283217604305008, 47.187768037630363 ], [ 16.284161271594243, 47.18772432714244 ], [ 16.284267192092074, 47.18771942224528 ], [ 16.284385627225483, 47.187713922911108 ], [ 16.284472530845761, 47.187723286929334 ], [ 16.284732988133314, 47.18775156524547 ], [ 16.284899232712391, 47.187769678271273 ], [ 16.28510615556538, 47.187764046348299 ], [ 16.285352508930629, 47.187757302166183 ], [ 16.285708068392019, 47.187747727070217 ], [ 16.285786143136068, 47.187745613439475 ], [ 16.286261910773309, 47.187558689213517 ], [ 16.286486674763875, 47.187470383716139 ], [ 16.28655551440222, 47.187440055628095 ], [ 16.286939136770265, 47.187270644441966 ], [ 16.287011710405572, 47.187238598484079 ], [ 16.287235526495181, 47.187235135818355 ], [ 16.287462908605345, 47.187231670273768 ], [ 16.287478608543424, 47.187231353153784 ], [ 16.287646183540243, 47.18727094775457 ], [ 16.287831688000065, 47.187314669233885 ], [ 16.288194405201352, 47.187400255427256 ], [ 16.288209128953451, 47.187403745306575 ], [ 16.288402932013355, 47.187449411625821 ], [ 16.288516299644417, 47.187476184536763 ], [ 16.288591482950615, 47.187507459637573 ], [ 16.288747407941077, 47.18757256675422 ], [ 16.288776751080803, 47.187584771534475 ], [ 16.288935242694937, 47.187650892321642 ], [ 16.28904559167896, 47.187696922063076 ], [ 16.289794906242197, 47.187720787044526 ], [ 16.289800998342287, 47.187721079140665 ], [ 16.291040298711405, 47.187779670041813 ], [ 16.291842978769257, 47.187853190028491 ], [ 16.292216931227298, 47.187872560794077 ], [ 16.292917418764777, 47.187908928951728 ], [ 16.293442851935151, 47.18790905268736 ], [ 16.29371402716728, 47.187909208968321 ], [ 16.294925551976277, 47.187841789777984 ], [ 16.295171959325714, 47.187847808994619 ], [ 16.295531644645436, 47.1878647485591 ], [ 16.295993026445469, 47.187916950008528 ], [ 16.296440470332591, 47.187944300231706 ], [ 16.296615549274165, 47.187954963071938 ], [ 16.296816604816129, 47.187967200913789 ], [ 16.297018255786014, 47.187905137703801 ], [ 16.29713576481959, 47.187868944638041 ], [ 16.297477713055287, 47.187656370523641 ], [ 16.297776646572373, 47.187470576924113 ], [ 16.29811172463382, 47.187274567336821 ], [ 16.298581727794407, 47.186999678663362 ], [ 16.298702046531723, 47.186957107765529 ], [ 16.299029609046322, 47.186841609103588 ], [ 16.299110817112386, 47.186812932142146 ], [ 16.299733527232576, 47.186651748338868 ], [ 16.299804484111689, 47.186633422621291 ], [ 16.30020878170598, 47.186607495591716 ], [ 16.300681387465566, 47.186577266483674 ], [ 16.300733894703505, 47.186573827651522 ], [ 16.300799697380754, 47.186569592216188 ], [ 16.301179639127042, 47.186476764067059 ], [ 16.301884827255638, 47.186067151908773 ], [ 16.302371083335501, 47.185790562618891 ], [ 16.302838768721134, 47.185609180437794 ], [ 16.302968488594097, 47.185571852393863 ], [ 16.303088331302913, 47.185537392961749 ], [ 16.303383768056037, 47.185482867585606 ], [ 16.30383111207879, 47.185400428556754 ], [ 16.303869282899672, 47.185398082461717 ], [ 16.304475937251798, 47.185360829669094 ], [ 16.304604267107553, 47.185352890002498 ], [ 16.304688292919685, 47.185332149253405 ], [ 16.304832639186404, 47.185296598519734 ], [ 16.30509058000915, 47.185232961984859 ], [ 16.305463160186058, 47.185138690387625 ], [ 16.305912317202189, 47.18502513085464 ], [ 16.305960276701384, 47.185025409971971 ], [ 16.306051793570248, 47.185004022475717 ], [ 16.306086760880582, 47.184991674407208 ], [ 16.306374569784762, 47.184968405066741 ], [ 16.306570215571007, 47.184955014338158 ], [ 16.306899673294659, 47.18493254740175 ], [ 16.307011638146935, 47.184924852122677 ], [ 16.307247940069526, 47.184906346869752 ], [ 16.307631638093444, 47.18487606856754 ], [ 16.308071361143181, 47.184841534477037 ], [ 16.308244672373807, 47.18482791375326 ], [ 16.30861192331162, 47.184732960437749 ], [ 16.308884953781895, 47.184613634424068 ], [ 16.309088495690983, 47.184524576816045 ], [ 16.309277736670641, 47.184441925364546 ], [ 16.30949340629725, 47.184321935429203 ], [ 16.309929622654828, 47.184079485676257 ], [ 16.310243443485593, 47.183931717096094 ], [ 16.311029166013991, 47.183793402280799 ], [ 16.311548966413365, 47.183712819854669 ], [ 16.311601988253528, 47.183704500125891 ], [ 16.311652454521386, 47.183690664507687 ], [ 16.311977306510741, 47.18360293157469 ], [ 16.312027374343899, 47.183673566888039 ], [ 16.312060781769787, 47.183664049064028 ], [ 16.312145913364049, 47.183639581971207 ], [ 16.312304264706341, 47.183569078589016 ], [ 16.31283386596888, 47.183336510714895 ], [ 16.312935181709683, 47.183315671603566 ], [ 16.313066789586937, 47.183288637330776 ], [ 16.313399112470119, 47.183207007811731 ], [ 16.313532896549781, 47.183174063225671 ], [ 16.314141160901467, 47.182964192722785 ], [ 16.314444292063662, 47.182859102318154 ], [ 16.314671813293941, 47.182781022298627 ], [ 16.314750845766472, 47.182753831443378 ], [ 16.315055658532646, 47.182648155069089 ], [ 16.315365958257608, 47.182541433755304 ], [ 16.315673548106993, 47.182435863041491 ], [ 16.31597567898125, 47.182331875115182 ], [ 16.316073092052157, 47.182298079012412 ], [ 16.316260341276688, 47.182213216529853 ], [ 16.316531277429771, 47.182090054359939 ], [ 16.31706862141721, 47.181847808531366 ], [ 16.317230369445308, 47.18177450769258 ], [ 16.31735390173764, 47.181744888521592 ], [ 16.317691016518928, 47.181666542165161 ], [ 16.317850611160683, 47.181627693504325 ], [ 16.317910411538875, 47.181613160211306 ], [ 16.318030529555656, 47.181583899886185 ], [ 16.318236513226765, 47.181533930219068 ], [ 16.318207264327594, 47.181483641989203 ], [ 16.318775906246842, 47.181370410506375 ], [ 16.319160653169934, 47.181293692537103 ], [ 16.320609140074129, 47.181005118837462 ], [ 16.3208145202662, 47.180935170494422 ], [ 16.321181512269046, 47.180773279599386 ], [ 16.321660479689754, 47.180561986927238 ], [ 16.321923995097496, 47.180445759362279 ], [ 16.322074498006501, 47.180379319625501 ], [ 16.323140651770252, 47.179908951562481 ], [ 16.323243929154362, 47.179876255757385 ], [ 16.323272351596525, 47.179867405657554 ], [ 16.323423511720424, 47.179819675927945 ], [ 16.323798834982703, 47.179709692884281 ], [ 16.324535752650991, 47.179433806058057 ], [ 16.324741281411971, 47.179336292977801 ], [ 16.324885987037472, 47.179230472309754 ], [ 16.324927662511509, 47.179121955158081 ], [ 16.324937258524454, 47.179013650322887 ], [ 16.324929052772234, 47.178854397977531 ], [ 16.324896332914086, 47.178616550845355 ], [ 16.324861406391044, 47.178426124803138 ], [ 16.32485008049656, 47.17836357160099 ], [ 16.32483942262569, 47.178284792934917 ], [ 16.324820700468511, 47.178147427371485 ], [ 16.324806913275836, 47.178067020064766 ], [ 16.324798525371065, 47.17801906685709 ], [ 16.324779653753115, 47.177909438761098 ], [ 16.324733981013839, 47.177774221785583 ], [ 16.324659957835809, 47.17769818798007 ], [ 16.324683871885185, 47.17765163743455 ], [ 16.324677024508333, 47.177644973943508 ], [ 16.324250981092597, 47.177319669190382 ], [ 16.323621685855972, 47.176827986099809 ], [ 16.323543908550466, 47.176767267636713 ], [ 16.323498175469762, 47.176731460347163 ], [ 16.323123782292903, 47.176438922247861 ], [ 16.323047796469719, 47.176379507101871 ], [ 16.323264993811076, 47.175915841632175 ], [ 16.32320954749478, 47.175759450315162 ], [ 16.323314389891706, 47.175579221178019 ], [ 16.323504524037787, 47.174786074477822 ], [ 16.323524514164827, 47.174534417034408 ], [ 16.323774645089763, 47.17416776325345 ], [ 16.323839710153365, 47.17408996751076 ], [ 16.323907381482936, 47.174009221876105 ], [ 16.323926382084242, 47.173985581605052 ], [ 16.32408500367082, 47.173787371179181 ], [ 16.324720233708323, 47.172993877083194 ], [ 16.324687700317714, 47.17297897397637 ], [ 16.324446030832391, 47.172868714939284 ], [ 16.32428055268311, 47.172760776414982 ], [ 16.324040323225606, 47.172556742956345 ], [ 16.323847818456539, 47.172393416239892 ], [ 16.32383021469704, 47.172158863755314 ], [ 16.323813037275261, 47.171927181479276 ], [ 16.323783659711005, 47.171778750089388 ], [ 16.323757950013881, 47.171648501301519 ], [ 16.323646611005699, 47.1712411847355 ], [ 16.323670227821346, 47.170810604571969 ], [ 16.323679941903841, 47.170634223454606 ], [ 16.32366657810929, 47.170610352562193 ], [ 16.323543337579657, 47.170389739508956 ], [ 16.323370472934684, 47.170080655545533 ], [ 16.323146210882449, 47.169679725375005 ], [ 16.32313003809745, 47.16965286668934 ], [ 16.322910426677964, 47.169289812577865 ], [ 16.322816059200392, 47.169133812739567 ], [ 16.322338078788167, 47.168343078504904 ], [ 16.322001468138815, 47.167925736075169 ], [ 16.322089734011985, 47.167901178476342 ], [ 16.321991006720545, 47.16777779835931 ], [ 16.321701937034948, 47.167416655383221 ], [ 16.321474281246704, 47.167200851762971 ], [ 16.321299774287468, 47.167035428291754 ], [ 16.32118456017432, 47.166891229835265 ], [ 16.321124035109719, 47.166815380271707 ], [ 16.321105420238123, 47.16679200709072 ], [ 16.321040554478639, 47.166693040063834 ], [ 16.320917892323703, 47.166505725695075 ], [ 16.320816518985605, 47.166419602237575 ], [ 16.320578127627552, 47.16631294173019 ], [ 16.320024310291465, 47.166117217562693 ], [ 16.319831770459981, 47.165910484713201 ], [ 16.319662490441225, 47.165750954804139 ], [ 16.319635282372715, 47.165675851495301 ], [ 16.319604459108945, 47.165597511375971 ], [ 16.319524574825067, 47.165370264850985 ], [ 16.319512770973894, 47.16533653785708 ], [ 16.319429317429009, 47.165146663034861 ], [ 16.319399944554444, 47.165101060787862 ], [ 16.319200323909779, 47.164792042851339 ], [ 16.319198442812063, 47.164789120735151 ], [ 16.319124096512471, 47.164674103447183 ], [ 16.31904265718849, 47.164548016639955 ], [ 16.318945692715126, 47.164415853729061 ], [ 16.318740747593708, 47.16413641905099 ], [ 16.318699993071007, 47.164080940130155 ], [ 16.318643952115565, 47.16399785837816 ], [ 16.318571909861745, 47.163890884314696 ], [ 16.318517309233574, 47.163809925797068 ], [ 16.318491214572397, 47.163721736731475 ], [ 16.318314916915241, 47.163125946836253 ], [ 16.318180564463205, 47.162672316779165 ], [ 16.318120387727522, 47.162468954706128 ], [ 16.317783923843944, 47.161806948711998 ], [ 16.317633798960209, 47.161511398259755 ], [ 16.317512864747215, 47.161316831992529 ], [ 16.317426250944944, 47.161227617717984 ], [ 16.31735056297461, 47.16114955258201 ], [ 16.31698062423699, 47.160842113821651 ], [ 16.316695588577897, 47.160605204530533 ], [ 16.316590969290566, 47.160503315113729 ], [ 16.316421686232061, 47.160338558580577 ], [ 16.316385129211763, 47.160294224440129 ], [ 16.316226709412451, 47.160101989812873 ], [ 16.316217969912973, 47.160085110482747 ], [ 16.316154948428849, 47.159962321221293 ], [ 16.316085886005236, 47.159741632597232 ], [ 16.316070167316315, 47.159560966508174 ], [ 16.316052964510927, 47.159363321038207 ], [ 16.316038853046269, 47.159117421190039 ], [ 16.31601350616063, 47.158679032103315 ], [ 16.316007161954456, 47.15856871467674 ], [ 16.315961783658352, 47.158276270980558 ], [ 16.315930875558752, 47.158175151244521 ], [ 16.315920692827198, 47.15814201179839 ], [ 16.315828516678224, 47.157841339499335 ], [ 16.315758652867192, 47.157613378206449 ], [ 16.315747000519575, 47.157575234801328 ], [ 16.315741984091524, 47.157542410219683 ], [ 16.315728657415626, 47.157458118252862 ], [ 16.315717788354558, 47.157389339464743 ], [ 16.315715305469855, 47.157373376728543 ], [ 16.31572788619647, 47.157277960992488 ], [ 16.315736190509153, 47.157214442713844 ], [ 16.315760097208944, 47.15698960757549 ], [ 16.315796378093953, 47.156646941193891 ], [ 16.315814588841683, 47.15644989866729 ], [ 16.315822367343991, 47.156365323917363 ], [ 16.31584635595582, 47.156120857050468 ], [ 16.315878137497204, 47.155796767433998 ], [ 16.31588879719326, 47.155688345641316 ], [ 16.315894134709964, 47.155633099040067 ], [ 16.316023561265663, 47.155230994404896 ], [ 16.316053551181355, 47.155048590421771 ], [ 16.316048936996907, 47.154654859999354 ], [ 16.315960529272875, 47.154069370830427 ], [ 16.315993057338257, 47.153835935576488 ], [ 16.315991438222529, 47.153661833397734 ], [ 16.315967632861739, 47.15358835112432 ], [ 16.3158260589843, 47.15353551295771 ], [ 16.315464076157127, 47.153394083003519 ], [ 16.315356776360346, 47.153352142131169 ], [ 16.315196863593574, 47.153290058894754 ], [ 16.315108223593604, 47.153258344215153 ], [ 16.314924886231172, 47.153192822219971 ], [ 16.314692811930399, 47.15313379891127 ], [ 16.314236287694918, 47.153029237900718 ], [ 16.313857209787262, 47.15292165688674 ], [ 16.313550073006617, 47.152807058751826 ], [ 16.313408625896511, 47.152749352020507 ], [ 16.313305274474011, 47.152695420166644 ], [ 16.31312400826193, 47.152600937157629 ], [ 16.313094669380458, 47.152583876507968 ], [ 16.312946733095604, 47.152499956313925 ], [ 16.312896287354707, 47.152471382243299 ], [ 16.312841614210765, 47.152440397579412 ], [ 16.312765955903789, 47.152397716217564 ], [ 16.312724508594506, 47.152367195726079 ], [ 16.312509578384692, 47.152209211710925 ], [ 16.311807024434149, 47.151618631674786 ], [ 16.311399649160332, 47.151298560140347 ], [ 16.311339161408664, 47.151250978828649 ], [ 16.310681464490507, 47.150746471111852 ], [ 16.310499120282735, 47.150620857348549 ], [ 16.310322852111156, 47.1505375849462 ], [ 16.310131421462177, 47.150461642154703 ], [ 16.309970153713564, 47.150405710349169 ], [ 16.309620422263908, 47.150326612652115 ], [ 16.309246074283649, 47.150258062257798 ], [ 16.309149253491338, 47.150240333685474 ], [ 16.309059513943293, 47.150224130740426 ], [ 16.309040982094835, 47.150220833373595 ], [ 16.308883488448586, 47.150185061191898 ], [ 16.308790840444424, 47.150164071722038 ], [ 16.308782167622923, 47.150162407514159 ], [ 16.308608982964454, 47.150091658046691 ], [ 16.308470136001155, 47.15000011125219 ], [ 16.30836194849363, 47.149902180295285 ], [ 16.30814444372897, 47.149686177901671 ], [ 16.308134237001653, 47.149675999609556 ], [ 16.308104594946737, 47.149646429643553 ], [ 16.30805412394734, 47.149596153758978 ], [ 16.308042381680863, 47.149584484850372 ], [ 16.307860293376368, 47.14940447421418 ], [ 16.307820191526432, 47.149364912566874 ], [ 16.307539661886928, 47.14907005725555 ], [ 16.307243179902574, 47.148831895229158 ], [ 16.307173543835408, 47.148785811491386 ], [ 16.306789311032503, 47.148531482039964 ], [ 16.30659745098799, 47.148398277261251 ], [ 16.306579343506403, 47.148383713009359 ], [ 16.306537585844303, 47.148403982993443 ], [ 16.306511888417447, 47.148416449905902 ], [ 16.306442590302364, 47.148421051330686 ], [ 16.306326485113864, 47.148428856224292 ], [ 16.305848524673539, 47.148442239439461 ], [ 16.305716747405846, 47.148445950811897 ], [ 16.305594737892676, 47.148449677101972 ], [ 16.305291386504518, 47.148514685390715 ], [ 16.3052461285899, 47.148524331123603 ], [ 16.305156403467389, 47.148543601889983 ], [ 16.304879150422302, 47.148645655795889 ], [ 16.304864672030511, 47.148651076192152 ], [ 16.304707680942766, 47.148708840269769 ], [ 16.304598413533974, 47.148749150587982 ], [ 16.304564792759379, 47.148761553741686 ], [ 16.304368888653038, 47.148864454278204 ], [ 16.304192603691067, 47.148957117731413 ], [ 16.303935739047542, 47.149142737481412 ], [ 16.303803313330839, 47.149238487695328 ], [ 16.30346346228978, 47.149502448463018 ], [ 16.303285472387376, 47.149701315837127 ], [ 16.303248957428494, 47.149742157700267 ], [ 16.303145497232695, 47.149857861263015 ], [ 16.302779036475624, 47.150308903414668 ], [ 16.302732858879146, 47.150365754711594 ], [ 16.302711136122003, 47.150402068516662 ], [ 16.302674086152233, 47.150463994228211 ], [ 16.302429909417665, 47.15087150578016 ], [ 16.302408434725425, 47.150907542915583 ], [ 16.302374786819914, 47.150950110537067 ], [ 16.302363204418182, 47.150948341646291 ], [ 16.302113501695217, 47.150908752222648 ], [ 16.301578022258958, 47.150824119369027 ], [ 16.300027513337454, 47.150578833148479 ], [ 16.299503237343878, 47.150705950061813 ], [ 16.29889261813091, 47.150853952871053 ], [ 16.298729573879999, 47.150893407244908 ], [ 16.298706000116987, 47.150899063766907 ], [ 16.298409222124096, 47.150912107174278 ], [ 16.298328215565689, 47.150891526376547 ], [ 16.298076752047972, 47.150827482365727 ], [ 16.29785447911949, 47.150770871510986 ], [ 16.297844722366321, 47.150804081330094 ], [ 16.297750656309702, 47.151125643285539 ], [ 16.297701145391137, 47.151295222914598 ], [ 16.297633328435516, 47.151526868592939 ], [ 16.297401579434347, 47.151444841322409 ], [ 16.29719758062048, 47.151372806174024 ], [ 16.297021505887386, 47.151295001253096 ], [ 16.296753945842664, 47.151176807396588 ], [ 16.296483006506637, 47.151057170178937 ], [ 16.296465683542511, 47.151049517251671 ], [ 16.296354574422669, 47.151000454717945 ], [ 16.296236699537804, 47.150948416685743 ], [ 16.296170114380775, 47.150918994968393 ], [ 16.295810536489597, 47.150760243583939 ], [ 16.2953357889619, 47.150550552359427 ], [ 16.295290313290746, 47.150530395527007 ], [ 16.295157704237994, 47.150479190039363 ], [ 16.295130721274674, 47.150468726811653 ], [ 16.294796572034191, 47.150339745213081 ], [ 16.294995774310433, 47.1498728228243 ], [ 16.294411204343014, 47.149931971864341 ], [ 16.293728022564171, 47.150056982616334 ], [ 16.293669244080142, 47.150072738029252 ], [ 16.293007265778137, 47.150251308620319 ], [ 16.292818198591373, 47.150302236211935 ], [ 16.292700347359826, 47.150361576893211 ], [ 16.292284606227756, 47.150477824633221 ], [ 16.291943386610736, 47.150493897334826 ], [ 16.291640474948267, 47.150508163056486 ], [ 16.291348408635752, 47.150442458375686 ], [ 16.291123439455017, 47.150391757451573 ], [ 16.291115683029858, 47.150300115480725 ], [ 16.291110642644728, 47.150238207056667 ], [ 16.291106411772269, 47.150188433357371 ], [ 16.290846577508496, 47.150158627324295 ], [ 16.290210014669672, 47.150085662291715 ], [ 16.290116565513497, 47.14967416379347 ], [ 16.290105193525118, 47.149624125363083 ], [ 16.289497221561412, 47.149772458905154 ], [ 16.289406716538487, 47.149794438590639 ], [ 16.289159082722716, 47.149857866182238 ], [ 16.288641683635685, 47.149990246636285 ], [ 16.288510329353624, 47.150058397452788 ], [ 16.288415021845527, 47.150107873939184 ], [ 16.288243977771302, 47.150164899051198 ], [ 16.288225584854363, 47.150168798128256 ], [ 16.287950715071521, 47.150226717085374 ], [ 16.287830239580359, 47.150241459618265 ], [ 16.287474576726979, 47.150284906565822 ], [ 16.287359191720913, 47.150289161597065 ], [ 16.287247755628808, 47.150293223993401 ], [ 16.287132243801508, 47.1502975721273 ], [ 16.287009609837472, 47.150302014907275 ], [ 16.286891720590024, 47.150306334443293 ], [ 16.286801625720287, 47.150309662572305 ], [ 16.286711921221503, 47.150312890458906 ], [ 16.286623407908891, 47.150316177412087 ], [ 16.286446381250727, 47.150322751112078 ], [ 16.286344039103568, 47.150326576694724 ], [ 16.286253939153244, 47.150329814478084 ], [ 16.286134149999235, 47.150340305399169 ], [ 16.285965365359065, 47.15035503849294 ], [ 16.285796722445635, 47.150369947742966 ], [ 16.285627937617313, 47.15038468033665 ], [ 16.285340944809946, 47.150409861749601 ], [ 16.285081534268254, 47.150432616391981 ], [ 16.284790860595059, 47.150458071938857 ], [ 16.284589254492893, 47.150523357370865 ], [ 16.284065765693672, 47.150586992056176 ], [ 16.283616249373278, 47.150620884020874 ], [ 16.283030925110108, 47.150728436416379 ], [ 16.282439719036379, 47.150792017410154 ], [ 16.282387629783628, 47.150797598897029 ], [ 16.282157498993111, 47.150822379547058 ], [ 16.281633215135034, 47.150890795733822 ], [ 16.281037182601288, 47.150943599256422 ], [ 16.280696643443171, 47.150976728496168 ], [ 16.28014974445874, 47.151056258253696 ], [ 16.279984109088147, 47.151070720770434 ], [ 16.279544092134735, 47.151109392949117 ], [ 16.279468561734511, 47.151115939956462 ], [ 16.279410712619299, 47.151122389475809 ], [ 16.279049579933368, 47.15116261978649 ], [ 16.278921694913812, 47.151188979866873 ], [ 16.278884465232299, 47.151191203826478 ], [ 16.278296961571343, 47.151226574115853 ], [ 16.277941256044151, 47.151248111798054 ], [ 16.277898632427029, 47.151250655047136 ], [ 16.277846934514194, 47.151253793174348 ], [ 16.277768003720759, 47.151258536117965 ], [ 16.277745912959158, 47.151257666850796 ], [ 16.277686787927987, 47.151255414407842 ], [ 16.277656617316925, 47.151254033777356 ], [ 16.276111280449207, 47.150745728306532 ], [ 16.276102138239807, 47.150742723139231 ], [ 16.275563003332039, 47.1505652303292 ], [ 16.275100955199587, 47.150492352579711 ], [ 16.275046358218127, 47.150483678834377 ], [ 16.274653859665477, 47.150386851609554 ], [ 16.274614720324816, 47.150376067447496 ], [ 16.273999039904698, 47.15020567769097 ], [ 16.273827325940406, 47.150158159401052 ], [ 16.273661110845463, 47.150112209615841 ], [ 16.273488059541204, 47.150064365206866 ], [ 16.273075194705697, 47.149950050365625 ], [ 16.273038736877588, 47.149940006802986 ], [ 16.27242587923778, 47.149770346276398 ], [ 16.271744956696541, 47.149575156945815 ], [ 16.271356681361755, 47.149463802975518 ], [ 16.27080287368225, 47.149304405312463 ], [ 16.270788879194878, 47.149292430731677 ], [ 16.270777964455721, 47.149326478061788 ], [ 16.270707071744724, 47.149547559196662 ], [ 16.270677237287096, 47.149616490692985 ], [ 16.270546057666131, 47.149919084456911 ], [ 16.270529898429658, 47.149956148417118 ], [ 16.270516409337759, 47.150027089218675 ], [ 16.270492003186515, 47.150155848392657 ], [ 16.270453481366552, 47.150358535890611 ], [ 16.270447144515646, 47.150413264699097 ], [ 16.270398488645125, 47.150833124219055 ], [ 16.270397869865647, 47.151033843238757 ], [ 16.270397078625862, 47.151267161817053 ], [ 16.270396931482114, 47.151283553211165 ], [ 16.270396884639872, 47.151306515064682 ], [ 16.270396019646057, 47.151586116997393 ], [ 16.270389403817259, 47.151619152930941 ], [ 16.270382569239988, 47.151653004883478 ], [ 16.27037761857288, 47.151677984137507 ], [ 16.270367580436805, 47.151727856132311 ], [ 16.270357072696193, 47.151781161827948 ], [ 16.270348160332418, 47.151825152060638 ], [ 16.270339287833526, 47.151869861597497 ], [ 16.270333787778348, 47.151896835941074 ], [ 16.270312076033349, 47.152005176076649 ], [ 16.270297295804514, 47.152079031468908 ], [ 16.270289463288144, 47.152128216253814 ], [ 16.27028173265187, 47.152176858158711 ], [ 16.270263788764861, 47.152288882819093 ], [ 16.270255074023421, 47.152343582906305 ], [ 16.270246354279145, 47.152398193079478 ], [ 16.270238148979811, 47.152450178768689 ], [ 16.27023624287191, 47.152461032953191 ], [ 16.270231352465022, 47.152491863353511 ], [ 16.270226355171751, 47.152523146719687 ], [ 16.270217946041338, 47.152576218165478 ], [ 16.270194637747359, 47.15268910153663 ], [ 16.270171232441893, 47.152802617694412 ], [ 16.270148468329108, 47.152913416050367 ], [ 16.270116294039692, 47.153068757692019 ], [ 16.270104662119614, 47.153125603975063 ], [ 16.270092796469601, 47.153182996536138 ], [ 16.270087800661098, 47.153207166556832 ], [ 16.270061715613998, 47.153334258065506 ], [ 16.270035682495493, 47.153459907556829 ], [ 16.270018321293833, 47.153544364347852 ], [ 16.270004804436763, 47.153562451260768 ], [ 16.269968928536915, 47.153610558602864 ], [ 16.269950863739407, 47.15363470558291 ], [ 16.269933042603061, 47.153658486107226 ], [ 16.269914845965133, 47.153682636481648 ], [ 16.269894573062409, 47.153709811788332 ], [ 16.269874548801617, 47.153736710551762 ], [ 16.269854149033911, 47.153763979164339 ], [ 16.269834236603032, 47.153790514868021 ], [ 16.269788036141716, 47.153852394725185 ], [ 16.269741216403968, 47.153915010868083 ], [ 16.269580848825843, 47.154129484751586 ], [ 16.269549520157092, 47.154171531901646 ], [ 16.269516194889498, 47.154218042581469 ], [ 16.269483006356356, 47.154264639764925 ], [ 16.269438792179646, 47.154326648310203 ], [ 16.269416740989964, 47.154357471050211 ], [ 16.269394826567755, 47.154388380299508 ], [ 16.269372775326826, 47.154419203030919 ], [ 16.269355632649816, 47.154443326118681 ], [ 16.269339459715429, 47.154465893484549 ], [ 16.269323164924455, 47.154488644073822 ], [ 16.269307001929327, 47.154511391261309 ], [ 16.269290585267385, 47.154534325071602 ], [ 16.269278341158287, 47.154551568684617 ], [ 16.269234482066349, 47.15461284764595 ], [ 16.269203993531303, 47.154655773435046 ], [ 16.269168352622927, 47.154705765298317 ], [ 16.269142128522471, 47.154742278175164 ], [ 16.269106126947914, 47.15479290960851 ], [ 16.269101543962279, 47.154798340255049 ], [ 16.269061838912993, 47.154846455970684 ], [ 16.269042288481479, 47.154870010803059 ], [ 16.269016073701653, 47.154901931280996 ], [ 16.268989722096379, 47.154933765238724 ], [ 16.268926512449362, 47.155010309893356 ], [ 16.268912905154849, 47.155026778237932 ], [ 16.268864784700202, 47.155085015462213 ], [ 16.268814436031523, 47.155145921327318 ], [ 16.268802072042394, 47.155161006972321 ], [ 16.268790068602311, 47.155175453027326 ], [ 16.268750035044299, 47.15522717875514 ], [ 16.268726513220184, 47.155257679093573 ], [ 16.268708656111237, 47.155280830031472 ], [ 16.268699539798181, 47.155292590423798 ], [ 16.268554332318274, 47.155480649694518 ], [ 16.268538322706011, 47.155501411884309 ], [ 16.268520709128701, 47.155524196342547 ], [ 16.268514298299685, 47.155532375338389 ], [ 16.268503704776695, 47.155546064673764 ], [ 16.268486842187503, 47.155568109430256 ], [ 16.26847010143258, 47.155589970959419 ], [ 16.268453472548043, 47.155611469434902 ], [ 16.268436599952977, 47.155633334357503 ], [ 16.268419976023303, 47.155654922741213 ], [ 16.268403230231353, 47.155676694347228 ], [ 16.26838722548268, 47.155697546428691 ], [ 16.268337114815893, 47.155762767913103 ], [ 16.268323937457591, 47.155779855383869 ], [ 16.268321957978152, 47.15578224749936 ], [ 16.268268146826816, 47.155852156474189 ], [ 16.268231578843473, 47.155899740773513 ], [ 16.268170006201949, 47.155979664324448 ], [ 16.268096006899384, 47.156075935591872 ], [ 16.268046377939161, 47.156140334135827 ], [ 16.267951809795694, 47.156263247594559 ], [ 16.267902551021997, 47.156327186315416 ], [ 16.267881124613837, 47.156355021231441 ], [ 16.26782711379499, 47.156430877857623 ], [ 16.267799796224367, 47.156469129351407 ], [ 16.267753131218523, 47.156534621888433 ], [ 16.267734880480543, 47.156560213918731 ], [ 16.267723352295118, 47.156585632668907 ], [ 16.267692512574566, 47.156653238435339 ], [ 16.267651658887132, 47.156742622239527 ], [ 16.267630807993307, 47.15678800037621 ], [ 16.267594318264258, 47.15686799739111 ], [ 16.267575519222063, 47.156914673253745 ], [ 16.267565507925525, 47.156938882346431 ], [ 16.267555765232675, 47.15696317455663 ], [ 16.267545763879369, 47.156987563473912 ], [ 16.267535787420279, 47.157012401956358 ], [ 16.267525679135602, 47.157037243835262 ], [ 16.267491887832826, 47.15712068288132 ], [ 16.267461110268808, 47.157196570790369 ], [ 16.267443673649552, 47.157239249681155 ], [ 16.267435089636457, 47.157260630684867 ], [ 16.267423248049845, 47.157289929260784 ], [ 16.26741436154159, 47.157324914336598 ], [ 16.267399534952176, 47.157383733435189 ], [ 16.267385869452273, 47.157437300195717 ], [ 16.267373949429434, 47.157484248934473 ], [ 16.267358675167543, 47.157544520227354 ], [ 16.267341354533233, 47.157613128079994 ], [ 16.267337990344096, 47.157626270808429 ], [ 16.267331261960813, 47.157652556264928 ], [ 16.267323581288505, 47.157683098216502 ], [ 16.267331167513756, 47.157762859623368 ], [ 16.267333243368562, 47.15778603685078 ], [ 16.267339418486173, 47.157852238346393 ], [ 16.26735496193696, 47.158016073592385 ], [ 16.267360825992036, 47.158079041607195 ], [ 16.267363765495542, 47.158110660484205 ], [ 16.267370328840123, 47.158179103012635 ], [ 16.26737375379118, 47.158217102330156 ], [ 16.267324789389985, 47.158477053631472 ], [ 16.26731665434211, 47.158520843397461 ], [ 16.267309921501575, 47.158556583327041 ], [ 16.267299218069045, 47.158613585348661 ], [ 16.267296192475261, 47.15863284217351 ], [ 16.267289733530003, 47.158673527328382 ], [ 16.267283396434429, 47.158714029259272 ], [ 16.267277044387921, 47.158754261450049 ], [ 16.267264233347255, 47.158835178793332 ], [ 16.267251156294616, 47.158918444069457 ], [ 16.267238422211811, 47.158998368966486 ], [ 16.267205075330285, 47.159209025138672 ], [ 16.267185442027035, 47.159333608342401 ], [ 16.267174342060272, 47.159416822652197 ], [ 16.2671553141762, 47.159559488595804 ], [ 16.267134150709484, 47.159718417042477 ], [ 16.267117268061188, 47.159845000295618 ], [ 16.267107853430165, 47.159915745428322 ], [ 16.267099219450458, 47.159981518158098 ], [ 16.267078684582827, 47.16013511793205 ], [ 16.26706886818824, 47.160186694561254 ], [ 16.267051667040974, 47.160276549050401 ], [ 16.267046234162311, 47.160304782004594 ], [ 16.267024084854146, 47.160419705495968 ], [ 16.267010981242283, 47.160488204587388 ], [ 16.26699841692627, 47.160590275273783 ], [ 16.266979334247988, 47.160746268712451 ], [ 16.266973022154449, 47.160796764573952 ], [ 16.266975649293883, 47.160806061200631 ], [ 16.267025557796991, 47.160984948322053 ], [ 16.267033292506902, 47.161012571855061 ], [ 16.267043360854434, 47.161048959326791 ], [ 16.267050992800019, 47.161103327843534 ], [ 16.267059580370319, 47.161165415308197 ], [ 16.26706337028677, 47.161193320569964 ], [ 16.267072970621189, 47.161261774886825 ], [ 16.267079584910483, 47.161309686634098 ], [ 16.267080455859929, 47.161315877057973 ], [ 16.267089897171594, 47.161386226343851 ], [ 16.267101513403933, 47.161472006731131 ], [ 16.267105766234224, 47.161503501725342 ], [ 16.267142973294316, 47.161801030679115 ], [ 16.267158868121296, 47.161928300002671 ], [ 16.267164763662436, 47.16197514976907 ], [ 16.267187061691509, 47.162036883936878 ], [ 16.267238666034146, 47.162179620642299 ], [ 16.267242579363835, 47.162190684952492 ], [ 16.26728108879021, 47.162306746617716 ], [ 16.267338327090535, 47.16247968210795 ], [ 16.267398715409914, 47.162661810680952 ], [ 16.267422666367182, 47.162734307203969 ], [ 16.267429157281381, 47.162753768990527 ], [ 16.26745013000011, 47.162813016109617 ], [ 16.267655189783426, 47.163390300363893 ], [ 16.267857100461555, 47.163751025521222 ], [ 16.267899738340457, 47.163827182257187 ], [ 16.26794926002724, 47.16391558729277 ], [ 16.267996741906884, 47.164000533264243 ], [ 16.26804187047075, 47.164081127838614 ], [ 16.268083789923772, 47.164156222535965 ], [ 16.268103707281046, 47.164191635749468 ], [ 16.268114980006072, 47.164247351046129 ], [ 16.268168982413457, 47.164514282976832 ], [ 16.268204072695664, 47.164687698972074 ], [ 16.268221693805764, 47.164774585092033 ], [ 16.26822223878947, 47.164777272291573 ], [ 16.268223530348664, 47.164783902076366 ], [ 16.268309263899468, 47.165363720877146 ], [ 16.268311468145619, 47.165453525541579 ], [ 16.268312334523674, 47.165490600334159 ], [ 16.268317960926439, 47.165716009423967 ], [ 16.268318696930518, 47.165741202090246 ], [ 16.2683154929246, 47.165912093521335 ], [ 16.268312572092807, 47.166078565614129 ], [ 16.268310767223479, 47.166177027561837 ], [ 16.268284311946022, 47.16680746011658 ], [ 16.268256114936804, 47.167091997876121 ], [ 16.268320925338443, 47.167396648733131 ], [ 16.2683307179812, 47.167442317514947 ], [ 16.26843482999271, 47.167931981153508 ], [ 16.268445546162269, 47.167982398326117 ], [ 16.268459466463227, 47.168033453239772 ], [ 16.268518387808317, 47.168248484390254 ], [ 16.268549371643456, 47.168362038499957 ], [ 16.268572392474304, 47.168446264236806 ], [ 16.268594604647603, 47.168527809568687 ], [ 16.268799856853736, 47.169272294637388 ], [ 16.269073537094886, 47.170264970728773 ], [ 16.26942189595545, 47.171192151571084 ], [ 16.269517841383941, 47.172234340115885 ], [ 16.269453987568241, 47.172656840772142 ], [ 16.269252648282361, 47.173478978727431 ], [ 16.26923000194768, 47.173677834059127 ], [ 16.269226921575399, 47.173769935936775 ], [ 16.269193441831149, 47.174778453982839 ], [ 16.269177727126021, 47.17525238755605 ], [ 16.268718727357303, 47.176872270616236 ], [ 16.268733627064989, 47.177648404525044 ], [ 16.268735352198799, 47.177736690774971 ], [ 16.268735812597207, 47.177764051525223 ], [ 16.268737145310013, 47.177833349132023 ], [ 16.268655541900017, 47.178267021240622 ], [ 16.268511445593489, 47.179031315384762 ], [ 16.268184578794891, 47.180324630438569 ], [ 16.268235229972376, 47.180633247961005 ], [ 16.268357595772752, 47.181377889096126 ], [ 16.268478289150327, 47.182025598590471 ], [ 16.268616056229892, 47.182764440170438 ], [ 16.268800791455302, 47.183754817587655 ], [ 16.268906879113572, 47.184531932613723 ], [ 16.268961463701768, 47.184925627777133 ], [ 16.268968652811449, 47.184976676087636 ], [ 16.268983778465032, 47.185087487466241 ], [ 16.269005251711736, 47.185243696228554 ], [ 16.269102721211262, 47.185858148243113 ], [ 16.269186288506916, 47.186869681187893 ], [ 16.269190324724949, 47.186892447690724 ], [ 16.269207672101395, 47.186988525029783 ], [ 16.269226401524193, 47.187092850560788 ], [ 16.26928294593128, 47.187262201834564 ], [ 16.269568563368555, 47.188115816449091 ], [ 16.269624609549314, 47.188283289567735 ], [ 16.270039416926164, 47.188325000593451 ], [ 16.270227231816939, 47.188343929465375 ], [ 16.270349031597497, 47.188356186259732 ], [ 16.271018066602043, 47.188423483541833 ], [ 16.271051005864393, 47.188426775981149 ], [ 16.271089593128387, 47.188422359263548 ], [ 16.271700455806418, 47.188350597932704 ], [ 16.272361709416238, 47.188272941051743 ], [ 16.272444834727132, 47.188285653188977 ], [ 16.272453893352999, 47.188287040211428 ], [ 16.272555421823927, 47.188300538020087 ], [ 16.272908289405855, 47.188347078345927 ], [ 16.273287728041854, 47.188434441020995 ], [ 16.273375230107575, 47.188454603029975 ], [ 16.273912047677666, 47.188383840410737 ], [ 16.274179638926629, 47.188319485828259 ], [ 16.274239205034245, 47.18830516209551 ], [ 16.274307761873704, 47.188288625293147 ], [ 16.274679708901296, 47.188181686750816 ], [ 16.274856515780865, 47.188130839822556 ], [ 16.275008427572796, 47.18809549238825 ], [ 16.275169212947656, 47.188058204789051 ], [ 16.275535653826218, 47.188004350101046 ], [ 16.275554780244928, 47.18800151500276 ], [ 16.275743172665308, 47.187973778270134 ], [ 16.275764399349704, 47.187970708801444 ], [ 16.275952786552875, 47.187942881809654 ], [ 16.275965758956197, 47.187941015990134 ], [ 16.27615978733682, 47.18791250267379 ], [ 16.276164637370417, 47.187911837125945 ], [ 16.276292109043105, 47.187893056725507 ], [ 16.27634307223915, 47.187883186088619 ], [ 16.276555154067101, 47.187842050019697 ], [ 16.27651242591838, 47.188090318677737 ], [ 16.276339888858466, 47.189092259058455 ], [ 16.276268414940919, 47.18950775739463 ], [ 16.276180648995133, 47.190017500021156 ], [ 16.276103682571215, 47.190464924781253 ], [ 16.276096281281252, 47.190507615674619 ], [ 16.275883004023814, 47.191763084136134 ], [ 16.275851340175464, 47.191949117816819 ], [ 16.275837712798907, 47.19202951688942 ], [ 16.275820397095352, 47.192110101267296 ], [ 16.275820070314897, 47.192161253400258 ], [ 16.275818261924549, 47.192437638120168 ], [ 16.275817893428428, 47.192502297585598 ], [ 16.275816167448724, 47.19259481500108 ], [ 16.275812569436454, 47.192772470181865 ], [ 16.275809173278649, 47.192951380729625 ], [ 16.275807059819474, 47.193058314821741 ], [ 16.275804951349883, 47.193165338825558 ], [ 16.275795009075736, 47.193680364028999 ], [ 16.275792096959041, 47.193832339590408 ], [ 16.275787692354015, 47.194064400766273 ], [ 16.275787501775781, 47.194079982902032 ], [ 16.275771416163689, 47.194363309365542 ], [ 16.275759339399663, 47.194578550800387 ], [ 16.275755561167536, 47.194643658483848 ], [ 16.275747996692104, 47.194662042276171 ], [ 16.275716746478743, 47.194739114693228 ], [ 16.275667571140037, 47.194859689970933 ], [ 16.275627601967138, 47.194958147331953 ], [ 16.275593891160099, 47.195040865836262 ], [ 16.275565635354582, 47.195110027238869 ], [ 16.275547033609808, 47.195155618518484 ], [ 16.275455920081441, 47.195379654121652 ], [ 16.275341002837646, 47.195517684238787 ], [ 16.275183246639465, 47.195659791789836 ], [ 16.275134052770131, 47.195704011929259 ], [ 16.274990887720893, 47.195832956504425 ], [ 16.274718250488927, 47.196094813539453 ], [ 16.274582361576265, 47.196226360982273 ], [ 16.274547757155148, 47.196259759364395 ], [ 16.274433671283997, 47.196370034164822 ], [ 16.274420509804944, 47.19638279967095 ], [ 16.274412867749032, 47.196390290320508 ], [ 16.274276282897503, 47.196509339537478 ], [ 16.274192105918988, 47.196582555240802 ], [ 16.274114742360329, 47.196650012427973 ], [ 16.274040399686083, 47.196714780377654 ], [ 16.273965802991214, 47.196779734913498 ], [ 16.273941609294241, 47.196800798808788 ], [ 16.273914521403785, 47.196824458562844 ], [ 16.273902675878958, 47.196834758914527 ], [ 16.273881045502343, 47.196854406012172 ], [ 16.273437776133566, 47.197257616761597 ], [ 16.27342092847497, 47.197272998428232 ], [ 16.273404583498571, 47.197287916912281 ], [ 16.273216080451057, 47.197459358055994 ], [ 16.273187757633725, 47.197484580191251 ], [ 16.273144202005838, 47.197523341440565 ], [ 16.272974269280169, 47.197674763950452 ], [ 16.272943803515695, 47.197701842140852 ], [ 16.273096859845424, 47.197867351194077 ], [ 16.273130019949381, 47.197903052445611 ], [ 16.273314124179144, 47.198101885861291 ], [ 16.273377504923118, 47.198170302682449 ], [ 16.273526189783929, 47.198330791658137 ], [ 16.273554433624884, 47.198361217174934 ], [ 16.273627663685922, 47.198440454810331 ], [ 16.273942515388377, 47.198412609924112 ], [ 16.273999840302078, 47.198398164384095 ], [ 16.274020032935884, 47.198393051085809 ], [ 16.274321242006703, 47.198317024838524 ], [ 16.274496342104843, 47.198272886529217 ], [ 16.274516793483357, 47.19826767641942 ], [ 16.274663489831269, 47.198230664033424 ], [ 16.274744005988449, 47.198210396985033 ], [ 16.274823476732305, 47.19819033695137 ], [ 16.274836371734242, 47.198187032660073 ], [ 16.274958539852499, 47.19814606101815 ], [ 16.27509238050359, 47.198101186191508 ], [ 16.275106900447131, 47.198096219163254 ], [ 16.275141384897278, 47.198079661522506 ], [ 16.275190279305249, 47.198056158755165 ], [ 16.27532744025515, 47.197990218204438 ], [ 16.275415062104997, 47.19794806714377 ], [ 16.275591322703367, 47.197860677131878 ], [ 16.275603534962976, 47.197854599090341 ], [ 16.27571422667943, 47.197799696391442 ], [ 16.275757040434215, 47.197778511403321 ], [ 16.275915682176144, 47.197699769674685 ], [ 16.276013648412288, 47.197651228125387 ], [ 16.276122110047606, 47.197610879318077 ], [ 16.276385754747832, 47.197512766997086 ], [ 16.276414622154032, 47.197502116716002 ], [ 16.276579122957003, 47.19744087083965 ], [ 16.276659629847781, 47.197410968163382 ], [ 16.276727575794084, 47.197385621896579 ], [ 16.276744322960688, 47.197380326985765 ], [ 16.276750681844732, 47.197378271829166 ], [ 16.276865565917706, 47.197405917943783 ], [ 16.277050233649188, 47.197381877818131 ], [ 16.27715061617306, 47.197298426666912 ] ] ] } },
{ "type": "Feature", "properties": { "name": "Güttenbach", "feature_type": "circle", "metric_roundness": 54.3, "metric_rectangularity": 67.34, "metric_mobile_fit": 77.53, "metric_aspect_ratio": 0.787, "metric_area_km2": 34.38 }, "geometry": { "type": "Polygon", "coordinates": [ [ [ 16.330369134932141, 47.173396387214012 ], [ 16.330313854996131, 47.171961310411248 ], [ 16.330148166706547, 47.170530128434486 ], [ 16.329872524203488, 47.169106764530007 ], [ 16.329487683003883, 47.167695120826941 ], [ 16.328994697930717, 47.166299067633176 ], [ 16.328394920221807, 47.164922432815118 ], [ 16.327689993826166, 47.163568991290695 ], [ 16.32688185089804, 47.162242454664373 ], [ 16.325972706501027, 47.160946461032921 ], [ 16.324965052536722, 47.159684564990101 ], [ 16.323861650914598, 47.158460227857802 ], [ 16.322665525981812, 47.157276808170899 ], [ 16.321379956233656, 47.156137552441983 ], [ 16.320008465327458, 47.155045586231758 ], [ 16.318554812424455, 47.154003905549907 ], [ 16.317022981886211, 47.153015368610305 ], [ 16.315417172353758, 47.152082687963535 ], [ 16.313741785239408, 47.151208423028663 ], [ 16.312001412662777, 47.150394973045167 ], [ 16.31020082486414, 47.14964457046446 ], [ 16.308344957129485, 47.1489592747999 ], [ 16.306438896263277, 47.148340966951977 ], [ 16.304487866645864, 47.147791344024988 ], [ 16.302497215913807, 47.147311914649478 ], [ 16.3004724003024, 47.14690399482356 ], [ 16.298418969690488, 47.146568704284881 ], [ 16.296342552388644, 47.146306963423385 ], [ 16.294248839712363, 47.146119490743381 ], [ 16.292143570382564, 47.14600680088224 ], [ 16.290032514796138, 47.145969203191207 ], [ 16.287921459209709, 47.14600680088224 ], [ 16.28581618987991, 47.146119490743381 ], [ 16.283722477203625, 47.146306963423385 ], [ 16.281646059901785, 47.146568704284881 ], [ 16.279592629289873, 47.14690399482356 ], [ 16.277567813678463, 47.147311914649478 ], [ 16.275577162946405, 47.147791344024988 ], [ 16.273626133328992, 47.148340966951977 ], [ 16.271720072462784, 47.1489592747999 ], [ 16.26986420472813, 47.14964457046446 ], [ 16.268063616929492, 47.150394973045167 ], [ 16.266323244352868, 47.151208423028663 ], [ 16.264647857238515, 47.152082687963535 ], [ 16.263042047706062, 47.153015368610305 ], [ 16.261510217167821, 47.154003905549907 ], [ 16.260056564264815, 47.155045586231758 ], [ 16.258685073358613, 47.156137552441983 ], [ 16.257399503610458, 47.157276808170899 ], [ 16.256203378677672, 47.158460227857802 ], [ 16.255099977055551, 47.159684564990101 ], [ 16.254092323091246, 47.160946461032921 ], [ 16.253183178694229, 47.162242454664373 ], [ 16.252375035766107, 47.163568991290695 ], [ 16.251670109370462, 47.164922432815118 ], [ 16.251070331661555, 47.166299067633176 ], [ 16.25057734658839, 47.167695120826941 ], [ 16.250192505388785, 47.169106764530007 ], [ 16.249916862885726, 47.170530128434486 ], [ 16.249751174596142, 47.171961310411248 ], [ 16.249695894660128, 47.173396387214012 ], [ 16.249751174596142, 47.174831425237862 ], [ 16.249916862885726, 47.176262491302744 ], [ 16.250192505388785, 47.177685663432328 ], [ 16.25057734658839, 47.17909704159861 ], [ 16.251070331661555, 47.180492758402984 ], [ 16.251670109370462, 47.181868989664594 ], [ 16.252375035766107, 47.183221964886968 ], [ 16.253183178694229, 47.184547977574546 ], [ 16.254092323091246, 47.185843395370931 ], [ 16.255099977055551, 47.187104669991342 ], [ 16.256203378677672, 47.188328346922304 ], [ 16.257399503610458, 47.189511074862274 ], [ 16.258685073358613, 47.190649614877572 ], [ 16.260056564264815, 47.191740849249001 ], [ 16.261510217167821, 47.192781789985062 ], [ 16.263042047706062, 47.193769586978881 ], [ 16.264647857238515, 47.194701535786876 ], [ 16.266323244352868, 47.195575085008144 ], [ 16.268063616929492, 47.196387843244757 ], [ 16.26986420472813, 47.197137585624162 ], [ 16.271720072462784, 47.197822259866363 ], [ 16.273626133328992, 47.198439991879276 ], [ 16.275577162946405, 47.198989090867556 ], [ 16.277567813678463, 47.199468053941075 ], [ 16.279592629289873, 47.199875570210608 ], [ 16.281646059901785, 47.200210524359939 ], [ 16.283722477203625, 47.200471999684687 ], [ 16.28581618987991, 47.200659280589818 ], [ 16.287921459209709, 47.200771854539099 ], [ 16.290032514796138, 47.200809413451218 ], [ 16.292143570382564, 47.200771854539099 ], [ 16.294248839712363, 47.200659280589818 ], [ 16.296342552388644, 47.200471999684687 ], [ 16.298418969690488, 47.200210524359939 ], [ 16.3004724003024, 47.199875570210608 ], [ 16.302497215913807, 47.199468053941075 ], [ 16.304487866645864, 47.198989090867556 ], [ 16.306438896263277, 47.198439991879276 ], [ 16.308344957129485, 47.197822259866363 ], [ 16.31020082486414, 47.197137585624162 ], [ 16.312001412662777, 47.196387843244757 ], [ 16.313741785239408, 47.195575085008144 ], [ 16.315417172353758, 47.194701535786876 ], [ 16.317022981886211, 47.193769586978881 ], [ 16.318554812424455, 47.192781789985062 ], [ 16.320008465327458, 47.191740849249001 ], [ 16.321379956233656, 47.190649614877572 ], [ 16.322665525981812, 47.189511074862274 ], [ 16.323861650914598, 47.188328346922304 ], [ 16.324965052536722, 47.187104669991342 ], [ 16.325972706501027, 47.185843395370931 ], [ 16.32688185089804, 47.184547977574546 ], [ 16.327689993826166, 47.183221964886968 ], [ 16.328394920221807, 47.181868989664594 ], [ 16.328994697930717, 47.180492758402984 ], [ 16.329487683003883, 47.17909704159861 ], [ 16.329872524203488, 47.177685663432328 ], [ 16.330148166706547, 47.176262491302744 ], [ 16.330313854996131, 47.174831425237862 ], [ 16.330369134932141, 47.173396387214012 ] ] ] } },
{ "type": "Feature", "properties": { "name": "Güttenbach", "feature_type": "mrr", "metric_roundness": 54.3, "metric_rectangularity": 67.34, "metric_mobile_fit": 77.53, "metric_aspect_ratio": 0.787, "metric_area_km2": 34.38 }, "geometry": { "type": "Polygon", "coordinates": [ [ [ 16.266267514784477, 47.149422124400211 ], [ 16.269316594572093, 47.198564001868498 ], [ 16.326205916418417, 47.19693364433045 ], [ 16.323156836630805, 47.14779025749084 ], [ 16.266267514784477, 47.149422124400211 ] ] ] } }
]
}
