{
"type": "FeatureCollection",
"name": "krensdorf",
"crs": { "type": "name", "properties": { "name": "urn:ogc:def:crs:OGC:1.3:CRS84" } },
"features": [
{ "type": "Feature", "properties": { "name": "Krensdorf", "feature_type": "entity", "metric_roundness": 65.06, "metric_rectangularity": 73.2, "metric_mobile_fit": 69.89, "metric_aspect_ratio": 0.864, "metric_area_km2": 17.22 }, "geometry": { "type": "Polygon", "coordinates": [ [ [ 16.429810076311618, 47.799721368383935 ], [ 16.429731775183235, 47.79971023633825 ], [ 16.429855463366046, 47.799271213147556 ], [ 16.429998854931284, 47.798851288863517 ], [ 16.430679178097765, 47.796857993826961 ], [ 16.430719320350477, 47.796727978555488 ], [ 16.430731914061163, 47.796667583811406 ], [ 16.430735871611741, 47.796648659214384 ], [ 16.430951782874732, 47.796099648284745 ], [ 16.431208775630878, 47.795445626916454 ], [ 16.431236609884841, 47.795450821279758 ], [ 16.43125911141308, 47.795397543323503 ], [ 16.431305897287743, 47.795287247847966 ], [ 16.431325710533308, 47.795224678039581 ], [ 16.431397317559885, 47.794998734872678 ], [ 16.431643439906345, 47.794488527209268 ], [ 16.431400259867711, 47.794461660475584 ], [ 16.43142590698756, 47.794353193739866 ], [ 16.431443106481652, 47.794280339612996 ], [ 16.431464780698072, 47.794188276812108 ], [ 16.431485611122163, 47.794100018345993 ], [ 16.431592380976312, 47.793488570924609 ], [ 16.431677009638243, 47.792941016331355 ], [ 16.431708301172058, 47.792614231947624 ], [ 16.431759124196024, 47.791764332899888 ], [ 16.431558956044764, 47.791766383488927 ], [ 16.431521291415276, 47.791392021351335 ], [ 16.43151713543034, 47.791351165102256 ], [ 16.431509084622146, 47.791271606529968 ], [ 16.431467717883958, 47.790859527273795 ], [ 16.431461196455693, 47.790794513979193 ], [ 16.431454993362141, 47.790741647463889 ], [ 16.431390792705741, 47.790099590760391 ], [ 16.431386535803693, 47.790057026459834 ], [ 16.431382460206745, 47.790015267640385 ], [ 16.431470174124598, 47.789966719018011 ], [ 16.431517045576992, 47.789961767155695 ], [ 16.431546303774159, 47.789952696835726 ], [ 16.431700393962807, 47.789955576701516 ], [ 16.431759283930489, 47.789973081588094 ], [ 16.431911163362223, 47.789988266004194 ], [ 16.432100911171144, 47.789932200970846 ], [ 16.432181228875248, 47.789921217122235 ], [ 16.432276816613236, 47.789919906981673 ], [ 16.432513689128832, 47.789915066966259 ], [ 16.432802609697887, 47.789855072797252 ], [ 16.432825309242549, 47.789850320386286 ], [ 16.432911193786701, 47.789825050056933 ], [ 16.433290371291271, 47.789754973359074 ], [ 16.433387726630219, 47.7897383980321 ], [ 16.433896556809923, 47.789745866804807 ], [ 16.434130541127473, 47.789746413500552 ], [ 16.434351329294078, 47.789751996923151 ], [ 16.434379219493735, 47.789701814536237 ], [ 16.434399840959436, 47.789664253241092 ], [ 16.434424454304555, 47.78961965145065 ], [ 16.434843716580019, 47.788875623751274 ], [ 16.435101206739937, 47.788418493808784 ], [ 16.435163149905559, 47.788282396938243 ], [ 16.435200259785557, 47.788218730250009 ], [ 16.435227561136447, 47.788172165037295 ], [ 16.435255460134361, 47.788124413209879 ], [ 16.435260065497893, 47.788116455768289 ], [ 16.435305425270375, 47.788038700814752 ], [ 16.435431875055823, 47.787987845583146 ], [ 16.435475463833036, 47.787970374856755 ], [ 16.435676956841487, 47.787889496566301 ], [ 16.435832118097082, 47.787827153087193 ], [ 16.43591863878402, 47.787792409065567 ], [ 16.435958700252822, 47.78777629368328 ], [ 16.435963466823292, 47.787667397219955 ], [ 16.435967003369665, 47.787519726705781 ], [ 16.43597467830833, 47.787403548731994 ], [ 16.435951267092292, 47.787134869974651 ], [ 16.435950467338191, 47.787125887525669 ], [ 16.435871332875138, 47.786834488494584 ], [ 16.435694822325576, 47.786356357548307 ], [ 16.435694329094069, 47.786314232179514 ], [ 16.435693526770173, 47.786266892821423 ], [ 16.435692629476556, 47.786204429324805 ], [ 16.435691264172149, 47.786120548943536 ], [ 16.435688061670376, 47.78591102238768 ], [ 16.435685857723389, 47.785765667356216 ], [ 16.43568063221759, 47.78541834421496 ], [ 16.435680519285462, 47.785355589466008 ], [ 16.435679279152041, 47.784861393973031 ], [ 16.435695912186702, 47.784522216051144 ], [ 16.435701960350887, 47.784401129618658 ], [ 16.435706982623767, 47.78430105010127 ], [ 16.435714382613678, 47.7841509344115 ], [ 16.43571950640575, 47.784048060915183 ], [ 16.43573274071229, 47.783780015910409 ], [ 16.435737656129572, 47.783680389449273 ], [ 16.435738575074275, 47.783662086602185 ], [ 16.435743944532376, 47.783554344318574 ], [ 16.435748853012161, 47.783477137976512 ], [ 16.435756537390418, 47.783300272730777 ], [ 16.435724404138671, 47.781306843269327 ], [ 16.435721504115104, 47.781122699584365 ], [ 16.435720866247163, 47.781089401971478 ], [ 16.435718786156169, 47.781081354387652 ], [ 16.435708412354188, 47.781041565950133 ], [ 16.435689414184633, 47.780968965081101 ], [ 16.435660570350237, 47.780858722504831 ], [ 16.435628985190167, 47.780738289182352 ], [ 16.435568380726739, 47.780506897657631 ], [ 16.435440069380999, 47.780016663483572 ], [ 16.435487026917528, 47.779805966051462 ], [ 16.435731222396576, 47.778710716477143 ], [ 16.435924347622763, 47.778532098369325 ], [ 16.436082475162671, 47.778445903187297 ], [ 16.436135029494938, 47.778417565752342 ], [ 16.43617126960228, 47.77839795138248 ], [ 16.434775764649832, 47.777622828145404 ], [ 16.434727744339124, 47.777596928860582 ], [ 16.434652934771549, 47.777556263874224 ], [ 16.434048866600623, 47.777228931877652 ], [ 16.433204807595502, 47.77677146440071 ], [ 16.432616611417178, 47.776364463073662 ], [ 16.432167566637663, 47.77605375017594 ], [ 16.432119514614037, 47.776006961458464 ], [ 16.432106905558364, 47.775994785090248 ], [ 16.432093299105027, 47.77598155507134 ], [ 16.432038729353994, 47.775928458773031 ], [ 16.432013506002047, 47.775904016120251 ], [ 16.432115935079274, 47.775853989874335 ], [ 16.432370641209147, 47.77572954585866 ], [ 16.432627810806817, 47.77560386444587 ], [ 16.43151983338613, 47.774825650478036 ], [ 16.430508387544233, 47.774197448816615 ], [ 16.429451807498843, 47.773618713317944 ], [ 16.429333644882487, 47.773553999175256 ], [ 16.429169095649332, 47.773463789758395 ], [ 16.429046177208818, 47.773390919487213 ], [ 16.428854167757578, 47.773410035661804 ], [ 16.428671583956579, 47.773428177915605 ], [ 16.428495113172158, 47.773445795462671 ], [ 16.427897703090061, 47.773505245315633 ], [ 16.427814977847465, 47.773513500321606 ], [ 16.427645937275777, 47.77353028667082 ], [ 16.427435469889886, 47.773551246870923 ], [ 16.427313568904914, 47.773563345016179 ], [ 16.427252090276593, 47.773569498264735 ], [ 16.427116511873276, 47.773582953995046 ], [ 16.427001918817233, 47.773594405334023 ], [ 16.4264087568436, 47.77365346316769 ], [ 16.426349652461727, 47.773613902043245 ], [ 16.424704514928095, 47.772512939551952 ], [ 16.423628245348503, 47.771874985203233 ], [ 16.423066174966095, 47.771541789988753 ], [ 16.423037376522288, 47.771524554539148 ], [ 16.422997926972521, 47.77155541580774 ], [ 16.42294607809335, 47.771595703642177 ], [ 16.422791064387741, 47.771716552696425 ], [ 16.422634055169574, 47.771803600155245 ], [ 16.422503821923119, 47.771875883123812 ], [ 16.42239828426732, 47.771934357885854 ], [ 16.422011326759645, 47.772149034204531 ], [ 16.421939448430994, 47.772184906437268 ], [ 16.421863291315621, 47.772222964257494 ], [ 16.42177403129558, 47.772267586066476 ], [ 16.421610299511595, 47.772349409901835 ], [ 16.421445921656755, 47.772431610967722 ], [ 16.42143995175125, 47.772434562239511 ], [ 16.421226266716378, 47.7725413150267 ], [ 16.421188771842594, 47.772560057927159 ], [ 16.421151015534953, 47.772578897862211 ], [ 16.421129088374443, 47.77258984018885 ], [ 16.421111366502178, 47.772595087335617 ], [ 16.420455287289567, 47.772787528943404 ], [ 16.420187851722893, 47.772850340331352 ], [ 16.419012559524017, 47.77300824489614 ], [ 16.416954409457009, 47.773196077132155 ], [ 16.416752741663295, 47.773214531206428 ], [ 16.416630857815825, 47.773220134723658 ], [ 16.414881091445178, 47.773301171807503 ], [ 16.413482050158088, 47.77344771713183 ], [ 16.412774394666513, 47.773583687942626 ], [ 16.412728963727165, 47.773592465723318 ], [ 16.412664934832108, 47.773596158225885 ], [ 16.412646866427536, 47.773661379329333 ], [ 16.412506443942036, 47.7741670107633 ], [ 16.412507307735407, 47.774188507009463 ], [ 16.411891588317147, 47.774282217271207 ], [ 16.411326545615474, 47.774311002573754 ], [ 16.41101740690365, 47.774298643437213 ], [ 16.410885667975087, 47.774293429300613 ], [ 16.409392403247764, 47.774137299306368 ], [ 16.409250615265449, 47.774122447378581 ], [ 16.409252280572332, 47.774148514196149 ], [ 16.40923853843714, 47.774196511723829 ], [ 16.409207157734944, 47.774305756492261 ], [ 16.409194976175701, 47.774348490084186 ], [ 16.409182543723318, 47.774391500489706 ], [ 16.409174349599819, 47.774420261616307 ], [ 16.409169727016515, 47.774434791269684 ], [ 16.409143519137082, 47.774518416877321 ], [ 16.409130580871487, 47.774559640000938 ], [ 16.409121239269368, 47.774589332148658 ], [ 16.409107846684048, 47.774622824053722 ], [ 16.409102253560903, 47.774636749344396 ], [ 16.409079667139711, 47.774693356604004 ], [ 16.40905626335142, 47.774751966536449 ], [ 16.409027608327161, 47.774823502191076 ], [ 16.40899783612165, 47.774889665330363 ], [ 16.408981059183933, 47.774926939168665 ], [ 16.408940636514483, 47.775016436601071 ], [ 16.408924196196349, 47.775052620973803 ], [ 16.408883105172688, 47.77513529326783 ], [ 16.408874859223516, 47.775151810457217 ], [ 16.407898511178793, 47.775048217261755 ], [ 16.407390297345611, 47.77499632210322 ], [ 16.40693630136381, 47.774964677472084 ], [ 16.40691804539501, 47.775001810354901 ], [ 16.406899226151772, 47.775061197842248 ], [ 16.406877190484838, 47.775231869035252 ], [ 16.406862112092103, 47.775323120465885 ], [ 16.406856345468746, 47.775409171314671 ], [ 16.406810891918262, 47.775424430084833 ], [ 16.406665122130509, 47.775460102851781 ], [ 16.406608228445741, 47.775471615005294 ], [ 16.406441718451465, 47.77550667029309 ], [ 16.406223546640582, 47.77553770110503 ], [ 16.406141597695441, 47.775547900519555 ], [ 16.405842980800067, 47.776072147560292 ], [ 16.40570835148328, 47.776042784082811 ], [ 16.405439550314167, 47.776003222709932 ], [ 16.40487180814635, 47.775933995647627 ], [ 16.404789691675077, 47.775929972433865 ], [ 16.404657629786112, 47.775923859312975 ], [ 16.40443891718164, 47.775945717145234 ], [ 16.40431701059229, 47.77595788086056 ], [ 16.404127355396021, 47.775978693353231 ], [ 16.403852560418567, 47.776016811348768 ], [ 16.403585653127884, 47.776057329576204 ], [ 16.403365384123401, 47.77609138203583 ], [ 16.403174358110569, 47.776118442131704 ], [ 16.40315679764479, 47.776117379430993 ], [ 16.403003334350963, 47.776386362336766 ], [ 16.402909342438125, 47.776551116370698 ], [ 16.402670204758198, 47.777076650406372 ], [ 16.402601933723862, 47.777226762833216 ], [ 16.402545460434567, 47.777334332815194 ], [ 16.402535855787679, 47.777352776487078 ], [ 16.402513142511108, 47.777395969838956 ], [ 16.402479033809836, 47.77744757024491 ], [ 16.402433666179256, 47.777503072130635 ], [ 16.402315614623124, 47.777738246351241 ], [ 16.402224437092325, 47.777937409418939 ], [ 16.402190894527397, 47.77811486845529 ], [ 16.402190130076889, 47.778124612976981 ], [ 16.402183434489448, 47.778215460103709 ], [ 16.402181516485399, 47.778241982513954 ], [ 16.401940927735026, 47.779194155312375 ], [ 16.401900910037934, 47.779352338324436 ], [ 16.401849936937268, 47.779551510486776 ], [ 16.401826225278132, 47.779593649768934 ], [ 16.401806248058762, 47.779635689579457 ], [ 16.401788222373, 47.779679118022358 ], [ 16.401259480747825, 47.780884317583237 ], [ 16.401057828675285, 47.781343480654961 ], [ 16.40089047105522, 47.781724567253917 ], [ 16.400758405985748, 47.782021788565032 ], [ 16.400145234228258, 47.782701154255747 ], [ 16.399737268479001, 47.783152930428471 ], [ 16.399713389907344, 47.783178596587845 ], [ 16.399644504145474, 47.783252370505274 ], [ 16.399478273496523, 47.783379336501831 ], [ 16.39907578508172, 47.78368078043983 ], [ 16.398852592989222, 47.783847977535807 ], [ 16.398799988519347, 47.783887283244596 ], [ 16.398546214241559, 47.78405925504395 ], [ 16.398372708645873, 47.784237734585822 ], [ 16.398043581995864, 47.784576209419676 ], [ 16.398041302109853, 47.78457834094079 ], [ 16.397866599544201, 47.784761533427456 ], [ 16.397671502833216, 47.784966066819898 ], [ 16.397404160749968, 47.785246442402183 ], [ 16.39727338027016, 47.78538353678168 ], [ 16.396778655936973, 47.785901354962171 ], [ 16.396753688320974, 47.785924438269568 ], [ 16.396741150965148, 47.785936206439821 ], [ 16.396712916717203, 47.78596738997598 ], [ 16.396683555589536, 47.785999863997105 ], [ 16.396667625298701, 47.786017574839448 ], [ 16.396548895626097, 47.785963467201896 ], [ 16.396349279076095, 47.785864960098834 ], [ 16.396169904242225, 47.78574934759434 ], [ 16.396111735666128, 47.78571190737307 ], [ 16.396066754809745, 47.785682940301982 ], [ 16.396054676381727, 47.785675157941959 ], [ 16.396036859335965, 47.785690307745291 ], [ 16.395995741966559, 47.785725074919498 ], [ 16.395988357825384, 47.785731303745472 ], [ 16.395570074092497, 47.786085376141664 ], [ 16.395094631904712, 47.786487875497954 ], [ 16.394636487735006, 47.786875597041195 ], [ 16.394590023665703, 47.786914917567259 ], [ 16.394994959790463, 47.787033542995147 ], [ 16.395399903009945, 47.787152256895403 ], [ 16.395804837543821, 47.787270789573441 ], [ 16.39583262149435, 47.787282116204459 ], [ 16.395957947438717, 47.787305076222097 ], [ 16.396113744603529, 47.787341902343812 ], [ 16.396206401595883, 47.787363659598327 ], [ 16.396250572134992, 47.787374190390935 ], [ 16.396349331960433, 47.787397496027936 ], [ 16.396414222346568, 47.787412788200641 ], [ 16.39645188479842, 47.78742169116704 ], [ 16.396449706737457, 47.787462086100462 ], [ 16.396448227769906, 47.787489316898302 ], [ 16.396440047771133, 47.787639447648225 ], [ 16.396422259410638, 47.787970089903276 ], [ 16.396407009179452, 47.78825051348592 ], [ 16.396434455965604, 47.788498018608706 ], [ 16.39654754569947, 47.789211174407463 ], [ 16.396643791252576, 47.789593167989501 ], [ 16.39666711356135, 47.789685737276962 ], [ 16.396716210188412, 47.789880804865568 ], [ 16.396754861205878, 47.790034372515713 ], [ 16.39675801499514, 47.790047164100784 ], [ 16.396753853664585, 47.790085630906312 ], [ 16.396740793690824, 47.790207169212835 ], [ 16.396747050546914, 47.79114024627566 ], [ 16.396802507807617, 47.791665313820978 ], [ 16.39690217974643, 47.792028127981169 ], [ 16.396924178118972, 47.792070671307513 ], [ 16.39707979345804, 47.792482959483436 ], [ 16.397124481193959, 47.792552451139279 ], [ 16.397447667197454, 47.792978651250223 ], [ 16.397464295307842, 47.793004770300044 ], [ 16.397673094360709, 47.793375936876934 ], [ 16.397695710119638, 47.793415312327838 ], [ 16.397862557674674, 47.793706650056819 ], [ 16.39803237543056, 47.794003040743121 ], [ 16.398046507981384, 47.794027605403464 ], [ 16.398190163731503, 47.79426283558535 ], [ 16.398240986057836, 47.794345759430783 ], [ 16.398263385037502, 47.794376857058111 ], [ 16.398380604458524, 47.794539409213968 ], [ 16.398577363253224, 47.794812032915623 ], [ 16.398601137141153, 47.794846065165409 ], [ 16.39862765656904, 47.794883625899537 ], [ 16.398783670296048, 47.795106191512232 ], [ 16.398805710038779, 47.795133426969493 ], [ 16.399300584831551, 47.795663731091068 ], [ 16.399430385896856, 47.795787771464681 ], [ 16.399448037519061, 47.795810801737538 ], [ 16.399468573456133, 47.795837446824358 ], [ 16.39948891621345, 47.795858514694231 ], [ 16.399729586238099, 47.796107278744842 ], [ 16.400099633826734, 47.796454522508895 ], [ 16.400155761968367, 47.796507051647396 ], [ 16.40048222560959, 47.79674668823781 ], [ 16.400949965504289, 47.797150934585673 ], [ 16.400983871296983, 47.797184516623972 ], [ 16.401275913305177, 47.79738392001066 ], [ 16.401448440491205, 47.797571017983721 ], [ 16.401684626298092, 47.797875181017908 ], [ 16.401820823762396, 47.798174172560074 ], [ 16.402034905622656, 47.79875299917471 ], [ 16.402055876157444, 47.798809795006001 ], [ 16.402069868842304, 47.798847868652025 ], [ 16.402075104899783, 47.798861955236326 ], [ 16.402077984273351, 47.798865480087358 ], [ 16.402082745786103, 47.798871475886621 ], [ 16.402128910737535, 47.798929491647712 ], [ 16.400839756117787, 47.799248421266348 ], [ 16.400377412956303, 47.799362829104595 ], [ 16.400403317928873, 47.799398965225784 ], [ 16.4003819508197, 47.799403765632185 ], [ 16.400397790509327, 47.799425493431805 ], [ 16.401175127881679, 47.800494263224174 ], [ 16.402002332437995, 47.801738265009277 ], [ 16.402602661548237, 47.80264300781527 ], [ 16.403083399159609, 47.803367795844174 ], [ 16.403370903389586, 47.803801144143691 ], [ 16.403420009427311, 47.803875017845009 ], [ 16.40350013977498, 47.803858117231648 ], [ 16.40362144302371, 47.803832286507216 ], [ 16.403702624898315, 47.803815087625175 ], [ 16.403925575867529, 47.803767820877148 ], [ 16.404009789622823, 47.803749910736357 ], [ 16.404133739970753, 47.803723648784818 ], [ 16.404381373422993, 47.80367113159221 ], [ 16.404476940916631, 47.803650847711374 ], [ 16.404494097508564, 47.803647149197545 ], [ 16.404621346305245, 47.803620168553103 ], [ 16.404771532130948, 47.803580961636811 ], [ 16.404903156757321, 47.803546570985723 ], [ 16.405592858103102, 47.8033662104855 ], [ 16.40587611247965, 47.803292211822423 ], [ 16.405964716103835, 47.803251223479521 ], [ 16.406963958249495, 47.802789336478327 ], [ 16.407071458417107, 47.802758377772179 ], [ 16.407213523055052, 47.802717493330015 ], [ 16.407997167391475, 47.802491844292874 ], [ 16.408321900484182, 47.802398365075192 ], [ 16.410159098490698, 47.801987651124961 ], [ 16.410364296426973, 47.801947778421464 ], [ 16.411847169676509, 47.801659403915075 ], [ 16.412313712074774, 47.801568698035041 ], [ 16.412667943965694, 47.801499808983422 ], [ 16.412817209291738, 47.80148375571649 ], [ 16.41330086648135, 47.80143184522904 ], [ 16.41401625488006, 47.801355010870452 ], [ 16.414366043702366, 47.801317388586526 ], [ 16.416075420015638, 47.801133740856812 ], [ 16.416915733368121, 47.801110991440794 ], [ 16.417077303938168, 47.801106488470211 ], [ 16.417214734637206, 47.801102811271292 ], [ 16.41857527100953, 47.801065948681796 ], [ 16.421159577609661, 47.801034376090378 ], [ 16.423995075268508, 47.800999701365797 ], [ 16.424053836310211, 47.800999025987508 ], [ 16.424271556833226, 47.800994897954922 ], [ 16.424981242821225, 47.800982435763828 ], [ 16.42498813214268, 47.800927147085012 ], [ 16.425090662414906, 47.800925387099241 ], [ 16.42538676785685, 47.80092023465081 ], [ 16.425576073350488, 47.80091695650961 ], [ 16.425821978345564, 47.800912609577274 ], [ 16.425970033658704, 47.800910077457473 ], [ 16.426109544331371, 47.800907684401317 ], [ 16.426402308590301, 47.80090252896062 ], [ 16.426698685942483, 47.800897455878633 ], [ 16.426736333527522, 47.800896805574475 ], [ 16.426914218924992, 47.800887979207296 ], [ 16.427296653589515, 47.800869249699318 ], [ 16.427694272016168, 47.800849661059928 ], [ 16.427884325485913, 47.800840956688326 ], [ 16.428070114564505, 47.800832456547475 ], [ 16.428167137323147, 47.800827960452082 ], [ 16.428260696296963, 47.800823647328286 ], [ 16.428378912543032, 47.800818221777483 ], [ 16.428468874288836, 47.800814095124572 ], [ 16.428661862879594, 47.800805310641216 ], [ 16.428862841025424, 47.800796041127064 ], [ 16.42944339135968, 47.8007693720294 ], [ 16.429502035031685, 47.800766716156467 ], [ 16.429509368150288, 47.800766429118404 ], [ 16.429525491434802, 47.800765635819673 ], [ 16.429596996788881, 47.800765785748553 ], [ 16.42964361571655, 47.800765433711184 ], [ 16.429596757956357, 47.800730136630989 ], [ 16.429643888757948, 47.800474239499387 ], [ 16.429730562929631, 47.800003616797717 ], [ 16.429810076311618, 47.799721368383935 ] ] ] } },
{ "type": "Feature", "properties": { "name": "Krensdorf", "feature_type": "circle", "metric_roundness": 65.06, "metric_rectangularity": 73.2, "metric_mobile_fit": 69.89, "metric_aspect_ratio": 0.864, "metric_area_km2": 17.22 }, "geometry": { "type": "Polygon", "coordinates": [ [ [ 16.441270312352973, 47.788238715957419 ], [ 16.441234567795323, 47.787321581831456 ], [ 16.441127432095723, 47.786406945389352 ], [ 16.440949198905674, 47.78549731378466 ], [ 16.440700356749964, 47.784595180583096 ], [ 16.440381587687643, 47.783703018924193 ], [ 16.439993765442559, 47.782823274737673 ], [ 16.439537953008521, 47.781958360032938 ], [ 16.439015399735734, 47.781110646280389 ], [ 16.438427537906396, 47.780282457902644 ], [ 16.437775978808919, 47.779476065893562 ], [ 16.437062508321493, 47.778693681582865 ], [ 16.436289082017137, 47.777937450563279 ], [ 16.435457819803592, 47.777209446797315 ], [ 16.434571000112804, 47.776511666919575 ], [ 16.433631053655898, 47.775846024750784 ], [ 16.432640556760791, 47.775214346038318 ], [ 16.431602224310609, 47.774618363438101 ], [ 16.430518902302435, 47.774059711751583 ], [ 16.429393560046584, 47.773539923431144 ], [ 16.428229282027964, 47.773060424366307 ], [ 16.42702925945169, 47.772622529962469 ], [ 16.425796781496242, 47.77222744152305 ], [ 16.424535226298016, 47.771876242945154 ], [ 16.423248051692127, 47.771569897737898 ], [ 16.421938785734696, 47.771309246371565 ], [ 16.420611017032709, 47.77109500396525 ], [ 16.419268384907888, 47.770927758319196 ], [ 16.417914569421555, 47.770807968297305 ], [ 16.416553281287857, 47.770735962564473 ], [ 16.415188251702954, 47.770711938682105 ], [ 16.413823222118051, 47.770735962564473 ], [ 16.412461933984353, 47.770807968297305 ], [ 16.411108118498024, 47.770927758319196 ], [ 16.4097654863732, 47.77109500396525 ], [ 16.408437717671209, 47.771309246371565 ], [ 16.407128451713781, 47.771569897737898 ], [ 16.405841277107889, 47.771876242945154 ], [ 16.404579721909666, 47.77222744152305 ], [ 16.403347243954215, 47.772622529962469 ], [ 16.402147221377941, 47.773060424366307 ], [ 16.40098294335932, 47.773539923431144 ], [ 16.399857601103474, 47.774059711751583 ], [ 16.398774279095299, 47.774618363438101 ], [ 16.397735946645117, 47.775214346038318 ], [ 16.396745449750007, 47.775846024750784 ], [ 16.395805503293104, 47.776511666919575 ], [ 16.394918683602317, 47.777209446797315 ], [ 16.394087421388772, 47.777937450563279 ], [ 16.393313995084416, 47.778693681582865 ], [ 16.39260052459699, 47.779476065893562 ], [ 16.391948965499509, 47.780282457902644 ], [ 16.391361103670171, 47.781110646280389 ], [ 16.390838550397383, 47.781958360032938 ], [ 16.390382737963346, 47.782823274737673 ], [ 16.389994915718262, 47.783703018924193 ], [ 16.389676146655944, 47.784595180583096 ], [ 16.389427304500234, 47.78549731378466 ], [ 16.389249071310186, 47.786406945389352 ], [ 16.389141935610585, 47.787321581831456 ], [ 16.389106191052932, 47.788238715957419 ], [ 16.389141935610585, 47.789155833899926 ], [ 16.389249071310186, 47.790070421968984 ], [ 16.389427304500234, 47.790979973540992 ], [ 16.389676146655944, 47.79188199592712 ], [ 16.389994915718262, 47.792774017201928 ], [ 16.390382737963346, 47.793653592973804 ], [ 16.390838550397383, 47.79451831307852 ], [ 16.391361103670171, 47.795365808177728 ], [ 16.391948965499509, 47.796193756244449 ], [ 16.39260052459699, 47.796999888917703 ], [ 16.393313995084416, 47.797781997709137 ], [ 16.394087421388772, 47.798537940044632 ], [ 16.394918683602317, 47.799265645124599 ], [ 16.395805503293104, 47.79996311958687 ], [ 16.396745449750007, 47.800628452956936 ], [ 16.397735946645117, 47.801259822870676 ], [ 16.398774279095299, 47.801855500055439 ], [ 16.399857601103474, 47.80241385305596 ], [ 16.40098294335932, 47.802933352692321 ], [ 16.402147221377941, 47.803412576237882 ], [ 16.403347243954215, 47.803850211305921 ], [ 16.404579721909666, 47.804245059434322 ], [ 16.405841277107889, 47.804596039358884 ], [ 16.407128451713781, 47.804902189966135 ], [ 16.408437717671209, 47.805162672917817 ], [ 16.4097654863732, 47.805376774940051 ], [ 16.411108118498024, 47.80554390977067 ], [ 16.412461933984353, 47.805663619759883 ], [ 16.413823222118051, 47.80573557711967 ], [ 16.415188251702954, 47.805759584818588 ], [ 16.416553281287857, 47.80573557711967 ], [ 16.417914569421555, 47.805663619759883 ], [ 16.419268384907888, 47.80554390977067 ], [ 16.420611017032709, 47.805376774940051 ], [ 16.421938785734696, 47.805162672917817 ], [ 16.423248051692127, 47.804902189966135 ], [ 16.424535226298016, 47.804596039358884 ], [ 16.425796781496242, 47.804245059434322 ], [ 16.42702925945169, 47.803850211305921 ], [ 16.428229282027964, 47.803412576237882 ], [ 16.429393560046584, 47.802933352692321 ], [ 16.430518902302435, 47.80241385305596 ], [ 16.431602224310609, 47.801855500055439 ], [ 16.432640556760788, 47.801259822870676 ], [ 16.433631053655898, 47.800628452956936 ], [ 16.434571000112804, 47.79996311958687 ], [ 16.435457819803592, 47.799265645124599 ], [ 16.436289082017137, 47.798537940044632 ], [ 16.437062508321493, 47.797781997709137 ], [ 16.437775978808919, 47.796999888917703 ], [ 16.438427537906396, 47.796193756244449 ], [ 16.439015399735734, 47.795365808177728 ], [ 16.439537953008521, 47.79451831307852 ], [ 16.439993765442559, 47.793653592973804 ], [ 16.440381587687643, 47.792774017201928 ], [ 16.440700356749964, 47.79188199592712 ], [ 16.440949198905674, 47.790979973540992 ], [ 16.441127432095723, 47.790070421968984 ], [ 16.441234567795323, 47.789155833899926 ], [ 16.441270312352973, 47.788238715957419 ] ] ] } },
{ "type": "Feature", "properties": { "name": "Krensdorf", "feature_type": "mrr", "metric_roundness": 65.06, "metric_rectangularity": 73.2, "metric_mobile_fit": 69.89, "metric_aspect_ratio": 0.864, "metric_area_km2": 17.22 }, "geometry": { "type": "Polygon", "coordinates": [ [ [ 16.432555452149895, 47.769730955311978 ], [ 16.390709935161961, 47.777615939296687 ], [ 16.402504057373118, 47.805876450282959 ], [ 16.444349574361048, 47.797995752793256 ], [ 16.432555452149895, 47.769730955311978 ] ] ] } }
]
}
