{
"type": "FeatureCollection",
"name": "dree",
"crs": { "type": "name", "properties": { "name": "urn:ogc:def:crs:OGC:1.3:CRS84" } },
"features": [
{ "type": "Feature", "properties": { "name": "Drée", "metric_roundness": 33.08, "metric_rectangularity": 65.72, "metric_mobile_fit": 90.63, "metric_aspect_ratio": 0.656, "metric_area_km2": 11.39 }, "geometry": { "type": "Polygon", "coordinates": [ [ [ 4.6960039, 47.355933599999986 ], [ 4.6897067, 47.3612001 ], [ 4.680419, 47.359320499999988 ], [ 4.6848093, 47.3400833 ], [ 4.6910695, 47.3305315 ], [ 4.7005584, 47.333060599999989 ], [ 4.7060249, 47.3261682 ], [ 4.7113516, 47.324891899999983 ], [ 4.7155795, 47.3280495 ], [ 4.704827, 47.3400872 ], [ 4.703532, 47.354890499999989 ], [ 4.6960039, 47.355933599999986 ] ] ] } }
]
}
