{
"type": "FeatureCollection",
"name": "druy_parigny",
"crs": { "type": "name", "properties": { "name": "urn:ogc:def:crs:OGC:1.3:CRS84" } },
"features": [
{ "type": "Feature", "properties": { "name": "Druy-Parigny", "feature_type": "entity", "metric_roundness": 33.16, "metric_rectangularity": 56.45, "metric_mobile_fit": 88.98, "metric_aspect_ratio": 0.673, "metric_area_km2": 54.01 }, "geometry": { "type": "Polygon", "coordinates": [ [ [ 3.3833025, 46.916257199999983 ], [ 3.3795173, 46.912149299999989 ], [ 3.3710203, 46.9095772 ], [ 3.3601075, 46.909184499999974 ], [ 3.3554344, 46.9064281 ], [ 3.354428, 46.902273099999988 ], [ 3.3645618, 46.8899999 ], [ 3.3632429, 46.887023899999974 ], [ 3.3507266, 46.8806342 ], [ 3.3379205, 46.884548 ], [ 3.3441202, 46.8727697 ], [ 3.3419022, 46.868514299999987 ], [ 3.3478421, 46.861522 ], [ 3.3343435, 46.850795 ], [ 3.3384695, 46.8469805 ], [ 3.345394, 46.8385975 ], [ 3.3517, 46.835753 ], [ 3.3597695, 46.8407391 ], [ 3.3657993, 46.8516271 ], [ 3.3730571, 46.852422499999982 ], [ 3.3764816, 46.849130199999976 ], [ 3.3781965, 46.8527036 ], [ 3.3759609, 46.8559421 ], [ 3.382528, 46.8597976 ], [ 3.3827443, 46.8683567 ], [ 3.3878316, 46.8718704 ], [ 3.3981034, 46.8924369 ], [ 3.4154275, 46.8947905 ], [ 3.411058, 46.897459599999983 ], [ 3.4099936, 46.902087499999986 ], [ 3.4028978, 46.905290199999989 ], [ 3.4044594, 46.914649299999986 ], [ 3.3987515, 46.918145 ], [ 3.3833025, 46.916257199999983 ] ] ] } },
{ "type": "Feature", "properties": { "name": "Druy-Parigny", "feature_type": "circle", "metric_roundness": 33.16, "metric_rectangularity": 56.45, "metric_mobile_fit": 88.98, "metric_aspect_ratio": 0.673, "metric_area_km2": 54.01 }, "geometry": { "type": "Polygon", "coordinates": [ [ [ 3.43992099974508, 46.876964813647753 ], [ 3.43983233715376, 46.874650281670924 ], [ 3.439566592397801, 46.872341994245218 ], [ 3.439124493865107, 46.870046279451223 ], [ 3.438507253317025, 46.867769431711018 ], [ 3.437716562566994, 46.865517694513443 ], [ 3.436754588843401, 46.863297243270395 ], [ 3.435623968849355, 46.861114168351378 ], [ 3.434327801535672, 46.858974458343631 ], [ 3.432869639606863, 46.856883983583678 ], [ 3.431253479783419, 46.854848480006538 ], [ 3.429483751847078, 46.85287353335719 ], [ 3.427565306499102, 46.850964563808354 ], [ 3.42550340206484, 46.849126811027872 ], [ 3.423303690081025, 46.847365319736795 ], [ 3.420972199805304, 46.845684925799361 ], [ 3.418515321690464, 46.844090242883397 ], [ 3.415939789868641, 46.842585649728818 ], [ 3.413252663693537, 46.841175278060099 ], [ 3.410461308391217, 46.83986300117666 ], [ 3.40757337487254, 46.838652423253578 ], [ 3.404596778762544, 46.83754686938255 ], [ 3.401539678704265, 46.836549376381583 ], [ 3.398410453996466, 46.835662684399303 ], [ 3.395217681626562, 46.834889229337612 ], [ 3.391970112761691, 46.834231136114397 ], [ 3.388676648762377, 46.833690212785207 ], [ 3.385346316784516, 46.833267945540747 ], [ 3.381988245036571, 46.832965494594347 ], [ 3.378611637759786, 46.832783690971141 ], [ 3.37522575, 46.832723034208044 ], [ 3.371839862240215, 46.832783690971141 ], [ 3.36846325496343, 46.832965494594347 ], [ 3.365105183215485, 46.833267945540747 ], [ 3.361774851237624, 46.833690212785207 ], [ 3.35848138723831, 46.834231136114397 ], [ 3.355233818373439, 46.834889229337612 ], [ 3.352041046003535, 46.835662684399303 ], [ 3.348911821295736, 46.836549376381583 ], [ 3.345854721237457, 46.83754686938255 ], [ 3.342878125127461, 46.838652423253578 ], [ 3.339990191608784, 46.83986300117666 ], [ 3.337198836306464, 46.841175278060099 ], [ 3.33451171013136, 46.842585649728818 ], [ 3.331936178309537, 46.844090242883397 ], [ 3.329479300194697, 46.845684925799361 ], [ 3.327147809918976, 46.847365319736795 ], [ 3.324948097935161, 46.849126811027872 ], [ 3.322886193500899, 46.850964563808354 ], [ 3.320967748152923, 46.85287353335719 ], [ 3.319198020216583, 46.854848480006538 ], [ 3.317581860393139, 46.856883983583678 ], [ 3.316123698464329, 46.858974458343631 ], [ 3.314827531150646, 46.861114168351378 ], [ 3.3136969111566, 46.863297243270395 ], [ 3.312734937433007, 46.865517694513443 ], [ 3.311944246682976, 46.867769431711018 ], [ 3.311327006134894, 46.870046279451223 ], [ 3.3108849076022, 46.872341994245218 ], [ 3.31061916284624, 46.874650281670924 ], [ 3.310530500254921, 46.876964813647753 ], [ 3.31061916284624, 46.879279245794898 ], [ 3.3108849076022, 46.881587234825311 ], [ 3.311327006134894, 46.883882455927711 ], [ 3.311944246682976, 46.886158620088978 ], [ 3.312734937433007, 46.888409491309716 ], [ 3.3136969111566, 46.890628903665885 ], [ 3.314827531150646, 46.892810778170208 ], [ 3.316123698464329, 46.894949139387485 ], [ 3.317581860393139, 46.897038131758791 ], [ 3.319198020216583, 46.899072035590486 ], [ 3.320967748152923, 46.901045282664775 ], [ 3.322886193500899, 46.902952471429778 ], [ 3.324948097935161, 46.904788381728373 ], [ 3.327147809918976, 46.906547989026066 ], [ 3.329479300194697, 46.908226478100069 ], [ 3.331936178309537, 46.909819256152652 ], [ 3.33451171013136, 46.911321965313974 ], [ 3.337198836306464, 46.912730494500977 ], [ 3.339990191608784, 46.914040990600839 ], [ 3.342878125127461, 46.915249868949132 ], [ 3.345854721237457, 46.91635382307507 ], [ 3.348911821295736, 46.917349833687744 ], [ 3.352041046003535, 46.918235176879918 ], [ 3.355233818373439, 46.91900743152727 ], [ 3.35848138723831, 46.919664485863933 ], [ 3.361774851237624, 46.920204543216599 ], [ 3.365105183215485, 46.920626126882368 ], [ 3.36846325496343, 46.92092808413733 ], [ 3.371839862240215, 46.921109589365365 ], [ 3.37522575, 46.92117014629882 ], [ 3.378611637759786, 46.921109589365365 ], [ 3.381988245036571, 46.92092808413733 ], [ 3.385346316784516, 46.920626126882368 ], [ 3.388676648762377, 46.920204543216599 ], [ 3.391970112761691, 46.919664485863933 ], [ 3.395217681626562, 46.91900743152727 ], [ 3.398410453996466, 46.918235176879918 ], [ 3.401539678704264, 46.917349833687744 ], [ 3.404596778762544, 46.91635382307507 ], [ 3.40757337487254, 46.915249868949132 ], [ 3.410461308391217, 46.914040990600839 ], [ 3.413252663693537, 46.912730494500977 ], [ 3.415939789868641, 46.911321965313974 ], [ 3.418515321690464, 46.909819256152652 ], [ 3.420972199805304, 46.908226478100069 ], [ 3.423303690081024, 46.906547989026066 ], [ 3.42550340206484, 46.904788381728373 ], [ 3.427565306499102, 46.902952471429778 ], [ 3.429483751847078, 46.901045282664775 ], [ 3.431253479783419, 46.899072035590486 ], [ 3.432869639606863, 46.897038131758791 ], [ 3.434327801535672, 46.894949139387485 ], [ 3.435623968849355, 46.892810778170208 ], [ 3.436754588843401, 46.890628903665885 ], [ 3.437716562566994, 46.888409491309716 ], [ 3.438507253317025, 46.886158620088978 ], [ 3.439124493865107, 46.883882455927711 ], [ 3.439566592397801, 46.881587234825311 ], [ 3.43983233715376, 46.879279245794898 ], [ 3.43992099974508, 46.876964813647753 ] ] ] } },
{ "type": "Feature", "properties": { "name": "Druy-Parigny", "feature_type": "mrr", "metric_roundness": 33.16, "metric_rectangularity": 56.45, "metric_mobile_fit": 88.98, "metric_aspect_ratio": 0.673, "metric_area_km2": 54.01 }, "geometry": { "type": "Polygon", "coordinates": [ [ [ 3.426071484919354, 46.907262793238651 ], [ 3.361683368938117, 46.831770530566899 ], [ 3.309501092425146, 46.852583323724005 ], [ 3.373889208406384, 46.928046328693142 ], [ 3.426071484919354, 46.907262793238651 ] ] ] } }
]
}
