{
"type": "FeatureCollection",
"name": "hribiny_ledska",
"crs": { "type": "name", "properties": { "name": "urn:ogc:def:crs:OGC:1.3:CRS84" } },
"features": [
{ "type": "Feature", "properties": { "name": "Hřibiny-Ledská", "metric_roundness": 38.73, "metric_rectangularity": 66.25, "metric_mobile_fit": 96.02, "metric_aspect_ratio": 0.523, "metric_area_km2": 12.21 }, "geometry": { "type": "Polygon", "coordinates": [ [ [ 16.1790947, 50.1448192 ], [ 16.1797419, 50.147609 ], [ 16.1891718, 50.146678 ], [ 16.19019, 50.150807 ], [ 16.1904065, 50.164924 ], [ 16.18898, 50.168106 ], [ 16.1740358, 50.172197499999989 ], [ 16.1706015, 50.1672335 ], [ 16.1651489, 50.161648 ], [ 16.1664852, 50.155752899999989 ], [ 16.1615545, 50.1368315 ], [ 16.1790947, 50.1448192 ] ] ] } }
]
}
