{
"type": "FeatureCollection",
"name": "agios_georgios_keryneias",
"crs": { "type": "name", "properties": { "name": "urn:ogc:def:crs:OGC:1.3:CRS84" } },
"features": [
{ "type": "Feature", "properties": { "name": "Άγιος Γεώργιος Κερύνειας", "feature_type": "entity", "metric_roundness": 34.03, "metric_rectangularity": 66.32, "metric_mobile_fit": -3.75, "metric_aspect_ratio": 1.6, "metric_area_km2": 2.84 }, "geometry": { "type": "Polygon", "coordinates": [ [ [ 33.2547985, 35.3439225 ], [ 33.2632092, 35.343215199999982 ], [ 33.268285, 35.3383565 ], [ 33.281309, 35.336196 ], [ 33.2809345, 35.3463905 ], [ 33.275272, 35.344986399999989 ], [ 33.2581574, 35.3497116 ], [ 33.254883, 35.346491 ], [ 33.2547985, 35.3439225 ] ] ] } },
{ "type": "Feature", "properties": { "name": "Άγιος Γεώργιος Κερύνειας", "feature_type": "circle", "metric_roundness": 34.03, "metric_rectangularity": 66.32, "metric_mobile_fit": -3.75, "metric_aspect_ratio": 1.6, "metric_area_km2": 2.84 }, "geometry": { "type": "Polygon", "coordinates": [ [ [ 33.282738546777061, 35.341343663969042 ], [ 33.282718479675594, 35.340718549156172 ], [ 33.282658333373739, 35.340095142923154 ], [ 33.282558272728316, 35.339475154042532 ], [ 33.282418571998619, 35.338860281959001 ], [ 33.282239614094607, 35.338252212130278 ], [ 33.282021889527478, 35.337652611405851 ], [ 33.281765995065129, 35.337063123456382 ], [ 33.281472632096502, 35.336485364266288 ], [ 33.281142604709096, 35.335920917701742 ], [ 33.280776817485034, 35.335371331166556 ], [ 33.280376273021687, 35.33483811135757 ], [ 33.279942069183569, 35.334322720131411 ], [ 33.279475396093233, 35.333826570494004 ], [ 33.278977532869185, 35.333351022723619 ], [ 33.278449844119898, 35.332897380638535 ], [ 33.27789377620357, 35.332466888019226 ], [ 33.277310853263707, 35.332060725195085 ], [ 33.276702673051552, 35.331680005805026 ], [ 33.27607090254682, 35.331325773741078 ], [ 33.275417273388527, 35.330999000283036 ], [ 33.274743577128774, 35.330700581432389 ], [ 33.274051660322179, 35.330431335452808 ], [ 33.273343419464616, 35.330192000623732 ], [ 33.272620795795042, 35.329983233213689 ], [ 33.271885769974709, 35.329805605678459 ], [ 33.271140356658293, 35.32965960508951 ], [ 33.270386598971896, 35.329545631796584 ], [ 33.269626562912926, 35.329463998328578 ], [ 33.268862331687409, 35.329414928535371 ], [ 33.268096, 35.329398556973246 ], [ 33.267329668312584, 35.329414928535371 ], [ 33.266565437087067, 35.329463998328578 ], [ 33.265805401028103, 35.329545631796584 ], [ 33.2650516433417, 35.32965960508951 ], [ 33.264306230025284, 35.329805605678459 ], [ 33.263571204204951, 35.329983233213689 ], [ 33.262848580535383, 35.330192000623732 ], [ 33.262140339677813, 35.330431335452808 ], [ 33.261448422871219, 35.330700581432389 ], [ 33.260774726611466, 35.330999000283036 ], [ 33.260121097453172, 35.331325773741078 ], [ 33.25948932694844, 35.331680005805026 ], [ 33.258881146736293, 35.332060725195085 ], [ 33.25829822379643, 35.332466888019226 ], [ 33.257742155880102, 35.332897380638535 ], [ 33.257214467130815, 35.333351022723619 ], [ 33.25671660390676, 35.333826570494004 ], [ 33.256249930816431, 35.334322720131411 ], [ 33.255815726978312, 35.33483811135757 ], [ 33.255415182514966, 35.335371331166556 ], [ 33.255049395290904, 35.335920917701742 ], [ 33.254719367903498, 35.336485364266288 ], [ 33.254426004934864, 35.337063123456382 ], [ 33.254170110472522, 35.337652611405851 ], [ 33.253952385905393, 35.338252212130278 ], [ 33.253773428001381, 35.338860281959001 ], [ 33.253633727271676, 35.339475154042532 ], [ 33.253533666626261, 35.340095142923154 ], [ 33.253473520324398, 35.340718549156172 ], [ 33.253453453222939, 35.341343663969042 ], [ 33.253473520324398, 35.341968773945574 ], [ 33.253533666626261, 35.342592165722607 ], [ 33.253633727271676, 35.343212130685984 ], [ 33.253773428001381, 35.343826969653009 ], [ 33.253952385905393, 35.344434997528829 ], [ 33.254170110472522, 35.345034547923596 ], [ 33.254426004934864, 35.34562397771807 ], [ 33.254719367903498, 35.346201671564998 ], [ 33.255049395290904, 35.346766046314109 ], [ 33.255415182514966, 35.347315555348416 ], [ 33.255815726978312, 35.347848692820214 ], [ 33.256249930816431, 35.348363997774946 ], [ 33.25671660390676, 35.348860058151921 ], [ 33.257214467130815, 35.349335514650832 ], [ 33.257742155880102, 35.349789064453347 ], [ 33.25829822379643, 35.350219464790101 ], [ 33.258881146736293, 35.350625536342761 ], [ 33.25948932694844, 35.351006166472381 ], [ 33.260121097453172, 35.351360312264909 ], [ 33.260774726611466, 35.351687003385763 ], [ 33.261448422871219, 35.351985344735525 ], [ 33.262140339677813, 35.352254518899684 ], [ 33.262848580535383, 35.352493788385587 ], [ 33.263571204204951, 35.352702497640642 ], [ 33.264306230025284, 35.352880074846212 ], [ 33.2650516433417, 35.353026033482266 ], [ 33.265805401028103, 35.353139973658706 ], [ 33.266565437087067, 35.353221583209439 ], [ 33.267329668312584, 35.353270638546661 ], [ 33.268096, 35.353287005272463 ], [ 33.268862331687409, 35.353270638546661 ], [ 33.269626562912926, 35.353221583209439 ], [ 33.270386598971896, 35.353139973658706 ], [ 33.271140356658293, 35.353026033482266 ], [ 33.271885769974709, 35.352880074846212 ], [ 33.272620795795042, 35.352702497640642 ], [ 33.273343419464616, 35.352493788385587 ], [ 33.274051660322179, 35.352254518899684 ], [ 33.274743577128774, 35.351985344735525 ], [ 33.275417273388527, 35.351687003385763 ], [ 33.27607090254682, 35.351360312264909 ], [ 33.276702673051552, 35.351006166472381 ], [ 33.277310853263707, 35.350625536342761 ], [ 33.27789377620357, 35.350219464790101 ], [ 33.278449844119898, 35.349789064453347 ], [ 33.278977532869185, 35.349335514650832 ], [ 33.279475396093233, 35.348860058151921 ], [ 33.279942069183569, 35.348363997774946 ], [ 33.280376273021687, 35.347848692820214 ], [ 33.280776817485034, 35.347315555348416 ], [ 33.281142604709096, 35.346766046314109 ], [ 33.281472632096502, 35.346201671564998 ], [ 33.281765995065129, 35.34562397771807 ], [ 33.282021889527478, 35.345034547923596 ], [ 33.282239614094607, 35.344434997528829 ], [ 33.282418571998619, 35.343826969653009 ], [ 33.282558272728316, 35.343212130685984 ], [ 33.282658333373739, 35.342592165722607 ], [ 33.282718479675594, 35.341968773945574 ], [ 33.282738546777061, 35.341343663969042 ] ] ] } },
{ "type": "Feature", "properties": { "name": "Άγιος Γεώργιος Κερύνειας", "feature_type": "mrr", "metric_roundness": 34.03, "metric_rectangularity": 66.32, "metric_mobile_fit": -3.75, "metric_aspect_ratio": 1.6, "metric_area_km2": 2.84 }, "geometry": { "type": "Polygon", "coordinates": [ [ [ 33.255668387284935, 35.350074510225561 ], [ 33.283462321573651, 35.346021911851672 ], [ 33.281309, 35.336196 ], [ 33.253515067167221, 35.340249089771397 ], [ 33.255668387284935, 35.350074510225561 ] ] ] } }
]
}
