{
"type": "FeatureCollection",
"name": "agios_sozomenos",
"crs": { "type": "name", "properties": { "name": "urn:ogc:def:crs:OGC:1.3:CRS84" } },
"features": [
{ "type": "Feature", "properties": { "name": "'Αγιος Σωζόμενος", "metric_roundness": 42.91, "metric_rectangularity": 62.46, "metric_mobile_fit": 81.59, "metric_aspect_ratio": 0.747, "metric_area_km2": 15.8 }, "geometry": { "type": "Polygon", "coordinates": [ [ [ 33.4403387, 35.0891719 ], [ 33.4344717, 35.0816444 ], [ 33.425794, 35.077918 ], [ 33.429767, 35.0663315 ], [ 33.426024399999989, 35.0520577 ], [ 33.429236, 35.0487335 ], [ 33.4391903, 35.0482334 ], [ 33.450129499999989, 35.0643478 ], [ 33.4585906, 35.0683522 ], [ 33.4619116, 35.0696174 ], [ 33.466613, 35.073674 ], [ 33.4582254, 35.0868207 ], [ 33.4585906, 35.0929833 ], [ 33.4403387, 35.0891719 ] ] ] } }
]
}
