{
"type": "FeatureCollection",
"name": "aglie",
"crs": { "type": "name", "properties": { "name": "urn:ogc:def:crs:OGC:1.3:CRS84" } },
"features": [
{ "type": "Feature", "properties": { "name": "Agliè", "feature_type": "entity", "metric_roundness": 59.25, "metric_rectangularity": 73.19, "metric_mobile_fit": 72.7, "metric_aspect_ratio": 0.836, "metric_area_km2": 26.37 }, "geometry": { "type": "Polygon", "coordinates": [ [ [ 7.7983408, 45.3585001 ], [ 7.802841, 45.374927 ], [ 7.7909097, 45.382817599999981 ], [ 7.7910465, 45.38629 ], [ 7.7739775, 45.389189 ], [ 7.767726, 45.385512499999983 ], [ 7.764102, 45.3808755 ], [ 7.7635468, 45.3715873 ], [ 7.7463635, 45.3577985 ], [ 7.7519732, 45.351662399999981 ], [ 7.773387, 45.3416985 ], [ 7.780153, 45.3449409 ], [ 7.7823931, 45.354647799999988 ], [ 7.789174, 45.358791499999981 ], [ 7.7983408, 45.3585001 ] ] ] } },
{ "type": "Feature", "properties": { "name": "Agliè", "feature_type": "circle", "metric_roundness": 59.25, "metric_rectangularity": 73.19, "metric_mobile_fit": 72.7, "metric_aspect_ratio": 0.836, "metric_area_km2": 26.37 }, "geometry": { "type": "Polygon", "coordinates": [ [ [ 7.808653523515895, 45.365441655510701 ], [ 7.808607177029992, 45.364198140648163 ], [ 7.808468264604778, 45.362958006951253 ], [ 7.808237166989558, 45.361724653875861 ], [ 7.807914517606829, 45.360501462512261 ], [ 7.807501200816123, 45.359291786311786 ], [ 7.806998349490036, 45.35809894188678 ], [ 7.806407341909098, 45.356926199909338 ], [ 7.805729797984006, 45.355776776133837 ], [ 7.804967574815566, 45.354653822567933 ], [ 7.8041227616045, 45.353560418816556 ], [ 7.803197673925098, 45.352499563622658 ], [ 7.802194847378387, 45.351474166628122 ], [ 7.801117030642226, 45.350487040377701 ], [ 7.79996717793737, 45.349540892588131 ], [ 7.79874844093016, 45.348638318703664 ], [ 7.797464160094016, 45.347781794759051 ], [ 7.796117855553442, 45.346973670569319 ], [ 7.794713217435604, 45.346216163265673 ], [ 7.793254095755946, 45.345511351195256 ], [ 7.791744489865573, 45.344861168201845 ], [ 7.790188537489296, 45.344267398303387 ], [ 7.788590503384427, 45.343731670781189 ], [ 7.786954767651367, 45.343255455694411 ], [ 7.785285813728066, 45.342840059832533 ], [ 7.783588216101216, 45.342486623116876 ], [ 7.781866627767917, 45.342196115461363 ], [ 7.780125767482123, 45.341969334101293 ], [ 7.77837040682087, 45.341806901397426 ], [ 7.77660535710572, 45.341709263121807 ], [ 7.774835456215252, 45.341676687229757 ], [ 7.773065555324785, 45.341709263121807 ], [ 7.771300505609634, 45.341806901397426 ], [ 7.769545144948382, 45.341969334101293 ], [ 7.767804284662586, 45.342196115461363 ], [ 7.766082696329287, 45.342486623116876 ], [ 7.764385098702438, 45.342840059832533 ], [ 7.762716144779136, 45.343255455694411 ], [ 7.761080409046077, 45.343731670781189 ], [ 7.759482374941208, 45.344267398303387 ], [ 7.757926422564933, 45.344861168201845 ], [ 7.756416816674556, 45.345511351195256 ], [ 7.7549576949949, 45.346216163265673 ], [ 7.753553056877062, 45.346973670569319 ], [ 7.752206752336489, 45.347781794759051 ], [ 7.750922471500345, 45.348638318703664 ], [ 7.749703734493134, 45.349540892588131 ], [ 7.748553881788279, 45.350487040377701 ], [ 7.747476065052116, 45.351474166628122 ], [ 7.746473238505407, 45.352499563622658 ], [ 7.745548150826004, 45.353560418816556 ], [ 7.744703337614939, 45.354653822567933 ], [ 7.743941114446499, 45.355776776133837 ], [ 7.743263570521408, 45.356926199909338 ], [ 7.742672562940469, 45.35809894188678 ], [ 7.74216971161438, 45.359291786311786 ], [ 7.741756394823676, 45.360501462512261 ], [ 7.741433745440947, 45.361724653875861 ], [ 7.741202647825725, 45.362958006951253 ], [ 7.741063735400513, 45.364198140648163 ], [ 7.74101738891461, 45.365441655510701 ], [ 7.741063735400513, 45.366685143038822 ], [ 7.741202647825725, 45.367925195031937 ], [ 7.741433745440947, 45.369158412929337 ], [ 7.741756394823676, 45.370381417121784 ], [ 7.74216971161438, 45.371590856208627 ], [ 7.742672562940469, 45.37278341617538 ], [ 7.743263570521408, 45.373955829466546 ], [ 7.743941114446499, 45.375104883928913 ], [ 7.744703337614939, 45.376227431601073 ], [ 7.745548150826004, 45.377320397325164 ], [ 7.746473238505407, 45.378380787157361 ], [ 7.747476065052116, 45.379405696554379 ], [ 7.748553881788279, 45.380392318313675 ], [ 7.749703734493134, 45.381337950245843 ], [ 7.750922471500345, 45.38224000255844 ], [ 7.752206752336489, 45.383096004931197 ], [ 7.753553056877062, 45.383903613263534 ], [ 7.7549576949949, 45.384660616076076 ], [ 7.756416816674556, 45.385364940548989 ], [ 7.757926422564933, 45.386014658180727 ], [ 7.759482374941208, 45.386607990051928 ], [ 7.761080409046077, 45.387143311680418 ], [ 7.762716144779136, 45.387619157454083 ], [ 7.764385098702438, 45.388034224629713 ], [ 7.766082696329287, 45.38838737688716 ], [ 7.767804284662586, 45.388677647429049 ], [ 7.769545144948382, 45.388904241617979 ], [ 7.771300505609634, 45.389066539143876 ], [ 7.773065555324785, 45.389164095715721 ], [ 7.774835456215252, 45.389196644273348 ], [ 7.77660535710572, 45.389164095715721 ], [ 7.77837040682087, 45.389066539143876 ], [ 7.780125767482123, 45.388904241617979 ], [ 7.781866627767917, 45.388677647429049 ], [ 7.783588216101216, 45.38838737688716 ], [ 7.785285813728066, 45.388034224629713 ], [ 7.786954767651367, 45.387619157454083 ], [ 7.788590503384427, 45.387143311680418 ], [ 7.790188537489296, 45.386607990051928 ], [ 7.791744489865573, 45.386014658180727 ], [ 7.793254095755946, 45.385364940548989 ], [ 7.794713217435604, 45.384660616076076 ], [ 7.796117855553442, 45.383903613263534 ], [ 7.797464160094016, 45.383096004931197 ], [ 7.79874844093016, 45.38224000255844 ], [ 7.79996717793737, 45.381337950245843 ], [ 7.801117030642226, 45.380392318313675 ], [ 7.802194847378387, 45.379405696554379 ], [ 7.803197673925098, 45.378380787157361 ], [ 7.8041227616045, 45.377320397325164 ], [ 7.804967574815566, 45.376227431601073 ], [ 7.805729797984006, 45.375104883928913 ], [ 7.806407341909098, 45.373955829466546 ], [ 7.806998349490036, 45.37278341617538 ], [ 7.807501200816123, 45.371590856208627 ], [ 7.807914517606829, 45.370381417121784 ], [ 7.808237166989558, 45.369158412929337 ], [ 7.808468264604778, 45.367925195031937 ], [ 7.808607177029992, 45.366685143038822 ], [ 7.808653523515895, 45.365441655510701 ] ] ] } },
{ "type": "Feature", "properties": { "name": "Agliè", "feature_type": "mrr", "metric_roundness": 59.25, "metric_rectangularity": 73.19, "metric_mobile_fit": 72.7, "metric_aspect_ratio": 0.836, "metric_area_km2": 26.37 }, "geometry": { "type": "Polygon", "coordinates": [ [ [ 7.742886622727994, 45.353274142021128 ], [ 7.773408489001599, 45.392979071238145 ], [ 7.813233137300549, 45.37787477112731 ], [ 7.782711271026944, 45.338159235339248 ], [ 7.742886622727994, 45.353274142021128 ] ] ] } }
]
}
