{
"type": "FeatureCollection",
"name": "ablain_saint_nazaire",
"crs": { "type": "name", "properties": { "name": "urn:ogc:def:crs:OGC:1.3:CRS84" } },
"features": [
{ "type": "Feature", "properties": { "name": "Ablain-Saint-Nazaire", "feature_type": "entity", "metric_roundness": 44.69, "metric_rectangularity": 73.95, "metric_mobile_fit": 6.75, "metric_aspect_ratio": 1.495, "metric_area_km2": 24.63 }, "geometry": { "type": "Polygon", "coordinates": [ [ [ 2.6743259, 50.3892395 ], [ 2.6976584, 50.384098 ], [ 2.7144232, 50.383672 ], [ 2.7294515, 50.387256 ], [ 2.7338377, 50.3924719 ], [ 2.7269689, 50.3956654 ], [ 2.7259895, 50.402333499999983 ], [ 2.7023055, 50.406318499999983 ], [ 2.680926, 50.406957299999988 ], [ 2.6730449, 50.4132471 ], [ 2.6650025, 50.411764499999983 ], [ 2.6644772, 50.40507969999998 ], [ 2.6706809, 50.400764399999986 ], [ 2.666537, 50.394272 ], [ 2.6743259, 50.3892395 ] ] ] } },
{ "type": "Feature", "properties": { "name": "Ablain-Saint-Nazaire", "feature_type": "circle", "metric_roundness": 44.69, "metric_rectangularity": 73.95, "metric_mobile_fit": 6.75, "metric_aspect_ratio": 1.495, "metric_area_km2": 24.63 }, "geometry": { "type": "Polygon", "coordinates": [ [ [ 2.736364480783927, 50.401114649482366 ], [ 2.736312900087404, 50.39985907268067 ], [ 2.736158299376939, 50.398606904204122 ], [ 2.735901102402333, 50.39736157656759 ], [ 2.735542014122617, 50.396126503802904 ], [ 2.735082018773805, 50.394905072093955 ], [ 2.734522377171173, 50.393700630485043 ], [ 2.733864623253455, 50.392516481688489 ], [ 2.733110559878419, 50.391355873016465 ], [ 2.732262253881363, 50.390221987462425 ], [ 2.731322030410058, 50.389117934956502 ], [ 2.730292466551685, 50.388046743819125 ], [ 2.729176384269217, 50.387011352436708 ], [ 2.727976842666612, 50.386014601182175 ], [ 2.726697129604022, 50.385059224603019 ], [ 2.725340752686002, 50.384147843898475 ], [ 2.723911429647402, 50.383282959706754 ], [ 2.722413078163321, 50.38246694522239 ], [ 2.720849805111027, 50.381702039662898 ], [ 2.719225895313294, 50.380990342102976 ], [ 2.717545799794002, 50.380333805693503 ], [ 2.715814123578188, 50.379734232281344 ], [ 2.71403561306999, 50.379193267445103 ], [ 2.71221514304309, 50.378712395960768 ], [ 2.710357703279292, 50.378292937709773 ], [ 2.70846838489188, 50.37793604404105 ], [ 2.706552366371228, 50.377642694597299 ], [ 2.70461489939092, 50.377413694614262 ], [ 2.702661294413279, 50.377249672700593 ], [ 2.700696906133754, 50.377151079104721 ], [ 2.698727118804077, 50.377118184473254 ], [ 2.696757331474399, 50.377151079104721 ], [ 2.694792943194875, 50.377249672700593 ], [ 2.692839338217234, 50.377413694614262 ], [ 2.690901871236926, 50.377642694597299 ], [ 2.688985852716274, 50.37793604404105 ], [ 2.687096534328862, 50.378292937709773 ], [ 2.685239094565064, 50.378712395960768 ], [ 2.683418624538164, 50.379193267445103 ], [ 2.681640114029966, 50.379734232281344 ], [ 2.679908437814152, 50.380333805693503 ], [ 2.67822834229486, 50.380990342102976 ], [ 2.676604432497127, 50.381702039662898 ], [ 2.675041159444833, 50.38246694522239 ], [ 2.673542807960752, 50.383282959706754 ], [ 2.672113484922152, 50.384147843898475 ], [ 2.670757108004131, 50.385059224603019 ], [ 2.669477394941543, 50.386014601182175 ], [ 2.668277853338937, 50.387011352436708 ], [ 2.667161771056469, 50.388046743819125 ], [ 2.666132207198096, 50.389117934956502 ], [ 2.665191983726791, 50.390221987462425 ], [ 2.664343677729735, 50.391355873016465 ], [ 2.663589614354699, 50.392516481688489 ], [ 2.662931860436981, 50.393700630485043 ], [ 2.66237221883435, 50.394905072093955 ], [ 2.661912223485536, 50.396126503802904 ], [ 2.66155313520582, 50.39736157656759 ], [ 2.661295938231214, 50.398606904204122 ], [ 2.66114133752075, 50.39985907268067 ], [ 2.661089756824227, 50.401114649482366 ], [ 2.66114133752075, 50.40237019302414 ], [ 2.661295938231214, 50.4036222620853 ], [ 2.66155313520582, 50.404867425240205 ], [ 2.661912223485536, 50.406102270259112 ], [ 2.66237221883435, 50.407323413453362 ], [ 2.662931860436981, 50.408527508939699 ], [ 2.663589614354699, 50.409711257797987 ], [ 2.664343677729735, 50.410871417097844 ], [ 2.665191983726791, 50.412004808769247 ], [ 2.666132207198096, 50.413108328293148 ], [ 2.667161771056469, 50.414178953188561 ], [ 2.668277853338937, 50.415213751272965 ], [ 2.669477394941542, 50.416209888673727 ], [ 2.670757108004131, 50.41716463756886 ], [ 2.672113484922152, 50.41807538363615 ], [ 2.673542807960752, 50.418939633190625 ], [ 2.675041159444833, 50.419755019990966 ], [ 2.676604432497127, 50.420519311696701 ], [ 2.67822834229486, 50.421230415958632 ], [ 2.679908437814152, 50.421886386126175 ], [ 2.681640114029966, 50.422485426556349 ], [ 2.683418624538164, 50.42302589750998 ], [ 2.685239094565064, 50.423506319622184 ], [ 2.687096534328862, 50.423925377934943 ], [ 2.688985852716274, 50.424281925481118 ], [ 2.690901871236926, 50.424574986410192 ], [ 2.692839338217234, 50.424803758647485 ], [ 2.694792943194875, 50.424967616079535 ], [ 2.696757331474399, 50.425066110260026 ], [ 2.698727118804077, 50.42509897163157 ], [ 2.700696906133754, 50.425066110260026 ], [ 2.702661294413279, 50.424967616079535 ], [ 2.70461489939092, 50.424803758647485 ], [ 2.706552366371228, 50.424574986410192 ], [ 2.70846838489188, 50.424281925481118 ], [ 2.710357703279292, 50.423925377934943 ], [ 2.71221514304309, 50.423506319622184 ], [ 2.714035613069989, 50.42302589750998 ], [ 2.715814123578188, 50.422485426556349 ], [ 2.717545799794002, 50.421886386126175 ], [ 2.719225895313294, 50.421230415958632 ], [ 2.720849805111027, 50.420519311696701 ], [ 2.722413078163321, 50.419755019990966 ], [ 2.723911429647402, 50.418939633190625 ], [ 2.725340752686002, 50.41807538363615 ], [ 2.726697129604022, 50.41716463756886 ], [ 2.727976842666611, 50.416209888673727 ], [ 2.729176384269217, 50.415213751272965 ], [ 2.730292466551685, 50.414178953188561 ], [ 2.731322030410058, 50.413108328293148 ], [ 2.732262253881363, 50.412004808769247 ], [ 2.733110559878419, 50.410871417097844 ], [ 2.733864623253455, 50.409711257797987 ], [ 2.734522377171173, 50.408527508939699 ], [ 2.735082018773805, 50.407323413453362 ], [ 2.735542014122617, 50.406102270259112 ], [ 2.735901102402333, 50.404867425240205 ], [ 2.736158299376939, 50.4036222620853 ], [ 2.736312900087404, 50.40237019302414 ], [ 2.736364480783927, 50.401114649482366 ] ] ] } },
{ "type": "Feature", "properties": { "name": "Ablain-Saint-Nazaire", "feature_type": "mrr", "metric_roundness": 44.69, "metric_rectangularity": 73.95, "metric_mobile_fit": 6.75, "metric_aspect_ratio": 1.495, "metric_area_km2": 24.63 }, "geometry": { "type": "Polygon", "coordinates": [ [ [ 2.666445374583415, 50.414607300504635 ], [ 2.737624202384097, 50.399934873808107 ], [ 2.726565700972716, 50.378135914138127 ], [ 2.655386873172034, 50.392815088343369 ], [ 2.666445374583415, 50.414607300504635 ] ] ] } }
]
}
