{
"type": "FeatureCollection",
"name": "abra",
"crs": { "type": "name", "properties": { "name": "urn:ogc:def:crs:OGC:1.3:CRS84" } },
"features": [
{ "type": "Feature", "properties": { "name": "Abrã", "metric_roundness": 38.94, "metric_rectangularity": 68.48, "metric_mobile_fit": 91.86, "metric_aspect_ratio": 0.481, "metric_area_km2": 36.96 }, "geometry": { "type": "Polygon", "coordinates": [ [ [ -8.7568529, 39.4150216 ], [ -8.7562306, 39.422836399999987 ], [ -8.74915, 39.4251304 ], [ -8.7421995, 39.4347335 ], [ -8.7430266, 39.447674 ], [ -8.748992, 39.4590345 ], [ -8.7593815, 39.4757415 ], [ -8.788944, 39.479118 ], [ -8.7875853, 39.469260899999981 ], [ -8.7749254, 39.456483799999987 ], [ -8.7868365, 39.4412801 ], [ -8.7862046, 39.4230155 ], [ -8.7712724, 39.404075 ], [ -8.763885, 39.406075 ], [ -8.7568529, 39.4150216 ] ] ] } }
]
}
