{
"type": "FeatureCollection",
"name": "czechowice_dziedzice",
"crs": { "type": "name", "properties": { "name": "urn:ogc:def:crs:OGC:1.3:CRS84" } },
"features": [
{ "type": "Feature", "properties": { "name": "Czechowice-Dziedzice", "feature_type": "entity", "metric_roundness": 55.08, "metric_rectangularity": 67.42, "metric_mobile_fit": 30.55, "metric_aspect_ratio": 1.257, "metric_area_km2": 159.73 }, "geometry": { "type": "Polygon", "coordinates": [ [ [ 18.8854048, 49.905021399999988 ], [ 18.8818495, 49.889713499999978 ], [ 18.8893448, 49.888683499999985 ], [ 18.8918043, 49.8837913 ], [ 18.8930405, 49.879521799999985 ], [ 18.9005302, 49.8736034 ], [ 18.919978, 49.8681285 ], [ 18.9259743, 49.869386899999981 ], [ 18.931187, 49.8750993 ], [ 18.9569083, 49.8657505 ], [ 18.9713815, 49.8716106 ], [ 18.9861596, 49.871546 ], [ 18.9992166, 49.863452 ], [ 19.010414, 49.863158 ], [ 19.0170784, 49.8698729 ], [ 19.0403486, 49.868475 ], [ 19.0371285, 49.882759 ], [ 19.030878, 49.8910308 ], [ 19.0308812, 49.9001349 ], [ 19.0275898, 49.905813 ], [ 19.032694, 49.9126649 ], [ 19.033323, 49.9208159 ], [ 19.01485, 49.9443725 ], [ 19.0016915, 49.941408499999987 ], [ 18.9872432, 49.934208199999979 ], [ 18.9743059, 49.9233025 ], [ 18.9525892, 49.919492 ], [ 18.941983, 49.9209905 ], [ 18.9293692, 49.926958199999987 ], [ 18.914289, 49.9165914 ], [ 18.8915577, 49.9214595 ], [ 18.8888671, 49.9186354 ], [ 18.8905655, 49.911949 ], [ 18.8854048, 49.905021399999988 ] ] ] } },
{ "type": "Feature", "properties": { "name": "Czechowice-Dziedzice", "feature_type": "circle", "metric_roundness": 55.08, "metric_rectangularity": 67.42, "metric_mobile_fit": 30.55, "metric_aspect_ratio": 1.257, "metric_area_km2": 159.73 }, "geometry": { "type": "Polygon", "coordinates": [ [ [ 19.05353486408994, 49.898022290113879 ], [ 19.053416555733566, 49.895111923575826 ], [ 19.053061954939412, 49.892209359333144 ], [ 19.052472033643607, 49.889322555264876 ], [ 19.051648408779428, 49.88645942746323 ], [ 19.050593337845374, 49.883627828497147 ], [ 19.049309712717537, 49.880835525834883 ], [ 19.047801051723162, 49.878090180485458 ], [ 19.046071489997175, 49.875399325918224 ], [ 19.044125768148053, 49.872770347319189 ], [ 19.041969219264132, 49.870210461241989 ], [ 19.039607754296004, 49.867726695710616 ], [ 19.037047845855003, 49.865325870829402 ], [ 19.034296510472224, 49.863014579955184 ], [ 19.031361289366714, 49.860799171484338 ], [ 19.028250227775501, 49.858685731306522 ], [ 19.024971852902155, 49.856680065974523 ], [ 19.02153515054432, 49.85478768663809 ], [ 19.017949540464294, 49.853013793787468 ], [ 19.014224850570063, 49.851363262850086 ], [ 19.010371289977723, 49.849840630681484 ], [ 19.006399421029005, 49.848450082989061 ], [ 19.002320130340621, 49.847195442724846 ], [ 18.998144598964789, 49.846080159480337 ], [ 18.993884271742782, 49.845107299914055 ], [ 18.989550825935378, 49.844279539239224 ], [ 18.985156139216322, 49.843599153796141 ], [ 18.980712257116444, 49.843068014730648 ], [ 18.976231360007684, 49.842687582796877 ], [ 18.971725729717555, 49.842458904299207 ], [ 18.967207715865502, 49.842382608185453 ], [ 18.962689702013453, 49.842458904299207 ], [ 18.958184071723323, 49.842687582796877 ], [ 18.953703174614564, 49.843068014730648 ], [ 18.949259292514686, 49.843599153796141 ], [ 18.94486460579563, 49.844279539239224 ], [ 18.940531159988225, 49.845107299914055 ], [ 18.936270832766219, 49.846080159480337 ], [ 18.93209530139039, 49.847195442724846 ], [ 18.928016010702002, 49.848450082989061 ], [ 18.924044141753285, 49.849840630681484 ], [ 18.920190581160945, 49.851363262850086 ], [ 18.916465891266714, 49.853013793787468 ], [ 18.912880281186688, 49.85478768663809 ], [ 18.909443578828853, 49.856680065974523 ], [ 18.906165203955506, 49.858685731306522 ], [ 18.903054142364294, 49.860799171484338 ], [ 18.900118921258784, 49.863014579955184 ], [ 18.897367585876008, 49.865325870829402 ], [ 18.894807677435004, 49.867726695710616 ], [ 18.892446212466876, 49.870210461241989 ], [ 18.890289663582955, 49.872770347319189 ], [ 18.888343941733833, 49.875399325918224 ], [ 18.886614380007845, 49.878090180485458 ], [ 18.88510571901347, 49.880835525834883 ], [ 18.883822093885634, 49.883627828497147 ], [ 18.88276702295158, 49.88645942746323 ], [ 18.881943398087401, 49.889322555264876 ], [ 18.881353476791595, 49.892209359333144 ], [ 18.880998875997442, 49.895111923575826 ], [ 18.880880567641068, 49.898022290113879 ], [ 18.880998875997442, 49.900932481116925 ], [ 18.881353476791595, 49.90383452067784 ], [ 18.881943398087401, 49.906720456666079 ], [ 18.88276702295158, 49.909582382500304 ], [ 18.883822093885634, 49.912412458780601 ], [ 18.88510571901347, 49.915202934721599 ], [ 18.886614380007845, 49.917946169328218 ], [ 18.888343941733833, 49.920634652256865 ], [ 18.890289663582955, 49.923261024305724 ], [ 18.892446212466876, 49.925818097479059 ], [ 18.894807677435004, 49.928298874571695 ], [ 18.897367585876008, 49.930696568221244 ], [ 18.900118921258784, 49.933004619377314 ], [ 18.903054142364294, 49.935216715138566 ], [ 18.906165203955506, 49.937326805910089 ], [ 18.909443578828853, 49.939329121835904 ], [ 18.912880281186688, 49.941218188463047 ], [ 18.916465891266714, 49.942988841595998 ], [ 18.920190581160945, 49.944636241302341 ], [ 18.924044141753285, 49.946155885032965 ], [ 18.928016010702002, 49.94754361982239 ], [ 18.93209530139039, 49.948795653537353 ], [ 18.936270832766219, 49.949908565144213 ], [ 18.940531159988225, 49.95087931396862 ], [ 18.94486460579563, 49.951705247923037 ], [ 18.949259292514686, 49.952384110681109 ], [ 18.953703174614564, 49.952914047779807 ], [ 18.958184071723323, 49.953293611634024 ], [ 18.962689702013453, 49.953521765450205 ], [ 18.967207715865502, 49.953597886029073 ], [ 18.971725729717555, 49.953521765450205 ], [ 18.976231360007684, 49.953293611634024 ], [ 18.980712257116444, 49.952914047779807 ], [ 18.985156139216322, 49.952384110681109 ], [ 18.989550825935378, 49.951705247923037 ], [ 18.993884271742782, 49.95087931396862 ], [ 18.998144598964789, 49.949908565144213 ], [ 19.002320130340621, 49.948795653537353 ], [ 19.006399421029005, 49.94754361982239 ], [ 19.010371289977723, 49.946155885032965 ], [ 19.014224850570063, 49.944636241302341 ], [ 19.017949540464294, 49.942988841595998 ], [ 19.02153515054432, 49.941218188463047 ], [ 19.024971852902155, 49.939329121835904 ], [ 19.028250227775501, 49.937326805910089 ], [ 19.031361289366714, 49.935216715138566 ], [ 19.034296510472224, 49.933004619377314 ], [ 19.037047845855003, 49.930696568221244 ], [ 19.039607754296004, 49.928298874571695 ], [ 19.041969219264132, 49.925818097479059 ], [ 19.044125768148053, 49.923261024305724 ], [ 19.046071489997175, 49.920634652256865 ], [ 19.047801051723162, 49.917946169328218 ], [ 19.049309712717537, 49.915202934721599 ], [ 19.050593337845374, 49.912412458780601 ], [ 19.051648408779428, 49.909582382500304 ], [ 19.052472033643607, 49.906720456666079 ], [ 19.053061954939412, 49.90383452067784 ], [ 19.053416555733566, 49.900932481116925 ], [ 19.05353486408994, 49.898022290113879 ] ] ] } },
{ "type": "Feature", "properties": { "name": "Czechowice-Dziedzice", "feature_type": "mrr", "metric_roundness": 55.08, "metric_rectangularity": 67.42, "metric_mobile_fit": 30.55, "metric_aspect_ratio": 1.257, "metric_area_km2": 159.73 }, "geometry": { "type": "Polygon", "coordinates": [ [ [ 18.869460224560097, 49.917351692227179 ], [ 19.022148600449981, 49.945728554330408 ], [ 19.055516916201725, 49.871297612014693 ], [ 18.902828540311845, 49.842876935358454 ], [ 18.869460224560097, 49.917351692227179 ] ] ] } }
]
}
