{
"type": "FeatureCollection",
"name": "willems",
"crs": { "type": "name", "properties": { "name": "urn:ogc:def:crs:OGC:1.3:CRS84" } },
"features": [
{ "type": "Feature", "properties": { "name": "Willems", "feature_type": "entity", "metric_roundness": 47.79, "metric_rectangularity": 65.0, "metric_mobile_fit": -8.56, "metric_aspect_ratio": 1.648, "metric_area_km2": 14.33 }, "geometry": { "type": "Polygon", "coordinates": [ [ [ 3.2037655, 50.6229595 ], [ 3.236715, 50.6216942 ], [ 3.258669, 50.628155 ], [ 3.250622, 50.6361275 ], [ 3.2492783, 50.6342886 ], [ 3.2429372, 50.6365287 ], [ 3.2413473, 50.641486899999983 ], [ 3.2374634, 50.6428249 ], [ 3.2233232, 50.637127199999981 ], [ 3.2144256, 50.6392484 ], [ 3.2072935, 50.6344445 ], [ 3.206748, 50.62683149999998 ], [ 3.2039265, 50.623977 ], [ 3.2037655, 50.6229595 ] ] ] } },
{ "type": "Feature", "properties": { "name": "Willems", "feature_type": "circle", "metric_roundness": 47.79, "metric_rectangularity": 65.0, "metric_mobile_fit": -8.56, "metric_aspect_ratio": 1.648, "metric_area_km2": 14.33 }, "geometry": { "type": "Polygon", "coordinates": [ [ [ 3.258945536196991, 50.625675712685066 ], [ 3.258907497393309, 50.624754169739944 ], [ 3.25879348524398, 50.623835134693223 ], [ 3.25860381224838, 50.622921126777754 ], [ 3.258338998287006, 50.622014651592465 ], [ 3.257999769196519, 50.621118194230704 ], [ 3.257587054780276, 50.620234212463274 ], [ 3.257101986259806, 50.619365129994691 ], [ 3.256545893174206, 50.618513329811627 ], [ 3.25592029973597, 50.617681147641463 ], [ 3.255226920653228, 50.616870865539269 ], [ 3.25446765642985, 50.6160847056208 ], [ 3.253644588156295, 50.615324823958773 ], [ 3.252759971805491, 50.614593304659401 ], [ 3.251816232049367, 50.613892154135478 ], [ 3.250815955612997, 50.613223295592022 ], [ 3.249761884184561, 50.612588563739443 ], [ 3.248656906900581, 50.61198969974928 ], [ 3.247504052426983, 50.611428346466298 ], [ 3.246306480657748, 50.610906043890139 ], [ 3.245067474053851, 50.610424224939337 ], [ 3.243790428646272, 50.609984211509286 ], [ 3.242478844727708, 50.609587210835166 ], [ 3.241136317258509, 50.60923431216996 ], [ 3.239766526013154, 50.60892648378681 ], [ 3.238373225494232, 50.608664570314104 ], [ 3.236960234641619, 50.60844929041059 ], [ 3.235531426365025, 50.608281234787135 ], [ 3.234090716928621, 50.608160864580569 ], [ 3.232642055216831, 50.608088510084187 ], [ 3.23118941191071, 50.608064369838409 ], [ 3.22973676860459, 50.608088510084187 ], [ 3.228288106892799, 50.608160864580569 ], [ 3.226847397456396, 50.608281234787135 ], [ 3.225418589179802, 50.60844929041059 ], [ 3.224005598327188, 50.608664570314104 ], [ 3.222612297808266, 50.60892648378681 ], [ 3.221242506562911, 50.60923431216996 ], [ 3.219899979093714, 50.609587210835166 ], [ 3.218588395175149, 50.609984211509286 ], [ 3.21731134976757, 50.610424224939337 ], [ 3.216072343163673, 50.610906043890139 ], [ 3.214874771394437, 50.611428346466298 ], [ 3.21372191692084, 50.61198969974928 ], [ 3.21261693963686, 50.612588563739443 ], [ 3.211562868208424, 50.613223295592022 ], [ 3.210562591772053, 50.613892154135478 ], [ 3.209618852015929, 50.614593304659401 ], [ 3.208734235665126, 50.615324823958773 ], [ 3.207911167391571, 50.6160847056208 ], [ 3.207151903168192, 50.616870865539269 ], [ 3.206458524085451, 50.617681147641463 ], [ 3.205832930647214, 50.618513329811627 ], [ 3.205276837561615, 50.619365129994691 ], [ 3.204791769041144, 50.620234212463274 ], [ 3.204379054624902, 50.621118194230704 ], [ 3.204039825534415, 50.622014651592465 ], [ 3.203775011573041, 50.622921126777754 ], [ 3.203585338577441, 50.623835134693223 ], [ 3.203471326428111, 50.624754169739944 ], [ 3.203433287624429, 50.625675712685066 ], [ 3.203471326428111, 50.626597237569378 ], [ 3.203585338577441, 50.627516218631534 ], [ 3.203775011573041, 50.628430137230175 ], [ 3.204039825534415, 50.629336488744933 ], [ 3.204379054624902, 50.630232789437414 ], [ 3.204791769041144, 50.631116583253323 ], [ 3.205276837561615, 50.631985448547368 ], [ 3.205832930647214, 50.632837004712314 ], [ 3.206458524085451, 50.633668918694276 ], [ 3.207151903168192, 50.634478911376505 ], [ 3.207911167391571, 50.635264763814199 ], [ 3.208734235665126, 50.636024323303481 ], [ 3.209618852015929, 50.636755509267914 ], [ 3.210562591772053, 50.637456318946761 ], [ 3.211562868208424, 50.638124832869423 ], [ 3.21261693963686, 50.638759220101214 ], [ 3.21372191692084, 50.639357743246315 ], [ 3.214874771394437, 50.639918763194352 ], [ 3.216072343163673, 50.640440743597765 ], [ 3.21731134976757, 50.640922255067792 ], [ 3.218588395175149, 50.641361979077892 ], [ 3.219899979093714, 50.641758711563824 ], [ 3.221242506562911, 50.642111366210919 ], [ 3.222612297808266, 50.642418977419545 ], [ 3.224005598327188, 50.642680702940737 ], [ 3.225418589179802, 50.642895826174978 ], [ 3.226847397456396, 50.643063758127909 ], [ 3.228288106892799, 50.643184039017648 ], [ 3.22973676860459, 50.643256339529472 ], [ 3.23118941191071, 50.643280461714433 ], [ 3.232642055216831, 50.643256339529472 ], [ 3.234090716928621, 50.643184039017648 ], [ 3.235531426365025, 50.643063758127909 ], [ 3.236960234641618, 50.642895826174978 ], [ 3.238373225494232, 50.642680702940737 ], [ 3.239766526013154, 50.642418977419545 ], [ 3.241136317258509, 50.642111366210919 ], [ 3.242478844727707, 50.641758711563824 ], [ 3.243790428646272, 50.641361979077892 ], [ 3.245067474053851, 50.640922255067792 ], [ 3.246306480657748, 50.640440743597765 ], [ 3.247504052426983, 50.639918763194352 ], [ 3.248656906900581, 50.639357743246315 ], [ 3.249761884184561, 50.638759220101214 ], [ 3.250815955612997, 50.638124832869423 ], [ 3.251816232049367, 50.637456318946761 ], [ 3.252759971805491, 50.636755509267914 ], [ 3.253644588156295, 50.636024323303481 ], [ 3.25446765642985, 50.635264763814199 ], [ 3.255226920653228, 50.634478911376505 ], [ 3.25592029973597, 50.633668918694276 ], [ 3.256545893174206, 50.632837004712314 ], [ 3.257101986259806, 50.631985448547368 ], [ 3.257587054780276, 50.631116583253323 ], [ 3.257999769196519, 50.630232789437414 ], [ 3.258338998287006, 50.629336488744933 ], [ 3.25860381224838, 50.628430137230175 ], [ 3.25879348524398, 50.627516218631534 ], [ 3.258907497393309, 50.626597237569378 ], [ 3.258945536196991, 50.625675712685066 ] ] ] } },
{ "type": "Feature", "properties": { "name": "Willems", "feature_type": "mrr", "metric_roundness": 47.79, "metric_rectangularity": 65.0, "metric_mobile_fit": -8.56, "metric_aspect_ratio": 1.648, "metric_area_km2": 14.33 }, "geometry": { "type": "Polygon", "coordinates": [ [ [ 3.19843729693114, 50.63676613848363 ], [ 3.252128174467666, 50.645101389397013 ], [ 3.259779889116666, 50.625276242927427 ], [ 3.20608901158014, 50.616937475904457 ], [ 3.19843729693114, 50.63676613848363 ] ] ] } }
]
}
