{
"type": "FeatureCollection",
"name": "willebroek",
"crs": { "type": "name", "properties": { "name": "urn:ogc:def:crs:OGC:1.3:CRS84" } },
"features": [
{ "type": "Feature", "properties": { "name": "Willebroek", "feature_type": "entity", "metric_roundness": 47.04, "metric_rectangularity": 63.95, "metric_mobile_fit": 62.14, "metric_aspect_ratio": 0.941, "metric_area_km2": 68.76 }, "geometry": { "type": "Polygon", "coordinates": [ [ [ 4.4123963, 51.0789567 ], [ 4.3999441, 51.075058899999988 ], [ 4.3854805, 51.080414 ], [ 4.3821865, 51.081547 ], [ 4.3729965, 51.0821335 ], [ 4.3608925, 51.085145 ], [ 4.3587095, 51.082626499999989 ], [ 4.349635, 51.077495499999984 ], [ 4.346826, 51.074802499999983 ], [ 4.3228185, 51.026736499999984 ], [ 4.3460805, 51.026345 ], [ 4.3477398, 51.0235512 ], [ 4.3429598, 51.017918199999983 ], [ 4.3567955, 51.016759 ], [ 4.3743874, 51.0300869 ], [ 4.381143, 51.0293925 ], [ 4.3747481, 51.036120499999988 ], [ 4.3773712, 51.0454963 ], [ 4.3892455, 51.0430389 ], [ 4.3990275, 51.047671199999975 ], [ 4.3931035, 51.0529885 ], [ 4.4014952, 51.06071 ], [ 4.4202896, 51.0609008 ], [ 4.4251945, 51.0667624 ], [ 4.4197, 51.073932499999984 ], [ 4.4123963, 51.0789567 ] ] ] } },
{ "type": "Feature", "properties": { "name": "Willebroek", "feature_type": "circle", "metric_roundness": 47.04, "metric_rectangularity": 63.95, "metric_mobile_fit": 62.14, "metric_aspect_ratio": 0.941, "metric_area_km2": 68.76 }, "geometry": { "type": "Polygon", "coordinates": [ [ [ 4.432258680695312, 51.050572162974632 ], [ 4.432174691743615, 51.048555832313134 ], [ 4.431922955096405, 51.046544940852854 ], [ 4.431504160746335, 51.04454500138398 ], [ 4.430919456579605, 51.042561497383502 ], [ 4.430170445229696, 51.040599867965859 ], [ 4.429259179684655, 51.038665492947729 ], [ 4.428188157659999, 51.036763678067999 ], [ 4.426960314752653, 51.034899640404099 ], [ 4.425579016394678, 51.033078494024807 ], [ 4.424048048628861, 51.031305235919632 ], [ 4.422371607731431, 51.029584732243698 ], [ 4.420554288710362, 51.027921704916736 ], [ 4.418601072710768, 51.026320718613228 ], [ 4.416517313361941, 51.024786168180661 ], [ 4.414308722103412, 51.023322266520481 ], [ 4.411981352530305, 51.021933032966317 ], [ 4.409541583800847, 51.020622282191844 ], [ 4.406996103151537, 51.019393613679675 ], [ 4.404351887567904, 51.018250401780755 ], [ 4.401616184661062, 51.017195786392648 ], [ 4.398796492802524, 51.016232664282754 ], [ 4.395900540571681, 51.015363681081176 ], [ 4.3929362655723, 51.014591223965908 ], [ 4.389911792676112, 51.013917415061066 ], [ 4.386835411753098, 51.01334410556683 ], [ 4.383715554949527, 51.012872870638013 ], [ 4.380560773576042, 51.012505005025425 ], [ 4.377379714669103, 51.01224151949279 ], [ 4.374181097290059, 51.0120831380193 ], [ 4.370973688626813, 51.012030295795626 ], [ 4.367766279963567, 51.0120831380193 ], [ 4.364567662584522, 51.01224151949279 ], [ 4.361386603677582, 51.012505005025425 ], [ 4.358231822304099, 51.012872870638013 ], [ 4.355111965500528, 51.01334410556683 ], [ 4.352035584577512, 51.013917415061066 ], [ 4.349011111681325, 51.014591223965908 ], [ 4.346046836681944, 51.015363681081176 ], [ 4.3431508844511, 51.016232664282754 ], [ 4.340331192592563, 51.017195786392648 ], [ 4.337595489685722, 51.018250401780755 ], [ 4.334951274102088, 51.019393613679675 ], [ 4.332405793452779, 51.020622282191844 ], [ 4.329966024723321, 51.021933032966317 ], [ 4.327638655150214, 51.023322266520481 ], [ 4.325430063891685, 51.024786168180661 ], [ 4.323346304542857, 51.026320718613228 ], [ 4.321393088543264, 51.027921704916736 ], [ 4.319575769522194, 51.029584732243698 ], [ 4.317899328624765, 51.031305235919632 ], [ 4.316368360858948, 51.033078494024807 ], [ 4.314987062500973, 51.034899640404099 ], [ 4.313759219593626, 51.036763678067999 ], [ 4.312688197568971, 51.038665492947729 ], [ 4.311776932023929, 51.040599867965859 ], [ 4.311027920674021, 51.042561497383502 ], [ 4.310443216507291, 51.04454500138398 ], [ 4.31002442215722, 51.046544940852854 ], [ 4.30977268551001, 51.048555832313134 ], [ 4.309688696558315, 51.050572162974632 ], [ 4.30977268551001, 51.052588405855907 ], [ 4.31002442215722, 51.054599034937247 ], [ 4.310443216507291, 51.056598540303142 ], [ 4.311027920674021, 51.05858144323274 ], [ 4.311776932023929, 51.060542311197047 ], [ 4.312688197568971, 51.062475772722053 ], [ 4.313759219593626, 51.064376532077262 ], [ 4.314987062500973, 51.066239383749831 ], [ 4.316368360858948, 51.068059226664928 ], [ 4.317899328624765, 51.069831078114092 ], [ 4.319575769522194, 51.071550087353792 ], [ 4.321393088543264, 51.073211548837705 ], [ 4.323346304542856, 51.074810915046989 ], [ 4.325430063891685, 51.07634380888431 ], [ 4.327638655150214, 51.077806035598208 ], [ 4.329966024723321, 51.079193594206117 ], [ 4.332405793452779, 51.080502688385401 ], [ 4.334951274102088, 51.081729736803489 ], [ 4.337595489685722, 51.082871382859487 ], [ 4.340331192592563, 51.083924503811545 ], [ 4.3431508844511, 51.084886219265627 ], [ 4.346046836681944, 51.08575389900323 ], [ 4.349011111681325, 51.086525170127366 ], [ 4.352035584577512, 51.087197923507922 ], [ 4.355111965500528, 51.087770319509211 ], [ 4.358231822304099, 51.088240792984877 ], [ 4.361386603677582, 51.088608057526741 ], [ 4.364567662584522, 51.088871108956511 ], [ 4.367766279963567, 51.089029228051125 ], [ 4.370973688626813, 51.089081982494598 ], [ 4.374181097290059, 51.089029228051125 ], [ 4.377379714669103, 51.088871108956511 ], [ 4.380560773576042, 51.088608057526741 ], [ 4.383715554949527, 51.088240792984877 ], [ 4.386835411753098, 51.087770319509211 ], [ 4.389911792676112, 51.087197923507922 ], [ 4.3929362655723, 51.086525170127366 ], [ 4.395900540571681, 51.08575389900323 ], [ 4.398796492802524, 51.084886219265627 ], [ 4.401616184661062, 51.083924503811545 ], [ 4.404351887567904, 51.082871382859487 ], [ 4.406996103151537, 51.081729736803489 ], [ 4.409541583800847, 51.080502688385401 ], [ 4.411981352530305, 51.079193594206117 ], [ 4.414308722103412, 51.077806035598208 ], [ 4.416517313361941, 51.07634380888431 ], [ 4.418601072710768, 51.074810915046989 ], [ 4.420554288710362, 51.073211548837705 ], [ 4.422371607731431, 51.071550087353792 ], [ 4.42404804862886, 51.069831078114092 ], [ 4.425579016394678, 51.068059226664928 ], [ 4.426960314752653, 51.066239383749831 ], [ 4.428188157659999, 51.064376532077262 ], [ 4.429259179684655, 51.062475772722053 ], [ 4.430170445229696, 51.060542311197047 ], [ 4.430919456579605, 51.05858144323274 ], [ 4.431504160746335, 51.056598540303142 ], [ 4.431922955096405, 51.054599034937247 ], [ 4.432174691743615, 51.052588405855907 ], [ 4.432258680695312, 51.050572162974632 ] ] ] } },
{ "type": "Feature", "properties": { "name": "Willebroek", "feature_type": "mrr", "metric_roundness": 47.04, "metric_rectangularity": 63.95, "metric_mobile_fit": 62.14, "metric_aspect_ratio": 0.941, "metric_area_km2": 68.76 }, "geometry": { "type": "Polygon", "coordinates": [ [ [ 4.431238239806532, 51.069709322683906 ], [ 4.356992866424676, 51.009943880787077 ], [ 4.300300639122052, 51.037798017234643 ], [ 4.374546012503908, 51.097527544569033 ], [ 4.431238239806532, 51.069709322683906 ] ] ] } }
]
}
