{
"type": "FeatureCollection",
"name": "wimy",
"crs": { "type": "name", "properties": { "name": "urn:ogc:def:crs:OGC:1.3:CRS84" } },
"features": [
{ "type": "Feature", "properties": { "name": "Wimy", "metric_roundness": 45.59, "metric_rectangularity": 59.65, "metric_mobile_fit": 91.03, "metric_aspect_ratio": 0.652, "metric_area_km2": 29.4 }, "geometry": { "type": "Polygon", "coordinates": [ [ [ 3.9995505, 49.9239255 ], [ 4.0044068, 49.923870599999987 ], [ 4.0055446, 49.9310388 ], [ 4.0121592, 49.9327675 ], [ 4.0132581, 49.9365758 ], [ 4.023107, 49.9426295 ], [ 4.012096, 49.956138 ], [ 4.014972, 49.964985 ], [ 4.016529, 49.967837499999973 ], [ 4.020651, 49.969981 ], [ 4.0210215, 49.974429 ], [ 4.019974, 49.97288 ], [ 4.016376, 49.9739935 ], [ 4.0130355, 49.9716655 ], [ 4.0112535, 49.9682785 ], [ 4.003678, 49.969100499999975 ], [ 3.9988555, 49.96849349999998 ], [ 3.9846475, 49.963119 ], [ 3.977787, 49.958003 ], [ 3.9749635, 49.956784 ], [ 3.9733125, 49.9535195 ], [ 3.9718622, 49.943846099999973 ], [ 3.9795917, 49.9403286 ], [ 3.9807635, 49.9304845 ], [ 3.9995505, 49.9239255 ] ] ] } }
]
}
