{
"type": "FeatureCollection",
"name": "wintzenheim",
"crs": { "type": "name", "properties": { "name": "urn:ogc:def:crs:OGC:1.3:CRS84" } },
"features": [
{ "type": "Feature", "properties": { "name": "Wintzenheim", "feature_type": "entity", "metric_roundness": 31.36, "metric_rectangularity": 60.89, "metric_mobile_fit": 28.86, "metric_aspect_ratio": 1.274, "metric_area_km2": 42.15 }, "geometry": { "type": "Polygon", "coordinates": [ [ [ 7.228742, 48.059667499999989 ], [ 7.2270275, 48.058567499999988 ], [ 7.2285465, 48.0575585 ], [ 7.224799, 48.054832 ], [ 7.2313564, 48.041519099999974 ], [ 7.235565, 48.036947499999989 ], [ 7.23902, 48.037254 ], [ 7.242484, 48.036081499999987 ], [ 7.2548655, 48.041499499999986 ], [ 7.2600684, 48.0486803 ], [ 7.2734756, 48.0574782 ], [ 7.294108, 48.0587701 ], [ 7.3046343, 48.063443799999988 ], [ 7.323001, 48.0601075 ], [ 7.3248464, 48.063904899999976 ], [ 7.3163403, 48.072112099999984 ], [ 7.3229997, 48.0791105 ], [ 7.325001, 48.0879295 ], [ 7.3043925, 48.088649499999981 ], [ 7.3065159, 48.080651599999989 ], [ 7.3047785, 48.0734505 ], [ 7.2673531, 48.078349899999985 ], [ 7.250064, 48.074271499999966 ], [ 7.234017, 48.066519499999984 ], [ 7.228742, 48.059667499999989 ] ] ] } },
{ "type": "Feature", "properties": { "name": "Wintzenheim", "feature_type": "circle", "metric_roundness": 31.36, "metric_rectangularity": 60.89, "metric_mobile_fit": 28.86, "metric_aspect_ratio": 1.274, "metric_area_km2": 42.15 }, "geometry": { "type": "Polygon", "coordinates": [ [ [ 7.339058023900642, 48.062444811544047 ], [ 7.338977474773088, 48.060388985849393 ], [ 7.338736048169983, 48.05833871326594 ], [ 7.338334405824865, 48.05629961445571 ], [ 7.337773648611484, 48.054277280114015 ], [ 7.337055313526387, 48.052277255627409 ], [ 7.336181369476109, 48.050305025848921 ], [ 7.335154211880544, 48.048366000032388 ], [ 7.333976656107266, 48.04646549696767 ], [ 7.332651929754799, 48.044608730357737 ], [ 7.331183663805994, 48.04280079447841 ], [ 7.329575882675758, 48.041046650160403 ], [ 7.327832993180414, 48.039351111132845 ], [ 7.32595977245892, 48.037718830766281 ], [ 7.323961354879072, 48.036154289252146 ], [ 7.321843217964545, 48.034661781254769 ], [ 7.319611167381393, 48.033245404070144 ], [ 7.317271321025116, 48.03190904632509 ], [ 7.314830092251935, 48.030656377248256 ], [ 7.312294172300231, 48.029490836543303 ], [ 7.30967051195032, 48.028415624892645 ], [ 7.306966302472857, 48.027433695118752 ], [ 7.304188955918048, 48.026547744027681 ], [ 7.301346084799749, 48.025760204958161 ], [ 7.298445481230092, 48.025073241057036 ], [ 7.295495095561843, 48.024488739300331 ], [ 7.292503014597036, 48.024008305276745 ], [ 7.289477439421623, 48.023633258748333 ], [ 7.286426662926853, 48.023364630001147 ], [ 7.283359047079041, 48.023203156995912 ], [ 7.280283, 48.023149283327065 ], [ 7.277206952920959, 48.023203156995912 ], [ 7.274139337073146, 48.023364630001147 ], [ 7.271088560578376, 48.023633258748333 ], [ 7.268062985402963, 48.024008305276745 ], [ 7.265070904438158, 48.024488739300331 ], [ 7.262120518769907, 48.025073241057036 ], [ 7.259219915200251, 48.025760204958161 ], [ 7.256377044081952, 48.026547744027681 ], [ 7.253599697527143, 48.027433695118752 ], [ 7.250895488049678, 48.028415624892645 ], [ 7.248271827699768, 48.029490836543303 ], [ 7.245735907748065, 48.030656377248256 ], [ 7.243294678974883, 48.03190904632509 ], [ 7.240954832618606, 48.033245404070144 ], [ 7.238722782035453, 48.034661781254769 ], [ 7.236604645120928, 48.036154289252146 ], [ 7.234606227541078, 48.037718830766281 ], [ 7.232733006819585, 48.039351111132845 ], [ 7.230990117324242, 48.041046650160403 ], [ 7.229382336194005, 48.04280079447841 ], [ 7.227914070245201, 48.044608730357737 ], [ 7.226589343892733, 48.04646549696767 ], [ 7.225411788119454, 48.048366000032388 ], [ 7.22438463052389, 48.050305025848921 ], [ 7.223510686473612, 48.052277255627409 ], [ 7.222792351388514, 48.054277280114015 ], [ 7.222231594175135, 48.05629961445571 ], [ 7.221829951830017, 48.05833871326594 ], [ 7.221588525226911, 48.060388985849393 ], [ 7.221507976099358, 48.062444811544047 ], [ 7.221588525226911, 48.064500555137961 ], [ 7.221829951830017, 48.066550582318676 ], [ 7.222231594175135, 48.068589275112849 ], [ 7.222792351388514, 48.070611047273587 ], [ 7.223510686473612, 48.072610359573702 ], [ 7.22438463052389, 48.07458173496304 ], [ 7.225411788119454, 48.076519773548611 ], [ 7.226589343892733, 48.078419167356898 ], [ 7.227914070245201, 48.080274714838161 ], [ 7.229382336194005, 48.082081335073617 ], [ 7.230990117324242, 48.083834081647026 ], [ 7.232733006819585, 48.085528156143248 ], [ 7.234606227541078, 48.087158921237446 ], [ 7.236604645120928, 48.088721913339818 ], [ 7.238722782035453, 48.090212854761731 ], [ 7.240954832618606, 48.091627665370929 ], [ 7.243294678974883, 48.092962473704297 ], [ 7.245735907748065, 48.094213627508879 ], [ 7.248271827699768, 48.095377703682637 ], [ 7.250895488049678, 48.096451517588889 ], [ 7.253599697527143, 48.097432131719117 ], [ 7.256377044081952, 48.098316863681738 ], [ 7.259219915200251, 48.099103293495062 ], [ 7.262120518769907, 48.099789270165466 ], [ 7.265070904438157, 48.100372917533214 ], [ 7.268062985402963, 48.100852639370508 ], [ 7.271088560578376, 48.101227123718118 ], [ 7.274139337073146, 48.101495346449369 ], [ 7.277206952920959, 48.101656574051937 ], [ 7.280283, 48.101710365620043 ], [ 7.283359047079041, 48.101656574051937 ], [ 7.286426662926853, 48.101495346449369 ], [ 7.289477439421623, 48.101227123718118 ], [ 7.292503014597036, 48.100852639370508 ], [ 7.295495095561841, 48.100372917533214 ], [ 7.298445481230092, 48.099789270165466 ], [ 7.301346084799749, 48.099103293495062 ], [ 7.304188955918048, 48.098316863681738 ], [ 7.306966302472857, 48.097432131719117 ], [ 7.30967051195032, 48.096451517588889 ], [ 7.312294172300231, 48.095377703682637 ], [ 7.314830092251935, 48.094213627508879 ], [ 7.317271321025116, 48.092962473704297 ], [ 7.319611167381393, 48.091627665370929 ], [ 7.321843217964545, 48.090212854761731 ], [ 7.323961354879072, 48.088721913339818 ], [ 7.32595977245892, 48.087158921237446 ], [ 7.327832993180414, 48.085528156143248 ], [ 7.329575882675758, 48.083834081647026 ], [ 7.331183663805994, 48.082081335073617 ], [ 7.332651929754799, 48.080274714838161 ], [ 7.333976656107266, 48.078419167356898 ], [ 7.335154211880544, 48.076519773548611 ], [ 7.336181369476109, 48.07458173496304 ], [ 7.337055313526387, 48.072610359573702 ], [ 7.337773648611484, 48.070611047273587 ], [ 7.338334405824865, 48.068589275112849 ], [ 7.338736048169983, 48.066550582318676 ], [ 7.338977474773088, 48.064500555137961 ], [ 7.339058023900642, 48.062444811544047 ] ] ] } },
{ "type": "Feature", "properties": { "name": "Wintzenheim", "feature_type": "mrr", "metric_roundness": 31.36, "metric_rectangularity": 60.89, "metric_mobile_fit": 28.86, "metric_aspect_ratio": 1.274, "metric_area_km2": 42.15 }, "geometry": { "type": "Polygon", "coordinates": [ [ [ 7.340167003767981, 48.06522833000956 ], [ 7.236232074128531, 48.034215479651806 ], [ 7.216225401546076, 48.064178322163094 ], [ 7.320160331185527, 48.095173130139479 ], [ 7.340167003767981, 48.06522833000956 ] ] ] } }
]
}
