{
"type": "FeatureCollection",
"name": "winzer_m",
"crs": { "type": "name", "properties": { "name": "urn:ogc:def:crs:OGC:1.3:CRS84" } },
"features": [
{ "type": "Feature", "properties": { "name": "Winzer, M", "metric_roundness": 31.54, "metric_rectangularity": 48.0, "metric_mobile_fit": 9.57, "metric_aspect_ratio": 1.467, "metric_area_km2": 62.72 }, "geometry": { "type": "Polygon", "coordinates": [ [ [ 13.1054693, 48.740295599999989 ], [ 13.0975451, 48.738366299999988 ], [ 13.0774623, 48.7463747 ], [ 13.0689401, 48.7425582 ], [ 13.0714829, 48.7347264 ], [ 13.0696206, 48.732200899999981 ], [ 13.0486307, 48.736723499999989 ], [ 13.035507, 48.73495 ], [ 13.0193479, 48.727929 ], [ 13.017221, 48.720734799999988 ], [ 13.0297571, 48.7185342 ], [ 13.0521015, 48.7272705 ], [ 13.0678097, 48.717085399999988 ], [ 13.0828224, 48.7179577 ], [ 13.0997488, 48.708754299999981 ], [ 13.0993713, 48.701631499999984 ], [ 13.089169, 48.691152099999982 ], [ 13.0872095, 48.684411499999989 ], [ 13.1120575, 48.682526499999987 ], [ 13.1154208, 48.689530599999983 ], [ 13.1287981, 48.6897084 ], [ 13.139783, 48.6946469 ], [ 13.1404933, 48.699439399999982 ], [ 13.1465359, 48.7004352 ], [ 13.1472885, 48.705903 ], [ 13.156208, 48.702741 ], [ 13.1591586, 48.7094204 ], [ 13.1533628, 48.7143422 ], [ 13.1414473, 48.711393099999981 ], [ 13.1361771, 48.713864199999989 ], [ 13.135942, 48.7215045 ], [ 13.1255234, 48.7162861 ], [ 13.1110004, 48.7241394 ], [ 13.1242971, 48.729796499999985 ], [ 13.1156575, 48.737125499999976 ], [ 13.1054693, 48.740295599999989 ] ] ] } }
]
}
