{
"type": "FeatureCollection",
"name": "wissmannsdorf",
"crs": { "type": "name", "properties": { "name": "urn:ogc:def:crs:OGC:1.3:CRS84" } },
"features": [
{ "type": "Feature", "properties": { "name": "Wißmannsdorf", "metric_roundness": 36.33, "metric_rectangularity": 51.76, "metric_mobile_fit": 26.13, "metric_aspect_ratio": 1.301, "metric_area_km2": 15.13 }, "geometry": { "type": "Polygon", "coordinates": [ [ [ 6.430346, 49.9936118 ], [ 6.4334966, 49.9883988 ], [ 6.4542585, 49.9816125 ], [ 6.4681314, 49.9978438 ], [ 6.4749208, 50.0008756 ], [ 6.4724515, 50.003639499999984 ], [ 6.446342, 50.0001987 ], [ 6.4372582, 50.0027401 ], [ 6.435848, 50.008027899999988 ], [ 6.431511, 50.008754 ], [ 6.4225183, 50.0085838 ], [ 6.41439, 50.012232499999982 ], [ 6.4129405, 50.005215 ], [ 6.430346, 49.9936118 ] ] ] } }
]
}
