{
"type": "FeatureCollection",
"name": "chamonix_mont_blanc",
"crs": { "type": "name", "properties": { "name": "urn:ogc:def:crs:OGC:1.3:CRS84" } },
"features": [
{ "type": "Feature", "properties": { "name": "Chamonix-Mont-Blanc", "feature_type": "entity", "metric_roundness": 57.37, "metric_rectangularity": 72.12, "metric_mobile_fit": 75.56, "metric_aspect_ratio": 0.807, "metric_area_km2": 507.96 }, "geometry": { "type": "Polygon", "coordinates": [ [ [ 6.8648612, 45.833375099999984 ], [ 6.869971, 45.83889 ], [ 6.8750185, 45.8464416 ], [ 6.8800861, 45.848903 ], [ 6.8950899, 45.8427971 ], [ 6.9128983, 45.841396 ], [ 6.922639, 45.847653799999989 ], [ 6.9387943, 45.8470666 ], [ 6.9520449, 45.8606505 ], [ 6.9755408, 45.868316299999982 ], [ 6.9904552, 45.8689087 ], [ 6.9980441, 45.873727199999983 ], [ 7.0057395, 45.8856548 ], [ 7.0041704, 45.898747 ], [ 7.0193328, 45.914700599999989 ], [ 7.044886, 45.922413 ], [ 7.0364012, 45.937639 ], [ 7.038063, 45.946634 ], [ 7.035776, 45.954416099999989 ], [ 7.0188526, 45.960233799999983 ], [ 7.0098467, 45.9692874 ], [ 7.0116044, 45.9732713 ], [ 7.0213409, 45.9770341 ], [ 7.0222415, 45.980541 ], [ 7.0128518, 45.987882299999988 ], [ 7.0086579, 45.9985436 ], [ 6.9865115, 46.0046001 ], [ 6.9799932, 46.0203693 ], [ 6.962906, 46.0305365 ], [ 6.9559936, 46.0297469 ], [ 6.9447345, 46.0221021 ], [ 6.9301642, 46.0051657 ], [ 6.9102742, 46.003087799999989 ], [ 6.8733536, 45.9882239 ], [ 6.861758, 45.9892068 ], [ 6.8543918, 45.9939767 ], [ 6.8527776, 45.9992756 ], [ 6.855337, 46.007229 ], [ 6.8394133, 46.0006711 ], [ 6.8342475, 45.995159099999988 ], [ 6.8294404, 45.973013099999989 ], [ 6.8230047, 45.963673899999989 ], [ 6.8245605, 45.9544335 ], [ 6.8234351, 45.9474567 ], [ 6.8182915, 45.940813 ], [ 6.8266856, 45.9235665 ], [ 6.8160614, 45.917340699999983 ], [ 6.828516, 45.903880099999988 ], [ 6.8276787, 45.898268099999989 ], [ 6.8543281, 45.8712709 ], [ 6.8435265, 45.842653 ], [ 6.851847, 45.83957 ], [ 6.8542445, 45.836788 ], [ 6.859906, 45.8333085 ], [ 6.8648612, 45.833375099999984 ] ] ] } },
{ "type": "Feature", "properties": { "name": "Chamonix-Mont-Blanc", "feature_type": "circle", "metric_roundness": 57.37, "metric_rectangularity": 72.12, "metric_mobile_fit": 75.56, "metric_aspect_ratio": 0.807, "metric_area_km2": 507.96 }, "geometry": { "type": "Polygon", "coordinates": [ [ [ 7.062255605944523, 45.932010170926056 ], [ 7.062048871802292, 45.926518934450499 ], [ 7.061429236019506, 45.921042207668641 ], [ 7.060398396974777, 45.915595008579338 ], [ 7.058959180126276, 45.910192278616776 ], [ 7.057115530267344, 45.904848841576118 ], [ 7.054872500714095, 45.899579362815068 ], [ 7.052236239454624, 45.89439830884497 ], [ 7.049213972297797, 45.889319907424529 ], [ 7.045813983067816, 45.884358108268394 ], [ 7.04204559089883, 45.879526544481408 ], [ 7.037919124691838, 45.874838494827941 ], [ 7.033445894803884, 45.870306846943684 ], [ 7.028638162047162, 45.865944061594952 ], [ 7.023509104082977, 45.861762138088203 ], [ 7.018072779302691, 45.857772580929129 ], [ 7.012344088294654, 45.853986367827922 ], [ 7.006338733002722, 45.850413919143143 ], [ 7.000073173688322, 45.847065068853432 ], [ 6.993564583814023, 45.843949037141435 ], [ 6.986830802972262, 45.841074404670287 ], [ 6.979890287988269, 45.838449088628138 ], [ 6.972762062331183, 45.836080320611075 ], [ 6.965465663972056, 45.833974626409685 ], [ 6.958021091831622, 45.832137807758954 ], [ 6.950448750964654, 45.830574926105449 ], [ 6.94276939663112, 45.829290288440049 ], [ 6.935004077407462, 45.828287435238067 ], [ 6.927174077493913, 45.827569130542798 ], [ 6.919300858375979, 45.827137354221904 ], [ 6.911406, 45.826993296419708 ], [ 6.903511141624023, 45.827137354221904 ], [ 6.895637922506088, 45.827569130542798 ], [ 6.88780792259254, 45.828287435238067 ], [ 6.880042603368882, 45.829290288440049 ], [ 6.872363249035348, 45.830574926105449 ], [ 6.864790908168379, 45.832137807758954 ], [ 6.857346336027945, 45.833974626409685 ], [ 6.850049937668818, 45.836080320611075 ], [ 6.842921712011733, 45.838449088628138 ], [ 6.835981197027738, 45.841074404670287 ], [ 6.829247416185979, 45.843949037141435 ], [ 6.822738826311679, 45.847065068853432 ], [ 6.81647326699728, 45.850413919143143 ], [ 6.810467911705347, 45.853986367827922 ], [ 6.80473922069731, 45.857772580929129 ], [ 6.799302895917024, 45.861762138088203 ], [ 6.794173837952839, 45.865944061594952 ], [ 6.789366105196117, 45.870306846943684 ], [ 6.784892875308164, 45.874838494827941 ], [ 6.780766409101171, 45.879526544481408 ], [ 6.776998016932186, 45.884358108268394 ], [ 6.773598027702205, 45.889319907424529 ], [ 6.770575760545378, 45.89439830884497 ], [ 6.767939499285906, 45.899579362815068 ], [ 6.765696469732657, 45.904848841576118 ], [ 6.763852819873725, 45.910192278616776 ], [ 6.762413603025225, 45.915595008579338 ], [ 6.761382763980496, 45.921042207668641 ], [ 6.76076312819771, 45.926518934450499 ], [ 6.760556394055477, 45.932010170926056 ], [ 6.76076312819771, 45.937500863768157 ], [ 6.761382763980496, 45.94297596560579 ], [ 6.762413603025225, 45.948420476243399 ], [ 6.763852819873725, 45.953819483702134 ], [ 6.765696469732657, 45.959158204971487 ], [ 6.767939499285906, 45.964422026360879 ], [ 6.770575760545378, 45.969596543342483 ], [ 6.773598027702205, 45.9746675997784 ], [ 6.776998016932186, 45.979621326427356 ], [ 6.780766409101171, 45.984444178628756 ], [ 6.784892875308164, 45.989122973064347 ], [ 6.789366105196117, 45.993644923500717 ], [ 6.794173837952839, 45.997997675418944 ], [ 6.799302895917024, 46.002169339441004 ], [ 6.80473922069731, 46.006148523466322 ], [ 6.810467911705347, 46.009924363434997 ], [ 6.816473266997279, 46.013486552638611 ], [ 6.822738826311679, 46.016825369503515 ], [ 6.829247416185979, 46.019931703775256 ], [ 6.835981197027738, 46.022797081037758 ], [ 6.842921712011733, 46.025413685504731 ], [ 6.850049937668818, 46.027774381025758 ], [ 6.857346336027945, 46.029872730254013 ], [ 6.864790908168379, 46.031703011927412 ], [ 6.872363249035348, 46.033260236219675 ], [ 6.880042603368882, 46.034540158122994 ], [ 6.88780792259254, 46.03553928882878 ], [ 6.895637922506088, 46.036254905078053 ], [ 6.903511141624023, 46.036685056458246 ], [ 6.911406, 46.036828570628181 ], [ 6.919300858375979, 46.036685056458246 ], [ 6.927174077493913, 46.036254905078053 ], [ 6.935004077407462, 46.03553928882878 ], [ 6.942769396631118, 46.034540158122994 ], [ 6.950448750964654, 46.033260236219675 ], [ 6.958021091831622, 46.031703011927412 ], [ 6.965465663972056, 46.029872730254013 ], [ 6.972762062331183, 46.027774381025758 ], [ 6.979890287988269, 46.025413685504731 ], [ 6.986830802972262, 46.022797081037758 ], [ 6.993564583814023, 46.019931703775256 ], [ 7.000073173688322, 46.016825369503515 ], [ 7.006338733002722, 46.013486552638611 ], [ 7.012344088294654, 46.009924363434997 ], [ 7.018072779302691, 46.006148523466322 ], [ 7.023509104082977, 46.002169339441004 ], [ 7.028638162047162, 45.997997675418944 ], [ 7.033445894803884, 45.993644923500717 ], [ 7.037919124691838, 45.989122973064347 ], [ 7.04204559089883, 45.984444178628756 ], [ 7.045813983067816, 45.979621326427356 ], [ 7.049213972297796, 45.9746675997784 ], [ 7.052236239454624, 45.969596543342483 ], [ 7.054872500714095, 45.964422026360879 ], [ 7.057115530267344, 45.959158204971487 ], [ 7.058959180126276, 45.953819483702134 ], [ 7.060398396974777, 45.948420476243399 ], [ 7.061429236019506, 45.94297596560579 ], [ 7.062048871802292, 45.937500863768157 ], [ 7.062255605944523, 45.932010170926056 ] ] ] } },
{ "type": "Feature", "properties": { "name": "Chamonix-Mont-Blanc", "feature_type": "mrr", "metric_roundness": 57.37, "metric_rectangularity": 72.12, "metric_mobile_fit": 75.56, "metric_aspect_ratio": 0.807, "metric_area_km2": 507.96 }, "geometry": { "type": "Polygon", "coordinates": [ [ [ 7.071184718781667, 45.876047880148036 ], [ 6.850281060338554, 45.82768194432996 ], [ 6.776679245498616, 45.990598667097501 ], [ 6.997582903941727, 46.038822792659055 ], [ 7.071184718781667, 45.876047880148036 ] ] ] } }
]
}
