{
"type": "FeatureCollection",
"name": "champfleur",
"crs": { "type": "name", "properties": { "name": "urn:ogc:def:crs:OGC:1.3:CRS84" } },
"features": [
{ "type": "Feature", "properties": { "name": "Champfleur", "metric_roundness": 64.75, "metric_rectangularity": 74.1, "metric_mobile_fit": 67.15, "metric_aspect_ratio": 0.891, "metric_area_km2": 29.3 }, "geometry": { "type": "Polygon", "coordinates": [ [ [ 0.1447815, 48.386867399999986 ], [ 0.1528935, 48.3909174 ], [ 0.145581, 48.394296099999984 ], [ 0.1321005, 48.408646499999982 ], [ 0.1264405, 48.408179 ], [ 0.11146, 48.395605 ], [ 0.0941215, 48.382936 ], [ 0.096128, 48.3758235 ], [ 0.102306, 48.375659399999982 ], [ 0.110637, 48.367023499999981 ], [ 0.133917, 48.364241 ], [ 0.1362304, 48.36862 ], [ 0.153701, 48.376274 ], [ 0.1447815, 48.386867399999986 ] ] ] } }
]
}
