{
"type": "FeatureCollection",
"name": "champagne_mouton",
"crs": { "type": "name", "properties": { "name": "urn:ogc:def:crs:OGC:1.3:CRS84" } },
"features": [
{ "type": "Feature", "properties": { "name": "Champagne-Mouton", "metric_roundness": 46.12, "metric_rectangularity": 55.75, "metric_mobile_fit": 90.13, "metric_aspect_ratio": 0.661, "metric_area_km2": 47.06 }, "geometry": { "type": "Polygon", "coordinates": [ [ [ 0.4279761, 45.9751805 ], [ 0.4361545, 45.974041799999988 ], [ 0.4470632, 45.9783509 ], [ 0.4461519, 45.9902611 ], [ 0.4355375, 46.0056385 ], [ 0.4170958, 46.0087595 ], [ 0.417326, 46.015525899999986 ], [ 0.4253795, 46.022836 ], [ 0.4242612, 46.0260694 ], [ 0.408583, 46.035735 ], [ 0.4054601, 46.022703199999988 ], [ 0.3947635, 46.0156993 ], [ 0.3949178, 46.002871 ], [ 0.3810053, 46.0003818 ], [ 0.384855, 45.9926805 ], [ 0.3856091, 45.980765399999981 ], [ 0.3796815, 45.9730935 ], [ 0.3848025, 45.972462 ], [ 0.3924315, 45.970254 ], [ 0.3946285, 45.968357499999989 ], [ 0.3972525, 45.9671425 ], [ 0.4184945, 45.964941 ], [ 0.4279761, 45.9751805 ] ] ] } }
]
}
