{
"type": "FeatureCollection",
"name": "champdieu",
"crs": { "type": "name", "properties": { "name": "urn:ogc:def:crs:OGC:1.3:CRS84" } },
"features": [
{ "type": "Feature", "properties": { "name": "Champdieu", "feature_type": "entity", "metric_roundness": 48.01, "metric_rectangularity": 64.59, "metric_mobile_fit": -1.04, "metric_aspect_ratio": 1.573, "metric_area_km2": 36.54 }, "geometry": { "type": "Polygon", "coordinates": [ [ [ 4.0361155, 45.619902 ], [ 4.0425985, 45.622188 ], [ 4.0447, 45.623775 ], [ 4.0468915, 45.624146499999981 ], [ 4.056375, 45.623957 ], [ 4.060955, 45.626856 ], [ 4.0648685, 45.626931 ], [ 4.0695685, 45.625463499999981 ], [ 4.0767375, 45.6298846 ], [ 4.0802194, 45.643496399999982 ], [ 4.090985, 45.6456015 ], [ 4.0901318, 45.653753699999982 ], [ 4.079586, 45.658378 ], [ 4.046472, 45.658213 ], [ 4.0389571, 45.6574759 ], [ 4.0270545, 45.6488957 ], [ 4.014364, 45.6468205 ], [ 4.013845, 45.644489 ], [ 4.00989, 45.643108 ], [ 4.004426, 45.638465 ], [ 4.0203315, 45.6321535 ], [ 4.0258205, 45.629191 ], [ 4.033108, 45.6242665 ], [ 4.031566, 45.619971 ], [ 4.0361155, 45.619902 ] ] ] } },
{ "type": "Feature", "properties": { "name": "Champdieu", "feature_type": "circle", "metric_roundness": 48.01, "metric_rectangularity": 64.59, "metric_mobile_fit": -1.04, "metric_aspect_ratio": 1.573, "metric_area_km2": 36.54 }, "geometry": { "type": "Polygon", "coordinates": [ [ [ 4.091504906755421, 45.646109871583896 ], [ 4.091444296550218, 45.644491731592872 ], [ 4.091262632062971, 45.64287798026259 ], [ 4.090960411223411, 45.641273041347098 ], [ 4.090538462397852, 45.639681314821821 ], [ 4.089997942118695, 45.638107164813121 ], [ 4.089340331914456, 45.636554907622191 ], [ 4.088567434248993, 45.635028799876018 ], [ 4.087681367581085, 45.633533026838485 ], [ 4.086684560557879, 45.632071690913492 ], [ 4.085579745358136, 45.63064880037215 ], [ 4.084369950203527, 45.629268258335159 ], [ 4.083058491058476, 45.627933852040933 ], [ 4.081648962541344, 45.626649242429188 ], [ 4.080145228071818, 45.625417954069064 ], [ 4.078551409281561, 45.624243365459698 ], [ 4.076871874717085, 45.623128699730323 ], [ 4.075111227865894, 45.622077015765697 ], [ 4.073274294538623, 45.62109119978183 ], [ 4.07136610964184, 45.620173957375314 ], [ 4.06939190337771, 45.619327806068718 ], [ 4.067357086908378, 45.618555068372643 ], [ 4.065267237524347, 45.617857865384082 ], [ 4.063128083357516, 45.617238110938963 ], [ 4.060945487680765, 45.616697506335193 ], [ 4.058725432837135, 45.616237535641119 ], [ 4.056474003842637, 45.615859461602469 ], [ 4.054197371707649, 45.615564322159379 ], [ 4.051901776522609, 45.615352927583267 ], [ 4.049593510354352, 45.615225858241431 ], [ 4.0472789, 45.615183462996008 ], [ 4.044964289645648, 45.615225858241431 ], [ 4.042656023477391, 45.615352927583267 ], [ 4.04036042829235, 45.615564322159379 ], [ 4.038083796157363, 45.615859461602469 ], [ 4.035832367162864, 45.616237535641119 ], [ 4.033612312319234, 45.616697506335193 ], [ 4.031429716642482, 45.617238110938963 ], [ 4.029290562475652, 45.617857865384082 ], [ 4.027200713091621, 45.618555068372643 ], [ 4.02516589662229, 45.619327806068718 ], [ 4.023191690358159, 45.620173957375314 ], [ 4.021283505461376, 45.62109119978183 ], [ 4.019446572134106, 45.622077015765697 ], [ 4.017685925282914, 45.623128699730323 ], [ 4.01600639071844, 45.624243365459698 ], [ 4.01441257192818, 45.625417954069064 ], [ 4.012908837458656, 45.626649242429188 ], [ 4.011499308941523, 45.627933852040933 ], [ 4.010187849796472, 45.629268258335159 ], [ 4.008978054641863, 45.63064880037215 ], [ 4.00787323944212, 45.632071690913492 ], [ 4.006876432418914, 45.633533026838485 ], [ 4.005990365751006, 45.635028799876018 ], [ 4.005217468085544, 45.636554907622191 ], [ 4.004559857881304, 45.638107164813121 ], [ 4.004019337602148, 45.639681314821821 ], [ 4.003597388776589, 45.641273041347098 ], [ 4.003295167937028, 45.64287798026259 ], [ 4.003113503449781, 45.644491731592872 ], [ 4.003052893244579, 45.646109871583896 ], [ 4.003113503449781, 45.647727964834495 ], [ 4.003295167937028, 45.649341576455583 ], [ 4.003597388776589, 45.650946284223814 ], [ 4.004019337602148, 45.652537690696242 ], [ 4.004559857881304, 45.654111435253085 ], [ 4.005217468085544, 45.655663206035378 ], [ 4.005990365751006, 45.657188751745302 ], [ 4.006876432418914, 45.65868389327678 ], [ 4.00787323944212, 45.660144535144831 ], [ 4.008978054641863, 45.661566676682554 ], [ 4.010187849796472, 45.662946422975509 ], [ 4.011499308941523, 45.664279995503634 ], [ 4.012908837458656, 45.665563742462112 ], [ 4.01441257192818, 45.666794148733203 ], [ 4.01600639071844, 45.667967845482139 ], [ 4.017685925282914, 45.669081619351097 ], [ 4.019446572134106, 45.670132421226711 ], [ 4.021283505461376, 45.671117374557355 ], [ 4.023191690358159, 45.672033783197811 ], [ 4.02516589662229, 45.67287913876045 ], [ 4.027200713091621, 45.673651127452992 ], [ 4.029290562475652, 45.674347636384688 ], [ 4.031429716642482, 45.674966759323837 ], [ 4.033612312319234, 45.675506801891444 ], [ 4.035832367162864, 45.675966286176951 ], [ 4.038083796157363, 45.67634395476383 ], [ 4.04036042829235, 45.676638774154128 ], [ 4.042656023477391, 45.676849937583029 ], [ 4.044964289645648, 45.6769768672157 ], [ 4.0472789, 45.677019215720691 ], [ 4.049593510354352, 45.6769768672157 ], [ 4.051901776522609, 45.676849937583029 ], [ 4.054197371707649, 45.676638774154128 ], [ 4.056474003842637, 45.67634395476383 ], [ 4.058725432837135, 45.675966286176951 ], [ 4.060945487680765, 45.675506801891444 ], [ 4.063128083357516, 45.674966759323837 ], [ 4.065267237524347, 45.674347636384688 ], [ 4.067357086908378, 45.673651127452992 ], [ 4.06939190337771, 45.67287913876045 ], [ 4.07136610964184, 45.672033783197811 ], [ 4.073274294538623, 45.671117374557355 ], [ 4.075111227865894, 45.670132421226711 ], [ 4.076871874717085, 45.669081619351097 ], [ 4.078551409281561, 45.667967845482139 ], [ 4.080145228071818, 45.666794148733203 ], [ 4.081648962541344, 45.665563742462112 ], [ 4.083058491058476, 45.664279995503634 ], [ 4.084369950203527, 45.662946422975509 ], [ 4.085579745358136, 45.661566676682554 ], [ 4.086684560557879, 45.660144535144831 ], [ 4.087681367581085, 45.65868389327678 ], [ 4.088567434248993, 45.657188751745302 ], [ 4.089340331914456, 45.655663206035378 ], [ 4.089997942118695, 45.654111435253085 ], [ 4.090538462397852, 45.652537690696242 ], [ 4.090960411223411, 45.650946284223814 ], [ 4.091262632062971, 45.649341576455583 ], [ 4.091444296550218, 45.647727964834495 ], [ 4.091504906755421, 45.646109871583896 ] ] ] } },
{ "type": "Feature", "properties": { "name": "Champdieu", "feature_type": "mrr", "metric_roundness": 48.01, "metric_rectangularity": 64.59, "metric_mobile_fit": -1.04, "metric_aspect_ratio": 1.573, "metric_area_km2": 36.54 }, "geometry": { "type": "Polygon", "coordinates": [ [ [ 4.098135878894372, 45.630212338734445 ], [ 4.01209336264317, 45.615908024321527 ], [ 4.000154159711303, 45.651028616712573 ], [ 4.086196675962505, 45.665323968666463 ], [ 4.098135878894372, 45.630212338734445 ] ] ] } }
]
}
