{
"type": "FeatureCollection",
"name": "chareil_cintrat",
"crs": { "type": "name", "properties": { "name": "urn:ogc:def:crs:OGC:1.3:CRS84" } },
"features": [
{ "type": "Feature", "properties": { "name": "Chareil-Cintrat", "metric_roundness": 56.38, "metric_rectangularity": 72.6, "metric_mobile_fit": 59.41, "metric_aspect_ratio": 0.968, "metric_area_km2": 27.17 }, "geometry": { "type": "Polygon", "coordinates": [ [ [ 3.215046, 46.281522499999987 ], [ 3.2118827, 46.2691803 ], [ 3.20138, 46.262643 ], [ 3.2059468, 46.253581 ], [ 3.2169085, 46.244168 ], [ 3.228039, 46.2439341 ], [ 3.2297695, 46.2496501 ], [ 3.2365264, 46.2474316 ], [ 3.2402055, 46.2492035 ], [ 3.2471926, 46.2548689 ], [ 3.243019, 46.2655257 ], [ 3.2558408, 46.269848699999983 ], [ 3.2633875, 46.2778085 ], [ 3.257342, 46.280198499999983 ], [ 3.2326849, 46.283192399999983 ], [ 3.2185925, 46.2881985 ], [ 3.215046, 46.281522499999987 ] ] ] } }
]
}
