{
"type": "FeatureCollection",
"name": "chastre",
"crs": { "type": "name", "properties": { "name": "urn:ogc:def:crs:OGC:1.3:CRS84" } },
"features": [
{ "type": "Feature", "properties": { "name": "Chastre", "metric_roundness": 47.05, "metric_rectangularity": 59.67, "metric_mobile_fit": 65.89, "metric_aspect_ratio": 0.904, "metric_area_km2": 77.74 }, "geometry": { "type": "Polygon", "coordinates": [ [ [ 4.5875589, 50.5963578 ], [ 4.5803033, 50.588283699999984 ], [ 4.5809868, 50.572006699999982 ], [ 4.5742809, 50.56808 ], [ 4.57499, 50.5608065 ], [ 4.6066573, 50.5691155 ], [ 4.6182527, 50.5688304 ], [ 4.6215807, 50.562482699999983 ], [ 4.6276545, 50.564461 ], [ 4.6420657, 50.5642791 ], [ 4.6471311, 50.5608801 ], [ 4.6717919, 50.5698845 ], [ 4.6587214, 50.5828214 ], [ 4.6568415, 50.6010475 ], [ 4.6502416, 50.6100766 ], [ 4.6617503, 50.6166461 ], [ 4.6612856, 50.6189852 ], [ 4.650291, 50.627969099999973 ], [ 4.633827, 50.629307 ], [ 4.6318134, 50.626069099999988 ], [ 4.6360619, 50.622813099999981 ], [ 4.6331692, 50.6164818 ], [ 4.6219156, 50.607387899999985 ], [ 4.5889295, 50.611343499999975 ], [ 4.5869195, 50.6075515 ], [ 4.5745795, 50.598007 ], [ 4.5875589, 50.5963578 ] ] ] } }
]
}
