{
"type": "FeatureCollection",
"name": "chateauvert",
"crs": { "type": "name", "properties": { "name": "urn:ogc:def:crs:OGC:1.3:CRS84" } },
"features": [
{ "type": "Feature", "properties": { "name": "Châteauvert", "feature_type": "entity", "metric_roundness": 58.35, "metric_rectangularity": 61.11, "metric_mobile_fit": 38.71, "metric_aspect_ratio": 1.175, "metric_area_km2": 52.03 }, "geometry": { "type": "Polygon", "coordinates": [ [ [ 5.9808368, 43.51579 ], [ 5.9683458, 43.5157749 ], [ 5.9635935, 43.513017 ], [ 5.9775432, 43.4991854 ], [ 5.9840322, 43.4876947 ], [ 5.9962394, 43.4811772 ], [ 5.992717, 43.4708655 ], [ 6.0053689, 43.4742134 ], [ 6.0103525, 43.4729945 ], [ 6.0160517, 43.4716005 ], [ 6.0239352, 43.477055399999983 ], [ 6.0302512, 43.477664 ], [ 6.0414357, 43.4887468 ], [ 6.0419956, 43.500019399999985 ], [ 6.054607, 43.5151575 ], [ 6.0509962, 43.520024 ], [ 6.0303165, 43.524961499999989 ], [ 6.0103525, 43.519191199999987 ], [ 6.002372, 43.5216454 ], [ 5.9944144, 43.520099099999989 ], [ 5.9916869, 43.526328199999988 ], [ 5.9830795, 43.527035 ], [ 5.9808368, 43.51579 ] ] ] } },
{ "type": "Feature", "properties": { "name": "Châteauvert", "feature_type": "circle", "metric_roundness": 58.35, "metric_rectangularity": 61.11, "metric_mobile_fit": 38.71, "metric_aspect_ratio": 1.175, "metric_area_km2": 52.03 }, "geometry": { "type": "Polygon", "coordinates": [ [ [ 6.05745000754745, 43.503370911979914 ], [ 6.057384402580503, 43.501553667521755 ], [ 6.057187767498318, 43.49974134952862 ], [ 6.056860641263985, 43.49793892610991 ], [ 6.056403920507777, 43.496151338694283 ], [ 6.055818857069539, 43.494383488473311 ], [ 6.055107054567487, 43.492640222950776 ], [ 6.054270464002804, 43.490926322634685 ], [ 6.053311378412076, 43.489246487908602 ], [ 6.052232426582242, 43.487605326118583 ], [ 6.051036565845273, 43.486007338911513 ], [ 6.049727073972321, 43.484456909859894 ], [ 6.048307540189593, 43.482958292407268 ], [ 6.046781855340512, 43.481515598167938 ], [ 6.045154201221204, 43.480132785613399 ], [ 6.043429039118474, 43.478813649177035 ], [ 6.041611097581726, 43.477561808807366 ], [ 6.039705359462355, 43.476380699999012 ], [ 6.037717048256074, 43.475273564329356 ], [ 6.035651613785697, 43.47424344052709 ], [ 6.033514717263541, 43.473293156097846 ], [ 6.031312215774439, 43.472425319530309 ], [ 6.029050146221876, 43.47164231310461 ], [ 6.026734708781265, 43.470946286323226 ], [ 6.024372249905684, 43.470339149982784 ], [ 6.021969244930699, 43.469822570903474 ], [ 6.019532280325916, 43.46939796733075 ], [ 6.017068035641926, 43.469066505022461 ], [ 6.014583265202118, 43.468829094032216 ], [ 6.012084779589555, 43.468686386198144 ], [ 6.009579426979633, 43.46863877334404 ], [ 6.007074074369712, 43.468686386198144 ], [ 6.004575588757149, 43.468829094032216 ], [ 6.002090818317342, 43.469066505022461 ], [ 5.999626573633351, 43.46939796733075 ], [ 5.997189609028569, 43.469822570903474 ], [ 5.994786604053584, 43.470339149982784 ], [ 5.992424145178002, 43.470946286323226 ], [ 5.990108707737391, 43.47164231310461 ], [ 5.987846638184829, 43.472425319530309 ], [ 5.985644136695726, 43.473293156097846 ], [ 5.983507240173569, 43.47424344052709 ], [ 5.981441805703192, 43.475273564329356 ], [ 5.979453494496912, 43.476380699999012 ], [ 5.977547756377541, 43.477561808807366 ], [ 5.975729814840793, 43.478813649177035 ], [ 5.974004652738063, 43.480132785613399 ], [ 5.972376998618755, 43.481515598167938 ], [ 5.970851313769676, 43.482958292407268 ], [ 5.969431779986946, 43.484456909859894 ], [ 5.968122288113994, 43.486007338911513 ], [ 5.966926427377025, 43.487605326118583 ], [ 5.965847475547192, 43.489246487908602 ], [ 5.964888389956463, 43.490926322634685 ], [ 5.96405179939178, 43.492640222950776 ], [ 5.963339996889728, 43.494383488473311 ], [ 5.96275493345149, 43.496151338694283 ], [ 5.962298212695282, 43.49793892610991 ], [ 5.961971086460949, 43.49974134952862 ], [ 5.961774451378764, 43.501553667521755 ], [ 5.961708846411818, 43.503370911979914 ], [ 5.961774451378764, 43.505188101737446 ], [ 5.961971086460949, 43.507000256228068 ], [ 5.962298212695282, 43.508802409133715 ], [ 5.96275493345149, 43.510589621989546 ], [ 5.963339996889728, 43.512356997707734 ], [ 5.96405179939178, 43.514099693983255 ], [ 5.964888389956463, 43.515812936544883 ], [ 5.965847475547192, 43.517492032215571 ], [ 5.966926427377024, 43.519132381746516 ], [ 5.968122288113994, 43.520729492390068 ], [ 5.969431779986946, 43.52227899017759 ], [ 5.970851313769676, 43.52377663186865 ], [ 5.972376998618755, 43.525218316539593 ], [ 5.974004652738063, 43.526600096779958 ], [ 5.975729814840793, 43.527918189466639 ], [ 5.977547756377541, 43.529168986086631 ], [ 5.979453494496912, 43.530349062580854 ], [ 5.981441805703192, 43.531455188682187 ], [ 5.983507240173569, 43.532484336722973 ], [ 5.985644136695726, 43.53343368988822 ], [ 5.987846638184829, 43.53430064989238 ], [ 5.99010870773739, 43.535082844059112 ], [ 5.992424145178002, 43.535778131785229 ], [ 5.994786604053584, 43.536384610371343 ], [ 5.997189609028569, 43.53690062020376 ], [ 5.999626573633351, 43.537324749273807 ], [ 6.002090818317342, 43.537655837022385 ], [ 6.004575588757149, 43.537892977499638 ], [ 6.007074074369712, 43.53803552183124 ], [ 6.009579426979633, 43.53808307998473 ], [ 6.012084779589554, 43.53803552183124 ], [ 6.014583265202118, 43.537892977499638 ], [ 6.017068035641926, 43.537655837022385 ], [ 6.019532280325916, 43.537324749273807 ], [ 6.021969244930699, 43.53690062020376 ], [ 6.024372249905684, 43.536384610371343 ], [ 6.026734708781265, 43.535778131785229 ], [ 6.029050146221876, 43.535082844059112 ], [ 6.031312215774439, 43.53430064989238 ], [ 6.033514717263541, 43.53343368988822 ], [ 6.035651613785697, 43.532484336722973 ], [ 6.037717048256074, 43.531455188682187 ], [ 6.039705359462355, 43.530349062580854 ], [ 6.041611097581726, 43.529168986086631 ], [ 6.043429039118474, 43.527918189466639 ], [ 6.045154201221204, 43.526600096779958 ], [ 6.046781855340512, 43.525218316539593 ], [ 6.048307540189593, 43.52377663186865 ], [ 6.049727073972321, 43.52227899017759 ], [ 6.051036565845273, 43.520729492390068 ], [ 6.052232426582242, 43.519132381746516 ], [ 6.053311378412076, 43.517492032215571 ], [ 6.054270464002804, 43.515812936544883 ], [ 6.055107054567487, 43.514099693983255 ], [ 6.055818857069539, 43.512356997707734 ], [ 6.056403920507777, 43.510589621989546 ], [ 6.056860641263985, 43.508802409133715 ], [ 6.057187767498318, 43.507000256228068 ], [ 6.057384402580503, 43.505188101737446 ], [ 6.05745000754745, 43.503370911979914 ] ] ] } },
{ "type": "Feature", "properties": { "name": "Châteauvert", "feature_type": "mrr", "metric_roundness": 58.35, "metric_rectangularity": 61.11, "metric_mobile_fit": 38.71, "metric_aspect_ratio": 1.175, "metric_area_km2": 52.03 }, "geometry": { "type": "Polygon", "coordinates": [ [ [ 5.99699682170789, 43.464668665118005 ], [ 5.959762051275463, 43.518560191056224 ], [ 6.033682665429318, 43.545422799901971 ], [ 6.070917435861745, 43.491555260633497 ], [ 5.99699682170789, 43.464668665118005 ] ] ] } }
]
}
