{
"type": "FeatureCollection",
"name": "chaudenay_le_chateau",
"crs": { "type": "name", "properties": { "name": "urn:ogc:def:crs:OGC:1.3:CRS84" } },
"features": [
{ "type": "Feature", "properties": { "name": "Chaudenay-le-Château", "feature_type": "entity", "metric_roundness": 48.0, "metric_rectangularity": 66.68, "metric_mobile_fit": 55.87, "metric_aspect_ratio": 1.004, "metric_area_km2": 10.92 }, "geometry": { "type": "Polygon", "coordinates": [ [ [ 4.6483393, 47.193971099999985 ], [ 4.639173, 47.192389399999989 ], [ 4.633662, 47.178468599999981 ], [ 4.619554, 47.171689 ], [ 4.630697, 47.166544799999983 ], [ 4.6395244, 47.166687799999984 ], [ 4.659557, 47.176604 ], [ 4.6557579, 47.181445399999987 ], [ 4.660057, 47.189644 ], [ 4.6483393, 47.193971099999985 ] ] ] } },
{ "type": "Feature", "properties": { "name": "Chaudenay-le-Château", "feature_type": "circle", "metric_roundness": 48.0, "metric_rectangularity": 66.68, "metric_mobile_fit": 55.87, "metric_aspect_ratio": 1.004, "metric_area_km2": 10.92 }, "geometry": { "type": "Polygon", "coordinates": [ [ [ 4.663983612312988, 47.180667259011763 ], [ 4.663950477050362, 47.179807184234562 ], [ 4.663851162083939, 47.178949452987119 ], [ 4.663685939629137, 47.178096416422186 ], [ 4.66345526254922, 47.177250412936687 ], [ 4.663159763114032, 47.176413761759235 ], [ 4.662800251266983, 47.175588756588965 ], [ 4.662377712405056, 47.174777659303253 ], [ 4.661893304677902, 47.173982693751533 ], [ 4.661348355813431, 47.173206039652364 ], [ 4.6607443594786, 47.172449826610446 ], [ 4.660082971185381, 47.171716128270255 ], [ 4.659366003753112, 47.171006956622293 ], [ 4.65859542233969, 47.170324256477635 ], [ 4.657773339055207, 47.169669900126188 ], [ 4.656902007172802, 47.169045682193307 ], [ 4.655983814952601, 47.168453314708991 ], [ 4.655021279095656, 47.167894422403378 ], [ 4.654017037845844, 47.167370538241506 ], [ 4.65297384375863, 47.166883099209755 ], [ 4.651894556156493, 47.166433442365523 ], [ 4.650782133291731, 47.16602280116134 ], [ 4.649639624238094, 47.165652302053324 ], [ 4.648470160533481, 47.165322961403632 ], [ 4.647276947596619, 47.165035682685357 ], [ 4.646063255941227, 47.164791253997691 ], [ 4.644832412211774, 47.16459034589829 ], [ 4.643587790065363, 47.164433509558734 ], [ 4.642332800924788, 47.164321175248446 ], [ 4.641070884628048, 47.164253651150979 ], [ 4.6398055, 47.164231122516277 ], [ 4.63854011537195, 47.164253651150979 ], [ 4.63727819907521, 47.164321175248446 ], [ 4.636023209934635, 47.164433509558734 ], [ 4.634778587788224, 47.16459034589829 ], [ 4.63354774405877, 47.164791253997691 ], [ 4.63233405240338, 47.165035682685357 ], [ 4.631140839466517, 47.165322961403632 ], [ 4.629971375761905, 47.165652302053324 ], [ 4.628828866708267, 47.16602280116134 ], [ 4.627716443843505, 47.166433442365523 ], [ 4.626637156241368, 47.166883099209755 ], [ 4.625593962154154, 47.167370538241506 ], [ 4.624589720904343, 47.167894422403378 ], [ 4.623627185047397, 47.168453314708991 ], [ 4.622708992827195, 47.169045682193307 ], [ 4.621837660944791, 47.169669900126188 ], [ 4.621015577660307, 47.170324256477635 ], [ 4.620244996246885, 47.171006956622293 ], [ 4.619528028814617, 47.171716128270255 ], [ 4.618866640521398, 47.172449826610446 ], [ 4.618262644186568, 47.173206039652364 ], [ 4.617717695322097, 47.173982693751533 ], [ 4.617233287594942, 47.174777659303253 ], [ 4.616810748733015, 47.175588756588965 ], [ 4.616451236885966, 47.176413761759235 ], [ 4.616155737450778, 47.177250412936687 ], [ 4.615925060370861, 47.178096416422186 ], [ 4.615759837916059, 47.178949452987119 ], [ 4.615660522949637, 47.179807184234562 ], [ 4.61562738768701, 47.180667259011763 ], [ 4.615660522949637, 47.181527319856329 ], [ 4.615759837916059, 47.182385009458528 ], [ 4.615925060370861, 47.183237977121891 ], [ 4.616155737450778, 47.18408388520438 ], [ 4.616451236885966, 47.184920415522647 ], [ 4.616810748733015, 47.185745275701713 ], [ 4.617233287594942, 47.186556205452753 ], [ 4.617717695322097, 47.18735098276187 ], [ 4.618262644186568, 47.188127429972951 ], [ 4.618866640521398, 47.188883419747995 ], [ 4.619528028814617, 47.189616880888678 ], [ 4.620244996246885, 47.190325804003308 ], [ 4.621015577660307, 47.191008247003808 ], [ 4.621837660944791, 47.191662340417572 ], [ 4.622708992827195, 47.192286292500064 ], [ 4.623627185047397, 47.192878394133992 ], [ 4.624589720904343, 47.193437023501929 ], [ 4.625593962154154, 47.193960650519621 ], [ 4.626637156241368, 47.194447841018061 ], [ 4.627716443843505, 47.194897260662792 ], [ 4.628828866708267, 47.195307678600109 ], [ 4.629971375761905, 47.195677970820036 ], [ 4.631140839466517, 47.19600712322714 ], [ 4.63233405240338, 47.196294234410743 ], [ 4.63354774405877, 47.196538518107204 ], [ 4.634778587788224, 47.196739305347428 ], [ 4.636023209934635, 47.196896046283982 ], [ 4.63727819907521, 47.197008311692699 ], [ 4.63854011537195, 47.197075794144929 ], [ 4.6398055, 47.197098308847011 ], [ 4.641070884628048, 47.197075794144929 ], [ 4.642332800924788, 47.197008311692699 ], [ 4.643587790065363, 47.196896046283982 ], [ 4.644832412211774, 47.196739305347428 ], [ 4.646063255941227, 47.196538518107204 ], [ 4.647276947596619, 47.196294234410743 ], [ 4.648470160533481, 47.19600712322714 ], [ 4.649639624238094, 47.195677970820036 ], [ 4.650782133291731, 47.195307678600109 ], [ 4.651894556156493, 47.194897260662792 ], [ 4.65297384375863, 47.194447841018061 ], [ 4.654017037845844, 47.193960650519621 ], [ 4.655021279095656, 47.193437023501929 ], [ 4.655983814952601, 47.192878394133992 ], [ 4.656902007172802, 47.192286292500064 ], [ 4.657773339055207, 47.191662340417572 ], [ 4.65859542233969, 47.191008247003808 ], [ 4.659366003753112, 47.190325804003308 ], [ 4.660082971185381, 47.189616880888678 ], [ 4.6607443594786, 47.188883419747995 ], [ 4.661348355813431, 47.188127429972951 ], [ 4.661893304677902, 47.18735098276187 ], [ 4.662377712405056, 47.186556205452753 ], [ 4.662800251266983, 47.185745275701713 ], [ 4.663159763114032, 47.184920415522647 ], [ 4.66345526254922, 47.18408388520438 ], [ 4.663685939629137, 47.183237977121891 ], [ 4.663851162083939, 47.182385009458528 ], [ 4.663950477050362, 47.181527319856329 ], [ 4.663983612312988, 47.180667259011763 ] ] ] } },
{ "type": "Feature", "properties": { "name": "Chaudenay-le-Château", "feature_type": "mrr", "metric_roundness": 48.0, "metric_rectangularity": 66.68, "metric_mobile_fit": 55.87, "metric_aspect_ratio": 1.004, "metric_area_km2": 10.92 }, "geometry": { "type": "Polygon", "coordinates": [ [ [ 4.619376960690133, 47.171502158237665 ], [ 4.643458223235279, 47.196909743601957 ], [ 4.66843825437615, 47.185974914618697 ], [ 4.644356991831005, 47.160562094908727 ], [ 4.619376960690133, 47.171502158237665 ] ] ] } }
]
}
