{
"type": "FeatureCollection",
"name": "chemille_sur_indrois",
"crs": { "type": "name", "properties": { "name": "urn:ogc:def:crs:OGC:1.3:CRS84" } },
"features": [
{ "type": "Feature", "properties": { "name": "Chemillé-sur-Indrois", "feature_type": "entity", "metric_roundness": 60.43, "metric_rectangularity": 66.63, "metric_mobile_fit": 57.41, "metric_aspect_ratio": 0.988, "metric_area_km2": 54.37 }, "geometry": { "type": "Polygon", "coordinates": [ [ [ 1.1768795, 47.181409 ], [ 1.1684045, 47.187424499999977 ], [ 1.1477131, 47.1803119 ], [ 1.1442346, 47.171751099999987 ], [ 1.1324281, 47.163616499999989 ], [ 1.1307396, 47.157562899999981 ], [ 1.1196555, 47.144484799999987 ], [ 1.1118275, 47.1395585 ], [ 1.1203501, 47.1406085 ], [ 1.1292411, 47.1340752 ], [ 1.1289722, 47.1294022 ], [ 1.145397, 47.1271345 ], [ 1.1660342, 47.132547099999989 ], [ 1.1754265, 47.1314 ], [ 1.1805016, 47.135166499999983 ], [ 1.1896583, 47.135294699999989 ], [ 1.1994585, 47.148194 ], [ 1.192465, 47.154558 ], [ 1.1768795, 47.181409 ] ] ] } },
{ "type": "Feature", "properties": { "name": "Chemillé-sur-Indrois", "feature_type": "circle", "metric_roundness": 60.43, "metric_rectangularity": 66.63, "metric_mobile_fit": 57.41, "metric_aspect_ratio": 0.988, "metric_area_km2": 54.37 }, "geometry": { "type": "Polygon", "coordinates": [ [ [ 1.201083489564447, 47.156458469181395 ], [ 1.201017588013282, 47.15474710337417 ], [ 1.20082006399136, 47.153040373412622 ], [ 1.200491458898294, 47.151342958001401 ], [ 1.200032673417803, 47.149659510757516 ], [ 1.199444965049, 47.147994647442864 ], [ 1.198729944659672, 47.146352933295738 ], [ 1.197889572071007, 47.144738870496326 ], [ 1.196926150685856, 47.143156885800721 ], [ 1.195842321175268, 47.141611318377727 ], [ 1.194641054240598, 47.140106407881888 ], [ 1.193325642471013, 47.138646282796174 ], [ 1.19189969131874, 47.137234949076245 ], [ 1.190367109216773, 47.135876279128233 ], [ 1.188732096866123, 47.134574001150504 ], [ 1.186999135721995, 47.13333168886912 ], [ 1.185172975710429, 47.132152751695692 ], [ 1.183258622209081, 47.131040425335101 ], [ 1.181261322327835, 47.129997762869294 ], [ 1.179186550526832, 47.129027626342236 ], [ 1.177039993611366, 47.128132678869392 ], [ 1.174827535144735, 47.127315377294117 ], [ 1.172555239321811, 47.126577965411364 ], [ 1.170229334347498, 47.125922467777848 ], [ 1.16785619536566, 47.125350684126026 ], [ 1.165442326985291, 47.124864184397644 ], [ 1.162994345451835, 47.124464304410807 ], [ 1.16051896051252, 47.12415214217279 ], [ 1.1580229570254, 47.123928554848931 ], [ 1.155513176362541, 47.123794156396244 ], [ 1.152996497658285, 47.123749315868288 ], [ 1.15047981895403, 47.123794156396244 ], [ 1.14797003829117, 47.123928554848931 ], [ 1.145474034804051, 47.12415214217279 ], [ 1.142998649864735, 47.124464304410807 ], [ 1.14055066833128, 47.124864184397644 ], [ 1.138136799950911, 47.125350684126026 ], [ 1.135763660969073, 47.125922467777848 ], [ 1.13343775599476, 47.126577965411364 ], [ 1.131165460171836, 47.127315377294117 ], [ 1.128953001705205, 47.128132678869392 ], [ 1.126806444789738, 47.129027626342236 ], [ 1.124731672988736, 47.129997762869294 ], [ 1.12273437310749, 47.131040425335101 ], [ 1.120820019606142, 47.132152751695692 ], [ 1.118993859594576, 47.13333168886912 ], [ 1.117260898450448, 47.134574001150504 ], [ 1.115625886099798, 47.135876279128233 ], [ 1.11409330399783, 47.137234949076245 ], [ 1.112667352845558, 47.138646282796174 ], [ 1.111351941075973, 47.140106407881888 ], [ 1.110150674141302, 47.141611318377727 ], [ 1.109066844630715, 47.143156885800721 ], [ 1.108103423245564, 47.144738870496326 ], [ 1.107263050656898, 47.146352933295738 ], [ 1.106548030267571, 47.147994647442864 ], [ 1.105960321898768, 47.149659510757516 ], [ 1.105501536418277, 47.151342958001401 ], [ 1.105172931325211, 47.153040373412622 ], [ 1.104975407303289, 47.15474710337417 ], [ 1.104909505752124, 47.156458469181395 ], [ 1.104975407303289, 47.158169779873425 ], [ 1.105172931325211, 47.159876345093245 ], [ 1.105501536418277, 47.161573487941155 ], [ 1.105960321898768, 47.16325655778639 ], [ 1.106548030267571, 47.164920943001924 ], [ 1.107263050656898, 47.166562083587621 ], [ 1.108103423245564, 47.168175483647367 ], [ 1.109066844630715, 47.169756723686149 ], [ 1.110150674141302, 47.17130147269382 ], [ 1.111351941075973, 47.172805499982537 ], [ 1.112667352845558, 47.17426468674595 ], [ 1.11409330399783, 47.175675037308856 ], [ 1.115625886099798, 47.177032690036789 ], [ 1.117260898450448, 47.178333927876267 ], [ 1.118993859594576, 47.179575188497196 ], [ 1.120820019606142, 47.180753074010191 ], [ 1.122734373107489, 47.181864360232559 ], [ 1.124731672988736, 47.182906005478344 ], [ 1.126806444789738, 47.183875158848451 ], [ 1.128953001705205, 47.184769167999079 ], [ 1.131165460171836, 47.185585586367338 ], [ 1.13343775599476, 47.186322179834853 ], [ 1.135763660969073, 47.186976932811667 ], [ 1.138136799950911, 47.187548053723923 ], [ 1.14055066833128, 47.188033979890982 ], [ 1.142998649864735, 47.1884333817788 ], [ 1.145474034804051, 47.188745166618233 ], [ 1.14797003829117, 47.188968481378829 ], [ 1.15047981895403, 47.189102715089824 ], [ 1.152996497658285, 47.1891475005026 ], [ 1.155513176362541, 47.189102715089824 ], [ 1.1580229570254, 47.188968481378829 ], [ 1.16051896051252, 47.188745166618233 ], [ 1.162994345451835, 47.1884333817788 ], [ 1.16544232698529, 47.188033979890982 ], [ 1.16785619536566, 47.187548053723923 ], [ 1.170229334347498, 47.186976932811667 ], [ 1.17255523932181, 47.186322179834853 ], [ 1.174827535144735, 47.185585586367338 ], [ 1.177039993611366, 47.184769167999079 ], [ 1.179186550526832, 47.183875158848451 ], [ 1.181261322327835, 47.182906005478344 ], [ 1.183258622209081, 47.181864360232559 ], [ 1.185172975710429, 47.180753074010191 ], [ 1.186999135721995, 47.179575188497196 ], [ 1.188732096866123, 47.178333927876267 ], [ 1.190367109216773, 47.177032690036789 ], [ 1.19189969131874, 47.175675037308856 ], [ 1.193325642471013, 47.17426468674595 ], [ 1.194641054240598, 47.172805499982537 ], [ 1.195842321175268, 47.17130147269382 ], [ 1.196926150685856, 47.169756723686149 ], [ 1.197889572071007, 47.168175483647367 ], [ 1.198729944659672, 47.166562083587621 ], [ 1.199444965049, 47.164920943001924 ], [ 1.200032673417803, 47.16325655778639 ], [ 1.200491458898294, 47.161573487941155 ], [ 1.20082006399136, 47.159876345093245 ], [ 1.201017588013282, 47.158169779873425 ], [ 1.201083489564447, 47.156458469181395 ] ] ] } },
{ "type": "Feature", "properties": { "name": "Chemillé-sur-Indrois", "feature_type": "mrr", "metric_roundness": 60.43, "metric_rectangularity": 66.63, "metric_mobile_fit": 57.41, "metric_aspect_ratio": 0.988, "metric_area_km2": 54.37 }, "geometry": { "type": "Polygon", "coordinates": [ [ [ 1.108895726654421, 47.137902451506577 ], [ 1.158184848498027, 47.191746882799229 ], [ 1.2181182730706, 47.166393132117399 ], [ 1.168829151226994, 47.112522994451155 ], [ 1.108895726654421, 47.137902451506577 ] ] ] } }
]
}
