{
"type": "FeatureCollection",
"name": "choisel",
"crs": { "type": "name", "properties": { "name": "urn:ogc:def:crs:OGC:1.3:CRS84" } },
"features": [
{ "type": "Feature", "properties": { "name": "Choisel", "metric_roundness": 47.83, "metric_rectangularity": 59.25, "metric_mobile_fit": 88.4, "metric_aspect_ratio": 0.678, "metric_area_km2": 20.51 }, "geometry": { "type": "Polygon", "coordinates": [ [ [ 2.0135732, 48.689802599999986 ], [ 2.003418, 48.6888505 ], [ 1.9958299, 48.686007699999983 ], [ 2.0011862, 48.6751095 ], [ 2.00077, 48.668025 ], [ 1.9968815, 48.660904 ], [ 1.9956015, 48.659462 ], [ 1.993032, 48.658061499999988 ], [ 2.011662, 48.6535745 ], [ 2.011351, 48.659910499999981 ], [ 2.0167165, 48.659071499999982 ], [ 2.020729, 48.6574635 ], [ 2.0224855, 48.6585925 ], [ 2.025342, 48.6573865 ], [ 2.028193, 48.6572595 ], [ 2.0289005, 48.663742 ], [ 2.0338765, 48.678674 ], [ 2.037636, 48.680219 ], [ 2.0300997, 48.683221 ], [ 2.0257101, 48.693070299999981 ], [ 2.020817, 48.696448 ], [ 2.019524, 48.6969845 ], [ 2.0135732, 48.689802599999986 ] ] ] } }
]
}
