{
"type": "FeatureCollection",
"name": "chuderov",
"crs": { "type": "name", "properties": { "name": "urn:ogc:def:crs:OGC:1.3:CRS84" } },
"features": [
{ "type": "Feature", "properties": { "name": "Chuderov", "metric_roundness": 40.15, "metric_rectangularity": 46.05, "metric_mobile_fit": 59.96, "metric_aspect_ratio": 0.963, "metric_area_km2": 38.28 }, "geometry": { "type": "Polygon", "coordinates": [ [ [ 14.0889906, 50.698086799999984 ], [ 14.0829718, 50.703602399999987 ], [ 14.083812, 50.706212 ], [ 14.0842846, 50.708754 ], [ 14.0972012, 50.714505799999984 ], [ 14.10904, 50.728967 ], [ 14.086591, 50.730981499999984 ], [ 14.0829754, 50.7160276 ], [ 14.0674171, 50.717562099999981 ], [ 14.0651862, 50.7056231 ], [ 14.062709, 50.704102499999969 ], [ 14.0483682, 50.7026232 ], [ 14.0315126, 50.7163074 ], [ 14.0255775, 50.7117195 ], [ 14.0301353, 50.705053 ], [ 14.0291534, 50.6996467 ], [ 14.0348426, 50.6875258 ], [ 14.0525911, 50.683214199999981 ], [ 14.060346, 50.6847728 ], [ 14.069667, 50.6760865 ], [ 14.0850936, 50.6772218 ], [ 14.0904555, 50.683511 ], [ 14.0889906, 50.698086799999984 ] ] ] } }
]
}
