{
"type": "FeatureCollection",
"name": "chvalova",
"crs": { "type": "name", "properties": { "name": "urn:ogc:def:crs:OGC:1.3:CRS84" } },
"features": [
{ "type": "Feature", "properties": { "name": "Chvalová", "feature_type": "entity", "metric_roundness": 53.78, "metric_rectangularity": 70.61, "metric_mobile_fit": 90.7, "metric_aspect_ratio": 0.655, "metric_area_km2": 19.97 }, "geometry": { "type": "Polygon", "coordinates": [ [ [ 20.157907, 48.533534 ], [ 20.1457982, 48.519893099999976 ], [ 20.1450785, 48.510610499999984 ], [ 20.1477071, 48.506529399999984 ], [ 20.1460554, 48.4980174 ], [ 20.157118, 48.4954415 ], [ 20.1631075, 48.492757 ], [ 20.1854255, 48.50957649999998 ], [ 20.179819, 48.514595 ], [ 20.1786389, 48.5237468 ], [ 20.1636325, 48.532957 ], [ 20.157907, 48.533534 ] ] ] } },
{ "type": "Feature", "properties": { "name": "Chvalová", "feature_type": "circle", "metric_roundness": 53.78, "metric_rectangularity": 70.61, "metric_mobile_fit": 90.7, "metric_aspect_ratio": 0.655, "metric_area_km2": 19.97 }, "geometry": { "type": "Polygon", "coordinates": [ [ [ 20.191394399564544, 48.513149602138483 ], [ 20.191352069799535, 48.512078737763701 ], [ 20.191225196527455, 48.511010786014275 ], [ 20.191014127499116, 48.509948674349452 ], [ 20.190719441240066, 48.508895314403155 ], [ 20.190341945464844, 48.507853593998263 ], [ 20.189882674863142, 48.506826369224349 ], [ 20.189342888263749, 48.505816456600499 ], [ 20.188724065184218, 48.504826625344855 ], [ 20.188027901775591, 48.50385958977207 ], [ 20.187256306173381, 48.50291800183988 ], [ 20.186411393267509, 48.502004443865118 ], [ 20.185495478905519, 48.501121421429382 ], [ 20.184511073545, 48.500271356494174 ], [ 20.183460875372635, 48.499456580744223 ], [ 20.182347762908613, 48.498679329177747 ], [ 20.18117478711682, 48.497941733961191 ], [ 20.179945163042373, 48.497245818565759 ], [ 20.178662260999388, 48.496593492201718 ], [ 20.177329597333195, 48.495986544566179 ], [ 20.175950824782269, 48.495426640918865 ], [ 20.174529722466335, 48.494915317499562 ], [ 20.173070185528061, 48.494453977300083 ], [ 20.171576214456742, 48.494043886202419 ], [ 20.170051904123241, 48.493686169493877 ], [ 20.168501432556234, 48.493381808769094 ], [ 20.166929049490502, 48.493131639227158 ], [ 20.165339064718744, 48.492936347371923 ], [ 20.163735836278697, 48.492796469121416 ], [ 20.162123758508081, 48.492712388331967 ], [ 20.16050725, 48.492684335741096 ], [ 20.158890741491916, 48.492712388331967 ], [ 20.1572786637213, 48.492796469121416 ], [ 20.15567543528125, 48.492936347371923 ], [ 20.154085450509491, 48.493131639227158 ], [ 20.15251306744376, 48.493381808769094 ], [ 20.150962595876752, 48.493686169493877 ], [ 20.149438285543251, 48.494043886202419 ], [ 20.147944314471932, 48.494453977300083 ], [ 20.146484777533658, 48.494915317499562 ], [ 20.145063675217724, 48.495426640918865 ], [ 20.143684902666799, 48.495986544566179 ], [ 20.142352239000605, 48.496593492201718 ], [ 20.141069336957621, 48.497245818565759 ], [ 20.139839712883173, 48.497941733961191 ], [ 20.138666737091384, 48.498679329177747 ], [ 20.137553624627358, 48.499456580744223 ], [ 20.136503426454997, 48.500271356494174 ], [ 20.135519021094478, 48.501121421429382 ], [ 20.134603106732484, 48.502004443865118 ], [ 20.133758193826608, 48.50291800183988 ], [ 20.132986598224402, 48.50385958977207 ], [ 20.132290434815779, 48.504826625344855 ], [ 20.131671611736245, 48.505816456600499 ], [ 20.131131825136851, 48.506826369224349 ], [ 20.130672554535145, 48.507853593998263 ], [ 20.130295058759927, 48.508895314403155 ], [ 20.130000372500877, 48.509948674349452 ], [ 20.129789303472538, 48.511010786014275 ], [ 20.129662430200458, 48.512078737763701 ], [ 20.129620100435449, 48.513149602138483 ], [ 20.129662430200458, 48.514220443880916 ], [ 20.129789303472538, 48.515288327981274 ], [ 20.130000372500877, 48.516350327721476 ], [ 20.130295058759927, 48.517403532693884 ], [ 20.130672554535145, 48.51844505677353 ], [ 20.131131825136851, 48.519472046021825 ], [ 20.131671611736245, 48.520481686500162 ], [ 20.132290434815779, 48.52147121197207 ], [ 20.132986598224402, 48.522437911473133 ], [ 20.133758193826608, 48.523379136727684 ], [ 20.134603106732484, 48.524292309392465 ], [ 20.135519021094478, 48.525174928107411 ], [ 20.136503426454997, 48.526024575334276 ], [ 20.137553624627358, 48.526838923964831 ], [ 20.138666737091384, 48.527615743680464 ], [ 20.139839712883173, 48.52835290704617 ], [ 20.141069336957621, 48.529048395322199 ], [ 20.142352239000605, 48.529700303977911 ], [ 20.143684902666799, 48.530306847892675 ], [ 20.145063675217724, 48.530866366230022 ], [ 20.146484777533658, 48.531377326971707 ], [ 20.147944314471932, 48.531838331099479 ], [ 20.149438285543251, 48.532248116413435 ], [ 20.150962595876752, 48.532605560976464 ], [ 20.15251306744376, 48.53290968617565 ], [ 20.154085450509491, 48.533159659392346 ], [ 20.15567543528125, 48.533354796273706 ], [ 20.1572786637213, 48.533494562599614 ], [ 20.158890741491916, 48.533578575739995 ], [ 20.16050725, 48.533606605698516 ], [ 20.162123758508081, 48.533578575739995 ], [ 20.163735836278697, 48.533494562599614 ], [ 20.165339064718744, 48.533354796273706 ], [ 20.166929049490502, 48.533159659392346 ], [ 20.168501432556234, 48.53290968617565 ], [ 20.170051904123241, 48.532605560976464 ], [ 20.171576214456742, 48.532248116413435 ], [ 20.173070185528061, 48.531838331099479 ], [ 20.174529722466335, 48.531377326971707 ], [ 20.175950824782269, 48.530866366230022 ], [ 20.177329597333195, 48.530306847892675 ], [ 20.178662260999388, 48.529700303977911 ], [ 20.179945163042373, 48.529048395322199 ], [ 20.18117478711682, 48.52835290704617 ], [ 20.182347762908613, 48.527615743680464 ], [ 20.183460875372635, 48.526838923964831 ], [ 20.184511073545, 48.526024575334276 ], [ 20.185495478905519, 48.525174928107411 ], [ 20.186411393267509, 48.524292309392465 ], [ 20.187256306173381, 48.523379136727684 ], [ 20.188027901775591, 48.522437911473133 ], [ 20.188724065184218, 48.52147121197207 ], [ 20.189342888263749, 48.520481686500162 ], [ 20.189882674863142, 48.519472046021825 ], [ 20.190341945464844, 48.51844505677353 ], [ 20.190719441240066, 48.517403532693884 ], [ 20.191014127499116, 48.516350327721476 ], [ 20.191225196527455, 48.515288327981274 ], [ 20.191352069799535, 48.514220443880916 ], [ 20.191394399564544, 48.513149602138483 ] ] ] } },
{ "type": "Feature", "properties": { "name": "Chvalová", "feature_type": "mrr", "metric_roundness": 53.78, "metric_rectangularity": 70.61, "metric_mobile_fit": 90.7, "metric_aspect_ratio": 0.655, "metric_area_km2": 19.97 }, "geometry": { "type": "Polygon", "coordinates": [ [ [ 20.193428563978731, 48.515606491718913 ], [ 20.159609286043633, 48.49012014450777 ], [ 20.126151892881097, 48.509612062402937 ], [ 20.159971170816195, 48.535088609503447 ], [ 20.193428563978731, 48.515606491718913 ] ] ] } }
]
}
