{
"type": "FeatureCollection",
"name": "hochfelden",
"crs": { "type": "name", "properties": { "name": "urn:ogc:def:crs:OGC:1.3:CRS84" } },
"features": [
{ "type": "Feature", "properties": { "name": "Hochfelden", "feature_type": "entity", "metric_roundness": 57.58, "metric_rectangularity": 66.1, "metric_mobile_fit": 69.53, "metric_aspect_ratio": 0.867, "metric_area_km2": 37.92 }, "geometry": { "type": "Polygon", "coordinates": [ [ [ 7.563258, 48.724303 ], [ 7.5686189, 48.727632499999984 ], [ 7.569472, 48.732602199999981 ], [ 7.579761, 48.7342235 ], [ 7.5779561, 48.7383302 ], [ 7.5804317, 48.745451099999975 ], [ 7.5933525, 48.750639499999984 ], [ 7.588652, 48.7623761 ], [ 7.5908574, 48.7667361 ], [ 7.584641, 48.773482 ], [ 7.5749873, 48.7708318 ], [ 7.5591025, 48.771734499999987 ], [ 7.5438885, 48.770378 ], [ 7.54231, 48.759206199999987 ], [ 7.5310945, 48.754628 ], [ 7.530401, 48.752764 ], [ 7.5286745, 48.7510135 ], [ 7.5295165, 48.7470805 ], [ 7.5315495, 48.747523 ], [ 7.5338505, 48.7468365 ], [ 7.5351815, 48.744218499999988 ], [ 7.5404353, 48.7410389 ], [ 7.547059, 48.7252235 ], [ 7.563258, 48.724303 ] ] ] } },
{ "type": "Feature", "properties": { "name": "Hochfelden", "feature_type": "circle", "metric_roundness": 57.58, "metric_rectangularity": 66.1, "metric_mobile_fit": 69.53, "metric_aspect_ratio": 0.867, "metric_area_km2": 37.92 }, "geometry": { "type": "Polygon", "coordinates": [ [ [ 7.606987766957124, 48.749358543449702 ], [ 7.606931389077235, 48.747938944039767 ], [ 7.606762409965418, 48.746523195712577 ], [ 7.606481292781671, 48.745115179428048 ], [ 7.606088808048657, 48.743718755275367 ], [ 7.605586031539747, 48.742337751883895 ], [ 7.604974341330404, 48.740975955916753 ], [ 7.604255414020974, 48.739637101676209 ], [ 7.603431220141241, 48.738324860849431 ], [ 7.602504018749339, 48.737042832422972 ], [ 7.601476351239833, 48.735794532793776 ], [ 7.600351034377937, 48.734583386104234 ], [ 7.599131152578949, 48.733412714827828 ], [ 7.597820049454086, 48.732285730631858 ], [ 7.596421318645882, 48.731205525542187 ], [ 7.594938793978254, 48.730175063434956 ], [ 7.59337653894827, 48.729197171878702 ], [ 7.591738835588374, 48.728274534349787 ], [ 7.590030172729643, 48.727409682842705 ], [ 7.588255233698201, 48.726604990895972 ], [ 7.586418883478562, 48.725862667053164 ], [ 7.584526155379034, 48.725184748777195 ], [ 7.582582237235775, 48.724573096835073 ], [ 7.580592457193298, 48.724029390168717 ], [ 7.578562269100388, 48.723555121266294 ], [ 7.576497237561494, 48.723151592047039 ], [ 7.574403022684523, 48.722819910271014 ], [ 7.572285364566887, 48.722560986484119 ], [ 7.570150067562292, 48.722375531506621 ], [ 7.568002984371401, 48.722264054472497 ], [ 7.56585, 48.722226861425014 ], [ 7.563697015628601, 48.722264054472497 ], [ 7.56154993243771, 48.722375531506621 ], [ 7.559414635433114, 48.722560986484119 ], [ 7.557296977315479, 48.722819910271014 ], [ 7.555202762438507, 48.723151592047039 ], [ 7.553137730899615, 48.723555121266294 ], [ 7.551107542806704, 48.724029390168717 ], [ 7.549117762764226, 48.724573096835073 ], [ 7.547173844620969, 48.725184748777195 ], [ 7.54528111652144, 48.725862667053164 ], [ 7.543444766301801, 48.726604990895972 ], [ 7.54166982727036, 48.727409682842705 ], [ 7.539961164411627, 48.728274534349787 ], [ 7.538323461051732, 48.729197171878702 ], [ 7.536761206021747, 48.730175063434956 ], [ 7.535278681354121, 48.731205525542187 ], [ 7.533879950545916, 48.732285730631858 ], [ 7.532568847421052, 48.733412714827828 ], [ 7.531348965622064, 48.734583386104234 ], [ 7.530223648760169, 48.735794532793776 ], [ 7.529195981250664, 48.737042832422972 ], [ 7.528268779858761, 48.738324860849431 ], [ 7.527444585979028, 48.739637101676209 ], [ 7.526725658669597, 48.740975955916753 ], [ 7.526113968460256, 48.742337751883895 ], [ 7.525611191951346, 48.743718755275367 ], [ 7.525218707218332, 48.745115179428048 ], [ 7.524937590034584, 48.746523195712577 ], [ 7.524768610922767, 48.747938944039767 ], [ 7.524712233042878, 48.749358543449702 ], [ 7.524768610922767, 48.750778102754587 ], [ 7.524937590034584, 48.752193731206049 ], [ 7.525218707218332, 48.753601549157558 ], [ 7.525611191951346, 48.754997698692883 ], [ 7.526113968460256, 48.756378354191462 ], [ 7.526725658669597, 48.757739732801724 ], [ 7.527444585979028, 48.759078104794085 ], [ 7.528268779858761, 48.760389803764973 ], [ 7.529195981250664, 48.761671236664512 ], [ 7.530223648760169, 48.762918893620494 ], [ 7.531348965622064, 48.764129357531793 ], [ 7.532568847421052, 48.765299313405571 ], [ 7.533879950545916, 48.766425557412653 ], [ 7.535278681354121, 48.767505005636814 ], [ 7.536761206021747, 48.768534702494314 ], [ 7.538323461051732, 48.769511828800844 ], [ 7.539961164411627, 48.770433709464271 ], [ 7.54166982727036, 48.771297820782486 ], [ 7.543444766301801, 48.772101797326634 ], [ 7.54528111652144, 48.772843438391234 ], [ 7.547173844620969, 48.773520713994039 ], [ 7.549117762764226, 48.774131770409298 ], [ 7.551107542806704, 48.774674935219814 ], [ 7.553137730899615, 48.775148721874089 ], [ 7.555202762438507, 48.775551833736529 ], [ 7.557296977315479, 48.775883167619689 ], [ 7.559414635433114, 48.776141816789277 ], [ 7.56154993243771, 48.776327073433769 ], [ 7.563697015628601, 48.776438430592194 ], [ 7.56585, 48.776475583534634 ], [ 7.568002984371401, 48.776438430592194 ], [ 7.570150067562292, 48.776327073433769 ], [ 7.572285364566887, 48.776141816789277 ], [ 7.574403022684523, 48.775883167619689 ], [ 7.576497237561494, 48.775551833736529 ], [ 7.578562269100388, 48.775148721874089 ], [ 7.580592457193298, 48.774674935219814 ], [ 7.582582237235775, 48.774131770409298 ], [ 7.584526155379034, 48.773520713994039 ], [ 7.586418883478562, 48.772843438391234 ], [ 7.588255233698201, 48.772101797326634 ], [ 7.590030172729643, 48.771297820782486 ], [ 7.591738835588374, 48.770433709464271 ], [ 7.59337653894827, 48.769511828800844 ], [ 7.594938793978254, 48.768534702494314 ], [ 7.596421318645882, 48.767505005636814 ], [ 7.597820049454086, 48.766425557412653 ], [ 7.599131152578949, 48.765299313405571 ], [ 7.600351034377937, 48.764129357531793 ], [ 7.601476351239833, 48.762918893620494 ], [ 7.602504018749339, 48.761671236664512 ], [ 7.603431220141241, 48.760389803764973 ], [ 7.604255414020974, 48.759078104794085 ], [ 7.604974341330404, 48.757739732801724 ], [ 7.605586031539747, 48.756378354191462 ], [ 7.606088808048657, 48.754997698692883 ], [ 7.606481292781671, 48.753601549157558 ], [ 7.606762409965418, 48.752193731206049 ], [ 7.606931389077235, 48.750778102754587 ], [ 7.606987766957124, 48.749358543449702 ] ] ] } },
{ "type": "Feature", "properties": { "name": "Hochfelden", "feature_type": "mrr", "metric_roundness": 57.58, "metric_rectangularity": 66.1, "metric_mobile_fit": 69.53, "metric_aspect_ratio": 0.867, "metric_area_km2": 37.92 }, "geometry": { "type": "Polygon", "coordinates": [ [ [ 7.52577018859654, 48.769453606360521 ], [ 7.589739748772536, 48.773830878193415 ], [ 7.597173038392442, 48.726625850137857 ], [ 7.533203478216447, 48.722244464210938 ], [ 7.52577018859654, 48.769453606360521 ] ] ] } }
]
}
