{
"type": "FeatureCollection",
"name": "hofheim_am_taunus_kreisstadt",
"crs": { "type": "name", "properties": { "name": "urn:ogc:def:crs:OGC:1.3:CRS84" } },
"features": [
{ "type": "Feature", "properties": { "name": "Hofheim am Taunus, Kreisstadt", "feature_type": "entity", "metric_roundness": 61.57, "metric_rectangularity": 60.88, "metric_mobile_fit": 67.81, "metric_aspect_ratio": 0.884, "metric_area_km2": 138.37 }, "geometry": { "type": "Polygon", "coordinates": [ [ [ 8.3448583, 50.1194588 ], [ 8.3535494, 50.105515399999987 ], [ 8.3600325, 50.104926 ], [ 8.3638475, 50.0989486 ], [ 8.3794339, 50.101450699999987 ], [ 8.3806905, 50.088459099999973 ], [ 8.3851318, 50.0820678 ], [ 8.3836422, 50.0767753 ], [ 8.3744202, 50.0676991 ], [ 8.3641468, 50.0706367 ], [ 8.3551406, 50.0646722 ], [ 8.3614769, 50.0515903 ], [ 8.373045, 50.0515255 ], [ 8.3861365, 50.0589935 ], [ 8.3963107, 50.056794499999981 ], [ 8.3988964, 50.052087399999984 ], [ 8.4128535, 50.045727 ], [ 8.4364755, 50.0569869 ], [ 8.4501145, 50.059327 ], [ 8.451792, 50.0606265 ], [ 8.4476199, 50.0682524 ], [ 8.4500861, 50.07275 ], [ 8.4485663, 50.075762899999987 ], [ 8.4641541, 50.093810899999987 ], [ 8.473463, 50.098500499999986 ], [ 8.4756525, 50.1012845 ], [ 8.4687632, 50.105789699999988 ], [ 8.4668302, 50.113046399999988 ], [ 8.4592702, 50.1190419 ], [ 8.4527067, 50.1213446 ], [ 8.4434697, 50.1183912 ], [ 8.4312511, 50.129839699999984 ], [ 8.407818, 50.133096 ], [ 8.4089352, 50.1301863 ], [ 8.4042953, 50.1302872 ], [ 8.3967836, 50.134816 ], [ 8.3846716, 50.1368091 ], [ 8.3819335, 50.14060520000001 ], [ 8.373864, 50.1309671 ], [ 8.350079, 50.128551 ], [ 8.3448583, 50.1194588 ] ] ] } },
{ "type": "Feature", "properties": { "name": "Hofheim am Taunus, Kreisstadt", "feature_type": "circle", "metric_roundness": 61.57, "metric_rectangularity": 60.88, "metric_mobile_fit": 67.81, "metric_aspect_ratio": 0.884, "metric_area_km2": 138.37 }, "geometry": { "type": "Polygon", "coordinates": [ [ [ 8.476658259804092, 50.093379596403018 ], [ 8.476554112780461, 50.090827993236196 ], [ 8.47624195716932, 50.088283248528072 ], [ 8.475722648567501, 50.085752338913025 ], [ 8.474997610363786, 50.083242204196296 ], [ 8.474068829837497, 50.08075972830224 ], [ 8.472938852711492, 50.078311720364184 ], [ 8.471610776174535, 50.075904896008034 ], [ 8.470088240392096, 50.073545858881651 ], [ 8.468375418528927, 50.07124108248118 ], [ 8.466477005310699, 50.068996892325053 ], [ 8.464398204156083, 50.066819448525465 ], [ 8.462144712914551, 50.06471472880586 ], [ 8.459722708248957, 50.062688512012365 ], [ 8.457138828705737, 50.060746362165325 ], [ 8.454400156519117, 50.058893613095691 ], [ 8.451514198199197, 50.057135353710159 ], [ 8.448488863957131, 50.055476413925938 ], [ 8.445332446023789, 50.053921351315644 ], [ 8.442053595921324, 50.052474438499893 ], [ 8.438661300749962, 50.051139651323425 ], [ 8.435164858554966, 50.049920657848446 ], [ 8.43157385284136, 50.048820808196616 ], [ 8.427898126306202, 50.0478431252685 ], [ 8.424147753860421, 50.046990296367241 ], [ 8.42033301501421, 50.046264665750137 ], [ 8.416464365701584, 50.045668228129649 ], [ 8.412552409621407, 50.045202623142323 ], [ 8.408607869173375, 50.044869130801622 ], [ 8.404641556068674, 50.044668667947612 ], [ 8.40066434169583, 50.044601785703662 ], [ 8.396687127322988, 50.044668667947612 ], [ 8.392720814218286, 50.044869130801622 ], [ 8.388776273770253, 50.045202623142323 ], [ 8.384864317690075, 50.045668228129649 ], [ 8.38099566837745, 50.046264665750137 ], [ 8.377180929531239, 50.046990296367241 ], [ 8.373430557085459, 50.0478431252685 ], [ 8.369754830550297, 50.048820808196616 ], [ 8.366163824836693, 50.049920657848446 ], [ 8.3626673826417, 50.051139651323425 ], [ 8.359275087470335, 50.052474438499893 ], [ 8.355996237367872, 50.053921351315644 ], [ 8.35283981943453, 50.055476413925938 ], [ 8.349814485192464, 50.057135353710159 ], [ 8.346928526872542, 50.058893613095691 ], [ 8.344189854685922, 50.060746362165311 ], [ 8.341605975142702, 50.062688512012365 ], [ 8.339183970477109, 50.06471472880586 ], [ 8.336930479235576, 50.066819448525465 ], [ 8.334851678080961, 50.068996892325053 ], [ 8.332953264862732, 50.07124108248118 ], [ 8.331240442999563, 50.073545858881651 ], [ 8.329717907217127, 50.075904896008034 ], [ 8.328389830680168, 50.078311720364184 ], [ 8.327259853554162, 50.08075972830224 ], [ 8.326331073027873, 50.083242204196296 ], [ 8.325606034824158, 50.085752338913025 ], [ 8.32508672622234, 50.088283248528072 ], [ 8.324774570611201, 50.090827993236196 ], [ 8.324670423587568, 50.093379596403018 ], [ 8.324774570611201, 50.095931063705706 ], [ 8.32508672622234, 50.098475402309973 ], [ 8.325606034824158, 50.101005640030792 ], [ 8.326331073027873, 50.10351484442436 ], [ 8.327259853554162, 50.105996141759135 ], [ 8.328389830680168, 50.108442735814343 ], [ 8.329717907217127, 50.110847926454881 ], [ 8.331240442999563, 50.113205127932218 ], [ 8.332953264862732, 50.115507886861991 ], [ 8.334851678080961, 50.117749899829576 ], [ 8.336930479235576, 50.119925030576567 ], [ 8.339183970477109, 50.122027326721778 ], [ 8.341605975142702, 50.124051035972279 ], [ 8.344189854685922, 50.125990621780929 ], [ 8.346928526872542, 50.127840778408874 ], [ 8.349814485192464, 50.129596445352789 ], [ 8.35283981943453, 50.131252821098784 ], [ 8.355996237367872, 50.132805376166367 ], [ 8.359275087470335, 50.134249865408101 ], [ 8.3626673826417, 50.135582339532405 ], [ 8.366163824836693, 50.136799155819368 ], [ 8.369754830550297, 50.137896988001046 ], [ 8.373430557085459, 50.138872835280679 ], [ 8.377180929531239, 50.139724030466866 ], [ 8.38099566837745, 50.140448247201626 ], [ 8.384864317690075, 50.141043506263287 ], [ 8.388776273770253, 50.141508180927822 ], [ 8.392720814218285, 50.141841001374587 ], [ 8.396687127322986, 50.14204105812491 ], [ 8.40066434169583, 50.142107804504782 ], [ 8.404641556068674, 50.14204105812491 ], [ 8.408607869173375, 50.141841001374587 ], [ 8.412552409621407, 50.141508180927822 ], [ 8.416464365701584, 50.141043506263287 ], [ 8.42033301501421, 50.140448247201626 ], [ 8.424147753860421, 50.139724030466866 ], [ 8.427898126306202, 50.138872835280679 ], [ 8.43157385284136, 50.137896988001046 ], [ 8.435164858554966, 50.136799155819368 ], [ 8.438661300749962, 50.135582339532405 ], [ 8.442053595921324, 50.134249865408101 ], [ 8.445332446023789, 50.132805376166367 ], [ 8.448488863957131, 50.131252821098784 ], [ 8.451514198199197, 50.129596445352789 ], [ 8.454400156519117, 50.127840778408874 ], [ 8.457138828705737, 50.125990621780943 ], [ 8.459722708248957, 50.124051035972279 ], [ 8.462144712914551, 50.122027326721778 ], [ 8.464398204156083, 50.119925030576567 ], [ 8.466477005310699, 50.117749899829576 ], [ 8.468375418528927, 50.115507886861991 ], [ 8.470088240392096, 50.113205127932225 ], [ 8.471610776174535, 50.110847926454881 ], [ 8.472938852711492, 50.108442735814343 ], [ 8.474068829837497, 50.105996141759135 ], [ 8.474997610363786, 50.10351484442436 ], [ 8.475722648567501, 50.101005640030792 ], [ 8.47624195716932, 50.098475402309973 ], [ 8.476554112780461, 50.095931063705706 ], [ 8.476658259804092, 50.093379596403018 ] ] ] } },
{ "type": "Feature", "properties": { "name": "Hofheim am Taunus, Kreisstadt", "feature_type": "mrr", "metric_roundness": 61.57, "metric_rectangularity": 60.88, "metric_mobile_fit": 67.81, "metric_aspect_ratio": 0.884, "metric_area_km2": 138.37 }, "geometry": { "type": "Polygon", "coordinates": [ [ [ 8.358777891590792, 50.14565898473051 ], [ 8.484627362005478, 50.1181855091979 ], [ 8.440156777994957, 50.03438224597285 ], [ 8.314307307580272, 50.061903792152926 ], [ 8.358777891590792, 50.14565898473051 ] ] ] } }
]
}
