{
"type": "FeatureCollection",
"name": "hohbeck",
"crs": { "type": "name", "properties": { "name": "urn:ogc:def:crs:OGC:1.3:CRS84" } },
"features": [
{ "type": "Feature", "properties": { "name": "Höhbeck", "feature_type": "entity", "metric_roundness": 59.25, "metric_rectangularity": 67.56, "metric_mobile_fit": 29.82, "metric_aspect_ratio": 1.264, "metric_area_km2": 53.23 }, "geometry": { "type": "Polygon", "coordinates": [ [ [ 11.429085, 53.033992499999989 ], [ 11.4322186, 53.0358028 ], [ 11.4428781, 53.0330407 ], [ 11.4524633, 53.0340803 ], [ 11.4625674, 53.046460299999985 ], [ 11.477719, 53.0650245 ], [ 11.4736706, 53.068064199999988 ], [ 11.4507924, 53.0780752 ], [ 11.418358, 53.074098 ], [ 11.4029398, 53.0723177 ], [ 11.391765, 53.068064199999988 ], [ 11.3829905, 53.0641645 ], [ 11.4021267, 53.046460299999985 ], [ 11.405949, 53.042924 ], [ 11.4284777, 53.0463678 ], [ 11.4327438, 53.0390438 ], [ 11.4244255, 53.0344055 ], [ 11.429085, 53.033992499999989 ] ] ] } },
{ "type": "Feature", "properties": { "name": "Höhbeck", "feature_type": "circle", "metric_roundness": 59.25, "metric_rectangularity": 67.56, "metric_mobile_fit": 29.82, "metric_aspect_ratio": 1.264, "metric_area_km2": 53.23 }, "geometry": { "type": "Polygon", "coordinates": [ [ [ 11.478523547043769, 53.059762700147495 ], [ 11.478457699855177, 53.058251443511757 ], [ 11.478260338771966, 53.056744276331258 ], [ 11.477932004747151, 53.055245330296543 ], [ 11.47747359772147, 53.053758714990586 ], [ 11.476886374156717, 53.052288506612996 ], [ 11.476171943591863, 53.050838736791007 ], [ 11.475332264231431, 53.049413381508423 ], [ 11.47436963757818, 53.048016350182969 ], [ 11.473286702124854, 53.046651474922093 ], [ 11.47208642612226, 53.045322499987265 ], [ 11.470772099443488, 53.044033071495697 ], [ 11.469347324566609, 53.042786727388517 ], [ 11.467816006700524, 53.041586887692723 ], [ 11.466182343081064, 53.040436845104715 ], [ 11.464450811466655, 53.039339755921112 ], [ 11.462626157865097, 53.038298631342535 ], [ 11.460713383525079, 53.037316329174665 ], [ 11.458717731228113, 53.036395545949539 ], [ 11.456644670918427, 53.035538809489566 ], [ 11.454499884710236, 53.034748471934932 ], [ 11.452289251313452, 53.034026703253851 ], [ 11.450018829920557, 53.033375485254339 ], [ 11.447694843598777, 53.032796606113855 ], [ 11.445323662233077, 53.032291655442648 ], [ 11.442911785066764, 53.031862019894454 ], [ 11.440465822887504, 53.031508879337096 ], [ 11.437992479907612, 53.031233203593722 ], [ 11.435498535388273, 53.031035749763838 ], [ 11.43299082505807, 53.03091706013182 ], [ 11.430476222376704, 53.030877460668748 ], [ 11.427961619695338, 53.03091706013182 ], [ 11.425453909365135, 53.031035749763838 ], [ 11.422959964845798, 53.031233203593722 ], [ 11.420486621865905, 53.031508879337096 ], [ 11.418040659686646, 53.031862019894454 ], [ 11.415628782520331, 53.032291655442648 ], [ 11.413257601154632, 53.032796606113855 ], [ 11.410933614832851, 53.033375485254339 ], [ 11.408663193439954, 53.034026703253851 ], [ 11.406452560043173, 53.034748471934932 ], [ 11.404307773834983, 53.035538809489566 ], [ 11.402234713525296, 53.036395545949539 ], [ 11.40023906122833, 53.037316329174665 ], [ 11.398326286888313, 53.038298631342535 ], [ 11.396501633286753, 53.039339755921112 ], [ 11.394770101672345, 53.040436845104715 ], [ 11.393136438052883, 53.041586887692723 ], [ 11.391605120186801, 53.042786727388517 ], [ 11.390180345309922, 53.044033071495697 ], [ 11.38886601863115, 53.045322499987265 ], [ 11.387665742628554, 53.046651474922093 ], [ 11.386582807175229, 53.048016350182969 ], [ 11.385620180521979, 53.049413381508423 ], [ 11.384780501161547, 53.050838736791007 ], [ 11.384066070596694, 53.052288506612996 ], [ 11.383478847031938, 53.053758714990586 ], [ 11.383020440006257, 53.055245330296543 ], [ 11.382692105981443, 53.056744276331258 ], [ 11.382494744898233, 53.058251443511757 ], [ 11.382428897709641, 53.059762700147495 ], [ 11.382494744898233, 53.061273903772111 ], [ 11.382692105981443, 53.062780912500074 ], [ 11.383020440006257, 53.064279596376849 ], [ 11.383478847031938, 53.065765848691726 ], [ 11.384066070596694, 53.067235597222123 ], [ 11.384780501161547, 53.068684815378973 ], [ 11.385620180521979, 53.070109533222634 ], [ 11.386582807175229, 53.071505848319283 ], [ 11.387665742628554, 53.072869936408651 ], [ 11.388866018631148, 53.074198061853679 ], [ 11.390180345309922, 53.075486587844324 ], [ 11.391605120186801, 53.076731986327474 ], [ 11.393136438052883, 53.077930847636573 ], [ 11.394770101672345, 53.079079889794627 ], [ 11.396501633286753, 53.080175967465948 ], [ 11.398326286888313, 53.081216080532236 ], [ 11.40023906122833, 53.082197382270181 ], [ 11.402234713525296, 53.083117187108648 ], [ 11.404307773834983, 53.083972977944633 ], [ 11.406452560043173, 53.084762412998408 ], [ 11.408663193439954, 53.085483332189746 ], [ 11.410933614832851, 53.08613376301782 ], [ 11.413257601154632, 53.086711925929578 ], [ 11.415628782520331, 53.087216239161926 ], [ 11.418040659686646, 53.087645323045045 ], [ 11.420486621865905, 53.087998003755253 ], [ 11.422959964845798, 53.088273316507596 ], [ 11.425453909365135, 53.088470508179583 ], [ 11.427961619695338, 53.088589039359086 ], [ 11.430476222376704, 53.088628585811044 ], [ 11.43299082505807, 53.088589039359086 ], [ 11.435498535388273, 53.088470508179583 ], [ 11.437992479907612, 53.088273316507596 ], [ 11.440465822887504, 53.087998003755253 ], [ 11.442911785066764, 53.087645323045045 ], [ 11.445323662233077, 53.087216239161926 ], [ 11.447694843598777, 53.086711925929578 ], [ 11.450018829920557, 53.08613376301782 ], [ 11.452289251313452, 53.085483332189746 ], [ 11.454499884710236, 53.084762412998408 ], [ 11.456644670918427, 53.083972977944633 ], [ 11.458717731228113, 53.083117187108648 ], [ 11.460713383525079, 53.082197382270181 ], [ 11.462626157865097, 53.081216080532236 ], [ 11.464450811466655, 53.080175967465948 ], [ 11.466182343081064, 53.079079889794627 ], [ 11.467816006700524, 53.077930847636573 ], [ 11.469347324566609, 53.076731986327474 ], [ 11.470772099443488, 53.075486587844324 ], [ 11.472086426122258, 53.074198061853679 ], [ 11.473286702124854, 53.072869936408651 ], [ 11.47436963757818, 53.071505848319283 ], [ 11.475332264231431, 53.070109533222634 ], [ 11.476171943591863, 53.068684815378973 ], [ 11.476886374156717, 53.067235597222123 ], [ 11.47747359772147, 53.065765848691726 ], [ 11.477932004747151, 53.064279596376849 ], [ 11.478260338771966, 53.062780912500074 ], [ 11.478457699855177, 53.061273903772111 ], [ 11.478523547043769, 53.059762700147495 ] ] ] } },
{ "type": "Feature", "properties": { "name": "Höhbeck", "feature_type": "mrr", "metric_roundness": 59.25, "metric_rectangularity": 67.56, "metric_mobile_fit": 29.82, "metric_aspect_ratio": 1.264, "metric_area_km2": 53.23 }, "geometry": { "type": "Polygon", "coordinates": [ [ [ 11.417509031480746, 53.092635117382521 ], [ 11.486718621643375, 53.062353627621235 ], [ 11.443002650061214, 53.026268479455226 ], [ 11.373793059898585, 53.056575334275543 ], [ 11.417509031480746, 53.092635117382521 ] ] ] } }
]
}
