{
"type": "FeatureCollection",
"name": "hollabrunn",
"crs": { "type": "name", "properties": { "name": "urn:ogc:def:crs:OGC:1.3:CRS84" } },
"features": [
{ "type": "Feature", "properties": { "name": "Hollabrunn", "feature_type": "entity", "metric_roundness": 29.65, "metric_rectangularity": 49.88, "metric_mobile_fit": -32.42, "metric_aspect_ratio": 1.887, "metric_area_km2": 347.17 }, "geometry": { "type": "Polygon", "coordinates": [ [ [ 16.1599217, 48.5939741 ], [ 16.1535454, 48.5960456 ], [ 16.1509688, 48.6001732 ], [ 16.1384057, 48.6005587 ], [ 16.1361905, 48.6058365 ], [ 16.1310227, 48.607576099999982 ], [ 16.1214223, 48.603427499999981 ], [ 16.089506, 48.605196499999984 ], [ 16.0902843, 48.5880048 ], [ 16.0866864, 48.5804698 ], [ 16.0814128, 48.5826448 ], [ 16.0796402, 48.5890279 ], [ 16.0774288, 48.5895715 ], [ 16.0529259, 48.5955946 ], [ 16.0448655, 48.5931901 ], [ 16.0374792, 48.580218599999988 ], [ 16.024614, 48.5774008 ], [ 16.0186368, 48.579878799999982 ], [ 16.0173176, 48.5900756 ], [ 15.9974225, 48.588931 ], [ 15.9947091, 48.586958499999987 ], [ 15.9752916, 48.5881478 ], [ 15.9629678, 48.583727599999982 ], [ 15.9661921, 48.573248 ], [ 15.9620373, 48.5659661 ], [ 15.9671745, 48.561841499999979 ], [ 15.9792414, 48.561610799999983 ], [ 15.9937237, 48.5560071 ], [ 16.0101191, 48.543942199999989 ], [ 16.006049, 48.5279645 ], [ 16.0230536, 48.527757099999981 ], [ 16.0326464, 48.517254099999981 ], [ 16.0319049, 48.5064047 ], [ 16.024038, 48.494882 ], [ 16.025911, 48.4915725 ], [ 16.0346075, 48.488645599999977 ], [ 16.0407785, 48.492663599999979 ], [ 16.052308, 48.4895642 ], [ 16.0623126, 48.4939512 ], [ 16.070462, 48.492898 ], [ 16.0774288, 48.4983498 ], [ 16.0885643, 48.507063699999989 ], [ 16.0926151, 48.518778899999987 ], [ 16.1006126, 48.5203315 ], [ 16.1036279, 48.5249869 ], [ 16.128643, 48.535723199999985 ], [ 16.1404731, 48.5485648 ], [ 16.1422583, 48.555990699999988 ], [ 16.1712006, 48.5509003 ], [ 16.191656, 48.541211499999989 ], [ 16.2168854, 48.5461416 ], [ 16.2208756, 48.550945399999989 ], [ 16.2218071, 48.5628757 ], [ 16.2293666, 48.5649811 ], [ 16.2332813, 48.570135899999983 ], [ 16.2436777, 48.5687573 ], [ 16.2647065, 48.5715018 ], [ 16.28258, 48.554724 ], [ 16.2893465, 48.56697 ], [ 16.2886275, 48.589912 ], [ 16.2939607, 48.594009499999984 ], [ 16.301552, 48.595116 ], [ 16.3039803, 48.604131499999987 ], [ 16.3017979, 48.608623299999984 ], [ 16.2687775, 48.603276 ], [ 16.2575325, 48.600379899999986 ], [ 16.2394108, 48.604567899999985 ], [ 16.224978, 48.5991414 ], [ 16.1981862, 48.596602 ], [ 16.1962356, 48.5917047 ], [ 16.17689, 48.595868 ], [ 16.1599217, 48.5939741 ] ] ] } },
{ "type": "Feature", "properties": { "name": "Hollabrunn", "feature_type": "circle", "metric_roundness": 29.65, "metric_rectangularity": 49.88, "metric_mobile_fit": -32.42, "metric_aspect_ratio": 1.887, "metric_area_km2": 347.17 }, "geometry": { "type": "Polygon", "coordinates": [ [ [ 16.307402216945668, 48.581454526910598 ], [ 16.30716447443654, 48.575447902280459 ], [ 16.306451898544847, 48.569457030592481 ], [ 16.305266442391574, 48.563498341154215 ], [ 16.303611355229645, 48.557588180800067 ], [ 16.301491173537922, 48.551742768927305 ], [ 16.298911708587056, 48.545978152820275 ], [ 16.295880030511171, 48.54031016338768 ], [ 16.292404448929144, 48.534754371437103 ], [ 16.288494490168521, 48.529326044610592 ], [ 16.284160871154473, 48.524040105103261 ], [ 16.279415470035495, 48.518911088285797 ], [ 16.274271293626203, 48.513953102349234 ], [ 16.268742441756576, 48.50917978908862 ], [ 16.262844068625274, 48.504604285938633 ], [ 16.256592341263065, 48.500239189371861 ], [ 16.250004395220095, 48.496096519766297 ], [ 16.243098287598539, 48.492187687845131 ], [ 16.235892947559361, 48.488523462787548 ], [ 16.228408124438761, 48.48511394210454 ], [ 16.220664333616654, 48.481968523369154 ], [ 16.212682800285418, 48.479095877884937 ], [ 16.204485401273129, 48.476503926371237 ], [ 16.196094605080678, 48.474199816737915 ], [ 16.187533410297196, 48.472189904015956 ], [ 16.178825282562499, 48.470479732504451 ], [ 16.169994090249421, 48.469074020187392 ], [ 16.161064039042234, 48.467976645467452 ], [ 16.152059605590583, 48.467190636256568 ], [ 16.143005470420668, 48.466718161456562 ], [ 16.133926450287642, 48.466560524855183 ], [ 16.12484743015462, 48.466718161456562 ], [ 16.115793294984702, 48.467190636256568 ], [ 16.106788861533051, 48.467976645467452 ], [ 16.097858810325867, 48.469074020187392 ], [ 16.089027618012786, 48.470479732504451 ], [ 16.080319490278089, 48.472189904015956 ], [ 16.071758295494607, 48.474199816737915 ], [ 16.06336749930216, 48.476503926371237 ], [ 16.055170100289864, 48.479095877884937 ], [ 16.047188566958635, 48.481968523369154 ], [ 16.039444776136527, 48.48511394210454 ], [ 16.031959953015924, 48.488523462787548 ], [ 16.024754612976746, 48.492187687845131 ], [ 16.017848505355193, 48.496096519766297 ], [ 16.01126055931222, 48.500239189371861 ], [ 16.005008831950008, 48.504604285938633 ], [ 15.999110458818707, 48.50917978908862 ], [ 15.99358160694908, 48.513953102349234 ], [ 15.988437430539793, 48.518911088285797 ], [ 15.983692029420812, 48.524040105103261 ], [ 15.979358410406764, 48.529326044610592 ], [ 15.975448451646139, 48.534754371437103 ], [ 15.971972870064118, 48.54031016338768 ], [ 15.968941191988232, 48.545978152820275 ], [ 15.966361727037361, 48.551742768927305 ], [ 15.964241545345638, 48.557588180800067 ], [ 15.962586458183713, 48.563498341154215 ], [ 15.961401002030442, 48.569457030592481 ], [ 15.960688426138748, 48.575447902280459 ], [ 15.96045068362962, 48.581454526910598 ], [ 15.960688426138748, 48.587460437829321 ], [ 15.961401002030442, 48.593449176202682 ], [ 15.962586458183713, 48.599404336096242 ], [ 15.964241545345638, 48.605309609346158 ], [ 15.966361727037361, 48.611148830099502 ], [ 15.968941191988232, 48.616906018903329 ], [ 15.971972870064118, 48.622565426224298 ], [ 15.975448451646139, 48.628111575282503 ], [ 15.979358410406764, 48.633529304085712 ], [ 15.983692029420812, 48.638803806553234 ], [ 15.988437430539793, 48.643920672621277 ], [ 15.99358160694908, 48.648865927225131 ], [ 15.999110458818707, 48.653626068057122 ], [ 16.005008831950008, 48.658188102002569 ], [ 16.01126055931222, 48.662539580160406 ], [ 16.017848505355193, 48.666668631358803 ], [ 16.024754612976746, 48.670563994080645 ], [ 16.031959953015924, 48.674215046718068 ], [ 16.039444776136527, 48.677611836079691 ], [ 16.047188566958635, 48.680745104079328 ], [ 16.055170100289864, 48.683606312539204 ], [ 16.06336749930216, 48.686187666046138 ], [ 16.071758295494607, 48.688482132804005 ], [ 16.080319490278089, 48.69048346343088 ], [ 16.089027618012786, 48.69218620765465 ], [ 16.097858810325867, 48.693585728865962 ], [ 16.106788861533051, 48.694678216493003 ], [ 16.115793294984702, 48.695460696167622 ], [ 16.12484743015462, 48.695931037658241 ], [ 16.133926450287642, 48.696087960549974 ], [ 16.143005470420668, 48.695931037658241 ], [ 16.152059605590583, 48.695460696167622 ], [ 16.161064039042234, 48.694678216493003 ], [ 16.169994090249421, 48.693585728865962 ], [ 16.178825282562499, 48.69218620765465 ], [ 16.187533410297196, 48.69048346343088 ], [ 16.196094605080678, 48.688482132804005 ], [ 16.204485401273129, 48.686187666046138 ], [ 16.212682800285418, 48.683606312539204 ], [ 16.220664333616654, 48.680745104079328 ], [ 16.228408124438761, 48.677611836079691 ], [ 16.235892947559361, 48.674215046718068 ], [ 16.243098287598539, 48.670563994080645 ], [ 16.250004395220095, 48.666668631358803 ], [ 16.256592341263065, 48.662539580160406 ], [ 16.262844068625274, 48.658188102002569 ], [ 16.268742441756576, 48.653626068057122 ], [ 16.274271293626203, 48.648865927225131 ], [ 16.279415470035495, 48.643920672621277 ], [ 16.284160871154473, 48.638803806553234 ], [ 16.288494490168521, 48.633529304085712 ], [ 16.292404448929144, 48.628111575282503 ], [ 16.295880030511171, 48.622565426224305 ], [ 16.298911708587056, 48.616906018903329 ], [ 16.301491173537922, 48.611148830099502 ], [ 16.303611355229645, 48.605309609346158 ], [ 16.305266442391574, 48.599404336096242 ], [ 16.306451898544847, 48.593449176202682 ], [ 16.30716447443654, 48.587460437829321 ], [ 16.307402216945668, 48.581454526910598 ] ] ] } },
{ "type": "Feature", "properties": { "name": "Hollabrunn", "feature_type": "mrr", "metric_roundness": 29.65, "metric_rectangularity": 49.88, "metric_mobile_fit": -32.42, "metric_aspect_ratio": 1.887, "metric_area_km2": 347.17 }, "geometry": { "type": "Polygon", "coordinates": [ [ [ 15.95547949888207, 48.585189872582802 ], [ 16.293238369901427, 48.635593193985422 ], [ 16.328947983224683, 48.530928638160354 ], [ 15.991189112205326, 48.480420873423881 ], [ 15.95547949888207, 48.585189872582802 ] ] ] } }
]
}
