{
"type": "FeatureCollection",
"name": "honskirch",
"crs": { "type": "name", "properties": { "name": "urn:ogc:def:crs:OGC:1.3:CRS84" } },
"features": [
{ "type": "Feature", "properties": { "name": "Honskirch", "feature_type": "entity", "metric_roundness": 58.61, "metric_rectangularity": 71.81, "metric_mobile_fit": 36.14, "metric_aspect_ratio": 1.201, "metric_area_km2": 14.41 }, "geometry": { "type": "Polygon", "coordinates": [ [ [ 6.9868155, 48.949614499999988 ], [ 6.9600795, 48.952008 ], [ 6.9410079, 48.9440308 ], [ 6.9393097, 48.939954399999984 ], [ 6.947275, 48.934948499999983 ], [ 6.9501991, 48.930659399999989 ], [ 6.9619305, 48.9260274 ], [ 6.9777721, 48.9336968 ], [ 6.981783, 48.941937 ], [ 6.9868155, 48.949614499999988 ] ] ] } },
{ "type": "Feature", "properties": { "name": "Honskirch", "feature_type": "circle", "metric_roundness": 58.61, "metric_rectangularity": 71.81, "metric_mobile_fit": 36.14, "metric_aspect_ratio": 1.201, "metric_area_km2": 14.41 }, "geometry": { "type": "Polygon", "coordinates": [ [ [ 6.989287361701367, 48.942475431962478 ], [ 6.989252913396933, 48.941611364305018 ], [ 6.989149662904039, 48.940749650098667 ], [ 6.988977893225114, 48.939892651425779 ], [ 6.988738075168902, 48.939042717563986 ], [ 6.988430866060029, 48.938202178543641 ], [ 6.988057107937307, 48.93737333875675 ], [ 6.987617825245773, 48.936558470635006 ], [ 6.987114222028748, 48.935759808414154 ], [ 6.986547678627646, 48.934979542002033 ], [ 6.985919747898548, 48.934219810967086 ], [ 6.985232150955938, 48.933482698663987 ], [ 6.984486772455241, 48.932770226512467 ], [ 6.983685655427114, 48.932084348445329 ], [ 6.982830995677649, 48.931426945540821 ], [ 6.981925135769811, 48.930799820854311 ], [ 6.980970558602642, 48.930204694463519 ], [ 6.979969880605807, 48.929643198741076 ], [ 6.978925844568137, 48.929116873867478 ], [ 6.977841312119843, 48.928627163596758 ], [ 6.976719255888979, 48.928175411286958 ], [ 6.975562751353682, 48.927762856205945 ], [ 6.974374968412496, 48.927390630123305 ], [ 6.9731591626959, 48.927059754197387 ], [ 6.971918666642853, 48.926771136166366 ], [ 6.970656880366812, 48.926525567851186 ], [ 6.969377262336252, 48.926323722977038 ], [ 6.968083319895253, 48.926166155319763 ], [ 6.966778599650101, 48.926053297182179 ], [ 6.965466677748301, 48.925985458204501 ], [ 6.964151150076593, 48.925962824512332 ], [ 6.962835622404885, 48.925985458204501 ], [ 6.961523700503085, 48.926053297182179 ], [ 6.960218980257934, 48.926166155319763 ], [ 6.958925037816934, 48.926323722977038 ], [ 6.957645419786374, 48.926525567851186 ], [ 6.956383633510333, 48.926771136166366 ], [ 6.955143137457287, 48.927059754197387 ], [ 6.95392733174069, 48.927390630123305 ], [ 6.952739548799504, 48.927762856205945 ], [ 6.951583044264207, 48.928175411286958 ], [ 6.950460988033344, 48.928627163596758 ], [ 6.94937645558505, 48.929116873867478 ], [ 6.94833241954738, 48.929643198741076 ], [ 6.947331741550544, 48.930204694463519 ], [ 6.946377164383375, 48.930799820854311 ], [ 6.945471304475538, 48.931426945540821 ], [ 6.944616644726072, 48.932084348445329 ], [ 6.943815527697946, 48.932770226512467 ], [ 6.943070149197248, 48.933482698663987 ], [ 6.942382552254638, 48.934219810967086 ], [ 6.94175462152554, 48.934979542002033 ], [ 6.941188078124438, 48.935759808414154 ], [ 6.940684474907413, 48.936558470635006 ], [ 6.940245192215879, 48.93737333875675 ], [ 6.939871434093157, 48.938202178543641 ], [ 6.939564224984284, 48.939042717563986 ], [ 6.939324406928074, 48.939892651425779 ], [ 6.939152637249147, 48.940749650098667 ], [ 6.939049386756253, 48.941611364305018 ], [ 6.93901493845182, 48.942475431962478 ], [ 6.939049386756253, 48.943339484660285 ], [ 6.939152637249147, 48.94420115415155 ], [ 6.939324406928074, 48.945058078843829 ], [ 6.939564224984284, 48.945907910270051 ], [ 6.939871434093157, 48.946748319522172 ], [ 6.940245192215879, 48.947577003629938 ], [ 6.940684474907413, 48.948391691867307 ], [ 6.941188078124438, 48.949190151969404 ], [ 6.94175462152554, 48.949970196242823 ], [ 6.942382552254638, 48.950729687552936 ], [ 6.943070149197248, 48.951466545171549 ], [ 6.943815527697946, 48.95217875046928 ], [ 6.944616644726072, 48.952864352437068 ], [ 6.945471304475538, 48.953521473021638 ], [ 6.946377164383375, 48.954148312260799 ], [ 6.947331741550544, 48.954743153204234 ], [ 6.94833241954738, 48.95530436660674 ], [ 6.94937645558505, 48.955830415380987 ], [ 6.950460988033344, 48.956319858797933 ], [ 6.951583044264207, 48.956771356423253 ], [ 6.952739548799504, 48.957183671779433 ], [ 6.95392733174069, 48.957555675723377 ], [ 6.955143137457287, 48.957886349530554 ], [ 6.956383633510333, 48.958174787677208 ], [ 6.957645419786374, 48.958420200313277 ], [ 6.958925037816934, 48.958621915419194 ], [ 6.960218980257934, 48.958779380640898 ], [ 6.961523700503085, 48.958892164797888 ], [ 6.962835622404885, 48.958959959060493 ], [ 6.964151150076593, 48.958982577792995 ], [ 6.965466677748301, 48.958959959060493 ], [ 6.966778599650101, 48.958892164797888 ], [ 6.968083319895253, 48.958779380640898 ], [ 6.969377262336252, 48.958621915419194 ], [ 6.970656880366812, 48.958420200313277 ], [ 6.971918666642853, 48.958174787677208 ], [ 6.9731591626959, 48.957886349530554 ], [ 6.974374968412496, 48.957555675723377 ], [ 6.975562751353682, 48.957183671779433 ], [ 6.976719255888979, 48.956771356423253 ], [ 6.977841312119843, 48.956319858797933 ], [ 6.978925844568137, 48.955830415380987 ], [ 6.979969880605807, 48.95530436660674 ], [ 6.980970558602642, 48.954743153204234 ], [ 6.981925135769811, 48.954148312260799 ], [ 6.982830995677649, 48.953521473021638 ], [ 6.983685655427114, 48.952864352437068 ], [ 6.984486772455241, 48.95217875046928 ], [ 6.985232150955938, 48.951466545171549 ], [ 6.985919747898548, 48.950729687552936 ], [ 6.986547678627646, 48.949970196242823 ], [ 6.987114222028748, 48.949190151969404 ], [ 6.987617825245773, 48.948391691867307 ], [ 6.988057107937307, 48.947577003629938 ], [ 6.988430866060029, 48.946748319522172 ], [ 6.988738075168902, 48.945907910270051 ], [ 6.988977893225114, 48.945058078843829 ], [ 6.989149662904039, 48.94420115415155 ], [ 6.989252913396933, 48.943339484660285 ], [ 6.989287361701367, 48.942475431962478 ] ] ] } },
{ "type": "Feature", "properties": { "name": "Honskirch", "feature_type": "mrr", "metric_roundness": 58.61, "metric_rectangularity": 71.81, "metric_mobile_fit": 36.14, "metric_aspect_ratio": 1.201, "metric_area_km2": 14.41 }, "geometry": { "type": "Polygon", "coordinates": [ [ [ 6.995206479551232, 48.942135949685856 ], [ 6.957394809628983, 48.923831315866487 ], [ 6.936943435594348, 48.94206358728939 ], [ 6.974755105516596, 48.9603615365778 ], [ 6.995206479551232, 48.942135949685856 ] ] ] } }
]
}
