{
"type": "FeatureCollection",
"name": "horni_kruty",
"crs": { "type": "name", "properties": { "name": "urn:ogc:def:crs:OGC:1.3:CRS84" } },
"features": [
{ "type": "Feature", "properties": { "name": "Horní Kruty", "feature_type": "entity", "metric_roundness": 55.07, "metric_rectangularity": 67.24, "metric_mobile_fit": 69.1, "metric_aspect_ratio": 0.872, "metric_area_km2": 34.0 }, "geometry": { "type": "Polygon", "coordinates": [ [ [ 14.9405518, 49.9022055 ], [ 14.9370688, 49.8939692 ], [ 14.9473451, 49.8885382 ], [ 14.953462, 49.889253799999985 ], [ 14.9572773, 49.8959688 ], [ 14.9676614, 49.893060099999985 ], [ 14.9737405, 49.899417899999982 ], [ 14.9851605, 49.900534 ], [ 14.9877525, 49.9064152 ], [ 14.9845341, 49.910073499999989 ], [ 14.984902, 49.914763 ], [ 14.988922, 49.917646 ], [ 14.9945655, 49.929393 ], [ 14.9871647, 49.924905099999989 ], [ 14.9736854, 49.931542299999975 ], [ 14.9552615, 49.934323399999982 ], [ 14.932601, 49.916844 ], [ 14.9405518, 49.9022055 ] ] ] } },
{ "type": "Feature", "properties": { "name": "Horní Kruty", "feature_type": "circle", "metric_roundness": 55.07, "metric_rectangularity": 67.24, "metric_mobile_fit": 69.1, "metric_aspect_ratio": 0.872, "metric_area_km2": 34.0 }, "geometry": { "type": "Polygon", "coordinates": [ [ [ 15.006945566394101, 49.910810821228999 ], [ 15.006890979881218, 49.909468379531084 ], [ 15.006727369960394, 49.908129580160299 ], [ 15.006455185075056, 49.906798093131137 ], [ 15.006075171265055, 49.905477568715746 ], [ 15.005588370121828, 49.904171627430458 ], [ 15.004996115933475, 49.902883850100757 ], [ 15.004300032027556, 49.901617768031812 ], [ 15.003502026321673, 49.900376853312025 ], [ 15.002604286093998, 49.899164509275963 ], [ 15.001609271988094, 49.897984061153394 ], [ 15.000519711268462, 49.896838746930101 ], [ 14.999338590345298, 49.89573170844578 ], [ 14.998069146588961, 49.894665982753935 ], [ 14.996714859456539, 49.893644493767461 ], [ 14.995279440954933, 49.892670044213368 ], [ 14.993766825466484, 49.891745307919003 ], [ 14.992181158965099, 49.890872822451151 ], [ 14.990526787652442, 49.890054982128625 ], [ 14.98880824604529, 49.889294031427937 ], [ 14.987030244546728, 49.888592058800228 ], [ 14.985197656535277, 49.887950990916998 ], [ 14.983315505007303, 49.887372587360609 ], [ 14.981388948809309, 49.886858435774386 ], [ 14.979423268497925, 49.886409947486072 ], [ 14.977423851866247, 49.886028353616759 ], [ 14.975396179176288, 49.885714701686169 ], [ 14.97334580813795, 49.88546985272405 ], [ 14.971278358675729, 49.885294478895503 ], [ 14.969199497524889, 49.885189061647154 ], [ 14.967114922699352, 49.885153890379215 ], [ 14.965030347873816, 49.885189061647154 ], [ 14.96295148672298, 49.885294478895503 ], [ 14.960884037260756, 49.88546985272405 ], [ 14.958833666222416, 49.885714701686169 ], [ 14.956805993532459, 49.886028353616759 ], [ 14.954806576900785, 49.886409947486072 ], [ 14.952840896589397, 49.886858435774386 ], [ 14.950914340391403, 49.887372587360609 ], [ 14.949032188863427, 49.887950990916998 ], [ 14.947199600851977, 49.888592058800228 ], [ 14.945421599353418, 49.889294031427937 ], [ 14.943703057746264, 49.890054982128625 ], [ 14.942048686433605, 49.890872822451151 ], [ 14.940463019932222, 49.891745307919003 ], [ 14.938950404443771, 49.892670044213368 ], [ 14.937514985942165, 49.893644493767461 ], [ 14.936160698809745, 49.894665982753935 ], [ 14.934891255053408, 49.89573170844578 ], [ 14.933710134130244, 49.896838746930101 ], [ 14.932620573410611, 49.897984061153394 ], [ 14.931625559304708, 49.899164509275963 ], [ 14.930727819077031, 49.900376853312025 ], [ 14.929929813371148, 49.901617768031812 ], [ 14.92923372946523, 49.902883850100757 ], [ 14.928641475276878, 49.904171627430458 ], [ 14.928154674133651, 49.905477568715746 ], [ 14.927774660323649, 49.906798093131137 ], [ 14.927502475438313, 49.908129580160299 ], [ 14.927338865517488, 49.909468379531084 ], [ 14.927284279004603, 49.910810821228999 ], [ 14.927338865517488, 49.912153225561482 ], [ 14.927502475438313, 49.913491913245345 ], [ 14.927774660323649, 49.914823215489754 ], [ 14.928154674133651, 49.916143484047126 ], [ 14.928641475276878, 49.917449101204326 ], [ 14.92923372946523, 49.918736489687134 ], [ 14.929929813371148, 49.920002122450633 ], [ 14.930727819077031, 49.92124253232911 ], [ 14.931625559304708, 49.922454321519162 ], [ 14.932620573410611, 49.923634170870024 ], [ 14.933710134130244, 49.92477884895618 ], [ 14.934891255053408, 49.925885220907567 ], [ 14.936160698809745, 49.926950256973392 ], [ 14.937514985942165, 49.927971040796422 ], [ 14.938950404443771, 49.928944777375577 ], [ 14.940463019932222, 49.929868800695004 ], [ 14.942048686433605, 49.930740580999419 ], [ 14.943703057746264, 49.931557731695946 ], [ 14.945421599353418, 49.932318015863743 ], [ 14.947199600851977, 49.93301935235435 ], [ 14.949032188863427, 49.933659821465895 ], [ 14.950914340391403, 49.934237670176323 ], [ 14.952840896589397, 49.934751316921279 ], [ 14.954806576900785, 49.935199355904189 ], [ 14.956805993532459, 49.935580560926638 ], [ 14.958833666222416, 49.935893888729197 ], [ 14.960884037260756, 49.936138481833318 ], [ 14.96295148672298, 49.936313670877141 ], [ 14.965030347873816, 49.936418976438567 ], [ 14.967114922699352, 49.936454110341082 ], [ 14.969199497524889, 49.936418976438567 ], [ 14.971278358675729, 49.936313670877141 ], [ 14.97334580813795, 49.936138481833318 ], [ 14.975396179176288, 49.935893888729197 ], [ 14.977423851866247, 49.935580560926638 ], [ 14.979423268497925, 49.935199355904189 ], [ 14.981388948809309, 49.934751316921279 ], [ 14.983315505007303, 49.934237670176323 ], [ 14.985197656535277, 49.933659821465895 ], [ 14.987030244546728, 49.93301935235435 ], [ 14.98880824604529, 49.932318015863743 ], [ 14.990526787652442, 49.931557731695946 ], [ 14.992181158965099, 49.930740580999419 ], [ 14.993766825466484, 49.929868800695004 ], [ 14.995279440954933, 49.928944777375577 ], [ 14.996714859456539, 49.927971040796422 ], [ 14.998069146588961, 49.926950256973392 ], [ 14.999338590345298, 49.925885220907567 ], [ 15.000519711268462, 49.92477884895618 ], [ 15.001609271988094, 49.923634170870024 ], [ 15.002604286093998, 49.922454321519162 ], [ 15.003502026321673, 49.92124253232911 ], [ 15.004300032027556, 49.920002122450633 ], [ 15.004996115933475, 49.918736489687134 ], [ 15.005588370121828, 49.917449101204326 ], [ 15.006075171265055, 49.916143484047126 ], [ 15.006455185075056, 49.914823215489754 ], [ 15.006727369960394, 49.913491913245345 ], [ 15.006890979881218, 49.912153225561482 ], [ 15.006945566394101, 49.910810821228999 ] ] ] } },
{ "type": "Feature", "properties": { "name": "Horní Kruty", "feature_type": "mrr", "metric_roundness": 55.07, "metric_rectangularity": 67.24, "metric_mobile_fit": 69.1, "metric_aspect_ratio": 0.872, "metric_area_km2": 34.0 }, "geometry": { "type": "Polygon", "coordinates": [ [ [ 14.994594198462941, 49.929489768355843 ], [ 14.98121948932679, 49.884371420259889 ], [ 14.925024423298629, 49.891283598264003 ], [ 14.93839913243478, 49.936395483590488 ], [ 14.994594198462941, 49.929489768355843 ] ] ] } }
]
}
