{
"type": "FeatureCollection",
"name": "hornachos",
"crs": { "type": "name", "properties": { "name": "urn:ogc:def:crs:OGC:1.3:CRS84" } },
"features": [
{ "type": "Feature", "properties": { "name": "Hornachos", "metric_roundness": 50.46, "metric_rectangularity": 62.77, "metric_mobile_fit": 33.22, "metric_aspect_ratio": 1.23, "metric_area_km2": 484.58 }, "geometry": { "type": "Polygon", "coordinates": [ [ [ -6.0228719, 38.4765392 ], [ -6.0040504, 38.4862043 ], [ -5.9955205, 38.4949899 ], [ -5.9937867, 38.503609 ], [ -5.9692527, 38.5285465 ], [ -5.9544265, 38.527298 ], [ -5.953107, 38.530655 ], [ -5.943416, 38.542495499999987 ], [ -5.9384355, 38.5503235 ], [ -5.934006, 38.556248 ], [ -5.9193827, 38.5694015 ], [ -5.9051906, 38.571754799999987 ], [ -5.9011921, 38.5790709 ], [ -5.9111865, 38.5944996 ], [ -5.9276275, 38.603335199999989 ], [ -5.9291141, 38.6126166 ], [ -5.9394256, 38.621378199999988 ], [ -5.942727, 38.628254 ], [ -5.949465, 38.6216936 ], [ -5.9685705, 38.6192995 ], [ -5.9874341, 38.623517 ], [ -6.0062531, 38.6130873 ], [ -6.0277436, 38.612214499999986 ], [ -6.045938, 38.62192 ], [ -6.0519185, 38.6288449 ], [ -6.1059299, 38.6272486 ], [ -6.1153521, 38.6330278 ], [ -6.1483229, 38.6443151 ], [ -6.1584554, 38.6439263 ], [ -6.1843315, 38.657917 ], [ -6.1803773, 38.6512126 ], [ -6.1865936, 38.6446708 ], [ -6.1804735, 38.6307335 ], [ -6.1760737, 38.61047 ], [ -6.1796575, 38.5913074 ], [ -6.1782334, 38.577334899999983 ], [ -6.1682031, 38.565524799999984 ], [ -6.166521, 38.558655 ], [ -6.1581054, 38.5420919 ], [ -6.159654, 38.5237085 ], [ -6.1612394, 38.5000015 ], [ -6.153496, 38.487198 ], [ -6.1469278, 38.49169 ], [ -6.1313204, 38.4916267 ], [ -6.129825, 38.507832 ], [ -6.1120404, 38.5126829 ], [ -6.0944965, 38.5044438 ], [ -6.0980066, 38.4992273 ], [ -6.0871372, 38.489875599999984 ], [ -6.0797443, 38.4904311 ], [ -6.0699259, 38.4956052 ], [ -6.058624, 38.489805899999986 ], [ -6.0474747, 38.4911716 ], [ -6.0266405, 38.478126499999988 ], [ -6.0228719, 38.4765392 ] ] ] } }
]
}
