{
"type": "FeatureCollection",
"name": "hostejov",
"crs": { "type": "name", "properties": { "name": "urn:ogc:def:crs:OGC:1.3:CRS84" } },
"features": [
{ "type": "Feature", "properties": { "name": "Hostějov", "metric_roundness": 38.55, "metric_rectangularity": 69.82, "metric_mobile_fit": 95.03, "metric_aspect_ratio": 0.612, "metric_area_km2": 2.33 }, "geometry": { "type": "Polygon", "coordinates": [ [ [ 17.2609405, 49.03383 ], [ 17.26388, 49.044914499999983 ], [ 17.259052, 49.043967 ], [ 17.2561885, 49.043735 ], [ 17.2531665, 49.043516 ], [ 17.252928, 49.0411425 ], [ 17.25056, 49.038501 ], [ 17.251727, 49.0306515 ], [ 17.2609405, 49.03383 ] ] ] } }
]
}
