{
"type": "FeatureCollection",
"name": "speracedes",
"crs": { "type": "name", "properties": { "name": "urn:ogc:def:crs:OGC:1.3:CRS84" } },
"features": [
{ "type": "Feature", "properties": { "name": "Spéracèdes", "metric_roundness": 39.31, "metric_rectangularity": 57.83, "metric_mobile_fit": 98.96, "metric_aspect_ratio": 0.573, "metric_area_km2": 6.66 }, "geometry": { "type": "Polygon", "coordinates": [ [ [ 6.84518, 43.648332499999988 ], [ 6.85141, 43.644765 ], [ 6.855537, 43.643325 ], [ 6.856055, 43.6404755 ], [ 6.8604015, 43.63687 ], [ 6.8605617, 43.6451203 ], [ 6.868989, 43.6463 ], [ 6.8690825, 43.6523694 ], [ 6.8642551, 43.6540031 ], [ 6.8659053, 43.6596168 ], [ 6.8607545, 43.667055499999989 ], [ 6.8498505, 43.6614955 ], [ 6.84518, 43.648332499999988 ] ] ] } }
]
}
