{
"type": "FeatureCollection",
"name": "cepelos",
"crs": { "type": "name", "properties": { "name": "urn:ogc:def:crs:OGC:1.3:CRS84" } },
"features": [
{ "type": "Feature", "properties": { "name": "Cepelos", "feature_type": "entity", "metric_roundness": 33.76, "metric_rectangularity": 64.98, "metric_mobile_fit": 39.86, "metric_aspect_ratio": 1.164, "metric_area_km2": 31.94 }, "geometry": { "type": "Polygon", "coordinates": [ [ [ -8.291418, 40.866065 ], [ -8.294333, 40.868532499999986 ], [ -8.3052684, 40.867664 ], [ -8.3041954, 40.8591358 ], [ -8.3100009, 40.8496484 ], [ -8.3350736, 40.8456115 ], [ -8.3399125, 40.848182199999989 ], [ -8.3519868, 40.848230199999989 ], [ -8.35836, 40.84083 ], [ -8.3576375, 40.8328179 ], [ -8.3691215, 40.8269875 ], [ -8.3655527, 40.817337699999989 ], [ -8.3560185, 40.8104295 ], [ -8.3331463, 40.8247334 ], [ -8.311371, 40.830173 ], [ -8.2956321, 40.843319499999978 ], [ -8.27973, 40.844846499999989 ], [ -8.291418, 40.866065 ] ] ] } },
{ "type": "Feature", "properties": { "name": "Cepelos", "feature_type": "circle", "metric_roundness": 33.76, "metric_rectangularity": 64.98, "metric_mobile_fit": 39.86, "metric_aspect_ratio": 1.164, "metric_area_km2": 31.94 }, "geometry": { "type": "Polygon", "coordinates": [ [ [ -8.277685651033103, 40.840592085716267 ], [ -8.27775322611595, 40.838639759491961 ], [ -8.277955766145888, 40.836692727191817 ], [ -8.278292715974773, 40.834756326202616 ], [ -8.278763152046546, 40.832835865233498 ], [ -8.279365784928633, 40.830936609752364 ], [ -8.280098962846193, 40.829063767535835 ], [ -8.280960676209512, 40.827222474372697 ], [ -8.281948563122167, 40.825417779960055 ], [ -8.283059915854791, 40.823654634031378 ], [ -8.284291688266794, 40.821937872754631 ], [ -8.285640504155616, 40.820272205438272 ], [ -8.287102666510661, 40.818662201581887 ], [ -8.288674167646546, 40.817112278307391 ], [ -8.29035070018789, 40.815626688205953 ], [ -8.292127668875535, 40.814209507634104 ], [ -8.294000203161822, 40.812864625491905 ], [ -8.295963170560428, 40.811595732514391 ], [ -8.298011190714162, 40.810406311106149 ], [ -8.300138650142136, 40.809299625747464 ], [ -8.302339717625937, 40.808278713998817 ], [ -8.304608360192585, 40.807346378129097 ], [ -8.306938359650498, 40.806505177390584 ], [ -8.309323329633116, 40.805757420962891 ], [ -8.311756733103495, 40.805105161585196 ], [ -8.314231900271869, 40.804550189894847 ], [ -8.316742046877071, 40.804094029488297 ], [ -8.319280292781738, 40.803737932718093 ], [ -8.321839680830276, 40.803482877237798 ], [ -8.324413195917945, 40.803329563304644 ], [ -8.326993784218772, 40.803278411847337 ], [ -8.329574372519597, 40.803329563304644 ], [ -8.332147887607267, 40.803482877237798 ], [ -8.334707275655804, 40.803737932718093 ], [ -8.337245521560471, 40.804094029488297 ], [ -8.339755668165674, 40.804550189894847 ], [ -8.342230835334048, 40.805105161585196 ], [ -8.344664238804427, 40.805757420962891 ], [ -8.347049208787045, 40.806505177390584 ], [ -8.349379208244958, 40.807346378129097 ], [ -8.351647850811606, 40.808278713998817 ], [ -8.353848918295407, 40.809299625747464 ], [ -8.35597637772338, 40.810406311106149 ], [ -8.358024397877115, 40.811595732514391 ], [ -8.359987365275721, 40.812864625491905 ], [ -8.361859899562008, 40.814209507634104 ], [ -8.363636868249651, 40.815626688205953 ], [ -8.365313400790997, 40.817112278307391 ], [ -8.366884901926882, 40.818662201581887 ], [ -8.368347064281924, 40.820272205438272 ], [ -8.369695880170747, 40.821937872754631 ], [ -8.370927652582752, 40.823654634031378 ], [ -8.372039005315376, 40.825417779960055 ], [ -8.37302689222803, 40.827222474372697 ], [ -8.37388860559135, 40.829063767535835 ], [ -8.374621783508911, 40.830936609752364 ], [ -8.375224416390996, 40.832835865233498 ], [ -8.37569485246277, 40.834756326202616 ], [ -8.376031802291653, 40.836692727191817 ], [ -8.376234342321593, 40.838639759491961 ], [ -8.37630191740444, 40.840592085716267 ], [ -8.376234342321593, 40.8425443544375 ], [ -8.376031802291653, 40.844491214858408 ], [ -8.37569485246277, 40.846427331475397 ], [ -8.375224416390996, 40.848347398694933 ], [ -8.374621783508911, 40.850246155363145 ], [ -8.37388860559135, 40.852118399168496 ], [ -8.37302689222803, 40.853959000878525 ], [ -8.372039005315376, 40.855762918371838 ], [ -8.370927652582752, 40.857525210427063 ], [ -8.369695880170747, 40.859241050231432 ], [ -8.368347064281924, 40.860905738572363 ], [ -8.366884901926882, 40.862514716676124 ], [ -8.365313400790997, 40.864063578659149 ], [ -8.363636868249651, 40.865548083558004 ], [ -8.361859899562008, 40.866964166905888 ], [ -8.359987365275721, 40.868307951824129 ], [ -8.358024397877115, 40.869575759599115 ], [ -8.35597637772338, 40.870764119715965 ], [ -8.353848918295407, 40.871869779322147 ], [ -8.351647850811606, 40.872889712095485 ], [ -8.349379208244958, 40.873821126492984 ], [ -8.347049208787045, 40.874661473358202 ], [ -8.344664238804427, 40.875408452866736 ], [ -8.342230835334048, 40.876060020791492 ], [ -8.339755668165674, 40.876614394070806 ], [ -8.337245521560471, 40.877070055664561 ], [ -8.334707275655804, 40.877425758685305 ], [ -8.332147887607267, 40.877680529793452 ], [ -8.329574372519597, 40.877833671847434 ], [ -8.326993784218772, 40.877884765801674 ], [ -8.324413195917945, 40.877833671847434 ], [ -8.321839680830276, 40.877680529793452 ], [ -8.319280292781738, 40.877425758685305 ], [ -8.316742046877071, 40.877070055664561 ], [ -8.314231900271869, 40.876614394070806 ], [ -8.311756733103495, 40.876060020791492 ], [ -8.309323329633116, 40.875408452866736 ], [ -8.306938359650498, 40.874661473358202 ], [ -8.304608360192585, 40.873821126492984 ], [ -8.302339717625937, 40.872889712095485 ], [ -8.300138650142136, 40.871869779322147 ], [ -8.298011190714162, 40.870764119715965 ], [ -8.295963170560428, 40.869575759599115 ], [ -8.294000203161822, 40.868307951824129 ], [ -8.292127668875535, 40.866964166905888 ], [ -8.29035070018789, 40.865548083558004 ], [ -8.288674167646546, 40.864063578659149 ], [ -8.287102666510661, 40.862514716676124 ], [ -8.285640504155616, 40.860905738572363 ], [ -8.284291688266794, 40.859241050231432 ], [ -8.283059915854791, 40.857525210427063 ], [ -8.281948563122167, 40.855762918371838 ], [ -8.280960676209512, 40.853959000878525 ], [ -8.280098962846193, 40.852118399168496 ], [ -8.279365784928633, 40.850246155363145 ], [ -8.278763152046546, 40.848347398694933 ], [ -8.278292715974773, 40.846427331475397 ], [ -8.277955766145888, 40.844491214858408 ], [ -8.27775322611595, 40.8425443544375 ], [ -8.277685651033103, 40.840592085716267 ] ] ] } },
{ "type": "Feature", "properties": { "name": "Cepelos", "feature_type": "mrr", "metric_roundness": 33.76, "metric_rectangularity": 64.98, "metric_mobile_fit": 39.86, "metric_aspect_ratio": 1.164, "metric_area_km2": 31.94 }, "geometry": { "type": "Polygon", "coordinates": [ [ [ -8.275828281890623, 40.845886084727979 ], [ -8.359149789307807, 40.809044594320753 ], [ -8.379885090284196, 40.835897387155036 ], [ -8.296563582867012, 40.87272395917978 ], [ -8.275828281890623, 40.845886084727979 ] ] ] } }
]
}
