{
"type": "FeatureCollection",
"name": "cermna_nad_orlici",
"crs": { "type": "name", "properties": { "name": "urn:ogc:def:crs:OGC:1.3:CRS84" } },
"features": [
{ "type": "Feature", "properties": { "name": "Čermná nad Orlicí", "feature_type": "entity", "metric_roundness": 59.76, "metric_rectangularity": 69.39, "metric_mobile_fit": 40.64, "metric_aspect_ratio": 1.156, "metric_area_km2": 26.03 }, "geometry": { "type": "Polygon", "coordinates": [ [ [ 16.162132, 50.0618 ], [ 16.1669221, 50.06614 ], [ 16.1639954, 50.0732827 ], [ 16.188299, 50.085255 ], [ 16.1817465, 50.0896634 ], [ 16.16375, 50.0926365 ], [ 16.1530384, 50.096736099999987 ], [ 16.1469011, 50.0961703 ], [ 16.1434392, 50.0913763 ], [ 16.1344945, 50.093374 ], [ 16.1288919, 50.082175799999987 ], [ 16.122237, 50.078589 ], [ 16.1276216, 50.070262699999986 ], [ 16.1389945, 50.0626805 ], [ 16.142611, 50.062757 ], [ 16.1476677, 50.0662793 ], [ 16.16081, 50.060065499999986 ], [ 16.162132, 50.0618 ] ] ] } },
{ "type": "Feature", "properties": { "name": "Čermná nad Orlicí", "feature_type": "circle", "metric_roundness": 59.76, "metric_rectangularity": 69.39, "metric_mobile_fit": 40.64, "metric_aspect_ratio": 1.156, "metric_area_km2": 26.03 }, "geometry": { "type": "Polygon", "coordinates": [ [ [ 16.188884085270939, 50.081257843699937 ], [ 16.188838238680166, 50.080134334373838 ], [ 16.188700824570162, 50.079013878286233 ], [ 16.18847221958346, 50.077899546852478 ], [ 16.188153050310426, 50.076794394912284 ], [ 16.187744191571863, 50.075701452350714 ], [ 16.187246764021143, 50.074623715785457 ], [ 16.186662131072616, 50.073564140342924 ], [ 16.185991895164555, 50.072525631546171 ], [ 16.185237893366995, 50.071511037336876 ], [ 16.184402192346454, 50.070523140253208 ], [ 16.183487082701337, 50.069564649785569 ], [ 16.182495072683579, 50.06863819493104 ], [ 16.181428881323676, 50.067746316967344 ], [ 16.180291430978045, 50.066891462466209 ], [ 16.179085839319015, 50.066075976565628 ], [ 16.177815410789524, 50.065302096519623 ], [ 16.176483627545871, 50.064571945543506 ], [ 16.175094139913345, 50.063887526971598 ], [ 16.173650756380969, 50.063250718743994 ], [ 16.172157433162678, 50.062663268237259 ], [ 16.170618263353614, 50.062126787453913 ], [ 16.169037465711238, 50.061642748583836 ], [ 16.167419373092009, 50.061212479950143 ], [ 16.165768420575315, 50.060837162350715 ], [ 16.164089133307264, 50.060517825805682 ], [ 16.162386114097519, 50.060255346719991 ], [ 16.160664030803357, 50.06005044546891 ], [ 16.158927603535396, 50.059903684413214 ], [ 16.157181591720075, 50.059815466349683 ], [ 16.15543078105442, 50.059786033401231 ], [ 16.153679970388762, 50.059815466349683 ], [ 16.151933958573441, 50.059903684413214 ], [ 16.15019753130548, 50.06005044546891 ], [ 16.148475448011322, 50.060255346719991 ], [ 16.146772428801576, 50.060517825805682 ], [ 16.145093141533522, 50.060837162350715 ], [ 16.143442189016831, 50.061212479950143 ], [ 16.141824096397599, 50.061642748583836 ], [ 16.140243298755223, 50.062126787453913 ], [ 16.138704128946159, 50.062663268237259 ], [ 16.137210805727872, 50.063250718743994 ], [ 16.135767422195496, 50.063887526971598 ], [ 16.13437793456297, 50.064571945543506 ], [ 16.133046151319313, 50.065302096519623 ], [ 16.131775722789826, 50.066075976565628 ], [ 16.130570131130792, 50.066891462466209 ], [ 16.129432680785161, 50.067746316967344 ], [ 16.128366489425261, 50.06863819493104 ], [ 16.1273744794075, 50.069564649785569 ], [ 16.126459369762387, 50.070523140253208 ], [ 16.125623668741845, 50.071511037336876 ], [ 16.124869666944281, 50.072525631546171 ], [ 16.124199431036221, 50.073564140342924 ], [ 16.123614798087694, 50.074623715785457 ], [ 16.123117370536978, 50.075701452350714 ], [ 16.122708511798415, 50.076794394912284 ], [ 16.122389342525381, 50.077899546852478 ], [ 16.122160737538675, 50.079013878286233 ], [ 16.122023323428675, 50.080134334373838 ], [ 16.121977476837902, 50.081257843699937 ], [ 16.122023323428675, 50.082381326695604 ], [ 16.122160737538675, 50.083501704080355 ], [ 16.122389342525381, 50.084615905301135 ], [ 16.122708511798415, 50.085720876944883 ], [ 16.123117370536978, 50.086813591101873 ], [ 16.123614798087694, 50.087891053656897 ], [ 16.124199431036221, 50.088950312485657 ], [ 16.124869666944281, 50.089988465533942 ], [ 16.125623668741845, 50.091002668757774 ], [ 16.126459369762387, 50.091990143902684 ], [ 16.1273744794075, 50.092948186101125 ], [ 16.128366489425261, 50.093874171267345 ], [ 16.129432680785161, 50.094765563269632 ], [ 16.130570131130792, 50.095619920860528 ], [ 16.131775722789826, 50.096434904346324 ], [ 16.133046151319313, 50.097208281977537 ], [ 16.13437793456297, 50.097937936043451 ], [ 16.135767422195496, 50.098621868653936 ], [ 16.137210805727872, 50.099258207193245 ], [ 16.138704128946159, 50.099845209430804 ], [ 16.140243298755223, 50.10038126827542 ], [ 16.141824096397599, 50.100864916160049 ], [ 16.143442189016831, 50.101294829045308 ], [ 16.145093141533522, 50.101669830030971 ], [ 16.146772428801576, 50.101988892565792 ], [ 16.148475448011322, 50.102251143246917 ], [ 16.15019753130548, 50.102455864201552 ], [ 16.151933958573441, 50.102602495044302 ], [ 16.153679970388762, 50.102690634404986 ], [ 16.15543078105442, 50.102720041022991 ], [ 16.157181591720075, 50.102690634404986 ], [ 16.158927603535396, 50.102602495044302 ], [ 16.160664030803357, 50.102455864201552 ], [ 16.162386114097519, 50.102251143246917 ], [ 16.164089133307264, 50.101988892565792 ], [ 16.165768420575315, 50.101669830030971 ], [ 16.167419373092009, 50.101294829045308 ], [ 16.169037465711238, 50.100864916160049 ], [ 16.170618263353614, 50.10038126827542 ], [ 16.172157433162678, 50.099845209430804 ], [ 16.173650756380969, 50.099258207193245 ], [ 16.175094139913345, 50.098621868653936 ], [ 16.176483627545871, 50.097937936043451 ], [ 16.177815410789524, 50.097208281977537 ], [ 16.179085839319015, 50.096434904346324 ], [ 16.180291430978045, 50.095619920860528 ], [ 16.181428881323676, 50.094765563269632 ], [ 16.182495072683579, 50.093874171267345 ], [ 16.183487082701337, 50.092948186101125 ], [ 16.184402192346454, 50.091990143902684 ], [ 16.185237893366995, 50.091002668757774 ], [ 16.185991895164555, 50.089988465533942 ], [ 16.186662131072616, 50.088950312485657 ], [ 16.187246764021143, 50.087891053656897 ], [ 16.187744191571859, 50.086813591101873 ], [ 16.188153050310426, 50.085720876944883 ], [ 16.18847221958346, 50.084615905301135 ], [ 16.188700824570162, 50.083501704080355 ], [ 16.188838238680166, 50.082381326695604 ], [ 16.188884085270939, 50.081257843699937 ] ] ] } },
{ "type": "Feature", "properties": { "name": "Čermná nad Orlicí", "feature_type": "mrr", "metric_roundness": 59.76, "metric_rectangularity": 69.39, "metric_mobile_fit": 40.64, "metric_aspect_ratio": 1.156, "metric_area_km2": 26.03 }, "geometry": { "type": "Polygon", "coordinates": [ [ [ 16.189370981284014, 50.086237046177288 ], [ 16.155544254141343, 50.055238738209759 ], [ 16.113501395117702, 50.074141460762561 ], [ 16.147328122260369, 50.105127552564255 ], [ 16.189370981284014, 50.086237046177288 ] ] ] } }
]
}
