{
"type": "FeatureCollection",
"name": "wallerfing",
"crs": { "type": "name", "properties": { "name": "urn:ogc:def:crs:OGC:1.3:CRS84" } },
"features": [
{ "type": "Feature", "properties": { "name": "Wallerfing", "feature_type": "entity", "metric_roundness": 59.33, "metric_rectangularity": 72.64, "metric_mobile_fit": 78.93, "metric_aspect_ratio": 0.773, "metric_area_km2": 47.38 }, "geometry": { "type": "Polygon", "coordinates": [ [ [ 12.8546987, 48.672442899999986 ], [ 12.8568616, 48.6629825 ], [ 12.8648185, 48.6618498 ], [ 12.8659465, 48.6663266 ], [ 12.8731315, 48.6674077 ], [ 12.8877211, 48.6605054 ], [ 12.905147, 48.661092 ], [ 12.9111425, 48.6708844 ], [ 12.9081497, 48.672442899999986 ], [ 12.9066595, 48.679603 ], [ 12.8997335, 48.685832799999986 ], [ 12.900805, 48.704427499999987 ], [ 12.8925921, 48.7083023 ], [ 12.8899474, 48.716858499999987 ], [ 12.8772744, 48.716407399999987 ], [ 12.870245, 48.713047 ], [ 12.8569423, 48.709482699999981 ], [ 12.8584926, 48.6998092 ], [ 12.8451365, 48.692974 ], [ 12.84645, 48.682007499999983 ], [ 12.8546987, 48.672442899999986 ] ] ] } },
{ "type": "Feature", "properties": { "name": "Wallerfing", "feature_type": "circle", "metric_roundness": 59.33, "metric_rectangularity": 72.64, "metric_mobile_fit": 78.93, "metric_aspect_ratio": 0.773, "metric_area_km2": 47.38 }, "geometry": { "type": "Polygon", "coordinates": [ [ [ 12.928572333176579, 48.687287226422519 ], [ 12.928510249214769, 48.685722015018023 ], [ 12.928324167497172, 48.684161045300876 ], [ 12.928014598060836, 48.682608596377541 ], [ 12.927582389414068, 48.681068924390487 ], [ 12.927028726210731, 48.679546250841661 ], [ 12.926355126003177, 48.678044751006531 ], [ 12.925563435082754, 48.676568542471109 ], [ 12.924655823419245, 48.67512167382305 ], [ 12.923634778713133, 48.673708113528463 ], [ 12.922503099576984, 48.672331739025061 ], [ 12.921263887864651, 48.670996326061839 ], [ 12.919920540169299, 48.669705538314965 ], [ 12.918476738513586, 48.668462917308567 ], [ 12.916936440257494, 48.66727187266865 ], [ 12.915303867251476, 48.666135672737141 ], [ 12.913583494264666, 48.665057435572223 ], [ 12.911780036719835, 48.66404012036022 ], [ 12.90989843776876, 48.663086519262862 ], [ 12.907943854743378, 48.662199249722875 ], [ 12.905921645019896, 48.661380747249289 ], [ 12.903837351334609, 48.660633258702845 ], [ 12.901696686591626, 48.659958836100216 ], [ 12.899505518204215, 48.659359330954487 ], [ 12.897269852012618, 48.658836389167767 ], [ 12.894995815822469, 48.658391446490299 ], [ 12.892689642608898, 48.658025724558797 ], [ 12.890357653432382, 48.657740227525309 ], [ 12.888006240113159, 48.657535739285819 ], [ 12.885641847711696, 48.657412821316754 ], [ 12.883270956863214, 48.657371811125095 ], [ 12.880900066014732, 48.657412821316754 ], [ 12.878535673613269, 48.657535739285819 ], [ 12.876184260294046, 48.657740227525309 ], [ 12.873852271117531, 48.658025724558797 ], [ 12.871546097903959, 48.658391446490299 ], [ 12.869272061713811, 48.658836389167767 ], [ 12.867036395522215, 48.659359330954487 ], [ 12.864845227134802, 48.659958836100216 ], [ 12.862704562391821, 48.660633258702845 ], [ 12.860620268706533, 48.661380747249289 ], [ 12.858598058983052, 48.662199249722875 ], [ 12.856643475957668, 48.663086519262862 ], [ 12.854761877006595, 48.66404012036022 ], [ 12.852958419461762, 48.665057435572223 ], [ 12.851238046474952, 48.666135672737141 ], [ 12.849605473468936, 48.66727187266865 ], [ 12.848065175212843, 48.668462917308567 ], [ 12.846621373557131, 48.669705538314965 ], [ 12.845278025861779, 48.670996326061839 ], [ 12.844038814149444, 48.672331739025061 ], [ 12.842907135013295, 48.673708113528463 ], [ 12.841886090307185, 48.67512167382305 ], [ 12.840978478643676, 48.676568542471109 ], [ 12.840186787723251, 48.678044751006531 ], [ 12.839513187515697, 48.679546250841661 ], [ 12.83895952431236, 48.681068924390487 ], [ 12.838527315665594, 48.682608596377541 ], [ 12.838217746229258, 48.684161045300876 ], [ 12.838031664511659, 48.685722015018023 ], [ 12.837969580549851, 48.687287226422519 ], [ 12.838031664511659, 48.688852389179218 ], [ 12.838217746229258, 48.690413213485968 ], [ 12.838527315665594, 48.691965421829472 ], [ 12.83895952431236, 48.693504760703078 ], [ 12.839513187515697, 48.695027012254528 ], [ 12.840186787723251, 48.696528005831816 ], [ 12.840978478643676, 48.698003629395622 ], [ 12.841886090307185, 48.699449840767358 ], [ 12.842907135013295, 48.700862678682164 ], [ 12.844038814149444, 48.702238273616878 ], [ 12.845278025861779, 48.703572858363628 ], [ 12.846621373557131, 48.704862778320354 ], [ 12.848065175212843, 48.706104501470627 ], [ 12.849605473468936, 48.707294628025529 ], [ 12.851238046474952, 48.708429899701883 ], [ 12.852958419461762, 48.709507208611647 ], [ 12.854761877006595, 48.710523605738672 ], [ 12.856643475957668, 48.711476308979933 ], [ 12.858598058983052, 48.712362710729835 ], [ 12.860620268706533, 48.71318038498702 ], [ 12.862704562391821, 48.713927093964848 ], [ 12.864845227134802, 48.714600794187767 ], [ 12.867036395522215, 48.715199642057243 ], [ 12.869272061713811, 48.715721998872418 ], [ 12.871546097903959, 48.716166435292138 ], [ 12.873852271117531, 48.716531735226305 ], [ 12.876184260294046, 48.716816899146409 ], [ 12.878535673613269, 48.71702114680609 ], [ 12.880900066014732, 48.717143919364787 ], [ 12.883270956863214, 48.717184880908661 ], [ 12.885641847711696, 48.717143919364787 ], [ 12.888006240113159, 48.71702114680609 ], [ 12.890357653432382, 48.716816899146409 ], [ 12.892689642608898, 48.716531735226305 ], [ 12.894995815822469, 48.716166435292138 ], [ 12.897269852012618, 48.715721998872418 ], [ 12.899505518204215, 48.715199642057243 ], [ 12.901696686591626, 48.714600794187767 ], [ 12.903837351334609, 48.713927093964848 ], [ 12.905921645019896, 48.71318038498702 ], [ 12.907943854743378, 48.712362710729835 ], [ 12.90989843776876, 48.711476308979933 ], [ 12.911780036719835, 48.710523605738672 ], [ 12.913583494264666, 48.709507208611647 ], [ 12.915303867251476, 48.708429899701883 ], [ 12.916936440257494, 48.707294628025529 ], [ 12.918476738513586, 48.706104501470627 ], [ 12.919920540169299, 48.704862778320354 ], [ 12.921263887864651, 48.703572858363628 ], [ 12.922503099576984, 48.702238273616878 ], [ 12.923634778713133, 48.700862678682164 ], [ 12.924655823419245, 48.699449840767358 ], [ 12.925563435082754, 48.698003629395622 ], [ 12.926355126003177, 48.696528005831816 ], [ 12.927028726210731, 48.695027012254528 ], [ 12.927582389414068, 48.693504760703078 ], [ 12.928014598060836, 48.691965421829472 ], [ 12.928324167497172, 48.690413213485968 ], [ 12.928510249214769, 48.688852389179218 ], [ 12.928572333176579, 48.687287226422519 ] ] ] } },
{ "type": "Feature", "properties": { "name": "Wallerfing", "feature_type": "mrr", "metric_roundness": 59.33, "metric_rectangularity": 72.64, "metric_mobile_fit": 78.93, "metric_aspect_ratio": 0.773, "metric_area_km2": 47.38 }, "geometry": { "type": "Polygon", "coordinates": [ [ [ 12.896322836648567, 48.718964308863548 ], [ 12.913800880094342, 48.662254919151813 ], [ 12.854970755630507, 48.654348713194423 ], [ 12.83749271218473, 48.711067001753875 ], [ 12.896322836648567, 48.718964308863548 ] ] ] } }
]
}
