{
"type": "FeatureCollection",
"name": "walsheim",
"crs": { "type": "name", "properties": { "name": "urn:ogc:def:crs:OGC:1.3:CRS84" } },
"features": [
{ "type": "Feature", "properties": { "name": "Walsheim", "metric_roundness": 47.91, "metric_rectangularity": 58.87, "metric_mobile_fit": 54.68, "metric_aspect_ratio": 1.016, "metric_area_km2": 7.45 }, "geometry": { "type": "Polygon", "coordinates": [ [ [ 8.1346669, 49.240112599999989 ], [ 8.1376995, 49.2483205 ], [ 8.1239612, 49.2432762 ], [ 8.1118375, 49.2433905 ], [ 8.105145, 49.24032 ], [ 8.106304, 49.2338765 ], [ 8.135868, 49.227393499999984 ], [ 8.1346669, 49.240112599999989 ] ] ] } }
]
}
