{
"type": "FeatureCollection",
"name": "waltershausen_stadt",
"crs": { "type": "name", "properties": { "name": "urn:ogc:def:crs:OGC:1.3:CRS84" } },
"features": [
{ "type": "Feature", "properties": { "name": "Waltershausen, Stadt", "feature_type": "entity", "metric_roundness": 29.19, "metric_rectangularity": 53.61, "metric_mobile_fit": -20.73, "metric_aspect_ratio": 1.77, "metric_area_km2": 151.26 }, "geometry": { "type": "Polygon", "coordinates": [ [ [ 10.6163405, 50.8953961 ], [ 10.6135902, 50.8995513 ], [ 10.6173867, 50.9024686 ], [ 10.6142023, 50.9052858 ], [ 10.6094891, 50.9107925 ], [ 10.615373, 50.917684 ], [ 10.6129082, 50.9193874 ], [ 10.5993663, 50.910710099999974 ], [ 10.579665, 50.903033 ], [ 10.5778974, 50.908653899999983 ], [ 10.5730736, 50.9086403 ], [ 10.5552893, 50.920179399999988 ], [ 10.5462522, 50.916813399999988 ], [ 10.5278069, 50.919866 ], [ 10.5076778, 50.910055 ], [ 10.4979085, 50.900758 ], [ 10.4956732, 50.89645 ], [ 10.4815585, 50.896724799999987 ], [ 10.481641, 50.911365 ], [ 10.4590789, 50.908487 ], [ 10.4536485, 50.909899499999987 ], [ 10.449479, 50.9098975 ], [ 10.4434315, 50.908995 ], [ 10.4348145, 50.9038085 ], [ 10.4348372, 50.8927514 ], [ 10.420659, 50.88728219999998 ], [ 10.4108478, 50.873392899999978 ], [ 10.408114, 50.871066 ], [ 10.407097, 50.867583499999981 ], [ 10.4008625, 50.864276 ], [ 10.41141, 50.8502395 ], [ 10.428951, 50.8429901 ], [ 10.439822, 50.846494299999982 ], [ 10.4542592, 50.845924699999983 ], [ 10.4665985, 50.85133 ], [ 10.4751625, 50.858024 ], [ 10.4651453, 50.866866899999984 ], [ 10.4752173, 50.873392899999978 ], [ 10.4845482, 50.8783684 ], [ 10.4865793, 50.8864636 ], [ 10.500605, 50.8910716 ], [ 10.5234875, 50.8894854 ], [ 10.536239, 50.873392899999978 ], [ 10.5354913, 50.8711065 ], [ 10.543466, 50.868296 ], [ 10.561473, 50.873392899999978 ], [ 10.5692822, 50.8775343 ], [ 10.573403, 50.8768216 ], [ 10.5727726, 50.873392899999978 ], [ 10.5746302, 50.869797 ], [ 10.583129, 50.866079099999986 ], [ 10.5894214, 50.8687811 ], [ 10.5896418, 50.873392899999978 ], [ 10.5964409, 50.876994499999988 ], [ 10.5941083, 50.8824794 ], [ 10.5993663, 50.887516699999978 ], [ 10.6043056, 50.8887968 ], [ 10.6030838, 50.8929633 ], [ 10.6107505, 50.893666 ], [ 10.6163405, 50.8953961 ] ] ] } },
{ "type": "Feature", "properties": { "name": "Waltershausen, Stadt", "feature_type": "circle", "metric_roundness": 29.19, "metric_rectangularity": 53.61, "metric_mobile_fit": -20.73, "metric_aspect_ratio": 1.77, "metric_area_km2": 151.26 }, "geometry": { "type": "Polygon", "coordinates": [ [ [ 10.625204831332018, 50.888289998335914 ], [ 10.625046680789662, 50.884479902045292 ], [ 10.62457266264223, 50.880679938623352 ], [ 10.623784076140518, 50.876900527323251 ], [ 10.622683082745317, 50.873152033570669 ], [ 10.621272700202988, 50.869444740483786 ], [ 10.619556794274047, 50.865788820592023 ], [ 10.617540068137378, 50.862194307832425 ], [ 10.615228049499136, 50.85867106990154 ], [ 10.612627075441704, 50.855228781040161 ], [ 10.609744275054181, 50.851876895327599 ], [ 10.606587549892049, 50.848624620560429 ], [ 10.603165552319556, 50.845480892789922 ], [ 10.599487661794189, 50.842454351590121 ], [ 10.595563959158229, 50.839553316127187 ], [ 10.591405199007868, 50.836785762098245 ], [ 10.58702278021561, 50.834159299605737 ], [ 10.58242871468674, 50.831681152031003 ], [ 10.577635594435549, 50.829358135967659 ], [ 10.572656557071477, 50.827196642273016 ], [ 10.56750524978985, 50.825202618292124 ], [ 10.562195791965864, 50.823381551306184 ], [ 10.556742736454362, 50.821738453253261 ], [ 10.551161029701458, 50.820277846766075 ], [ 10.545465970777387, 50.819003752567205 ], [ 10.5396731694428, 50.817919678259024 ], [ 10.533798503363498, 50.817028608540689 ], [ 10.527858074590869, 50.816332996881258 ], [ 10.521868165427259, 50.815834758673077 ], [ 10.515845193797334, 50.815535265885721 ], [ 10.509805668247681, 50.815435343236032 ], [ 10.503766142698025, 50.815535265885721 ], [ 10.497743171068102, 50.815834758673077 ], [ 10.491753261904492, 50.816332996881258 ], [ 10.485812833131861, 50.817028608540689 ], [ 10.479938167052561, 50.817919678259024 ], [ 10.474145365717975, 50.819003752567205 ], [ 10.468450306793903, 50.820277846766075 ], [ 10.462868600040999, 50.821738453253261 ], [ 10.457415544529496, 50.823381551306184 ], [ 10.452106086705513, 50.825202618292124 ], [ 10.446954779423885, 50.827196642273016 ], [ 10.441975742059812, 50.829358135967659 ], [ 10.437182621808621, 50.831681152031003 ], [ 10.432588556279752, 50.834159299605737 ], [ 10.428206137487491, 50.836785762098245 ], [ 10.424047377337132, 50.839553316127187 ], [ 10.420123674701172, 50.842454351590121 ], [ 10.416445784175803, 50.845480892789922 ], [ 10.41302378660331, 50.848624620560429 ], [ 10.409867061441178, 50.851876895327599 ], [ 10.406984261053656, 50.855228781040161 ], [ 10.404383286996223, 50.85867106990154 ], [ 10.402071268357982, 50.862194307832425 ], [ 10.400054542221312, 50.865788820592023 ], [ 10.398338636292372, 50.869444740483786 ], [ 10.396928253750046, 50.873152033570669 ], [ 10.395827260354842, 50.876900527323251 ], [ 10.395038673853129, 50.880679938623352 ], [ 10.394564655705699, 50.884479902045292 ], [ 10.394406505163341, 50.888289998335914 ], [ 10.394564655705699, 50.892099783014707 ], [ 10.395038673853129, 50.895898815015272 ], [ 10.395827260354842, 50.899676685289307 ], [ 10.396928253750046, 50.903423045294943 ], [ 10.398338636292372, 50.907127635291836 ], [ 10.400054542221312, 50.910780312366207 ], [ 10.402071268357982, 50.914371078110044 ], [ 10.404383286996223, 50.917890105879927 ], [ 10.406984261053656, 50.921327767562509 ], [ 10.409867061441178, 50.92467465977488 ], [ 10.41302378660331, 50.927921629430308 ], [ 10.416445784175803, 50.93105979860151 ], [ 10.420123674701172, 50.934080588615636 ], [ 10.424047377337132, 50.936975743317731 ], [ 10.428206137487491, 50.939737351441558 ], [ 10.432588556279752, 50.94235786802922 ], [ 10.437182621808621, 50.944830134843983 ], [ 10.441975742059812, 50.947147399723043 ], [ 10.446954779423885, 50.949303334820236 ], [ 10.452106086705513, 50.95129205369166 ], [ 10.457415544529496, 50.953108127179952 ], [ 10.462868600040999, 50.954746598056801 ], [ 10.468450306793903, 50.956202994385777 ], [ 10.474145365717975, 50.957473341571607 ], [ 10.479938167052561, 50.958554173064947 ], [ 10.485812833131861, 50.959442539695551 ], [ 10.491753261904492, 50.960136017609912 ], [ 10.497743171068102, 50.960632714793412 ], [ 10.503766142698025, 50.96093127616026 ], [ 10.509805668247681, 50.961030887198412 ], [ 10.515845193797334, 50.96093127616026 ], [ 10.521868165427259, 50.960632714793412 ], [ 10.527858074590869, 50.960136017609912 ], [ 10.533798503363498, 50.959442539695551 ], [ 10.5396731694428, 50.958554173064947 ], [ 10.545465970777387, 50.957473341571607 ], [ 10.551161029701458, 50.956202994385777 ], [ 10.556742736454362, 50.954746598056801 ], [ 10.562195791965864, 50.953108127179952 ], [ 10.56750524978985, 50.95129205369166 ], [ 10.572656557071477, 50.949303334820236 ], [ 10.577635594435549, 50.947147399723043 ], [ 10.58242871468674, 50.944830134843983 ], [ 10.58702278021561, 50.94235786802922 ], [ 10.591405199007868, 50.939737351441558 ], [ 10.595563959158229, 50.936975743317731 ], [ 10.599487661794189, 50.934080588615636 ], [ 10.603165552319556, 50.93105979860151 ], [ 10.606587549892049, 50.927921629430308 ], [ 10.609744275054181, 50.92467465977488 ], [ 10.612627075441704, 50.921327767562509 ], [ 10.615228049499136, 50.917890105879927 ], [ 10.617540068137378, 50.914371078110044 ], [ 10.619556794274047, 50.910780312366207 ], [ 10.621272700202988, 50.907127635291836 ], [ 10.622683082745317, 50.903423045294943 ], [ 10.623784076140518, 50.899676685289307 ], [ 10.62457266264223, 50.895898815015272 ], [ 10.625046680789662, 50.892099783014707 ], [ 10.625204831332018, 50.888289998335914 ] ] ] } },
{ "type": "Feature", "properties": { "name": "Waltershausen, Stadt", "feature_type": "mrr", "metric_roundness": 29.19, "metric_rectangularity": 53.61, "metric_mobile_fit": -20.73, "metric_aspect_ratio": 1.77, "metric_area_km2": 151.26 }, "geometry": { "type": "Polygon", "coordinates": [ [ [ 10.387233441919051, 50.900607436049711 ], [ 10.609341204002776, 50.933748229287765 ], [ 10.632317803917266, 50.872525976333961 ], [ 10.410210041833542, 50.839341585441424 ], [ 10.387233441919051, 50.900607436049711 ] ] ] } }
]
}
