{
"type": "FeatureCollection",
"name": "waxweiler",
"crs": { "type": "name", "properties": { "name": "urn:ogc:def:crs:OGC:1.3:CRS84" } },
"features": [
{ "type": "Feature", "properties": { "name": "Waxweiler", "metric_roundness": 39.01, "metric_rectangularity": 54.22, "metric_mobile_fit": 62.0, "metric_aspect_ratio": 0.943, "metric_area_km2": 14.92 }, "geometry": { "type": "Polygon", "coordinates": [ [ [ 6.3420065, 50.112410499999989 ], [ 6.3538159, 50.104927699999976 ], [ 6.350418, 50.096738499999979 ], [ 6.3511168, 50.0896488 ], [ 6.360949, 50.0851085 ], [ 6.361815, 50.085933 ], [ 6.377209, 50.082705 ], [ 6.382585, 50.083205499999984 ], [ 6.3806185, 50.0928803 ], [ 6.392094, 50.09948 ], [ 6.3787, 50.104954 ], [ 6.3716478, 50.1009988 ], [ 6.362436, 50.1020944 ], [ 6.3622997, 50.1134996 ], [ 6.3547975, 50.116792499999981 ], [ 6.3430495, 50.114413 ], [ 6.3420065, 50.112410499999989 ] ] ] } }
]
}
