{
"type": "FeatureCollection",
"name": "teliu",
"crs": { "type": "name", "properties": { "name": "urn:ogc:def:crs:OGC:1.3:CRS84" } },
"features": [
{ "type": "Feature", "properties": { "name": "Teliu", "metric_roundness": 41.52, "metric_rectangularity": 73.29, "metric_mobile_fit": 14.58, "metric_aspect_ratio": 1.417, "metric_area_km2": 112.34 }, "geometry": { "type": "Polygon", "coordinates": [ [ [ 25.8195535, 45.7155862 ], [ 25.8254499, 45.710438 ], [ 25.8209787, 45.707061499999988 ], [ 25.814132, 45.689991499999984 ], [ 25.818564, 45.6848444 ], [ 25.8252693, 45.6846086 ], [ 25.8359082, 45.6758993 ], [ 25.846669, 45.671559199999983 ], [ 25.8590411, 45.669938299999977 ], [ 25.8721281, 45.6729072 ], [ 25.9002426, 45.666565 ], [ 25.9144522, 45.6560431 ], [ 25.925827, 45.651473 ], [ 25.951292, 45.6524235 ], [ 25.9665595, 45.6605673 ], [ 25.971584, 45.6875825 ], [ 25.9418705, 45.6916944 ], [ 25.9248365, 45.7013313 ], [ 25.915248, 45.702808 ], [ 25.9101962, 45.7096386 ], [ 25.8787178, 45.7103269 ], [ 25.8629456, 45.7071562 ], [ 25.8528211, 45.7188789 ], [ 25.8530087, 45.722751599999981 ], [ 25.8443218, 45.728516499999984 ], [ 25.8401099, 45.7291059 ], [ 25.8364104, 45.7232767 ], [ 25.832521, 45.723451499999982 ], [ 25.8195535, 45.7155862 ] ] ] } }
]
}
