{
"type": "FeatureCollection",
"name": "opatov",
"crs": { "type": "name", "properties": { "name": "urn:ogc:def:crs:OGC:1.3:CRS84" } },
"features": [
{ "type": "Feature", "properties": { "name": "Opatov", "metric_roundness": 55.27, "metric_rectangularity": 59.76, "metric_mobile_fit": 61.21, "metric_aspect_ratio": 0.95, "metric_area_km2": 71.67 }, "geometry": { "type": "Polygon", "coordinates": [ [ [ 16.4886986, 49.8123633 ], [ 16.5076085, 49.7935425 ], [ 16.5093379, 49.7969667 ], [ 16.5258607, 49.805863099999989 ], [ 16.5306296, 49.818151199999981 ], [ 16.536883, 49.8214455 ], [ 16.5411943, 49.8310701 ], [ 16.5282275, 49.853539499999989 ], [ 16.4725471, 49.848439499999976 ], [ 16.4730529, 49.8545179 ], [ 16.4802907, 49.8591335 ], [ 16.475218, 49.862512499999987 ], [ 16.4677183, 49.852188199999979 ], [ 16.448335, 49.8536888 ], [ 16.4395815, 49.850181 ], [ 16.4497441, 49.837961399999976 ], [ 16.4475325, 49.829224499999988 ], [ 16.4589008, 49.8206046 ], [ 16.4592855, 49.8155115 ], [ 16.4886986, 49.8123633 ] ] ] } }
]
}
