{
"type": "FeatureCollection",
"name": "fontenoy_sur_moselle",
"crs": { "type": "name", "properties": { "name": "urn:ogc:def:crs:OGC:1.3:CRS84" } },
"features": [
{ "type": "Feature", "properties": { "name": "Fontenoy-sur-Moselle", "feature_type": "entity", "metric_roundness": 49.78, "metric_rectangularity": 60.46, "metric_mobile_fit": 55.96, "metric_aspect_ratio": 1.003, "metric_area_km2": 12.68 }, "geometry": { "type": "Polygon", "coordinates": [ [ [ 6.0103525, 48.6981702 ], [ 6.0062631, 48.7026344 ], [ 6.0077288, 48.7109339 ], [ 6.003624, 48.717705 ], [ 5.992542, 48.7166253 ], [ 5.985498, 48.722643499999982 ], [ 5.9810805, 48.720268899999979 ], [ 5.9790185, 48.714920199999987 ], [ 5.9727695, 48.713426 ], [ 5.9676488, 48.7004178 ], [ 5.9789909, 48.7027309 ], [ 5.9968064, 48.6983245 ], [ 6.003369, 48.6933438 ], [ 6.0103525, 48.695590799999984 ], [ 6.0121775, 48.696178 ], [ 6.0103525, 48.6981702 ] ] ] } },
{ "type": "Feature", "properties": { "name": "Fontenoy-sur-Moselle", "feature_type": "circle", "metric_roundness": 49.78, "metric_rectangularity": 60.46, "metric_mobile_fit": 55.96, "metric_aspect_ratio": 1.003, "metric_area_km2": 12.68 }, "geometry": { "type": "Polygon", "coordinates": [ [ [ 6.01723727988839, 48.706258679811491 ], [ 6.017202217860373, 48.705375062919281 ], [ 6.017097127878907, 48.704493852508605 ], [ 6.016922297988322, 48.703617464106365 ], [ 6.0166782073852, 48.70274830014737 ], [ 6.016365525104916, 48.701888743385929 ], [ 6.015985108187865, 48.701041150360147 ], [ 6.015537999330377, 48.700207844926759 ], [ 6.015025424026748, 48.699391111884303 ], [ 6.014448787210261, 48.69859319070229 ], [ 6.013809669402345, 48.697816269373504 ], [ 6.01310982238049, 48.697062478406544 ], [ 6.012351164376734, 48.696333884975033 ], [ 6.011535774819934, 48.695632487239713 ], [ 6.010665888636188, 48.694960208859257 ], [ 6.009743890123058, 48.69431889370469 ], [ 6.008772306414384, 48.693710300792318 ], [ 6.007753800553576, 48.69313609944907 ], [ 6.006691164194404, 48.69259786472368 ], [ 6.005587309949265, 48.692097073056331 ], [ 6.004445263405918, 48.691635098219059 ], [ 6.003268154834554, 48.6912132075378 ], [ 6.002059210607948, 48.690832558406868 ], [ 6.000821744358193, 48.690494195105465 ], [ 5.999559147894264, 48.690199045924963 ], [ 5.998274881905304, 48.689947920615104 ], [ 5.996972466475126, 48.689741508156153 ], [ 5.995655471433889, 48.689580374863183 ], [ 5.994327506573461, 48.689464962827742 ], [ 5.992992211753219, 48.68939558870138 ], [ 5.991653246923446, 48.689372442824272 ], [ 5.990314282093675, 48.68939558870138 ], [ 5.988978987273432, 48.689464962827742 ], [ 5.987651022413004, 48.689580374863183 ], [ 5.986334027371768, 48.689741508156153 ], [ 5.985031611941589, 48.689947920615104 ], [ 5.98374734595263, 48.690199045924963 ], [ 5.982484749488701, 48.690494195105465 ], [ 5.981247283238945, 48.690832558406868 ], [ 5.980038339012339, 48.6912132075378 ], [ 5.978861230440976, 48.691635098219059 ], [ 5.977719183897627, 48.692097073056331 ], [ 5.976615329652489, 48.69259786472368 ], [ 5.975552693293317, 48.69313609944907 ], [ 5.97453418743251, 48.693710300792318 ], [ 5.973562603723836, 48.69431889370469 ], [ 5.972640605210706, 48.694960208859257 ], [ 5.97177071902696, 48.695632487239713 ], [ 5.97095532947016, 48.696333884975033 ], [ 5.970196671466403, 48.697062478406544 ], [ 5.969496824444549, 48.697816269373504 ], [ 5.968857706636633, 48.69859319070229 ], [ 5.968281069820145, 48.699391111884303 ], [ 5.967768494516516, 48.700207844926759 ], [ 5.967321385659027, 48.701041150360147 ], [ 5.966940968741978, 48.701888743385929 ], [ 5.966628286461693, 48.70274830014737 ], [ 5.966384195858572, 48.703617464106365 ], [ 5.966209365967987, 48.704493852508605 ], [ 5.966104275986519, 48.705375062919281 ], [ 5.966069213958504, 48.706258679811491 ], [ 5.966104275986519, 48.707142281189071 ], [ 5.966209365967987, 48.708023445225884 ], [ 5.966384195858572, 48.708899756903079 ], [ 5.966628286461693, 48.709768814626479 ], [ 5.966940968741978, 48.710628236805704 ], [ 5.967321385659027, 48.711475668377162 ], [ 5.967768494516516, 48.712308787253065 ], [ 5.968281069820145, 48.713125310678812 ], [ 5.968857706636633, 48.713923001481511 ], [ 5.969496824444549, 48.714699674192453 ], [ 5.970196671466403, 48.715453201026946 ], [ 5.97095532947016, 48.71618151770528 ], [ 5.97177071902696, 48.716882629098848 ], [ 5.972640605210706, 48.717554614686215 ], [ 5.973562603723836, 48.718195633804264 ], [ 5.97453418743251, 48.718803930680117 ], [ 5.975552693293317, 48.719377839230276 ], [ 5.976615329652489, 48.719915787613921 ], [ 5.977719183897627, 48.720416302528093 ], [ 5.978861230440975, 48.720878013232912 ], [ 5.980038339012339, 48.721299655296342 ], [ 5.981247283238945, 48.721680074047953 ], [ 5.982484749488701, 48.722018227732661 ], [ 5.98374734595263, 48.722313190355685 ], [ 5.985031611941589, 48.722564154211234 ], [ 5.986334027371768, 48.722770432087977 ], [ 5.987651022413004, 48.722931459145357 ], [ 5.988978987273432, 48.723046794455762 ], [ 5.990314282093675, 48.723116122208246 ], [ 5.991653246923446, 48.723139252570739 ], [ 5.992992211753219, 48.723116122208246 ], [ 5.994327506573461, 48.723046794455762 ], [ 5.995655471433889, 48.722931459145357 ], [ 5.996972466475126, 48.722770432087977 ], [ 5.998274881905304, 48.722564154211234 ], [ 5.999559147894264, 48.722313190355685 ], [ 6.000821744358193, 48.722018227732661 ], [ 6.002059210607948, 48.721680074047953 ], [ 6.003268154834554, 48.721299655296342 ], [ 6.004445263405918, 48.720878013232912 ], [ 6.005587309949265, 48.720416302528093 ], [ 6.006691164194404, 48.719915787613921 ], [ 6.007753800553576, 48.719377839230276 ], [ 6.008772306414384, 48.718803930680117 ], [ 6.009743890123058, 48.718195633804264 ], [ 6.010665888636188, 48.717554614686215 ], [ 6.011535774819934, 48.716882629098848 ], [ 6.012351164376734, 48.71618151770528 ], [ 6.01310982238049, 48.715453201026946 ], [ 6.013809669402345, 48.714699674192453 ], [ 6.014448787210261, 48.713923001481511 ], [ 6.015025424026748, 48.713125310678812 ], [ 6.015537999330377, 48.712308787253065 ], [ 6.015985108187865, 48.711475668377162 ], [ 6.016365525104916, 48.710628236805704 ], [ 6.0166782073852, 48.709768814626479 ], [ 6.016922297988322, 48.708899756903079 ], [ 6.017097127878907, 48.708023445225884 ], [ 6.017202217860373, 48.707142281189071 ], [ 6.01723727988839, 48.706258679811491 ] ] ] } },
{ "type": "Feature", "properties": { "name": "Fontenoy-sur-Moselle", "feature_type": "mrr", "metric_roundness": 49.78, "metric_rectangularity": 60.46, "metric_mobile_fit": 55.96, "metric_aspect_ratio": 1.003, "metric_area_km2": 12.68 }, "geometry": { "type": "Polygon", "coordinates": [ [ [ 6.010268101442629, 48.691977391448056 ], [ 5.966920639654738, 48.700561992517514 ], [ 5.977666353721936, 48.724193653785974 ], [ 6.021013815509829, 48.715613083579669 ], [ 6.010268101442629, 48.691977391448056 ] ] ] } }
]
}
