{
"type": "FeatureCollection",
"name": "fos_sur_mer",
"crs": { "type": "name", "properties": { "name": "urn:ogc:def:crs:OGC:1.3:CRS84" } },
"features": [
{ "type": "Feature", "properties": { "name": "Fos-sur-Mer", "feature_type": "entity", "metric_roundness": 53.61, "metric_rectangularity": 59.8, "metric_mobile_fit": 48.96, "metric_aspect_ratio": 1.073, "metric_area_km2": 169.23 }, "geometry": { "type": "Polygon", "coordinates": [ [ [ 4.8557431, 43.4035493 ], [ 4.8309014, 43.4227031 ], [ 4.8357385, 43.4240761 ], [ 4.8635987, 43.4080358 ], [ 4.8709105, 43.4102083 ], [ 4.8722172, 43.4183716 ], [ 4.8550285, 43.4448478 ], [ 4.8560685, 43.4497174 ], [ 4.8787797, 43.424273299999982 ], [ 4.8938853, 43.42506 ], [ 4.8900745, 43.4156465 ], [ 4.8919412, 43.4092291 ], [ 4.9115857, 43.426138699999981 ], [ 4.9229713, 43.431214399999988 ], [ 4.9596973, 43.4270527 ], [ 4.9617945, 43.426656899999983 ], [ 4.9722595, 43.4218955 ], [ 4.9806816, 43.432406799999988 ], [ 4.9784828, 43.4408081 ], [ 4.980825, 43.445298 ], [ 4.9755808, 43.4522184 ], [ 4.9796748, 43.4629161 ], [ 4.9759015, 43.474128 ], [ 4.9664671, 43.474469 ], [ 4.9596973, 43.4781261 ], [ 4.9569249, 43.485111499999988 ], [ 4.928671, 43.5106525 ], [ 4.9155975, 43.508806 ], [ 4.881548, 43.49796 ], [ 4.876393, 43.4945205 ], [ 4.8738625, 43.492630499999983 ], [ 4.868613, 43.482408499999984 ], [ 4.8556415, 43.4673765 ], [ 4.8537225, 43.465884 ], [ 4.8381375, 43.462567 ], [ 4.8305037, 43.4603009 ], [ 4.8297996, 43.457293299999982 ], [ 4.8422592, 43.4497776 ], [ 4.8150396, 43.418929399999982 ], [ 4.8415335, 43.403599 ], [ 4.845102, 43.402002 ], [ 4.853274, 43.398487 ], [ 4.8557431, 43.4035493 ] ] ] } },
{ "type": "Feature", "properties": { "name": "Fos-sur-Mer", "feature_type": "circle", "metric_roundness": 53.61, "metric_rectangularity": 59.8, "metric_mobile_fit": 48.96, "metric_aspect_ratio": 1.073, "metric_area_km2": 169.23 }, "geometry": { "type": "Polygon", "coordinates": [ [ [ 4.984125352989596, 43.450317300663997 ], [ 4.984001918244661, 43.446895134342348 ], [ 4.983631952335914, 43.443482155117032 ], [ 4.983016469314194, 43.440087720105346 ], [ 4.982157156175681, 43.43672113715202 ], [ 4.981056368237959, 43.433391639273921 ], [ 4.979717122684249, 43.430108359293314 ], [ 4.978143090293527, 43.426880304729835 ], [ 4.976338585379162, 43.423716333020778 ], [ 4.974308553963697, 43.420625127138692 ], [ 4.972058560222136, 43.417615171674214 ], [ 4.969594771230929, 43.414694729451007 ], [ 4.966923940064446, 43.411871818738277 ], [ 4.964053387285266, 43.409154191124905 ], [ 4.960990980879027, 43.406549310117484 ], [ 4.957745114688824, 43.404064330522523 ], [ 4.954324685408266, 43.401706078671175 ], [ 4.950739068196262, 43.399481033542564 ], [ 4.946998090980355, 43.397395308839009 ], [ 4.943112007519061, 43.395454636064464 ], [ 4.939091469297031, 43.393664348654006 ], [ 4.934947496330067, 43.392029367199875 ], [ 4.930691446960026, 43.390554185816164 ], [ 4.926334986722399, 43.389242859681154 ], [ 4.921890056371881, 43.38809899379298 ], [ 4.917368839153601, 43.387125732970894 ], [ 4.91278372740969, 43.386325753130805 ], [ 4.908147288612727, 43.385701253860049 ], [ 4.903472230919182, 43.385253952313008 ], [ 4.898771368337234, 43.384985078444771 ], [ 4.894057585604466, 43.384895371596876 ], [ 4.889343802871699, 43.384985078444771 ], [ 4.88464294028975, 43.385253952313008 ], [ 4.879967882596206, 43.385701253860049 ], [ 4.875331443799244, 43.386325753130805 ], [ 4.870746332055331, 43.387125732970894 ], [ 4.866225114837052, 43.38809899379298 ], [ 4.861780184486534, 43.389242859681154 ], [ 4.857423724248906, 43.390554185816164 ], [ 4.853167674878867, 43.392029367199875 ], [ 4.849023701911903, 43.393664348654006 ], [ 4.845003163689872, 43.395454636064464 ], [ 4.841117080228578, 43.397395308839009 ], [ 4.837376103012671, 43.399481033542564 ], [ 4.833790485800667, 43.401706078671175 ], [ 4.830370056520109, 43.404064330522523 ], [ 4.827124190329906, 43.406549310117484 ], [ 4.824061783923667, 43.409154191124905 ], [ 4.821191231144486, 43.411871818738277 ], [ 4.818520399978004, 43.414694729451007 ], [ 4.816056610986796, 43.417615171674214 ], [ 4.813806617245235, 43.420625127138692 ], [ 4.811776585829771, 43.423716333020778 ], [ 4.809972080915407, 43.426880304729835 ], [ 4.808398048524683, 43.430108359293314 ], [ 4.807058802970973, 43.433391639273921 ], [ 4.805958015033251, 43.43672113715202 ], [ 4.805098701894739, 43.440087720105346 ], [ 4.80448321887302, 43.443482155117032 ], [ 4.804113252964271, 43.446895134342348 ], [ 4.803989818219337, 43.450317300663997 ], [ 4.804113252964271, 43.4537392733654 ], [ 4.80448321887302, 43.457151673851314 ], [ 4.805098701894739, 43.460545151345258 ], [ 4.805958015033251, 43.463910408493255 ], [ 4.807058802970973, 43.467238226804277 ], [ 4.808398048524683, 43.470519491857765 ], [ 4.809972080915407, 43.473745218210063 ], [ 4.811776585829771, 43.476906573932283 ], [ 4.813806617245235, 43.479994904713188 ], [ 4.816056610986796, 43.483001757462397 ], [ 4.818520399978004, 43.485918903350246 ], [ 4.821191231144486, 43.488738360222911 ], [ 4.824061783923667, 43.491452414332521 ], [ 4.827124190329906, 43.494053641324534 ], [ 4.830370056520109, 43.496534926426634 ], [ 4.833790485800666, 43.498889483785277 ], [ 4.837376103012671, 43.501110874899005 ], [ 4.841117080228578, 43.503193026099602 ], [ 4.845003163689872, 43.505130245035183 ], [ 4.849023701911901, 43.506917236111619 ], [ 4.853167674878867, 43.508549114851974 ], [ 4.857423724248906, 43.51002142113613 ], [ 4.861780184486534, 43.511330131285945 ], [ 4.866225114837052, 43.512471668964558 ], [ 4.87074633205533, 43.51344291486101 ], [ 4.875331443799244, 43.514241215135364 ], [ 4.879967882596206, 43.514864388601879 ], [ 4.88464294028975, 43.515310732632003 ], [ 4.889343802871699, 43.515579027761348 ], [ 4.894057585604466, 43.515668540989161 ], [ 4.898771368337234, 43.515579027761348 ], [ 4.903472230919182, 43.515310732632003 ], [ 4.908147288612727, 43.514864388601879 ], [ 4.91278372740969, 43.514241215135364 ], [ 4.917368839153601, 43.51344291486101 ], [ 4.921890056371881, 43.512471668964558 ], [ 4.926334986722398, 43.511330131285945 ], [ 4.930691446960025, 43.51002142113613 ], [ 4.934947496330067, 43.508549114851974 ], [ 4.939091469297031, 43.506917236111619 ], [ 4.943112007519061, 43.505130245035183 ], [ 4.946998090980355, 43.503193026099602 ], [ 4.950739068196262, 43.501110874899005 ], [ 4.954324685408266, 43.498889483785277 ], [ 4.957745114688824, 43.496534926426634 ], [ 4.960990980879027, 43.494053641324534 ], [ 4.964053387285266, 43.491452414332521 ], [ 4.966923940064446, 43.488738360222911 ], [ 4.969594771230929, 43.485918903350246 ], [ 4.972058560222136, 43.483001757462397 ], [ 4.974308553963697, 43.479994904713188 ], [ 4.976338585379162, 43.476906573932283 ], [ 4.978143090293527, 43.473745218210063 ], [ 4.979717122684249, 43.470519491857765 ], [ 4.981056368237959, 43.467238226804277 ], [ 4.982157156175681, 43.463910408493255 ], [ 4.983016469314194, 43.460545151345258 ], [ 4.983631952335914, 43.457151673851314 ], [ 4.984001918244661, 43.4537392733654 ], [ 4.984125352989596, 43.450317300663997 ] ] ] } },
{ "type": "Feature", "properties": { "name": "Fos-sur-Mer", "feature_type": "mrr", "metric_roundness": 53.61, "metric_rectangularity": 59.8, "metric_mobile_fit": 48.96, "metric_aspect_ratio": 1.073, "metric_area_km2": 169.23 }, "geometry": { "type": "Polygon", "coordinates": [ [ [ 4.993805287513085, 43.426133322564006 ], [ 4.824751977378263, 43.392874402415977 ], [ 4.790667160974728, 43.484263013556564 ], [ 4.959720471109551, 43.517471722564686 ], [ 4.993805287513085, 43.426133322564006 ] ] ] } }
]
}
