{
"type": "FeatureCollection",
"name": "nogarole_vicentino",
"crs": { "type": "name", "properties": { "name": "urn:ogc:def:crs:OGC:1.3:CRS84" } },
"features": [
{ "type": "Feature", "properties": { "name": "Nogarole Vicentino", "feature_type": "entity", "metric_roundness": 31.58, "metric_rectangularity": 56.15, "metric_mobile_fit": 65.49, "metric_aspect_ratio": 0.908, "metric_area_km2": 18.76 }, "geometry": { "type": "Polygon", "coordinates": [ [ [ 11.2891375, 45.5903256 ], [ 11.2821195, 45.5977905 ], [ 11.2682005, 45.594392 ], [ 11.2679951, 45.587351 ], [ 11.270726, 45.5840975 ], [ 11.2774731, 45.578854199999981 ], [ 11.2749292, 45.5674146 ], [ 11.2862907, 45.5552157 ], [ 11.29348, 45.5519806 ], [ 11.3014805, 45.554809 ], [ 11.2994693, 45.555904599999984 ], [ 11.307865, 45.5595601 ], [ 11.327393, 45.558694499999987 ], [ 11.3096386, 45.57065189999998 ], [ 11.2916799, 45.5761639 ], [ 11.290151, 45.5846775 ], [ 11.2891375, 45.5903256 ] ] ] } },
{ "type": "Feature", "properties": { "name": "Nogarole Vicentino", "feature_type": "circle", "metric_roundness": 31.58, "metric_rectangularity": 56.15, "metric_mobile_fit": 65.49, "metric_aspect_ratio": 0.908, "metric_area_km2": 18.76 }, "geometry": { "type": "Polygon", "coordinates": [ [ [ 11.336863092952568, 45.576546086637542 ], [ 11.336809553887285, 45.575114956783274 ], [ 11.336649083438294, 45.57368771323376 ], [ 11.336382121443943, 45.572268268412138 ], [ 11.336009399628498, 45.570860513658857 ], [ 11.335531939596551, 45.56946830855766 ], [ 11.33495105003286, 45.568095470345519 ], [ 11.334268323115346, 45.566745763435598 ], [ 11.333485630151026, 45.565422889082186 ], [ 11.332605116446917, 45.564130475216068 ], [ 11.33162919542988, 45.562872066478434 ], [ 11.330560542031581, 45.561651114480945 ], [ 11.329402085356708, 45.560470968318711 ], [ 11.328157000654482, 45.559334865362807 ], [ 11.326828700615525, 45.558245922357507 ], [ 11.32542082601792, 45.557207126847267 ], [ 11.323937235748076, 45.556221328957044 ], [ 11.322381996223797, 45.555291233549021 ], [ 11.320759370248521, 45.554419392777405 ], [ 11.319073805327253, 45.553608199062246 ], [ 11.317329921476283, 45.552859878501621 ], [ 11.315532498560033, 45.552176484740755 ], [ 11.313686463189777, 45.551559893315257 ], [ 11.311796875220146, 45.551011796484055 ], [ 11.309868913880425, 45.550533698566625 ], [ 11.307907863578629, 45.550126911797634 ], [ 11.305919099417336, 45.549792552710457 ], [ 11.303908072460864, 45.549531539059707 ], [ 11.301880294794318, 45.549344587291536 ], [ 11.299841324415336, 45.549232210568661 ], [ 11.29779675, 45.549194717355668 ], [ 11.295752175584662, 45.549232210568661 ], [ 11.293713205205682, 45.549344587291536 ], [ 11.291685427539136, 45.549531539059707 ], [ 11.289674400582664, 45.549792552710457 ], [ 11.287685636421369, 45.550126911797634 ], [ 11.285724586119576, 45.550533698566625 ], [ 11.283796624779853, 45.551011796484055 ], [ 11.281907036810223, 45.551559893315257 ], [ 11.280061001439966, 45.552176484740755 ], [ 11.278263578523717, 45.552859878501621 ], [ 11.276519694672746, 45.553608199062246 ], [ 11.274834129751479, 45.554419392777405 ], [ 11.273211503776203, 45.555291233549021 ], [ 11.271656264251924, 45.556221328957044 ], [ 11.27017267398208, 45.557207126847267 ], [ 11.268764799384474, 45.558245922357507 ], [ 11.26743649934552, 45.559334865362807 ], [ 11.266191414643291, 45.560470968318711 ], [ 11.265032957968419, 45.561651114480945 ], [ 11.26396430457012, 45.562872066478434 ], [ 11.262988383553083, 45.564130475216068 ], [ 11.262107869848974, 45.565422889082186 ], [ 11.261325176884654, 45.566745763435598 ], [ 11.260642449967138, 45.568095470345519 ], [ 11.26006156040345, 45.56946830855766 ], [ 11.259584100371502, 45.570860513658857 ], [ 11.259211378556056, 45.572268268412138 ], [ 11.258944416561706, 45.57368771323376 ], [ 11.258783946112715, 45.575114956783274 ], [ 11.258730407047432, 45.576546086637542 ], [ 11.258783946112715, 45.577977180019332 ], [ 11.258944416561706, 45.579404314551013 ], [ 11.259211378556056, 45.580823579003869 ], [ 11.259584100371502, 45.582231084013621 ], [ 11.26006156040345, 45.583622972732748 ], [ 11.260642449967138, 45.584995431390645 ], [ 11.261325176884654, 45.586344699732599 ], [ 11.262107869848974, 45.587667081309412 ], [ 11.262988383553083, 45.58895895358922 ], [ 11.26396430457012, 45.590216777864576 ], [ 11.265032957968419, 45.591437108927323 ], [ 11.266191414643291, 45.592616604485421 ], [ 11.26743649934552, 45.593752034295981 ], [ 11.268764799384474, 45.594840288989822 ], [ 11.27017267398208, 45.595878388563797 ], [ 11.271656264251924, 45.596863490517755 ], [ 11.273211503776203, 45.597792897614362 ], [ 11.274834129751479, 45.598664065240634 ], [ 11.276519694672746, 45.599474608351706 ], [ 11.278263578523717, 45.600222307977631 ], [ 11.280061001439966, 45.60090511727627 ], [ 11.281907036810223, 45.601521167115507 ], [ 11.283796624779853, 45.602068771170153 ], [ 11.285724586119576, 45.602546430519688 ], [ 11.287685636421369, 45.60295283773447 ], [ 11.289674400582664, 45.603286880439619 ], [ 11.291685427539136, 45.603547644346868 ], [ 11.293713205205682, 45.603734415746295 ], [ 11.295752175584662, 45.603846683451359 ], [ 11.29779675, 45.603884140191894 ], [ 11.299841324415336, 45.603846683451359 ], [ 11.301880294794318, 45.603734415746295 ], [ 11.303908072460864, 45.603547644346868 ], [ 11.305919099417336, 45.603286880439619 ], [ 11.307907863578629, 45.60295283773447 ], [ 11.309868913880425, 45.602546430519688 ], [ 11.311796875220146, 45.602068771170153 ], [ 11.313686463189777, 45.601521167115507 ], [ 11.315532498560033, 45.60090511727627 ], [ 11.317329921476283, 45.600222307977631 ], [ 11.319073805327253, 45.599474608351706 ], [ 11.320759370248521, 45.598664065240634 ], [ 11.322381996223797, 45.597792897614362 ], [ 11.323937235748076, 45.596863490517755 ], [ 11.32542082601792, 45.595878388563797 ], [ 11.326828700615525, 45.594840288989822 ], [ 11.328157000654482, 45.593752034295981 ], [ 11.329402085356708, 45.592616604485421 ], [ 11.330560542031581, 45.591437108927323 ], [ 11.33162919542988, 45.590216777864576 ], [ 11.332605116446917, 45.58895895358922 ], [ 11.333485630151026, 45.587667081309412 ], [ 11.334268323115346, 45.586344699732599 ], [ 11.33495105003286, 45.584995431390645 ], [ 11.335531939596551, 45.583622972732748 ], [ 11.336009399628498, 45.582231084013621 ], [ 11.336382121443943, 45.580823579003869 ], [ 11.336649083438294, 45.579404314551013 ], [ 11.336809553887285, 45.577977180019332 ], [ 11.336863092952568, 45.576546086637542 ] ] ] } },
{ "type": "Feature", "properties": { "name": "Nogarole Vicentino", "feature_type": "mrr", "metric_roundness": 31.58, "metric_rectangularity": 56.15, "metric_mobile_fit": 65.49, "metric_aspect_ratio": 0.908, "metric_area_km2": 18.76 }, "geometry": { "type": "Polygon", "coordinates": [ [ [ 11.278976697047947, 45.600503443641827 ], [ 11.327393, 45.558694499999987 ], [ 11.30015679556741, 45.543235406855523 ], [ 11.251740507628082, 45.585055861072888 ], [ 11.278976697047947, 45.600503443641827 ] ] ] } }
]
}
