{
"type": "FeatureCollection",
"name": "norderheistedt",
"crs": { "type": "name", "properties": { "name": "urn:ogc:def:crs:OGC:1.3:CRS84" } },
"features": [
{ "type": "Feature", "properties": { "name": "Norderheistedt", "feature_type": "entity", "metric_roundness": 33.43, "metric_rectangularity": 60.95, "metric_mobile_fit": -20.82, "metric_aspect_ratio": 1.771, "metric_area_km2": 12.49 }, "geometry": { "type": "Polygon", "coordinates": [ [ [ 9.163601, 54.241036499999979 ], [ 9.1665565, 54.2436365 ], [ 9.1627245, 54.250008 ], [ 9.1456822, 54.2500303 ], [ 9.127315, 54.2595585 ], [ 9.113816, 54.2602374 ], [ 9.1083635, 54.2560815 ], [ 9.116545, 54.2513068 ], [ 9.1182455, 54.24438 ], [ 9.1225755, 54.243718 ], [ 9.163601, 54.241036499999979 ] ] ] } },
{ "type": "Feature", "properties": { "name": "Norderheistedt", "feature_type": "circle", "metric_roundness": 33.43, "metric_rectangularity": 60.95, "metric_mobile_fit": -20.82, "metric_aspect_ratio": 1.771, "metric_area_km2": 12.49 }, "geometry": { "type": "Polygon", "coordinates": [ [ [ 9.168444461064263, 54.249859469358377 ], [ 9.168401997937226, 54.248912035174733 ], [ 9.168274724944595, 54.24796717616978 ], [ 9.168062990932798, 54.247027482403311 ], [ 9.167767376250039, 54.246095529952491 ], [ 9.167388691155619, 54.24517387384607 ], [ 9.16692797359906, 54.244265041054604 ], [ 9.16638648637516, 54.243371523555702 ], [ 9.165765713662761, 54.242495771493431 ], [ 9.165067356956719, 54.241640186450994 ], [ 9.16429333040422, 54.240807114854803 ], [ 9.163445755558248, 54.239998841528624 ], [ 9.162526955562537, 54.239217583415318 ], [ 9.161539448784014, 54.238465483483651 ], [ 9.160485941910112, 54.237744604837161 ], [ 9.159369322529951, 54.23705692504118 ], [ 9.158192651219634, 54.236404330684032 ], [ 9.15695915315343, 54.235788612187342 ], [ 9.155672209263804, 54.235211458879853 ], [ 9.1543353469745, 54.234674454348692 ], [ 9.152952230532133, 54.234179072080721 ], [ 9.151526650962726, 54.233726671406373 ], [ 9.150062515680792, 54.233318493757132 ], [ 9.148563837779367, 54.232955659247153 ], [ 9.147034725030405, 54.232639163588551 ], [ 9.145479368625669, 54.232369875349022 ], [ 9.143902031688949, 54.232148533559318 ], [ 9.142307037591149, 54.231975745677474 ], [ 9.140698758100223, 54.23185198591527 ], [ 9.139081601398471, 54.231777593931767 ], [ 9.13746, 54.231752773897476 ], [ 9.13583839860153, 54.231777593931767 ], [ 9.134221241899777, 54.23185198591527 ], [ 9.132612962408851, 54.231975745677474 ], [ 9.131017968311053, 54.232148533559318 ], [ 9.129440631374333, 54.232369875349022 ], [ 9.127885274969595, 54.232639163588551 ], [ 9.126356162220633, 54.232955659247153 ], [ 9.124857484319209, 54.233318493757132 ], [ 9.123393349037274, 54.233726671406373 ], [ 9.12196776946787, 54.234179072080721 ], [ 9.120584653025499, 54.234674454348692 ], [ 9.119247790736196, 54.235211458879853 ], [ 9.11796084684657, 54.235788612187342 ], [ 9.116727348780367, 54.236404330684032 ], [ 9.115550677470049, 54.23705692504118 ], [ 9.114434058089888, 54.237744604837161 ], [ 9.113380551215988, 54.238465483483651 ], [ 9.112393044437463, 54.239217583415318 ], [ 9.111474244441752, 54.239998841528624 ], [ 9.11062666959578, 54.240807114854803 ], [ 9.109852643043283, 54.241640186450994 ], [ 9.109154286337239, 54.242495771493431 ], [ 9.10853351362484, 54.243371523555702 ], [ 9.10799202640094, 54.244265041054604 ], [ 9.107531308844381, 54.24517387384607 ], [ 9.107152623749961, 54.246095529952491 ], [ 9.106857009067205, 54.247027482403311 ], [ 9.106645275055406, 54.24796717616978 ], [ 9.106518002062774, 54.248912035174733 ], [ 9.106475538935737, 54.249859469358377 ], [ 9.106518002062774, 54.250806881780314 ], [ 9.106645275055406, 54.251751675738596 ], [ 9.106857009067205, 54.252691261886056 ], [ 9.107152623749961, 54.253623065324668 ], [ 9.107531308844381, 54.254544532658251 ], [ 9.10799202640094, 54.255453138984507 ], [ 9.10853351362484, 54.256346394807039 ], [ 9.109154286337239, 54.257221852848723 ], [ 9.109852643043283, 54.258077114747742 ], [ 9.11062666959578, 54.258909837618098 ], [ 9.111474244441752, 54.259717740456736 ], [ 9.112393044437463, 54.260498610379948 ], [ 9.113380551215988, 54.261250308672039 ], [ 9.114434058089888, 54.261970776629937 ], [ 9.115550677470049, 54.26265804118789 ], [ 9.116727348780367, 54.263310220306998 ], [ 9.11796084684657, 54.263925528115102 ], [ 9.119247790736196, 54.264502279783024 ], [ 9.120584653025499, 54.265038896124089 ], [ 9.12196776946787, 54.265533907904533 ], [ 9.123393349037274, 54.265985959853062 ], [ 9.124857484319209, 54.266393814358892 ], [ 9.126356162220633, 54.266756354848305 ], [ 9.127885274969595, 54.26707258883053 ], [ 9.129440631374333, 54.26734165060487 ], [ 9.131017968311053, 54.26756280362175 ], [ 9.132612962408851, 54.267735442491379 ], [ 9.134221241899777, 54.267859094634588 ], [ 9.13583839860153, 54.267933421571406 ], [ 9.13746, 54.267958219844012 ], [ 9.139081601398471, 54.267933421571406 ], [ 9.140698758100223, 54.267859094634588 ], [ 9.142307037591149, 54.267735442491379 ], [ 9.143902031688949, 54.26756280362175 ], [ 9.145479368625669, 54.26734165060487 ], [ 9.147034725030405, 54.26707258883053 ], [ 9.148563837779367, 54.266756354848305 ], [ 9.150062515680792, 54.266393814358892 ], [ 9.151526650962726, 54.265985959853062 ], [ 9.152952230532133, 54.265533907904533 ], [ 9.1543353469745, 54.265038896124089 ], [ 9.155672209263804, 54.264502279783024 ], [ 9.15695915315343, 54.263925528115102 ], [ 9.158192651219634, 54.263310220306998 ], [ 9.159369322529951, 54.26265804118789 ], [ 9.160485941910112, 54.261970776629937 ], [ 9.161539448784014, 54.261250308672039 ], [ 9.162526955562537, 54.260498610379948 ], [ 9.163445755558248, 54.259717740456736 ], [ 9.16429333040422, 54.258909837618098 ], [ 9.165067356956719, 54.258077114747742 ], [ 9.165765713662761, 54.257221852848723 ], [ 9.16638648637516, 54.256346394807039 ], [ 9.16692797359906, 54.255453138984507 ], [ 9.167388691155619, 54.254544532658251 ], [ 9.167767376250039, 54.253623065324668 ], [ 9.168062990932798, 54.252691261886056 ], [ 9.168274724944595, 54.251751675738596 ], [ 9.168401997937226, 54.250806881780314 ], [ 9.168444461064263, 54.249859469358377 ] ] ] } },
{ "type": "Feature", "properties": { "name": "Norderheistedt", "feature_type": "mrr", "metric_roundness": 33.43, "metric_rectangularity": 60.95, "metric_mobile_fit": -20.82, "metric_aspect_ratio": 1.771, "metric_area_km2": 12.49 }, "geometry": { "type": "Polygon", "coordinates": [ [ [ 9.166028462261496, 54.240877833663454 ], [ 9.106201415931569, 54.244788193119383 ], [ 9.109255229327124, 54.260738412772952 ], [ 9.169082275657052, 54.256829565275645 ], [ 9.166028462261496, 54.240877833663454 ] ] ] } }
]
}
