{
"type": "FeatureCollection",
"name": "novillars",
"crs": { "type": "name", "properties": { "name": "urn:ogc:def:crs:OGC:1.3:CRS84" } },
"features": [
{ "type": "Feature", "properties": { "name": "Novillars", "metric_roundness": 57.74, "metric_rectangularity": 68.66, "metric_mobile_fit": 66.16, "metric_aspect_ratio": 0.901, "metric_area_km2": 4.5 }, "geometry": { "type": "Polygon", "coordinates": [ [ [ 6.118789, 47.295809499999983 ], [ 6.1207802, 47.284317699999988 ], [ 6.1247005, 47.279315 ], [ 6.1402742, 47.283663199999985 ], [ 6.1371626, 47.28936 ], [ 6.1406965, 47.293019 ], [ 6.118789, 47.295809499999983 ] ] ] } }
]
}
