{
"type": "FeatureCollection",
"name": "cubo_de_tierra_del_vino_el",
"crs": { "type": "name", "properties": { "name": "urn:ogc:def:crs:OGC:1.3:CRS84" } },
"features": [
{ "type": "Feature", "properties": { "name": "Cubo de Tierra del Vino, El", "feature_type": "entity", "metric_roundness": 55.3, "metric_rectangularity": 66.62, "metric_mobile_fit": 47.6, "metric_aspect_ratio": 1.086, "metric_area_km2": 60.3 }, "geometry": { "type": "Polygon", "coordinates": [ [ [ -5.7007103, 41.234266399999989 ], [ -5.6795403, 41.232443 ], [ -5.6676845, 41.244335 ], [ -5.6679, 41.249328499999983 ], [ -5.666768, 41.253479 ], [ -5.6677635, 41.257969 ], [ -5.667588, 41.259838 ], [ -5.668271, 41.2669565 ], [ -5.6895759, 41.2816729 ], [ -5.6977073, 41.2823768 ], [ -5.7011518, 41.287764 ], [ -5.7108795, 41.2775938 ], [ -5.7151364, 41.2710876 ], [ -5.7173703, 41.2695226 ], [ -5.7258101, 41.266868599999988 ], [ -5.7315491, 41.2668806 ], [ -5.7364362, 41.2657545 ], [ -5.7439429, 41.2656803 ], [ -5.7505016, 41.2642869 ], [ -5.7592815, 41.261096499999987 ], [ -5.7564985, 41.255886 ], [ -5.7559385, 41.253929 ], [ -5.7565335, 41.2479515 ], [ -5.7565875, 41.2430075 ], [ -5.7549065, 41.238201 ], [ -5.755822, 41.23616 ], [ -5.757574, 41.227581 ], [ -5.7561835, 41.223751 ], [ -5.7512765, 41.225876 ], [ -5.7487215, 41.225849 ], [ -5.743319, 41.22731 ], [ -5.739105, 41.227238 ], [ -5.7349235, 41.227661 ], [ -5.7007103, 41.234266399999989 ] ] ] } },
{ "type": "Feature", "properties": { "name": "Cubo de Tierra del Vino, El", "feature_type": "circle", "metric_roundness": 55.3, "metric_rectangularity": 66.62, "metric_mobile_fit": 47.6, "metric_aspect_ratio": 1.086, "metric_area_km2": 60.3 }, "geometry": { "type": "Polygon", "coordinates": [ [ [ -5.662935888307017, 41.249546709049653 ], [ -5.663008431646822, 41.247463825761358 ], [ -5.663225862829981, 41.245386585383812 ], [ -5.663587585892734, 41.243320682304358 ], [ -5.664092609377312, 41.241271780369175 ], [ -5.664739549049447, 41.239245497344257 ], [ -5.665526631692464, 41.237247389497 ], [ -5.66645169996755, 41.235282936340944 ], [ -5.667512218326863, 41.233357525585717 ], [ -5.668705279963294, 41.231476438333722 ], [ -5.67002761477783, 41.22964483456466 ], [ -5.671475598342655, 41.227867738947943 ], [ -5.673045261835468, 41.226150027022626 ], [ -5.674732302917741, 41.224496411782944 ], [ -5.676532097527131, 41.22291143070705 ], [ -5.678439712551716, 41.221399433264956 ], [ -5.680449919351314, 41.21996456894054 ], [ -5.68255720808881, 41.218610775801103 ], [ -5.684755802832252, 41.217341769646367 ], [ -5.687039677386273, 41.216161033767392 ], [ -5.689402571809469, 41.215071809343918 ], [ -5.691838009572467, 41.214077086507274 ], [ -5.694339315309645, 41.213179596093724 ], [ -5.696899633115843, 41.212381802111643 ], [ -5.699511945337919, 41.211685894943408 ], [ -5.702169091809649, 41.211093785301379 ], [ -5.704863789477253, 41.21060709895486 ], [ -5.70758865236173, 41.210227172242867 ], [ -5.710336211803314, 41.209955048385424 ], [ -5.71309893693256, 41.209791474603719 ], [ -5.71586925531192, 41.209736900057244 ], [ -5.71863957369128, 41.209791474603719 ], [ -5.721402298820525, 41.209955048385424 ], [ -5.724149858262109, 41.210227172242867 ], [ -5.726874721146586, 41.21060709895486 ], [ -5.729569418814189, 41.211093785301379 ], [ -5.732226565285919, 41.211685894943408 ], [ -5.734838877507994, 41.212381802111643 ], [ -5.737399195314192, 41.213179596093724 ], [ -5.739900501051371, 41.214077086507274 ], [ -5.742335938814371, 41.215071809343918 ], [ -5.744698833237566, 41.216161033767392 ], [ -5.746982707791585, 41.217341769646367 ], [ -5.749181302535028, 41.218610775801103 ], [ -5.751288591272525, 41.21996456894054 ], [ -5.753298798072121, 41.221399433264956 ], [ -5.755206413096708, 41.22291143070705 ], [ -5.757006207706098, 41.224496411782944 ], [ -5.75869324878837, 41.226150027022626 ], [ -5.760262912281184, 41.227867738947943 ], [ -5.761710895846009, 41.22964483456466 ], [ -5.763033230660544, 41.231476438333722 ], [ -5.764226292296977, 41.233357525585717 ], [ -5.765286810656288, 41.235282936340944 ], [ -5.766211878931374, 41.237247389497 ], [ -5.766998961574393, 41.239245497344257 ], [ -5.767645901246526, 41.241271780369175 ], [ -5.768150924731104, 41.243320682304358 ], [ -5.768512647793858, 41.245386585383812 ], [ -5.768730078977018, 41.247463825761358 ], [ -5.768802622316821, 41.249546709049653 ], [ -5.768730078977018, 41.251629525936977 ], [ -5.768512647793858, 41.253706567839139 ], [ -5.768150924731104, 41.255772142543307 ], [ -5.767645901246526, 41.257820589801049 ], [ -5.766998961574393, 41.259846296827952 ], [ -5.766211878931374, 41.261843713667346 ], [ -5.765286810656288, 41.263807368376533 ], [ -5.764226292296977, 41.26573188199383 ], [ -5.763033230660544, 41.267611983246077 ], [ -5.761710895846009, 41.269442522956403 ], [ -5.760262912281184, 41.271218488113426 ], [ -5.75869324878837, 41.272935015563661 ], [ -5.757006207706098, 41.274587405290241 ], [ -5.755206413096708, 41.276171133241981 ], [ -5.753298798072121, 41.27768186367836 ], [ -5.751288591272525, 41.279115460997097 ], [ -5.749181302535028, 41.280468001012444 ], [ -5.746982707791585, 41.281735781654177 ], [ -5.744698833237566, 41.282915333058227 ], [ -5.742335938814371, 41.284003427022192 ], [ -5.739900501051372, 41.284997085800285 ], [ -5.737399195314192, 41.2858935902143 ], [ -5.734838877507996, 41.286690487058664 ], [ -5.732226565285919, 41.287385595780243 ], [ -5.729569418814189, 41.287977014414601 ], [ -5.726874721146586, 41.288463124763283 ], [ -5.724149858262109, 41.288842596797991 ], [ -5.721402298820525, 41.289114392280254 ], [ -5.71863957369128, 41.289277767586626 ], [ -5.71586925531192, 41.289332275732157 ], [ -5.71309893693256, 41.289277767586626 ], [ -5.710336211803314, 41.289114392280254 ], [ -5.70758865236173, 41.288842596797991 ], [ -5.704863789477253, 41.288463124763283 ], [ -5.702169091809649, 41.287977014414601 ], [ -5.699511945337919, 41.287385595780243 ], [ -5.696899633115844, 41.286690487058664 ], [ -5.694339315309645, 41.2858935902143 ], [ -5.691838009572468, 41.284997085800285 ], [ -5.689402571809469, 41.284003427022192 ], [ -5.687039677386273, 41.282915333058227 ], [ -5.684755802832252, 41.281735781654177 ], [ -5.68255720808881, 41.280468001012444 ], [ -5.680449919351314, 41.279115460997097 ], [ -5.678439712551716, 41.27768186367836 ], [ -5.676532097527131, 41.276171133241981 ], [ -5.674732302917741, 41.274587405290241 ], [ -5.673045261835468, 41.272935015563661 ], [ -5.671475598342655, 41.271218488113426 ], [ -5.67002761477783, 41.269442522956403 ], [ -5.668705279963294, 41.267611983246077 ], [ -5.667512218326863, 41.26573188199383 ], [ -5.66645169996755, 41.263807368376533 ], [ -5.665526631692464, 41.261843713667346 ], [ -5.664739549049447, 41.259846296827952 ], [ -5.664092609377312, 41.257820589801049 ], [ -5.663587585892734, 41.255772142543307 ], [ -5.663225862829981, 41.253706567839139 ], [ -5.663008431646822, 41.251629525936977 ], [ -5.662935888307017, 41.249546709049653 ] ] ] } },
{ "type": "Feature", "properties": { "name": "Cubo de Tierra del Vino, El", "feature_type": "mrr", "metric_roundness": 55.3, "metric_rectangularity": 66.62, "metric_mobile_fit": 47.6, "metric_aspect_ratio": 1.086, "metric_area_km2": 60.3 }, "geometry": { "type": "Polygon", "coordinates": [ [ [ -5.661753352848405, 41.23446002726898 ], [ -5.756792288753991, 41.223681952697682 ], [ -5.768123090369319, 41.280175371104541 ], [ -5.673084154463732, 41.290944128320454 ], [ -5.661753352848405, 41.23446002726898 ] ] ] } }
]
}
