{
"type": "FeatureCollection",
"name": "cugnaux",
"crs": { "type": "name", "properties": { "name": "urn:ogc:def:crs:OGC:1.3:CRS84" } },
"features": [
{ "type": "Feature", "properties": { "name": "Cugnaux", "metric_roundness": 56.28, "metric_rectangularity": 73.56, "metric_mobile_fit": 16.17, "metric_aspect_ratio": 1.401, "metric_area_km2": 24.73 }, "geometry": { "type": "Polygon", "coordinates": [ [ [ 1.3649203, 43.542472499999981 ], [ 1.3679185, 43.5498905 ], [ 1.3734445, 43.5521605 ], [ 1.374981, 43.5533875 ], [ 1.367284, 43.558325 ], [ 1.3593135, 43.560194 ], [ 1.3554455, 43.5550969 ], [ 1.333956, 43.5608248 ], [ 1.328584, 43.559157 ], [ 1.3161993, 43.5537603 ], [ 1.311066, 43.5383405 ], [ 1.3536791, 43.5277521 ], [ 1.3642529, 43.528911099999988 ], [ 1.3719995, 43.534423 ], [ 1.3649203, 43.542472499999981 ] ] ] } }
]
}
