{
"type": "FeatureCollection",
"name": "gnosjo",
"crs": { "type": "name", "properties": { "name": "urn:ogc:def:crs:OGC:1.3:CRS84" } },
"features": [
{ "type": "Feature", "properties": { "name": "Gnosjö", "feature_type": "entity", "metric_roundness": 57.32, "metric_rectangularity": 62.58, "metric_mobile_fit": 48.97, "metric_aspect_ratio": 1.073, "metric_area_km2": 1547.55 }, "geometry": { "type": "Polygon", "coordinates": [ [ [ 13.7374074, 57.238210699999982 ], [ 13.7557934, 57.23942959999998 ], [ 13.7786045, 57.234643299999981 ], [ 13.8359275, 57.2356036 ], [ 13.8382893, 57.2431231 ], [ 13.8308643, 57.2531029 ], [ 13.8326721, 57.2568125 ], [ 13.8457938, 57.2592 ], [ 13.848916, 57.2646346 ], [ 13.8761757, 57.2750921 ], [ 13.8983508, 57.287509099999987 ], [ 13.9137314, 57.268778599999976 ], [ 13.9795528, 57.252232 ], [ 13.993493, 57.26461819999998 ], [ 14.0046547, 57.28343229999998 ], [ 14.0178557, 57.283096099999973 ], [ 14.0362643, 57.278200499999983 ], [ 14.0464174, 57.2794983 ], [ 14.0603115, 57.309429 ], [ 14.0435603, 57.3102459 ], [ 14.0456359, 57.3029065 ], [ 14.0416202, 57.2976344 ], [ 14.0039984, 57.2994816 ], [ 13.9994397, 57.3061925 ], [ 14.0012568, 57.311781499999981 ], [ 14.0131635, 57.3196912 ], [ 14.0283836, 57.3242408 ], [ 14.0055077, 57.3525037 ], [ 13.9887317, 57.356826499999976 ], [ 13.9784714, 57.374665899999982 ], [ 13.9620799, 57.377479899999983 ], [ 13.9485075, 57.371901699999988 ], [ 13.9356667, 57.371847 ], [ 13.9123671, 57.3904684 ], [ 13.9049205, 57.4023558 ], [ 13.8888149, 57.410444399999967 ], [ 13.8888502, 57.415219199999989 ], [ 13.900327, 57.4344692 ], [ 13.8946036, 57.4462276 ], [ 13.8952245, 57.463508499999982 ], [ 13.8730346, 57.470699799999984 ], [ 13.8528728, 57.4698821 ], [ 13.828342, 57.4807112 ], [ 13.8220399, 57.475379 ], [ 13.8052759, 57.4714598 ], [ 13.8037814, 57.461558499999981 ], [ 13.7993275, 57.459371 ], [ 13.7810057, 57.4689589 ], [ 13.771639, 57.4699962 ], [ 13.7579778, 57.480983099999982 ], [ 13.7474008, 57.473110899999988 ], [ 13.7374268, 57.472777699999988 ], [ 13.7228912, 57.461127199999986 ], [ 13.7057416, 57.4541552 ], [ 13.7043839, 57.4593067 ], [ 13.6951368, 57.459264499999968 ], [ 13.6768027, 57.468555 ], [ 13.6747808, 57.471288 ], [ 13.6786558, 57.4742137 ], [ 13.6777687, 57.477132399999988 ], [ 13.6673025, 57.4715165 ], [ 13.6580754, 57.460886699999989 ], [ 13.6585738, 57.4555763 ], [ 13.6548815, 57.4503004 ], [ 13.6558344, 57.4435455 ], [ 13.6498193, 57.437361 ], [ 13.6273902, 57.4307501 ], [ 13.6311979, 57.4241589 ], [ 13.6295226, 57.4194897 ], [ 13.6152837, 57.4067927 ], [ 13.604887, 57.40206 ], [ 13.5997665, 57.38436729999998 ], [ 13.5946887, 57.3796586 ], [ 13.5848744, 57.376829899999983 ], [ 13.5767345, 57.364608599999983 ], [ 13.5762007, 57.357206799999986 ], [ 13.5712227, 57.354182699999988 ], [ 13.5703389, 57.346754399999988 ], [ 13.5856918, 57.342791399999982 ], [ 13.6271917, 57.3518306 ], [ 13.6456434, 57.3512475 ], [ 13.6499648, 57.3498653 ], [ 13.6486023, 57.344445199999981 ], [ 13.6741876, 57.340798599999985 ], [ 13.6827838, 57.328429899999989 ], [ 13.6795946, 57.321594399999981 ], [ 13.6829069, 57.3151974 ], [ 13.680027, 57.307713 ], [ 13.6896133, 57.3029704 ], [ 13.6996169, 57.287892099999979 ], [ 13.7078668, 57.284529899999974 ], [ 13.7084023, 57.264654799999988 ], [ 13.7185628, 57.2546779 ], [ 13.709426, 57.245846 ], [ 13.7374074, 57.238210699999982 ] ] ] } },
{ "type": "Feature", "properties": { "name": "Gnosjö", "feature_type": "circle", "metric_roundness": 57.32, "metric_rectangularity": 62.58, "metric_mobile_fit": 48.97, "metric_aspect_ratio": 1.073, "metric_area_km2": 1547.55 }, "geometry": { "type": "Polygon", "coordinates": [ [ [ 14.095563059096719, 57.362222990360152 ], [ 14.095202085593117, 57.354787614722959 ], [ 14.094120154485589, 57.347371118661236 ], [ 14.092320231272097, 57.339993848594553 ], [ 14.08980724941706, 57.33267605553965 ], [ 14.086588096829068, 57.325437839272624 ], [ 14.0826715969816, 57.318299092776385 ], [ 14.078068484728512, 57.311279447130737 ], [ 14.072791376880524, 57.304398217002372 ], [ 14.066854737623443, 57.297674346891789 ], [ 14.060274838872825, 57.291126358293589 ], [ 14.053069715673777, 57.284772297924782 ], [ 14.04525911676817, 57.278629687173918 ], [ 14.036864450464694, 57.272715472921838 ], [ 14.027908725960181, 57.267045979881104 ], [ 14.018416490272992, 57.261636864598309 ], [ 14.00841376096135, 57.256503071258905 ], [ 13.997927954811018, 57.251658789429925 ], [ 13.986987812687795, 57.247117413870434 ], [ 13.975623320760798, 57.24289150653442 ], [ 13.96386562831246, 57.238992760884102 ], [ 13.951746962360522, 57.235431968625456 ], [ 13.939300539325997, 57.232218988970402 ], [ 13.926560473989282, 57.229362720522715 ], [ 13.913561685983909, 57.226871075876673 ], [ 13.900339804084277, 57.224750959009235 ], [ 13.886931068549623, 57.223008245537777 ], [ 13.87337223179202, 57.221647765906724 ], [ 13.859700457640555, 57.220673291556679 ], [ 13.845953219477869, 57.220087524120686 ], [ 13.832168197528203, 57.219892087682354 ], [ 13.818383175578536, 57.220087524120686 ], [ 13.804635937415851, 57.220673291556679 ], [ 13.790964163264384, 57.221647765906724 ], [ 13.777405326506781, 57.223008245537777 ], [ 13.763996590972129, 57.224750959009235 ], [ 13.750774709072495, 57.226871075876673 ], [ 13.737775921067124, 57.229362720522715 ], [ 13.725035855730408, 57.232218988970402 ], [ 13.712589432695882, 57.235431968625456 ], [ 13.700470766743944, 57.238992760884102 ], [ 13.688713074295608, 57.24289150653442 ], [ 13.677348582368611, 57.247117413870434 ], [ 13.666408440245386, 57.251658789429925 ], [ 13.655922634095054, 57.256503071258905 ], [ 13.645919904783412, 57.261636864598309 ], [ 13.636427669096223, 57.267045979881104 ], [ 13.62747194459171, 57.272715472921838 ], [ 13.619077278288234, 57.278629687173918 ], [ 13.611266679382629, 57.284772297924782 ], [ 13.604061556183581, 57.291126358293589 ], [ 13.597481657432962, 57.297674346891789 ], [ 13.59154501817588, 57.304398217002372 ], [ 13.586267910327894, 57.311279447130737 ], [ 13.581664798074804, 57.318299092776385 ], [ 13.577748298227336, 57.325437839272624 ], [ 13.574529145639344, 57.33267605553965 ], [ 13.572016163784307, 57.339993848594553 ], [ 13.570216240570817, 57.347371118661236 ], [ 13.569134309463287, 57.354787614722959 ], [ 13.568773335959685, 57.362222990360152 ], [ 13.569134309463287, 57.369656859716827 ], [ 13.570216240570817, 57.377068853440171 ], [ 13.572016163784307, 57.38443867443938 ], [ 13.574529145639344, 57.391746153311566 ], [ 13.577748298227336, 57.398971303285364 ], [ 13.581664798074804, 57.406094374535442 ], [ 13.586267910327894, 57.413095907723807 ], [ 13.59154501817588, 57.419956786628262 ], [ 13.597481657432962, 57.42665828972121 ], [ 13.604061556183581, 57.433182140566323 ], [ 13.611266679382629, 57.439510556905489 ], [ 13.619077278288234, 57.445626298311979 ], [ 13.62747194459171, 57.451512712291546 ], [ 13.636427669096223, 57.457153778717533 ], [ 13.645919904783412, 57.46253415249145 ], [ 13.655922634095054, 57.467639204325934 ], [ 13.666408440245386, 57.472455059551812 ], [ 13.677348582368611, 57.476968634857656 ], [ 13.688713074295608, 57.481167672874534 ], [ 13.700470766743944, 57.485040774525714 ], [ 13.712589432695882, 57.488577429065764 ], [ 13.725035855730408, 57.491768041740066 ], [ 13.737775921067124, 57.494603959001566 ], [ 13.750774709072495, 57.497077491227238 ], [ 13.763996590972129, 57.499181932882976 ], [ 13.777405326506781, 57.500911580091724 ], [ 13.790964163264384, 57.502261745565292 ], [ 13.804635937415847, 57.503228770866713 ], [ 13.818383175578536, 57.503810035975995 ], [ 13.832168197528203, 57.504003966137745 ], [ 13.845953219477869, 57.503810035975995 ], [ 13.859700457640555, 57.503228770866713 ], [ 13.87337223179202, 57.502261745565292 ], [ 13.88693106854962, 57.500911580091724 ], [ 13.900339804084277, 57.499181932882976 ], [ 13.913561685983909, 57.497077491227238 ], [ 13.926560473989282, 57.494603959001566 ], [ 13.939300539325997, 57.491768041740066 ], [ 13.951746962360522, 57.488577429065764 ], [ 13.96386562831246, 57.485040774525714 ], [ 13.975623320760798, 57.481167672874534 ], [ 13.986987812687795, 57.476968634857656 ], [ 13.997927954811018, 57.472455059551812 ], [ 14.00841376096135, 57.467639204325934 ], [ 14.018416490272992, 57.46253415249145 ], [ 14.027908725960181, 57.457153778717533 ], [ 14.036864450464694, 57.451512712291546 ], [ 14.04525911676817, 57.445626298311979 ], [ 14.053069715673777, 57.439510556905489 ], [ 14.060274838872825, 57.433182140566323 ], [ 14.066854737623443, 57.42665828972121 ], [ 14.072791376880524, 57.419956786628262 ], [ 14.078068484728512, 57.413095907723807 ], [ 14.0826715969816, 57.406094374535442 ], [ 14.086588096829068, 57.398971303285364 ], [ 14.08980724941706, 57.391746153311566 ], [ 14.092320231272097, 57.38443867443938 ], [ 14.094120154485589, 57.377068853440171 ], [ 14.095202085593117, 57.369656859716827 ], [ 14.095563059096719, 57.362222990360152 ] ] ] } },
{ "type": "Feature", "properties": { "name": "Gnosjö", "feature_type": "mrr", "metric_roundness": 57.32, "metric_rectangularity": 62.58, "metric_mobile_fit": 48.97, "metric_aspect_ratio": 1.073, "metric_area_km2": 1547.55 }, "geometry": { "type": "Polygon", "coordinates": [ [ [ 13.829871380578702, 57.524325259638665 ], [ 14.085940830205086, 57.285450426297189 ], [ 13.748443467436569, 57.179967514627194 ], [ 13.492374017810185, 57.419527497895416 ], [ 13.829871380578702, 57.524325259638665 ] ] ] } }
]
}
