{
"type": "FeatureCollection",
"name": "krauchthal",
"crs": { "type": "name", "properties": { "name": "urn:ogc:def:crs:OGC:1.3:CRS84" } },
"features": [
{ "type": "Feature", "properties": { "name": "Krauchthal", "feature_type": "entity", "metric_roundness": 42.33, "metric_rectangularity": 57.45, "metric_mobile_fit": 81.31, "metric_aspect_ratio": 0.749, "metric_area_km2": 41.65 }, "geometry": { "type": "Polygon", "coordinates": [ [ [ 7.5792615, 47.034544 ], [ 7.5763245, 47.0333335 ], [ 7.5703945, 47.034797499999982 ], [ 7.5714995, 47.0400675 ], [ 7.569989, 47.0410495 ], [ 7.565405, 47.038896 ], [ 7.565334, 47.036782 ], [ 7.5430909, 47.031654 ], [ 7.540112, 47.0228465 ], [ 7.5425174, 47.017472299999987 ], [ 7.5424239, 47.0096722 ], [ 7.5368155, 47.003834 ], [ 7.5360385, 47.003124 ], [ 7.530447, 46.977997099999982 ], [ 7.546186, 46.9815445 ], [ 7.5525415, 46.995374699999985 ], [ 7.5569583, 46.9943816 ], [ 7.5581847, 46.9884463 ], [ 7.5625, 46.986294499999985 ], [ 7.57518, 46.9917865 ], [ 7.5767765, 46.9940875 ], [ 7.581263, 46.995323 ], [ 7.5814785, 46.99732 ], [ 7.583125, 46.998352499999989 ], [ 7.5997425, 47.0068485 ], [ 7.5966312, 47.0116434 ], [ 7.5984695, 47.0167663 ], [ 7.5836514, 47.018643399999988 ], [ 7.5842381, 47.024633699999988 ], [ 7.579104, 47.02966 ], [ 7.5792615, 47.034544 ] ] ] } },
{ "type": "Feature", "properties": { "name": "Krauchthal", "feature_type": "circle", "metric_roundness": 42.33, "metric_rectangularity": 57.45, "metric_mobile_fit": 81.31, "metric_aspect_ratio": 0.749, "metric_area_km2": 41.65 }, "geometry": { "type": "Polygon", "coordinates": [ [ [ 7.600502368765163, 47.009532604211522 ], [ 7.600433455785382, 47.007738092511026 ], [ 7.600226905731726, 47.005948439399894 ], [ 7.599883284743537, 47.004168550932853 ], [ 7.599403534662058, 47.00240330688495 ], [ 7.598788970448914, 47.000657547362977 ], [ 7.598041276581895, 46.998936059520453 ], [ 7.597162502437923, 46.997243564412919 ], [ 7.59615505667584, 46.995584704029582 ], [ 7.595021700634454, 46.993964028537277 ], [ 7.593765540763896, 46.992385983772238 ], [ 7.592390020111055, 46.990854899013961 ], [ 7.590898908882433, 46.989374975075513 ], [ 7.58929629411026, 46.987950272743248 ], [ 7.587586568450227, 46.986584701597977 ], [ 7.585774418141532, 46.985282009249119 ], [ 7.583864810162204, 46.984045771011402 ], [ 7.581862978614986, 46.982879380053561 ], [ 7.579774410380998, 46.98178603804601 ], [ 7.577604830080597, 46.980768746334114 ], [ 7.57536018438258, 46.979830297661614 ], [ 7.573046625704784, 46.97897326846752 ], [ 7.570670495350727, 46.978200011778057 ], [ 7.56823830612855, 46.977512650713699 ], [ 7.565756724499852, 46.976913072629564 ], [ 7.56323255230738, 46.976402923905603 ], [ 7.560672708131668, 46.975983605401403 ], [ 7.558084208327664, 46.975656268588246 ], [ 7.555474147793406, 46.975421812369483 ], [ 7.552849680523396, 46.975280880598127 ], [ 7.550218, 46.975233860298658 ], [ 7.547586319476602, 46.975280880598127 ], [ 7.544961852206591, 46.975421812369483 ], [ 7.542351791672336, 46.975656268588246 ], [ 7.539763291868331, 46.975983605401403 ], [ 7.537203447692617, 46.976402923905603 ], [ 7.534679275500146, 46.976913072629564 ], [ 7.532197693871447, 46.977512650713699 ], [ 7.529765504649272, 46.978200011778057 ], [ 7.527389374295216, 46.97897326846752 ], [ 7.525075815617417, 46.979830297661614 ], [ 7.5228311699194, 46.980768746334114 ], [ 7.520661589618999, 46.98178603804601 ], [ 7.518573021385013, 46.982879380053561 ], [ 7.516571189837792, 46.984045771011402 ], [ 7.514661581858467, 46.985282009249119 ], [ 7.51284943154977, 46.986584701597977 ], [ 7.51113970588974, 46.987950272743248 ], [ 7.509537091117566, 46.989374975075513 ], [ 7.508045979888943, 46.990854899013961 ], [ 7.506670459236103, 46.992385983772238 ], [ 7.505414299365544, 46.993964028537277 ], [ 7.504280943324158, 46.995584704029582 ], [ 7.503273497562076, 46.997243564412919 ], [ 7.502394723418102, 46.998936059520453 ], [ 7.501647029551085, 47.000657547362977 ], [ 7.501032465337941, 47.00240330688495 ], [ 7.50055271525646, 47.004168550932853 ], [ 7.500209094268271, 47.005948439399894 ], [ 7.500002544214616, 47.007738092511026 ], [ 7.499933631234836, 47.009532604211522 ], [ 7.500002544214616, 47.011327055622147 ], [ 7.500209094268271, 47.013116528524215 ], [ 7.50055271525646, 47.014896118837406 ], [ 7.501032465337941, 47.016660950053286 ], [ 7.501647029551085, 47.018406186588187 ], [ 7.502394723418102, 47.020127047018519 ], [ 7.503273497562076, 47.021818817162789 ], [ 7.504280943324158, 47.023476862974682 ], [ 7.505414299365544, 47.025096643211931 ], [ 7.506670459236103, 47.02667372184694 ], [ 7.508045979888943, 47.028203780185329 ], [ 7.509537091117566, 47.0296826286597 ], [ 7.511139705889738, 47.031106218266729 ], [ 7.51284943154977, 47.032470651616819 ], [ 7.514661581858467, 47.033772193566513 ], [ 7.516571189837792, 47.035007281405065 ], [ 7.518573021385013, 47.036172534567783 ], [ 7.520661589618999, 47.037264763850146 ], [ 7.5228311699194, 47.038280980098058 ], [ 7.525075815617417, 47.039218402350777 ], [ 7.527389374295216, 47.040074465414961 ], [ 7.529765504649272, 47.04084682684951 ], [ 7.532197693871447, 47.041533373342531 ], [ 7.534679275500146, 47.042132226463558 ], [ 7.537203447692617, 47.042641747775441 ], [ 7.539763291868331, 47.043060543292654 ], [ 7.542351791672336, 47.043387467273902 ], [ 7.544961852206591, 47.043621625338872 ], [ 7.547586319476602, 47.043762376901206 ], [ 7.550218, 47.043809336910805 ], [ 7.552849680523396, 47.043762376901206 ], [ 7.555474147793406, 47.043621625338872 ], [ 7.558084208327664, 47.043387467273902 ], [ 7.560672708131668, 47.043060543292654 ], [ 7.56323255230738, 47.042641747775441 ], [ 7.565756724499852, 47.042132226463558 ], [ 7.56823830612855, 47.041533373342531 ], [ 7.570670495350727, 47.04084682684951 ], [ 7.573046625704784, 47.040074465414961 ], [ 7.57536018438258, 47.039218402350777 ], [ 7.577604830080597, 47.038280980098058 ], [ 7.579774410380998, 47.037264763850146 ], [ 7.581862978614986, 47.036172534567783 ], [ 7.583864810162204, 47.035007281405065 ], [ 7.585774418141532, 47.033772193566513 ], [ 7.587586568450227, 47.032470651616819 ], [ 7.589296294110258, 47.031106218266729 ], [ 7.590898908882433, 47.0296826286597 ], [ 7.592390020111055, 47.028203780185329 ], [ 7.593765540763896, 47.02667372184694 ], [ 7.595021700634454, 47.025096643211931 ], [ 7.59615505667584, 47.023476862974682 ], [ 7.597162502437923, 47.021818817162789 ], [ 7.598041276581895, 47.020127047018519 ], [ 7.598788970448914, 47.018406186588187 ], [ 7.599403534662058, 47.016660950053286 ], [ 7.599883284743537, 47.014896118837406 ], [ 7.600226905731726, 47.013116528524215 ], [ 7.600433455785382, 47.011327055622147 ], [ 7.600502368765163, 47.009532604211522 ] ] ] } },
{ "type": "Feature", "properties": { "name": "Krauchthal", "feature_type": "mrr", "metric_roundness": 42.33, "metric_rectangularity": 57.45, "metric_mobile_fit": 81.31, "metric_aspect_ratio": 0.749, "metric_area_km2": 41.65 }, "geometry": { "type": "Polygon", "coordinates": [ [ [ 7.568565605438554, 47.044440871396233 ], [ 7.607769792289166, 47.008156414833607 ], [ 7.53652699886098, 46.972364521747267 ], [ 7.49732281201037, 47.008673292094088 ], [ 7.568565605438554, 47.044440871396233 ] ] ] } }
]
}
