{
"type": "FeatureCollection",
"name": "kretin",
"crs": { "type": "name", "properties": { "name": "urn:ogc:def:crs:OGC:1.3:CRS84" } },
"features": [
{ "type": "Feature", "properties": { "name": "Křetín", "metric_roundness": 41.3, "metric_rectangularity": 49.99, "metric_mobile_fit": 52.3, "metric_aspect_ratio": 1.039, "metric_area_km2": 14.39 }, "geometry": { "type": "Polygon", "coordinates": [ [ [ 16.5114479, 49.566588 ], [ 16.5181715, 49.579733 ], [ 16.5119765, 49.584894 ], [ 16.5019041, 49.5692075 ], [ 16.488454, 49.571434599999989 ], [ 16.4743831, 49.568136899999985 ], [ 16.4670925, 49.570553 ], [ 16.4632165, 49.56967 ], [ 16.4671675, 49.567497 ], [ 16.4686755, 49.5650715 ], [ 16.4720775, 49.5626375 ], [ 16.4735355, 49.560873 ], [ 16.47528, 49.559704 ], [ 16.4831555, 49.553235 ], [ 16.4973545, 49.550607 ], [ 16.5033377, 49.5575477 ], [ 16.5175525, 49.562032 ], [ 16.5114479, 49.566588 ] ] ] } }
]
}
