{
"type": "FeatureCollection",
"name": "krizanky",
"crs": { "type": "name", "properties": { "name": "urn:ogc:def:crs:OGC:1.3:CRS84" } },
"features": [
{ "type": "Feature", "properties": { "name": "Křižánky", "feature_type": "entity", "metric_roundness": 43.63, "metric_rectangularity": 57.51, "metric_mobile_fit": 21.77, "metric_aspect_ratio": 1.345, "metric_area_km2": 27.62 }, "geometry": { "type": "Polygon", "coordinates": [ [ [ 16.060513, 49.680034299999981 ], [ 16.0774288, 49.675199599999985 ], [ 16.0922093, 49.6709752 ], [ 16.1032895, 49.681803499999987 ], [ 16.1032635, 49.683595 ], [ 16.0972092, 49.687037099999984 ], [ 16.0842885, 49.704501499999985 ], [ 16.0774288, 49.701816799999989 ], [ 16.0445383, 49.688944399999976 ], [ 16.03125, 49.688215 ], [ 16.0327579, 49.684082 ], [ 16.0245422, 49.6744389 ], [ 16.0317005, 49.666615499999985 ], [ 16.060513, 49.680034299999981 ] ] ] } },
{ "type": "Feature", "properties": { "name": "Křižánky", "feature_type": "circle", "metric_roundness": 43.63, "metric_rectangularity": 57.51, "metric_mobile_fit": 21.77, "metric_aspect_ratio": 1.345, "metric_area_km2": 27.62 }, "geometry": { "type": "Polygon", "coordinates": [ [ [ 16.103309354271854, 49.682350986669981 ], [ 16.103254079791718, 49.680985197238911 ], [ 16.103088407854806, 49.679623113134127 ], [ 16.102812792556392, 49.67826846820423 ], [ 16.102427989338839, 49.676924976215872 ], [ 16.101935052921032, 49.675596320666024 ], [ 16.10133533440742, 49.674286144674006 ], [ 16.100630477584765, 49.672998040980893 ], [ 16.099822414416625, 49.671735542084157 ], [ 16.098913359747975, 49.670502110534599 ], [ 16.097905805234475, 49.669301129422351 ], [ 16.096802512513012, 49.668135893078478 ], [ 16.095606505632244, 49.667009598017721 ], [ 16.094321062763907, 49.665925334147765 ], [ 16.092949707217539, 49.664886076269106 ], [ 16.091496197783382, 49.663894675889551 ], [ 16.089964518429753, 49.662953853375818 ], [ 16.088358867383306, 49.662066190464216 ], [ 16.086683645621946, 49.661234123151367 ], [ 16.08494344481208, 49.660459934984743 ], [ 16.083143034723161, 49.659745750771705 ], [ 16.081287350154106, 49.659093530724732 ], [ 16.079381477407324, 49.658505065059273 ], [ 16.077430640347547, 49.657981969059179 ], [ 16.075440186083551, 49.657525678623678 ], [ 16.073415570312115, 49.657137446308326 ], [ 16.071362342364345, 49.656818337871137 ], [ 16.069286129995323, 49.656569229333343 ], [ 16.067192623958842, 49.656390804563387 ], [ 16.065087562409428, 49.656283553390587 ], [ 16.062976715174464, 49.65624777025409 ], [ 16.060865867939501, 49.656283553390587 ], [ 16.058760806390083, 49.656390804563387 ], [ 16.056667300353602, 49.656569229333343 ], [ 16.054591087984583, 49.656818337871137 ], [ 16.052537860036811, 49.657137446308326 ], [ 16.050513244265378, 49.657525678623678 ], [ 16.048522790001382, 49.657981969059179 ], [ 16.046571952941601, 49.658505065059273 ], [ 16.044666080194823, 49.659093530724732 ], [ 16.042810395625768, 49.659745750771705 ], [ 16.041009985536849, 49.660459934984743 ], [ 16.039269784726979, 49.661234123151367 ], [ 16.037594562965623, 49.662066190464216 ], [ 16.035988911919173, 49.662953853375818 ], [ 16.034457232565547, 49.663894675889551 ], [ 16.03300372313139, 49.664886076269106 ], [ 16.031632367585022, 49.665925334147765 ], [ 16.030346924716682, 49.667009598017721 ], [ 16.029150917835914, 49.668135893078478 ], [ 16.02804762511445, 49.669301129422351 ], [ 16.02704007060095, 49.670502110534599 ], [ 16.026131015932304, 49.671735542084157 ], [ 16.02532295276416, 49.672998040980893 ], [ 16.024618095941506, 49.674286144674006 ], [ 16.024018377427897, 49.675596320666024 ], [ 16.023525441010086, 49.676924976215872 ], [ 16.023140637792537, 49.67826846820423 ], [ 16.02286502249412, 49.679623113134127 ], [ 16.022699350557211, 49.680985197238911 ], [ 16.022644076077071, 49.682350986669981 ], [ 16.022699350557211, 49.683716737736155 ], [ 16.02286502249412, 49.685078707166575 ], [ 16.023140637792537, 49.686433162369049 ], [ 16.023525441010086, 49.687776391655611 ], [ 16.024018377427897, 49.689104714407506 ], [ 16.024618095941506, 49.690414491151628 ], [ 16.02532295276416, 49.69170213352114 ], [ 16.026131015932304, 49.692964114072915 ], [ 16.02704007060095, 49.694196975935256 ], [ 16.02804762511445, 49.695397342259668 ], [ 16.029150917835914, 49.696561925450808 ], [ 16.030346924716682, 49.697687536150013 ], [ 16.031632367585022, 49.698771091947613 ], [ 16.03300372313139, 49.699809625800896 ], [ 16.034457232565547, 49.700800294134638 ], [ 16.035988911919173, 49.701740384602566 ], [ 16.037594562965623, 49.702627323488812 ], [ 16.039269784726979, 49.70345868272932 ], [ 16.041009985536849, 49.704232186534419 ], [ 16.042810395625768, 49.704945717594768 ], [ 16.044666080194823, 49.70559732285394 ], [ 16.046571952941601, 49.706185218832232 ], [ 16.048522790001382, 49.706707796487414 ], [ 16.050513244265378, 49.707163625599357 ], [ 16.052537860036811, 49.707551458666849 ], [ 16.054591087984583, 49.707870234306128 ], [ 16.056667300353602, 49.708119080142161 ], [ 16.058760806390083, 49.708297315184701 ], [ 16.060865867939501, 49.708404451683158 ], [ 16.062976715174464, 49.708440196454767 ], [ 16.065087562409428, 49.708404451683158 ], [ 16.067192623958842, 49.708297315184701 ], [ 16.069286129995323, 49.708119080142161 ], [ 16.071362342364345, 49.707870234306128 ], [ 16.073415570312115, 49.707551458666849 ], [ 16.075440186083551, 49.707163625599357 ], [ 16.077430640347547, 49.706707796487414 ], [ 16.079381477407324, 49.706185218832232 ], [ 16.081287350154106, 49.70559732285394 ], [ 16.083143034723161, 49.704945717594768 ], [ 16.08494344481208, 49.704232186534419 ], [ 16.086683645621946, 49.70345868272932 ], [ 16.088358867383306, 49.702627323488812 ], [ 16.089964518429753, 49.701740384602566 ], [ 16.091496197783382, 49.700800294134638 ], [ 16.092949707217539, 49.699809625800896 ], [ 16.094321062763907, 49.698771091947613 ], [ 16.095606505632244, 49.697687536150013 ], [ 16.096802512513012, 49.696561925450808 ], [ 16.097905805234475, 49.695397342259668 ], [ 16.098913359747975, 49.694196975935256 ], [ 16.099822414416625, 49.692964114072915 ], [ 16.100630477584765, 49.69170213352114 ], [ 16.10133533440742, 49.690414491151628 ], [ 16.101935052921032, 49.689104714407506 ], [ 16.102427989338839, 49.687776391655611 ], [ 16.102812792556392, 49.686433162369049 ], [ 16.103088407854806, 49.685078707166575 ], [ 16.103254079791718, 49.683716737736155 ], [ 16.103309354271854, 49.682350986669981 ] ] ] } },
{ "type": "Feature", "properties": { "name": "Křižánky", "feature_type": "mrr", "metric_roundness": 43.63, "metric_rectangularity": 57.51, "metric_mobile_fit": 21.77, "metric_aspect_ratio": 1.345, "metric_area_km2": 27.62 }, "geometry": { "type": "Polygon", "coordinates": [ [ [ 16.017527400911987, 49.684000322992752 ], [ 16.087252638783923, 49.705411537235207 ], [ 16.10878594699572, 49.676067774570988 ], [ 16.039060709123788, 49.654643632458928 ], [ 16.017527400911987, 49.684000322992752 ] ] ] } }
]
}
