{
"type": "FeatureCollection",
"name": "dabrony",
"crs": { "type": "name", "properties": { "name": "urn:ogc:def:crs:OGC:1.3:CRS84" } },
"features": [
{ "type": "Feature", "properties": { "name": "Dabrony", "metric_roundness": 49.46, "metric_rectangularity": 66.5, "metric_mobile_fit": 57.19, "metric_aspect_ratio": 0.991, "metric_area_km2": 36.41 }, "geometry": { "type": "Polygon", "coordinates": [ [ [ 17.3570745, 47.246519 ], [ 17.3545105, 47.2499545 ], [ 17.353619, 47.2520445 ], [ 17.3517762, 47.2615219 ], [ 17.327876, 47.2682385 ], [ 17.3141326, 47.256609499999982 ], [ 17.3188436, 47.2493545 ], [ 17.3169807, 47.247281599999987 ], [ 17.281045, 47.244115 ], [ 17.2955608, 47.2251022 ], [ 17.2994365, 47.214439499999983 ], [ 17.3168297, 47.220370799999984 ], [ 17.3301335, 47.2296628 ], [ 17.3325957, 47.2348199 ], [ 17.3447122, 47.2374747 ], [ 17.3556305, 47.2360674 ], [ 17.3595433, 47.2380636 ], [ 17.359475, 47.241516499999982 ], [ 17.3570745, 47.246519 ] ] ] } }
]
}
