{
"type": "FeatureCollection",
"name": "dammartin_en_serve",
"crs": { "type": "name", "properties": { "name": "urn:ogc:def:crs:OGC:1.3:CRS84" } },
"features": [
{ "type": "Feature", "properties": { "name": "Dammartin-en-Serve", "feature_type": "entity", "metric_roundness": 46.23, "metric_rectangularity": 57.49, "metric_mobile_fit": 60.04, "metric_aspect_ratio": 0.962, "metric_area_km2": 32.6 }, "geometry": { "type": "Polygon", "coordinates": [ [ [ 1.6116285, 48.935913 ], [ 1.606086, 48.937182499999984 ], [ 1.6092853, 48.927551 ], [ 1.6013894, 48.9151113 ], [ 1.5954772, 48.913785 ], [ 1.5857026, 48.902275899999985 ], [ 1.5869629, 48.896514899999985 ], [ 1.583193, 48.894224 ], [ 1.585668, 48.888029 ], [ 1.595065, 48.888546499999983 ], [ 1.6008112, 48.898002499999983 ], [ 1.6213912, 48.894941399999986 ], [ 1.6350211, 48.8963838 ], [ 1.6411061, 48.90738409999998 ], [ 1.649576, 48.9072861 ], [ 1.6551505, 48.912659 ], [ 1.6541745, 48.9143165 ], [ 1.6453375, 48.92159 ], [ 1.6182975, 48.933078 ], [ 1.6116285, 48.935913 ] ] ] } },
{ "type": "Feature", "properties": { "name": "Dammartin-en-Serve", "feature_type": "circle", "metric_roundness": 46.23, "metric_rectangularity": 57.49, "metric_mobile_fit": 60.04, "metric_aspect_ratio": 0.962, "metric_area_km2": 32.6 }, "geometry": { "type": "Polygon", "coordinates": [ [ [ 1.655411184398145, 48.909567552548644 ], [ 1.655352847268244, 48.908103307516065 ], [ 1.655177995776558, 48.906643033144633 ], [ 1.654887109178874, 48.905190732471425 ], [ 1.654480984775135, 48.903750387023003 ], [ 1.653960735724103, 48.902325945892748 ], [ 1.653327787992265, 48.900921314903485 ], [ 1.652583876445358, 48.899540345885114 ], [ 1.651731040093224, 48.898186826096953 ], [ 1.650771616501023, 48.896864467823882 ], [ 1.649708235382134, 48.895576898175165 ], [ 1.648543811390288, 48.894327649114096 ], [ 1.647281536130709, 48.893120147746217 ], [ 1.645924869412144, 48.89195770689296 ], [ 1.644477529763767, 48.890843515976997 ], [ 1.642943484242953, 48.889780632244602 ], [ 1.641326937561842, 48.888771972349524 ], [ 1.639632320562523, 48.887820304321743 ], [ 1.637864278072399, 48.886928239943721 ], [ 1.636027656173042, 48.886098227555145 ], [ 1.634127488917415, 48.885332545306639 ], [ 1.632168984531887, 48.884633294880963 ], [ 1.630157511140845, 48.884002395699667 ], [ 1.628098582053037, 48.883441579631068 ], [ 1.625997840649979, 48.882952386214626 ], [ 1.623861044917837, 48.882536158415135 ], [ 1.621694051665183, 48.882194038918492 ], [ 1.6195028004699, 48.88192696697957 ], [ 1.6172932973992, 48.881735675831031 ], [ 1.615071598547421, 48.881620690660348 ], [ 1.612843793436685, 48.881582327160807 ], [ 1.61061598832595, 48.881620690660348 ], [ 1.608394289474171, 48.881735675831031 ], [ 1.606184786403472, 48.88192696697957 ], [ 1.603993535208188, 48.882194038918492 ], [ 1.601826541955535, 48.882536158415135 ], [ 1.599689746223392, 48.882952386214626 ], [ 1.597589004820334, 48.883441579631068 ], [ 1.595530075732526, 48.884002395699667 ], [ 1.593518602341484, 48.884633294880963 ], [ 1.591560097955956, 48.885332545306639 ], [ 1.589659930700329, 48.886098227555145 ], [ 1.587823308800972, 48.886928239943721 ], [ 1.586055266310849, 48.887820304321743 ], [ 1.58436064931153, 48.888771972349524 ], [ 1.582744102630419, 48.889780632244602 ], [ 1.581210057109604, 48.890843515976997 ], [ 1.579762717461227, 48.89195770689296 ], [ 1.578406050742662, 48.893120147746217 ], [ 1.577143775483084, 48.894327649114096 ], [ 1.575979351491237, 48.895576898175165 ], [ 1.574915970372348, 48.896864467823882 ], [ 1.573956546780148, 48.898186826096953 ], [ 1.573103710428013, 48.899540345885114 ], [ 1.572359798881106, 48.900921314903485 ], [ 1.571726851149268, 48.902325945892748 ], [ 1.571206602098236, 48.903750387023003 ], [ 1.570800477694497, 48.905190732471425 ], [ 1.570509591096813, 48.906643033144633 ], [ 1.570334739605127, 48.908103307516065 ], [ 1.570276402475226, 48.909567552548644 ], [ 1.570334739605127, 48.911031754672557 ], [ 1.570509591096813, 48.912491900788112 ], [ 1.570800477694497, 48.913943989263423 ], [ 1.571206602098236, 48.915384040896818 ], [ 1.571726851149268, 48.916808109814014 ], [ 1.572359798881106, 48.918212294270241 ], [ 1.573103710428013, 48.91959274732789 ], [ 1.573956546780148, 48.920945687380637 ], [ 1.574915970372348, 48.922267408495287 ], [ 1.575979351491237, 48.923554290543443 ], [ 1.577143775483084, 48.924802809095276 ], [ 1.578406050742662, 48.926009545048878 ], [ 1.579762717461227, 48.927171193968846 ], [ 1.581210057109604, 48.92828457510911 ], [ 1.582744102630419, 48.929346640095453 ], [ 1.58436064931153, 48.930354481244493 ], [ 1.586055266310849, 48.931305339496582 ], [ 1.587823308800972, 48.932196611941357 ], [ 1.589659930700329, 48.933025858915684 ], [ 1.591560097955956, 48.933790810655012 ], [ 1.593518602341484, 48.934489373480169 ], [ 1.595530075732526, 48.935119635503106 ], [ 1.597589004820334, 48.935679871836349 ], [ 1.599689746223392, 48.936168549292134 ], [ 1.601826541955535, 48.936584330558631 ], [ 1.603993535208188, 48.936926077842266 ], [ 1.606184786403472, 48.937192855966209 ], [ 1.608394289474171, 48.937383934916888 ], [ 1.61061598832595, 48.9374987918317 ], [ 1.612843793436685, 48.937537112422589 ], [ 1.615071598547421, 48.9374987918317 ], [ 1.6172932973992, 48.937383934916888 ], [ 1.6195028004699, 48.937192855966209 ], [ 1.621694051665183, 48.936926077842266 ], [ 1.623861044917836, 48.936584330558631 ], [ 1.625997840649979, 48.936168549292134 ], [ 1.628098582053037, 48.935679871836349 ], [ 1.630157511140845, 48.935119635503106 ], [ 1.632168984531887, 48.934489373480169 ], [ 1.634127488917415, 48.933790810655012 ], [ 1.636027656173042, 48.933025858915684 ], [ 1.637864278072399, 48.932196611941357 ], [ 1.639632320562523, 48.931305339496582 ], [ 1.641326937561842, 48.930354481244493 ], [ 1.642943484242953, 48.929346640095453 ], [ 1.644477529763767, 48.92828457510911 ], [ 1.645924869412144, 48.927171193968846 ], [ 1.647281536130709, 48.926009545048878 ], [ 1.648543811390288, 48.924802809095276 ], [ 1.649708235382134, 48.923554290543443 ], [ 1.650771616501023, 48.922267408495287 ], [ 1.651731040093224, 48.920945687380637 ], [ 1.652583876445358, 48.91959274732789 ], [ 1.653327787992265, 48.918212294270241 ], [ 1.653960735724103, 48.916808109814014 ], [ 1.654480984775135, 48.915384040896818 ], [ 1.654887109178874, 48.913943989263423 ], [ 1.655177995776558, 48.912491900788112 ], [ 1.655352847268244, 48.911031754672557 ], [ 1.655411184398145, 48.909567552548644 ] ] ] } },
{ "type": "Feature", "properties": { "name": "Dammartin-en-Serve", "feature_type": "mrr", "metric_roundness": 46.23, "metric_rectangularity": 57.49, "metric_mobile_fit": 60.04, "metric_aspect_ratio": 0.962, "metric_area_km2": 32.6 }, "geometry": { "type": "Polygon", "coordinates": [ [ [ 1.578450087790689, 48.88985009237328 ], [ 1.606150937949981, 48.937293681044736 ], [ 1.661402100335929, 48.923365256290303 ], [ 1.633701250176637, 48.875908435443883 ], [ 1.578450087790689, 48.88985009237328 ] ] ] } }
]
}
