{
"type": "FeatureCollection",
"name": "danova",
"crs": { "type": "name", "properties": { "name": "urn:ogc:def:crs:OGC:1.3:CRS84" } },
"features": [
{ "type": "Feature", "properties": { "name": "Ďanová", "metric_roundness": 55.72, "metric_rectangularity": 75.28, "metric_mobile_fit": 84.83, "metric_aspect_ratio": 0.714, "metric_area_km2": 17.55 }, "geometry": { "type": "Polygon", "coordinates": [ [ [ 18.9103771, 48.966813699999989 ], [ 18.9159489, 48.9600475 ], [ 18.9242345, 48.960143799999983 ], [ 18.9313109, 48.9640592 ], [ 18.933785, 48.9700225 ], [ 18.942281, 48.985401499999988 ], [ 18.9385415, 48.9870003 ], [ 18.9392618, 48.99141059999998 ], [ 18.9338607, 48.995494 ], [ 18.920778, 48.995135 ], [ 18.9085768, 48.984504 ], [ 18.9060115, 48.982729 ], [ 18.903712, 48.971094 ], [ 18.906356, 48.966725 ], [ 18.9103771, 48.966813699999989 ] ] ] } }
]
}
