{
"type": "FeatureCollection",
"name": "darlowo",
"crs": { "type": "name", "properties": { "name": "urn:ogc:def:crs:OGC:1.3:CRS84" } },
"features": [
{ "type": "Feature", "properties": { "name": "Darłowo", "metric_roundness": 53.94, "metric_rectangularity": 62.62, "metric_mobile_fit": 33.55, "metric_aspect_ratio": 1.227, "metric_area_km2": 59.0 }, "geometry": { "type": "Polygon", "coordinates": [ [ [ 16.3699325, 54.4188656 ], [ 16.3785323, 54.407729299999986 ], [ 16.3856324, 54.411984899999986 ], [ 16.4073046, 54.405205199999976 ], [ 16.4202295, 54.40887919999998 ], [ 16.4463022, 54.405605799999975 ], [ 16.4582165, 54.4071473 ], [ 16.4576714, 54.4126458 ], [ 16.4350742, 54.438879799999981 ], [ 16.4181664, 54.439891 ], [ 16.41002, 54.444365099999985 ], [ 16.404727, 54.451139899999987 ], [ 16.3986385, 54.452198 ], [ 16.3855147, 54.4424862 ], [ 16.3731965, 54.4412059 ], [ 16.3728406, 54.436519 ], [ 16.359092, 54.422463 ], [ 16.3699325, 54.4188656 ] ] ] } }
]
}
