{
"type": "FeatureCollection",
"name": "darney",
"crs": { "type": "name", "properties": { "name": "urn:ogc:def:crs:OGC:1.3:CRS84" } },
"features": [
{ "type": "Feature", "properties": { "name": "Darney", "metric_roundness": 28.84, "metric_rectangularity": 55.47, "metric_mobile_fit": 67.95, "metric_aspect_ratio": 0.883, "metric_area_km2": 18.56 }, "geometry": { "type": "Polygon", "coordinates": [ [ [ 6.067043, 48.065545699999987 ], [ 6.0710354, 48.0600541 ], [ 6.07948, 48.057982099999975 ], [ 6.0858245, 48.068807 ], [ 6.062312, 48.081398 ], [ 6.052799, 48.085100199999985 ], [ 6.047431, 48.0964552 ], [ 6.0330345, 48.1025795 ], [ 6.0255775, 48.097818 ], [ 6.0296051, 48.09352 ], [ 6.0279446, 48.089334699999981 ], [ 6.0301395, 48.083361 ], [ 6.0373595, 48.085203799999988 ], [ 6.0422543, 48.080360899999988 ], [ 6.0483436, 48.0795779 ], [ 6.0490092, 48.0768845 ], [ 6.0434457, 48.0739964 ], [ 6.0434556, 48.0704292 ], [ 6.0489732, 48.072923 ], [ 6.0552723, 48.069264599999983 ], [ 6.0503965, 48.0613896 ], [ 6.064009, 48.056993 ], [ 6.067043, 48.065545699999987 ] ] ] } }
]
}
