{
"type": "FeatureCollection",
"name": "daroca_de_rioja",
"crs": { "type": "name", "properties": { "name": "urn:ogc:def:crs:OGC:1.3:CRS84" } },
"features": [
{ "type": "Feature", "properties": { "name": "Daroca de Rioja", "metric_roundness": 29.25, "metric_rectangularity": 65.2, "metric_mobile_fit": 94.22, "metric_aspect_ratio": 0.62, "metric_area_km2": 20.35 }, "geometry": { "type": "Polygon", "coordinates": [ [ [ -2.5818408, 42.3808666 ], [ -2.59589, 42.37867 ], [ -2.6020409, 42.3703868 ], [ -2.604297, 42.3553785 ], [ -2.607603, 42.3510705 ], [ -2.6159602, 42.335680099999983 ], [ -2.6146155, 42.327946 ], [ -2.5980165, 42.334854 ], [ -2.5818408, 42.3537027 ], [ -2.5715745, 42.3656655 ], [ -2.5703502, 42.3800721 ], [ -2.57281, 42.3822785 ], [ -2.5818408, 42.3808666 ] ] ] } }
]
}
