{
"type": "FeatureCollection",
"name": "davidesti",
"crs": { "type": "name", "properties": { "name": "urn:ogc:def:crs:OGC:1.3:CRS84" } },
"features": [
{ "type": "Feature", "properties": { "name": "Davideşti", "feature_type": "entity", "metric_roundness": 47.87, "metric_rectangularity": 62.9, "metric_mobile_fit": 47.9, "metric_aspect_ratio": 1.083, "metric_area_km2": 84.81 }, "geometry": { "type": "Polygon", "coordinates": [ [ [ 25.107669, 45.013814499999988 ], [ 25.1003339, 45.023580699999989 ], [ 25.0517737, 45.047716199999982 ], [ 25.044898, 45.046546199999987 ], [ 25.0394895, 45.0414597 ], [ 25.0336185, 45.0450295 ], [ 25.0295625, 45.040019 ], [ 25.0279197, 45.0280522 ], [ 25.015813, 45.0165686 ], [ 25.006767, 45.007550699999982 ], [ 24.9889874, 45.000205599999987 ], [ 24.9784725, 44.986257 ], [ 24.9906604, 44.9723721 ], [ 25.0043145, 44.963407499999988 ], [ 25.015813, 44.9763552 ], [ 25.0294571, 44.981534199999984 ], [ 25.0376129, 44.9896322 ], [ 25.0477775, 44.987995 ], [ 25.0625262, 44.9870586 ], [ 25.082573, 45.0094561 ], [ 25.1029905, 45.007674 ], [ 25.107669, 45.013814499999988 ] ] ] } },
{ "type": "Feature", "properties": { "name": "Davideşti", "feature_type": "circle", "metric_roundness": 47.87, "metric_rectangularity": 62.9, "metric_mobile_fit": 47.9, "metric_aspect_ratio": 1.083, "metric_area_km2": 84.81 }, "geometry": { "type": "Polygon", "coordinates": [ [ [ 25.11037578993291, 45.000437837154102 ], [ 25.110283316606882, 44.997940715143223 ], [ 25.11000615009176, 44.995450329188259 ], [ 25.109545050081692, 44.992973506600165 ], [ 25.108901280419758, 44.990517038388255 ], [ 25.108076605633855, 44.988087660622135 ], [ 25.107073286100242, 44.985692035935202 ], [ 25.10589407184802, 44.983336735220263 ], [ 25.104542195021502, 44.98102821956823 ], [ 25.103021361021092, 44.978772822499863 ], [ 25.101335738347071, 44.976576732539762 ], [ 25.099489947174025, 44.974445976181435 ], [ 25.097489046687262, 44.972386401290507 ], [ 25.095338521215933, 44.970403660992837 ], [ 25.093044265200877, 44.968503198092264 ], [ 25.090612567038356, 44.9666902300619 ], [ 25.088050091844007, 44.964969734650921 ], [ 25.085363863184224, 44.963346436147503 ], [ 25.082561243825047, 44.961824792336422 ], [ 25.079649915551332, 44.960408982188085 ], [ 25.076637858111507, 44.959102894313901 ], [ 25.073533327345665, 44.957910116220532 ], [ 25.070344832556824, 44.956833924393372 ], [ 25.06708111318758, 44.955877275237427 ], [ 25.063751114865862, 44.955042796901324 ], [ 25.06036396488561, 44.954332782007555 ], [ 25.056928947189473, 44.953749181309639 ], [ 25.053455476922199, 44.953293598294287 ], [ 25.049953074624352, 44.95296728474392 ], [ 25.046431340137179, 44.952771137272009 ], [ 25.042899926290112, 44.952705694841299 ], [ 25.039368512443048, 44.952771137272009 ], [ 25.035846777955872, 44.95296728474392 ], [ 25.03234437565802, 44.953293598294287 ], [ 25.02887090539075, 44.953749181309639 ], [ 25.025435887694616, 44.954332782007555 ], [ 25.022048737714361, 44.955042796901324 ], [ 25.018718739392643, 44.955877275237427 ], [ 25.015455020023399, 44.956833924393372 ], [ 25.012266525234562, 44.957910116220532 ], [ 25.009161994468712, 44.959102894313901 ], [ 25.006149937028894, 44.960408982188085 ], [ 25.003238608755179, 44.961824792336422 ], [ 25.000435989395999, 44.963346436147503 ], [ 24.99774976073622, 44.964969734650921 ], [ 24.995187285541867, 44.9666902300619 ], [ 24.992755587379349, 44.968503198092264 ], [ 24.99046133136429, 44.970403660992837 ], [ 24.988310805892961, 44.972386401290507 ], [ 24.986309905406202, 44.974445976181435 ], [ 24.984464114233152, 44.976576732539762 ], [ 24.982778491559134, 44.978772822499863 ], [ 24.981257657558722, 44.98102821956823 ], [ 24.979905780732203, 44.983336735220263 ], [ 24.978726566479985, 44.985692035935202 ], [ 24.977723246946372, 44.988087660622135 ], [ 24.976898572160465, 44.990517038388255 ], [ 24.976254802498531, 44.992973506600165 ], [ 24.975793702488463, 44.995450329188259 ], [ 24.975516535973341, 44.997940715143223 ], [ 24.97542406264731, 45.000437837154102 ], [ 24.975516535973341, 45.002934850335976 ], [ 24.975793702488463, 45.005424910996332 ], [ 24.976254802498531, 45.007901195388158 ], [ 24.976898572160465, 45.010356918398813 ], [ 24.977723246946372, 45.012785352123188 ], [ 24.978726566479985, 45.015179844271067 ], [ 24.979905780732203, 45.01753383635797 ], [ 24.981257657558722, 45.019840881630586 ], [ 24.982778491559134, 45.022094662677972 ], [ 24.984464114233152, 45.024289008680981 ], [ 24.986309905406202, 45.026417912253272 ], [ 24.988310805892961, 45.028475545828741 ], [ 24.99046133136429, 45.030456277550996 ], [ 24.992755587379349, 45.032354686622568 ], [ 24.995187285541867, 45.034165578072532 ], [ 24.99774976073622, 45.035883996903166 ], [ 25.000435989395999, 45.037505241577719 ], [ 25.003238608755179, 45.03902487681362 ], [ 25.006149937028894, 45.040438745646831 ], [ 25.009161994468712, 45.041742980735364 ], [ 25.012266525234562, 45.042934014872088 ], [ 25.015455020023399, 45.044008590678722 ], [ 25.018718739392643, 45.044963769455741 ], [ 25.022048737714361, 45.045796939164269 ], [ 25.025435887694616, 45.046505821519432 ], [ 25.02887090539075, 45.047088478176008 ], [ 25.03234437565802, 45.047543315990382 ], [ 25.035846777955872, 45.047869091344744 ], [ 25.039368512443048, 45.048064913522197 ], [ 25.042899926290112, 45.048130247123957 ], [ 25.046431340137179, 45.048064913522197 ], [ 25.049953074624352, 45.047869091344744 ], [ 25.053455476922199, 45.047543315990382 ], [ 25.056928947189473, 45.047088478176008 ], [ 25.06036396488561, 45.046505821519432 ], [ 25.063751114865862, 45.045796939164269 ], [ 25.06708111318758, 45.044963769455741 ], [ 25.070344832556824, 45.044008590678722 ], [ 25.073533327345665, 45.042934014872088 ], [ 25.076637858111507, 45.041742980735364 ], [ 25.079649915551332, 45.040438745646831 ], [ 25.082561243825047, 45.03902487681362 ], [ 25.085363863184224, 45.037505241577719 ], [ 25.088050091844007, 45.035883996903166 ], [ 25.090612567038356, 45.034165578072532 ], [ 25.093044265200877, 45.032354686622568 ], [ 25.095338521215933, 45.030456277550996 ], [ 25.097489046687262, 45.028475545828741 ], [ 25.099489947174025, 45.026417912253272 ], [ 25.101335738347071, 45.024289008680981 ], [ 25.103021361021092, 45.022094662677972 ], [ 25.104542195021502, 45.019840881630586 ], [ 25.10589407184802, 45.01753383635797 ], [ 25.107073286100242, 45.015179844271067 ], [ 25.108076605633855, 45.012785352123188 ], [ 25.108901280419758, 45.010356918398813 ], [ 25.109545050081692, 45.007901195388158 ], [ 25.11000615009176, 45.005424910996332 ], [ 25.110283316606882, 45.002934850335976 ], [ 25.11037578993291, 45.000437837154102 ] ] ] } },
{ "type": "Feature", "properties": { "name": "Davideşti", "feature_type": "mrr", "metric_roundness": 47.87, "metric_rectangularity": 62.9, "metric_mobile_fit": 47.9, "metric_aspect_ratio": 1.083, "metric_area_km2": 84.81 }, "geometry": { "type": "Polygon", "coordinates": [ [ [ 24.969578826400031, 44.980702231372213 ], [ 25.041432457908787, 45.052873599387212 ], [ 25.112701146859937, 45.017428307153025 ], [ 25.040847515351171, 44.945212250746735 ], [ 24.969578826400031, 44.980702231372213 ] ] ] } }
]
}
