{
"type": "FeatureCollection",
"name": "kelebia",
"crs": { "type": "name", "properties": { "name": "urn:ogc:def:crs:OGC:1.3:CRS84" } },
"features": [
{ "type": "Feature", "properties": { "name": "Kelebia", "metric_roundness": 50.94, "metric_rectangularity": 75.55, "metric_mobile_fit": 55.04, "metric_aspect_ratio": 1.012, "metric_area_km2": 139.02 }, "geometry": { "type": "Polygon", "coordinates": [ [ [ 19.6332275, 46.2625515 ], [ 19.628914, 46.260981499999986 ], [ 19.614407, 46.2630185 ], [ 19.598367, 46.2611265 ], [ 19.595323, 46.260072 ], [ 19.5881665, 46.257952 ], [ 19.583956, 46.2573535 ], [ 19.5676555, 46.257266 ], [ 19.560006, 46.25351 ], [ 19.5883354, 46.2199196 ], [ 19.5848829, 46.2155219 ], [ 19.5895038, 46.214204199999983 ], [ 19.5931548, 46.2083855 ], [ 19.5815784, 46.2014351 ], [ 19.6052, 46.1731795 ], [ 19.6311656, 46.1696874 ], [ 19.6608113, 46.1891228 ], [ 19.6835399, 46.1800262 ], [ 19.698099, 46.187931 ], [ 19.6860552, 46.213221699999984 ], [ 19.6698965, 46.231518 ], [ 19.661641, 46.2399805 ], [ 19.6543995, 46.246689 ], [ 19.639527, 46.262654 ], [ 19.63817, 46.264097 ], [ 19.6332275, 46.2625515 ] ] ] } }
]
}
