{
"type": "FeatureCollection",
"name": "apliki",
"crs": { "type": "name", "properties": { "name": "urn:ogc:def:crs:OGC:1.3:CRS84" } },
"features": [
{ "type": "Feature", "properties": { "name": "Απλίκι", "metric_roundness": 43.57, "metric_rectangularity": 72.2, "metric_mobile_fit": 97.72, "metric_aspect_ratio": 0.54, "metric_area_km2": 5.27 }, "geometry": { "type": "Polygon", "coordinates": [ [ [ 33.1185117, 34.9325583 ], [ 33.1065656, 34.921556 ], [ 33.1066557, 34.9105846 ], [ 33.1097483, 34.9049622 ], [ 33.1139545, 34.9038915 ], [ 33.1207136, 34.910518599999982 ], [ 33.1254355, 34.927572 ], [ 33.1185117, 34.9325583 ] ] ] } }
]
}
