{
"type": "FeatureCollection",
"name": "zabno",
"crs": { "type": "name", "properties": { "name": "urn:ogc:def:crs:OGC:1.3:CRS84" } },
"features": [
{ "type": "Feature", "properties": { "name": "Żabno", "feature_type": "entity", "metric_roundness": 25.87, "metric_rectangularity": 50.5, "metric_mobile_fit": 76.08, "metric_aspect_ratio": 0.802, "metric_area_km2": 245.71 }, "geometry": { "type": "Polygon", "coordinates": [ [ [ 20.9261985, 50.05051049999998 ], [ 20.9304094, 50.055691799999984 ], [ 20.9265209, 50.062630399999989 ], [ 20.9278627, 50.0650469 ], [ 20.958454, 50.065286499999985 ], [ 20.9574266, 50.0730201 ], [ 20.9431943, 50.0830147 ], [ 20.9402153, 50.104686099999988 ], [ 20.9446302, 50.112510799999988 ], [ 20.9565605, 50.1121945 ], [ 20.9590917, 50.1275446 ], [ 20.9549601, 50.1357825 ], [ 20.9632454, 50.1454673 ], [ 20.9486085, 50.148489899999987 ], [ 20.9341934, 50.156607699999974 ], [ 20.9373633, 50.161261 ], [ 20.9344415, 50.1646285 ], [ 20.9195426, 50.1655688 ], [ 20.9088116, 50.1623546 ], [ 20.8821174, 50.1613268 ], [ 20.8684137, 50.166686299999981 ], [ 20.8673425, 50.1697433 ], [ 20.8754788, 50.179418 ], [ 20.8739882, 50.194453799999984 ], [ 20.8633013, 50.204204099999984 ], [ 20.8553873, 50.2056179 ], [ 20.854395, 50.213719499999989 ], [ 20.8419578, 50.2173716 ], [ 20.8361675, 50.222144 ], [ 20.8299099, 50.2223445 ], [ 20.8115862, 50.2117977 ], [ 20.7993014, 50.212810399999981 ], [ 20.7916316, 50.2182237 ], [ 20.7591919, 50.2091413 ], [ 20.749132, 50.21393 ], [ 20.748182, 50.2063385 ], [ 20.7514372, 50.2011859 ], [ 20.776325, 50.196342 ], [ 20.7883902, 50.1830736 ], [ 20.8074744, 50.1775033 ], [ 20.8097774, 50.1729153 ], [ 20.8077743, 50.1691899 ], [ 20.8028376, 50.1683376 ], [ 20.7998979, 50.173121899999977 ], [ 20.797558, 50.1691605 ], [ 20.8070792, 50.161498 ], [ 20.8286199, 50.1617096 ], [ 20.8326382, 50.1501205 ], [ 20.840465, 50.1462641 ], [ 20.8509405, 50.1357456 ], [ 20.8685929, 50.128666399999979 ], [ 20.8749343, 50.120425399999988 ], [ 20.8822326, 50.1174009 ], [ 20.8821698, 50.11350269999997 ], [ 20.8730742, 50.1078757 ], [ 20.8869414, 50.100401399999981 ], [ 20.8878582, 50.0887922 ], [ 20.896477, 50.0810251 ], [ 20.8989105, 50.074423 ], [ 20.8995452, 50.061131599999982 ], [ 20.915883, 50.0504075 ], [ 20.9261985, 50.05051049999998 ] ] ] } },
{ "type": "Feature", "properties": { "name": "Żabno", "feature_type": "circle", "metric_roundness": 25.87, "metric_rectangularity": 50.5, "metric_mobile_fit": 76.08, "metric_aspect_ratio": 0.802, "metric_area_km2": 245.71 }, "geometry": { "type": "Polygon", "coordinates": [ [ [ 21.008542217743432, 50.138814825707065 ], [ 21.008328122815112, 50.133574325453367 ], [ 21.007686424849446, 50.128347617401708 ], [ 21.006618882695971, 50.123149034624426 ], [ 21.005128422413527, 50.11799283771775 ], [ 21.00321912925013, 50.112893175587246 ], [ 21.000896236445644, 50.10786404649005 ], [ 20.998166110887777, 50.10291925944302 ], [ 20.995036235660919, 50.098072396104534 ], [ 20.991515189535505, 50.093336773237866 ], [ 20.987612623454222, 50.088725405861915 ], [ 20.983339234079441, 50.08425097119455 ], [ 20.97870673447439, 50.079925773491247 ], [ 20.973727821998491, 50.075761709880268 ], [ 20.968416143504754, 50.071770237292426 ], [ 20.962786257934731, 50.067962340581616 ], [ 20.956853596413428, 50.064348501928293 ], [ 20.950634419953712, 50.060938671615347 ], [ 20.944145774885964, 50.057742240261803 ], [ 20.937405446135294, 50.05476801259595 ], [ 20.930431908474297, 50.052024182844946 ], [ 20.923244275884969, 50.049518311813799 ], [ 20.915862249168637, 50.047257305721473 ], [ 20.908306061947417, 50.045247396857029 ], [ 20.900596425205247, 50.043494126113302 ], [ 20.892754470520558, 50.042002327450312 ], [ 20.884801692146048, 50.040776114334633 ], [ 20.876759888094444, 50.039818868195546 ], [ 20.868651100391684, 50.039133228932378 ], [ 20.860497554661222, 50.038721087501628 ], [ 20.852321599205155, 50.038583580606044 ], [ 20.844145643749091, 50.038721087501628 ], [ 20.835992098018625, 50.039133228932378 ], [ 20.827883310315865, 50.039818868195546 ], [ 20.819841506264265, 50.040776114334633 ], [ 20.811888727889755, 50.042002327450312 ], [ 20.804046773205062, 50.043494126113302 ], [ 20.796337136462892, 50.045247396857029 ], [ 20.788780949241669, 50.047257305721473 ], [ 20.781398922525337, 50.049518311813799 ], [ 20.774211289936019, 50.052024182844946 ], [ 20.767237752275015, 50.05476801259595 ], [ 20.760497423524342, 50.057742240261803 ], [ 20.754008778456598, 50.060938671615347 ], [ 20.747789601996882, 50.064348501928293 ], [ 20.741856940475582, 50.067962340581616 ], [ 20.736227054905555, 50.071770237292426 ], [ 20.730915376411819, 50.075761709880268 ], [ 20.72593646393592, 50.079925773491247 ], [ 20.721303964330872, 50.08425097119455 ], [ 20.717030574956087, 50.088725405861915 ], [ 20.713128008874804, 50.093336773237866 ], [ 20.70960696274939, 50.098072396104534 ], [ 20.706477087522533, 50.10291925944302 ], [ 20.703746961964665, 50.10786404649005 ], [ 20.701424069160179, 50.112893175587246 ], [ 20.699514775996786, 50.11799283771775 ], [ 20.698024315714338, 50.123149034624426 ], [ 20.69695677356086, 50.128347617401708 ], [ 20.696315075595198, 50.133574325453367 ], [ 20.696100980666873, 50.138814825707065 ], [ 20.696315075595198, 50.144054751977102 ], [ 20.69695677356086, 50.149279744366439 ], [ 20.698024315714338, 50.15447548859995 ], [ 20.699514775996786, 50.159627755181162 ], [ 20.701424069160179, 50.164722438266111 ], [ 20.703746961964665, 50.169745594149241 ], [ 20.706477087522533, 50.174683479257638 ], [ 20.70960696274939, 50.179522587552135 ], [ 20.713128008874804, 50.184249687235535 ], [ 20.717030574956087, 50.18885185667088 ], [ 20.721303964330872, 50.193316519414992 ], [ 20.72593646393592, 50.197631478275774 ], [ 20.730915376411819, 50.201784948303974 ], [ 20.736227054905555, 50.205765588634364 ], [ 20.741856940475582, 50.209562533093575 ], [ 20.747789601996882, 50.213165419496356 ], [ 20.754008778456598, 50.216564417554935 ], [ 20.760497423524342, 50.219750255330652 ], [ 20.767237752275015, 50.222714244160628 ], [ 20.774211289936012, 50.22544830199643 ], [ 20.781398922525337, 50.227944975096044 ], [ 20.788780949241669, 50.230197458014828 ], [ 20.796337136462892, 50.232199611845225 ], [ 20.804046773205062, 50.233945980660025 ], [ 20.811888727889755, 50.235431806118022 ], [ 20.819841506264265, 50.236653040196188 ], [ 20.827883310315865, 50.237606356016478 ], [ 20.835992098018625, 50.238289156740848 ], [ 20.844145643749091, 50.238699582512332 ], [ 20.852321599205155, 50.238836515425277 ], [ 20.860497554661222, 50.238699582512332 ], [ 20.868651100391684, 50.238289156740848 ], [ 20.876759888094444, 50.237606356016478 ], [ 20.884801692146048, 50.236653040196188 ], [ 20.892754470520558, 50.235431806118022 ], [ 20.900596425205247, 50.233945980660025 ], [ 20.908306061947417, 50.232199611845225 ], [ 20.915862249168637, 50.230197458014828 ], [ 20.923244275884969, 50.227944975096044 ], [ 20.930431908474294, 50.22544830199643 ], [ 20.937405446135294, 50.222714244160628 ], [ 20.944145774885964, 50.219750255330652 ], [ 20.950634419953712, 50.216564417554935 ], [ 20.956853596413428, 50.213165419496356 ], [ 20.962786257934731, 50.209562533093575 ], [ 20.968416143504754, 50.205765588634364 ], [ 20.973727821998491, 50.201784948303974 ], [ 20.97870673447439, 50.197631478275774 ], [ 20.983339234079441, 50.193316519414992 ], [ 20.987612623454222, 50.18885185667088 ], [ 20.991515189535505, 50.184249687235535 ], [ 20.995036235660919, 50.179522587552135 ], [ 20.998166110887777, 50.174683479257638 ], [ 21.000896236445644, 50.169745594149241 ], [ 21.00321912925013, 50.164722438266111 ], [ 21.005128422413527, 50.159627755181162 ], [ 21.006618882695971, 50.15447548859995 ], [ 21.007686424849446, 50.149279744366439 ], [ 21.008328122815112, 50.144054751977102 ], [ 21.008542217743432, 50.138814825707065 ] ] ] } },
{ "type": "Feature", "properties": { "name": "Żabno", "feature_type": "mrr", "metric_roundness": 25.87, "metric_rectangularity": 50.5, "metric_mobile_fit": 76.08, "metric_aspect_ratio": 0.802, "metric_area_km2": 245.71 }, "geometry": { "type": "Polygon", "coordinates": [ [ [ 20.91562042705694, 50.045905820194243 ], [ 20.741462933518498, 50.210603049074123 ], [ 20.846176494552889, 50.256009305248355 ], [ 21.020333988091334, 50.091468655288601 ], [ 20.91562042705694, 50.045905820194243 ] ] ] } }
]
}
