{
"type": "FeatureCollection",
"name": "zahorce",
"crs": { "type": "name", "properties": { "name": "urn:ogc:def:crs:OGC:1.3:CRS84" } },
"features": [
{ "type": "Feature", "properties": { "name": "Záhorce", "feature_type": "entity", "metric_roundness": 50.03, "metric_rectangularity": 68.67, "metric_mobile_fit": 74.64, "metric_aspect_ratio": 0.816, "metric_area_km2": 39.46 }, "geometry": { "type": "Polygon", "coordinates": [ [ [ 19.3515345, 48.088674499999982 ], [ 19.3550715, 48.101200499999983 ], [ 19.3523327, 48.105525399999976 ], [ 19.3580026, 48.108575099999989 ], [ 19.3567816, 48.113329699999987 ], [ 19.3169737, 48.134295 ], [ 19.313498, 48.142713 ], [ 19.313387, 48.143127 ], [ 19.295068, 48.128225 ], [ 19.292637, 48.1229419 ], [ 19.2969683, 48.1190072 ], [ 19.2914399, 48.111810799999979 ], [ 19.292511, 48.105262499999988 ], [ 19.3051592, 48.1007656 ], [ 19.3115328, 48.0942405 ], [ 19.3168042, 48.095268399999988 ], [ 19.3258395, 48.09031 ], [ 19.327804, 48.090383 ], [ 19.3515345, 48.088674499999982 ] ] ] } },
{ "type": "Feature", "properties": { "name": "Záhorce", "feature_type": "circle", "metric_roundness": 50.03, "metric_rectangularity": 68.67, "metric_mobile_fit": 74.64, "metric_aspect_ratio": 0.816, "metric_area_km2": 39.46 }, "geometry": { "type": "Polygon", "coordinates": [ [ [ 19.3774815600847, 48.115907963611427 ], [ 19.377419860629153, 48.114334874674185 ], [ 19.377234931376449, 48.112766049500387 ], [ 19.376927279204807, 48.111205788721811 ], [ 19.376497747367438, 48.109658369882887 ], [ 19.375947513181266, 48.108128035705469 ], [ 19.375278084799941, 48.106618982445028 ], [ 19.374491297080123, 48.105135348370226 ], [ 19.373589306552265, 48.103681202397624 ], [ 19.37257458550971, 48.102260532913 ], [ 19.371449915232304, 48.100877236810213 ], [ 19.370218378363099, 48.099535108777893 ], [ 19.368883350459047, 48.098237830863724 ], [ 19.367448490738845, 48.096988962345286 ], [ 19.365917732053248, 48.095791929935707 ], [ 19.364295270105401, 48.094650018351246 ], [ 19.36258555195074, 48.093566361267179 ], [ 19.360793263807885, 48.092543932687306 ], [ 19.358923318214046, 48.091585538751005 ], [ 19.356980840560123, 48.0906938100009 ], [ 19.35497115504235, 48.089871194132748 ], [ 19.35289977006903, 48.089119949247738 ], [ 19.350772363162402, 48.088442137626387 ], [ 19.348594765396921, 48.087839620041095 ], [ 19.346372945416697, 48.087314050623831 ], [ 19.344112993075861, 48.086866872302906 ], [ 19.341821102746696, 48.086499312821992 ], [ 19.339503556341278, 48.086212381352318 ], [ 19.337166706093221, 48.086006865707915 ], [ 19.334816957146614, 48.085883330171306 ], [ 19.33246075, 48.085842113936202 ], [ 19.330104542853384, 48.085883330171306 ], [ 19.327754793906777, 48.086006865707915 ], [ 19.325417943658721, 48.086212381352318 ], [ 19.323100397253306, 48.086499312821992 ], [ 19.320808506924134, 48.086866872302906 ], [ 19.318548554583302, 48.087314050623831 ], [ 19.316326734603077, 48.087839620041095 ], [ 19.314149136837592, 48.088442137626387 ], [ 19.312021729930965, 48.089119949247738 ], [ 19.309950344957645, 48.089871194132748 ], [ 19.307940659439872, 48.0906938100009 ], [ 19.305998181785956, 48.091585538751005 ], [ 19.304128236192113, 48.092543932687306 ], [ 19.302335948049258, 48.093566361267179 ], [ 19.300626229894593, 48.094650018351246 ], [ 19.299003767946754, 48.095791929935707 ], [ 19.297473009261154, 48.096988962345286 ], [ 19.296038149540951, 48.098237830863724 ], [ 19.2947031216369, 48.099535108777893 ], [ 19.293471584767698, 48.100877236810213 ], [ 19.292346914490288, 48.102260532913 ], [ 19.29133219344773, 48.103681202397624 ], [ 19.290430202919872, 48.105135348370226 ], [ 19.289643415200061, 48.106618982445028 ], [ 19.288973986818732, 48.108128035705469 ], [ 19.288423752632557, 48.109658369882887 ], [ 19.287994220795195, 48.111205788721811 ], [ 19.287686568623549, 48.112766049500387 ], [ 19.287501639370841, 48.114334874674185 ], [ 19.287439939915302, 48.115907963611427 ], [ 19.287501639370841, 48.117481004387137 ], [ 19.287686568623549, 48.119049685603976 ], [ 19.287994220795195, 48.120609708207397 ], [ 19.288423752632557, 48.122156797262484 ], [ 19.288973986818732, 48.123686713660533 ], [ 19.289643415200061, 48.125195265723391 ], [ 19.290430202919872, 48.126678320673584 ], [ 19.29133219344773, 48.128131815939589 ], [ 19.292346914490288, 48.129551770264918 ], [ 19.293471584767698, 48.1309342945911 ], [ 19.2947031216369, 48.132275602685297 ], [ 19.296038149540951, 48.133572021483218 ], [ 19.297473009261154, 48.134820001119948 ], [ 19.299003767946754, 48.136016124621136 ], [ 19.300626229894593, 48.13715711722871 ], [ 19.302335948049258, 48.138239855335897 ], [ 19.304128236192113, 48.139261375007408 ], [ 19.305998181785956, 48.140218880062044 ], [ 19.307940659439872, 48.14110974969595 ], [ 19.309950344957645, 48.141931545626043 ], [ 19.312021729930965, 48.142682018734519 ], [ 19.314149136837592, 48.143359115196645 ], [ 19.316326734603077, 48.143960982075413 ], [ 19.318548554583302, 48.144485972368159 ], [ 19.320808506924134, 48.144932649491558 ], [ 19.323100397253306, 48.145299791193196 ], [ 19.325417943658721, 48.145586392879061 ], [ 19.327754793906777, 48.145791670348359 ], [ 19.330104542853384, 48.145915061928036 ], [ 19.33246075, 48.145956230001602 ], [ 19.334816957146614, 48.145915061928036 ], [ 19.337166706093221, 48.145791670348359 ], [ 19.339503556341278, 48.145586392879061 ], [ 19.341821102746696, 48.145299791193196 ], [ 19.344112993075861, 48.144932649491558 ], [ 19.346372945416697, 48.144485972368159 ], [ 19.348594765396921, 48.143960982075413 ], [ 19.350772363162402, 48.143359115196645 ], [ 19.35289977006903, 48.142682018734519 ], [ 19.35497115504235, 48.141931545626043 ], [ 19.356980840560123, 48.14110974969595 ], [ 19.358923318214046, 48.140218880062044 ], [ 19.360793263807885, 48.139261375007408 ], [ 19.36258555195074, 48.138239855335897 ], [ 19.364295270105401, 48.13715711722871 ], [ 19.365917732053248, 48.136016124621136 ], [ 19.367448490738845, 48.134820001119948 ], [ 19.368883350459047, 48.133572021483218 ], [ 19.370218378363099, 48.132275602685297 ], [ 19.371449915232304, 48.1309342945911 ], [ 19.37257458550971, 48.129551770264918 ], [ 19.373589306552265, 48.128131815939589 ], [ 19.374491297080123, 48.126678320673584 ], [ 19.375278084799941, 48.125195265723391 ], [ 19.375947513181266, 48.123686713660533 ], [ 19.376497747367438, 48.122156797262484 ], [ 19.376927279204807, 48.120609708207397 ], [ 19.377234931376449, 48.119049685603976 ], [ 19.377419860629153, 48.117481004387137 ], [ 19.3774815600847, 48.115907963611427 ] ] ] } },
{ "type": "Feature", "properties": { "name": "Záhorce", "feature_type": "mrr", "metric_roundness": 50.03, "metric_rectangularity": 68.67, "metric_mobile_fit": 74.64, "metric_aspect_ratio": 0.816, "metric_area_km2": 39.46 }, "geometry": { "type": "Polygon", "coordinates": [ [ [ 19.313387, 48.143127 ], [ 19.372684473549242, 48.102405520289246 ], [ 19.333599879172894, 48.077028081123501 ], [ 19.274302408732684, 48.117769667754807 ], [ 19.313387, 48.143127 ] ] ] } }
]
}
