{
"type": "FeatureCollection",
"name": "zamrsky",
"crs": { "type": "name", "properties": { "name": "urn:ogc:def:crs:OGC:1.3:CRS84" } },
"features": [
{ "type": "Feature", "properties": { "name": "Zámrsky", "metric_roundness": 63.06, "metric_rectangularity": 72.07, "metric_mobile_fit": 66.76, "metric_aspect_ratio": 0.895, "metric_area_km2": 18.86 }, "geometry": { "type": "Polygon", "coordinates": [ [ [ 17.8135995, 49.502875 ], [ 17.8258892, 49.501626699999974 ], [ 17.8359892, 49.5046465 ], [ 17.8419263, 49.5165907 ], [ 17.8401353, 49.521999 ], [ 17.845053, 49.523595 ], [ 17.8442939, 49.5264116 ], [ 17.8358253, 49.5276191 ], [ 17.8216095, 49.53526 ], [ 17.7986895, 49.5311035 ], [ 17.8125, 49.506806499999989 ], [ 17.8135995, 49.502875 ] ] ] } }
]
}
