{
"type": "FeatureCollection",
"name": "usagre",
"crs": { "type": "name", "properties": { "name": "urn:ogc:def:crs:OGC:1.3:CRS84" } },
"features": [
{ "type": "Feature", "properties": { "name": "Usagre", "feature_type": "entity", "metric_roundness": 58.56, "metric_rectangularity": 64.45, "metric_mobile_fit": 25.77, "metric_aspect_ratio": 1.305, "metric_area_km2": 393.82 }, "geometry": { "type": "Polygon", "coordinates": [ [ [ -6.0669358, 38.3749966 ], [ -6.0755036, 38.3878298 ], [ -6.0738004, 38.394148299999983 ], [ -6.0767331, 38.4042835 ], [ -6.0719991, 38.406565 ], [ -6.068328, 38.417285 ], [ -6.0817685, 38.4159463 ], [ -6.0903546, 38.419865299999984 ], [ -6.0939697, 38.4249343 ], [ -6.1090884, 38.4313304 ], [ -6.1148343, 38.440221699999981 ], [ -6.1108082, 38.4438572 ], [ -6.1080141, 38.4528933 ], [ -6.1115143, 38.4628861 ], [ -6.128354, 38.465535 ], [ -6.1313126, 38.461402499999984 ], [ -6.1430274, 38.457560799999989 ], [ -6.167725, 38.4608513 ], [ -6.1767199, 38.4461898 ], [ -6.1875411, 38.437990299999989 ], [ -6.2095411, 38.432982 ], [ -6.2221216, 38.4424438 ], [ -6.22743, 38.455377 ], [ -6.2346989, 38.4531497 ], [ -6.2456369, 38.4547275 ], [ -6.2863, 38.4433564 ], [ -6.3182165, 38.418696 ], [ -6.3207091, 38.412754099999987 ], [ -6.3193463, 38.390071599999985 ], [ -6.312581, 38.361763 ], [ -6.3062395, 38.3558885 ], [ -6.3029625, 38.35203 ], [ -6.2937392, 38.3583951 ], [ -6.2850433, 38.3699544 ], [ -6.2719539, 38.363568699999988 ], [ -6.2616784, 38.3725123 ], [ -6.2305658, 38.3537896 ], [ -6.170675, 38.325189 ], [ -6.1441409, 38.319527 ], [ -6.1278675, 38.3119815 ], [ -6.1076774, 38.329418499999989 ], [ -6.0749231, 38.3478413 ], [ -6.065099, 38.3644585 ], [ -6.0669358, 38.3749966 ] ] ] } },
{ "type": "Feature", "properties": { "name": "Usagre", "feature_type": "circle", "metric_roundness": 58.56, "metric_rectangularity": 64.45, "metric_mobile_fit": 25.77, "metric_aspect_ratio": 1.305, "metric_area_km2": 393.82 }, "geometry": { "type": "Polygon", "coordinates": [ [ [ -6.061438232368988, 38.388610331566717 ], [ -6.061618401703013, 38.383217164967469 ], [ -6.062158415873466, 38.377838380167901 ], [ -6.063056794739043, 38.372488724998291 ], [ -6.064311075905717, 38.367182870677503 ], [ -6.065917821475996, 38.361935371510228 ], [ -6.067872627471955, 38.356760624870397 ], [ -6.070170135906236, 38.351672831581588 ], [ -6.072804049467918, 38.346685956804983 ], [ -6.075767148783011, 38.341813691543869 ], [ -6.079051312202251, 38.337069414872971 ], [ -6.082647538061989, 38.33246615699835 ], [ -6.086545969357115, 38.328016563252504 ], [ -6.09073592075842, 38.323732859126331 ], [ -6.095205907900358, 38.319626816437051 ], [ -6.099943678858877, 38.315709720728677 ], [ -6.104936247733098, 38.311992339997751 ], [ -6.110169930238764, 38.308484894833967 ], [ -6.115630381215919, 38.305197030061201 ], [ -6.121302633947984, 38.302137787960561 ], [ -6.127171141184494, 38.299315583152428 ], [ -6.133219817755029, 38.296738179210216 ], [ -6.139432084657546, 38.294412667073203 ], [ -6.145790914500277, 38.292345445321203 ], [ -6.152278878172619, 38.290542202368165 ], [ -6.158878192617118, 38.289007900626466 ], [ -6.165570769571596, 38.287746762688087 ], [ -6.172338265147816, 38.286762259562728 ], [ -6.179162130110804, 38.286057101007302 ], [ -6.18602366072102, 38.285633227974991 ], [ -6.19290405, 38.285491807205872 ], [ -6.199784439278978, 38.285633227974991 ], [ -6.206645969889194, 38.286057101007302 ], [ -6.213469834852183, 38.286762259562728 ], [ -6.220237330428402, 38.287746762688087 ], [ -6.226929907382879, 38.289007900626466 ], [ -6.233529221827379, 38.290542202368165 ], [ -6.24001718549972, 38.292345445321203 ], [ -6.246376015342451, 38.294412667073203 ], [ -6.25258828224497, 38.296738179210216 ], [ -6.258636958815504, 38.299315583152428 ], [ -6.264505466052014, 38.302137787960561 ], [ -6.270177718784079, 38.305197030061201 ], [ -6.275638169761232, 38.308484894833967 ], [ -6.2808718522669, 38.311992339997751 ], [ -6.28586442114112, 38.315709720728677 ], [ -6.290602192099639, 38.319626816437051 ], [ -6.295072179241578, 38.323732859126331 ], [ -6.299262130642884, 38.328016563252504 ], [ -6.303160561938008, 38.33246615699835 ], [ -6.306756787797746, 38.337069414872971 ], [ -6.310040951216987, 38.341813691543869 ], [ -6.31300405053208, 38.346685956804983 ], [ -6.315637964093761, 38.351672831581588 ], [ -6.317935472528043, 38.356760624870397 ], [ -6.319890278524001, 38.361935371510228 ], [ -6.32149702409428, 38.367182870677503 ], [ -6.322751305260955, 38.372488724998291 ], [ -6.323649684126532, 38.377838380167901 ], [ -6.324189698296985, 38.383217164967469 ], [ -6.32436986763101, 38.388610331566717 ], [ -6.324189698296985, 38.394003096001192 ], [ -6.323649684126532, 38.399380678712703 ], [ -6.322751305260955, 38.404728345041335 ], [ -6.32149702409428, 38.410031445558445 ], [ -6.319890278524001, 38.415275456130686 ], [ -6.317935472528043, 38.420446017606039 ], [ -6.315637964093761, 38.425528975014586 ], [ -6.31300405053208, 38.43051041617823 ], [ -6.310040951216987, 38.435376709625594 ], [ -6.306756787797746, 38.440114541710585 ], [ -6.303160561938008, 38.444710952835472 ], [ -6.299262130642884, 38.449153372682304 ], [ -6.295072179241578, 38.453429654359049 ], [ -6.290602192099639, 38.457528107370436 ], [ -6.28586442114112, 38.461437529326624 ], [ -6.2808718522669, 38.465147236306301 ], [ -6.275638169761233, 38.468647091794999 ], [ -6.270177718784079, 38.471927534122841 ], [ -6.264505466052014, 38.474979602330535 ], [ -6.258636958815504, 38.477794960396253 ], [ -6.25258828224497, 38.480365919760814 ], [ -6.246376015342451, 38.482685460092924 ], [ -6.24001718549972, 38.484747248241 ], [ -6.233529221827379, 38.486545655322637 ], [ -6.226929907382879, 38.488075771908115 ], [ -6.220237330428402, 38.489333421258777 ], [ -6.213469834852183, 38.490315170586506 ], [ -6.206645969889194, 38.491018340305466 ], [ -6.199784439278978, 38.491441011252519 ], [ -6.19290405, 38.491582029857817 ], [ -6.18602366072102, 38.491441011252519 ], [ -6.179162130110804, 38.491018340305466 ], [ -6.172338265147816, 38.490315170586506 ], [ -6.165570769571596, 38.489333421258777 ], [ -6.158878192617118, 38.488075771908115 ], [ -6.152278878172619, 38.486545655322637 ], [ -6.145790914500277, 38.484747248241 ], [ -6.139432084657546, 38.482685460092924 ], [ -6.133219817755029, 38.480365919760814 ], [ -6.127171141184494, 38.477794960396253 ], [ -6.121302633947984, 38.474979602330535 ], [ -6.115630381215919, 38.471927534122841 ], [ -6.110169930238765, 38.468647091794999 ], [ -6.104936247733098, 38.465147236306301 ], [ -6.099943678858877, 38.461437529326624 ], [ -6.095205907900358, 38.457528107370436 ], [ -6.09073592075842, 38.453429654359049 ], [ -6.086545969357115, 38.449153372682304 ], [ -6.082647538061989, 38.444710952835472 ], [ -6.079051312202251, 38.440114541710585 ], [ -6.075767148783011, 38.435376709625594 ], [ -6.072804049467918, 38.43051041617823 ], [ -6.070170135906236, 38.425528975014586 ], [ -6.067872627471955, 38.420446017606039 ], [ -6.065917821475996, 38.415275456130686 ], [ -6.064311075905717, 38.410031445558445 ], [ -6.063056794739043, 38.404728345041335 ], [ -6.062158415873466, 38.399380678712703 ], [ -6.061618401703013, 38.394003096001192 ], [ -6.061438232368988, 38.388610331566717 ] ] ] } },
{ "type": "Feature", "properties": { "name": "Usagre", "feature_type": "mrr", "metric_roundness": 58.56, "metric_rectangularity": 64.45, "metric_mobile_fit": 25.77, "metric_aspect_ratio": 1.305, "metric_area_km2": 393.82 }, "geometry": { "type": "Polygon", "coordinates": [ [ [ -6.32791866088673, 38.447144353496384 ], [ -6.076298374448295, 38.470331354665142 ], [ -6.053552326487686, 38.318843285398351 ], [ -6.30517261292612, 38.295607664883384 ], [ -6.32791866088673, 38.447144353496384 ] ] ] } }
]
}
