{
"type": "FeatureCollection",
"name": "ustersbach",
"crs": { "type": "name", "properties": { "name": "urn:ogc:def:crs:OGC:1.3:CRS84" } },
"features": [
{ "type": "Feature", "properties": { "name": "Ustersbach", "metric_roundness": 48.7, "metric_rectangularity": 67.83, "metric_mobile_fit": 82.33, "metric_aspect_ratio": 0.739, "metric_area_km2": 24.52 }, "geometry": { "type": "Polygon", "coordinates": [ [ [ 10.6631944, 48.3268916 ], [ 10.657532, 48.331188499999989 ], [ 10.6587274, 48.338214199999989 ], [ 10.6519255, 48.3431735 ], [ 10.6343023, 48.340569099999982 ], [ 10.6324493, 48.334913799999981 ], [ 10.6284563, 48.3330828 ], [ 10.6158715, 48.33235309999997 ], [ 10.6240992, 48.3130464 ], [ 10.6193399, 48.3090621 ], [ 10.6215316, 48.3011279 ], [ 10.6252591, 48.298743599999987 ], [ 10.631299, 48.3006385 ], [ 10.6391412, 48.3022161 ], [ 10.6471158, 48.3120238 ], [ 10.665261, 48.318277 ], [ 10.6631944, 48.3268916 ] ] ] } }
]
}
