{
"type": "FeatureCollection",
"name": "miglos",
"crs": { "type": "name", "properties": { "name": "urn:ogc:def:crs:OGC:1.3:CRS84" } },
"features": [
{ "type": "Feature", "properties": { "name": "Miglos", "metric_roundness": 49.68, "metric_rectangularity": 65.21, "metric_mobile_fit": 83.19, "metric_aspect_ratio": 0.731, "metric_area_km2": 34.51 }, "geometry": { "type": "Polygon", "coordinates": [ [ [ 1.6144532, 42.8027687 ], [ 1.6128125, 42.8113765 ], [ 1.6095075, 42.8112645 ], [ 1.6025, 42.8097795 ], [ 1.5957215, 42.804648 ], [ 1.5922435, 42.8038155 ], [ 1.591171, 42.801922 ], [ 1.589968, 42.800557 ], [ 1.5893705, 42.798712 ], [ 1.5899445, 42.79673 ], [ 1.5897945, 42.794169499999981 ], [ 1.5862725, 42.79207 ], [ 1.5848485, 42.789051 ], [ 1.5806465, 42.7877195 ], [ 1.578113, 42.7856715 ], [ 1.5708145, 42.7824305 ], [ 1.5850162, 42.775034499999983 ], [ 1.593351, 42.7580806 ], [ 1.6131865, 42.74936049999998 ], [ 1.6138565, 42.7494095 ], [ 1.6163585, 42.750100499999988 ], [ 1.618343, 42.752143 ], [ 1.6203, 42.7525605 ], [ 1.622288, 42.754415 ], [ 1.623748, 42.759553499999981 ], [ 1.6319085, 42.7670355 ], [ 1.632546, 42.769833499999976 ], [ 1.6314675, 42.773284 ], [ 1.6144532, 42.8027687 ] ] ] } }
]
}
