{
"type": "FeatureCollection",
"name": "miguelturra",
"crs": { "type": "name", "properties": { "name": "urn:ogc:def:crs:OGC:1.3:CRS84" } },
"features": [
{ "type": "Feature", "properties": { "name": "Miguelturra", "metric_roundness": 62.83, "metric_rectangularity": 77.15, "metric_mobile_fit": 76.92, "metric_aspect_ratio": 0.793, "metric_area_km2": 101.06 }, "geometry": { "type": "Polygon", "coordinates": [ [ [ -3.8204515, 38.9797935 ], [ -3.8190051, 38.9856859 ], [ -3.8322535, 38.9944749 ], [ -3.8455941, 38.99744 ], [ -3.8605047, 39.0048556 ], [ -3.88629, 39.008759 ], [ -3.8865858, 38.988732899999988 ], [ -3.89804, 38.978691699999978 ], [ -3.9060741, 38.9772453 ], [ -3.9099941, 38.9703344 ], [ -3.9174887, 38.9649266 ], [ -3.9185605, 38.9451659 ], [ -3.9145033, 38.9377373 ], [ -3.9148524, 38.9292962 ], [ -3.9010865, 38.9224286 ], [ -3.8893948, 38.9111732 ], [ -3.87365, 38.911660499999982 ], [ -3.8370906, 38.9380502 ], [ -3.8361686, 38.949089199999989 ], [ -3.8269085, 38.956581299999989 ], [ -3.820851, 38.9712945 ], [ -3.8204515, 38.9797935 ] ] ] } }
]
}
