{
"type": "FeatureCollection",
"name": "milharado",
"crs": { "type": "name", "properties": { "name": "urn:ogc:def:crs:OGC:1.3:CRS84" } },
"features": [
{ "type": "Feature", "properties": { "name": "Milharado", "feature_type": "entity", "metric_roundness": 51.64, "metric_rectangularity": 60.63, "metric_mobile_fit": 51.65, "metric_aspect_ratio": 1.046, "metric_area_km2": 33.96 }, "geometry": { "type": "Polygon", "coordinates": [ [ [ -9.1899595, 38.9032805 ], [ -9.188283, 38.906609 ], [ -9.1834135, 38.907605 ], [ -9.1793885, 38.9164251 ], [ -9.1713314, 38.9167906 ], [ -9.1626855, 38.922830499999982 ], [ -9.1594325, 38.929776 ], [ -9.1640892, 38.934916399999985 ], [ -9.1611386, 38.949443599999988 ], [ -9.1645815, 38.956371499999989 ], [ -9.1742316, 38.9573652 ], [ -9.1805972, 38.9528507 ], [ -9.1873357, 38.952317199999982 ], [ -9.1912814, 38.956747 ], [ -9.200182, 38.9576366 ], [ -9.209406, 38.9563497 ], [ -9.2116958, 38.952332299999988 ], [ -9.2325245, 38.948371 ], [ -9.2289075, 38.9431843 ], [ -9.2161701, 38.9391519 ], [ -9.2010716, 38.9273065 ], [ -9.2006675, 38.910221 ], [ -9.1899595, 38.9032805 ] ] ] } },
{ "type": "Feature", "properties": { "name": "Milharado", "feature_type": "circle", "metric_roundness": 51.64, "metric_rectangularity": 60.63, "metric_mobile_fit": 51.65, "metric_aspect_ratio": 1.046, "metric_area_km2": 33.96 }, "geometry": { "type": "Polygon", "coordinates": [ [ [ -9.15406012408511, 38.93500939013957 ], [ -9.154116467722437, 38.933335668658465 ], [ -9.154285344200424, 38.931666495394524 ], [ -9.154566290640382, 38.93000644592108 ], [ -9.154958536987653, 38.928360071121219 ], [ -9.155461008122257, 38.926731884705234 ], [ -9.156072326805745, 38.925126350826758 ], [ -9.156790817456095, 38.92354787183136 ], [ -9.157614510740379, 38.922000776171522 ], [ -9.158541148972557, 38.920489306521233 ], [ -9.159568192301643, 38.919017608123184 ], [ -9.160692825673264, 38.917589717400439 ], [ -9.161911966545517, 38.91620955086448 ], [ -9.163222273338018, 38.914880894349992 ], [ -9.164620154590922, 38.913607392606487 ], [ -9.166101778808882, 38.912392539275473 ], [ -9.167663084962903, 38.911239667281116 ], [ -9.169299793621345, 38.910151939660963 ], [ -9.171007418679535, 38.909132340862406 ], [ -9.17278127965589, 38.908183668528977 ], [ -9.174616514520769, 38.907308525799372 ], [ -9.176508093022976, 38.906509314140784 ], [ -9.178450830477319, 38.905788226736362 ], [ -9.18043940197547, 38.905147242445366 ], [ -9.182468356981181, 38.904588120352884 ], [ -9.184532134269807, 38.904112394924276 ], [ -9.186625077171255, 38.903721371778005 ], [ -9.188741449074509, 38.903416124088459 ], [ -9.190875449151292, 38.903197489629072 ], [ -9.193021228255724, 38.903066068463907 ], [ -9.195172904956431, 38.903022221294087 ], [ -9.197324581657139, 38.903066068463907 ], [ -9.19947036076157, 38.903197489629072 ], [ -9.201604360838353, 38.903416124088459 ], [ -9.203720732741608, 38.903721371778005 ], [ -9.205813675643055, 38.904112394924276 ], [ -9.207877452931683, 38.904588120352884 ], [ -9.209906407937392, 38.905147242445366 ], [ -9.211894979435543, 38.905788226736362 ], [ -9.213837716889884, 38.906509314140784 ], [ -9.215729295392093, 38.907308525799372 ], [ -9.217564530256972, 38.908183668528977 ], [ -9.219338391233327, 38.909132340862406 ], [ -9.221046016291519, 38.910151939660963 ], [ -9.222682724949959, 38.911239667281116 ], [ -9.224244031103979, 38.912392539275473 ], [ -9.225725655321941, 38.913607392606487 ], [ -9.227123536574844, 38.914880894349992 ], [ -9.228433843367343, 38.91620955086448 ], [ -9.2296529842396, 38.917589717400439 ], [ -9.230777617611219, 38.919017608123184 ], [ -9.231804660940305, 38.920489306521233 ], [ -9.232731299172483, 38.922000776171522 ], [ -9.233554992456765, 38.92354787183136 ], [ -9.234273483107117, 38.925126350826758 ], [ -9.234884801790605, 38.926731884705234 ], [ -9.235387272925211, 38.928360071121219 ], [ -9.235779519272478, 38.93000644592108 ], [ -9.236060465712438, 38.931666495394524 ], [ -9.236229342190425, 38.933335668658465 ], [ -9.236285685827752, 38.93500939013957 ], [ -9.236229342190425, 38.936683072120836 ], [ -9.236060465712438, 38.938352127318069 ], [ -9.235779519272478, 38.940011981451462 ], [ -9.235387272925211, 38.941658085778144 ], [ -9.234884801790605, 38.943285929551173 ], [ -9.234273483107117, 38.944891052370984 ], [ -9.233554992456765, 38.946469056395664 ], [ -9.232731299172483, 38.948015618376594 ], [ -9.231804660940305, 38.949526501486893 ], [ -9.230777617611219, 38.950997566910132 ], [ -9.2296529842396, 38.952424785158243 ], [ -9.228433843367343, 38.953804247087525 ], [ -9.227123536574844, 38.955132174583113 ], [ -9.225725655321941, 38.956404930882762 ], [ -9.224244031103979, 38.957619030512234 ], [ -9.222682724949959, 38.958771148805042 ], [ -9.221046016291519, 38.959858130981374 ], [ -9.219338391233327, 38.960877000761073 ], [ -9.217564530256972, 38.961824968487882 ], [ -9.215729295392093, 38.962699438742916 ], [ -9.213837716889884, 38.963498017426772 ], [ -9.211894979435543, 38.96421851829129 ], [ -9.209906407937392, 38.964858968903471 ], [ -9.207877452931683, 38.965417616025306 ], [ -9.205813675643055, 38.965892930395327 ], [ -9.203720732741608, 38.966283610898714 ], [ -9.201604360838353, 38.966588588115144 ], [ -9.19947036076157, 38.96680702723453 ], [ -9.197324581657139, 38.966938330333008 ], [ -9.195172904956431, 38.966982138003004 ], [ -9.193021228255724, 38.966938330333008 ], [ -9.190875449151292, 38.96680702723453 ], [ -9.188741449074509, 38.966588588115144 ], [ -9.186625077171255, 38.966283610898714 ], [ -9.184532134269807, 38.965892930395327 ], [ -9.182468356981181, 38.965417616025306 ], [ -9.18043940197547, 38.964858968903471 ], [ -9.178450830477319, 38.96421851829129 ], [ -9.176508093022976, 38.963498017426772 ], [ -9.174616514520769, 38.962699438742916 ], [ -9.17278127965589, 38.961824968487882 ], [ -9.171007418679535, 38.960877000761073 ], [ -9.169299793621345, 38.959858130981374 ], [ -9.167663084962903, 38.958771148805042 ], [ -9.166101778808882, 38.957619030512234 ], [ -9.164620154590922, 38.956404930882762 ], [ -9.163222273338018, 38.955132174583113 ], [ -9.161911966545517, 38.953804247087525 ], [ -9.160692825673264, 38.952424785158243 ], [ -9.159568192301643, 38.950997566910132 ], [ -9.158541148972557, 38.949526501486893 ], [ -9.157614510740379, 38.948015618376594 ], [ -9.156790817456095, 38.946469056395664 ], [ -9.156072326805745, 38.944891052370984 ], [ -9.155461008122257, 38.943285929551173 ], [ -9.154958536987653, 38.941658085778144 ], [ -9.154566290640382, 38.940011981451462 ], [ -9.154285344200424, 38.938352127318069 ], [ -9.154116467722437, 38.936683072120836 ], [ -9.15406012408511, 38.93500939013957 ] ] ] } },
{ "type": "Feature", "properties": { "name": "Milharado", "feature_type": "mrr", "metric_roundness": 51.64, "metric_rectangularity": 60.63, "metric_mobile_fit": 51.65, "metric_aspect_ratio": 1.046, "metric_area_km2": 33.96 }, "geometry": { "type": "Polygon", "coordinates": [ [ [ -9.193258003429131, 38.901569683474754 ], [ -9.233097620816697, 38.948073934042014 ], [ -9.180731155998576, 38.975211883151665 ], [ -9.14089153861101, 38.928725432607642 ], [ -9.193258003429131, 38.901569683474754 ] ] ] } }
]
}
