{
"type": "FeatureCollection",
"name": "mirosov",
"crs": { "type": "name", "properties": { "name": "urn:ogc:def:crs:OGC:1.3:CRS84" } },
"features": [
{ "type": "Feature", "properties": { "name": "Mirošov", "metric_roundness": 45.49, "metric_rectangularity": 63.87, "metric_mobile_fit": 71.74, "metric_aspect_ratio": 0.845, "metric_area_km2": 9.42 }, "geometry": { "type": "Polygon", "coordinates": [ [ [ 15.4598431, 49.3988842 ], [ 15.447465, 49.404742499999983 ], [ 15.4470377, 49.39775 ], [ 15.4411755, 49.387808499999984 ], [ 15.4409415, 49.3808455 ], [ 15.472976, 49.38007 ], [ 15.4707955, 49.3877455 ], [ 15.4598431, 49.3988842 ] ] ] } }
]
}
