{
"type": "FeatureCollection",
"name": "valdecolmenas_los",
"crs": { "type": "name", "properties": { "name": "urn:ogc:def:crs:OGC:1.3:CRS84" } },
"features": [
{ "type": "Feature", "properties": { "name": "Valdecolmenas, Los", "metric_roundness": 49.56, "metric_rectangularity": 70.32, "metric_mobile_fit": 10.99, "metric_aspect_ratio": 1.453, "metric_area_km2": 53.41 }, "geometry": { "type": "Polygon", "coordinates": [ [ [ -2.4207675, 40.110164499999989 ], [ -2.423368, 40.1091765 ], [ -2.4356235, 40.1100845 ], [ -2.439009, 40.110786499999982 ], [ -2.4424565, 40.1125145 ], [ -2.445279, 40.113266 ], [ -2.448151, 40.114982499999989 ], [ -2.4496085, 40.118992 ], [ -2.451787, 40.122463 ], [ -2.4523515, 40.125229 ], [ -2.4592675, 40.129371499999984 ], [ -2.5035832, 40.1353299 ], [ -2.5146222, 40.1230833 ], [ -2.517665, 40.1105655 ], [ -2.5042928, 40.0984549 ], [ -2.4925743, 40.0951703 ], [ -2.488992, 40.087856 ], [ -2.4769025, 40.0901985 ], [ -2.4750595, 40.090377 ], [ -2.471155, 40.0900995 ], [ -2.45879, 40.08588 ], [ -2.4508905, 40.0865975 ], [ -2.4449715, 40.085968 ], [ -2.4413175, 40.0839385 ], [ -2.43604, 40.082401 ], [ -2.432231, 40.080654 ], [ -2.423225, 40.094097 ], [ -2.415585, 40.099949 ], [ -2.413822, 40.1003725 ], [ -2.4207675, 40.110164499999989 ] ] ] } }
]
}
