{
"type": "FeatureCollection",
"name": "valvigneres",
"crs": { "type": "name", "properties": { "name": "urn:ogc:def:crs:OGC:1.3:CRS84" } },
"features": [
{ "type": "Feature", "properties": { "name": "Valvignères", "metric_roundness": 58.34, "metric_rectangularity": 65.26, "metric_mobile_fit": 45.03, "metric_aspect_ratio": 1.112, "metric_area_km2": 59.15 }, "geometry": { "type": "Polygon", "coordinates": [ [ [ 4.5125861, 44.5025818 ], [ 4.503754, 44.4954944 ], [ 4.5152588, 44.4914243 ], [ 4.520151, 44.486045 ], [ 4.5399034, 44.482389499999982 ], [ 4.5620742, 44.4724789 ], [ 4.5697065, 44.477270299999986 ], [ 4.586848, 44.480433499999982 ], [ 4.5914384, 44.4785274 ], [ 4.5950295, 44.480455 ], [ 4.6042684, 44.502033 ], [ 4.6020036, 44.5143783 ], [ 4.5886805, 44.524966 ], [ 4.5740192, 44.5264987 ], [ 4.55911, 44.536932 ], [ 4.5562593, 44.5349372 ], [ 4.5585441, 44.5208364 ], [ 4.550182, 44.5045613 ], [ 4.545444, 44.505002799999986 ], [ 4.5318884, 44.514853 ], [ 4.516776, 44.51213 ], [ 4.5125861, 44.5025818 ] ] ] } }
]
}
