{
"type": "FeatureCollection",
"name": "varenne_l_arconce",
"crs": { "type": "name", "properties": { "name": "urn:ogc:def:crs:OGC:1.3:CRS84" } },
"features": [
{ "type": "Feature", "properties": { "name": "Varenne-l'Arconce", "feature_type": "entity", "metric_roundness": 64.45, "metric_rectangularity": 70.47, "metric_mobile_fit": 78.52, "metric_aspect_ratio": 0.777, "metric_area_km2": 17.1 }, "geometry": { "type": "Polygon", "coordinates": [ [ [ 4.1722041, 46.334991199999983 ], [ 4.1716677, 46.3432287 ], [ 4.175874, 46.351947 ], [ 4.1636771, 46.3586205 ], [ 4.1390345, 46.350152 ], [ 4.1358798, 46.3424954 ], [ 4.1403297, 46.333582699999987 ], [ 4.153666, 46.323236499999986 ], [ 4.1576925, 46.323216499999987 ], [ 4.159789, 46.323768 ], [ 4.1622345, 46.323099 ], [ 4.1641345, 46.3235635 ], [ 4.1722041, 46.334991199999983 ] ] ] } },
{ "type": "Feature", "properties": { "name": "Varenne-l'Arconce", "feature_type": "circle", "metric_roundness": 64.45, "metric_rectangularity": 70.47, "metric_mobile_fit": 78.52, "metric_aspect_ratio": 0.777, "metric_area_km2": 17.1 }, "geometry": { "type": "Polygon", "coordinates": [ [ [ 4.18478281992588, 46.340931362442767 ], [ 4.184747035337933, 46.339987929262335 ], [ 4.184639779657159, 46.339047065754514 ], [ 4.184461346863925, 46.338111350960638 ], [ 4.184212226030112, 46.337183349940567 ], [ 4.183893099978612, 46.336265606738451 ], [ 4.18350484341175, 46.335360637404648 ], [ 4.183048520513787, 46.334470923093058 ], [ 4.182525382034068, 46.333598903252813 ], [ 4.181936861858802, 46.332746968933129 ], [ 4.181284573080885, 46.331917456219685 ], [ 4.180570303578514, 46.331112639820724 ], [ 4.179796011114749, 46.330334726820453 ], [ 4.178963817971411, 46.329585850617178 ], [ 4.178076005132062, 46.328868065062643 ], [ 4.177135006029982, 46.32818333881913 ], [ 4.176143399878304, 46.327533549949614 ], [ 4.175103904600562, 46.326920480756151 ], [ 4.17401936938106, 46.326345812880767 ], [ 4.172892766855449, 46.325811122682317 ], [ 4.17172718496294, 46.325317876902304 ], [ 4.170525818482485, 46.324867428631563 ], [ 4.169291960276098, 46.324461013589072 ], [ 4.168028992263362, 46.324099746723164 ], [ 4.166740376151808, 46.323784619144703 ], [ 4.165429643948631, 46.323516495400554 ], [ 4.164100388279689, 46.323296111095146 ], [ 4.162756252542376, 46.323124070866619 ], [ 4.161400920919319, 46.323000846723161 ], [ 4.160038108280289, 46.322926776744296 ], [ 4.15867155, 46.32290206415054 ], [ 4.157304991719712, 46.322926776744296 ], [ 4.155942179080681, 46.323000846723161 ], [ 4.154586847457624, 46.323124070866619 ], [ 4.153242711720312, 46.323296111095146 ], [ 4.15191345605137, 46.323516495400554 ], [ 4.150602723848191, 46.323784619144703 ], [ 4.149314107736639, 46.324099746723164 ], [ 4.148051139723901, 46.324461013589072 ], [ 4.146817281517515, 46.324867428631563 ], [ 4.14561591503706, 46.325317876902304 ], [ 4.144450333144551, 46.325811122682317 ], [ 4.143323730618939, 46.326345812880767 ], [ 4.142239195399437, 46.326920480756151 ], [ 4.141199700121696, 46.327533549949614 ], [ 4.140208093970017, 46.32818333881913 ], [ 4.139267094867939, 46.328868065062643 ], [ 4.138379282028589, 46.329585850617178 ], [ 4.137547088885251, 46.330334726820453 ], [ 4.136772796421485, 46.331112639820724 ], [ 4.136058526919115, 46.331917456219685 ], [ 4.135406238141196, 46.332746968933129 ], [ 4.134817717965932, 46.333598903252813 ], [ 4.134294579486212, 46.334470923093058 ], [ 4.13383825658825, 46.335360637404648 ], [ 4.133450000021386, 46.336265606738451 ], [ 4.133130873969886, 46.337183349940567 ], [ 4.132881753136076, 46.338111350960638 ], [ 4.13270332034284, 46.339047065754514 ], [ 4.132596064662066, 46.339987929262335 ], [ 4.132560280074119, 46.340931362442767 ], [ 4.132596064662066, 46.341874779344195 ], [ 4.13270332034284, 46.342815594193368 ], [ 4.132881753136076, 46.343751228482063 ], [ 4.133130873969886, 46.34467911803246 ], [ 4.133450000021386, 46.345596720021682 ], [ 4.13383825658825, 46.346501519946521 ], [ 4.134294579486212, 46.347391038509187 ], [ 4.134817717965932, 46.348262838405191 ], [ 4.135406238141196, 46.349114530995074 ], [ 4.136058526919115, 46.349943782841606 ], [ 4.136772796421485, 46.350748322094667 ], [ 4.137547088885251, 46.351525944706495 ], [ 4.138379282028589, 46.352274520460355 ], [ 4.139267094867939, 46.352991998796284 ], [ 4.140208093970017, 46.353676414417947 ], [ 4.141199700121696, 46.354325892665635 ], [ 4.142239195399437, 46.354938654640485 ], [ 4.143323730618939, 46.355513022066461 ], [ 4.144450333144551, 46.356047421876482 ], [ 4.14561591503706, 46.356540390510595 ], [ 4.146817281517515, 46.356990577914438 ], [ 4.148051139723901, 46.357396751227142 ], [ 4.149314107736639, 46.35775779814881 ], [ 4.150602723848191, 46.358072729978346 ], [ 4.15191345605137, 46.358340684313561 ], [ 4.153242711720312, 46.358560927406074 ], [ 4.154586847457624, 46.358732856164927 ], [ 4.155942179080681, 46.358855999803211 ], [ 4.157304991719712, 46.358930021123442 ], [ 4.15867155, 46.358954717438188 ], [ 4.160038108280289, 46.358930021123442 ], [ 4.161400920919319, 46.358855999803211 ], [ 4.162756252542376, 46.358732856164927 ], [ 4.164100388279689, 46.358560927406074 ], [ 4.165429643948631, 46.358340684313561 ], [ 4.166740376151808, 46.358072729978346 ], [ 4.168028992263362, 46.35775779814881 ], [ 4.169291960276098, 46.357396751227142 ], [ 4.170525818482485, 46.356990577914438 ], [ 4.17172718496294, 46.356540390510595 ], [ 4.172892766855449, 46.356047421876482 ], [ 4.17401936938106, 46.355513022066461 ], [ 4.175103904600562, 46.354938654640485 ], [ 4.176143399878304, 46.354325892665635 ], [ 4.177135006029982, 46.353676414417947 ], [ 4.178076005132062, 46.352991998796284 ], [ 4.178963817971411, 46.352274520460355 ], [ 4.179796011114749, 46.351525944706495 ], [ 4.180570303578514, 46.350748322094667 ], [ 4.181284573080885, 46.349943782841613 ], [ 4.181936861858802, 46.349114530995074 ], [ 4.182525382034068, 46.348262838405191 ], [ 4.183048520513787, 46.347391038509187 ], [ 4.18350484341175, 46.346501519946521 ], [ 4.183893099978612, 46.345596720021682 ], [ 4.184212226030112, 46.34467911803246 ], [ 4.184461346863925, 46.343751228482063 ], [ 4.184639779657159, 46.342815594193368 ], [ 4.184747035337933, 46.341874779344195 ], [ 4.18478281992588, 46.340931362442767 ] ] ] } },
{ "type": "Feature", "properties": { "name": "Varenne-l'Arconce", "feature_type": "mrr", "metric_roundness": 64.45, "metric_rectangularity": 70.47, "metric_mobile_fit": 78.52, "metric_aspect_ratio": 0.777, "metric_area_km2": 17.1 }, "geometry": { "type": "Polygon", "coordinates": [ [ [ 4.177020821432344, 46.357244506922072 ], [ 4.169311309137321, 46.321622121301118 ], [ 4.13219164029029, 46.325452277462638 ], [ 4.139901152585312, 46.361072168476689 ], [ 4.177020821432344, 46.357244506922072 ] ] ] } }
]
}
