{
"type": "FeatureCollection",
"name": "varennes_sur_teche",
"crs": { "type": "name", "properties": { "name": "urn:ogc:def:crs:OGC:1.3:CRS84" } },
"features": [
{ "type": "Feature", "properties": { "name": "Varennes-sur-Tèche", "metric_roundness": 48.44, "metric_rectangularity": 66.46, "metric_mobile_fit": 88.97, "metric_aspect_ratio": 0.673, "metric_area_km2": 38.8 }, "geometry": { "type": "Polygon", "coordinates": [ [ [ 3.6475828, 46.2960864 ], [ 3.6552675, 46.303713 ], [ 3.6543892, 46.308404299999985 ], [ 3.6661575, 46.3137085 ], [ 3.6673767, 46.3191871 ], [ 3.6642824, 46.323028599999986 ], [ 3.660944, 46.342339 ], [ 3.657363, 46.339276 ], [ 3.6516855, 46.3382175 ], [ 3.639017, 46.343582 ], [ 3.634098, 46.344359 ], [ 3.631642, 46.3460495 ], [ 3.6230201, 46.3412168 ], [ 3.6229472, 46.336844 ], [ 3.6147665, 46.3302452 ], [ 3.617738, 46.3125402 ], [ 3.6097546, 46.3070054 ], [ 3.6161787, 46.3007998 ], [ 3.6155665, 46.29112 ], [ 3.618713, 46.2869005 ], [ 3.6475828, 46.2960864 ] ] ] } }
]
}
