{
"type": "FeatureCollection",
"name": "vaudeville",
"crs": { "type": "name", "properties": { "name": "urn:ogc:def:crs:OGC:1.3:CRS84" } },
"features": [
{ "type": "Feature", "properties": { "name": "Vaudeville", "feature_type": "entity", "metric_roundness": 45.75, "metric_rectangularity": 59.41, "metric_mobile_fit": 21.29, "metric_aspect_ratio": 1.35, "metric_area_km2": 20.92 }, "geometry": { "type": "Polygon", "coordinates": [ [ [ 6.2326545, 48.453676699999988 ], [ 6.2103893, 48.4660258 ], [ 6.2082133, 48.468926399999987 ], [ 6.21223, 48.471952 ], [ 6.1791185, 48.464924 ], [ 6.1773197, 48.462109299999987 ], [ 6.1844801, 48.4559231 ], [ 6.1822605, 48.4502315 ], [ 6.1839985, 48.44923 ], [ 6.1864045, 48.449557 ], [ 6.190498, 48.449099499999981 ], [ 6.1959201, 48.445830799999989 ], [ 6.2041682, 48.4466762 ], [ 6.213567, 48.4410506 ], [ 6.2263885, 48.439947 ], [ 6.242206, 48.447418 ], [ 6.2424505, 48.450695 ], [ 6.239015, 48.455229 ], [ 6.2326545, 48.453676699999988 ] ] ] } },
{ "type": "Feature", "properties": { "name": "Vaudeville", "feature_type": "circle", "metric_roundness": 45.75, "metric_rectangularity": 59.41, "metric_mobile_fit": 21.29, "metric_aspect_ratio": 1.35, "metric_area_km2": 20.92 }, "geometry": { "type": "Polygon", "coordinates": [ [ [ 6.244044524331827, 48.454764181384093 ], [ 6.2439975424886, 48.453574257728157 ], [ 6.243856725732886, 48.452387567797402 ], [ 6.243622460033625, 48.451207364568674 ], [ 6.243295387496813, 48.450036883463362 ], [ 6.242876404605542, 48.448879333473087 ], [ 6.242366659762792, 48.447737888355483 ], [ 6.241767550143745, 48.44661567792425 ], [ 6.241080717866223, 48.445515779457565 ], [ 6.240308045489759, 48.444441209248275 ], [ 6.239451650855627, 48.443394914319612 ], [ 6.238513881281992, 48.442379764328876 ], [ 6.237497307130076, 48.441398543681828 ], [ 6.236404714758963, 48.44045394387949 ], [ 6.235239098888398, 48.439548556118503 ], [ 6.234003654390464, 48.438684864165651 ], [ 6.232701767532652, 48.43786523752641 ], [ 6.231337006696348, 48.437091924926278 ], [ 6.229913112596142, 48.436367048123294 ], [ 6.228433988026786, 48.435692596068698 ], [ 6.226903687165914, 48.435070419432179 ], [ 6.225326404461814, 48.434502225507032 ], [ 6.223706463136745, 48.433989573509066 ], [ 6.222048303337277, 48.433533870282922 ], [ 6.220356469964162, 48.43313636642727 ], [ 6.218635600215079, 48.43279815285009 ], [ 6.216890410874394, 48.432520157763499 ], [ 6.215125685384783, 48.432303144126458 ], [ 6.213346260736149, 48.432147707542732 ], [ 6.211557014207765, 48.43205427461973 ], [ 6.20976285, 48.432023101793021 ], [ 6.207968685792236, 48.43205427461973 ], [ 6.206179439263852, 48.432147707542732 ], [ 6.204400014615218, 48.432303144126458 ], [ 6.202635289125607, 48.432520157763499 ], [ 6.200890099784921, 48.43279815285009 ], [ 6.199169230035839, 48.43313636642727 ], [ 6.197477396662723, 48.433533870282922 ], [ 6.195819236863255, 48.433989573509066 ], [ 6.194199295538187, 48.434502225507032 ], [ 6.192622012834088, 48.435070419432179 ], [ 6.191091711973216, 48.435692596068698 ], [ 6.189612587403859, 48.436367048123294 ], [ 6.188188693303652, 48.437091924926278 ], [ 6.186823932467348, 48.43786523752641 ], [ 6.185522045609537, 48.438684864165651 ], [ 6.184286601111602, 48.439548556118503 ], [ 6.183120985241038, 48.44045394387949 ], [ 6.182028392869925, 48.441398543681828 ], [ 6.181011818718008, 48.442379764328876 ], [ 6.180074049144373, 48.443394914319612 ], [ 6.179217654510241, 48.444441209248275 ], [ 6.178444982133778, 48.445515779457565 ], [ 6.177758149856255, 48.44661567792425 ], [ 6.177159040237209, 48.447737888355483 ], [ 6.176649295394459, 48.448879333473087 ], [ 6.176230312503187, 48.450036883463362 ], [ 6.175903239966376, 48.451207364568674 ], [ 6.175668974267114, 48.452387567797402 ], [ 6.1755281575114, 48.453574257728157 ], [ 6.175481175668174, 48.454764181384093 ], [ 6.1755281575114, 48.45595407715274 ], [ 6.175668974267114, 48.457140683727211 ], [ 6.175903239966376, 48.458320749043899 ], [ 6.176230312503187, 48.459491039192415 ], [ 6.176649295394459, 48.460648347273313 ], [ 6.177159040237209, 48.461789502179364 ], [ 6.177758149856255, 48.462911377276463 ], [ 6.178444982133778, 48.46401089896046 ], [ 6.179217654510241, 48.465085055066602 ], [ 6.180074049144373, 48.466130903108656 ], [ 6.181011818718008, 48.467145578325521 ], [ 6.182028392869925, 48.468126301513131 ], [ 6.183120985241038, 48.46907038662075 ], [ 6.184286601111602, 48.469975248090847 ], [ 6.185522045609537, 48.470838407922784 ], [ 6.186823932467348, 48.471657502441111 ], [ 6.188188693303652, 48.472430288750346 ], [ 6.189612587403859, 48.473154650858625 ], [ 6.191091711973216, 48.473828605453818 ], [ 6.192622012834088, 48.474450307316459 ], [ 6.194199295538187, 48.475018054355033 ], [ 6.195819236863255, 48.475530292249871 ], [ 6.197477396662723, 48.47598561869335 ], [ 6.199169230035839, 48.476382787214909 ], [ 6.200890099784921, 48.476720710580544 ], [ 6.202635289125606, 48.476998463757788 ], [ 6.204400014615218, 48.477215286438046 ], [ 6.206179439263852, 48.477370585109753 ], [ 6.207968685792236, 48.477463934676472 ], [ 6.20976285, 48.477495079615906 ], [ 6.211557014207765, 48.477463934676472 ], [ 6.213346260736149, 48.477370585109753 ], [ 6.215125685384783, 48.477215286438046 ], [ 6.216890410874394, 48.476998463757788 ], [ 6.218635600215079, 48.476720710580544 ], [ 6.220356469964162, 48.476382787214909 ], [ 6.222048303337277, 48.47598561869335 ], [ 6.223706463136745, 48.475530292249871 ], [ 6.225326404461814, 48.475018054355033 ], [ 6.226903687165914, 48.474450307316459 ], [ 6.228433988026786, 48.473828605453818 ], [ 6.229913112596142, 48.473154650858625 ], [ 6.231337006696348, 48.472430288750346 ], [ 6.232701767532652, 48.471657502441111 ], [ 6.234003654390464, 48.470838407922784 ], [ 6.235239098888398, 48.469975248090847 ], [ 6.236404714758962, 48.46907038662075 ], [ 6.237497307130076, 48.468126301513131 ], [ 6.238513881281992, 48.467145578325521 ], [ 6.239451650855627, 48.466130903108656 ], [ 6.240308045489759, 48.465085055066602 ], [ 6.241080717866223, 48.46401089896046 ], [ 6.241767550143745, 48.462911377276463 ], [ 6.242366659762792, 48.461789502179364 ], [ 6.242876404605542, 48.460648347273313 ], [ 6.243295387496813, 48.459491039192415 ], [ 6.243622460033625, 48.458320749043899 ], [ 6.243856725732886, 48.457140683727211 ], [ 6.2439975424886, 48.45595407715274 ], [ 6.244044524331827, 48.454764181384093 ] ] ] } },
{ "type": "Feature", "properties": { "name": "Vaudeville", "feature_type": "mrr", "metric_roundness": 45.75, "metric_rectangularity": 59.41, "metric_mobile_fit": 21.29, "metric_aspect_ratio": 1.35, "metric_area_km2": 20.92 }, "geometry": { "type": "Polygon", "coordinates": [ [ [ 6.19996874839626, 48.47960537450637 ], [ 6.246584187932814, 48.450502238391387 ], [ 6.21615310757428, 48.429060940374811 ], [ 6.169537668037726, 48.458176365860396 ], [ 6.19996874839626, 48.47960537450637 ] ] ] } }
]
}
