{
"type": "FeatureCollection",
"name": "stanisesti",
"crs": { "type": "name", "properties": { "name": "urn:ogc:def:crs:OGC:1.3:CRS84" } },
"features": [
{ "type": "Feature", "properties": { "name": "Stănişeşti", "feature_type": "entity", "metric_roundness": 16.09, "metric_rectangularity": 52.42, "metric_mobile_fit": 77.66, "metric_aspect_ratio": 0.339, "metric_area_km2": 170.8 }, "geometry": { "type": "Polygon", "coordinates": [ [ [ 27.358851, 46.372959599999987 ], [ 27.3582887, 46.383830299999985 ], [ 27.3473732, 46.405339399999981 ], [ 27.340325, 46.4094477 ], [ 27.3351483, 46.417648 ], [ 27.3271254, 46.429156499999976 ], [ 27.3282386, 46.476671699999983 ], [ 27.3247141, 46.4842421 ], [ 27.3242084, 46.511695 ], [ 27.312599, 46.537145599999988 ], [ 27.305059, 46.5443785 ], [ 27.292687, 46.5611943 ], [ 27.2748045, 46.564107499999984 ], [ 27.279379, 46.5351075 ], [ 27.2831588, 46.527040099999986 ], [ 27.2847614, 46.5065418 ], [ 27.2879019, 46.4991464 ], [ 27.2873188, 46.488110699999986 ], [ 27.2919386, 46.4691908 ], [ 27.2892065, 46.4647876 ], [ 27.2964891, 46.451463199999978 ], [ 27.2893911, 46.448095699999989 ], [ 27.2736528, 46.447432199999987 ], [ 27.2676685, 46.433525 ], [ 27.2735059, 46.4297155 ], [ 27.2799678, 46.410052699999987 ], [ 27.2919515, 46.4088869 ], [ 27.2980504, 46.400371599999986 ], [ 27.3008407, 46.3837126 ], [ 27.3090465, 46.3718709 ], [ 27.3092989, 46.361803699999982 ], [ 27.3152055, 46.356176 ], [ 27.325252, 46.340979499999989 ], [ 27.3351483, 46.343585 ], [ 27.354815, 46.3484477 ], [ 27.3571213, 46.352625199999984 ], [ 27.3649513, 46.347611199999989 ], [ 27.3774945, 46.3479715 ], [ 27.358851, 46.372959599999987 ] ] ] } },
{ "type": "Feature", "properties": { "name": "Stănişeşti", "feature_type": "circle", "metric_roundness": 16.09, "metric_rectangularity": 52.42, "metric_mobile_fit": 77.66, "metric_aspect_ratio": 0.339, "metric_area_km2": 170.8 }, "geometry": { "type": "Polygon", "coordinates": [ [ [ 27.485516778964588, 46.454838204806556 ], [ 27.48529041884607, 46.448882564705634 ], [ 27.484611958927864, 46.442942600013318 ], [ 27.483483258821447, 46.437034599749374 ], [ 27.481907412215353, 46.431174770554975 ], [ 27.479888738395598, 46.425379192126627 ], [ 27.477432770406804, 46.419663772942279 ], [ 27.474546239886518, 46.414044206403211 ], [ 27.47123705861425, 46.408535927514563 ], [ 27.467514296825854, 46.403154070226726 ], [ 27.463388158352625, 46.397913425558315 ], [ 27.458869952653313, 46.392828400619777 ], [ 27.453972063815684, 46.387912978654917 ], [ 27.448707916612594, 46.383180680214736 ], [ 27.443091939705621, 46.378644525575695 ], [ 27.437139526097102, 46.374316998511027 ], [ 27.430866990938988, 46.370210011520406 ], [ 27.424291526814162, 46.366334872619198 ], [ 27.417431156612722, 46.362702253784605 ], [ 27.410304684132537, 46.359322161151297 ], [ 27.402931642539322, 46.356203907044154 ], [ 27.395332240827582, 46.353356083930869 ], [ 27.387527308429192, 46.350786540371431 ], [ 27.379538238121334, 46.348502359035962 ], [ 27.371386927390414, 46.346509836856214 ], [ 27.363095718412552, 46.344814467369986 ], [ 27.354687336815239, 46.343420925311122 ], [ 27.346184829387976, 46.342333053491316 ], [ 27.337611500912615, 46.341553852012808 ], [ 27.328990850286594, 46.341085469844614 ], [ 27.320346506114053, 46.3409291987873 ], [ 27.311702161941511, 46.341085469844614 ], [ 27.303081511315487, 46.341553852012808 ], [ 27.294508182840129, 46.342333053491316 ], [ 27.286005675412866, 46.343420925311122 ], [ 27.277597293815553, 46.344814467369986 ], [ 27.269306084837687, 46.346509836856214 ], [ 27.261154774106767, 46.348502359035962 ], [ 27.253165703798913, 46.350786540371431 ], [ 27.24536077140052, 46.353356083930869 ], [ 27.237761369688783, 46.356203907044154 ], [ 27.230388328095565, 46.359322161151297 ], [ 27.223261855615384, 46.362702253784605 ], [ 27.216401485413943, 46.366334872619198 ], [ 27.209826021289114, 46.370210011520406 ], [ 27.203553486131003, 46.374316998511027 ], [ 27.197601072522485, 46.378644525575695 ], [ 27.191985095615511, 46.383180680214736 ], [ 27.186720948412422, 46.387912978654917 ], [ 27.181823059574789, 46.392828400619777 ], [ 27.17730485387548, 46.397913425558315 ], [ 27.173178715402251, 46.403154070226726 ], [ 27.169455953613852, 46.408535927514563 ], [ 27.166146772341584, 46.414044206403211 ], [ 27.163260241821298, 46.419663772942279 ], [ 27.160804273832508, 46.425379192126627 ], [ 27.158785600012752, 46.431174770554975 ], [ 27.157209753406658, 46.437034599749374 ], [ 27.156081053300245, 46.442942600013318 ], [ 27.155402593382036, 46.448882564705634 ], [ 27.155176233263518, 46.454838204806556 ], [ 27.155402593382036, 46.460793193652265 ], [ 27.156081053300245, 46.466731211714247 ], [ 27.157209753406658, 46.4726359913005 ], [ 27.158785600012752, 46.478491361056406 ], [ 27.160804273832508, 46.484281290144189 ], [ 27.163260241821298, 46.489989931981441 ], [ 27.166146772341584, 46.495601667421163 ], [ 27.169455953613852, 46.501101147257643 ], [ 27.173178715402251, 46.506473333945003 ], [ 27.17730485387548, 46.511703542418005 ], [ 27.181823059574789, 46.516777479907574 ], [ 27.186720948412422, 46.521681284646519 ], [ 27.191985095615511, 46.5264015633648 ], [ 27.197601072522485, 46.530925427476653 ], [ 27.203553486131003, 46.535240527866506 ], [ 27.209826021289114, 46.539335088183989 ], [ 27.216401485413943, 46.543197936562926 ], [ 27.223261855615384, 46.546818535683563 ], [ 27.230388328095565, 46.550187011101606 ], [ 27.237761369688783, 46.553294177772642 ], [ 27.24536077140052, 46.556131564705041 ], [ 27.253165703798913, 46.558691437679549 ], [ 27.261154774106767, 46.560966819978745 ], [ 27.269306084837687, 46.562951511074708 ], [ 27.277597293815553, 46.564640103228378 ], [ 27.286005675412866, 46.566027995959523 ], [ 27.294508182840129, 46.567111408351487 ], [ 27.303081511315487, 46.567887389160255 ], [ 27.311702161941511, 46.568353824703017 ], [ 27.320346506114053, 46.56850944450678 ], [ 27.328990850286594, 46.568353824703017 ], [ 27.337611500912615, 46.567887389160255 ], [ 27.346184829387976, 46.567111408351487 ], [ 27.354687336815239, 46.566027995959523 ], [ 27.363095718412552, 46.564640103228378 ], [ 27.371386927390414, 46.562951511074708 ], [ 27.379538238121334, 46.560966819978745 ], [ 27.387527308429192, 46.558691437679549 ], [ 27.395332240827582, 46.556131564705041 ], [ 27.402931642539322, 46.553294177772642 ], [ 27.410304684132537, 46.550187011101606 ], [ 27.417431156612722, 46.546818535683563 ], [ 27.424291526814162, 46.543197936562926 ], [ 27.430866990938988, 46.539335088183989 ], [ 27.437139526097102, 46.535240527866506 ], [ 27.443091939705621, 46.530925427476653 ], [ 27.448707916612594, 46.5264015633648 ], [ 27.453972063815684, 46.521681284646519 ], [ 27.458869952653313, 46.516777479907574 ], [ 27.463388158352625, 46.511703542418005 ], [ 27.467514296825854, 46.506473333945003 ], [ 27.47123705861425, 46.501101147257643 ], [ 27.474546239886518, 46.495601667421163 ], [ 27.477432770406804, 46.489989931981441 ], [ 27.479888738395598, 46.484281290144189 ], [ 27.481907412215353, 46.478491361056406 ], [ 27.483483258821447, 46.4726359913005 ], [ 27.484611958927864, 46.466731211714247 ], [ 27.48529041884607, 46.460793193652265 ], [ 27.485516778964588, 46.454838204806556 ] ] ] } },
{ "type": "Feature", "properties": { "name": "Stănişeşti", "feature_type": "mrr", "metric_roundness": 16.09, "metric_rectangularity": 52.42, "metric_mobile_fit": 77.66, "metric_aspect_ratio": 0.339, "metric_area_km2": 170.8 }, "geometry": { "type": "Polygon", "coordinates": [ [ [ 27.305568081180031, 46.568852010304504 ], [ 27.3774945, 46.3479715 ], [ 27.299421821303817, 46.335880978735794 ], [ 27.22749538659766, 46.55681043327268 ], [ 27.305568081180031, 46.568852010304504 ] ] ] } }
]
}
