{
"type": "FeatureCollection",
"name": "stara_kiszewa",
"crs": { "type": "name", "properties": { "name": "urn:ogc:def:crs:OGC:1.3:CRS84" } },
"features": [
{ "type": "Feature", "properties": { "name": "Stara Kiszewa", "feature_type": "entity", "metric_roundness": 44.69, "metric_rectangularity": 63.34, "metric_mobile_fit": 19.76, "metric_aspect_ratio": 1.365, "metric_area_km2": 611.47 }, "geometry": { "type": "Polygon", "coordinates": [ [ [ 18.018954, 53.9109791 ], [ 18.0172681, 53.9055062 ], [ 18.0304404, 53.901948699999977 ], [ 18.0975737, 53.930291 ], [ 18.1063775, 53.925514 ], [ 18.123598, 53.933214899999982 ], [ 18.1361612, 53.9339599 ], [ 18.1362368, 53.947320899999987 ], [ 18.1432875, 53.9513022 ], [ 18.1651492, 53.9613241 ], [ 18.2012763, 53.956319899999976 ], [ 18.202665, 53.9513022 ], [ 18.1999318, 53.9439849 ], [ 18.2156227, 53.9414563 ], [ 18.2208769, 53.946719399999985 ], [ 18.2402025, 53.9479349 ], [ 18.2418007, 53.9513022 ], [ 18.2549154, 53.9598613 ], [ 18.2664565, 53.952463 ], [ 18.3024671, 53.9652009 ], [ 18.317156, 53.977928899999988 ], [ 18.3357953, 53.9757531 ], [ 18.3443318, 53.976426199999985 ], [ 18.3493208, 53.9775962 ], [ 18.3357953, 53.996701699999981 ], [ 18.3252625, 54.0032475 ], [ 18.3031692, 53.993131499999976 ], [ 18.2819323, 53.9934101 ], [ 18.2796264, 53.9973342 ], [ 18.2942444, 54.009525799999984 ], [ 18.2868273, 54.015119399999989 ], [ 18.288406, 54.019442 ], [ 18.2657322, 54.0295276 ], [ 18.2416732, 54.02523009999998 ], [ 18.2192355, 54.0273202 ], [ 18.2164213, 54.033308099999985 ], [ 18.2003528, 54.047080199999989 ], [ 18.1897637, 54.0482443 ], [ 18.1741011, 54.0432994 ], [ 18.163554, 54.044244699999986 ], [ 18.1538736, 54.0526578 ], [ 18.1471393, 54.0519075 ], [ 18.1307495, 54.057551 ], [ 18.1129513, 54.051818799999978 ], [ 18.1078117, 54.0394769 ], [ 18.1012729, 54.03632589999998 ], [ 18.0943824, 54.0380215 ], [ 18.0916485, 54.04426669999998 ], [ 18.0855887, 54.041176 ], [ 18.0724906, 54.0436981 ], [ 18.0667091, 54.0361307 ], [ 18.0434537, 54.032308699999987 ], [ 18.0268867, 54.035203599999988 ], [ 18.0022759, 54.0336723 ], [ 18.0007041, 54.0204263 ], [ 18.0164664, 54.0136803 ], [ 18.0181804, 54.010843799999989 ], [ 18.0142592, 54.0071047 ], [ 18.0178773, 54.003751899999976 ], [ 18.008881, 53.9963995 ], [ 18.0018644, 53.998297699999981 ], [ 17.9881745, 53.99248649999997 ], [ 18.0113887, 53.974020899999985 ], [ 18.020707, 53.9513022 ], [ 18.0259325, 53.9428953 ], [ 18.0216817, 53.934348199999981 ], [ 18.029625, 53.923432399999989 ], [ 18.0141535, 53.914868499999983 ], [ 18.018954, 53.9109791 ] ] ] } },
{ "type": "Feature", "properties": { "name": "Stara Kiszewa", "feature_type": "circle", "metric_roundness": 44.69, "metric_rectangularity": 63.34, "metric_mobile_fit": 19.76, "metric_aspect_ratio": 1.365, "metric_area_km2": 611.47 }, "geometry": { "type": "Polygon", "coordinates": [ [ [ 18.349345879987926, 53.975792622141739 ], [ 18.349088907815627, 53.970020713663217 ], [ 18.348318695641598, 53.964263829333724 ], [ 18.347037354563863, 53.958537758138419 ], [ 18.345248396649257, 53.952858211032833 ], [ 18.342956725307072, 53.947240777703378 ], [ 18.340168621849166, 53.941700883591977 ], [ 18.336891728273322, 53.936253747304704 ], [ 18.333135026317052, 53.930914338525113 ], [ 18.328908812839295, 53.925697336551416 ], [ 18.324224671597435, 53.920617089575849 ], [ 18.319095441497023, 53.915687574823323 ], [ 18.313535181401232, 53.910922359664355 ], [ 18.307559131596502, 53.906334563815186 ], [ 18.301183672019956, 53.901936822735415 ], [ 18.29442627736314, 53.897741252330526 ], [ 18.287305469175106, 53.893759415063371 ], [ 18.279840765096136, 53.890002287574887 ], [ 18.272052625361248, 53.886480229910333 ], [ 18.26396239672011, 53.883202956443064 ], [ 18.255592253927077, 53.880179508582849 ], [ 18.246965138961748, 53.877418229350923 ], [ 18.238104698146575, 53.874926739898534 ], [ 18.229035217333955, 53.872711918040082 ], [ 18.219781555340383, 53.870779878865932 ], [ 18.210369075810167, 53.869135957494116 ], [ 18.200823577695445, 53.867784694013402 ], [ 18.191171224543051, 53.866729820663849 ], [ 18.181438472782048, 53.86597425129402 ], [ 18.171651999208503, 53.865520073127307 ], [ 18.161838627866228, 53.865368540862576 ], [ 18.152025256523952, 53.865520073127307 ], [ 18.142238782950407, 53.86597425129402 ], [ 18.132506031189408, 53.866729820663849 ], [ 18.122853678037014, 53.867784694013402 ], [ 18.113308179922292, 53.869135957494116 ], [ 18.103895700392076, 53.870779878865932 ], [ 18.094642038398504, 53.872711918040082 ], [ 18.085572557585884, 53.874926739898534 ], [ 18.076712116770711, 53.877418229350923 ], [ 18.068085001805382, 53.880179508582849 ], [ 18.059714859012349, 53.883202956443064 ], [ 18.051624630371208, 53.886480229910333 ], [ 18.043836490636323, 53.890002287574887 ], [ 18.036371786557353, 53.893759415063371 ], [ 18.029250978369323, 53.897741252330526 ], [ 18.022493583712507, 53.901936822735415 ], [ 18.016118124135957, 53.906334563815186 ], [ 18.010142074331231, 53.910922359664355 ], [ 18.00458181423544, 53.915687574823323 ], [ 17.999452584135028, 53.920617089575849 ], [ 17.994768442893164, 53.925697336551416 ], [ 17.990542229415407, 53.930914338525113 ], [ 17.986785527459134, 53.936253747304704 ], [ 17.983508633883293, 53.941700883591977 ], [ 17.980720530425387, 53.947240777703378 ], [ 17.978428859083202, 53.952858211032833 ], [ 17.976639901168596, 53.958537758138419 ], [ 17.975358560090864, 53.964263829333724 ], [ 17.974588347916828, 53.970020713663217 ], [ 17.97433137574453, 53.975792622141739 ], [ 17.974588347916828, 53.981563731137271 ], [ 17.975358560090864, 53.987318225777109 ], [ 17.976639901168596, 53.993040343258116 ], [ 17.978428859083202, 53.998714415942636 ], [ 17.980720530425387, 54.004324914123238 ], [ 17.983508633883289, 54.009856488341214 ], [ 17.986785527459134, 54.015294011145158 ], [ 17.990542229415407, 54.020622618179111 ], [ 17.994768442893164, 54.025827748491267 ], [ 17.999452584135028, 54.030895183958052 ], [ 18.00458181423544, 54.035811087720319 ], [ 18.010142074331231, 54.040562041532617 ], [ 18.016118124135957, 54.045135081929175 ], [ 18.022493583712507, 54.049517735114328 ], [ 18.029250978369323, 54.053698050488798 ], [ 18.036371786557353, 54.057664632727061 ], [ 18.043836490636323, 54.061406672325454 ], [ 18.051624630371208, 54.064913974544716 ], [ 18.059714859012349, 54.068176986675113 ], [ 18.068085001805382, 54.071186823556921 ], [ 18.076712116770711, 54.073935291293438 ], [ 18.085572557585884, 54.076414909098602 ], [ 18.094642038398504, 54.07861892922606 ], [ 18.103895700392076, 54.080541354931214 ], [ 18.113308179922292, 54.08217695642297 ], [ 18.122853678037014, 54.083521284766697 ], [ 18.132506031189408, 54.084570683704953 ], [ 18.142238782950407, 54.085322299367817 ], [ 18.152025256523952, 54.085774087849408 ], [ 18.161838627866228, 54.085924820632663 ], [ 18.171651999208503, 54.085774087849408 ], [ 18.181438472782048, 54.085322299367817 ], [ 18.191171224543051, 54.084570683704953 ], [ 18.200823577695445, 54.083521284766697 ], [ 18.210369075810164, 54.08217695642297 ], [ 18.219781555340383, 54.080541354931214 ], [ 18.229035217333955, 54.07861892922606 ], [ 18.238104698146575, 54.076414909098602 ], [ 18.246965138961748, 54.073935291293438 ], [ 18.255592253927077, 54.071186823556921 ], [ 18.26396239672011, 54.068176986675113 ], [ 18.272052625361248, 54.064913974544716 ], [ 18.279840765096136, 54.061406672325454 ], [ 18.287305469175106, 54.057664632727061 ], [ 18.29442627736314, 54.053698050488798 ], [ 18.301183672019956, 54.049517735114328 ], [ 18.307559131596502, 54.045135081929175 ], [ 18.313535181401232, 54.040562041532617 ], [ 18.319095441497023, 54.035811087720319 ], [ 18.324224671597435, 54.030895183958052 ], [ 18.328908812839295, 54.025827748491267 ], [ 18.333135026317052, 54.020622618179111 ], [ 18.336891728273322, 54.015294011145158 ], [ 18.340168621849166, 54.009856488341214 ], [ 18.342956725307072, 54.004324914123238 ], [ 18.345248396649257, 53.998714415942636 ], [ 18.347037354563863, 53.993040343258116 ], [ 18.348318695641598, 53.987318225777109 ], [ 18.349088907815627, 53.981563731137271 ], [ 18.349345879987926, 53.975792622141739 ] ] ] } },
{ "type": "Feature", "properties": { "name": "Stara Kiszewa", "feature_type": "mrr", "metric_roundness": 44.69, "metric_rectangularity": 63.34, "metric_mobile_fit": 19.76, "metric_aspect_ratio": 1.365, "metric_area_km2": 611.47 }, "geometry": { "type": "Polygon", "coordinates": [ [ [ 18.353480420504365, 53.970843199380973 ], [ 18.020730142248432, 53.899876043310279 ], [ 17.94574935205943, 54.021643310237991 ], [ 18.278499630315363, 54.092403385305296 ], [ 18.353480420504365, 53.970843199380973 ] ] ] } }
]
}
