{
"type": "FeatureCollection",
"name": "stary_dzikow",
"crs": { "type": "name", "properties": { "name": "urn:ogc:def:crs:OGC:1.3:CRS84" } },
"features": [
{ "type": "Feature", "properties": { "name": "Stary Dzików", "feature_type": "entity", "metric_roundness": 55.38, "metric_rectangularity": 58.37, "metric_mobile_fit": 55.72, "metric_aspect_ratio": 1.005, "metric_area_km2": 380.62 }, "geometry": { "type": "Polygon", "coordinates": [ [ [ 22.8677683, 50.189644 ], [ 22.8691797, 50.17595 ], [ 22.8792962, 50.1651437 ], [ 22.8738924, 50.152344499999984 ], [ 22.8759706, 50.1492827 ], [ 22.8929014, 50.149744399999989 ], [ 22.8867072, 50.164056899999977 ], [ 22.891466, 50.1659235 ], [ 22.8911141, 50.1738561 ], [ 22.9031251, 50.1850885 ], [ 22.9059916, 50.1982377 ], [ 22.8651082, 50.2155534 ], [ 22.8638313, 50.218160699999984 ], [ 22.8728687, 50.219324899999982 ], [ 22.9219207, 50.2058455 ], [ 22.9498937, 50.2030381 ], [ 22.9742367, 50.206038099999986 ], [ 23.0184555, 50.2171845 ], [ 23.0316259, 50.2210032 ], [ 23.0306713, 50.2265887 ], [ 23.0366954, 50.2466995 ], [ 23.035904, 50.25339959999998 ], [ 23.0252216, 50.264590399999989 ], [ 23.0236086, 50.270037 ], [ 23.0314176, 50.2731054 ], [ 23.0320054, 50.2757289 ], [ 23.0174384, 50.274959499999987 ], [ 23.0161819, 50.2796508 ], [ 23.0125507, 50.2806592 ], [ 23.0125795, 50.2872025 ], [ 22.982653, 50.294337599999984 ], [ 22.9373405, 50.2925635 ], [ 22.8897284, 50.301306799999985 ], [ 22.85742, 50.2950405 ], [ 22.841302, 50.29763 ], [ 22.8360065, 50.269753 ], [ 22.8248685, 50.268635499999974 ], [ 22.8214465, 50.2505235 ], [ 22.7978225, 50.2094405 ], [ 22.8677683, 50.189644 ] ] ] } },
{ "type": "Feature", "properties": { "name": "Stary Dzików", "feature_type": "circle", "metric_roundness": 55.38, "metric_rectangularity": 58.37, "metric_mobile_fit": 55.72, "metric_aspect_ratio": 1.005, "metric_area_km2": 380.62 }, "geometry": { "type": "Polygon", "coordinates": [ [ [ 23.053456742133161, 50.229437423775138 ], [ 23.053274612480362, 50.22498783870622 ], [ 23.052728722726677, 50.220550036192037 ], [ 23.051820569117982, 50.21613618502635 ], [ 23.050552640840191, 50.211758391690509 ], [ 23.048928413196585, 50.207428667078304 ], [ 23.046952338082228, 50.20315889344721 ], [ 23.044629831781656, 50.198960791688201 ], [ 23.041967260123208, 50.194845889005244 ], [ 23.038971921030726, 50.190825487095623 ], [ 23.035652024520456, 50.18691063092038 ], [ 23.032016670197969, 50.18311207815357 ], [ 23.028075822316776, 50.179440269396729 ], [ 23.023840282466992, 50.175905299243951 ], [ 23.019321659968934, 50.172516888279866 ], [ 23.014532340052789, 50.169284356091282 ], [ 23.009485449911544, 50.166216595370116 ], [ 23.004194822720265, 50.163322047182454 ], [ 22.998674959720347, 50.160608677475487 ], [ 22.992940990472583, 50.158083954890486 ], [ 22.987008631388125, 50.155754829946758 ], [ 22.980894142650865, 50.15362771565718 ], [ 22.974614283649419, 50.15170846963224 ], [ 22.968186267040799, 50.150002377724938 ], [ 22.96162771157174, 50.148514139265089 ], [ 22.954956593786882, 50.147247853925954 ], [ 22.948191198756383, 50.146207010262508 ], [ 22.94135006995776, 50.145394475954831 ], [ 22.934451958449525, 50.144812489785785 ], [ 22.927515771475843, 50.144462655376579 ], [ 22.92056052064309, 50.144345936698869 ], [ 22.913605269810333, 50.144462655376579 ], [ 22.906669082836654, 50.144812489785785 ], [ 22.899770971328422, 50.145394475954831 ], [ 22.892929842529796, 50.146207010262508 ], [ 22.886164447499294, 50.147247853925954 ], [ 22.879493329714439, 50.148514139265089 ], [ 22.872934774245376, 50.150002377724938 ], [ 22.866506757636756, 50.15170846963224 ], [ 22.860226898635311, 50.15362771565718 ], [ 22.854112409898054, 50.155754829946758 ], [ 22.848180050813593, 50.158083954890486 ], [ 22.842446081565832, 50.160608677475487 ], [ 22.83692621856591, 50.163322047182454 ], [ 22.831635591374635, 50.166216595370116 ], [ 22.826588701233387, 50.169284356091282 ], [ 22.821799381317245, 50.172516888279866 ], [ 22.817280758819187, 50.175905299243951 ], [ 22.8130452189694, 50.179440269396729 ], [ 22.80910437108821, 50.18311207815357 ], [ 22.80546901676572, 50.18691063092038 ], [ 22.80214912025545, 50.190825487095623 ], [ 22.799153781162971, 50.194845889005244 ], [ 22.79649120950452, 50.198960791688201 ], [ 22.794168703203951, 50.20315889344721 ], [ 22.792192628089595, 50.207428667078304 ], [ 22.790568400445984, 50.211758391690509 ], [ 22.789300472168197, 50.21613618502635 ], [ 22.788392318559499, 50.220550036192037 ], [ 22.787846428805814, 50.22498783870622 ], [ 22.787664299153015, 50.229437423775138 ], [ 22.787846428805814, 50.233886593701982 ], [ 22.788392318559499, 50.238323155338342 ], [ 22.789300472168197, 50.242734953485808 ], [ 22.790568400445984, 50.24710990415636 ], [ 22.792192628089595, 50.251436027601116 ], [ 22.794168703203951, 50.255701481017788 ], [ 22.79649120950452, 50.259894590848667 ], [ 22.799153781162971, 50.264003884582479 ], [ 22.80214912025545, 50.268018121974841 ], [ 22.80546901676572, 50.271926325604532 ], [ 22.80910437108821, 50.275717810684277 ], [ 22.8130452189694, 50.279382214047629 ], [ 22.817280758819187, 50.28290952223562 ], [ 22.821799381317245, 50.286290098609754 ], [ 22.826588701233387, 50.289514709420644 ], [ 22.831635591374635, 50.292574548764648 ], [ 22.83692621856591, 50.295461262363943 ], [ 22.842446081565832, 50.29816697010871 ], [ 22.848180050813593, 50.300684287303696 ], [ 22.854112409898054, 50.303006344564523 ], [ 22.860226898635311, 50.305126806313275 ], [ 22.866506757636756, 50.307039887826022 ], [ 22.872934774245376, 50.308740370789344 ], [ 22.879493329714439, 50.310223617326123 ], [ 22.886164447499294, 50.31148558245556 ], [ 22.892929842529796, 50.312522824955728 ], [ 22.899770971328422, 50.313332516601577 ], [ 22.906669082836654, 50.313912449754987 ], [ 22.913605269810333, 50.314261043287956 ], [ 22.92056052064309, 50.314377346824145 ], [ 22.927515771475843, 50.314261043287956 ], [ 22.934451958449525, 50.313912449754987 ], [ 22.94135006995776, 50.313332516601577 ], [ 22.948191198756383, 50.312522824955728 ], [ 22.954956593786882, 50.31148558245556 ], [ 22.96162771157174, 50.310223617326123 ], [ 22.968186267040799, 50.308740370789344 ], [ 22.974614283649419, 50.307039887826022 ], [ 22.980894142650865, 50.305126806313275 ], [ 22.987008631388125, 50.303006344564523 ], [ 22.992940990472583, 50.300684287303696 ], [ 22.998674959720347, 50.29816697010871 ], [ 23.004194822720265, 50.295461262363943 ], [ 23.009485449911544, 50.292574548764648 ], [ 23.014532340052789, 50.289514709420644 ], [ 23.019321659968934, 50.286290098609754 ], [ 23.023840282466992, 50.28290952223562 ], [ 23.028075822316776, 50.279382214047629 ], [ 23.032016670197969, 50.275717810684277 ], [ 23.035652024520456, 50.271926325604532 ], [ 23.038971921030726, 50.268018121974841 ], [ 23.041967260123208, 50.264003884582479 ], [ 23.044629831781656, 50.259894590848667 ], [ 23.046952338082228, 50.255701481017788 ], [ 23.048928413196585, 50.251436027601116 ], [ 23.050552640840191, 50.24710990415636 ], [ 23.051820569117982, 50.242734953485808 ], [ 23.052728722726677, 50.238323155338342 ], [ 23.053274612480362, 50.233886593701982 ], [ 23.053456742133161, 50.229437423775138 ] ] ] } },
{ "type": "Feature", "properties": { "name": "Stary Dzików", "feature_type": "mrr", "metric_roundness": 55.38, "metric_rectangularity": 58.37, "metric_mobile_fit": 55.72, "metric_aspect_ratio": 1.005, "metric_area_km2": 380.62 }, "geometry": { "type": "Polygon", "coordinates": [ [ [ 23.073628965513059, 50.242558008150326 ], [ 22.8805528465778, 50.143396151470242 ], [ 22.747525250149536, 50.249548594767163 ], [ 22.940601369084792, 50.348490060134857 ], [ 23.073628965513059, 50.242558008150326 ] ] ] } }
]
}
