{
"type": "FeatureCollection",
"name": "stary_lubotyn",
"crs": { "type": "name", "properties": { "name": "urn:ogc:def:crs:OGC:1.3:CRS84" } },
"features": [
{ "type": "Feature", "properties": { "name": "Stary Lubotyń", "feature_type": "entity", "metric_roundness": 59.97, "metric_rectangularity": 61.21, "metric_mobile_fit": 61.6, "metric_aspect_ratio": 0.947, "metric_area_km2": 300.67 }, "geometry": { "type": "Polygon", "coordinates": [ [ [ 21.8740429, 52.8951292 ], [ 21.8559662, 52.896583299999989 ], [ 21.8360021, 52.893895099999988 ], [ 21.8336842, 52.890706699999988 ], [ 21.8349438, 52.883946099999982 ], [ 21.8412272, 52.8780164 ], [ 21.8525647, 52.867317199999988 ], [ 21.8682807, 52.8631657 ], [ 21.8792029, 52.86483089999998 ], [ 21.8912509, 52.8741828 ], [ 21.9058608, 52.8770824 ], [ 21.9421566, 52.8751715 ], [ 21.9447158, 52.860893299999987 ], [ 21.9542434, 52.8558955 ], [ 21.9664818, 52.857605099999979 ], [ 21.9732334, 52.8646419 ], [ 21.9816912, 52.8647363 ], [ 22.0039315, 52.877866 ], [ 22.0087874, 52.9021454 ], [ 21.9951764, 52.912259 ], [ 21.9934085, 52.918300099999989 ], [ 22.0095562, 52.92368 ], [ 22.0252014, 52.933239 ], [ 22.0271608, 52.9370597 ], [ 22.0160812, 52.9417018 ], [ 22.0143601, 52.949548199999981 ], [ 22.0068468, 52.9551246 ], [ 21.9901892, 52.958721099999984 ], [ 21.9912513, 52.961847899999981 ], [ 21.9988624, 52.964288599999982 ], [ 21.9993367, 52.9717357 ], [ 21.976098, 52.9788335 ], [ 21.9604305, 52.979814499999982 ], [ 21.9555234, 52.9799136 ], [ 21.9511463, 52.9752872 ], [ 21.9519756, 52.9658563 ], [ 21.9294837, 52.9491026 ], [ 21.9244078, 52.9490103 ], [ 21.9043078, 52.9581283 ], [ 21.8913419, 52.9665288 ], [ 21.8804024, 52.9594552 ], [ 21.8466654, 52.9470047 ], [ 21.8350547, 52.946474 ], [ 21.8324783, 52.9396813 ], [ 21.8463911, 52.933116499999983 ], [ 21.8492807, 52.9258669 ], [ 21.8793892, 52.9144 ], [ 21.8786455, 52.9032105 ], [ 21.8740429, 52.8951292 ] ] ] } },
{ "type": "Feature", "properties": { "name": "Stary Lubotyń", "feature_type": "circle", "metric_roundness": 59.97, "metric_rectangularity": 61.21, "metric_mobile_fit": 61.6, "metric_aspect_ratio": 0.947, "metric_area_km2": 300.67 }, "geometry": { "type": "Polygon", "coordinates": [ [ [ 22.039456790365822, 52.919557924552798 ], [ 22.039301234213831, 52.915976067191252 ], [ 22.038834992126461, 52.912403732396562 ], [ 22.03805934204086, 52.908850715317371 ], [ 22.036976409960005, 52.905326760534997 ], [ 22.035589164125447, 52.901841535288526 ], [ 22.033901406881601, 52.898404602886529 ], [ 22.031917764253755, 52.895025396379175 ], [ 22.029643673268467, 52.89171319256436 ], [ 22.027085367051061, 52.888477086400421 ], [ 22.024249857741054, 52.885325965897515 ], [ 22.02114491727237, 52.882268487558179 ], [ 22.017779056071006, 52.879313052436878 ], [ 22.014161499728566, 52.876467782886287 ], [ 22.010302163715529, 52.873740500056584 ], [ 22.006211626203644, 52.871138702212015 ], [ 22.001901099071905, 52.868669543926956 ], [ 21.997382397175553, 52.866339816221135 ], [ 21.992667905962406, 52.864155927691307 ], [ 21.987770547525173, 52.862123886693873 ], [ 21.98270374518291, 52.860249284630108 ], [ 21.977481386688662, 52.85853728038245 ], [ 21.972117786164048, 52.856992585947062 ], [ 21.966627644865302, 52.855619453304683 ], [ 21.961026010888098, 52.854421662568029 ], [ 21.955328237921801, 52.853402511440372 ], [ 21.949549943166069, 52.852564806016247 ], [ 21.943706964525184, 52.851910852951107 ], [ 21.937815317197455, 52.851442453023246 ], [ 21.931891149778689, 52.851160896106471 ], [ 21.9259507, 52.851066957568619 ], [ 21.920010250221306, 52.851160896106471 ], [ 21.914086082802537, 52.851442453023246 ], [ 21.908194435474812, 52.851910852951107 ], [ 21.90235145683393, 52.852564806016247 ], [ 21.896573162078194, 52.853402511440372 ], [ 21.890875389111898, 52.854421662568029 ], [ 21.885273755134691, 52.855619453304683 ], [ 21.879783613835944, 52.856992585947062 ], [ 21.874420013311333, 52.85853728038245 ], [ 21.869197654817082, 52.860249284630108 ], [ 21.864130852474826, 52.862123886693873 ], [ 21.859233494037589, 52.864155927691307 ], [ 21.854519002824439, 52.866339816221135 ], [ 21.850000300928091, 52.868669543926956 ], [ 21.845689773796352, 52.871138702212015 ], [ 21.841599236284466, 52.873740500056584 ], [ 21.83773990027143, 52.876467782886287 ], [ 21.834122343928989, 52.879313052436878 ], [ 21.830756482727626, 52.882268487558179 ], [ 21.827651542258941, 52.885325965897515 ], [ 21.824816032948934, 52.888477086400421 ], [ 21.822257726731529, 52.89171319256436 ], [ 21.81998363574624, 52.895025396379175 ], [ 21.817999993118395, 52.898404602886529 ], [ 21.816312235874548, 52.901841535288526 ], [ 21.814924990039991, 52.905326760534997 ], [ 21.813842057959135, 52.908850715317371 ], [ 21.813066407873539, 52.912403732396562 ], [ 21.812600165786165, 52.915976067191252 ], [ 21.812444609634174, 52.919557924552798 ], [ 21.812600165786165, 52.923139485652655 ], [ 21.813066407873539, 52.926710934908201 ], [ 21.813842057959135, 52.930262486872927 ], [ 21.814924990039991, 52.933784413017648 ], [ 21.816312235874548, 52.937267068329483 ], [ 21.817999993118395, 52.940700917656635 ], [ 21.81998363574624, 52.944076561727762 ], [ 21.822257726731529, 52.947384762775833 ], [ 21.824816032948934, 52.950616469697657 ], [ 21.827651542258941, 52.953762842682167 ], [ 21.830756482727626, 52.956815277241638 ], [ 21.834122343928989, 52.959765427582354 ], [ 21.83773990027143, 52.962605229252816 ], [ 21.841599236284466, 52.96532692101011 ], [ 21.845689773796352, 52.967923065846968 ], [ 21.850000300928091, 52.970386571124536 ], [ 21.854519002824439, 52.972710707758615 ], [ 21.859233494037589, 52.974889128409409 ], [ 21.864130852474826, 52.976915884627722 ], [ 21.869197654817082, 52.978785442913392 ], [ 21.874420013311333, 52.980492699644635 ], [ 21.879783613835944, 52.982032994840061 ], [ 21.885273755134691, 52.98340212471787 ], [ 21.890875389111898, 52.984596353020429 ], [ 21.896573162078194, 52.985612421075231 ], [ 21.90235145683393, 52.986447556566503 ], [ 21.908194435474812, 52.98709948099544 ], [ 21.914086082802537, 52.987566415809937 ], [ 21.920010250221306, 52.987847087188229 ], [ 21.9259507, 52.987940729464626 ], [ 21.931891149778689, 52.987847087188229 ], [ 21.937815317197455, 52.987566415809937 ], [ 21.943706964525184, 52.98709948099544 ], [ 21.949549943166069, 52.986447556566503 ], [ 21.955328237921801, 52.985612421075231 ], [ 21.961026010888098, 52.984596353020429 ], [ 21.966627644865302, 52.98340212471787 ], [ 21.972117786164048, 52.982032994840061 ], [ 21.977481386688662, 52.980492699644635 ], [ 21.98270374518291, 52.978785442913392 ], [ 21.987770547525173, 52.976915884627722 ], [ 21.992667905962406, 52.974889128409409 ], [ 21.997382397175553, 52.972710707758615 ], [ 22.001901099071905, 52.970386571124536 ], [ 22.006211626203644, 52.967923065846968 ], [ 22.010302163715529, 52.96532692101011 ], [ 22.014161499728566, 52.962605229252816 ], [ 22.017779056071006, 52.959765427582354 ], [ 22.02114491727237, 52.956815277241638 ], [ 22.024249857741054, 52.953762842682167 ], [ 22.027085367051061, 52.950616469697657 ], [ 22.029643673268467, 52.947384762775833 ], [ 22.031917764253755, 52.944076561727762 ], [ 22.033901406881601, 52.940700917656635 ], [ 22.035589164125447, 52.937267068329483 ], [ 22.036976409960005, 52.933784413017648 ], [ 22.03805934204086, 52.930262486872927 ], [ 22.038834992126461, 52.926710934908201 ], [ 22.039301234213831, 52.923139485652655 ], [ 22.039456790365822, 52.919557924552798 ] ] ] } },
{ "type": "Feature", "properties": { "name": "Stary Lubotyń", "feature_type": "mrr", "metric_roundness": 59.97, "metric_rectangularity": 61.21, "metric_mobile_fit": 61.6, "metric_aspect_ratio": 0.947, "metric_area_km2": 300.67 }, "geometry": { "type": "Polygon", "coordinates": [ [ [ 22.007273968567421, 52.851409890458015 ], [ 21.815740285319404, 52.867608647037649 ], [ 21.84417119986405, 52.989958931546006 ], [ 22.035704883112068, 52.973805890887135 ], [ 22.007273968567421, 52.851409890458015 ] ] ] } }
]
}
