{
"type": "FeatureCollection",
"name": "stebach",
"crs": { "type": "name", "properties": { "name": "urn:ogc:def:crs:OGC:1.3:CRS84" } },
"features": [
{ "type": "Feature", "properties": { "name": "Stebach", "metric_roundness": 60.25, "metric_rectangularity": 83.39, "metric_mobile_fit": 71.53, "metric_aspect_ratio": 0.847, "metric_area_km2": 5.7 }, "geometry": { "type": "Polygon", "coordinates": [ [ [ 7.668289, 50.5187735 ], [ 7.667048, 50.520382 ], [ 7.6606215, 50.520386 ], [ 7.657927, 50.521733 ], [ 7.655233, 50.521675499999986 ], [ 7.650309, 50.5090466 ], [ 7.6513393, 50.5056431 ], [ 7.67014, 50.504268499999981 ], [ 7.6683265, 50.505304 ], [ 7.670929, 50.508267499999988 ], [ 7.6735775, 50.513285 ], [ 7.668289, 50.5187735 ] ] ] } }
]
}
