{
"type": "FeatureCollection",
"name": "stedra",
"crs": { "type": "name", "properties": { "name": "urn:ogc:def:crs:OGC:1.3:CRS84" } },
"features": [
{ "type": "Feature", "properties": { "name": "Štědrá", "metric_roundness": 30.34, "metric_rectangularity": 47.34, "metric_mobile_fit": 41.54, "metric_aspect_ratio": 1.147, "metric_area_km2": 88.03 }, "geometry": { "type": "Polygon", "coordinates": [ [ [ 13.1479647, 50.027024799999985 ], [ 13.1751954, 50.0175495 ], [ 13.1817472, 50.0104949 ], [ 13.1827055, 50.016859 ], [ 13.1878219, 50.025066299999985 ], [ 13.1749349, 50.0306314 ], [ 13.1817267, 50.0368607 ], [ 13.1690603, 50.04263 ], [ 13.1576098, 50.0383839 ], [ 13.1492159, 50.0478622 ], [ 13.1379587, 50.045333 ], [ 13.1253578, 50.066254599999986 ], [ 13.1190673, 50.0708421 ], [ 13.1208991, 50.0756366 ], [ 13.1332015, 50.075549899999984 ], [ 13.1407595, 50.0827505 ], [ 13.1233327, 50.085293299999989 ], [ 13.1160926, 50.0831813 ], [ 13.1150761, 50.0870094 ], [ 13.1118099, 50.0877978 ], [ 13.1088428, 50.084425899999978 ], [ 13.10943, 50.079783 ], [ 13.1007613, 50.0777723 ], [ 13.0842305, 50.0810874 ], [ 13.071899, 50.088019 ], [ 13.0576315, 50.0876 ], [ 13.0623677, 50.08382229999998 ], [ 13.0626534, 50.079747 ], [ 13.049336, 50.072280799999987 ], [ 13.0596568, 50.067670199999988 ], [ 13.0642286, 50.052316099999985 ], [ 13.0778948, 50.0445602 ], [ 13.082794, 50.0275155 ], [ 13.0971935, 50.034259299999981 ], [ 13.1061431, 50.0252405 ], [ 13.1115253, 50.0267749 ], [ 13.1191701, 50.023219399999981 ], [ 13.1262631, 50.026024199999988 ], [ 13.129561, 50.023911 ], [ 13.1479647, 50.027024799999985 ] ] ] } }
]
}
