{
"type": "FeatureCollection",
"name": "steinborn",
"crs": { "type": "name", "properties": { "name": "urn:ogc:def:crs:OGC:1.3:CRS84" } },
"features": [
{ "type": "Feature", "properties": { "name": "Steinborn", "metric_roundness": 29.78, "metric_rectangularity": 60.55, "metric_mobile_fit": 91.9, "metric_aspect_ratio": 0.482, "metric_area_km2": 27.61 }, "geometry": { "type": "Polygon", "coordinates": [ [ [ 6.6210992, 50.090852399999982 ], [ 6.621091, 50.083368 ], [ 6.6160741, 50.0770536 ], [ 6.6228834, 50.070220699999986 ], [ 6.6245051, 50.0606544 ], [ 6.631188, 50.0546095 ], [ 6.6370077, 50.0582633 ], [ 6.638369, 50.065192 ], [ 6.6474683, 50.0707242 ], [ 6.6477997, 50.077109799999988 ], [ 6.6428849, 50.083190399999978 ], [ 6.6521238, 50.0876009 ], [ 6.658159, 50.085756499999981 ], [ 6.6572499, 50.0903379 ], [ 6.662976, 50.094685 ], [ 6.660841, 50.096316 ], [ 6.6602225, 50.099962 ], [ 6.6518871, 50.104752 ], [ 6.6487567, 50.111540099999985 ], [ 6.6416902, 50.113838099999981 ], [ 6.6379292, 50.1171037 ], [ 6.631918, 50.11481 ], [ 6.627972, 50.0994986 ], [ 6.6296776, 50.094734699999989 ], [ 6.6237885, 50.0932745 ], [ 6.6210992, 50.090852399999982 ] ] ] } }
]
}
