{
"type": "FeatureCollection",
"name": "steinbrunn_le_haut",
"crs": { "type": "name", "properties": { "name": "urn:ogc:def:crs:OGC:1.3:CRS84" } },
"features": [
{ "type": "Feature", "properties": { "name": "Steinbrunn-le-Haut", "metric_roundness": 66.67, "metric_rectangularity": 80.36, "metric_mobile_fit": 57.18, "metric_aspect_ratio": 0.991, "metric_area_km2": 20.76 }, "geometry": { "type": "Polygon", "coordinates": [ [ [ 7.320632, 47.6680385 ], [ 7.316879, 47.655898 ], [ 7.3407435, 47.6416245 ], [ 7.353313, 47.646219 ], [ 7.3594665, 47.6492588 ], [ 7.3613364, 47.6560829 ], [ 7.3698615, 47.6624925 ], [ 7.3522328, 47.6712401 ], [ 7.3420785, 47.6717759 ], [ 7.3372448, 47.6765652 ], [ 7.328864, 47.677644 ], [ 7.320632, 47.6680385 ] ] ] } }
]
}
