{
"type": "FeatureCollection",
"name": "ston",
"crs": { "type": "name", "properties": { "name": "urn:ogc:def:crs:OGC:1.3:CRS84" } },
"features": [
{ "type": "Feature", "properties": { "name": "Ston", "feature_type": "entity", "metric_roundness": 24.41, "metric_rectangularity": 64.94, "metric_mobile_fit": 0.85, "metric_aspect_ratio": 1.554, "metric_area_km2": 314.38 }, "geometry": { "type": "Polygon", "coordinates": [ [ [ 17.7018246, 42.8577976 ], [ 17.7336425, 42.8415507 ], [ 17.738407, 42.8354095 ], [ 17.7302542, 42.8352226 ], [ 17.717533, 42.8403487 ], [ 17.671875, 42.8721889 ], [ 17.6555553, 42.8777359 ], [ 17.6578339, 42.872007799999984 ], [ 17.6491548, 42.8720226 ], [ 17.6105673, 42.8933713 ], [ 17.5931012, 42.8971736 ], [ 17.5288489, 42.9219121 ], [ 17.5228279, 42.9209569 ], [ 17.5292198, 42.9096749 ], [ 17.5275581, 42.905728499999988 ], [ 17.5123222, 42.9099619 ], [ 17.4920588, 42.9111644 ], [ 17.4803866, 42.916597899999985 ], [ 17.4698895, 42.9148505 ], [ 17.449292, 42.8941515 ], [ 17.4532565, 42.892272299999988 ], [ 17.4482535, 42.8877236 ], [ 17.4494791, 42.884707199999987 ], [ 17.4392134, 42.882725499999985 ], [ 17.43651, 42.8763678 ], [ 17.4321303, 42.8746485 ], [ 17.4456386, 42.871377299999985 ], [ 17.4474345, 42.868108299999989 ], [ 17.4550953, 42.8656805 ], [ 17.4952176, 42.8565962 ], [ 17.5101953, 42.8494356 ], [ 17.5898104, 42.8333266 ], [ 17.6343652, 42.817830699999988 ], [ 17.6514404, 42.8152657 ], [ 17.668638, 42.8121464 ], [ 17.6769291, 42.815751299999988 ], [ 17.6784632, 42.8088908 ], [ 17.685206, 42.8049765 ], [ 17.7035279, 42.8021276 ], [ 17.7078058, 42.7971538 ], [ 17.7155453, 42.7993964 ], [ 17.7285929, 42.7920814 ], [ 17.7437753, 42.7959171 ], [ 17.7497006, 42.791641799999987 ], [ 17.7496587, 42.785649899999989 ], [ 17.7546827, 42.777263 ], [ 17.7486626, 42.7717175 ], [ 17.7548735, 42.764107 ], [ 17.7611117, 42.7618181 ], [ 17.7617377, 42.7692754 ], [ 17.769346, 42.7743745 ], [ 17.7690087, 42.77727549999998 ], [ 17.7610233, 42.7829738 ], [ 17.7474959, 42.8024019 ], [ 17.7211113, 42.8154695 ], [ 17.7174069, 42.821876799999984 ], [ 17.7287048, 42.8202658 ], [ 17.752557, 42.8092195 ], [ 17.7714306, 42.8304787 ], [ 17.7585202, 42.8365661 ], [ 17.7515825, 42.8437864 ], [ 17.7032525, 42.868279 ], [ 17.7018246, 42.8577976 ] ] ] } },
{ "type": "Feature", "properties": { "name": "Ston", "feature_type": "circle", "metric_roundness": 24.41, "metric_rectangularity": 64.94, "metric_mobile_fit": 0.85, "metric_aspect_ratio": 1.554, "metric_area_km2": 314.38 }, "geometry": { "type": "Polygon", "coordinates": [ [ [ 17.782676415302589, 42.824531830716857 ], [ 17.78242707523318, 42.817547694912101 ], [ 17.781679738448744, 42.81058191645625 ], [ 17.78043645334747, 42.803653597764658 ], [ 17.778700627687396, 42.796781744917077 ], [ 17.776477019246002, 42.789985215387446 ], [ 17.773771722779461, 42.783282666113401 ], [ 17.770592153317352, 42.776692502050615 ], [ 17.766947025838554, 42.770232825356395 ], [ 17.762846331384118, 42.76392138534576 ], [ 17.758301309672515, 42.757775529361957 ], [ 17.753324418292326, 42.751812154701263 ], [ 17.74792929855689, 42.746047661729676 ], [ 17.742130738114394, 42.740497908326219 ], [ 17.73594463041595, 42.735178165784255 ], [ 17.729387931152775, 42.730103076298839 ], [ 17.722478611781799, 42.725286612163565 ], [ 17.715235610267154, 42.720742036796253 ], [ 17.707678779172536, 42.716481867707579 ], [ 17.699828831246709, 42.712517841521802 ], [ 17.691707282651294, 42.708860881152397 ], [ 17.683336393986469, 42.705521065230272 ], [ 17.67473910927621, 42.702507599874671 ], [ 17.665938993080314, 42.699828792891388 ], [ 17.656960165905595, 42.69749203047472 ], [ 17.647827238093225, 42.695503756483042 ], [ 17.638565242363509, 42.693869454350072 ], [ 17.629199565202956, 42.692593631685895 ], [ 17.619755877281658, 42.691679807614229 ], [ 17.61026006309179, 42.691130502883766 ], [ 17.60073815, 42.690947232783586 ], [ 17.591216236908203, 42.691130502883766 ], [ 17.581720422718334, 42.691679807614229 ], [ 17.57227673479704, 42.692593631685895 ], [ 17.562911057636484, 42.693869454350072 ], [ 17.553649061906771, 42.695503756483042 ], [ 17.544516134094398, 42.69749203047472 ], [ 17.535537306919679, 42.699828792891388 ], [ 17.526737190723786, 42.702507599874671 ], [ 17.518139906013527, 42.705521065230272 ], [ 17.509769017348699, 42.708860881152397 ], [ 17.501647468753287, 42.712517841521802 ], [ 17.493797520827457, 42.716481867707579 ], [ 17.486240689732838, 42.720742036796253 ], [ 17.478997688218197, 42.725286612163565 ], [ 17.472088368847217, 42.730103076298839 ], [ 17.465531669584042, 42.735178165784255 ], [ 17.459345561885602, 42.740497908326219 ], [ 17.453547001443102, 42.746047661729676 ], [ 17.448151881707666, 42.751812154701263 ], [ 17.443174990327478, 42.757775529361957 ], [ 17.438629968615874, 42.76392138534576 ], [ 17.434529274161438, 42.770232825356395 ], [ 17.430884146682644, 42.776692502050615 ], [ 17.427704577220531, 42.783282666113401 ], [ 17.42499928075399, 42.789985215387446 ], [ 17.422775672312596, 42.796781744917077 ], [ 17.421039846652523, 42.803653597764658 ], [ 17.419796561551248, 42.81058191645625 ], [ 17.419049224766816, 42.817547694912101 ], [ 17.418799884697403, 42.824531830716857 ], [ 17.419049224766816, 42.831515177584507 ], [ 17.419796561551248, 42.838478597872815 ], [ 17.421039846652523, 42.845403015003171 ], [ 17.422775672312596, 42.852269465642344 ], [ 17.42499928075399, 42.859059151504447 ], [ 17.427704577220528, 42.865753490632891 ], [ 17.430884146682644, 42.872334168024466 ], [ 17.434529274161438, 42.878783185460286 ], [ 17.438629968615874, 42.885082910410851 ], [ 17.443174990327478, 42.891216123886032 ], [ 17.448151881707666, 42.897166067103932 ], [ 17.453547001443102, 42.902916486856611 ], [ 17.459345561885602, 42.908451679454522 ], [ 17.465531669584042, 42.913756533135732 ], [ 17.472088368847217, 42.918816568830806 ], [ 17.478997688218197, 42.923617979178701 ], [ 17.486240689732838, 42.928147665693963 ], [ 17.493797520827457, 42.932393273991167 ], [ 17.501647468753287, 42.936343226976909 ], [ 17.509769017348699, 42.939986755926299 ], [ 17.518139906013527, 42.943313929365551 ], [ 17.526737190723786, 42.946315679688645 ], [ 17.535537306919679, 42.948983827441701 ], [ 17.544516134094398, 42.951311103214728 ], [ 17.553649061906771, 42.95329116708654 ], [ 17.562911057636484, 42.954918625574784 ], [ 17.57227673479704, 42.95618904604941 ], [ 17.581720422718334, 42.957098968573924 ], [ 17.591216236908203, 42.957645915145555 ], [ 17.60073815, 42.957828396311569 ], [ 17.610260063091786, 42.957645915145555 ], [ 17.619755877281658, 42.957098968573924 ], [ 17.629199565202956, 42.95618904604941 ], [ 17.638565242363509, 42.954918625574784 ], [ 17.647827238093225, 42.95329116708654 ], [ 17.656960165905595, 42.951311103214728 ], [ 17.665938993080314, 42.948983827441701 ], [ 17.67473910927621, 42.946315679688645 ], [ 17.683336393986469, 42.943313929365551 ], [ 17.691707282651294, 42.939986755926299 ], [ 17.699828831246709, 42.936343226976909 ], [ 17.707678779172536, 42.932393273991167 ], [ 17.71523561026715, 42.928147665693963 ], [ 17.722478611781799, 42.923617979178701 ], [ 17.729387931152775, 42.918816568830806 ], [ 17.735944630415947, 42.913756533135732 ], [ 17.742130738114394, 42.908451679454522 ], [ 17.74792929855689, 42.902916486856611 ], [ 17.753324418292326, 42.897166067103932 ], [ 17.758301309672515, 42.891216123886032 ], [ 17.762846331384118, 42.885082910410851 ], [ 17.766947025838554, 42.878783185460286 ], [ 17.770592153317352, 42.872334168024466 ], [ 17.773771722779461, 42.865753490632891 ], [ 17.776477019246002, 42.859059151504447 ], [ 17.778700627687396, 42.852269465642344 ], [ 17.78043645334747, 42.845403015003171 ], [ 17.781679738448744, 42.838478597872815 ], [ 17.78242707523318, 42.831515177584507 ], [ 17.782676415302589, 42.824531830716857 ] ] ] } },
{ "type": "Feature", "properties": { "name": "Ston", "feature_type": "mrr", "metric_roundness": 24.41, "metric_rectangularity": 64.94, "metric_mobile_fit": 0.85, "metric_aspect_ratio": 1.554, "metric_area_km2": 314.38 }, "geometry": { "type": "Polygon", "coordinates": [ [ [ 17.761386347503155, 42.761724949139207 ], [ 17.43142432227247, 42.873528477267278 ], [ 17.476500503645369, 42.945000411943255 ], [ 17.806462528876054, 42.833326314649774 ], [ 17.761386347503155, 42.761724949139207 ] ] ] } }
]
}
