{
"type": "FeatureCollection",
"name": "stribro",
"crs": { "type": "name", "properties": { "name": "urn:ogc:def:crs:OGC:1.3:CRS84" } },
"features": [
{ "type": "Feature", "properties": { "name": "Stříbro", "feature_type": "entity", "metric_roundness": 41.17, "metric_rectangularity": 55.06, "metric_mobile_fit": 4.63, "metric_aspect_ratio": 1.516, "metric_area_km2": 113.97 }, "geometry": { "type": "Polygon", "coordinates": [ [ [ 12.9337483, 49.7340405 ], [ 12.9437207, 49.7409278 ], [ 12.9927349, 49.738683199999983 ], [ 12.9946041, 49.735952 ], [ 12.9901956, 49.7268526 ], [ 13.0021624, 49.719191799999983 ], [ 13.0210613, 49.720233 ], [ 13.0365105, 49.715767499999977 ], [ 13.048034, 49.716086 ], [ 13.0486222, 49.7185616 ], [ 13.0654701, 49.726232399999986 ], [ 13.066935, 49.730932499999987 ], [ 13.074792, 49.736509 ], [ 13.0740398, 49.741159 ], [ 13.059292, 49.742608 ], [ 13.0567543, 49.7351124 ], [ 13.0321885, 49.7253605 ], [ 13.0213463, 49.732042 ], [ 13.0246085, 49.7412285 ], [ 13.0211995, 49.746509 ], [ 13.0125571, 49.7512538 ], [ 13.0130325, 49.7554358 ], [ 13.0315983, 49.7673354 ], [ 13.060037, 49.764891 ], [ 13.065998, 49.768896499999975 ], [ 13.064845, 49.771515 ], [ 13.04228, 49.781080499999987 ], [ 13.0294807, 49.7759323 ], [ 13.017503, 49.778356199999983 ], [ 13.0034895, 49.7762155 ], [ 12.9901415, 49.775602299999989 ], [ 12.9878419, 49.779272899999988 ], [ 12.9785424, 49.7831243 ], [ 12.978791, 49.787023 ], [ 12.9580922, 49.786653099999974 ], [ 12.9492375, 49.7831875 ], [ 12.9413302, 49.784478299999989 ], [ 12.9280465, 49.7797435 ], [ 12.9326941, 49.775460599999988 ], [ 12.9299512, 49.771645 ], [ 12.9312594, 49.7665331 ], [ 12.9221389, 49.762961899999986 ], [ 12.9264252, 49.755140399999974 ], [ 12.91846, 49.7547065 ], [ 12.9146085, 49.746307 ], [ 12.9075763, 49.738632399999986 ], [ 12.9150201, 49.7315785 ], [ 12.925278, 49.7320095 ], [ 12.9337483, 49.7340405 ] ] ] } },
{ "type": "Feature", "properties": { "name": "Stříbro", "feature_type": "circle", "metric_roundness": 41.17, "metric_rectangularity": 55.06, "metric_mobile_fit": 4.63, "metric_aspect_ratio": 1.516, "metric_area_km2": 113.97 }, "geometry": { "type": "Polygon", "coordinates": [ [ [ 13.075752854613416, 49.744713458772068 ], [ 13.075637253765409, 49.741860673295861 ], [ 13.075290768075279, 49.739015540047546 ], [ 13.074714347236219, 49.736185859396421 ], [ 13.07390957117768, 49.733379390705423 ], [ 13.0728786457349, 49.730603831025931 ], [ 13.071624396602861, 49.727866793949048 ], [ 13.07015026159125, 49.725175788671891 ], [ 13.068460281201668, 49.722538199336817 ], [ 13.066559087552896, 49.719961264701297 ], [ 13.064451891684573, 49.717452058195057 ], [ 13.062144469274104, 49.7150174684201 ], [ 13.059643144805928, 49.7126641801487 ], [ 13.056954774236553, 49.710398655872247 ], [ 13.054086726202838, 49.70822711795342 ], [ 13.051046861825089, 49.706155531431698 ], [ 13.04784351316027, 49.704189587531161 ], [ 13.044485460364406, 49.702334687917102 ], [ 13.040981907626794, 49.700595929746328 ], [ 13.037342457941961, 49.698978091553748 ], [ 13.033577086788519, 49.69748562001525 ], [ 13.029696114787072, 49.696122617625036 ], [ 13.025710179412108, 49.694892831322313 ], [ 13.021630205835436, 49.693799642100181 ], [ 13.017467376981035, 49.692846055626376 ], [ 13.013233102873434, 49.692034693902912 ], [ 13.008938989363648, 49.691367787988511 ], [ 13.004596806318322, 49.690847171804805 ], [ 13.000218455359365, 49.690474277044153 ], [ 12.995815937242417, 49.69025012919375 ], [ 12.991401318963623, 49.690175344687482 ], [ 12.986986700684831, 49.69025012919375 ], [ 12.982584182567884, 49.690474277044153 ], [ 12.978205831608925, 49.690847171804805 ], [ 12.973863648563601, 49.691367787988511 ], [ 12.969569535053813, 49.692034693902912 ], [ 12.965335260946214, 49.692846055626376 ], [ 12.961172432091812, 49.693799642100181 ], [ 12.957092458515138, 49.694892831322313 ], [ 12.953106523140177, 49.696122617625036 ], [ 12.949225551138728, 49.69748562001525 ], [ 12.945460179985288, 49.698978091553748 ], [ 12.941820730300455, 49.700595929746328 ], [ 12.938317177562844, 49.702334687917102 ], [ 12.934959124766978, 49.704189587531161 ], [ 12.931755776102159, 49.706155531431698 ], [ 12.92871591172441, 49.70822711795342 ], [ 12.925847863690695, 49.710398655872247 ], [ 12.92315949312132, 49.7126641801487 ], [ 12.920658168653144, 49.7150174684201 ], [ 12.918350746242675, 49.717452058195057 ], [ 12.916243550374352, 49.719961264701297 ], [ 12.91434235672558, 49.722538199336817 ], [ 12.912652376335998, 49.725175788671891 ], [ 12.911178241324388, 49.727866793949048 ], [ 12.909923992192349, 49.730603831025931 ], [ 12.908893066749568, 49.733379390705423 ], [ 12.90808829069103, 49.736185859396421 ], [ 12.90751186985197, 49.739015540047546 ], [ 12.907165384161839, 49.741860673295861 ], [ 12.907049783313832, 49.744713458772068 ], [ 12.907165384161839, 49.74756607650319 ], [ 12.90751186985197, 49.750410708354131 ], [ 12.90808829069103, 49.753239559448993 ], [ 12.908893066749568, 49.756044879513645 ], [ 12.909923992192349, 49.758818984081316 ], [ 12.911178241324388, 49.7615542755034 ], [ 12.912652376335998, 49.764243263708579 ], [ 12.91434235672558, 49.766878586653966 ], [ 12.916243550374352, 49.769453030413118 ], [ 12.918350746242675, 49.77195954884693 ], [ 12.920658168653144, 49.774391282804466 ], [ 12.92315949312132, 49.776741578802401 ], [ 12.925847863690695, 49.779004007133331 ], [ 12.92871591172441, 49.781172379354409 ], [ 12.931755776102159, 49.783240765110222 ], [ 12.934959124766978, 49.785203508244933 ], [ 12.938317177562844, 49.787055242161522 ], [ 12.941820730300455, 49.788790904387206 ], [ 12.945460179985288, 49.79040575030691 ], [ 12.949225551138728, 49.791895366028683 ], [ 12.953106523140177, 49.793255680347251 ], [ 12.957092458515138, 49.794482975774471 ], [ 12.961172432091812, 49.795573898607785 ], [ 12.965335260946214, 49.796525468010451 ], [ 12.969569535053813, 49.797335084079926 ], [ 12.973863648563601, 49.798000534883201 ], [ 12.978205831608925, 49.798520002441144 ], [ 12.982584182567884, 49.798892067645973 ], [ 12.986986700684831, 49.799115714099266 ], [ 12.991401318963623, 49.799190330860547 ], [ 12.995815937242417, 49.799115714099266 ], [ 13.000218455359365, 49.798892067645973 ], [ 13.004596806318322, 49.798520002441144 ], [ 13.008938989363648, 49.798000534883201 ], [ 13.013233102873434, 49.797335084079926 ], [ 13.017467376981035, 49.796525468010451 ], [ 13.021630205835436, 49.795573898607785 ], [ 13.025710179412108, 49.794482975774471 ], [ 13.029696114787072, 49.793255680347251 ], [ 13.033577086788519, 49.791895366028683 ], [ 13.037342457941961, 49.79040575030691 ], [ 13.040981907626794, 49.788790904387206 ], [ 13.044485460364406, 49.787055242161522 ], [ 13.04784351316027, 49.785203508244933 ], [ 13.051046861825089, 49.783240765110222 ], [ 13.054086726202838, 49.781172379354409 ], [ 13.056954774236553, 49.779004007133331 ], [ 13.059643144805928, 49.776741578802401 ], [ 13.062144469274104, 49.774391282804466 ], [ 13.064451891684573, 49.77195954884693 ], [ 13.066559087552896, 49.769453030413118 ], [ 13.068460281201668, 49.766878586653966 ], [ 13.07015026159125, 49.764243263708579 ], [ 13.071624396602861, 49.7615542755034 ], [ 13.0728786457349, 49.758818984081316 ], [ 13.07390957117768, 49.756044879513645 ], [ 13.074714347236219, 49.753239559448993 ], [ 13.075290768075279, 49.750410708354131 ], [ 13.075637253765409, 49.74756607650319 ], [ 13.075752854613416, 49.744713458772068 ] ] ] } },
{ "type": "Feature", "properties": { "name": "Stříbro", "feature_type": "mrr", "metric_roundness": 41.17, "metric_rectangularity": 55.06, "metric_mobile_fit": 4.63, "metric_aspect_ratio": 1.516, "metric_area_km2": 113.97 }, "geometry": { "type": "Polygon", "coordinates": [ [ [ 13.06907052326226, 49.71252123629467 ], [ 12.905243249756019, 49.728852756016764 ], [ 12.920601185662409, 49.793193738376935 ], [ 13.084428459168652, 49.776883873831885 ], [ 13.06907052326226, 49.71252123629467 ] ] ] } }
]
}
