{
"type": "FeatureCollection",
"name": "strickscheid",
"crs": { "type": "name", "properties": { "name": "urn:ogc:def:crs:OGC:1.3:CRS84" } },
"features": [
{ "type": "Feature", "properties": { "name": "Strickscheid", "metric_roundness": 75.05, "metric_rectangularity": 80.3, "metric_mobile_fit": 59.77, "metric_aspect_ratio": 0.965, "metric_area_km2": 3.06 }, "geometry": { "type": "Polygon", "coordinates": [ [ [ 6.325739, 50.136124 ], [ 6.3228866, 50.1428042 ], [ 6.3150185, 50.1441735 ], [ 6.3066123, 50.139618299999988 ], [ 6.3080438, 50.1350416 ], [ 6.313311, 50.131467 ], [ 6.325739, 50.136124 ] ] ] } }
]
}
