{
"type": "FeatureCollection",
"name": "stroesti",
"crs": { "type": "name", "properties": { "name": "urn:ogc:def:crs:OGC:1.3:CRS84" } },
"features": [
{ "type": "Feature", "properties": { "name": "Stroeşti", "metric_roundness": 52.63, "metric_rectangularity": 61.35, "metric_mobile_fit": 79.92, "metric_aspect_ratio": 0.763, "metric_area_km2": 79.87 }, "geometry": { "type": "Polygon", "coordinates": [ [ [ 23.916236, 45.0279155 ], [ 23.9431797, 45.030274399999982 ], [ 23.9511997, 45.0345911 ], [ 23.954187, 45.040095 ], [ 23.9379204, 45.056724 ], [ 23.9376676, 45.0603341 ], [ 23.9425554, 45.062354699999986 ], [ 23.9379976, 45.0665851 ], [ 23.9421723, 45.0695269 ], [ 23.9476618, 45.0670832 ], [ 23.9625738, 45.071828 ], [ 23.9615515, 45.083783 ], [ 23.9584454, 45.0882126 ], [ 23.9670092, 45.096797099999982 ], [ 23.965991, 45.105055299999989 ], [ 23.9572906, 45.1111539 ], [ 23.940673, 45.111072 ], [ 23.9269141, 45.110724899999987 ], [ 23.9000671, 45.0926143 ], [ 23.8770515, 45.087479 ], [ 23.882701, 45.076515 ], [ 23.8823135, 45.067318799999981 ], [ 23.8980823, 45.0571614 ], [ 23.9048612, 45.043161299999987 ], [ 23.9110445, 45.0376785 ], [ 23.910901, 45.033681 ], [ 23.916236, 45.0279155 ] ] ] } }
]
}
