{
"type": "FeatureCollection",
"name": "sengenthal",
"crs": { "type": "name", "properties": { "name": "urn:ogc:def:crs:OGC:1.3:CRS84" } },
"features": [
{ "type": "Feature", "properties": { "name": "Sengenthal", "feature_type": "entity", "metric_roundness": 51.88, "metric_rectangularity": 63.3, "metric_mobile_fit": 44.83, "metric_aspect_ratio": 1.114, "metric_area_km2": 67.44 }, "geometry": { "type": "Polygon", "coordinates": [ [ [ 11.3970482, 49.2096662 ], [ 11.4008065, 49.2075155 ], [ 11.4112422, 49.2078541 ], [ 11.4155582, 49.201701799999974 ], [ 11.4236982, 49.1998819 ], [ 11.4270549, 49.195229899999987 ], [ 11.4389571, 49.1896633 ], [ 11.4446781, 49.19375729999998 ], [ 11.4493975, 49.206640899999982 ], [ 11.4774506, 49.207973 ], [ 11.4783685, 49.2125953 ], [ 11.489717, 49.2123747 ], [ 11.4933501, 49.2285645 ], [ 11.4893901, 49.2359419 ], [ 11.4973696, 49.245405899999987 ], [ 11.494207, 49.249979 ], [ 11.4679993, 49.2466922 ], [ 11.4573509, 49.2425736 ], [ 11.4443244, 49.249088699999987 ], [ 11.4341111, 49.243897399999987 ], [ 11.4328823, 49.2370989 ], [ 11.41939, 49.238112 ], [ 11.409655, 49.235719899999985 ], [ 11.4130383, 49.2304262 ], [ 11.4100317, 49.2241756 ], [ 11.3983121, 49.223512099999986 ], [ 11.3944755, 49.220718 ], [ 11.3970482, 49.2096662 ] ] ] } },
{ "type": "Feature", "properties": { "name": "Sengenthal", "feature_type": "circle", "metric_roundness": 51.88, "metric_rectangularity": 63.3, "metric_mobile_fit": 44.83, "metric_aspect_ratio": 1.114, "metric_area_km2": 67.44 }, "geometry": { "type": "Polygon", "coordinates": [ [ [ 11.506264766427176, 49.226909309638579 ], [ 11.506185555308615, 49.224933780783829 ], [ 11.505948139065104, 49.22296358805594 ], [ 11.505553168438059, 49.2210041325852 ], [ 11.50500172601452, 49.219060786706578 ], [ 11.504295323259834, 49.217138879216932 ], [ 11.503435896374855, 49.215243680744827 ], [ 11.502425800988936, 49.213380389273318 ], [ 11.501267805703318, 49.211554115855655 ], [ 11.499965084502588, 49.209769870563449 ], [ 11.498521208055005, 49.208032548706484 ], [ 11.496940133925548, 49.206346917362211 ], [ 11.495226195728513, 49.204717602252479 ], [ 11.493384091249355, 49.203149075004362 ], [ 11.491418869568415, 49.201645640830243 ], [ 11.48933591722172, 49.200211426661909 ], [ 11.487140943436859, 49.198850369771883 ], [ 11.484839964484417, 49.19756620691377 ], [ 11.482439287187756, 49.196362464012189 ], [ 11.479945491636482, 49.195242446431429 ], [ 11.477365413150853, 49.194209229849996 ], [ 11.474706123546666, 49.193265651767014 ], [ 11.471974911751879, 49.192414303664258 ], [ 11.469179263828172, 49.191657523846118 ], [ 11.466326842452188, 49.190997390977657 ], [ 11.463425465912646, 49.190435718339145 ], [ 11.460483086680972, 49.189974048813127 ], [ 11.457507769614113, 49.189613650618554 ], [ 11.454507669849335, 49.189355513803847 ], [ 11.451491010451569, 49.189200347508809 ], [ 11.44846605987453, 49.189148578003419 ], [ 11.445441109297493, 49.189200347508809 ], [ 11.442424449899725, 49.189355513803847 ], [ 11.439424350134949, 49.189613650618554 ], [ 11.43644903306809, 49.189974048813127 ], [ 11.433506653836412, 49.190435718339145 ], [ 11.430605277296872, 49.190997390977657 ], [ 11.427752855920888, 49.191657523846118 ], [ 11.424957207997183, 49.192414303664258 ], [ 11.422225996202396, 49.193265651767014 ], [ 11.419566706598207, 49.194209229849996 ], [ 11.41698662811258, 49.195242446431429 ], [ 11.414492832561304, 49.196362464012189 ], [ 11.412092155264643, 49.19756620691377 ], [ 11.409791176312201, 49.198850369771883 ], [ 11.407596202527342, 49.200211426661909 ], [ 11.405513250180647, 49.201645640830243 ], [ 11.403548028499705, 49.203149075004362 ], [ 11.401705924020549, 49.204717602252479 ], [ 11.399991985823512, 49.206346917362211 ], [ 11.398410911694056, 49.208032548706484 ], [ 11.396967035246472, 49.209769870563449 ], [ 11.395664314045744, 49.211554115855655 ], [ 11.394506318760126, 49.213380389273318 ], [ 11.393496223374205, 49.215243680744827 ], [ 11.392636796489226, 49.217138879216932 ], [ 11.39193039373454, 49.219060786706578 ], [ 11.391378951311001, 49.2210041325852 ], [ 11.390983980683957, 49.22296358805594 ], [ 11.390746564440445, 49.224933780783829 ], [ 11.390667353321884, 49.226909309638579 ], [ 11.390746564440445, 49.228884759509285 ], [ 11.390983980683957, 49.230854716150411 ], [ 11.391378951311001, 49.232813781018265 ], [ 11.39193039373454, 49.234756586057443 ], [ 11.392636796489226, 49.236677808396614 ], [ 11.393496223374205, 49.23857218491387 ], [ 11.394506318760126, 49.240434526631688 ], [ 11.395664314045744, 49.242259732902497 ], [ 11.396967035246472, 49.244042805346581 ], [ 11.398410911694056, 49.245778861504128 ], [ 11.399991985823512, 49.247463148164968 ], [ 11.401705924020549, 49.249091054339864 ], [ 11.403548028499705, 49.250658123838356 ], [ 11.405513250180647, 49.252160067419467 ], [ 11.407596202527342, 49.253592774482648 ], [ 11.409791176312201, 49.254952324267528 ], [ 11.412092155264643, 49.25623499653269 ], [ 11.414492832561304, 49.257437281684744 ], [ 11.41698662811258, 49.258555890330818 ], [ 11.419566706598207, 49.259587762228968 ], [ 11.422225996202396, 49.26053007461271 ], [ 11.424957207997183, 49.26138024986755 ], [ 11.427752855920888, 49.262135962539034 ], [ 11.430605277296872, 49.262795145653982 ], [ 11.433506653836412, 49.263355996337829 ], [ 11.43644903306809, 49.263816980713543 ], [ 11.439424350134949, 49.264176838068792 ], [ 11.442424449899725, 49.264434584280743 ], [ 11.445441109297493, 49.264589514489074 ], [ 11.44846605987453, 49.264641205010442 ], [ 11.451491010451569, 49.264589514489074 ], [ 11.454507669849335, 49.264434584280743 ], [ 11.457507769614113, 49.264176838068792 ], [ 11.460483086680972, 49.263816980713543 ], [ 11.463425465912646, 49.263355996337829 ], [ 11.466326842452188, 49.262795145653982 ], [ 11.469179263828172, 49.262135962539034 ], [ 11.471974911751879, 49.26138024986755 ], [ 11.474706123546666, 49.26053007461271 ], [ 11.477365413150853, 49.259587762228968 ], [ 11.479945491636482, 49.258555890330818 ], [ 11.482439287187756, 49.257437281684744 ], [ 11.484839964484417, 49.25623499653269 ], [ 11.487140943436859, 49.254952324267528 ], [ 11.48933591722172, 49.253592774482648 ], [ 11.491418869568415, 49.252160067419467 ], [ 11.493384091249355, 49.250658123838356 ], [ 11.495226195728513, 49.249091054339864 ], [ 11.496940133925548, 49.247463148164968 ], [ 11.498521208055005, 49.245778861504128 ], [ 11.499965084502588, 49.244042805346581 ], [ 11.501267805703318, 49.242259732902497 ], [ 11.502425800988936, 49.240434526631688 ], [ 11.503435896374855, 49.23857218491387 ], [ 11.504295323259834, 49.236677808396614 ], [ 11.50500172601452, 49.234756586057443 ], [ 11.505553168438059, 49.232813781018265 ], [ 11.505948139065104, 49.230854716150411 ], [ 11.506185555308615, 49.228884759509285 ], [ 11.506264766427176, 49.226909309638579 ] ] ] } },
{ "type": "Feature", "properties": { "name": "Sengenthal", "feature_type": "mrr", "metric_roundness": 51.88, "metric_rectangularity": 63.3, "metric_mobile_fit": 44.83, "metric_aspect_ratio": 1.114, "metric_area_km2": 67.44 }, "geometry": { "type": "Polygon", "coordinates": [ [ [ 11.519618881672649, 49.225748758130493 ], [ 11.424696938457991, 49.183281028766864 ], [ 11.382476336412832, 49.223566445829277 ], [ 11.477398279627488, 49.265999581347074 ], [ 11.519618881672649, 49.225748758130493 ] ] ] } }
]
}
