{
"type": "FeatureCollection",
"name": "senille_saint_sauveur",
"crs": { "type": "name", "properties": { "name": "urn:ogc:def:crs:OGC:1.3:CRS84" } },
"features": [
{ "type": "Feature", "properties": { "name": "Senillé-Saint-Sauveur", "metric_roundness": 50.52, "metric_rectangularity": 64.04, "metric_mobile_fit": 70.17, "metric_aspect_ratio": 0.861, "metric_area_km2": 107.48 }, "geometry": { "type": "Polygon", "coordinates": [ [ [ 0.666557, 46.838143 ], [ 0.616394, 46.827351 ], [ 0.620711, 46.823833799999981 ], [ 0.6085968, 46.8175509 ], [ 0.606629, 46.805603299999987 ], [ 0.5889341, 46.793648 ], [ 0.5839965, 46.7843963 ], [ 0.5760656, 46.779069399999983 ], [ 0.581328, 46.773586 ], [ 0.5978966, 46.761420599999987 ], [ 0.6003405, 46.756528499999973 ], [ 0.6073927, 46.7502317 ], [ 0.6344637, 46.755731 ], [ 0.6492575, 46.7540215 ], [ 0.657003, 46.753326 ], [ 0.660271, 46.755624 ], [ 0.6656534, 46.759369 ], [ 0.6638803, 46.76509249999998 ], [ 0.6656919, 46.767425399999986 ], [ 0.6876668, 46.776487499999988 ], [ 0.6797329, 46.7832343 ], [ 0.6775295, 46.7947945 ], [ 0.6634209, 46.797488499999986 ], [ 0.6741728, 46.811801699999982 ], [ 0.6674493, 46.8174849 ], [ 0.6785305, 46.838991499999985 ], [ 0.666557, 46.838143 ] ] ] } }
]
}
