{
"type": "FeatureCollection",
"name": "serbanesti",
"crs": { "type": "name", "properties": { "name": "urn:ogc:def:crs:OGC:1.3:CRS84" } },
"features": [
{ "type": "Feature", "properties": { "name": "Şerbăneşti", "feature_type": "entity", "metric_roundness": 46.54, "metric_rectangularity": 75.17, "metric_mobile_fit": 77.91, "metric_aspect_ratio": 0.783, "metric_area_km2": 80.37 }, "geometry": { "type": "Polygon", "coordinates": [ [ [ 24.654491, 44.2834935 ], [ 24.7078577, 44.3108231 ], [ 24.734005, 44.328118 ], [ 24.710939, 44.354634 ], [ 24.7063762, 44.3547662 ], [ 24.6916755, 44.375019499999986 ], [ 24.6911035, 44.3685415 ], [ 24.6839459, 44.359311 ], [ 24.6695824, 44.3522265 ], [ 24.660348, 44.354590699999989 ], [ 24.6337655, 44.337811499999987 ], [ 24.6388753, 44.3193579 ], [ 24.6501665, 44.295131 ], [ 24.654491, 44.2834935 ] ] ] } },
{ "type": "Feature", "properties": { "name": "Şerbăneşti", "feature_type": "circle", "metric_roundness": 46.54, "metric_rectangularity": 75.17, "metric_mobile_fit": 77.91, "metric_aspect_ratio": 0.783, "metric_area_km2": 80.37 }, "geometry": { "type": "Polygon", "coordinates": [ [ [ 24.739704295861653, 44.32927435283959 ], [ 24.739612994033688, 44.326780155555831 ], [ 24.739339338801752, 44.324292689069352 ], [ 24.738884080235806, 44.321818772655284 ], [ 24.738248466167956, 44.319365189301237 ], [ 24.73743423877216, 44.316938667091961 ], [ 24.736443629789125, 44.314545860735443 ], [ 24.735279354409212, 44.312193333281428 ], [ 24.733944603830313, 44.309887538082869 ], [ 24.73244303651099, 44.307634801050327 ], [ 24.73077876814288, 44.305441303248614 ], [ 24.72895636036991, 44.30331306388404 ], [ 24.726980808285113, 44.301255923729684 ], [ 24.724857526739424, 44.299275529035008 ], [ 24.722592335499982, 44.297377315964717 ], [ 24.720191443298518, 44.295566495610501 ], [ 24.717661430813667, 44.293848039617785 ], [ 24.715009232633808, 44.29222666646762 ], [ 24.712242118249783, 44.29070682845267 ], [ 24.709367672129783, 44.289292699383665 ], [ 24.706393772930827, 44.287988163061222 ], [ 24.703328571903903, 44.286796802545418 ], [ 24.70018047055197, 44.28572189025369 ], [ 24.696958097602007, 44.284766378914803 ], [ 24.693670285354287, 44.283932893404881 ], [ 24.690326045473643, 44.283223723488142 ], [ 24.686934544289144, 44.282640817483589 ], [ 24.683505077669789, 44.282185776875018 ], [ 24.680047045545201, 44.281859851880135 ], [ 24.676569926141077, 44.28166393799107 ], [ 24.67308325, 44.281598573496318 ], [ 24.669596573858925, 44.28166393799107 ], [ 24.666119454454801, 44.281859851880135 ], [ 24.662661422330213, 44.282185776875018 ], [ 24.659231955710858, 44.282640817483589 ], [ 24.655840454526359, 44.283223723488142 ], [ 24.652496214645719, 44.283932893404881 ], [ 24.649208402397996, 44.284766378914803 ], [ 24.645986029448032, 44.28572189025369 ], [ 24.6428379280961, 44.286796802545418 ], [ 24.639772727069175, 44.287988163061222 ], [ 24.636798827870223, 44.289292699383665 ], [ 24.633924381750223, 44.29070682845267 ], [ 24.631157267366198, 44.29222666646762 ], [ 24.628505069186335, 44.293848039617785 ], [ 24.625975056701485, 44.295566495610501 ], [ 24.623574164500024, 44.297377315964717 ], [ 24.621308973260579, 44.299275529035008 ], [ 24.619185691714893, 44.301255923729684 ], [ 24.617210139630092, 44.30331306388404 ], [ 24.615387731857123, 44.305441303248614 ], [ 24.613723463489016, 44.307634801050327 ], [ 24.612221896169693, 44.309887538082869 ], [ 24.610887145590791, 44.312193333281428 ], [ 24.609722870210881, 44.314545860735443 ], [ 24.608732261227843, 44.316938667091961 ], [ 24.60791803383205, 44.319365189301237 ], [ 24.607282419764196, 44.321818772655284 ], [ 24.606827161198254, 44.324292689069352 ], [ 24.606553505966318, 44.326780155555831 ], [ 24.606462204138349, 44.32927435283959 ], [ 24.606553505966318, 44.331768444063364 ], [ 24.606827161198254, 44.334255593531914 ], [ 24.607282419764196, 44.336728985443408 ], [ 24.60791803383205, 44.339181842556833 ], [ 24.608732261227843, 44.341607444744263 ], [ 24.609722870210881, 44.343999147377673 ], [ 24.610887145590791, 44.346350399499947 ], [ 24.612221896169689, 44.348654761730941 ], [ 24.613723463489016, 44.350905923860005 ], [ 24.615387731857123, 44.353097722077301 ], [ 24.617210139630092, 44.355224155797515 ], [ 24.619185691714893, 44.357279404030599 ], [ 24.621308973260579, 44.359257841255392 ], [ 24.623574164500024, 44.361154052753641 ], [ 24.625975056701485, 44.362962849363278 ], [ 24.628505069186335, 44.364679281611465 ], [ 24.631157267366198, 44.366298653189723 ], [ 24.633924381750223, 44.367816533735031 ], [ 24.636798827870223, 44.369228770883076 ], [ 24.639772727069175, 44.370531501561551 ], [ 24.6428379280961, 44.371721162493358 ], [ 24.645986029448032, 44.372794499882069 ], [ 24.649208402397996, 44.37374857825386 ], [ 24.652496214645719, 44.37458078843251 ], [ 24.655840454526359, 44.375288854626561 ], [ 24.659231955710858, 44.375870840609657 ], [ 24.662661422330213, 44.37632515497792 ], [ 24.666119454454801, 44.376650555470476 ], [ 24.669596573858925, 44.376846152341763 ], [ 24.67308325, 44.376911410776579 ], [ 24.676569926141077, 44.376846152341763 ], [ 24.680047045545201, 44.376650555470476 ], [ 24.683505077669789, 44.37632515497792 ], [ 24.686934544289144, 44.375870840609657 ], [ 24.690326045473643, 44.375288854626561 ], [ 24.693670285354287, 44.37458078843251 ], [ 24.696958097602007, 44.37374857825386 ], [ 24.70018047055197, 44.372794499882069 ], [ 24.703328571903903, 44.371721162493358 ], [ 24.706393772930827, 44.370531501561551 ], [ 24.709367672129783, 44.369228770883076 ], [ 24.712242118249783, 44.367816533735031 ], [ 24.715009232633808, 44.366298653189723 ], [ 24.717661430813667, 44.364679281611465 ], [ 24.720191443298518, 44.362962849363278 ], [ 24.722592335499982, 44.361154052753641 ], [ 24.724857526739424, 44.359257841255392 ], [ 24.726980808285113, 44.357279404030599 ], [ 24.72895636036991, 44.355224155797515 ], [ 24.73077876814288, 44.353097722077301 ], [ 24.73244303651099, 44.350905923860005 ], [ 24.733944603830313, 44.348654761730941 ], [ 24.735279354409212, 44.346350399499947 ], [ 24.736443629789125, 44.343999147377673 ], [ 24.73743423877216, 44.341607444744263 ], [ 24.738248466167956, 44.339181842556833 ], [ 24.738884080235806, 44.336728985443408 ], [ 24.739339338801752, 44.334255593531914 ], [ 24.739612994033688, 44.331768444063364 ], [ 24.739704295861653, 44.32927435283959 ] ] ] } },
{ "type": "Feature", "properties": { "name": "Şerbăneşti", "feature_type": "mrr", "metric_roundness": 46.54, "metric_rectangularity": 75.17, "metric_mobile_fit": 77.91, "metric_aspect_ratio": 0.783, "metric_area_km2": 80.37 }, "geometry": { "type": "Polygon", "coordinates": [ [ [ 24.739634279540013, 44.327090147909821 ], [ 24.654491, 44.2834935 ], [ 24.606532199590514, 44.331458461919269 ], [ 24.6916755, 44.375019499999986 ], [ 24.739634279540013, 44.327090147909821 ] ] ] } }
]
}
