{
"type": "FeatureCollection",
"name": "serokomla",
"crs": { "type": "name", "properties": { "name": "urn:ogc:def:crs:OGC:1.3:CRS84" } },
"features": [
{ "type": "Feature", "properties": { "name": "Serokomla", "metric_roundness": 53.52, "metric_rectangularity": 66.55, "metric_mobile_fit": 49.47, "metric_aspect_ratio": 1.068, "metric_area_km2": 199.5 }, "geometry": { "type": "Polygon", "coordinates": [ [ [ 22.3066061, 51.7291988 ], [ 22.3083648, 51.7233215 ], [ 22.3029598, 51.71908489999997 ], [ 22.2865479, 51.7152434 ], [ 22.2742912, 51.722738699999987 ], [ 22.2527034, 51.7085383 ], [ 22.2538797, 51.6808714 ], [ 22.2595862, 51.674701399999989 ], [ 22.256085, 51.6712751 ], [ 22.2385735, 51.673839799999989 ], [ 22.2275336, 51.6595982 ], [ 22.2295175, 51.653439 ], [ 22.2597725, 51.6472335 ], [ 22.2632827, 51.640902699999977 ], [ 22.2876727, 51.6379622 ], [ 22.2910578, 51.6522165 ], [ 22.29795, 51.6544365 ], [ 22.303829, 51.6707623 ], [ 22.3159151, 51.6710641 ], [ 22.3216953, 51.674682 ], [ 22.3236366, 51.672492399999989 ], [ 22.3218972, 51.66059 ], [ 22.3253363, 51.6580909 ], [ 22.325184, 51.6517311 ], [ 22.3360178, 51.6494936 ], [ 22.3365295, 51.6432053 ], [ 22.340148, 51.642029 ], [ 22.3437926, 51.6583475 ], [ 22.3670956, 51.6586359 ], [ 22.368669, 51.665979099999987 ], [ 22.3746855, 51.670755899999989 ], [ 22.3984305, 51.7059876 ], [ 22.398407, 51.7138105 ], [ 22.3968555, 51.7142365 ], [ 22.3852353, 51.7178323 ], [ 22.3875105, 51.7250443 ], [ 22.3769575, 51.730859399999979 ], [ 22.3491966, 51.730927299999983 ], [ 22.3281347, 51.736885599999979 ], [ 22.3126085, 51.737179 ], [ 22.3066061, 51.7291988 ] ] ] } }
]
}
