{
"type": "FeatureCollection",
"name": "serradilla",
"crs": { "type": "name", "properties": { "name": "urn:ogc:def:crs:OGC:1.3:CRS84" } },
"features": [
{ "type": "Feature", "properties": { "name": "Serradilla", "feature_type": "entity", "metric_roundness": 33.8, "metric_rectangularity": 49.34, "metric_mobile_fit": 85.73, "metric_aspect_ratio": 0.705, "metric_area_km2": 439.89 }, "geometry": { "type": "Polygon", "coordinates": [ [ [ -6.2241753, 39.752320099999984 ], [ -6.2226853, 39.74655019999998 ], [ -6.2165005, 39.740641400000015 ], [ -6.2153846, 39.733152399999987 ], [ -6.200515, 39.7170445 ], [ -6.186616, 39.714077 ], [ -6.1768663, 39.7152004 ], [ -6.1665346, 39.7208557 ], [ -6.1424097, 39.743007299999988 ], [ -6.1240441, 39.7482389 ], [ -6.1256794, 39.6851862 ], [ -6.1233013, 39.6689787 ], [ -6.116526, 39.662365799999982 ], [ -6.0755002, 39.6780495 ], [ -6.052117, 39.696972 ], [ -6.0761542, 39.727539199999988 ], [ -6.0811699, 39.748701399999987 ], [ -6.0631746, 39.7585889 ], [ -6.0598049, 39.7668969 ], [ -6.0410123, 39.7707121 ], [ -6.0341528, 39.7801065 ], [ -6.0344799, 39.802460299999986 ], [ -6.0417106, 39.8075899 ], [ -6.0480459, 39.805577 ], [ -6.0463094, 39.8106269 ], [ -6.0555293, 39.818331 ], [ -6.0593447, 39.8274665 ], [ -6.0537117, 39.8330348 ], [ -6.0331422, 39.831733699999987 ], [ -6.022905, 39.8383065 ], [ -6.0096205, 39.8448423 ], [ -6.0017547, 39.839422499999984 ], [ -5.9921676, 39.8381826 ], [ -5.9874699, 39.8482483 ], [ -5.982338, 39.851597 ], [ -5.9902923, 39.8593423 ], [ -6.0041855, 39.864066699999988 ], [ -6.0057554, 39.881238599999982 ], [ -6.0157319, 39.8844913 ], [ -6.0072518, 39.8917488 ], [ -6.0124273, 39.893835499999987 ], [ -6.0122382, 39.8987964 ], [ -6.0176292, 39.898471099999981 ], [ -6.0138604, 39.9055681 ], [ -6.0175132, 39.9088413 ], [ -6.0157764, 39.9131751 ], [ -6.0185666, 39.9172429 ], [ -6.0130051, 39.9279966 ], [ -6.0214958, 39.928852799999987 ], [ -6.0316604, 39.9356947 ], [ -6.0417527, 39.934297 ], [ -6.0471935, 39.9299588 ], [ -6.0492292, 39.9101824 ], [ -6.05684, 39.904736 ], [ -6.0517385, 39.899297399999988 ], [ -6.0539683, 39.8858553 ], [ -6.0477564, 39.8718383 ], [ -6.0865945, 39.8786045 ], [ -6.0960427, 39.884050599999988 ], [ -6.1013878, 39.8825797 ], [ -6.109101, 39.8881023 ], [ -6.1203155, 39.8841823 ], [ -6.1270394, 39.8777002 ], [ -6.1283055, 39.8664945 ], [ -6.160125, 39.863209 ], [ -6.1664773, 39.8570743 ], [ -6.155773, 39.8388815 ], [ -6.197302, 39.8389435 ], [ -6.1916666, 39.8362292 ], [ -6.1884067, 39.8276494 ], [ -6.1751864, 39.8131543 ], [ -6.1705055, 39.7911391 ], [ -6.1652914, 39.7823909 ], [ -6.1698001, 39.7782685 ], [ -6.1910302, 39.7727364 ], [ -6.2060418, 39.7664076 ], [ -6.2265659, 39.7629792 ], [ -6.233228, 39.758129 ], [ -6.2241753, 39.752320099999984 ] ] ] } },
{ "type": "Feature", "properties": { "name": "Serradilla", "feature_type": "circle", "metric_roundness": 33.8, "metric_rectangularity": 49.34, "metric_mobile_fit": 85.73, "metric_aspect_ratio": 0.705, "metric_area_km2": 439.89 }, "geometry": { "type": "Polygon", "coordinates": [ [ [ -5.891221398341697, 39.799166043157811 ], [ -5.891472017790239, 39.791812495515927 ], [ -5.892223189205374, 39.784478320482108 ], [ -5.893472853678468, 39.777183630209549 ], [ -5.895217585966064, 39.769948434942549 ], [ -5.897452603878233, 39.762792587994056 ], [ -5.900171781386236, 39.755735731086048 ], [ -5.90336766541353, 39.748797240205249 ], [ -5.90703149626414, 39.74199617212615 ], [ -5.911153231632372, 39.735351211751691 ], [ -5.915721574128081, 39.728880620420838 ], [ -5.920724002242028, 39.722602185329912 ], [ -5.926146804666469, 39.716533170211981 ], [ -5.931975117876891, 39.710690267415885 ], [ -5.938192966871904, 39.705089551522661 ], [ -5.944783308959614, 39.699746434633582 ], [ -5.951728080470443, 39.69467562345929 ], [ -5.959008246268409, 39.689891078335286 ], [ -5.966603851925096, 39.685405974283036 ], [ -5.974494078413363, 39.681232664231281 ], [ -5.98265729917085, 39.677382644505279 ], [ -5.991071139376877, 39.673866522685891 ], [ -5.999712537280279, 39.670693987933483 ], [ -6.00855780741006, 39.66787378386455 ], [ -6.017582705495621, 39.665413684061512 ], [ -6.026762494918621, 39.663320470288689 ], [ -6.036072014514333, 39.661599913479293 ], [ -6.045485747536641, 39.660256757550144 ], [ -6.05497789159767, 39.659294706092659 ], [ -6.064522429390344, 39.658716411979668 ], [ -6.0740932, 39.658523469919544 ], [ -6.083663970609657, 39.658716411979668 ], [ -6.09320850840233, 39.659294706092659 ], [ -6.10270065246336, 39.660256757550144 ], [ -6.112114385485668, 39.661599913479293 ], [ -6.12142390508138, 39.663320470288689 ], [ -6.13060369450438, 39.665413684061512 ], [ -6.139628592589941, 39.66787378386455 ], [ -6.148473862719722, 39.670693987933483 ], [ -6.157115260623124, 39.673866522685891 ], [ -6.165529100829152, 39.677382644505279 ], [ -6.173692321586637, 39.681232664231281 ], [ -6.181582548074905, 39.685405974283036 ], [ -6.189178153731592, 39.689891078335286 ], [ -6.196458319529558, 39.69467562345929 ], [ -6.203403091040387, 39.699746434633582 ], [ -6.209993433128097, 39.705089551522661 ], [ -6.21621128212311, 39.710690267415885 ], [ -6.222039595333532, 39.716533170211981 ], [ -6.227462397757973, 39.722602185329912 ], [ -6.23246482587192, 39.728880620420838 ], [ -6.23703316836763, 39.735351211751691 ], [ -6.241154903735861, 39.74199617212615 ], [ -6.244818734586471, 39.748797240205249 ], [ -6.248014618613764, 39.755735731086048 ], [ -6.250733796121768, 39.762792587994056 ], [ -6.252968814033937, 39.769948434942549 ], [ -6.254713546321534, 39.777183630209549 ], [ -6.255963210794627, 39.784478320482108 ], [ -6.256714382209762, 39.791812495515927 ], [ -6.256965001658304, 39.799166043157811 ], [ -6.256714382209762, 39.806518804578431 ], [ -6.255963210794627, 39.813850629562509 ], [ -6.254713546321534, 39.82114143170466 ], [ -6.252968814033937, 39.828371243360017 ], [ -6.250733796121768, 39.835520270199957 ], [ -6.248014618613764, 39.842568945225473 ], [ -6.244818734586471, 39.849497982092736 ], [ -6.241154903735861, 39.856288427607936 ], [ -6.23703316836763, 39.862921713251694 ], [ -6.23246482587192, 39.869379705596337 ], [ -6.227462397757973, 39.875644755483187 ], [ -6.222039595333532, 39.881699745830673 ], [ -6.21621128212311, 39.887528137948642 ], [ -6.209993433128097, 39.893114016238343 ], [ -6.203403091040387, 39.898442131162582 ], [ -6.196458319529558, 39.903497940375388 ], [ -6.189178153731592, 39.908267647905888 ], [ -6.181582548074905, 39.912738241296196 ], [ -6.173692321586638, 39.916897526599165 ], [ -6.165529100829152, 39.920734161147273 ], [ -6.157115260623124, 39.924237684010031 ], [ -6.148473862719722, 39.927398544063372 ], [ -6.139628592589941, 39.930208125600792 ], [ -6.130603694504382, 39.932658771421956 ], [ -6.12142390508138, 39.934743803341853 ], [ -6.112114385485668, 39.936457540068893 ], [ -6.10270065246336, 39.937795312408042 ], [ -6.09320850840233, 39.938753475751319 ], [ -6.083663970609659, 39.939329419824574 ], [ -6.0740932, 39.939521575666809 ], [ -6.064522429390344, 39.939329419824574 ], [ -6.05497789159767, 39.938753475751319 ], [ -6.045485747536641, 39.937795312408042 ], [ -6.036072014514333, 39.936457540068893 ], [ -6.026762494918621, 39.934743803341853 ], [ -6.017582705495621, 39.932658771421956 ], [ -6.00855780741006, 39.930208125600792 ], [ -5.999712537280279, 39.927398544063372 ], [ -5.991071139376877, 39.924237684010031 ], [ -5.98265729917085, 39.920734161147273 ], [ -5.974494078413364, 39.916897526599165 ], [ -5.966603851925096, 39.912738241296196 ], [ -5.959008246268409, 39.908267647905888 ], [ -5.951728080470443, 39.903497940375388 ], [ -5.944783308959614, 39.898442131162582 ], [ -5.938192966871904, 39.893114016238343 ], [ -5.931975117876891, 39.887528137948642 ], [ -5.926146804666469, 39.881699745830673 ], [ -5.92072400224203, 39.875644755483187 ], [ -5.915721574128081, 39.869379705596337 ], [ -5.911153231632372, 39.862921713251694 ], [ -5.90703149626414, 39.856288427607936 ], [ -5.90336766541353, 39.849497982092736 ], [ -5.900171781386236, 39.842568945225473 ], [ -5.897452603878233, 39.835520270199957 ], [ -5.895217585966064, 39.828371243360017 ], [ -5.893472853678468, 39.82114143170466 ], [ -5.892223189205374, 39.813850629562509 ], [ -5.891472017790239, 39.806518804578431 ], [ -5.891221398341697, 39.799166043157811 ] ] ] } },
{ "type": "Feature", "properties": { "name": "Serradilla", "feature_type": "mrr", "metric_roundness": 33.8, "metric_rectangularity": 49.34, "metric_mobile_fit": 85.73, "metric_aspect_ratio": 0.705, "metric_area_km2": 439.89 }, "geometry": { "type": "Polygon", "coordinates": [ [ [ -5.953699058066952, 39.914958169240251 ], [ -6.072954204691626, 39.65073099542392 ], [ -6.25973300242571, 39.700592012101389 ], [ -6.140477855801037, 39.964627990211007 ], [ -5.953699058066952, 39.914958169240251 ] ] ] } }
]
}
