{
"type": "FeatureCollection",
"name": "serreta",
"crs": { "type": "name", "properties": { "name": "urn:ogc:def:crs:OGC:1.3:CRS84" } },
"features": [
{ "type": "Feature", "properties": { "name": "Serreta", "metric_roundness": 52.5, "metric_rectangularity": 62.78, "metric_mobile_fit": 60.54, "metric_aspect_ratio": 0.957, "metric_area_km2": 23.66 }, "geometry": { "type": "Polygon", "coordinates": [ [ [ -27.3339938, 38.7619672 ], [ -27.3513387, 38.768966599999985 ], [ -27.3613815, 38.7789915 ], [ -27.3659755, 38.7754797 ], [ -27.3689664, 38.7672878 ], [ -27.3767217, 38.7661685 ], [ -27.3719784, 38.7597339 ], [ -27.3788852, 38.7477781 ], [ -27.377986, 38.734174 ], [ -27.363271, 38.7375864 ], [ -27.3246605, 38.73975 ], [ -27.3238775, 38.745389 ], [ -27.3339938, 38.7619672 ] ] ] } }
]
}
