{
"type": "FeatureCollection",
"name": "moire",
"crs": { "type": "name", "properties": { "name": "urn:ogc:def:crs:OGC:1.3:CRS84" } },
"features": [
{ "type": "Feature", "properties": { "name": "Moiré", "feature_type": "entity", "metric_roundness": 53.8, "metric_rectangularity": 66.29, "metric_mobile_fit": 85.49, "metric_aspect_ratio": 0.708, "metric_area_km2": 4.7 }, "geometry": { "type": "Polygon", "coordinates": [ [ [ 4.595516, 45.915401 ], [ 4.611962, 45.9233055 ], [ 4.613319, 45.929578 ], [ 4.5997174, 45.93585 ], [ 4.592516, 45.9318415 ], [ 4.595516, 45.915401 ] ] ] } },
{ "type": "Feature", "properties": { "name": "Moiré", "feature_type": "circle", "metric_roundness": 53.8, "metric_rectangularity": 66.29, "metric_mobile_fit": 85.49, "metric_aspect_ratio": 0.708, "metric_area_km2": 4.7 }, "geometry": { "type": "Polygon", "coordinates": [ [ [ 4.614556199227562, 45.925431622133956 ], [ 4.614535670013185, 45.924886288336381 ], [ 4.614474138639204, 45.92434244392205 ], [ 4.614371773758837, 45.923801579596535 ], [ 4.614228855947108, 45.92326517794023 ], [ 4.614045776931803, 45.922734709343587 ], [ 4.613823038519778, 45.922211627975159 ], [ 4.613561251221538, 45.921697367793769 ], [ 4.613261132577869, 45.921193338615623 ], [ 4.612923505193116, 45.920700922247164 ], [ 4.61254929448047, 45.920221468694422 ], [ 4.612139526125484, 45.91975629245912 ], [ 4.611695323274734, 45.919306668931888 ], [ 4.611217903457362, 45.918873830892352 ], [ 4.6107085752479, 45.9184589651259 ], [ 4.610168734679568, 45.918063209166334 ], [ 4.609599861417838, 45.917687648173413 ], [ 4.60900351470478, 45.917333311953875 ], [ 4.608381329085282, 45.917001172134242 ], [ 4.607735009926881, 45.916692139493101 ], [ 4.607066328745464, 45.916407061460227 ], [ 4.606377118349672, 45.916146719789587 ], [ 4.605669267817289, 45.91591182841249 ], [ 4.604944717317426, 45.915703031476845 ], [ 4.604205452792638, 45.915520901578056 ], [ 4.603453500515604, 45.915365938186319 ], [ 4.602690921535245, 45.915238566274667 ], [ 4.601919806027543, 45.915139135151662 ], [ 4.601142267566503, 45.915067917501908 ], [ 4.600360437331001, 45.915025108636925 ], [ 4.599576458263368, 45.915010825958639 ], [ 4.598792479195735, 45.915025108636925 ], [ 4.598010648960233, 45.915067917501908 ], [ 4.597233110499193, 45.915139135151662 ], [ 4.596461994991491, 45.915238566274667 ], [ 4.595699416011132, 45.915365938186319 ], [ 4.594947463734098, 45.915520901578056 ], [ 4.59420819920931, 45.915703031476845 ], [ 4.593483648709446, 45.91591182841249 ], [ 4.592775798177064, 45.916146719789587 ], [ 4.592086587781272, 45.916407061460227 ], [ 4.591417906599855, 45.916692139493101 ], [ 4.590771587441454, 45.917001172134242 ], [ 4.590149401821957, 45.917333311953875 ], [ 4.589553055108898, 45.917687648173413 ], [ 4.588984181847168, 45.918063209166334 ], [ 4.588444341278836, 45.9184589651259 ], [ 4.587935013069373, 45.918873830892352 ], [ 4.587457593252002, 45.919306668931888 ], [ 4.587013390401252, 45.91975629245912 ], [ 4.586603622046266, 45.920221468694422 ], [ 4.58622941133362, 45.920700922247164 ], [ 4.585891783948867, 45.921193338615623 ], [ 4.585591665305198, 45.921697367793769 ], [ 4.585329878006959, 45.922211627975159 ], [ 4.585107139594934, 45.922734709343587 ], [ 4.584924060579628, 45.92326517794023 ], [ 4.584781142767899, 45.923801579596535 ], [ 4.584678777887532, 45.92434244392205 ], [ 4.584617246513552, 45.924886288336381 ], [ 4.584596717299175, 45.925431622133956 ], [ 4.584617246513552, 45.925976950570728 ], [ 4.584678777887532, 45.926520778961383 ], [ 4.584781142767899, 45.927061616775923 ], [ 4.584924060579628, 45.927597981724396 ], [ 4.585107139594934, 45.928128403818548 ], [ 4.585329878006959, 45.928651429399309 ], [ 4.585591665305198, 45.929165625119062 ], [ 4.585891783948867, 45.929669581867863 ], [ 4.58622941133362, 45.930161918632841 ], [ 4.586603622046266, 45.930641286280093 ], [ 4.587013390401252, 45.931106371249101 ], [ 4.587457593252002, 45.931555899149188 ], [ 4.587935013069373, 45.931988638248413 ], [ 4.588444341278836, 45.932403402845402 ], [ 4.588984181847168, 45.932799056514796 ], [ 4.589553055108898, 45.933174515217544 ], [ 4.590149401821957, 45.933528750267627 ], [ 4.590771587441454, 45.933860791146941 ], [ 4.591417906599855, 45.934169728160931 ], [ 4.592086587781272, 45.934454714927512 ], [ 4.592775798177064, 45.934714970692674 ], [ 4.593483648709446, 45.934949782466283 ], [ 4.59420819920931, 45.935158506972591 ], [ 4.594947463734098, 45.935340572409743 ], [ 4.595699416011132, 45.935495480013806 ], [ 4.596461994991491, 45.935622805422973 ], [ 4.597233110499193, 45.935722199838146 ], [ 4.598010648960233, 45.935793390976926 ], [ 4.598792479195735, 45.935836183818246 ], [ 4.599576458263368, 45.935850461135722 ], [ 4.600360437331001, 45.935836183818246 ], [ 4.601142267566503, 45.935793390976926 ], [ 4.601919806027543, 45.935722199838146 ], [ 4.602690921535245, 45.935622805422973 ], [ 4.603453500515604, 45.935495480013806 ], [ 4.604205452792638, 45.935340572409743 ], [ 4.604944717317426, 45.935158506972591 ], [ 4.605669267817289, 45.934949782466283 ], [ 4.606377118349672, 45.934714970692674 ], [ 4.607066328745464, 45.934454714927512 ], [ 4.607735009926881, 45.934169728160931 ], [ 4.608381329085282, 45.933860791146941 ], [ 4.60900351470478, 45.933528750267627 ], [ 4.609599861417838, 45.933174515217544 ], [ 4.610168734679568, 45.932799056514796 ], [ 4.6107085752479, 45.932403402845402 ], [ 4.611217903457362, 45.931988638248413 ], [ 4.611695323274734, 45.931555899149188 ], [ 4.612139526125484, 45.931106371249101 ], [ 4.61254929448047, 45.930641286280093 ], [ 4.612923505193116, 45.930161918632841 ], [ 4.613261132577869, 45.929669581867863 ], [ 4.613561251221538, 45.929165625119062 ], [ 4.613823038519778, 45.928651429399309 ], [ 4.614045776931803, 45.928128403818548 ], [ 4.614228855947108, 45.927597981724396 ], [ 4.614371773758837, 45.927061616775923 ], [ 4.614474138639204, 45.926520778961383 ], [ 4.614535670013185, 45.925976950570728 ], [ 4.614556199227562, 45.925431622133956 ] ] ] } },
{ "type": "Feature", "properties": { "name": "Moiré", "feature_type": "mrr", "metric_roundness": 53.8, "metric_rectangularity": 66.29, "metric_mobile_fit": 85.49, "metric_aspect_ratio": 0.708, "metric_area_km2": 4.7 }, "geometry": { "type": "Polygon", "coordinates": [ [ [ 4.617097759253767, 45.925773687377585 ], [ 4.595516, 45.915401 ], [ 4.583125159443499, 45.927877009828542 ], [ 4.604706915307794, 45.938247363442997 ], [ 4.617097759253767, 45.925773687377585 ] ] ] } }
]
}
