{
"type": "FeatureCollection",
"name": "monchy_au_bois",
"crs": { "type": "name", "properties": { "name": "urn:ogc:def:crs:OGC:1.3:CRS84" } },
"features": [
{ "type": "Feature", "properties": { "name": "Monchy-au-Bois", "metric_roundness": 69.06, "metric_rectangularity": 72.08, "metric_mobile_fit": 51.65, "metric_aspect_ratio": 1.046, "metric_area_km2": 28.23 }, "geometry": { "type": "Polygon", "coordinates": [ [ [ 2.6296675, 50.1786818 ], [ 2.6292585, 50.17430359999998 ], [ 2.635658, 50.1712365 ], [ 2.663432, 50.1600035 ], [ 2.6754075, 50.164955199999973 ], [ 2.680184, 50.172227 ], [ 2.6803229, 50.177350599999983 ], [ 2.6828795, 50.178153 ], [ 2.6863115, 50.189100499999988 ], [ 2.6778724, 50.1916909 ], [ 2.6721785, 50.1975818 ], [ 2.6517225, 50.1953275 ], [ 2.6249325, 50.18364 ], [ 2.6296675, 50.1786818 ] ] ] } }
]
}
