{
"type": "FeatureCollection",
"name": "moncy",
"crs": { "type": "name", "properties": { "name": "urn:ogc:def:crs:OGC:1.3:CRS84" } },
"features": [
{ "type": "Feature", "properties": { "name": "Moncy", "metric_roundness": 47.17, "metric_rectangularity": 65.04, "metric_mobile_fit": -6.48, "metric_aspect_ratio": 1.627, "metric_area_km2": 17.93 }, "geometry": { "type": "Polygon", "coordinates": [ [ [ -0.6419944, 48.8339521 ], [ -0.64344, 48.840942499999983 ], [ -0.6548207, 48.837887699999989 ], [ -0.6729467, 48.842953499999979 ], [ -0.6823186, 48.8413258 ], [ -0.6920344, 48.846921099999982 ], [ -0.7040122, 48.8391198 ], [ -0.701014, 48.8321776 ], [ -0.682169, 48.821835 ], [ -0.6746735, 48.822933 ], [ -0.645416, 48.827214 ], [ -0.6419944, 48.8339521 ] ] ] } }
]
}
