{
"type": "FeatureCollection",
"name": "monlezun",
"crs": { "type": "name", "properties": { "name": "urn:ogc:def:crs:OGC:1.3:CRS84" } },
"features": [
{ "type": "Feature", "properties": { "name": "Monlezun", "feature_type": "entity", "metric_roundness": 55.51, "metric_rectangularity": 61.13, "metric_mobile_fit": 30.13, "metric_aspect_ratio": 1.261, "metric_area_km2": 33.33 }, "geometry": { "type": "Polygon", "coordinates": [ [ [ 0.1839405, 43.4980271 ], [ 0.1932577, 43.494106699999989 ], [ 0.201061, 43.472982499999979 ], [ 0.2148321, 43.47967239999997 ], [ 0.2234461, 43.4744379 ], [ 0.239824, 43.4782535 ], [ 0.241341, 43.482259799999987 ], [ 0.2465621, 43.4842419 ], [ 0.2429211, 43.490449299999987 ], [ 0.2445117, 43.494832 ], [ 0.256697, 43.4956875 ], [ 0.2419188, 43.5038461 ], [ 0.241813, 43.506207 ], [ 0.242865, 43.507845499999988 ], [ 0.2430695, 43.511005 ], [ 0.242133, 43.512965499999986 ], [ 0.240791, 43.514198 ], [ 0.241293, 43.5176775 ], [ 0.2303089, 43.5094587 ], [ 0.2246853, 43.5136598 ], [ 0.2125376, 43.5100589 ], [ 0.19184, 43.5163475 ], [ 0.189984, 43.514782499999988 ], [ 0.1889875, 43.513 ], [ 0.18852, 43.510653499999989 ], [ 0.188819, 43.507647 ], [ 0.1865845, 43.505975 ], [ 0.178994, 43.503854499999989 ], [ 0.1839405, 43.4980271 ] ] ] } },
{ "type": "Feature", "properties": { "name": "Monlezun", "feature_type": "circle", "metric_roundness": 55.51, "metric_rectangularity": 61.13, "metric_mobile_fit": 30.13, "metric_aspect_ratio": 1.261, "metric_area_km2": 33.33 }, "geometry": { "type": "Polygon", "coordinates": [ [ [ 0.256934172917865, 43.498813996582221 ], [ 0.256880341228117, 43.497322761026005 ], [ 0.256718993707794, 43.495835576165064 ], [ 0.256450572599234, 43.494356518722022 ], [ 0.256075813626038, 43.492889643438744 ], [ 0.255595743976501, 43.491438971954395 ], [ 0.255011679488164, 43.490008481771056 ], [ 0.254325221041192, 43.488602095337249 ], [ 0.253538250170473, 43.487223669279601 ], [ 0.252652923908462, 43.485876983812098 ], [ 0.251671668872904, 43.484565732352401 ], [ 0.250597174615647, 43.483293511373859 ], [ 0.249432386250761, 43.482063810521275 ], [ 0.248180496382191, 43.480880003017752 ], [ 0.24684493635305, 43.479745336389414 ], [ 0.245429366840544, 43.478662923533541 ], [ 0.243937667822312, 43.477635734155079 ], [ 0.242373927941675, 43.476666586595236 ], [ 0.240742433300953, 43.475758140075015 ], [ 0.239047655713551, 43.474912887375162 ], [ 0.237294240447035, 43.474133147973056 ], [ 0.235486993490771, 43.4734210616556 ], [ 0.233630868383047, 43.472778582626049 ], [ 0.231730952633764, 43.472207474121049 ], [ 0.229792453779931, 43.471709303553169 ], [ 0.227820685112161, 43.471285438192304 ], [ 0.225821051111319, 43.470937041398194 ], [ 0.223799032635206, 43.470665069414444 ], [ 0.221760171895918, 43.470470268733216 ], [ 0.21971005726902, 43.470353174037719 ], [ 0.217654307976205, 43.470314106728537 ], [ 0.21559855868339, 43.470353174037719 ], [ 0.213548444056492, 43.470470268733216 ], [ 0.211509583317204, 43.470665069414444 ], [ 0.209487564841091, 43.470937041398194 ], [ 0.207487930840249, 43.471285438192304 ], [ 0.205516162172479, 43.471709303553169 ], [ 0.203577663318646, 43.472207474121049 ], [ 0.201677747569363, 43.472778582626049 ], [ 0.199821622461639, 43.4734210616556 ], [ 0.198014375505375, 43.474133147973056 ], [ 0.196260960238859, 43.474912887375162 ], [ 0.194566182651457, 43.475758140075015 ], [ 0.192934688010735, 43.476666586595236 ], [ 0.191370948130098, 43.477635734155079 ], [ 0.189879249111866, 43.478662923533541 ], [ 0.18846367959936, 43.479745336389414 ], [ 0.187128119570219, 43.480880003017752 ], [ 0.185876229701649, 43.482063810521275 ], [ 0.184711441336764, 43.483293511373859 ], [ 0.183636947079506, 43.484565732352401 ], [ 0.182655692043948, 43.485876983812098 ], [ 0.181770365781937, 43.487223669279601 ], [ 0.180983394911218, 43.488602095337249 ], [ 0.180296936464246, 43.490008481771056 ], [ 0.179712871975909, 43.491438971954395 ], [ 0.179232802326372, 43.492889643438744 ], [ 0.178858043353176, 43.494356518722022 ], [ 0.178589622244616, 43.495835576165064 ], [ 0.178428274724293, 43.497322761026005 ], [ 0.178374443034545, 43.498813996582221 ], [ 0.178428274724293, 43.500305195309345 ], [ 0.178589622244616, 43.501792270086483 ], [ 0.178858043353176, 43.503271145397136 ], [ 0.179232802326372, 43.504737768494905 ], [ 0.179712871975909, 43.506188120503623 ], [ 0.180296936464246, 43.50761822742146 ], [ 0.180983394911218, 43.50902417099902 ], [ 0.181770365781937, 43.510402099461722 ], [ 0.182655692043948, 43.511748238047339 ], [ 0.183636947079506, 43.513058899329927 ], [ 0.184711441336764, 43.514330493302261 ], [ 0.185876229701649, 43.515559537189162 ], [ 0.187128119570219, 43.516742664965371 ], [ 0.18846367959936, 43.517876636552003 ], [ 0.189879249111866, 43.5189583466668 ], [ 0.191370948130098, 43.519984833304186 ], [ 0.192934688010735, 43.52095328582233 ], [ 0.194566182651457, 43.521861052615272 ], [ 0.196260960238859, 43.522705648349486 ], [ 0.198014375505375, 43.52348476074544 ], [ 0.199821622461639, 43.524196256885837 ], [ 0.201677747569363, 43.524838189033552 ], [ 0.203577663318646, 43.525408799943655 ], [ 0.205516162172479, 43.525906527655359 ], [ 0.207487930840249, 43.526330009750779 ], [ 0.209487564841091, 43.526678087069314 ], [ 0.211509583317204, 43.526949806867592 ], [ 0.213548444056492, 43.527144425416452 ], [ 0.21559855868339, 43.527261410028167 ], [ 0.217654307976205, 43.527300440508249 ], [ 0.21971005726902, 43.527261410028167 ], [ 0.221760171895918, 43.527144425416452 ], [ 0.223799032635206, 43.526949806867592 ], [ 0.225821051111319, 43.526678087069314 ], [ 0.227820685112161, 43.526330009750779 ], [ 0.229792453779931, 43.525906527655359 ], [ 0.231730952633764, 43.525408799943655 ], [ 0.233630868383047, 43.524838189033552 ], [ 0.235486993490771, 43.524196256885837 ], [ 0.237294240447035, 43.52348476074544 ], [ 0.239047655713551, 43.522705648349486 ], [ 0.240742433300953, 43.521861052615272 ], [ 0.242373927941675, 43.52095328582233 ], [ 0.243937667822312, 43.519984833304186 ], [ 0.245429366840544, 43.5189583466668 ], [ 0.24684493635305, 43.517876636552003 ], [ 0.248180496382191, 43.516742664965371 ], [ 0.249432386250761, 43.515559537189162 ], [ 0.250597174615646, 43.514330493302261 ], [ 0.251671668872904, 43.513058899329927 ], [ 0.252652923908462, 43.511748238047339 ], [ 0.253538250170473, 43.510402099461722 ], [ 0.254325221041192, 43.50902417099902 ], [ 0.255011679488164, 43.50761822742146 ], [ 0.255595743976501, 43.506188120503623 ], [ 0.256075813626038, 43.504737768494905 ], [ 0.256450572599234, 43.503271145397136 ], [ 0.256718993707794, 43.501792270086483 ], [ 0.256880341228117, 43.500305195309345 ], [ 0.256934172917865, 43.498813996582221 ] ] ] } },
{ "type": "Feature", "properties": { "name": "Monlezun", "feature_type": "mrr", "metric_roundness": 55.51, "metric_rectangularity": 61.13, "metric_mobile_fit": 30.13, "metric_aspect_ratio": 1.261, "metric_area_km2": 33.33 }, "geometry": { "type": "Polygon", "coordinates": [ [ [ 0.231887271566712, 43.531100720124151 ], [ 0.262938819274255, 43.486774701768105 ], [ 0.205724974666313, 43.465680812479647 ], [ 0.174673426958769, 43.510022313112756 ], [ 0.231887271566712, 43.531100720124151 ] ] ] } }
]
}
