{
"type": "FeatureCollection",
"name": "monte_san_giovanni_in_sabina",
"crs": { "type": "name", "properties": { "name": "urn:ogc:def:crs:OGC:1.3:CRS84" } },
"features": [
{ "type": "Feature", "properties": { "name": "Monte San Giovanni in Sabina", "feature_type": "entity", "metric_roundness": 47.24, "metric_rectangularity": 59.48, "metric_mobile_fit": 13.73, "metric_aspect_ratio": 1.425, "metric_area_km2": 55.8 }, "geometry": { "type": "Polygon", "coordinates": [ [ [ 12.7721365, 42.284684 ], [ 12.7757805, 42.285194 ], [ 12.7780155, 42.2851025 ], [ 12.7800225, 42.284941499999981 ], [ 12.7846281, 42.2893375 ], [ 12.7849991, 42.2981518 ], [ 12.7911531, 42.29918 ], [ 12.8106629, 42.312328799999989 ], [ 12.8290225, 42.3158605 ], [ 12.8336356, 42.3195228 ], [ 12.8342995, 42.324008399999983 ], [ 12.8106629, 42.331381 ], [ 12.7758147, 42.3402599 ], [ 12.7601795, 42.329619199999982 ], [ 12.7501734, 42.327108 ], [ 12.734482, 42.3349955 ], [ 12.7328185, 42.3268783 ], [ 12.7266921, 42.3236808 ], [ 12.7271765, 42.304944 ], [ 12.7467846, 42.3024857 ], [ 12.7549006, 42.290016 ], [ 12.767772, 42.284427 ], [ 12.7721365, 42.284684 ] ] ] } },
{ "type": "Feature", "properties": { "name": "Monte San Giovanni in Sabina", "feature_type": "circle", "metric_roundness": 47.24, "metric_rectangularity": 59.48, "metric_mobile_fit": 13.73, "metric_aspect_ratio": 1.425, "metric_area_km2": 55.8 }, "geometry": { "type": "Polygon", "coordinates": [ [ [ 12.835641739402496, 42.315070954948787 ], [ 12.83556623076956, 42.312938659947129 ], [ 12.835339911834668, 42.31081213747229 ], [ 12.834963402922286, 42.308697217062026 ], [ 12.834437736017172, 42.306599697034187 ], [ 12.833764351935779, 42.304525328577739 ], [ 12.832945096377063, 42.302479799966989 ], [ 12.831982214863569, 42.300468720942135 ], [ 12.830878346586593, 42.298497607299517 ], [ 12.829636517172352, 42.296571865734165 ], [ 12.828260130388955, 42.294696778976437 ], [ 12.826752958816902, 42.292877491264115 ], [ 12.825119133508712, 42.291118994190391 ], [ 12.823363132665989, 42.289426112966837 ], [ 12.821489769364982, 42.28780349313989 ], [ 12.819504178364284, 42.286255587797655 ], [ 12.817411802030813, 42.284786645303058 ], [ 12.815218375422656, 42.283400697587247 ], [ 12.812929910569688, 42.282101549036398 ], [ 12.810552679995, 42.280892766002751 ], [ 12.808093199522354, 42.279777666969551 ], [ 12.805558210416772, 42.278759313397288 ], [ 12.802954660907188, 42.277840501277083 ], [ 12.800289687141838, 42.277023753415079 ], [ 12.797570593628572, 42.276311312469261 ], [ 12.794804833213705, 42.27570513475856 ], [ 12.791999986654293, 42.275206884861717 ], [ 12.78916374183979, 42.274817931020856 ], [ 12.786303872720088, 42.274539341363159 ], [ 12.78342821799766, 42.274371880950788 ], [ 12.78054465964221, 42.274316009668006 ], [ 12.777661101286762, 42.274371880950788 ], [ 12.774785446564332, 42.274539341363159 ], [ 12.77192557744463, 42.274817931020856 ], [ 12.769089332630129, 42.275206884861717 ], [ 12.766284486070715, 42.27570513475856 ], [ 12.76351872565585, 42.276311312469261 ], [ 12.760799632142582, 42.277023753415079 ], [ 12.758134658377232, 42.277840501277083 ], [ 12.755531108867649, 42.278759313397288 ], [ 12.752996119762066, 42.279777666969551 ], [ 12.750536639289422, 42.280892766002751 ], [ 12.748159408714733, 42.282101549036398 ], [ 12.745870943861764, 42.283400697587247 ], [ 12.743677517253609, 42.284786645303058 ], [ 12.741585140920137, 42.286255587797655 ], [ 12.739599549919438, 42.28780349313989 ], [ 12.737726186618431, 42.289426112966837 ], [ 12.735970185775708, 42.291118994190391 ], [ 12.734336360467518, 42.292877491264115 ], [ 12.732829188895465, 42.294696778976437 ], [ 12.731452802112068, 42.296571865734165 ], [ 12.730210972697829, 42.298497607299517 ], [ 12.729107104420853, 42.300468720942135 ], [ 12.728144222907357, 42.302479799966989 ], [ 12.72732496734864, 42.304525328577739 ], [ 12.726651583267248, 42.306599697034187 ], [ 12.726125916362136, 42.308697217062026 ], [ 12.725749407449754, 42.31081213747229 ], [ 12.72552308851486, 42.312938659947129 ], [ 12.725447579881925, 42.315070954948787 ], [ 12.72552308851486, 42.317203177707633 ], [ 12.725749407449754, 42.319329484245529 ], [ 12.726125916362136, 42.321444047390543 ], [ 12.726651583267248, 42.323541072739147 ], [ 12.72732496734864, 42.325614814522154 ], [ 12.728144222907357, 42.327659591331241 ], [ 12.729107104420853, 42.329669801663101 ], [ 12.730210972697829, 42.33163993923899 ], [ 12.731452802112068, 42.33356460805787 ], [ 12.732829188895465, 42.335438537142615 ], [ 12.734336360467518, 42.337256594939163 ], [ 12.735970185775708, 42.339013803329529 ], [ 12.737726186618431, 42.340705351221231 ], [ 12.739599549919438, 42.342326607676114 ], [ 12.741585140920137, 42.343873134543443 ], [ 12.743677517253609, 42.34534069856317 ], [ 12.745870943861764, 42.346725282906981 ], [ 12.748159408714733, 42.348023098126106 ], [ 12.750536639289422, 42.349230592476552 ], [ 12.752996119762066, 42.350344461594176 ], [ 12.755531108867649, 42.35136165749369 ], [ 12.758134658377232, 42.352279396867651 ], [ 12.760799632142582, 42.353095168663167 ], [ 12.76351872565585, 42.353806740916234 ], [ 12.766284486070715, 42.354412166825483 ], [ 12.769089332630129, 42.354909790049092 ], [ 12.77192557744463, 42.355298249210868 ], [ 12.774785446564332, 42.35557648160345 ], [ 12.777661101286762, 42.355743726078934 ], [ 12.78054465964221, 42.355799525118933 ], [ 12.78342821799766, 42.355743726078934 ], [ 12.786303872720088, 42.35557648160345 ], [ 12.78916374183979, 42.355298249210868 ], [ 12.791999986654293, 42.354909790049092 ], [ 12.794804833213705, 42.354412166825483 ], [ 12.797570593628572, 42.353806740916234 ], [ 12.800289687141838, 42.353095168663167 ], [ 12.802954660907188, 42.352279396867651 ], [ 12.805558210416772, 42.35136165749369 ], [ 12.808093199522354, 42.350344461594176 ], [ 12.810552679995, 42.349230592476552 ], [ 12.812929910569688, 42.348023098126106 ], [ 12.815218375422656, 42.346725282906981 ], [ 12.817411802030813, 42.34534069856317 ], [ 12.819504178364284, 42.343873134543443 ], [ 12.821489769364982, 42.342326607676114 ], [ 12.823363132665989, 42.340705351221231 ], [ 12.825119133508712, 42.339013803329529 ], [ 12.826752958816902, 42.337256594939163 ], [ 12.828260130388955, 42.335438537142615 ], [ 12.829636517172352, 42.33356460805787 ], [ 12.830878346586593, 42.33163993923899 ], [ 12.831982214863569, 42.329669801663101 ], [ 12.832945096377063, 42.327659591331241 ], [ 12.833764351935779, 42.325614814522154 ], [ 12.834437736017172, 42.323541072739147 ], [ 12.834963402922286, 42.321444047390543 ], [ 12.835339911834668, 42.319329484245529 ], [ 12.83556623076956, 42.317203177707633 ], [ 12.835641739402496, 42.315070954948787 ] ] ] } },
{ "type": "Feature", "properties": { "name": "Monte San Giovanni in Sabina", "feature_type": "mrr", "metric_roundness": 47.24, "metric_rectangularity": 59.48, "metric_mobile_fit": 13.73, "metric_aspect_ratio": 1.425, "metric_area_km2": 55.8 }, "geometry": { "type": "Polygon", "coordinates": [ [ [ 12.743110758579389, 42.352446735955915 ], [ 12.835908727348951, 42.323506429394172 ], [ 12.806688380185914, 42.272278899537831 ], [ 12.713890411416354, 42.301242765114289 ], [ 12.743110758579389, 42.352446735955915 ] ] ] } }
]
}
