{
"type": "FeatureCollection",
"name": "montagrier",
"crs": { "type": "name", "properties": { "name": "urn:ogc:def:crs:OGC:1.3:CRS84" } },
"features": [
{ "type": "Feature", "properties": { "name": "Montagrier", "feature_type": "entity", "metric_roundness": 53.21, "metric_rectangularity": 72.89, "metric_mobile_fit": 26.36, "metric_aspect_ratio": 1.299, "metric_area_km2": 28.82 }, "geometry": { "type": "Polygon", "coordinates": [ [ [ 0.450496, 45.26992259999998 ], [ 0.4565673, 45.2644053 ], [ 0.456181, 45.2535355 ], [ 0.4800775, 45.2593814 ], [ 0.4999786, 45.258457299999975 ], [ 0.5121093, 45.267622599999974 ], [ 0.521372, 45.269465 ], [ 0.5197273, 45.2801876 ], [ 0.5085173, 45.283824 ], [ 0.5051981, 45.292080099999986 ], [ 0.4913928, 45.289667799999989 ], [ 0.4502295, 45.274229499999983 ], [ 0.450496, 45.26992259999998 ] ] ] } },
{ "type": "Feature", "properties": { "name": "Montagrier", "feature_type": "circle", "metric_roundness": 53.21, "metric_rectangularity": 72.89, "metric_mobile_fit": 26.36, "metric_aspect_ratio": 1.299, "metric_area_km2": 28.82 }, "geometry": { "type": "Polygon", "coordinates": [ [ [ 0.522769427190826, 45.269804151264587 ], [ 0.522718301227493, 45.268430080308995 ], [ 0.522565063470208, 45.267059742458926 ], [ 0.52231013393301, 45.265696894123593 ], [ 0.521954211360043, 45.264345271451241 ], [ 0.521498271310337, 45.263008580081269 ], [ 0.520943563483878, 45.261690484977052 ], [ 0.520291608296261, 45.260394600367576 ], [ 0.519544192711338, 45.259124479825473 ], [ 0.518703365343275, 45.257883606508969 ], [ 0.517771430841443, 45.256675383594477 ], [ 0.516750943573533, 45.255503124926619 ], [ 0.515644700624213, 45.254370045911109 ], [ 0.514455734128514, 45.253279254676166 ], [ 0.513187302960956, 45.252233743526517 ], [ 0.511842883803202, 45.25123638071419 ], [ 0.510426161614714, 45.250289902548538 ], [ 0.508941019532536, 45.249396905867599 ], [ 0.507391528227882, 45.248559840891851 ], [ 0.505781934748717, 45.247781004480025 ], [ 0.504116650878885, 45.247062533805952 ], [ 0.50240024104572, 45.246406400474051 ], [ 0.500637409809269, 45.245814405089746 ], [ 0.498832988967419, 45.245288172300199 ], [ 0.496991924312273, 45.244829146319006 ], [ 0.495119262074079, 45.244438586947503 ], [ 0.493220135089866, 45.244117566103704 ], [ 0.491299748734691, 45.243866964868701 ], [ 0.489363366654069, 45.243687471058699 ], [ 0.487416296336687, 45.243579577329456 ], [ 0.485463874566944, 45.243543579818599 ], [ 0.483511452797202, 45.243579577329456 ], [ 0.481564382479819, 45.243687471058699 ], [ 0.479628000399197, 45.243866964868701 ], [ 0.477707614044022, 45.244117566103704 ], [ 0.475808487059809, 45.244438586947503 ], [ 0.473935824821616, 45.244829146319006 ], [ 0.47209476016647, 45.245288172300199 ], [ 0.470290339324619, 45.245814405089746 ], [ 0.468527508088168, 45.246406400474051 ], [ 0.466811098255003, 45.247062533805952 ], [ 0.465145814385171, 45.247781004480025 ], [ 0.463536220906006, 45.248559840891851 ], [ 0.461986729601353, 45.249396905867599 ], [ 0.460501587519174, 45.250289902548538 ], [ 0.459084865330686, 45.25123638071419 ], [ 0.457740446172932, 45.252233743526517 ], [ 0.456472015005374, 45.253279254676166 ], [ 0.455283048509675, 45.254370045911109 ], [ 0.454176805560356, 45.255503124926619 ], [ 0.453156318292446, 45.256675383594477 ], [ 0.452224383790613, 45.257883606508969 ], [ 0.45138355642255, 45.259124479825473 ], [ 0.450636140837627, 45.260394600367576 ], [ 0.44998418565001, 45.261690484977052 ], [ 0.449429477823551, 45.263008580081269 ], [ 0.448973537773846, 45.264345271451241 ], [ 0.448617615200878, 45.265696894123593 ], [ 0.448362685663681, 45.267059742458926 ], [ 0.448209447906395, 45.268430080308995 ], [ 0.448158321943063, 45.269804151264587 ], [ 0.448209447906395, 45.271178188956107 ], [ 0.448362685663681, 45.27254842737841 ], [ 0.448617615200878, 45.273911111211653 ], [ 0.448973537773846, 45.275262506109875 ], [ 0.449429477823551, 45.276598908929245 ], [ 0.44998418565001, 45.277916657867792 ], [ 0.450636140837627, 45.2792121424892 ], [ 0.45138355642255, 45.280481813603203 ], [ 0.452224383790613, 45.281722192975607 ], [ 0.453156318292446, 45.282929882841721 ], [ 0.454176805560356, 45.284101575197155 ], [ 0.455283048509675, 45.285234060840793 ], [ 0.456472015005374, 45.286324238145554 ], [ 0.457740446172932, 45.287369121533047 ], [ 0.459084865330686, 45.288365849629137 ], [ 0.460501587519174, 45.28931169307856 ], [ 0.461986729601353, 45.29020406199735 ], [ 0.463536220906006, 45.291040513042937 ], [ 0.465145814385171, 45.291818756082932 ], [ 0.466811098255003, 45.292536660444597 ], [ 0.468527508088168, 45.293192260728169 ], [ 0.470290339324619, 45.293783762168417 ], [ 0.47209476016647, 45.294309545529906 ], [ 0.473935824821616, 45.294768171523074 ], [ 0.475808487059809, 45.295158384728964 ], [ 0.477707614044022, 45.295479117022182 ], [ 0.479628000399197, 45.295729490483083 ], [ 0.481564382479819, 45.295908819791009 ], [ 0.483511452797202, 45.296016614092501 ], [ 0.485463874566944, 45.2960525783393 ], [ 0.487416296336686, 45.296016614092501 ], [ 0.489363366654069, 45.295908819791009 ], [ 0.491299748734691, 45.295729490483083 ], [ 0.493220135089866, 45.295479117022182 ], [ 0.495119262074079, 45.295158384728964 ], [ 0.496991924312273, 45.294768171523074 ], [ 0.498832988967419, 45.294309545529906 ], [ 0.500637409809269, 45.293783762168417 ], [ 0.50240024104572, 45.293192260728169 ], [ 0.504116650878885, 45.292536660444597 ], [ 0.505781934748717, 45.291818756082932 ], [ 0.507391528227882, 45.291040513042937 ], [ 0.508941019532536, 45.29020406199735 ], [ 0.510426161614714, 45.28931169307856 ], [ 0.511842883803202, 45.288365849629137 ], [ 0.513187302960956, 45.287369121533047 ], [ 0.514455734128514, 45.286324238145554 ], [ 0.515644700624213, 45.285234060840793 ], [ 0.516750943573533, 45.284101575197155 ], [ 0.517771430841443, 45.282929882841721 ], [ 0.518703365343275, 45.281722192975607 ], [ 0.519544192711338, 45.280481813603203 ], [ 0.520291608296261, 45.2792121424892 ], [ 0.520943563483878, 45.277916657867792 ], [ 0.521498271310337, 45.276598908929245 ], [ 0.521954211360043, 45.275262506109875 ], [ 0.52231013393301, 45.273911111211653 ], [ 0.522565063470208, 45.27254842737841 ], [ 0.522718301227493, 45.271178188956107 ], [ 0.522769427190826, 45.269804151264587 ] ] ] } },
{ "type": "Feature", "properties": { "name": "Montagrier", "feature_type": "mrr", "metric_roundness": 53.21, "metric_rectangularity": 72.89, "metric_mobile_fit": 26.36, "metric_aspect_ratio": 1.299, "metric_area_km2": 28.82 }, "geometry": { "type": "Polygon", "coordinates": [ [ [ 0.442659834494187, 45.27139003884335 ], [ 0.50786503050648, 45.295844534864521 ], [ 0.528174497879061, 45.26903556671693 ], [ 0.462969301866768, 45.244569514663041 ], [ 0.442659834494187, 45.27139003884335 ] ] ] } }
]
}
