{
"type": "FeatureCollection",
"name": "montreuil_en_caux",
"crs": { "type": "name", "properties": { "name": "urn:ogc:def:crs:OGC:1.3:CRS84" } },
"features": [
{ "type": "Feature", "properties": { "name": "Montreuil-en-Caux", "metric_roundness": 60.61, "metric_rectangularity": 64.89, "metric_mobile_fit": 62.29, "metric_aspect_ratio": 0.94, "metric_area_km2": 22.62 }, "geometry": { "type": "Polygon", "coordinates": [ [ [ 1.1389165, 49.673051 ], [ 1.1439945, 49.6713885 ], [ 1.1496, 49.668232499999988 ], [ 1.1549681, 49.6661802 ], [ 1.1618091, 49.667722599999983 ], [ 1.1662314, 49.6712 ], [ 1.1626094, 49.680453 ], [ 1.1690465, 49.682789899999989 ], [ 1.1759075, 49.681086599999986 ], [ 1.181494, 49.684503 ], [ 1.1821007, 49.687369299999979 ], [ 1.1756207, 49.695672 ], [ 1.1804165, 49.69951 ], [ 1.1666246, 49.704033699999982 ], [ 1.1518547, 49.7013964 ], [ 1.1511236, 49.697065 ], [ 1.1446406, 49.692314 ], [ 1.1314675, 49.6942635 ], [ 1.130422, 49.693833 ], [ 1.1271294, 49.690591 ], [ 1.1316696, 49.687071499999988 ], [ 1.131289, 49.684265 ], [ 1.1389165, 49.673051 ] ] ] } }
]
}
