{
"type": "FeatureCollection",
"name": "montcombroux_les_mines",
"crs": { "type": "name", "properties": { "name": "urn:ogc:def:crs:OGC:1.3:CRS84" } },
"features": [
{ "type": "Feature", "properties": { "name": "Montcombroux-les-Mines", "feature_type": "entity", "metric_roundness": 61.72, "metric_rectangularity": 71.56, "metric_mobile_fit": 38.96, "metric_aspect_ratio": 1.173, "metric_area_km2": 49.26 }, "geometry": { "type": "Polygon", "coordinates": [ [ [ 3.7103007, 46.387378899999987 ], [ 3.712806, 46.380663299999988 ], [ 3.697594, 46.3739395 ], [ 3.6987025, 46.365938899999982 ], [ 3.6807171, 46.3579036 ], [ 3.6827625, 46.352475 ], [ 3.7075239, 46.3465562 ], [ 3.7085787, 46.336781 ], [ 3.7184766, 46.3411499 ], [ 3.7470805, 46.3395915 ], [ 3.7694036, 46.34913479999998 ], [ 3.7664707, 46.357182 ], [ 3.768249, 46.3664565 ], [ 3.720467, 46.38896 ], [ 3.7103007, 46.387378899999987 ] ] ] } },
{ "type": "Feature", "properties": { "name": "Montcombroux-les-Mines", "feature_type": "circle", "metric_roundness": 61.72, "metric_rectangularity": 71.56, "metric_mobile_fit": 38.96, "metric_aspect_ratio": 1.173, "metric_area_km2": 49.26 }, "geometry": { "type": "Polygon", "coordinates": [ [ [ 3.77129339956948, 46.358070257113866 ], [ 3.771231333293023, 46.356434430039933 ], [ 3.771045304583001, 46.354803037884778 ], [ 3.770735823331179, 46.353180552782057 ], [ 3.770303737804155, 46.351571422845275 ], [ 3.769750232318326, 46.349980059965041 ], [ 3.769076823993753, 46.348410827701201 ], [ 3.768285358595847, 46.346868029303558 ], [ 3.767378005476249, 46.345355895893988 ], [ 3.766357251626791, 46.343878574842776 ], [ 3.765225894862822, 46.342440118371186 ], [ 3.763987036154593, 46.341044472411824 ], [ 3.762644071127711, 46.339695465757863 ], [ 3.761200680755967, 46.338396799531019 ], [ 3.75966082127204, 46.337152036997722 ], [ 3.758028713323742, 46.33596459376183 ], [ 3.756308830405512, 46.334837728361009 ], [ 3.754505886596881, 46.333774533293351 ], [ 3.752624823641509, 46.332777926498906 ], [ 3.750670797402206, 46.331850643320301 ], [ 3.748649163729068, 46.330995228964611 ], [ 3.746565463779473, 46.330214031487841 ], [ 3.744425408830148, 46.329509195321535 ], [ 3.742234864622953, 46.328882655359727 ], [ 3.739999835287299, 46.328336131622784 ], [ 3.737726446883239, 46.327871124513187 ], [ 3.735420930610368, 46.327488910676522 ], [ 3.733089605728535, 46.327190539479354 ], [ 3.730738862237192, 46.326976830113836 ], [ 3.728375143360853, 46.326848369337306 ], [ 3.726004927888655, 46.326805509853109 ], [ 3.723634712416457, 46.326848369337306 ], [ 3.721270993540118, 46.326976830113836 ], [ 3.718920250048776, 46.327190539479354 ], [ 3.716588925166942, 46.327488910676522 ], [ 3.714283408894071, 46.327871124513187 ], [ 3.712010020490012, 46.328336131622784 ], [ 3.709774991154358, 46.328882655359727 ], [ 3.707584446947163, 46.329509195321535 ], [ 3.705444391997837, 46.330214031487841 ], [ 3.703360692048243, 46.330995228964611 ], [ 3.701339058375106, 46.331850643320301 ], [ 3.699385032135801, 46.332777926498906 ], [ 3.697503969180429, 46.333774533293351 ], [ 3.695701025371799, 46.334837728361009 ], [ 3.693981142453569, 46.33596459376183 ], [ 3.69234903450527, 46.337152036997722 ], [ 3.690809175021343, 46.338396799531019 ], [ 3.689365784649599, 46.339695465757863 ], [ 3.688022819622717, 46.341044472411824 ], [ 3.686783960914489, 46.342440118371186 ], [ 3.68565260415052, 46.343878574842776 ], [ 3.684631850301062, 46.345355895893988 ], [ 3.683724497181464, 46.346868029303558 ], [ 3.682933031783558, 46.348410827701201 ], [ 3.682259623458985, 46.349980059965041 ], [ 3.681706117973155, 46.351571422845275 ], [ 3.681274032446132, 46.353180552782057 ], [ 3.680964551194309, 46.354803037884778 ], [ 3.680778522484287, 46.356434430039933 ], [ 3.68071645620783, 46.358070257113866 ], [ 3.680778522484287, 46.359706035217265 ], [ 3.680964551194309, 46.36133728099734 ], [ 3.681274032446132, 46.362959523924168 ], [ 3.681706117973155, 46.36456831853755 ], [ 3.682259623458985, 46.366159256620769 ], [ 3.682933031783558, 46.367727979268146 ], [ 3.683724497181464, 46.369270188813353 ], [ 3.684631850301062, 46.370781660586083 ], [ 3.68565260415052, 46.372258254465081 ], [ 3.686783960914489, 46.373695926196163 ], [ 3.688022819622717, 46.375090738444484 ], [ 3.689365784649599, 46.376438871551201 ], [ 3.690809175021343, 46.377736633965355 ], [ 3.69234903450527, 46.378980472322866 ], [ 3.693981142453569, 46.380166981145365 ], [ 3.695701025371799, 46.381292912132793 ], [ 3.697503969180429, 46.382355183024707 ], [ 3.699385032135801, 46.383350886006504 ], [ 3.701339058375106, 46.384277295637922 ], [ 3.703360692048243, 46.385131876282649 ], [ 3.705444391997837, 46.385912289018989 ], [ 3.707584446947163, 46.386616398013174 ], [ 3.709774991154357, 46.387242276338235 ], [ 3.712010020490012, 46.387788211222819 ], [ 3.714283408894071, 46.388252708716031 ], [ 3.716588925166942, 46.388634497755774 ], [ 3.718920250048776, 46.388932533629614 ], [ 3.721270993540118, 46.389146000819274 ], [ 3.723634712416457, 46.38927431522076 ], [ 3.726004927888655, 46.389317125734415 ], [ 3.728375143360853, 46.38927431522076 ], [ 3.730738862237192, 46.389146000819274 ], [ 3.733089605728535, 46.388932533629614 ], [ 3.735420930610368, 46.388634497755774 ], [ 3.737726446883239, 46.388252708716031 ], [ 3.739999835287299, 46.387788211222819 ], [ 3.742234864622953, 46.387242276338235 ], [ 3.744425408830148, 46.386616398013174 ], [ 3.746565463779473, 46.385912289018989 ], [ 3.748649163729068, 46.385131876282649 ], [ 3.750670797402206, 46.384277295637922 ], [ 3.752624823641509, 46.383350886006504 ], [ 3.754505886596881, 46.382355183024707 ], [ 3.756308830405512, 46.381292912132793 ], [ 3.758028713323742, 46.380166981145365 ], [ 3.75966082127204, 46.378980472322866 ], [ 3.761200680755967, 46.377736633965355 ], [ 3.762644071127711, 46.376438871551201 ], [ 3.763987036154593, 46.375090738444484 ], [ 3.765225894862822, 46.373695926196163 ], [ 3.766357251626791, 46.372258254465081 ], [ 3.767378005476249, 46.370781660586083 ], [ 3.768285358595847, 46.369270188813353 ], [ 3.769076823993753, 46.367727979268146 ], [ 3.769750232318326, 46.366159256620769 ], [ 3.770303737804155, 46.36456831853755 ], [ 3.770735823331179, 46.362959523924168 ], [ 3.771045304583001, 46.36133728099734 ], [ 3.771231333293023, 46.359706035217265 ], [ 3.77129339956948, 46.358070257113866 ] ] ] } },
{ "type": "Feature", "properties": { "name": "Montcombroux-les-Mines", "feature_type": "mrr", "metric_roundness": 61.72, "metric_rectangularity": 71.56, "metric_mobile_fit": 38.96, "metric_aspect_ratio": 1.173, "metric_area_km2": 49.26 }, "geometry": { "type": "Polygon", "coordinates": [ [ [ 3.675425536709846, 46.352629721920245 ], [ 3.714888958368707, 46.391948927681263 ], [ 3.780776556112354, 46.360469813846322 ], [ 3.741313134453494, 46.321127942932819 ], [ 3.675425536709846, 46.352629721920245 ] ] ] } }
]
}
