{
"type": "FeatureCollection",
"name": "montegranaro",
"crs": { "type": "name", "properties": { "name": "urn:ogc:def:crs:OGC:1.3:CRS84" } },
"features": [
{ "type": "Feature", "properties": { "name": "Montegranaro", "metric_roundness": 56.44, "metric_rectangularity": 73.31, "metric_mobile_fit": 91.39, "metric_aspect_ratio": 0.649, "metric_area_km2": 57.67 }, "geometry": { "type": "Polygon", "coordinates": [ [ [ 13.6085261, 43.2469749 ], [ 13.6078096, 43.236864599999983 ], [ 13.595187, 43.2134645 ], [ 13.6137475, 43.204973 ], [ 13.636042, 43.201531 ], [ 13.659468, 43.218889 ], [ 13.6547986, 43.2446531 ], [ 13.6571225, 43.2661424 ], [ 13.650857, 43.273735 ], [ 13.6439375, 43.270645499999986 ], [ 13.6391795, 43.269605499999983 ], [ 13.636978, 43.268844 ], [ 13.635154, 43.268954 ], [ 13.631943, 43.2682065 ], [ 13.6210385, 43.270622499999988 ], [ 13.609217, 43.271390699999984 ], [ 13.6009995, 43.2677705 ], [ 13.6085261, 43.2469749 ] ] ] } }
]
}
