{
"type": "FeatureCollection",
"name": "montracol",
"crs": { "type": "name", "properties": { "name": "urn:ogc:def:crs:OGC:1.3:CRS84" } },
"features": [
{ "type": "Feature", "properties": { "name": "Montracol", "metric_roundness": 51.32, "metric_rectangularity": 59.92, "metric_mobile_fit": 65.07, "metric_aspect_ratio": 0.912, "metric_area_km2": 30.66 }, "geometry": { "type": "Polygon", "coordinates": [ [ [ 5.119447, 46.1573155 ], [ 5.1194205, 46.159342 ], [ 5.1203935, 46.159362499999986 ], [ 5.120585, 46.161878499999986 ], [ 5.1214705, 46.162712499999969 ], [ 5.1210195, 46.1640285 ], [ 5.120129, 46.164366 ], [ 5.1213655, 46.16573 ], [ 5.122329, 46.1655715 ], [ 5.1226445, 46.166689 ], [ 5.1238185, 46.16684 ], [ 5.124107, 46.169939 ], [ 5.1251835, 46.171983499999982 ], [ 5.126599, 46.173074 ], [ 5.127183, 46.174364499999982 ], [ 5.1287135, 46.175137 ], [ 5.129654, 46.1770495 ], [ 5.1320505, 46.179556 ], [ 5.135862, 46.180587 ], [ 5.143817, 46.181560499999989 ], [ 5.147964, 46.181547 ], [ 5.1541245, 46.18414 ], [ 5.1561599, 46.1859681 ], [ 5.1563317, 46.1861781 ], [ 5.1564333, 46.186428299999982 ], [ 5.1564558, 46.186697399999986 ], [ 5.1563971, 46.186961 ], [ 5.1562627, 46.1871952 ], [ 5.1560645, 46.187378699999982 ], [ 5.1558208, 46.1874949 ], [ 5.1555523, 46.187534 ], [ 5.155272, 46.187532499999982 ], [ 5.156107, 46.1898975 ], [ 5.1512595, 46.190153 ], [ 5.1425855, 46.1916285 ], [ 5.1400235, 46.194753 ], [ 5.1403285, 46.1956455 ], [ 5.137744, 46.197060499999985 ], [ 5.135796, 46.1995395 ], [ 5.134104, 46.200661 ], [ 5.131461, 46.200952 ], [ 5.131438, 46.2017625 ], [ 5.129636, 46.202032 ], [ 5.1297835, 46.202389 ], [ 5.128151, 46.2034195 ], [ 5.127914, 46.205135499999976 ], [ 5.123894, 46.207665 ], [ 5.1214795, 46.2073645 ], [ 5.1189165, 46.2054025 ], [ 5.114278, 46.2034455 ], [ 5.1095375, 46.2045515 ], [ 5.1007845, 46.204541 ], [ 5.100238, 46.205274 ], [ 5.097318, 46.205211 ], [ 5.0974275, 46.206108 ], [ 5.0949305, 46.205448499999989 ], [ 5.097135, 46.202875 ], [ 5.0970335, 46.202157 ], [ 5.094828, 46.2021205 ], [ 5.090474, 46.196780499999974 ], [ 5.0898145, 46.195265499999984 ], [ 5.0907975, 46.1942065 ], [ 5.092467, 46.1938965 ], [ 5.0912685, 46.188118 ], [ 5.089174, 46.187719499999986 ], [ 5.0889415, 46.18696 ], [ 5.0892355, 46.186367499999989 ], [ 5.0908965, 46.1858765 ], [ 5.090549, 46.181564499999986 ], [ 5.090082, 46.17874 ], [ 5.09536, 46.178026 ], [ 5.0950925, 46.176592 ], [ 5.0966675, 46.175698499999989 ], [ 5.0969215, 46.1742965 ], [ 5.0976795, 46.1739185 ], [ 5.0977105, 46.171982 ], [ 5.0993275, 46.173202499999988 ], [ 5.1063522, 46.1724907 ], [ 5.1063519, 46.172480799999981 ], [ 5.1065333, 46.1724604 ], [ 5.1068059, 46.1723297 ], [ 5.1070195, 46.1721158 ], [ 5.1071499, 46.1718431 ], [ 5.107183, 46.171541399999988 ], [ 5.10699, 46.1684245 ], [ 5.109333, 46.168637 ], [ 5.1103255, 46.166497 ], [ 5.110545, 46.163161 ], [ 5.1130885, 46.163503499999983 ], [ 5.1124125, 46.159108499999981 ], [ 5.113155, 46.157155 ], [ 5.1143905, 46.157259 ], [ 5.1145245, 46.158607 ], [ 5.1151735, 46.158635499999981 ], [ 5.117333, 46.1565115 ], [ 5.1182335, 46.1564005 ], [ 5.119447, 46.1573155 ] ] ] } }
]
}
