{
"type": "FeatureCollection",
"name": "montauban_sur_l_ouveze",
"crs": { "type": "name", "properties": { "name": "urn:ogc:def:crs:OGC:1.3:CRS84" } },
"features": [
{ "type": "Feature", "properties": { "name": "Montauban-sur-l'Ouvèze", "feature_type": "entity", "metric_roundness": 55.32, "metric_rectangularity": 64.89, "metric_mobile_fit": 35.69, "metric_aspect_ratio": 1.206, "metric_area_km2": 63.97 }, "geometry": { "type": "Polygon", "coordinates": [ [ [ 5.541732, 44.2543605 ], [ 5.5530485, 44.2562955 ], [ 5.5699404, 44.2592192 ], [ 5.570214, 44.264141 ], [ 5.560388, 44.272567 ], [ 5.5591325, 44.2747185 ], [ 5.557361, 44.2757155 ], [ 5.5559195, 44.2803035 ], [ 5.553361, 44.282673 ], [ 5.5478695, 44.290079 ], [ 5.5462195, 44.295662 ], [ 5.535742, 44.3000545 ], [ 5.530214, 44.3011155 ], [ 5.5276, 44.302533 ], [ 5.520374, 44.304624499999989 ], [ 5.504657, 44.3110565 ], [ 5.5004295, 44.311664 ], [ 5.4982425, 44.312897 ], [ 5.498309, 44.310736 ], [ 5.5001672, 44.3027589 ], [ 5.4904958, 44.3002893 ], [ 5.4841376, 44.289320199999985 ], [ 5.467733, 44.281665499999981 ], [ 5.4779999, 44.2763509 ], [ 5.4843579, 44.2580936 ], [ 5.497115, 44.252041 ], [ 5.529802, 44.2539715 ], [ 5.541732, 44.2543605 ] ] ] } },
{ "type": "Feature", "properties": { "name": "Montauban-sur-l'Ouvèze", "feature_type": "circle", "metric_roundness": 55.32, "metric_rectangularity": 64.89, "metric_mobile_fit": 35.69, "metric_aspect_ratio": 1.206, "metric_area_km2": 63.97 }, "geometry": { "type": "Polygon", "coordinates": [ [ [ 5.576489317292392, 44.277770015907343 ], [ 5.576414607383899, 44.275727295784002 ], [ 5.576190682433087, 44.273690103894644 ], [ 5.575818156202683, 44.27166402491261 ], [ 5.575298049761187, 44.269654613622201 ], [ 5.574631788684206, 44.267667379677526 ], [ 5.573821199147039, 44.265707772479089 ], [ 5.572868502919265, 44.263781166209604 ], [ 5.571776311275024, 44.261892845070463 ], [ 5.570547617835693, 44.260047988759709 ], [ 5.569185790364586, 44.258251658231657 ], [ 5.56769456153614, 44.256508781777704 ], [ 5.566078018704922, 44.254824141467019 ], [ 5.564340592702466, 44.25320235998479 ], [ 5.562487045692679, 44.251647887904809 ], [ 5.560522458119074, 44.250164991431745 ], [ 5.558452214779638, 44.248757740647441 ], [ 5.556281990067458, 44.24742999829418 ], [ 5.554017732417624, 44.246185409126156 ], [ 5.551665648002965, 44.245027389859167 ], [ 5.549232183723372, 44.243959119746648 ], [ 5.546724009535286, 44.242983531808534 ], [ 5.544148000169815, 44.242103304737718 ], [ 5.541511216289575, 44.241320855506636 ], [ 5.538820885135901, 44.240638332695127 ], [ 5.536084380719482, 44.240057610558139 ], [ 5.533309203608712, 44.239580283850103 ], [ 5.53050296037115, 44.239207663420515 ], [ 5.527673342724452, 44.238940772593367 ], [ 5.524828106453904, 44.23878034434032 ], [ 5.52197505015435, 44.238726819255895 ], [ 5.519121993854799, 44.23878034434032 ], [ 5.516276757584248, 44.238940772593367 ], [ 5.513447139937552, 44.239207663420515 ], [ 5.510640896699989, 44.239580283850103 ], [ 5.507865719589219, 44.240057610558139 ], [ 5.505129215172801, 44.240638332695127 ], [ 5.502438884019127, 44.241320855506636 ], [ 5.499802100138887, 44.242103304737718 ], [ 5.497226090773417, 44.242983531808534 ], [ 5.49471791658533, 44.243959119746648 ], [ 5.492284452305737, 44.245027389859167 ], [ 5.489932367891078, 44.246185409126156 ], [ 5.487668110241243, 44.24742999829418 ], [ 5.485497885529065, 44.248757740647441 ], [ 5.483427642189628, 44.250164991431745 ], [ 5.481463054616023, 44.251647887904809 ], [ 5.479609507606236, 44.25320235998479 ], [ 5.477872081603779, 44.254824141467019 ], [ 5.476255538772562, 44.256508781777704 ], [ 5.474764309944115, 44.258251658231657 ], [ 5.473402482473009, 44.260047988759709 ], [ 5.472173789033677, 44.261892845070463 ], [ 5.471081597389436, 44.263781166209604 ], [ 5.470128901161663, 44.265707772479089 ], [ 5.469318311624496, 44.267667379677526 ], [ 5.468652050547514, 44.269654613622201 ], [ 5.468131944106019, 44.27166402491261 ], [ 5.467759417875614, 44.273690103894644 ], [ 5.467535492924803, 44.275727295784002 ], [ 5.46746078301631, 44.277770015907343 ], [ 5.467535492924803, 44.279812665018945 ], [ 5.467759417875614, 44.281849644651182 ], [ 5.468131944106019, 44.28387537245618 ], [ 5.468652050547514, 44.285884297497255 ], [ 5.469318311624496, 44.287870915447733 ], [ 5.470128901161663, 44.289829783656067 ], [ 5.471081597389436, 44.291755536036106 ], [ 5.472173789033677, 44.293642897741812 ], [ 5.473402482473009, 44.295486699586924 ], [ 5.474764309944115, 44.297281892170076 ], [ 5.476255538772562, 44.299023559667418 ], [ 5.477872081603779, 44.300706933255398 ], [ 5.479609507606236, 44.302327404127276 ], [ 5.481463054616023, 44.303880536068604 ], [ 5.483427642189628, 44.305362077557554 ], [ 5.485497885529065, 44.306767973357765 ], [ 5.487668110241243, 44.308094375572438 ], [ 5.489932367891078, 44.309337654130211 ], [ 5.492284452305737, 44.310494406674628 ], [ 5.49471791658533, 44.311561467830728 ], [ 5.497226090773417, 44.312535917824114 ], [ 5.499802100138887, 44.313415090429501 ], [ 5.502438884019127, 44.314196580227367 ], [ 5.505129215172801, 44.314878249149629 ], [ 5.507865719589219, 44.315458232296713 ], [ 5.510640896699989, 44.315934943010731 ], [ 5.513447139937552, 44.316307077191112 ], [ 5.516276757584248, 44.316573616841353 ], [ 5.519121993854799, 44.316733832837329 ], [ 5.52197505015435, 44.316787286910056 ], [ 5.524828106453904, 44.316733832837329 ], [ 5.527673342724452, 44.316573616841353 ], [ 5.53050296037115, 44.316307077191112 ], [ 5.533309203608712, 44.315934943010731 ], [ 5.536084380719482, 44.315458232296713 ], [ 5.538820885135901, 44.314878249149629 ], [ 5.541511216289575, 44.314196580227367 ], [ 5.544148000169815, 44.313415090429501 ], [ 5.546724009535286, 44.312535917824114 ], [ 5.549232183723372, 44.311561467830728 ], [ 5.551665648002965, 44.310494406674628 ], [ 5.554017732417624, 44.309337654130211 ], [ 5.556281990067458, 44.308094375572438 ], [ 5.558452214779638, 44.306767973357765 ], [ 5.560522458119074, 44.305362077557554 ], [ 5.562487045692679, 44.303880536068604 ], [ 5.564340592702466, 44.302327404127276 ], [ 5.566078018704922, 44.300706933255398 ], [ 5.56769456153614, 44.299023559667418 ], [ 5.569185790364586, 44.297281892170076 ], [ 5.570547617835693, 44.295486699586924 ], [ 5.571776311275024, 44.293642897741812 ], [ 5.572868502919265, 44.291755536036106 ], [ 5.573821199147039, 44.289829783656067 ], [ 5.574631788684206, 44.287870915447733 ], [ 5.575298049761187, 44.285884297497255 ], [ 5.575818156202683, 44.28387537245618 ], [ 5.576190682433087, 44.281849644651182 ], [ 5.576414607383899, 44.279812665018945 ], [ 5.576489317292392, 44.277770015907343 ] ] ] } },
{ "type": "Feature", "properties": { "name": "Montauban-sur-l'Ouvèze", "feature_type": "mrr", "metric_roundness": 55.32, "metric_rectangularity": 64.89, "metric_mobile_fit": 35.69, "metric_aspect_ratio": 1.206, "metric_area_km2": 63.97 }, "geometry": { "type": "Polygon", "coordinates": [ [ [ 5.525113402879589, 44.323374596499484 ], [ 5.57303907973184, 44.26042864971172 ], [ 5.503295658766894, 44.2332010218907 ], [ 5.455369981914643, 44.296176128237043 ], [ 5.525113402879589, 44.323374596499484 ] ] ] } }
]
}
