{
"type": "FeatureCollection",
"name": "montville",
"crs": { "type": "name", "properties": { "name": "urn:ogc:def:crs:OGC:1.3:CRS84" } },
"features": [
{ "type": "Feature", "properties": { "name": "Montville", "metric_roundness": 46.99, "metric_rectangularity": 57.5, "metric_mobile_fit": 54.27, "metric_aspect_ratio": 1.02, "metric_area_km2": 25.82 }, "geometry": { "type": "Polygon", "coordinates": [ [ [ 1.0880141, 49.558038599999989 ], [ 1.0847381, 49.5604563 ], [ 1.0845865, 49.565235 ], [ 1.0785753, 49.5621806 ], [ 1.0779412, 49.5561042 ], [ 1.0692689, 49.556095899999988 ], [ 1.0527125, 49.5679 ], [ 1.051312, 49.565945 ], [ 1.054174, 49.564718 ], [ 1.0516545, 49.559576 ], [ 1.047491, 49.561024499999988 ], [ 1.046824, 49.559151 ], [ 1.0698165, 49.550753099999987 ], [ 1.054866, 49.538243 ], [ 1.0592746, 49.538981 ], [ 1.0652756, 49.531253699999986 ], [ 1.0958895, 49.527991 ], [ 1.1087657, 49.539220799999981 ], [ 1.1094308, 49.5433323 ], [ 1.1041598, 49.553967699999987 ], [ 1.1095505, 49.5562385 ], [ 1.1081995, 49.557887 ], [ 1.0880141, 49.558038599999989 ] ] ] } }
]
}
