{
"type": "FeatureCollection",
"name": "montagagne",
"crs": { "type": "name", "properties": { "name": "urn:ogc:def:crs:OGC:1.3:CRS84" } },
"features": [
{ "type": "Feature", "properties": { "name": "Montagagne", "feature_type": "entity", "metric_roundness": 32.2, "metric_rectangularity": 69.13, "metric_mobile_fit": 90.3, "metric_aspect_ratio": 0.465, "metric_area_km2": 12.8 }, "geometry": { "type": "Polygon", "coordinates": [ [ [ 1.4271569, 42.9653989 ], [ 1.4128354, 42.9807396 ], [ 1.4119645, 42.986141 ], [ 1.4056645, 42.985232499999981 ], [ 1.401138, 42.980647 ], [ 1.3974785, 42.979941499999988 ], [ 1.41121, 42.9393655 ], [ 1.4133125, 42.9424475 ], [ 1.416995, 42.946171 ], [ 1.4250615, 42.951137 ], [ 1.4265575, 42.9539435 ], [ 1.427231, 42.9577765 ], [ 1.4271569, 42.9653989 ] ] ] } },
{ "type": "Feature", "properties": { "name": "Montagagne", "feature_type": "circle", "metric_roundness": 32.2, "metric_rectangularity": 69.13, "metric_mobile_fit": 90.3, "metric_aspect_ratio": 0.465, "metric_area_km2": 12.8 }, "geometry": { "type": "Polygon", "coordinates": [ [ [ 1.443548824463722, 42.96275769543346 ], [ 1.44350502223673, 42.961533577718434 ], [ 1.443373735614615, 42.960312790969141 ], [ 1.443155324444881, 42.959098681576329 ], [ 1.442850387377364, 42.957894577824284 ], [ 1.44245976022337, 42.956703780762801 ], [ 1.441984513664776, 42.955529555151777 ], [ 1.441425950319364, 42.954375120503151 ], [ 1.440785601170439, 42.95324364224512 ], [ 1.440065221370509, 42.952138223032662 ], [ 1.439266785430531, 42.951061894228623 ], [ 1.43839248180792, 42.95001760757863 ], [ 1.437444706908131, 42.949008227103064 ], [ 1.436426058516288, 42.948036521228246 ], [ 1.435339328676825, 42.947105155178896 ], [ 1.434187496040697, 42.946216683652622 ], [ 1.432973717701094, 42.945373543797068 ], [ 1.431701320540078, 42.94457804850888 ], [ 1.430373792109823, 42.943832380073367 ], [ 1.428994771073482, 42.94313858416227 ], [ 1.427568037231861, 42.942498564206517 ], [ 1.426097501163248, 42.941914076159492 ], [ 1.424587193504791, 42.941386723665431 ], [ 1.423041253904803, 42.940917953646384 ], [ 1.42146391967627, 42.940509052320039 ], [ 1.419859514182674, 42.940161141659438 ], [ 1.41823243498795, 42.939875176304618 ], [ 1.416587141803076, 42.939651940934503 ], [ 1.414928144262307, 42.939492048106779 ], [ 1.413259989562589, 42.93939593657128 ], [ 1.41158725, 42.939363870062081 ], [ 1.409914510437411, 42.93939593657128 ], [ 1.408246355737692, 42.939492048106779 ], [ 1.406587358196924, 42.939651940934503 ], [ 1.40494206501205, 42.939875176304618 ], [ 1.403314985817326, 42.940161141659438 ], [ 1.401710580323729, 42.940509052320039 ], [ 1.400133246095196, 42.940917953646384 ], [ 1.398587306495208, 42.941386723665431 ], [ 1.397076998836752, 42.941914076159492 ], [ 1.395606462768139, 42.942498564206517 ], [ 1.394179728926517, 42.94313858416227 ], [ 1.392800707890176, 42.943832380073367 ], [ 1.391473179459922, 42.94457804850888 ], [ 1.390200782298906, 42.945373543797068 ], [ 1.388987003959303, 42.946216683652622 ], [ 1.387835171323174, 42.947105155178896 ], [ 1.386748441483712, 42.948036521228246 ], [ 1.385729793091869, 42.949008227103064 ], [ 1.38478201819208, 42.95001760757863 ], [ 1.383907714569468, 42.951061894228623 ], [ 1.383109278629491, 42.952138223032662 ], [ 1.382388898829561, 42.95324364224512 ], [ 1.381748549680636, 42.954375120503151 ], [ 1.381189986335224, 42.955529555151777 ], [ 1.38071473977663, 42.956703780762801 ], [ 1.380324112622635, 42.957894577824284 ], [ 1.380019175555118, 42.959098681576329 ], [ 1.379800764385385, 42.960312790969141 ], [ 1.379669477763269, 42.961533577718434 ], [ 1.379625675536278, 42.96275769543346 ], [ 1.379669477763269, 42.963981788792545 ], [ 1.379800764385385, 42.965202502740851 ], [ 1.380019175555118, 42.966416491685266 ], [ 1.380324112622635, 42.967620428661149 ], [ 1.38071473977663, 42.968811014445947 ], [ 1.381189986335224, 42.969984986594561 ], [ 1.381748549680636, 42.971139128372023 ], [ 1.382388898829561, 42.972270277558906 ], [ 1.383109278629491, 42.973375335105615 ], [ 1.383907714569468, 42.97445127361177 ], [ 1.38478201819208, 42.975495145607937 ], [ 1.385729793091869, 42.976504091616775 ], [ 1.386748441483712, 42.977475347972046 ], [ 1.387835171323174, 42.9784062543741 ], [ 1.388987003959303, 42.979294261161293 ], [ 1.390200782298906, 42.980136936277781 ], [ 1.391473179459922, 42.980931971918679 ], [ 1.392800707890176, 42.981677190834667 ], [ 1.394179728926517, 42.982370552279058 ], [ 1.395606462768139, 42.983010157580999 ], [ 1.397076998836752, 42.983594255330168 ], [ 1.398587306495208, 42.984121246158495 ], [ 1.400133246095196, 42.984589687106414 ], [ 1.401710580323729, 42.984998295561638 ], [ 1.403314985817326, 42.985345952759843 ], [ 1.40494206501205, 42.985631706838014 ], [ 1.406587358196924, 42.985854775431974 ], [ 1.408246355737692, 42.986014547811322 ], [ 1.409914510437411, 42.986110586545841 ], [ 1.41158725, 42.986142628699099 ], [ 1.413259989562589, 42.986110586545841 ], [ 1.414928144262307, 42.986014547811322 ], [ 1.416587141803076, 42.985854775431974 ], [ 1.41823243498795, 42.985631706838014 ], [ 1.419859514182674, 42.985345952759843 ], [ 1.42146391967627, 42.984998295561638 ], [ 1.423041253904803, 42.984589687106414 ], [ 1.424587193504791, 42.984121246158495 ], [ 1.426097501163248, 42.983594255330168 ], [ 1.427568037231861, 42.983010157580999 ], [ 1.428994771073482, 42.982370552279058 ], [ 1.430373792109823, 42.981677190834667 ], [ 1.431701320540078, 42.980931971918679 ], [ 1.432973717701094, 42.980136936277781 ], [ 1.434187496040697, 42.979294261161293 ], [ 1.435339328676825, 42.9784062543741 ], [ 1.436426058516288, 42.977475347972046 ], [ 1.437444706908131, 42.976504091616775 ], [ 1.43839248180792, 42.975495145607937 ], [ 1.439266785430531, 42.97445127361177 ], [ 1.440065221370509, 42.973375335105615 ], [ 1.440785601170439, 42.972270277558906 ], [ 1.441425950319364, 42.971139128372023 ], [ 1.441984513664776, 42.969984986594561 ], [ 1.44245976022337, 42.968811014445947 ], [ 1.442850387377364, 42.967620428661149 ], [ 1.443155324444881, 42.966416491685266 ], [ 1.443373735614615, 42.965202502740851 ], [ 1.44350502223673, 42.963981788792545 ], [ 1.443548824463722, 42.96275769543346 ] ] ] } },
{ "type": "Feature", "properties": { "name": "Montagagne", "feature_type": "mrr", "metric_roundness": 32.2, "metric_rectangularity": 69.13, "metric_mobile_fit": 90.3, "metric_aspect_ratio": 0.465, "metric_area_km2": 12.8 }, "geometry": { "type": "Polygon", "coordinates": [ [ [ 1.41121, 42.9393655 ], [ 1.396263888476594, 42.98352934106159 ], [ 1.419589123622055, 42.987755210972317 ], [ 1.43453523640493, 42.943594404485296 ], [ 1.41121, 42.9393655 ] ] ] } }
]
}
