{
"type": "FeatureCollection",
"name": "monterrubio_de_la_demanda",
"crs": { "type": "name", "properties": { "name": "urn:ogc:def:crs:OGC:1.3:CRS84" } },
"features": [
{ "type": "Feature", "properties": { "name": "Monterrubio de la Demanda", "feature_type": "entity", "metric_roundness": 52.01, "metric_rectangularity": 67.09, "metric_mobile_fit": 84.2, "metric_aspect_ratio": 0.721, "metric_area_km2": 27.54 }, "geometry": { "type": "Polygon", "coordinates": [ [ [ -3.0900586, 42.147013699999988 ], [ -3.0904897, 42.1594847 ], [ -3.1027881, 42.171863 ], [ -3.114989, 42.178783499999987 ], [ -3.1269394, 42.1571595 ], [ -3.1342721, 42.130077199999988 ], [ -3.11245, 42.126884499999989 ], [ -3.083832, 42.133438 ], [ -3.0900586, 42.147013699999988 ] ] ] } },
{ "type": "Feature", "properties": { "name": "Monterrubio de la Demanda", "feature_type": "circle", "metric_roundness": 52.01, "metric_rectangularity": 67.09, "metric_mobile_fit": 84.2, "metric_aspect_ratio": 0.721, "metric_area_km2": 27.54 }, "geometry": { "type": "Polygon", "coordinates": [ [ [ -3.074564448246345, 42.15156763011332 ], [ -3.074615001905695, 42.150136345815902 ], [ -3.074766524319682, 42.148708952338033 ], [ -3.0750186001759, 42.147289362463553 ], [ -3.075370538551949, 42.145881467847197 ], [ -3.075821374809202, 42.144489128340709 ], [ -3.076369873236816, 42.143116161403221 ], [ -3.077014530438728, 42.141766331625227 ], [ -3.077753579454355, 42.140443340394988 ], [ -3.078584994601717, 42.139150815735711 ], [ -3.079506497029685, 42.137892302341754 ], [ -3.080515560964158, 42.136671251841221 ], [ -3.08160942063103, 42.135491013311928 ], [ -3.082785077836988, 42.134354824077015 ], [ -3.084039310187348, 42.133265800805766 ], [ -3.085368679918421, 42.132226930944036 ], [ -3.086769543320174, 42.131241064498475 ], [ -3.088238060723398, 42.130310906197018 ], [ -3.089770207023966, 42.129439008047662 ], [ -3.091361782715366, 42.128627762316071 ], [ -3.093008425399256, 42.127879394941665 ], [ -3.094705621742497, 42.127195959410535 ], [ -3.096448719847883, 42.126579331102157 ], [ -3.098232942004669, 42.126031202125766 ], [ -3.100053397783942, 42.125553076660772 ], [ -3.101905097442949, 42.125146266814298 ], [ -3.103782965601635, 42.124811889007191 ], [ -3.105681855153908, 42.124550860898857 ], [ -3.107596561375492, 42.124363898859443 ], [ -3.109521836189726, 42.124251515996257 ], [ -3.111452402552167, 42.124214020740254 ], [ -3.113382968914609, 42.124251515996257 ], [ -3.115308243728843, 42.124363898859443 ], [ -3.117222949950427, 42.124550860898857 ], [ -3.119121839502699, 42.124811889007191 ], [ -3.120999707661386, 42.125146266814298 ], [ -3.122851407320393, 42.125553076660772 ], [ -3.124671863099666, 42.126031202125766 ], [ -3.126456085256451, 42.126579331102157 ], [ -3.128199183361837, 42.127195959410535 ], [ -3.129896379705079, 42.127879394941665 ], [ -3.131543022388969, 42.128627762316071 ], [ -3.133134598080368, 42.129439008047662 ], [ -3.134666744380936, 42.130310906197018 ], [ -3.13613526178416, 42.131241064498475 ], [ -3.137536125185914, 42.132226930944036 ], [ -3.138865494916986, 42.133265800805766 ], [ -3.140119727267347, 42.134354824077015 ], [ -3.141295384473304, 42.135491013311928 ], [ -3.142389244140177, 42.136671251841221 ], [ -3.14339830807465, 42.137892302341754 ], [ -3.144319810502618, 42.139150815735711 ], [ -3.145151225649979, 42.140443340394988 ], [ -3.145890274665607, 42.141766331625227 ], [ -3.146534931867518, 42.143116161403221 ], [ -3.147083430295133, 42.144489128340709 ], [ -3.147534266552386, 42.145881467847197 ], [ -3.147886204928435, 42.147289362463553 ], [ -3.148138280784653, 42.148708952338033 ], [ -3.148289803198639, 42.150136345815902 ], [ -3.14834035685799, 42.15156763011332 ], [ -3.148289803198639, 42.152998882046404 ], [ -3.148138280784653, 42.15442617878589 ], [ -3.147886204928435, 42.155845608607819 ], [ -3.147534266552386, 42.15725328161102 ], [ -3.147083430295133, 42.158645340371791 ], [ -3.146534931867518, 42.160017970506907 ], [ -3.145890274665607, 42.161367411115947 ], [ -3.145151225649979, 42.162689965074478 ], [ -3.144319810502618, 42.163982009150132 ], [ -3.14339830807465, 42.165240003913922 ], [ -3.142389244140177, 42.166460503419977 ], [ -3.141295384473304, 42.167640164627286 ], [ -3.140119727267347, 42.168775756537961 ], [ -3.138865494916986, 42.169864169027129 ], [ -3.137536125185914, 42.170902421340806 ], [ -3.13613526178416, 42.17188767023832 ], [ -3.134666744380936, 42.172817217757711 ], [ -3.133134598080368, 42.173688518582857 ], [ -3.131543022388969, 42.174499186992492 ], [ -3.129896379705079, 42.175247003372455 ], [ -3.128199183361837, 42.175929920273468 ], [ -3.126456085256451, 42.176546067998274 ], [ -3.124671863099666, 42.177093759703013 ], [ -3.122851407320393, 42.177571495999096 ], [ -3.120999707661386, 42.177977969043241 ], [ -3.119121839502699, 42.178312066104674 ], [ -3.117222949950427, 42.178572872599879 ], [ -3.115308243728843, 42.178759674586765 ], [ -3.113382968914609, 42.178871960711582 ], [ -3.111452402552167, 42.178909423603265 ], [ -3.109521836189726, 42.178871960711582 ], [ -3.107596561375492, 42.178759674586765 ], [ -3.105681855153908, 42.178572872599879 ], [ -3.103782965601635, 42.178312066104674 ], [ -3.101905097442949, 42.177977969043241 ], [ -3.100053397783942, 42.177571495999096 ], [ -3.098232942004669, 42.177093759703013 ], [ -3.096448719847883, 42.176546067998274 ], [ -3.094705621742497, 42.175929920273468 ], [ -3.093008425399256, 42.175247003372455 ], [ -3.091361782715366, 42.174499186992492 ], [ -3.089770207023966, 42.173688518582857 ], [ -3.088238060723398, 42.172817217757711 ], [ -3.086769543320174, 42.17188767023832 ], [ -3.085368679918421, 42.170902421340806 ], [ -3.084039310187348, 42.169864169027129 ], [ -3.082785077836988, 42.168775756537961 ], [ -3.08160942063103, 42.167640164627286 ], [ -3.080515560964158, 42.166460503419977 ], [ -3.079506497029685, 42.165240003913922 ], [ -3.078584994601717, 42.163982009150132 ], [ -3.077753579454355, 42.162689965074478 ], [ -3.077014530438728, 42.161367411115947 ], [ -3.076369873236816, 42.160017970506907 ], [ -3.075821374809202, 42.158645340371791 ], [ -3.075370538551949, 42.15725328161102 ], [ -3.0750186001759, 42.155845608607819 ], [ -3.074766524319682, 42.15442617878589 ], [ -3.074615001905695, 42.152998882046404 ], [ -3.074564448246345, 42.15156763011332 ] ] ] } },
{ "type": "Feature", "properties": { "name": "Monterrubio de la Demanda", "feature_type": "mrr", "metric_roundness": 52.01, "metric_rectangularity": 67.09, "metric_mobile_fit": 84.2, "metric_aspect_ratio": 0.721, "metric_area_km2": 27.54 }, "geometry": { "type": "Polygon", "coordinates": [ [ [ -3.1342721, 42.130077199999988 ], [ -3.120846247512727, 42.179654883839639 ], [ -3.073234821890081, 42.172571380251 ], [ -3.086660672073504, 42.122988145996352 ], [ -3.1342721, 42.130077199999988 ] ] ] } }
]
}
