{
"type": "FeatureCollection",
"name": "montravers",
"crs": { "type": "name", "properties": { "name": "urn:ogc:def:crs:OGC:1.3:CRS84" } },
"features": [
{ "type": "Feature", "properties": { "name": "Montravers", "feature_type": "entity", "metric_roundness": 40.01, "metric_rectangularity": 62.41, "metric_mobile_fit": 13.61, "metric_aspect_ratio": 1.426, "metric_area_km2": 22.0 }, "geometry": { "type": "Polygon", "coordinates": [ [ [ -0.7464034, 46.852179899999982 ], [ -0.7606493, 46.8504723 ], [ -0.7628821, 46.844901 ], [ -0.77317, 46.840357 ], [ -0.7579555, 46.8313155 ], [ -0.7402384, 46.8294459 ], [ -0.7315182, 46.821639 ], [ -0.7100465, 46.8215715 ], [ -0.698404, 46.8349355 ], [ -0.7307745, 46.840964099999987 ], [ -0.7363306, 46.8474183 ], [ -0.7375785, 46.853562499999981 ], [ -0.7357755, 46.8572462 ], [ -0.7428515, 46.857427499999986 ], [ -0.7464034, 46.852179899999982 ] ] ] } },
{ "type": "Feature", "properties": { "name": "Montravers", "feature_type": "circle", "metric_roundness": 40.01, "metric_rectangularity": 62.41, "metric_mobile_fit": 13.61, "metric_aspect_ratio": 1.426, "metric_area_km2": 22.0 }, "geometry": { "type": "Polygon", "coordinates": [ [ [ -0.698194559160349, 46.837646318375988 ], [ -0.69824607829401, 46.836300441303777 ], [ -0.69840049448463, 46.834958219615764 ], [ -0.698657384488164, 46.833623332662079 ], [ -0.699016044186967, 46.832299439959741 ], [ -0.699475490519737, 46.830990171154696 ], [ -0.700034464176009, 46.829699116062784 ], [ -0.700691433047847, 46.828429814817177 ], [ -0.701444596429238, 46.827185748149347 ], [ -0.702291889951705, 46.825970327830326 ], [ -0.703230991242598, 46.824786887298814 ], [ -0.704259326290555, 46.82363867250195 ], [ -0.705374076500687, 46.822528832974058 ], [ -0.706572186420155, 46.821460413178187 ], [ -0.707850372112948, 46.820436344134336 ], [ -0.709205130160928, 46.819459435357807 ], [ -0.710632747266455, 46.818532367129812 ], [ -0.712129310430273, 46.817657683122135 ], [ -0.713690717676776, 46.816837783396075 ], [ -0.715312689297233, 46.816074917795476 ], [ -0.716990779580174, 46.815371179752034 ], [ -0.718720388996777, 46.814728500520275 ], [ -0.720496776807855, 46.81414864385831 ], [ -0.722315074057891, 46.813633201169161 ], [ -0.724170296920513, 46.81318358711632 ], [ -0.726057360358808, 46.812801035725769 ], [ -0.727971092063061, 46.812486596985309 ], [ -0.729906246627693, 46.812241133950899 ], [ -0.731857519928551, 46.812065320367829 ], [ -0.73381956366115, 46.81195963881374 ], [ -0.735787, 46.811924379368321 ], [ -0.737754436338849, 46.81195963881374 ], [ -0.739716480071449, 46.812065320367829 ], [ -0.741667753372307, 46.812241133950899 ], [ -0.743602907936938, 46.812486596985309 ], [ -0.745516639641192, 46.812801035725769 ], [ -0.747403703079487, 46.81318358711632 ], [ -0.749258925942109, 46.813633201169161 ], [ -0.751077223192145, 46.81414864385831 ], [ -0.752853611003222, 46.814728500520275 ], [ -0.754583220419826, 46.815371179752034 ], [ -0.756261310702767, 46.816074917795476 ], [ -0.757883282323224, 46.816837783396075 ], [ -0.759444689569727, 46.817657683122135 ], [ -0.760941252733545, 46.818532367129812 ], [ -0.762368869839071, 46.819459435357807 ], [ -0.763723627887052, 46.820436344134336 ], [ -0.765001813579845, 46.821460413178187 ], [ -0.766199923499313, 46.822528832974058 ], [ -0.767314673709445, 46.82363867250195 ], [ -0.768343008757402, 46.824786887298814 ], [ -0.769282110048294, 46.825970327830326 ], [ -0.770129403570761, 46.827185748149347 ], [ -0.770882566952152, 46.828429814817177 ], [ -0.77153953582399, 46.829699116062784 ], [ -0.772098509480263, 46.830990171154696 ], [ -0.772557955813032, 46.832299439959741 ], [ -0.772916615511836, 46.833623332662079 ], [ -0.77317350551537, 46.834958219615764 ], [ -0.77332792170599, 46.836300441303777 ], [ -0.773379440839651, 46.837646318375988 ], [ -0.77332792170599, 46.83899216173851 ], [ -0.77317350551537, 46.840334282666817 ], [ -0.772916615511836, 46.841669002914706 ], [ -0.772557955813032, 46.842992664791616 ], [ -0.772098509480263, 46.8443016411806 ], [ -0.77153953582399, 46.845592345469562 ], [ -0.770882566952152, 46.846861241368799 ], [ -0.770129403570761, 46.84810485258793 ], [ -0.769282110048294, 46.849319772345901 ], [ -0.768343008757402, 46.850502672688258 ], [ -0.767314673709445, 46.851650313586283 ], [ -0.766199923499313, 46.852759551793405 ], [ -0.765001813579845, 46.853827349434802 ], [ -0.763723627887052, 46.854850782306897 ], [ -0.762368869839071, 46.855827047864445 ], [ -0.760941252733545, 46.856753472873464 ], [ -0.759444689569727, 46.857627520709407 ], [ -0.757883282323224, 46.858446798281001 ], [ -0.756261310702767, 46.859209062560872 ], [ -0.754583220419826, 46.859912226705511 ], [ -0.752853611003222, 46.86055436574815 ], [ -0.751077223192145, 46.8611337218491 ], [ -0.749258925942109, 46.861648709089593 ], [ -0.747403703079487, 46.862097917796113 ], [ -0.745516639641192, 46.862480118383758 ], [ -0.743602907936938, 46.862794264708171 ], [ -0.741667753372307, 46.863039496917196 ], [ -0.739716480071449, 46.863215143794484 ], [ -0.737754436338849, 46.863320724588874 ], [ -0.735787, 46.863355950324618 ], [ -0.73381956366115, 46.863320724588874 ], [ -0.731857519928551, 46.863215143794484 ], [ -0.729906246627693, 46.863039496917196 ], [ -0.727971092063061, 46.862794264708171 ], [ -0.726057360358808, 46.862480118383758 ], [ -0.724170296920513, 46.862097917796113 ], [ -0.722315074057891, 46.861648709089593 ], [ -0.720496776807855, 46.8611337218491 ], [ -0.718720388996777, 46.86055436574815 ], [ -0.716990779580174, 46.859912226705511 ], [ -0.715312689297233, 46.859209062560872 ], [ -0.713690717676776, 46.858446798281001 ], [ -0.712129310430273, 46.857627520709407 ], [ -0.710632747266455, 46.856753472873464 ], [ -0.709205130160928, 46.855827047864445 ], [ -0.707850372112948, 46.854850782306897 ], [ -0.706572186420155, 46.853827349434802 ], [ -0.705374076500687, 46.852759551793405 ], [ -0.704259326290555, 46.851650313586283 ], [ -0.703230991242598, 46.850502672688258 ], [ -0.702291889951705, 46.849319772345901 ], [ -0.701444596429238, 46.84810485258793 ], [ -0.700691433047847, 46.846861241368799 ], [ -0.700034464176009, 46.845592345469562 ], [ -0.699475490519737, 46.8443016411806 ], [ -0.699016044186967, 46.842992664791616 ], [ -0.698657384488164, 46.841669002914706 ], [ -0.69840049448463, 46.840334282666817 ], [ -0.69824607829401, 46.83899216173851 ], [ -0.698194559160349, 46.837646318375988 ] ] ] } },
{ "type": "Feature", "properties": { "name": "Montravers", "feature_type": "mrr", "metric_roundness": 40.01, "metric_rectangularity": 62.41, "metric_mobile_fit": 13.61, "metric_aspect_ratio": 1.426, "metric_area_km2": 22.0 }, "geometry": { "type": "Polygon", "coordinates": [ [ [ -0.723600606400935, 46.810893868858173 ], [ -0.773356112424684, 46.840467591560753 ], [ -0.745047508481767, 46.862753785756816 ], [ -0.695292002458018, 46.833192329355519 ], [ -0.723600606400935, 46.810893868858173 ] ] ] } }
]
}
