{
"type": "FeatureCollection",
"name": "moriez",
"crs": { "type": "name", "properties": { "name": "urn:ogc:def:crs:OGC:1.3:CRS84" } },
"features": [
{ "type": "Feature", "properties": { "name": "Moriez", "metric_roundness": 37.67, "metric_rectangularity": 73.85, "metric_mobile_fit": 96.69, "metric_aspect_ratio": 0.596, "metric_area_km2": 71.22 }, "geometry": { "type": "Polygon", "coordinates": [ [ [ 6.4319212, 43.9838516 ], [ 6.4210647, 43.9760744 ], [ 6.42927, 43.966882 ], [ 6.4521417, 43.9459205 ], [ 6.4529555, 43.9393847 ], [ 6.448023, 43.936872 ], [ 6.4526609, 43.9261759 ], [ 6.469388, 43.9130785 ], [ 6.4816526, 43.9199638 ], [ 6.4846226, 43.933695499999985 ], [ 6.5018143, 43.937720899999988 ], [ 6.503734, 43.9430282 ], [ 6.4963321, 43.951684 ], [ 6.4905511, 43.9689341 ], [ 6.480593, 43.977756299999982 ], [ 6.4686566, 44.0035001 ], [ 6.4565385, 44.0129905 ], [ 6.438359, 44.0063935 ], [ 6.439555, 44.0020635 ], [ 6.4378965, 43.99983049999998 ], [ 6.43685, 43.99554 ], [ 6.4336145, 43.9937165 ], [ 6.4300745, 43.990465 ], [ 6.4279965, 43.991038 ], [ 6.4319212, 43.9838516 ] ] ] } }
]
}
