{
"type": "FeatureCollection",
"name": "morso",
"crs": { "type": "name", "properties": { "name": "urn:ogc:def:crs:OGC:1.3:CRS84" } },
"features": [
{ "type": "Feature", "properties": { "name": "Morsø", "feature_type": "entity", "metric_roundness": 30.55, "metric_rectangularity": 53.16, "metric_mobile_fit": 80.36, "metric_aspect_ratio": 0.759, "metric_area_km2": 1227.5 }, "geometry": { "type": "Polygon", "coordinates": [ [ [ 8.5622998, 56.7025016 ], [ 8.5849556, 56.708146599999985 ], [ 8.5845285, 56.7165201 ], [ 8.5875196, 56.7207826 ], [ 8.5798389, 56.724684299999986 ], [ 8.5797332, 56.7289222 ], [ 8.5827063, 56.7306409 ], [ 8.5918005, 56.728994599999986 ], [ 8.599988, 56.7182931 ], [ 8.6190572, 56.718971699999983 ], [ 8.6125, 56.7087552 ], [ 8.6316789, 56.693339099999989 ], [ 8.6305766, 56.6866599 ], [ 8.6262587, 56.68686 ], [ 8.6283705, 56.6812441 ], [ 8.646646, 56.670569 ], [ 8.7040864, 56.6818388 ], [ 8.7309735, 56.6820616 ], [ 8.7711329, 56.693264899999981 ], [ 8.7712136, 56.7031665 ], [ 8.7745101, 56.707738299999988 ], [ 8.7974593, 56.7250083 ], [ 8.82815, 56.7394744 ], [ 8.838511, 56.7521547 ], [ 8.8382016, 56.763743 ], [ 8.8413681, 56.7706753 ], [ 8.8611393, 56.7822986 ], [ 8.8570601, 56.7876069 ], [ 8.8578257, 56.7906912 ], [ 8.8671249, 56.793365099999988 ], [ 8.8764084, 56.7887591 ], [ 8.874208, 56.80451739999998 ], [ 8.8560782, 56.817762199999983 ], [ 8.8451752, 56.830447799999988 ], [ 8.8299614, 56.8676227 ], [ 8.8442896, 56.8832315 ], [ 8.8549844, 56.885940399999988 ], [ 8.8692287, 56.878096099999979 ], [ 8.8828075, 56.88022 ], [ 8.887159, 56.8644448 ], [ 8.8902184, 56.865300399999988 ], [ 8.9076936, 56.903190099999989 ], [ 8.9190079, 56.9174246 ], [ 8.9094275, 56.9427111 ], [ 8.9095464, 56.9502366 ], [ 8.9370668, 56.981551899999985 ], [ 8.9224214, 56.974288 ], [ 8.9141658, 56.9621303 ], [ 8.9002673, 56.9529815 ], [ 8.8571279, 56.9511466 ], [ 8.8322612, 56.931538499999988 ], [ 8.8216342, 56.9095938 ], [ 8.8166182, 56.9058285 ], [ 8.7585475, 56.8977012 ], [ 8.7340731, 56.8899623 ], [ 8.6880143, 56.8879599 ], [ 8.6677771, 56.8897566 ], [ 8.639412, 56.885298 ], [ 8.647324, 56.8603113 ], [ 8.6352758, 56.8402348 ], [ 8.6453529, 56.8355741 ], [ 8.6376306, 56.8315153 ], [ 8.621794, 56.8319261 ], [ 8.6127528, 56.823633099999988 ], [ 8.6602302, 56.8163372 ], [ 8.6648571, 56.8131758 ], [ 8.6650115, 56.8090021 ], [ 8.6551799, 56.801929799999989 ], [ 8.6239555, 56.7936275 ], [ 8.5864079, 56.7960117 ], [ 8.5758068, 56.7943929 ], [ 8.5619116, 56.787799 ], [ 8.5458236, 56.7881806 ], [ 8.5558447, 56.7595398 ], [ 8.5367983, 56.7554527 ], [ 8.5117783, 56.745654699999982 ], [ 8.5072187, 56.7397031 ], [ 8.5057322, 56.726913399999987 ], [ 8.5179393, 56.7270117 ], [ 8.5431111, 56.738222699999987 ], [ 8.570915, 56.7258048 ], [ 8.5695784, 56.722652399999987 ], [ 8.5581441, 56.719648899999989 ], [ 8.5430802, 56.720943 ], [ 8.5561609, 56.715169199999984 ], [ 8.5622998, 56.7025016 ] ] ] } },
{ "type": "Feature", "properties": { "name": "Morsø", "feature_type": "circle", "metric_roundness": 30.55, "metric_rectangularity": 53.16, "metric_mobile_fit": 80.36, "metric_aspect_ratio": 0.759, "metric_area_km2": 1227.5 }, "geometry": { "type": "Polygon", "coordinates": [ [ [ 9.079613247329737, 56.835772741671306 ], [ 9.079172859006412, 56.826571617075182 ], [ 9.077852901110221, 56.817393460545091 ], [ 9.075656991554007, 56.808263456216316 ], [ 9.072591149173231, 56.799206674422962 ], [ 9.068663777228751, 56.790248002486152 ], [ 9.06388564037408, 56.78141207580952 ], [ 9.058269835150211, 56.772723209478805 ], [ 9.051831754088917, 56.764205330562127 ], [ 9.044589043522876, 56.75588191130835 ], [ 9.03656155521832, 56.747775903439752 ], [ 9.027771291962704, 56.739909673733955 ], [ 9.01824234725661, 56.732304941088614 ], [ 9.008000839275125, 56.724982715258662 ], [ 8.997074839279755, 56.717963237453496 ], [ 8.985494294677023, 56.711265922976573 ], [ 8.973290946934736, 56.704909306085391 ], [ 8.96049824458081, 56.698910987244091 ], [ 8.947151251523184, 56.693287582934687 ], [ 8.933286550942096, 56.688054678185836 ], [ 8.918942145018114, 56.683226781970546 ], [ 8.904157350770806, 56.67881728561575 ], [ 8.888972692293525, 56.674838424357858 ], [ 8.873429789679689, 56.671301242168823 ], [ 8.857571244944985, 56.668215559967152 ], [ 8.841440525258218, 56.665589947317706 ], [ 8.825081843800815, 56.663431697713207 ], [ 8.808540038581576, 56.661746807518725 ], [ 8.791860449538799, 56.660539958648428 ], [ 8.775088794266663, 56.659814505032159 ], [ 8.75827104270649, 56.659572462916422 ], [ 8.741453291146316, 56.659814505032159 ], [ 8.724681635874182, 56.660539958648428 ], [ 8.708002046831403, 56.661746807518725 ], [ 8.691460241612162, 56.663431697713207 ], [ 8.675101560154761, 56.665589947317706 ], [ 8.658970840467996, 56.668215559967152 ], [ 8.643112295733291, 56.671301242168823 ], [ 8.627569393119453, 56.674838424357858 ], [ 8.612384734642173, 56.67881728561575 ], [ 8.597599940394865, 56.683226781970546 ], [ 8.583255534470881, 56.688054678185836 ], [ 8.569390833889793, 56.693287582934687 ], [ 8.556043840832169, 56.698910987244091 ], [ 8.543251138478242, 56.704909306085391 ], [ 8.531047790735956, 56.711265922976573 ], [ 8.519467246133225, 56.717963237453496 ], [ 8.508541246137852, 56.724982715258662 ], [ 8.498299738156369, 56.732304941088614 ], [ 8.488770793450273, 56.739909673733955 ], [ 8.479980530194659, 56.747775903439738 ], [ 8.471953041890103, 56.75588191130835 ], [ 8.464710331324062, 56.764205330562127 ], [ 8.458272250262766, 56.772723209478805 ], [ 8.452656445038897, 56.78141207580952 ], [ 8.447878308184226, 56.790248002486152 ], [ 8.443950936239746, 56.799206674422962 ], [ 8.44088509385897, 56.808263456216316 ], [ 8.438689184302756, 56.817393460545091 ], [ 8.437369226406565, 56.826571617075182 ], [ 8.436928838083242, 56.835772741671306 ], [ 8.437369226406565, 56.844971605721575 ], [ 8.438689184302756, 56.85414300538126 ], [ 8.44088509385897, 56.863261830545241 ], [ 8.443950936239746, 56.872303133361406 ], [ 8.447878308184226, 56.88124219610053 ], [ 8.452656445038897, 56.890054598202624 ], [ 8.458272250262766, 56.898716282323498 ], [ 8.464710331324062, 56.907203619210421 ], [ 8.471953041890103, 56.915493471240886 ], [ 8.479980530194659, 56.923563254463573 ], [ 8.488770793450273, 56.931390998986991 ], [ 8.498299738156369, 56.938955407566411 ], [ 8.508541246137852, 56.946235912246792 ], [ 8.519467246133225, 56.953212728925095 ], [ 8.531047790735956, 56.959866909702569 ], [ 8.543251138478242, 56.966180392903709 ], [ 8.556043840832169, 56.972136050645943 ], [ 8.569390833889793, 56.977717733850739 ], [ 8.583255534470881, 56.982910314593859 ], [ 8.597599940394865, 56.987699725699557 ], [ 8.612384734642173, 56.99207299749061 ], [ 8.627569393119453, 56.996018291613169 ], [ 8.643112295733291, 56.999524931862389 ], [ 8.658970840467994, 57.002583431942192 ], [ 8.675101560154761, 57.005185520099289 ], [ 8.691460241612162, 57.007324160578861 ], [ 8.708002046831403, 57.00899357185633 ], [ 8.724681635874182, 57.010189241606795 ], [ 8.741453291146316, 57.010907938380484 ], [ 8.75827104270649, 57.011147719959766 ], [ 8.775088794266663, 57.010907938380484 ], [ 8.791860449538797, 57.010189241606795 ], [ 8.808540038581576, 57.00899357185633 ], [ 8.825081843800815, 57.007324160578861 ], [ 8.841440525258218, 57.005185520099289 ], [ 8.857571244944985, 57.002583431942192 ], [ 8.873429789679689, 56.999524931862389 ], [ 8.888972692293525, 56.996018291613169 ], [ 8.904157350770806, 56.99207299749061 ], [ 8.918942145018114, 56.987699725699557 ], [ 8.933286550942096, 56.982910314593859 ], [ 8.947151251523184, 56.977717733850739 ], [ 8.96049824458081, 56.972136050645943 ], [ 8.973290946934736, 56.966180392903709 ], [ 8.985494294677023, 56.959866909702569 ], [ 8.997074839279755, 56.953212728925095 ], [ 9.008000839275125, 56.946235912246792 ], [ 9.018242347256608, 56.938955407566411 ], [ 9.027771291962702, 56.931390998986991 ], [ 9.03656155521832, 56.923563254463581 ], [ 9.044589043522876, 56.915493471240886 ], [ 9.051831754088917, 56.907203619210421 ], [ 9.058269835150211, 56.898716282323498 ], [ 9.06388564037408, 56.890054598202624 ], [ 9.068663777228751, 56.88124219610053 ], [ 9.072591149173231, 56.872303133361406 ], [ 9.075656991554007, 56.863261830545241 ], [ 9.077852901110221, 56.85414300538126 ], [ 9.079172859006412, 56.844971605721575 ], [ 9.079613247329737, 56.835772741671306 ] ] ] } },
{ "type": "Feature", "properties": { "name": "Morsø", "feature_type": "mrr", "metric_roundness": 30.55, "metric_rectangularity": 53.16, "metric_mobile_fit": 80.36, "metric_aspect_ratio": 0.759, "metric_area_km2": 1227.5 }, "geometry": { "type": "Polygon", "coordinates": [ [ [ 8.479309865123218, 56.719005557997988 ], [ 8.776913005017999, 57.027527352548113 ], [ 9.035174006944162, 56.953360126609745 ], [ 8.737570867049381, 56.644224049229614 ], [ 8.479309865123218, 56.719005557997988 ] ] ] } }
]
}
