{
"type": "FeatureCollection",
"name": "mouthoumet",
"crs": { "type": "name", "properties": { "name": "urn:ogc:def:crs:OGC:1.3:CRS84" } },
"features": [
{ "type": "Feature", "properties": { "name": "Mouthoumet", "metric_roundness": 58.31, "metric_rectangularity": 82.11, "metric_mobile_fit": 70.1, "metric_aspect_ratio": 0.861, "metric_area_km2": 25.99 }, "geometry": { "type": "Polygon", "coordinates": [ [ [ 2.5346885, 42.986911 ], [ 2.5145685, 42.9728605 ], [ 2.512962, 42.9671855 ], [ 2.5112875, 42.963596 ], [ 2.5035935, 42.9506005 ], [ 2.5144265, 42.945993 ], [ 2.5166275, 42.944049 ], [ 2.5254395, 42.94116 ], [ 2.5272665, 42.9392165 ], [ 2.548956, 42.956099 ], [ 2.5597415, 42.974851 ], [ 2.5582305, 42.9796245 ], [ 2.5346885, 42.986911 ] ] ] } }
]
}
