{
"type": "FeatureCollection",
"name": "echouboulains",
"crs": { "type": "name", "properties": { "name": "urn:ogc:def:crs:OGC:1.3:CRS84" } },
"features": [
{ "type": "Feature", "properties": { "name": "Échouboulains", "feature_type": "entity", "metric_roundness": 45.11, "metric_rectangularity": 61.39, "metric_mobile_fit": 91.65, "metric_aspect_ratio": 0.646, "metric_area_km2": 47.14 }, "geometry": { "type": "Polygon", "coordinates": [ [ [ 2.933632, 48.497571 ], [ 2.925851, 48.4972955 ], [ 2.917433, 48.495673499999981 ], [ 2.915117, 48.494202 ], [ 2.913263, 48.491648499999989 ], [ 2.9135643, 48.485999499999984 ], [ 2.9050135, 48.4744725 ], [ 2.9010763, 48.460839899999989 ], [ 2.9037926, 48.444302 ], [ 2.9100189, 48.4393281 ], [ 2.9175015, 48.440951 ], [ 2.927069, 48.435103499999983 ], [ 2.9378203, 48.4423009 ], [ 2.9562206, 48.4468141 ], [ 2.9651935, 48.436021 ], [ 2.9638152, 48.4615822 ], [ 2.9589889, 48.467683 ], [ 2.9428586, 48.472494 ], [ 2.9369539, 48.482670299999988 ], [ 2.9367125, 48.489051 ], [ 2.9381715, 48.4924145 ], [ 2.939082, 48.500915 ], [ 2.933632, 48.497571 ] ] ] } },
{ "type": "Feature", "properties": { "name": "Échouboulains", "feature_type": "circle", "metric_roundness": 45.11, "metric_rectangularity": 61.39, "metric_mobile_fit": 91.65, "metric_aspect_ratio": 0.646, "metric_area_km2": 47.14 }, "geometry": { "type": "Polygon", "coordinates": [ [ [ 2.993368464213685, 48.46660498071212 ], [ 2.993297444772922, 48.464806658142869 ], [ 2.993084581109985, 48.463013201191607 ], [ 2.992730456669377, 48.461229526381061 ], [ 2.992236042081577, 48.459460523933849 ], [ 2.991602692502601, 48.457711044354554 ], [ 2.990832143899623, 48.455985885115211 ], [ 2.989926508292803, 48.454289777480902 ], [ 2.98888826796639, 48.452627373511824 ], [ 2.98772026866495, 48.451003233277888 ], [ 2.986425711793384, 48.449421812321106 ], [ 2.985008145642092, 48.44788744940066 ], [ 2.983471455661361, 48.446404354554801 ], [ 2.981819853811614, 48.444976597512493 ], [ 2.980057867018719, 48.443608096487495 ], [ 2.978190324766003, 48.44230260738582 ], [ 2.976222345856968, 48.441063713456998 ], [ 2.974159324385011, 48.439894815417823 ], [ 2.972006914948589, 48.438799122076595 ], [ 2.969771017152355, 48.437779641483779 ], [ 2.967457759436752, 48.436839172634294 ], [ 2.965073482280386, 48.435980297744415 ], [ 2.962624720821215, 48.435205375125356 ], [ 2.960118186944185, 48.434516532673207 ], [ 2.957560750884427, 48.433915661994092 ], [ 2.954959422396417, 48.433404413180497 ], [ 2.952321331540722, 48.432984190254103 ], [ 2.949653709141008, 48.43265614728751 ], [ 2.946963866964848, 48.432421185216199 ], [ 2.944259177682677, 48.432279949349464 ], [ 2.941547054659818, 48.432232827587484 ], [ 2.93883493163696, 48.432279949349464 ], [ 2.936130242354789, 48.432421185216199 ], [ 2.933440400178629, 48.43265614728751 ], [ 2.930772777778914, 48.432984190254103 ], [ 2.92813468692322, 48.433404413180497 ], [ 2.925533358435209, 48.433915661994092 ], [ 2.922975922375452, 48.434516532673207 ], [ 2.920469388498423, 48.435205375125356 ], [ 2.918020627039251, 48.435980297744415 ], [ 2.915636349882885, 48.436839172634294 ], [ 2.913323092167282, 48.437779641483779 ], [ 2.911087194371048, 48.438799122076595 ], [ 2.908934784934626, 48.439894815417823 ], [ 2.906871763462669, 48.441063713456998 ], [ 2.904903784553634, 48.44230260738582 ], [ 2.903036242300918, 48.443608096487495 ], [ 2.901274255508024, 48.444976597512493 ], [ 2.899622653658276, 48.446404354554801 ], [ 2.898085963677545, 48.44788744940066 ], [ 2.896668397526253, 48.449421812321106 ], [ 2.895373840654686, 48.451003233277888 ], [ 2.894205841353247, 48.452627373511824 ], [ 2.893167601026834, 48.454289777480902 ], [ 2.892261965420014, 48.455985885115211 ], [ 2.891491416817036, 48.457711044354554 ], [ 2.89085806723806, 48.459460523933849 ], [ 2.890363652650259, 48.461229526381061 ], [ 2.890009528209652, 48.463013201191607 ], [ 2.889796664546715, 48.464806658142869 ], [ 2.889725645105952, 48.46660498071212 ], [ 2.889796664546715, 48.468403239560935 ], [ 2.890009528209652, 48.470196506049035 ], [ 2.890363652650259, 48.471979865740444 ], [ 2.89085806723806, 48.473748431865054 ], [ 2.891491416817036, 48.475497358698739 ], [ 2.892261965420014, 48.477221854825437 ], [ 2.893167601026834, 48.478917196245284 ], [ 2.894205841353247, 48.480578739292888 ], [ 2.895373840654686, 48.482201933330785 ], [ 2.896668397526253, 48.483782333183683 ], [ 2.898085963677545, 48.485315611279816 ], [ 2.899622653658276, 48.486797569466518 ], [ 2.901274255508024, 48.488224150468291 ], [ 2.903036242300918, 48.489591448956311 ], [ 2.904903784553634, 48.490895722199831 ], [ 2.906871763462669, 48.492133400270525 ], [ 2.908934784934626, 48.493301095772765 ], [ 2.911087194371048, 48.494395613073536 ], [ 2.913323092167282, 48.495413957007266 ], [ 2.915636349882885, 48.496353341032567 ], [ 2.918020627039251, 48.497211194818668 ], [ 2.920469388498423, 48.497985171241837 ], [ 2.922975922375452, 48.498673152772639 ], [ 2.925533358435209, 48.499273257237427 ], [ 2.92813468692322, 48.499783842938506 ], [ 2.930772777778914, 48.500203513119402 ], [ 2.933440400178629, 48.50053111976348 ], [ 2.936130242354789, 48.500765766715716 ], [ 2.93883493163696, 48.500906812119318 ], [ 2.941547054659818, 48.500953870160892 ], [ 2.944259177682677, 48.500906812119318 ], [ 2.946963866964848, 48.500765766715716 ], [ 2.949653709141008, 48.50053111976348 ], [ 2.952321331540722, 48.500203513119402 ], [ 2.954959422396417, 48.499783842938506 ], [ 2.957560750884427, 48.499273257237427 ], [ 2.960118186944185, 48.498673152772639 ], [ 2.962624720821215, 48.497985171241837 ], [ 2.965073482280386, 48.497211194818668 ], [ 2.967457759436752, 48.496353341032567 ], [ 2.969771017152355, 48.495413957007266 ], [ 2.972006914948589, 48.494395613073536 ], [ 2.974159324385011, 48.493301095772765 ], [ 2.976222345856968, 48.492133400270525 ], [ 2.978190324766003, 48.490895722199831 ], [ 2.980057867018719, 48.489591448956311 ], [ 2.981819853811614, 48.488224150468291 ], [ 2.983471455661361, 48.486797569466518 ], [ 2.985008145642092, 48.485315611279816 ], [ 2.986425711793384, 48.483782333183683 ], [ 2.98772026866495, 48.482201933330785 ], [ 2.98888826796639, 48.480578739292888 ], [ 2.989926508292803, 48.478917196245284 ], [ 2.990832143899623, 48.477221854825437 ], [ 2.991602692502601, 48.475497358698739 ], [ 2.992236042081577, 48.473748431865054 ], [ 2.992730456669377, 48.471979865740444 ], [ 2.993084581109985, 48.470196506049035 ], [ 2.993297444772922, 48.468403239560935 ], [ 2.993368464213685, 48.46660498071212 ] ] ] } },
{ "type": "Feature", "properties": { "name": "Échouboulains", "feature_type": "mrr", "metric_roundness": 45.11, "metric_rectangularity": 61.39, "metric_mobile_fit": 91.65, "metric_aspect_ratio": 0.646, "metric_area_km2": 47.14 }, "geometry": { "type": "Polygon", "coordinates": [ [ [ 2.965213035056376, 48.436021470857717 ], [ 2.902516024361209, 48.434512602750566 ], [ 2.898936152844578, 48.49995008941503 ], [ 2.961633163539745, 48.50145701318506 ], [ 2.965213035056376, 48.436021470857717 ] ] ] } }
]
}
