{
"type": "FeatureCollection",
"name": "eckartsau",
"crs": { "type": "name", "properties": { "name": "urn:ogc:def:crs:OGC:1.3:CRS84" } },
"features": [
{ "type": "Feature", "properties": { "name": "Eckartsau", "feature_type": "entity", "metric_roundness": 56.71, "metric_rectangularity": 63.51, "metric_mobile_fit": 44.89, "metric_aspect_ratio": 1.114, "metric_area_km2": 108.42 }, "geometry": { "type": "Polygon", "coordinates": [ [ [ 16.8474443, 48.124694099999985 ], [ 16.8487269, 48.1414051 ], [ 16.8568431, 48.146985899999983 ], [ 16.8710375, 48.146692 ], [ 16.8701197, 48.15629269999998 ], [ 16.8633043, 48.157968499999988 ], [ 16.861026, 48.163452 ], [ 16.8494894, 48.165194799999988 ], [ 16.8344784, 48.160043599999987 ], [ 16.8313326, 48.1616767 ], [ 16.8297271, 48.1676766 ], [ 16.8227815, 48.1705347 ], [ 16.8267996, 48.185783699999988 ], [ 16.8236845, 48.1967855 ], [ 16.821802, 48.1973055 ], [ 16.8022713, 48.174293399999982 ], [ 16.7785816, 48.1750988 ], [ 16.7697364, 48.1712567 ], [ 16.7598786, 48.1752804 ], [ 16.7471535, 48.1698105 ], [ 16.7378885, 48.17268 ], [ 16.734818, 48.1685802 ], [ 16.7392659, 48.1642938 ], [ 16.7348862, 48.158833 ], [ 16.7501836, 48.1455445 ], [ 16.7494697, 48.139017599999981 ], [ 16.7542448, 48.134845599999984 ], [ 16.7509474, 48.1315332 ], [ 16.7591535, 48.126367 ], [ 16.756721, 48.1206915 ], [ 16.7686052, 48.1166983 ], [ 16.7847155, 48.1157007 ], [ 16.8025093, 48.1228853 ], [ 16.8125662, 48.123774499999989 ], [ 16.81984, 48.12106 ], [ 16.8474443, 48.124694099999985 ] ] ] } },
{ "type": "Feature", "properties": { "name": "Eckartsau", "feature_type": "circle", "metric_roundness": 56.71, "metric_rectangularity": 63.51, "metric_mobile_fit": 44.89, "metric_aspect_ratio": 1.114, "metric_area_km2": 108.42 }, "geometry": { "type": "Polygon", "coordinates": [ [ [ 16.872492789347703, 48.156171762406636 ], [ 16.87239672767614, 48.153724473630554 ], [ 16.872108805959812, 48.151283776454385 ], [ 16.871629813372131, 48.148856362091543 ], [ 16.870961062798482, 48.146448886286166 ], [ 16.87010438723771, 48.144067951044377 ], [ 16.86906213477798, 48.141720086502495 ], [ 16.867837162160829, 48.139411732983007 ], [ 16.866432826951062, 48.137149223287359 ], [ 16.864852978333875, 48.134938765275066 ], [ 16.863101946564512, 48.132786424777379 ], [ 16.861184531099337, 48.130698108893327 ], [ 16.859105987440859, 48.12867954971459 ], [ 16.856872012732783, 48.126736288524746 ], [ 16.854488730144489, 48.124873660517324 ], [ 16.851962672087897, 48.123096780075414 ], [ 16.849300762312552, 48.121410526654401 ], [ 16.846510296928123, 48.119819531307407 ], [ 16.843598924406272, 48.11832816389164 ], [ 16.840574624616703, 48.116940520991804 ], [ 16.837445686954933, 48.115660414594636 ], [ 16.834220687621595, 48.114491361546762 ], [ 16.830908466115702, 48.11343657382583 ], [ 16.827518101006163, 48.112498949652512 ], [ 16.824058885048093, 48.111681065468595 ], [ 16.820540299711976, 48.110985168804199 ], [ 16.816971989195647, 48.110413172054194 ], [ 16.813363733990208, 48.109966647181828 ], [ 16.809725424072361, 48.109646821364478 ], [ 16.806067031796701, 48.109454573594043 ], [ 16.802398584562162, 48.109390432241717 ], [ 16.79873013732762, 48.109454573594043 ], [ 16.79507174505196, 48.109646821364478 ], [ 16.791433435134113, 48.109966647181828 ], [ 16.787825179928671, 48.110413172054194 ], [ 16.784256869412346, 48.110985168804199 ], [ 16.780738284076229, 48.111681065468595 ], [ 16.777279068118155, 48.112498949652512 ], [ 16.77388870300862, 48.11343657382583 ], [ 16.770576481502726, 48.114491361546762 ], [ 16.767351482169389, 48.115660414594636 ], [ 16.764222544507614, 48.116940520991804 ], [ 16.761198244718049, 48.11832816389164 ], [ 16.758286872196198, 48.119819531307407 ], [ 16.755496406811769, 48.121410526654401 ], [ 16.752834497036424, 48.123096780075414 ], [ 16.750308438979829, 48.124873660517324 ], [ 16.747925156391538, 48.126736288524746 ], [ 16.745691181683458, 48.12867954971459 ], [ 16.743612638024985, 48.130698108893327 ], [ 16.741695222559809, 48.132786424777379 ], [ 16.739944190790446, 48.134938765275066 ], [ 16.738364342173256, 48.137149223287359 ], [ 16.736960006963493, 48.139411732983007 ], [ 16.735735034346341, 48.141720086502495 ], [ 16.734692781886608, 48.144067951044377 ], [ 16.733836106325835, 48.146448886286166 ], [ 16.73316735575219, 48.148856362091543 ], [ 16.73268836316451, 48.151283776454385 ], [ 16.732400441448181, 48.153724473630554 ], [ 16.732304379776615, 48.156171762406636 ], [ 16.732400441448181, 48.158618934455824 ], [ 16.73268836316451, 48.161059282730214 ], [ 16.73316735575219, 48.163486119839028 ], [ 16.733836106325835, 48.165892796362634 ], [ 16.734692781886608, 48.168272719052041 ], [ 16.735735034346341, 48.170619368864649 ], [ 16.736960006963493, 48.172926318786814 ], [ 16.738364342173256, 48.175187251395194 ], [ 16.739944190790446, 48.177395976109217 ], [ 16.741695222559809, 48.179546446087976 ], [ 16.743612638024985, 48.181632774726246 ], [ 16.745691181683458, 48.183649251705056 ], [ 16.747925156391538, 48.185590358553853 ], [ 16.750308438979829, 48.187450783682507 ], [ 16.752834497036424, 48.189225436843124 ], [ 16.755496406811769, 48.190909462982901 ], [ 16.758286872196198, 48.19249825545127 ], [ 16.761198244718049, 48.19398746852621 ], [ 16.764222544507614, 48.195373029226431 ], [ 16.767351482169389, 48.196651148378209 ], [ 16.770576481502726, 48.197818330907573 ], [ 16.77388870300862, 48.198871385330669 ], [ 16.777279068118155, 48.199807432417195 ], [ 16.780738284076229, 48.200623913004236 ], [ 16.784256869412346, 48.201318594939792 ], [ 16.787825179928671, 48.201889579137784 ], [ 16.791433435134113, 48.202335304728706 ], [ 16.79507174505196, 48.202654553292255 ], [ 16.79873013732762, 48.202846452161054 ], [ 16.802398584562162, 48.202910476786542 ], [ 16.806067031796701, 48.202846452161054 ], [ 16.809725424072361, 48.202654553292255 ], [ 16.813363733990208, 48.202335304728706 ], [ 16.816971989195647, 48.201889579137784 ], [ 16.820540299711976, 48.201318594939792 ], [ 16.824058885048093, 48.200623913004236 ], [ 16.827518101006163, 48.199807432417195 ], [ 16.830908466115702, 48.198871385330669 ], [ 16.834220687621595, 48.197818330907573 ], [ 16.837445686954933, 48.196651148378209 ], [ 16.840574624616703, 48.195373029226431 ], [ 16.843598924406272, 48.19398746852621 ], [ 16.846510296928123, 48.19249825545127 ], [ 16.849300762312552, 48.190909462982901 ], [ 16.851962672087897, 48.189225436843124 ], [ 16.854488730144489, 48.187450783682507 ], [ 16.856872012732783, 48.185590358553853 ], [ 16.859105987440859, 48.183649251705056 ], [ 16.861184531099337, 48.181632774726246 ], [ 16.863101946564512, 48.179546446087976 ], [ 16.864852978333875, 48.177395976109217 ], [ 16.866432826951062, 48.175187251395194 ], [ 16.867837162160829, 48.172926318786814 ], [ 16.86906213477798, 48.170619368864649 ], [ 16.87010438723771, 48.168272719052041 ], [ 16.870961062798482, 48.165892796362634 ], [ 16.871629813372131, 48.163486119839028 ], [ 16.872108805959812, 48.161059282730214 ], [ 16.87239672767614, 48.158618934455824 ], [ 16.872492789347703, 48.156171762406636 ] ] ] } },
{ "type": "Feature", "properties": { "name": "Eckartsau", "feature_type": "mrr", "metric_roundness": 56.71, "metric_rectangularity": 63.51, "metric_mobile_fit": 44.89, "metric_aspect_ratio": 1.114, "metric_area_km2": 108.42 }, "geometry": { "type": "Polygon", "coordinates": [ [ [ 16.724934888669676, 48.16887754564447 ], [ 16.839600374394841, 48.202527146279316 ], [ 16.883899404835734, 48.135403788954804 ], [ 16.769233919110572, 48.101710128783111 ], [ 16.724934888669676, 48.16887754564447 ] ] ] } }
]
}
