{
"type": "FeatureCollection",
"name": "reano",
"crs": { "type": "name", "properties": { "name": "urn:ogc:def:crs:OGC:1.3:CRS84" } },
"features": [
{ "type": "Feature", "properties": { "name": "Reano", "feature_type": "entity", "metric_roundness": 45.53, "metric_rectangularity": 64.42, "metric_mobile_fit": -2.99, "metric_aspect_ratio": 1.592, "metric_area_km2": 13.1 }, "geometry": { "type": "Polygon", "coordinates": [ [ [ 7.4570715, 45.0607295 ], [ 7.439987, 45.0588608 ], [ 7.4183395, 45.062008 ], [ 7.4117743, 45.064325599999982 ], [ 7.4035923, 45.0625108 ], [ 7.4028986, 45.057982499999987 ], [ 7.407494, 45.0530265 ], [ 7.41881, 45.0438429 ], [ 7.4393945, 45.0402925 ], [ 7.4412155, 45.040962 ], [ 7.4479112, 45.045096 ], [ 7.4462774, 45.052712099999987 ], [ 7.4549535, 45.058176 ], [ 7.4570715, 45.0607295 ] ] ] } },
{ "type": "Feature", "properties": { "name": "Reano", "feature_type": "circle", "metric_roundness": 45.53, "metric_rectangularity": 64.42, "metric_mobile_fit": -2.99, "metric_aspect_ratio": 1.592, "metric_area_km2": 13.1 }, "geometry": { "type": "Polygon", "coordinates": [ [ [ 7.457281852333813, 45.058344890024543 ], [ 7.457244583839007, 45.057339533471598 ], [ 7.457132880504938, 45.056336914927279 ], [ 7.456947048502683, 45.055339782716331 ], [ 7.456687597184843, 45.054350870267925 ], [ 7.456355237689445, 45.053372888619492 ], [ 7.455950880990765, 45.052408518980641 ], [ 7.455475635402406, 45.051460405377085 ], [ 7.454930803539492, 45.050531147395425 ], [ 7.454317878748292, 45.049623293048185 ], [ 7.453638541013049, 45.04873933177921 ], [ 7.452894652351279, 45.047881687628418 ], [ 7.452088251710098, 45.04705271257496 ], [ 7.451221549377607, 45.046254680077034 ], [ 7.450296920924658, 45.045489778826337 ], [ 7.449316900693571, 45.044760106734287 ], [ 7.448284174851677, 45.044067665166828 ], [ 7.447201574028727, 45.043414353443616 ], [ 7.446072065558323, 45.042801963616952 ], [ 7.444898745344676, 45.042232175544854 ], [ 7.443684829376931, 45.041706552272018 ], [ 7.44243364491438, 45.041226535731468 ], [ 7.441148621366663, 45.040793442778693 ], [ 7.439833280894005, 45.040408461569548 ], [ 7.438491228753215, 45.040072648291769 ], [ 7.437126143415925, 45.03978692425931 ], [ 7.435741766486156, 45.039552073377486 ], [ 7.434341892444849, 45.039368739986067 ], [ 7.432930358249446, 45.039237427086363 ], [ 7.431511032817061, 45.039158494956929 ], [ 7.430087806420049, 45.039132160162303 ], [ 7.428664580023039, 45.039158494956929 ], [ 7.427245254590654, 45.039237427086363 ], [ 7.42583372039525, 45.039368739986067 ], [ 7.424433846353943, 45.039552073377486 ], [ 7.423049469424175, 45.03978692425931 ], [ 7.421684384086884, 45.040072648291769 ], [ 7.420342331946094, 45.040408461569548 ], [ 7.419026991473436, 45.040793442778693 ], [ 7.417741967925719, 45.041226535731468 ], [ 7.416490783463169, 45.041706552272018 ], [ 7.415276867495423, 45.042232175544854 ], [ 7.414103547281776, 45.042801963616952 ], [ 7.412974038811373, 45.043414353443616 ], [ 7.411891437988423, 45.044067665166828 ], [ 7.410858712146529, 45.044760106734287 ], [ 7.409878691915442, 45.045489778826337 ], [ 7.408954063462493, 45.046254680077034 ], [ 7.408087361130003, 45.04705271257496 ], [ 7.407280960488819, 45.047881687628418 ], [ 7.40653707182705, 45.04873933177921 ], [ 7.405857734091809, 45.049623293048185 ], [ 7.405244809300607, 45.050531147395425 ], [ 7.404699977437692, 45.051460405377085 ], [ 7.404224731849334, 45.052408518980641 ], [ 7.403820375150654, 45.053372888619492 ], [ 7.403488015655256, 45.054350870267925 ], [ 7.403228564337416, 45.055339782716331 ], [ 7.403042732335161, 45.056336914927279 ], [ 7.402931029001093, 45.057339533471598 ], [ 7.402893760506286, 45.058344890024543 ], [ 7.402931029001093, 45.059350228901053 ], [ 7.403042732335161, 45.060352794609763 ], [ 7.403228564337416, 45.061349839404798 ], [ 7.403488015655256, 45.062338630814729 ], [ 7.403820375150654, 45.063316459128238 ], [ 7.404224731849334, 45.06428064481571 ], [ 7.404699977437692, 45.065228545866837 ], [ 7.405244809300607, 45.066157565023765 ], [ 7.405857734091809, 45.067065156890614 ], [ 7.40653707182705, 45.067948834899305 ], [ 7.407280960488819, 45.068806178113391 ], [ 7.408087361130003, 45.069634837850849 ], [ 7.408954063462493, 45.070432544108137 ], [ 7.409878691915442, 45.07119711176793 ], [ 7.410858712146529, 45.071926446573698 ], [ 7.411891437988423, 45.072618550854877 ], [ 7.412974038811373, 45.073271528987185 ], [ 7.414103547281776, 45.073883592573225 ], [ 7.415276867495423, 45.07445306532933 ], [ 7.416490783463169, 45.07497838766546 ], [ 7.417741967925719, 45.075458120945747 ], [ 7.419026991473436, 45.075890951418131 ], [ 7.420342331946094, 45.076275693802572 ], [ 7.421684384086884, 45.076611294527915 ], [ 7.423049469424175, 45.076896834609016 ], [ 7.424433846353943, 45.077131532155946 ], [ 7.42583372039525, 45.077314744508875 ], [ 7.427245254590654, 45.077445969992688 ], [ 7.428664580023039, 45.077524849286505 ], [ 7.430087806420049, 45.077551166404703 ], [ 7.431511032817061, 45.077524849286505 ], [ 7.432930358249446, 45.077445969992688 ], [ 7.434341892444849, 45.077314744508875 ], [ 7.435741766486156, 45.077131532155946 ], [ 7.437126143415925, 45.076896834609016 ], [ 7.438491228753215, 45.076611294527915 ], [ 7.439833280894005, 45.076275693802572 ], [ 7.441148621366663, 45.075890951418131 ], [ 7.44243364491438, 45.075458120945747 ], [ 7.443684829376931, 45.07497838766546 ], [ 7.444898745344676, 45.07445306532933 ], [ 7.446072065558323, 45.073883592573225 ], [ 7.447201574028727, 45.073271528987185 ], [ 7.448284174851677, 45.072618550854877 ], [ 7.449316900693571, 45.071926446573698 ], [ 7.450296920924658, 45.07119711176793 ], [ 7.451221549377607, 45.070432544108137 ], [ 7.452088251710098, 45.069634837850849 ], [ 7.452894652351279, 45.068806178113391 ], [ 7.453638541013049, 45.067948834899305 ], [ 7.454317878748292, 45.067065156890614 ], [ 7.454930803539492, 45.066157565023765 ], [ 7.455475635402406, 45.065228545866837 ], [ 7.455950880990765, 45.06428064481571 ], [ 7.456355237689445, 45.063316459128238 ], [ 7.456687597184843, 45.062338630814729 ], [ 7.456947048502683, 45.061349839404798 ], [ 7.457132880504938, 45.060352794609763 ], [ 7.457244583839007, 45.059350228901053 ], [ 7.457281852333813, 45.058344890024543 ] ] ] } },
{ "type": "Feature", "properties": { "name": "Reano", "feature_type": "mrr", "metric_roundness": 45.53, "metric_rectangularity": 64.42, "metric_mobile_fit": -2.99, "metric_aspect_ratio": 1.592, "metric_area_km2": 13.1 }, "geometry": { "type": "Polygon", "coordinates": [ [ [ 7.403979555217715, 45.064944393603888 ], [ 7.4570715, 45.0607295 ], [ 7.453640176515233, 45.039161098163191 ], [ 7.400548231161412, 45.043377582277223 ], [ 7.403979555217715, 45.064944393603888 ] ] ] } }
]
}
