{
"type": "FeatureCollection",
"name": "rejowiec",
"crs": { "type": "name", "properties": { "name": "urn:ogc:def:crs:OGC:1.3:CRS84" } },
"features": [
{ "type": "Feature", "properties": { "name": "Rejowiec", "metric_roundness": 43.16, "metric_rectangularity": 57.52, "metric_mobile_fit": 22.27, "metric_aspect_ratio": 1.34, "metric_area_km2": 268.79 }, "geometry": { "type": "Polygon", "coordinates": [ [ [ 23.159401, 51.0954389 ], [ 23.170109, 51.097881799999982 ], [ 23.1773772, 51.093452899999974 ], [ 23.1900444, 51.0783437 ], [ 23.2074385, 51.084478099999984 ], [ 23.2126881, 51.081131199999987 ], [ 23.2214152, 51.080757799999986 ], [ 23.228646, 51.072683 ], [ 23.2756944, 51.0569479 ], [ 23.3116516, 51.0554068 ], [ 23.309977, 51.047789499999986 ], [ 23.3462555, 51.046667 ], [ 23.353054, 51.0623874 ], [ 23.364128, 51.0760326 ], [ 23.3588485, 51.08214659999998 ], [ 23.3627577, 51.104659499999975 ], [ 23.3758628, 51.105012 ], [ 23.3781878, 51.1114204 ], [ 23.3752447, 51.1177663 ], [ 23.3982736, 51.127055899999981 ], [ 23.3905009, 51.136588599999975 ], [ 23.3501237, 51.1497672 ], [ 23.3368704, 51.148563499999987 ], [ 23.3328783, 51.156394099999986 ], [ 23.3233457, 51.1557864 ], [ 23.3023735, 51.1633005 ], [ 23.300913, 51.164156499999983 ], [ 23.2910529, 51.1586888 ], [ 23.2803619, 51.146567699999984 ], [ 23.2562535, 51.148454199999982 ], [ 23.26029, 51.1366635 ], [ 23.2817576, 51.1273791 ], [ 23.2610357, 51.1048568 ], [ 23.242225, 51.1026953 ], [ 23.2039795, 51.1086405 ], [ 23.18199, 51.117026 ], [ 23.1475795, 51.1119049 ], [ 23.1563335, 51.097967 ], [ 23.159401, 51.0954389 ] ] ] } }
]
}
