{
"type": "FeatureCollection",
"name": "rem",
"crs": { "type": "name", "properties": { "name": "urn:ogc:def:crs:OGC:1.3:CRS84" } },
"features": [
{ "type": "Feature", "properties": { "name": "Rém", "feature_type": "entity", "metric_roundness": 50.2, "metric_rectangularity": 86.45, "metric_mobile_fit": 66.12, "metric_aspect_ratio": 0.901, "metric_area_km2": 83.01 }, "geometry": { "type": "Polygon", "coordinates": [ [ [ 19.095603, 46.254805 ], [ 19.1172815, 46.234981 ], [ 19.1358185, 46.225186 ], [ 19.1499135, 46.2166005 ], [ 19.192231, 46.229593499999986 ], [ 19.1645155, 46.263963299999986 ], [ 19.1252045, 46.299755 ], [ 19.106919, 46.29087 ], [ 19.083839, 46.279613 ], [ 19.0860865, 46.274816 ], [ 19.095603, 46.254805 ] ] ] } },
{ "type": "Feature", "properties": { "name": "Rém", "feature_type": "circle", "metric_roundness": 50.2, "metric_rectangularity": 86.45, "metric_mobile_fit": 66.12, "metric_aspect_ratio": 0.901, "metric_area_km2": 83.01 }, "geometry": { "type": "Polygon", "coordinates": [ [ [ 19.204313315832852, 46.255739786264421 ], [ 19.204223979545638, 46.253380805991604 ], [ 19.203956215548548, 46.251028190463288 ], [ 19.203510757764086, 46.248688389280623 ], [ 19.202888827161072, 46.246367817736989 ], [ 19.202092128408069, 46.244072839211455 ], [ 19.20112284520097, 46.241809747696067 ], [ 19.199983634277679, 46.239584750504726 ], [ 19.198677618136145, 46.237403951211924 ], [ 19.197208376475839, 46.235273332868331 ], [ 19.195579936386022, 46.233198741540022 ], [ 19.193796761307787, 46.231185870216898 ], [ 19.191863738800084, 46.229240243135564 ], [ 19.189786167143229, 46.227367200559918 ], [ 19.187569740816741, 46.225571884062404 ], [ 19.185220534891112, 46.22385922234713 ], [ 19.182744988376484, 46.222233917654314 ], [ 19.180149886573794, 46.220700432784703 ], [ 19.177442342476692, 46.219262978780201 ], [ 19.174629777275353, 46.217925503295476 ], [ 19.171719900015493, 46.216691679693447 ], [ 19.168720686468411, 46.215564896895351 ], [ 19.165640357269982, 46.214548250014211 ], [ 19.162487355388421, 46.213644531798188 ], [ 19.159270322982717, 46.212856224907938 ], [ 19.155998077715083, 46.2121854950502 ], [ 19.152679588582355, 46.211634184986806 ], [ 19.149323951332573, 46.211203809436199 ], [ 19.145940363534191, 46.210895550882142 ], [ 19.142538099366178, 46.210710256301354 ], [ 19.139126484198126, 46.21064843481934 ], [ 19.135714869030075, 46.210710256301354 ], [ 19.132312604862062, 46.210895550882142 ], [ 19.12892901706368, 46.211203809436199 ], [ 19.1255733798139, 46.211634184986806 ], [ 19.12225489068117, 46.2121854950502 ], [ 19.118982645413539, 46.212856224907938 ], [ 19.115765613007834, 46.213644531798188 ], [ 19.11261261112627, 46.214548250014211 ], [ 19.109532281927837, 46.215564896895351 ], [ 19.106533068380759, 46.216691679693447 ], [ 19.103623191120899, 46.217925503295476 ], [ 19.100810625919564, 46.219262978780201 ], [ 19.098103081822458, 46.220700432784703 ], [ 19.095507980019768, 46.222233917654314 ], [ 19.093032433505144, 46.22385922234713 ], [ 19.090683227579511, 46.225571884062404 ], [ 19.08846680125302, 46.227367200559918 ], [ 19.086389229596172, 46.229240243135564 ], [ 19.084456207088465, 46.231185870216898 ], [ 19.082673032010231, 46.233198741540022 ], [ 19.081044591920413, 46.235273332868331 ], [ 19.079575350260107, 46.237403951211924 ], [ 19.078269334118573, 46.239584750504726 ], [ 19.077130123195282, 46.241809747696067 ], [ 19.076160839988184, 46.244072839211455 ], [ 19.075364141235177, 46.246367817736989 ], [ 19.074742210632163, 46.248688389280623 ], [ 19.074296752847705, 46.251028190463288 ], [ 19.074028988850614, 46.253380805991604 ], [ 19.0739396525634, 46.255739786264421 ], [ 19.074028988850614, 46.258098665064338 ], [ 19.074296752847705, 46.2604509772857 ], [ 19.074742210632163, 46.262790276650456 ], [ 19.075364141235177, 46.26511015336326 ], [ 19.076160839988184, 46.267404251657752 ], [ 19.077130123195282, 46.269666287185892 ], [ 19.078269334118573, 46.271890064203397 ], [ 19.079575350260107, 46.27406949250426 ], [ 19.081044591920413, 46.276198604058685 ], [ 19.082673032010231, 46.278271569309339 ], [ 19.084456207088465, 46.28028271308191 ], [ 19.086389229596172, 46.282226530067256 ], [ 19.08846680125302, 46.284097699833254 ], [ 19.090683227579511, 46.285891101326364 ], [ 19.093032433505144, 46.287601826823661 ], [ 19.095507980019768, 46.289225195298549 ], [ 19.098103081822458, 46.290756765163863 ], [ 19.100810625919564, 46.292192346358917 ], [ 19.103623191120899, 46.29352801174791 ], [ 19.106533068380759, 46.294760107799718 ], [ 19.109532281927837, 46.2958852645205 ], [ 19.11261261112627, 46.296900404612849 ], [ 19.115765613007834, 46.297802751837331 ], [ 19.118982645413539, 46.298589838554129 ], [ 19.12225489068117, 46.29925951242496 ], [ 19.1255733798139, 46.299809942257639 ], [ 19.12892901706368, 46.300239622977678 ], [ 19.132312604862062, 46.300547379714018 ], [ 19.135714869030075, 46.300732370987994 ], [ 19.139126484198126, 46.30079409099713 ], [ 19.142538099366178, 46.300732370987994 ], [ 19.145940363534191, 46.300547379714018 ], [ 19.149323951332573, 46.300239622977678 ], [ 19.152679588582355, 46.299809942257639 ], [ 19.155998077715083, 46.29925951242496 ], [ 19.159270322982717, 46.298589838554129 ], [ 19.162487355388421, 46.297802751837331 ], [ 19.165640357269982, 46.296900404612849 ], [ 19.168720686468411, 46.2958852645205 ], [ 19.171719900015493, 46.294760107799718 ], [ 19.174629777275353, 46.29352801174791 ], [ 19.177442342476692, 46.292192346358917 ], [ 19.180149886573794, 46.290756765163863 ], [ 19.182744988376484, 46.289225195298549 ], [ 19.185220534891112, 46.287601826823661 ], [ 19.187569740816741, 46.285891101326364 ], [ 19.189786167143229, 46.284097699833254 ], [ 19.191863738800084, 46.282226530067256 ], [ 19.193796761307787, 46.28028271308191 ], [ 19.195579936386022, 46.278271569309339 ], [ 19.197208376475839, 46.276198604058685 ], [ 19.198677618136145, 46.27406949250426 ], [ 19.199983634277679, 46.271890064203397 ], [ 19.20112284520097, 46.269666287185892 ], [ 19.202092128408069, 46.267404251657752 ], [ 19.202888827161072, 46.26511015336326 ], [ 19.203510757764086, 46.262790276650456 ], [ 19.203956215548548, 46.2604509772857 ], [ 19.204223979545638, 46.258098665064338 ], [ 19.204313315832852, 46.255739786264421 ] ] ] } },
{ "type": "Feature", "properties": { "name": "Rém", "feature_type": "mrr", "metric_roundness": 50.2, "metric_rectangularity": 86.45, "metric_mobile_fit": 66.12, "metric_aspect_ratio": 0.901, "metric_area_km2": 83.01 }, "geometry": { "type": "Polygon", "coordinates": [ [ [ 19.148298693771647, 46.206604737039775 ], [ 19.074057653277663, 46.274500144072199 ], [ 19.124269317997367, 46.300741463273916 ], [ 19.198510358491347, 46.232878555984811 ], [ 19.148298693771647, 46.206604737039775 ] ] ] } }
]
}
