{
"type": "FeatureCollection",
"name": "requena",
"crs": { "type": "name", "properties": { "name": "urn:ogc:def:crs:OGC:1.3:CRS84" } },
"features": [
{ "type": "Feature", "properties": { "name": "Requena", "feature_type": "entity", "metric_roundness": 60.36, "metric_rectangularity": 66.05, "metric_mobile_fit": 63.96, "metric_aspect_ratio": 0.923, "metric_area_km2": 1366.84 }, "geometry": { "type": "Polygon", "coordinates": [ [ [ -1.2072686, 39.325502 ], [ -1.1977293, 39.315075899999982 ], [ -1.17732, 39.3142157 ], [ -1.1639546, 39.308779699999988 ], [ -1.1628103, 39.3047014 ], [ -1.1742157, 39.2799319 ], [ -1.1760075, 39.265539499999974 ], [ -1.1204706, 39.275815 ], [ -1.1122966, 39.2848109 ], [ -1.0986109, 39.2921619 ], [ -1.0898495, 39.293554199999988 ], [ -1.0908078, 39.311624 ], [ -1.0721596, 39.3119808 ], [ -1.0592795, 39.3155515 ], [ -1.0279005, 39.3240951 ], [ -0.9958195, 39.3398511 ], [ -0.982729, 39.3367045 ], [ -0.984255, 39.3570452 ], [ -0.976654, 39.3739913 ], [ -0.9752425, 39.3967515 ], [ -0.9775625, 39.4233245 ], [ -0.9780775, 39.4260635 ], [ -0.977345, 39.4280585 ], [ -0.9685099, 39.450341 ], [ -0.9651146, 39.474907799999983 ], [ -0.978706, 39.509729199999988 ], [ -0.982689, 39.553157499999983 ], [ -1.0142895, 39.583706 ], [ -1.0159365, 39.585571 ], [ -1.017523, 39.5866815 ], [ -1.0249285, 39.5899695 ], [ -1.027776, 39.590187 ], [ -1.0323355, 39.592834499999988 ], [ -1.056082, 39.609061499999989 ], [ -1.0671395, 39.613472 ], [ -1.069616, 39.613659 ], [ -1.073119, 39.614628 ], [ -1.0831495, 39.616684 ], [ -1.0884525, 39.617031 ], [ -1.1053762, 39.600460399999982 ], [ -1.1244713, 39.5936059 ], [ -1.1360785, 39.5931578 ], [ -1.1471243, 39.587167199999982 ], [ -1.1589457, 39.5729135 ], [ -1.1572865, 39.5554152 ], [ -1.1716078, 39.5454835 ], [ -1.1833567, 39.5409686 ], [ -1.235445, 39.541359 ], [ -1.236063, 39.531189 ], [ -1.243599, 39.529472 ], [ -1.255968, 39.529003 ], [ -1.2673685, 39.526218499999985 ], [ -1.2743875, 39.525158 ], [ -1.2775809, 39.5165156 ], [ -1.2728078, 39.504231199999985 ], [ -1.2778383, 39.4917479 ], [ -1.2784853, 39.456458499999989 ], [ -1.2726803, 39.444211 ], [ -1.2991155, 39.4275996 ], [ -1.3195206, 39.4202328 ], [ -1.3314943, 39.406770899999984 ], [ -1.355015, 39.389088399999984 ], [ -1.3689776, 39.3699916 ], [ -1.383566, 39.3662765 ], [ -1.3821706, 39.3598575 ], [ -1.3851415, 39.354294 ], [ -1.3690951, 39.3560528 ], [ -1.361997, 39.349477 ], [ -1.3529372, 39.3407586 ], [ -1.3426586, 39.3396633 ], [ -1.3355877, 39.334574499999988 ], [ -1.3315509, 39.3359901 ], [ -1.3335798, 39.338701699999987 ], [ -1.3309856, 39.3403285 ], [ -1.3221344, 39.3390941 ], [ -1.3128187, 39.3424329 ], [ -1.3003647, 39.3370016 ], [ -1.2988695, 39.3306955 ], [ -1.2912049, 39.3335552 ], [ -1.2824794, 39.3289951 ], [ -1.2757139, 39.3330883 ], [ -1.2516493, 39.3236201 ], [ -1.2466729, 39.3266483 ], [ -1.243067, 39.322027799999987 ], [ -1.2233681, 39.316525499999983 ], [ -1.2153545, 39.319101 ], [ -1.2072686, 39.325502 ] ] ] } },
{ "type": "Feature", "properties": { "name": "Requena", "feature_type": "circle", "metric_roundness": 60.36, "metric_rectangularity": 66.05, "metric_mobile_fit": 63.96, "metric_aspect_ratio": 0.923, "metric_area_km2": 1366.84 }, "geometry": { "type": "Polygon", "coordinates": [ [ [ -0.935211880875244, 39.447808414175832 ], [ -0.935542492435411, 39.438058238558632 ], [ -0.936533420932605, 39.428333428170589 ], [ -0.938181950300694, 39.418660654889386 ], [ -0.940483562035267, 39.409066458927335 ], [ -0.943431947578545, 39.399577175780614 ], [ -0.947019025610691, 39.39021886362287 ], [ -0.951234964200156, 39.381017231347037 ], [ -0.956068207752311, 39.371997567458195 ], [ -0.961505508682534, 39.363184670019642 ], [ -0.967531963726918, 39.354602777852229 ], [ -0.974131054791081, 39.346275503184664 ], [ -0.981284694225112, 39.338225765949431 ], [ -0.988973274400566, 39.330475729915051 ], [ -0.997175721453609, 39.323046740841484 ], [ -1.005869553047014, 39.315959266839897 ], [ -1.015030939992683, 39.309232841112753 ], [ -1.024634771565799, 39.302886007244027 ], [ -1.034654724331575, 39.296936267202014 ], [ -1.045063334295957, 39.291400032210205 ], [ -1.055832072182527, 39.286292576633606 ], [ -1.066931421629264, 39.281627995019136 ], [ -1.07833096009084, 39.277419162419847 ], [ -1.089999442224705, 39.27367769812318 ], [ -1.101904885532395, 39.270413932893291 ], [ -1.114014658021342, 39.267636879827315 ], [ -1.126295567646893, 39.265354208914275 ], [ -1.1387139532894, 39.263572225374723 ], [ -1.151235777017009, 39.262295851847071 ], [ -1.163826717381264, 39.26152861447563 ], [ -1.176452263489811, 39.261272632942706 ], [ -1.189077809598358, 39.26152861447563 ], [ -1.201668749962612, 39.262295851847071 ], [ -1.214190573690221, 39.263572225374723 ], [ -1.226608959332728, 39.265354208914275 ], [ -1.238889868958279, 39.267636879827315 ], [ -1.250999641447226, 39.270413932893291 ], [ -1.262905084754916, 39.27367769812318 ], [ -1.274573566888781, 39.277419162419847 ], [ -1.285973105350357, 39.281627995019136 ], [ -1.297072454797094, 39.286292576633606 ], [ -1.307841192683664, 39.291400032210205 ], [ -1.318249802648046, 39.296936267202014 ], [ -1.328269755413822, 39.302886007244027 ], [ -1.337873586986938, 39.309232841112753 ], [ -1.347034973932608, 39.315959266839897 ], [ -1.355728805526012, 39.323046740841484 ], [ -1.363931252579055, 39.330475729915051 ], [ -1.371619832754509, 39.338225765949431 ], [ -1.37877347218854, 39.346275503184664 ], [ -1.385372563252703, 39.354602777852229 ], [ -1.391399018297087, 39.363184670019642 ], [ -1.396836319227311, 39.371997567458195 ], [ -1.401669562779465, 39.381017231347037 ], [ -1.40588550136893, 39.39021886362287 ], [ -1.409472579401077, 39.399577175780614 ], [ -1.412420964944354, 39.409066458927335 ], [ -1.414722576678928, 39.418660654889386 ], [ -1.416371106047016, 39.428333428170589 ], [ -1.41736203454421, 39.438058238558632 ], [ -1.417692646104377, 39.447808414175832 ], [ -1.41736203454421, 39.457557224770746 ], [ -1.416371106047016, 39.46727795504755 ], [ -1.414722576678928, 39.476943977831603 ], [ -1.412420964944354, 39.4865288268713 ], [ -1.409472579401077, 39.496006269078372 ], [ -1.40588550136893, 39.505350376012281 ], [ -1.401669562779465, 39.514535594416998 ], [ -1.396836319227311, 39.523536815622833 ], [ -1.391399018297087, 39.532329443630026 ], [ -1.385372563252703, 39.540889461695414 ], [ -1.37877347218854, 39.549193497249028 ], [ -1.371619832754509, 39.557218884972308 ], [ -1.363931252579055, 39.564943727876148 ], [ -1.355728805526012, 39.57234695622261 ], [ -1.347034973932608, 39.579408384140955 ], [ -1.337873586986938, 39.586108763795231 ], [ -1.328269755413822, 39.592429836967497 ], [ -1.318249802648046, 39.598354383928566 ], [ -1.307841192683664, 39.603866269474786 ], [ -1.297072454797094, 39.608950486017683 ], [ -1.285973105350357, 39.613593193620751 ], [ -1.274573566888781, 39.617781756885691 ], [ -1.262905084754917, 39.621504778598549 ], [ -1.250999641447226, 39.62475213005434 ], [ -1.238889868958279, 39.627514977987097 ], [ -1.226608959332728, 39.629785808040722 ], [ -1.214190573690221, 39.631558444724298 ], [ -1.201668749962612, 39.63282806780439 ], [ -1.189077809598358, 39.633591225095252 ], [ -1.176452263489811, 39.63384584161625 ], [ -1.163826717381264, 39.633591225095252 ], [ -1.151235777017009, 39.63282806780439 ], [ -1.1387139532894, 39.631558444724298 ], [ -1.126295567646893, 39.629785808040722 ], [ -1.114014658021342, 39.627514977987097 ], [ -1.101904885532395, 39.62475213005434 ], [ -1.089999442224705, 39.621504778598549 ], [ -1.07833096009084, 39.617781756885691 ], [ -1.066931421629264, 39.613593193620751 ], [ -1.055832072182528, 39.608950486017683 ], [ -1.045063334295957, 39.603866269474786 ], [ -1.034654724331575, 39.598354383928566 ], [ -1.0246347715658, 39.592429836967497 ], [ -1.015030939992683, 39.586108763795231 ], [ -1.005869553047014, 39.579408384140955 ], [ -0.997175721453609, 39.57234695622261 ], [ -0.988973274400566, 39.564943727876148 ], [ -0.981284694225112, 39.557218884972308 ], [ -0.974131054791081, 39.549193497249028 ], [ -0.967531963726918, 39.540889461695414 ], [ -0.961505508682534, 39.532329443630026 ], [ -0.956068207752311, 39.523536815622833 ], [ -0.951234964200156, 39.514535594416998 ], [ -0.947019025610691, 39.505350376012281 ], [ -0.943431947578545, 39.496006269078372 ], [ -0.940483562035267, 39.4865288268713 ], [ -0.938181950300694, 39.476943977831603 ], [ -0.936533420932605, 39.46727795504755 ], [ -0.935542492435411, 39.457557224770746 ], [ -0.935211880875244, 39.447808414175832 ] ] ] } },
{ "type": "Feature", "properties": { "name": "Requena", "feature_type": "mrr", "metric_roundness": 60.36, "metric_rectangularity": 66.05, "metric_mobile_fit": 63.96, "metric_aspect_ratio": 0.923, "metric_area_km2": 1366.84 }, "geometry": { "type": "Polygon", "coordinates": [ [ [ -1.066205717648001, 39.218895600039701 ], [ -1.393288000191174, 39.357749019429356 ], [ -1.178006822500306, 39.660564182642254 ], [ -0.850924539957133, 39.522313707041228 ], [ -1.066205717648001, 39.218895600039701 ] ] ] } }
]
}
