{
"type": "FeatureCollection",
"name": "resuttano",
"crs": { "type": "name", "properties": { "name": "urn:ogc:def:crs:OGC:1.3:CRS84" } },
"features": [
{ "type": "Feature", "properties": { "name": "Resuttano", "metric_roundness": 56.12, "metric_rectangularity": 61.57, "metric_mobile_fit": 62.39, "metric_aspect_ratio": 0.939, "metric_area_km2": 50.49 }, "geometry": { "type": "Polygon", "coordinates": [ [ [ 14.043557, 37.725897 ], [ 14.0360829, 37.7198913 ], [ 14.030169, 37.705317 ], [ 14.041506, 37.697435899999988 ], [ 14.0424197, 37.6914625 ], [ 14.0110772, 37.6893076 ], [ 14.0082404, 37.6847591 ], [ 14.0072262, 37.671543699999987 ], [ 14.0194946, 37.6571402 ], [ 14.0311098, 37.6556966 ], [ 14.0562185, 37.67179 ], [ 14.065794, 37.6753773 ], [ 14.0834968, 37.6763762 ], [ 14.087827, 37.6798335 ], [ 14.0784707, 37.6896833 ], [ 14.0803559, 37.694012 ], [ 14.090492, 37.698704199999987 ], [ 14.0902252, 37.7056771 ], [ 14.0806091, 37.7122071 ], [ 14.0685571, 37.712964199999981 ], [ 14.0660515, 37.7212235 ], [ 14.043557, 37.725897 ] ] ] } }
]
}
