{
"type": "FeatureCollection",
"name": "dobric",
"crs": { "type": "name", "properties": { "name": "urn:ogc:def:crs:OGC:1.3:CRS84" } },
"features": [
{ "type": "Feature", "properties": { "name": "Dobříč", "metric_roundness": 42.08, "metric_rectangularity": 66.08, "metric_mobile_fit": 98.02, "metric_aspect_ratio": 0.543, "metric_area_km2": 8.32 }, "geometry": { "type": "Polygon", "coordinates": [ [ [ 14.2472055, 50.021532 ], [ 14.2574376, 50.0031192 ], [ 14.2661635, 49.998271 ], [ 14.268946, 49.997775 ], [ 14.270979, 50.022379499999978 ], [ 14.2617345, 50.025923399999975 ], [ 14.24927, 50.023634 ], [ 14.2472055, 50.021532 ] ] ] } }
]
}
