{
"type": "FeatureCollection",
"name": "dohr",
"crs": { "type": "name", "properties": { "name": "urn:ogc:def:crs:OGC:1.3:CRS84" } },
"features": [
{ "type": "Feature", "properties": { "name": "Dohr", "metric_roundness": 74.14, "metric_rectangularity": 73.93, "metric_mobile_fit": 51.52, "metric_aspect_ratio": 1.047, "metric_area_km2": 11.54 }, "geometry": { "type": "Polygon", "coordinates": [ [ [ 7.1113223, 50.1133316 ], [ 7.1180008, 50.112533299999981 ], [ 7.1301042, 50.1150205 ], [ 7.1308015, 50.1213575 ], [ 7.1399151, 50.1280772 ], [ 7.1265615, 50.1360035 ], [ 7.104916, 50.1326245 ], [ 7.101576, 50.126553499999986 ], [ 7.1061465, 50.117647 ], [ 7.1113223, 50.1133316 ] ] ] } }
]
}
