{
"type": "FeatureCollection",
"name": "dolni_horice",
"crs": { "type": "name", "properties": { "name": "urn:ogc:def:crs:OGC:1.3:CRS84" } },
"features": [
{ "type": "Feature", "properties": { "name": "Dolní Hořice", "feature_type": "entity", "metric_roundness": 44.88, "metric_rectangularity": 60.68, "metric_mobile_fit": 66.28, "metric_aspect_ratio": 0.9, "metric_area_km2": 92.05 }, "geometry": { "type": "Polygon", "coordinates": [ [ [ 14.9044376, 49.4120122 ], [ 14.9110537, 49.422435 ], [ 14.9038856, 49.426682899999989 ], [ 14.9111519, 49.433231899999988 ], [ 14.9125175, 49.443693 ], [ 14.8940255, 49.448795 ], [ 14.8863034, 49.458059 ], [ 14.8763487, 49.4553243 ], [ 14.8702157, 49.4598795 ], [ 14.8569589, 49.46193049999998 ], [ 14.8549058, 49.4603552 ], [ 14.8558288, 49.453326399999987 ], [ 14.841136, 49.459546 ], [ 14.830901, 49.462763 ], [ 14.8296605, 49.4628625 ], [ 14.8146045, 49.461631 ], [ 14.8019655, 49.451762 ], [ 14.800656, 49.444046499999978 ], [ 14.810564, 49.4431774 ], [ 14.8156727, 49.432376 ], [ 14.8261529, 49.4393828 ], [ 14.8274326, 49.427172199999987 ], [ 14.8415685, 49.424626599999982 ], [ 14.839304, 49.408709 ], [ 14.8547353, 49.410826699999987 ], [ 14.8635214, 49.405995699999984 ], [ 14.8672736, 49.3966991 ], [ 14.8760438, 49.393325499999982 ], [ 14.879719, 49.3865268 ], [ 14.892661, 49.3819855 ], [ 14.8909051, 49.383986399999976 ], [ 14.8940949, 49.3930755 ], [ 14.9010212, 49.395655499999982 ], [ 14.9028665, 49.3996285 ], [ 14.9044376, 49.4120122 ] ] ] } },
{ "type": "Feature", "properties": { "name": "Dolní Hořice", "feature_type": "circle", "metric_roundness": 44.88, "metric_rectangularity": 60.68, "metric_mobile_fit": 66.28, "metric_aspect_ratio": 0.9, "metric_area_km2": 92.05 }, "geometry": { "type": "Polygon", "coordinates": [ [ [ 14.926235118693569, 49.421824408879424 ], [ 14.926135619670537, 49.419352689576193 ], [ 14.925837395321356, 49.41688762109753 ], [ 14.925341263058229, 49.414435961551717 ], [ 14.924648582745206, 49.412004433294591 ], [ 14.923761252970881, 49.409599704476349 ], [ 14.922681705844481, 49.407228370726294 ], [ 14.921412900329651, 49.404896937026095 ], [ 14.919958314134101, 49.402611799821813 ], [ 14.918321934177499, 49.400379229424317 ], [ 14.916508245663554, 49.398205352747155 ], [ 14.914522219786418, 49.396096136429854 ], [ 14.912369300104976, 49.394057370394066 ], [ 14.910055387622418, 49.392094651878367 ], [ 14.907586824612029, 49.390213369996651 ], [ 14.904970377233429, 49.388418690863567 ], [ 14.902213216987017, 49.386715543328741 ], [ 14.899322901057381, 49.385108605360244 ], [ 14.896307351599582, 49.383602291115658 ], [ 14.89317483402507, 49.38220073873741 ], [ 14.889933934346786, 49.380907798906961 ], [ 14.886593535645469, 49.379727024190345 ], [ 14.883162793721775, 49.378661659205463 ], [ 14.879651112000845, 49.377714631638952 ], [ 14.876068115758185, 49.376888544138339 ], [ 14.872423625737451, 49.376185667102668 ], [ 14.868727631232455, 49.375607932392079 ], [ 14.864990262707233, 49.375156927974338 ], [ 14.861221764029132, 49.374833893523785 ], [ 14.857432464391081, 49.374639716984973 ], [ 14.85363275, 49.374574932111251 ], [ 14.849833035608921, 49.374639716984973 ], [ 14.84604373597087, 49.374833893523785 ], [ 14.842275237292766, 49.375156927974338 ], [ 14.838537868767544, 49.375607932392079 ], [ 14.834841874262548, 49.376185667102668 ], [ 14.831197384241813, 49.376888544138339 ], [ 14.827614387999153, 49.377714631638952 ], [ 14.824102706278223, 49.378661659205463 ], [ 14.820671964354529, 49.379727024190345 ], [ 14.817331565653216, 49.380907798906961 ], [ 14.814090665974929, 49.38220073873741 ], [ 14.810958148400417, 49.383602291115658 ], [ 14.807942598942617, 49.385108605360244 ], [ 14.805052283012982, 49.386715543328741 ], [ 14.802295122766569, 49.388418690863567 ], [ 14.79967867538797, 49.390213369996651 ], [ 14.797210112377581, 49.392094651878367 ], [ 14.794896199895026, 49.394057370394066 ], [ 14.79274328021358, 49.396096136429854 ], [ 14.790757254336445, 49.398205352747155 ], [ 14.7889435658225, 49.400379229424317 ], [ 14.787307185865897, 49.402611799821813 ], [ 14.785852599670347, 49.404896937026095 ], [ 14.784583794155518, 49.407228370726294 ], [ 14.783504247029118, 49.409599704476349 ], [ 14.782616917254792, 49.412004433294591 ], [ 14.781924236941771, 49.414435961551717 ], [ 14.781428104678643, 49.41688762109753 ], [ 14.781129880329461, 49.419352689576193 ], [ 14.781030381306429, 49.421824408879424 ], [ 14.781129880329461, 49.424296003686692 ], [ 14.781428104678643, 49.426760700041491 ], [ 14.781924236941771, 49.429211743912582 ], [ 14.782616917254792, 49.431642419689624 ], [ 14.783504247029118, 49.434046068562346 ], [ 14.784583794155518, 49.436416106733581 ], [ 14.785852599670347, 49.43874604341628 ], [ 14.787307185865897, 49.44102949856606 ], [ 14.7889435658225, 49.443260220300964 ], [ 14.790757254336445, 49.445432101961813 ], [ 14.79274328021358, 49.44753919876689 ], [ 14.794896199895026, 49.449575744016371 ], [ 14.797210112377581, 49.45153616480308 ], [ 14.79967867538797, 49.453415097187545 ], [ 14.802295122766569, 49.455207400796688 ], [ 14.805052283012982, 49.456908172807623 ], [ 14.807942598942617, 49.458512761279017 ], [ 14.810958148400417, 49.460016777794863 ], [ 14.814090665974929, 49.46141610938713 ], [ 14.817331565653216, 49.462706929705753 ], [ 14.820671964354529, 49.463885709406497 ], [ 14.824102706278223, 49.464949225729278 ], [ 14.827614387999153, 49.465894571241769 ], [ 14.831197384241813, 49.466719161725365 ], [ 14.834841874262548, 49.467420743182657 ], [ 14.838537868767544, 49.467997397948132 ], [ 14.842275237292766, 49.468447549886108 ], [ 14.84604373597087, 49.468769968662187 ], [ 14.849833035608921, 49.468963773077277 ], [ 14.85363275, 49.469028433455094 ], [ 14.857432464391081, 49.468963773077277 ], [ 14.861221764029132, 49.468769968662187 ], [ 14.864990262707233, 49.468447549886108 ], [ 14.868727631232455, 49.467997397948132 ], [ 14.872423625737451, 49.467420743182657 ], [ 14.876068115758185, 49.466719161725365 ], [ 14.879651112000845, 49.465894571241769 ], [ 14.883162793721775, 49.464949225729278 ], [ 14.886593535645469, 49.463885709406497 ], [ 14.889933934346786, 49.462706929705753 ], [ 14.89317483402507, 49.46141610938713 ], [ 14.896307351599582, 49.460016777794863 ], [ 14.899322901057381, 49.458512761279017 ], [ 14.902213216987017, 49.456908172807623 ], [ 14.904970377233429, 49.455207400796688 ], [ 14.907586824612029, 49.453415097187545 ], [ 14.910055387622418, 49.45153616480308 ], [ 14.912369300104976, 49.449575744016371 ], [ 14.914522219786418, 49.44753919876689 ], [ 14.916508245663554, 49.445432101961813 ], [ 14.918321934177499, 49.443260220300964 ], [ 14.919958314134101, 49.44102949856606 ], [ 14.921412900329651, 49.43874604341628 ], [ 14.922681705844481, 49.436416106733581 ], [ 14.923761252970881, 49.434046068562346 ], [ 14.924648582745206, 49.431642419689624 ], [ 14.925341263058229, 49.429211743912582 ], [ 14.925837395321356, 49.426760700041491 ], [ 14.926135619670537, 49.424296003686692 ], [ 14.926235118693569, 49.421824408879424 ] ] ] } },
{ "type": "Feature", "properties": { "name": "Dolní Hořice", "feature_type": "mrr", "metric_roundness": 44.88, "metric_rectangularity": 60.68, "metric_mobile_fit": 66.28, "metric_aspect_ratio": 0.9, "metric_area_km2": 92.05 }, "geometry": { "type": "Polygon", "coordinates": [ [ [ 14.89071991170783, 49.380487095375756 ], [ 14.784763876155509, 49.438628038449387 ], [ 14.841701184880426, 49.482509428490395 ], [ 14.947657220432747, 49.424420503335377 ], [ 14.89071991170783, 49.380487095375756 ] ] ] } }
]
}
