{
"type": "FeatureCollection",
"name": "dombovar",
"crs": { "type": "name", "properties": { "name": "urn:ogc:def:crs:OGC:1.3:CRS84" } },
"features": [
{ "type": "Feature", "properties": { "name": "Dombóvár", "feature_type": "entity", "metric_roundness": 41.11, "metric_rectangularity": 49.27, "metric_mobile_fit": 86.09, "metric_aspect_ratio": 0.702, "metric_area_km2": 164.12 }, "geometry": { "type": "Polygon", "coordinates": [ [ [ 18.1645987, 46.3766572 ], [ 18.1880675, 46.3682735 ], [ 18.185472, 46.397516 ], [ 18.22041, 46.4056635 ], [ 18.229217, 46.403857 ], [ 18.2096958, 46.4330785 ], [ 18.1936825, 46.429016199999985 ], [ 18.173232, 46.453022 ], [ 18.1637516, 46.450032199999981 ], [ 18.1528235, 46.452373099999988 ], [ 18.1362896, 46.4643539 ], [ 18.1286501, 46.4634483 ], [ 18.1219915, 46.4700045 ], [ 18.1185967, 46.462597 ], [ 18.1077773, 46.4681689 ], [ 18.10193, 46.465214799999984 ], [ 18.1049302, 46.4529398 ], [ 18.09777, 46.444085 ], [ 18.0970464, 46.410130099999982 ], [ 18.1173779, 46.3771559 ], [ 18.111329, 46.369359399999986 ], [ 18.0933255, 46.368633 ], [ 18.0901159, 46.360526199999981 ], [ 18.0931592, 46.3425251 ], [ 18.0994355, 46.333276 ], [ 18.1095497, 46.34589 ], [ 18.1072512, 46.355899699999988 ], [ 18.1275593, 46.3627107 ], [ 18.1418232, 46.3601675 ], [ 18.1532375, 46.3644085 ], [ 18.1645987, 46.3766572 ] ] ] } },
{ "type": "Feature", "properties": { "name": "Dombóvár", "feature_type": "circle", "metric_roundness": 41.11, "metric_rectangularity": 49.27, "metric_mobile_fit": 86.09, "metric_aspect_ratio": 0.702, "metric_area_km2": 164.12 }, "geometry": { "type": "Polygon", "coordinates": [ [ [ 18.229346758228349, 46.400322552341272 ], [ 18.229207942509976, 46.396666669035348 ], [ 18.228791875839086, 46.393020562310305 ], [ 18.228099698625506, 46.389394228897224 ], [ 18.227133308078866, 46.385797613298251 ], [ 18.225895353008482, 46.382240580475035 ], [ 18.224389226563151, 46.378732888734014 ], [ 18.222619056930771, 46.375284162884036 ], [ 18.220589696023264, 46.371903867740741 ], [ 18.218306706177813, 46.368601282051557 ], [ 18.2157763449109, 46.365385472914461 ], [ 18.213005547766873, 46.362265270761945 ], [ 18.210001909308104, 46.359249244980774 ], [ 18.206773662298836, 46.356345680236245 ], [ 18.203329655139722, 46.353562553567841 ], [ 18.199679327614998, 46.3509075123212 ], [ 18.195832685018679, 46.348387852979286 ], [ 18.191800270730742, 46.346010500952829 ], [ 18.187593137318462, 46.343781991387893 ], [ 18.18322281624209, 46.341708451045413 ], [ 18.178701286247914, 46.339795581304713 ], [ 18.174040940535367, 46.338048642339714 ], [ 18.169254552788104, 46.336472438513454 ], [ 18.164355242162245, 46.335071305033019 ], [ 18.15935643732767, 46.333849095903247 ], [ 18.154271839660964, 46.332809173214251 ], [ 18.149115385690912, 46.331954397793538 ], [ 18.143901208899418, 46.331287121249986 ], [ 18.13864360098264, 46.330809179432549 ], [ 18.133356972678424, 46.330521887322845 ], [ 18.128055814267483, 46.330426035376355 ], [ 18.122754655856536, 46.330521887322845 ], [ 18.11746802755232, 46.330809179432549 ], [ 18.112210419635545, 46.331287121249986 ], [ 18.106996242844051, 46.331954397793538 ], [ 18.101839788873995, 46.332809173214251 ], [ 18.09675519120729, 46.333849095903247 ], [ 18.091756386372715, 46.335071305033019 ], [ 18.08685707574686, 46.336472438513454 ], [ 18.082070687999597, 46.338048642339714 ], [ 18.077410342287049, 46.339795581304713 ], [ 18.07288881229287, 46.341708451045413 ], [ 18.068518491216501, 46.343781991387893 ], [ 18.064311357804218, 46.346010500952829 ], [ 18.060278943516284, 46.348387852979286 ], [ 18.056432300919962, 46.3509075123212 ], [ 18.052781973395241, 46.353562553567841 ], [ 18.049337966236127, 46.356345680236245 ], [ 18.046109719226859, 46.359249244980774 ], [ 18.043106080768091, 46.362265270761945 ], [ 18.040335283624064, 46.365385472914461 ], [ 18.03780492235715, 46.368601282051557 ], [ 18.035521932511699, 46.371903867740741 ], [ 18.033492571604189, 46.375284162884036 ], [ 18.031722401971809, 46.378732888734014 ], [ 18.030216275526477, 46.382240580475035 ], [ 18.028978320456094, 46.385797613298251 ], [ 18.028011929909454, 46.389394228897224 ], [ 18.027319752695874, 46.393020562310305 ], [ 18.026903686024987, 46.396666669035348 ], [ 18.026764870306611, 46.400322552341272 ], [ 18.026903686024987, 46.403978190701473 ], [ 18.027319752695874, 46.407623565272949 ], [ 18.028011929909454, 46.411248687346315 ], [ 18.028978320456094, 46.414843625691091 ], [ 18.030216275526477, 46.418398533722048 ], [ 18.031722401971809, 46.42190367641242 ], [ 18.033492571604189, 46.425349456881314 ], [ 18.035521932511699, 46.428726442583354 ], [ 18.03780492235715, 46.432025391030074 ], [ 18.040335283624064, 46.435237274973929 ], [ 18.043106080768091, 46.4383533069877 ], [ 18.046109719226859, 46.441364963373552 ], [ 18.049337966236127, 46.444264007338226 ], [ 18.052781973395241, 46.447042511372899 ], [ 18.056432300919962, 46.449692878778428 ], [ 18.060278943516284, 46.45220786427948 ], [ 18.064311357804218, 46.454580593672887 ], [ 18.068518491216501, 46.4568045824591 ], [ 18.07288881229287, 46.458873753407779 ], [ 18.077410342287049, 46.460782453011554 ], [ 18.082070687999597, 46.462525466785372 ], [ 18.08685707574686, 46.464098033371378 ], [ 18.091756386372715, 46.465495857412812 ], [ 18.09675519120729, 46.466715121163716 ], [ 18.101839788873995, 46.467752494804124 ], [ 18.106996242844051, 46.468605145434381 ], [ 18.112210419635545, 46.469270744725272 ], [ 18.11746802755232, 46.469747475204109 ], [ 18.122754655856536, 46.470034035160957 ], [ 18.128055814267483, 46.470129642161943 ], [ 18.133356972678424, 46.470034035160957 ], [ 18.13864360098264, 46.469747475204109 ], [ 18.143901208899418, 46.469270744725272 ], [ 18.149115385690912, 46.468605145434381 ], [ 18.154271839660964, 46.467752494804124 ], [ 18.15935643732767, 46.466715121163716 ], [ 18.164355242162245, 46.465495857412812 ], [ 18.169254552788104, 46.464098033371378 ], [ 18.174040940535367, 46.462525466785372 ], [ 18.178701286247914, 46.460782453011554 ], [ 18.18322281624209, 46.458873753407779 ], [ 18.187593137318462, 46.4568045824591 ], [ 18.191800270730742, 46.454580593672887 ], [ 18.195832685018679, 46.45220786427948 ], [ 18.199679327614998, 46.449692878778428 ], [ 18.203329655139722, 46.447042511372899 ], [ 18.206773662298836, 46.444264007338226 ], [ 18.210001909308104, 46.441364963373552 ], [ 18.213005547766873, 46.4383533069877 ], [ 18.2157763449109, 46.435237274973929 ], [ 18.218306706177813, 46.432025391030074 ], [ 18.220589696023264, 46.428726442583354 ], [ 18.222619056930771, 46.425349456881314 ], [ 18.224389226563151, 46.42190367641242 ], [ 18.225895353008482, 46.418398533722048 ], [ 18.227133308078866, 46.414843625691091 ], [ 18.228099698625506, 46.411248687346315 ], [ 18.228791875839086, 46.407623565272949 ], [ 18.229207942509976, 46.403978190701473 ], [ 18.229346758228349, 46.400322552341272 ] ] ] } },
{ "type": "Feature", "properties": { "name": "Dombóvár", "feature_type": "mrr", "metric_roundness": 41.11, "metric_rectangularity": 49.27, "metric_mobile_fit": 86.09, "metric_aspect_ratio": 0.702, "metric_area_km2": 164.12 }, "geometry": { "type": "Polygon", "coordinates": [ [ [ 18.087669221051069, 46.333789175590795 ], [ 18.100233459611186, 46.470951082415723 ], [ 18.234829806935224, 46.465095180747809 ], [ 18.222265568375107, 46.327918533905198 ], [ 18.087669221051069, 46.333789175590795 ] ] ] } }
]
}
