{
"type": "FeatureCollection",
"name": "dorf_an_der_pram",
"crs": { "type": "name", "properties": { "name": "urn:ogc:def:crs:OGC:1.3:CRS84" } },
"features": [
{ "type": "Feature", "properties": { "name": "Dorf an der Pram", "metric_roundness": 49.41, "metric_rectangularity": 57.33, "metric_mobile_fit": 64.28, "metric_aspect_ratio": 0.92, "metric_area_km2": 28.57 }, "geometry": { "type": "Polygon", "coordinates": [ [ [ 13.6227226, 48.275853899999987 ], [ 13.6148566, 48.2651349 ], [ 13.6037989, 48.26225849999998 ], [ 13.591439, 48.254461 ], [ 13.6036901, 48.2512293 ], [ 13.608901, 48.245518899999986 ], [ 13.6282485, 48.2513345 ], [ 13.6535473, 48.251059399999988 ], [ 13.6561816, 48.255633599999982 ], [ 13.649406, 48.263493 ], [ 13.6479698, 48.2692927 ], [ 13.6532583, 48.2745092 ], [ 13.6532555, 48.284798 ], [ 13.63798, 48.2914143 ], [ 13.6310176, 48.2923771 ], [ 13.6268395, 48.289988499999986 ], [ 13.6227226, 48.275853899999987 ] ] ] } }
]
}
