{
"type": "FeatureCollection",
"name": "douai",
"crs": { "type": "name", "properties": { "name": "urn:ogc:def:crs:OGC:1.3:CRS84" } },
"features": [
{ "type": "Feature", "properties": { "name": "Douai", "metric_roundness": 33.89, "metric_rectangularity": 44.09, "metric_mobile_fit": 53.91, "metric_aspect_ratio": 1.023, "metric_area_km2": 41.97 }, "geometry": { "type": "Polygon", "coordinates": [ [ [ 3.1138518, 50.3996923 ], [ 3.1038665, 50.398279 ], [ 3.0713914, 50.396648499999984 ], [ 3.057703, 50.3933275 ], [ 3.0550725, 50.390973 ], [ 3.05885, 50.38656469999998 ], [ 3.0591603, 50.3799923 ], [ 3.0572968, 50.3753495 ], [ 3.0526629, 50.373290899999986 ], [ 3.0550555, 50.3688265 ], [ 3.0593942, 50.3617455 ], [ 3.0706153, 50.3623708 ], [ 3.0697159, 50.3567291 ], [ 3.0767327, 50.3557524 ], [ 3.085562, 50.3500894 ], [ 3.0953035, 50.34992 ], [ 3.0914515, 50.356164599999985 ], [ 3.0968145, 50.362818699999977 ], [ 3.0948248, 50.3662699 ], [ 3.099114, 50.369091 ], [ 3.0992009, 50.3782942 ], [ 3.0953547, 50.3817594 ], [ 3.1117492, 50.3966341 ], [ 3.1183336, 50.3988733 ], [ 3.1275302, 50.3974653 ], [ 3.1284761, 50.394866599999986 ], [ 3.123956, 50.3898618 ], [ 3.12608, 50.388734 ], [ 3.1343401, 50.3895329 ], [ 3.136908, 50.394561799999984 ], [ 3.14377, 50.395134499999983 ], [ 3.147177, 50.397535 ], [ 3.147278, 50.399427 ], [ 3.149408, 50.4000415 ], [ 3.1468077, 50.4072277 ], [ 3.1419755, 50.4102035 ], [ 3.1303848, 50.4097341 ], [ 3.121554, 50.404494 ], [ 3.1138518, 50.3996923 ] ] ] } }
]
}
