{
"type": "FeatureCollection",
"name": "hufingen_stadt",
"crs": { "type": "name", "properties": { "name": "urn:ogc:def:crs:OGC:1.3:CRS84" } },
"features": [
{ "type": "Feature", "properties": { "name": "Hüfingen, Stadt", "metric_roundness": 35.76, "metric_rectangularity": 44.52, "metric_mobile_fit": 33.93, "metric_aspect_ratio": 1.223, "metric_area_km2": 128.23 }, "geometry": { "type": "Polygon", "coordinates": [ [ [ 8.4452891, 47.855831599999988 ], [ 8.4720715, 47.8467225 ], [ 8.4751964, 47.850956 ], [ 8.4869901, 47.8529516 ], [ 8.4943345, 47.8466405 ], [ 8.4979388, 47.855893 ], [ 8.4930662, 47.8621357 ], [ 8.4966862, 47.869363299999989 ], [ 8.4930513, 47.875784499999988 ], [ 8.4968207, 47.8829402 ], [ 8.5141411, 47.8811867 ], [ 8.5384006, 47.8914097 ], [ 8.538177, 47.885723 ], [ 8.5507456, 47.8817679 ], [ 8.5840605, 47.883955799999988 ], [ 8.595137, 47.8787589 ], [ 8.6078265, 47.876963 ], [ 8.6144695, 47.880120499999983 ], [ 8.615798, 47.88278649999998 ], [ 8.614441, 47.884381499999989 ], [ 8.5894921, 47.8957354 ], [ 8.5823637, 47.8961843 ], [ 8.5770237, 47.9016586 ], [ 8.5437566, 47.9016361 ], [ 8.5485034, 47.9203155 ], [ 8.5411022, 47.922831 ], [ 8.5288504, 47.9335258 ], [ 8.5182585, 47.9365117 ], [ 8.5127584, 47.932713199999988 ], [ 8.5007796, 47.9322306 ], [ 8.4760025, 47.9452405 ], [ 8.4721209, 47.928745099999986 ], [ 8.4624066, 47.9189147 ], [ 8.4563307, 47.9044977 ], [ 8.4653187, 47.8978835 ], [ 8.467658, 47.8877514 ], [ 8.4520926, 47.8853678 ], [ 8.4463986, 47.877733399999975 ], [ 8.4393995, 47.874945 ], [ 8.4359117, 47.8596597 ], [ 8.4390335, 47.8536385 ], [ 8.4452891, 47.855831599999988 ] ] ] } }
]
}
