{
"type": "FeatureCollection",
"name": "huje",
"crs": { "type": "name", "properties": { "name": "urn:ogc:def:crs:OGC:1.3:CRS84" } },
"features": [
{ "type": "Feature", "properties": { "name": "Huje", "feature_type": "entity", "metric_roundness": 48.64, "metric_rectangularity": 77.24, "metric_mobile_fit": 51.96, "metric_aspect_ratio": 1.043, "metric_area_km2": 15.92 }, "geometry": { "type": "Polygon", "coordinates": [ [ [ 9.453655, 53.975703499999987 ], [ 9.454011, 53.976111 ], [ 9.4332785, 53.9850055 ], [ 9.4260542, 53.989910699999989 ], [ 9.4054155, 53.993004 ], [ 9.406639, 53.984382 ], [ 9.4035505, 53.978139 ], [ 9.4328095, 53.96455 ], [ 9.453655, 53.975703499999987 ] ] ] } },
{ "type": "Feature", "properties": { "name": "Huje", "feature_type": "circle", "metric_roundness": 48.64, "metric_rectangularity": 77.24, "metric_mobile_fit": 51.96, "metric_aspect_ratio": 1.043, "metric_area_km2": 15.92 }, "geometry": { "type": "Polygon", "coordinates": [ [ [ 9.455319749184875, 53.981177096012125 ], [ 9.455279997501165, 53.98028439235933 ], [ 9.455160851406637, 53.979394116493289 ], [ 9.454962637472459, 53.978508708832955 ], [ 9.45468589898924, 53.977630596607632 ], [ 9.454331394477929, 53.976762187199768 ], [ 9.453900095610752, 53.975905861540731 ], [ 9.453393184547926, 53.975063967577228 ], [ 9.452812050697432, 53.974238813826886 ], [ 9.452158286906769, 53.973432663040427 ], [ 9.45143368509704, 53.972647725987933 ], [ 9.450640231351439, 53.971886155386485 ], [ 9.449780100471532, 53.971150039986014 ], [ 9.448855650016274, 53.970441398829443 ], [ 9.447869413840099, 53.969762175703288 ], [ 9.446824095147823, 53.969114233794024 ], [ 9.445722559085317, 53.96849935056489 ], [ 9.444567824886361, 53.967919212867635 ], [ 9.443363057597132, 53.967375412302502 ], [ 9.442111559401026, 53.966869440839524 ], [ 9.440816760567611, 53.966402686713209 ], [ 9.439482210050482, 53.965976430602204 ], [ 9.438111565759849, 53.965591842104295 ], [ 9.436708584536442, 53.965249976516866 ], [ 9.435277111854267, 53.964951771931574 ], [ 9.433821071280452, 53.96469804665157 ], [ 9.432344453720997, 53.964489496938064 ], [ 9.430851306481999, 53.964326695093128 ], [ 9.429345722176246, 53.964210087883473 ], [ 9.427831827505676, 53.964139995310028 ], [ 9.426313771950346, 53.964116609726602 ], [ 9.424795716395014, 53.964139995310028 ], [ 9.423281821724444, 53.964210087883473 ], [ 9.42177623741869, 53.964326695093128 ], [ 9.420283090179693, 53.964489496938064 ], [ 9.41880647262024, 53.96469804665157 ], [ 9.417350432046423, 53.964951771931574 ], [ 9.415918959364248, 53.965249976516866 ], [ 9.414515978140841, 53.965591842104295 ], [ 9.413145333850206, 53.965976430602204 ], [ 9.411810783333079, 53.966402686713209 ], [ 9.410515984499664, 53.966869440839524 ], [ 9.409264486303558, 53.967375412302502 ], [ 9.408059719014329, 53.967919212867635 ], [ 9.406904984815373, 53.96849935056489 ], [ 9.405803448752867, 53.969114233794024 ], [ 9.404758130060589, 53.969762175703288 ], [ 9.403771893884418, 53.970441398829443 ], [ 9.402847443429158, 53.971150039986014 ], [ 9.401987312549251, 53.971886155386485 ], [ 9.40119385880365, 53.972647725987933 ], [ 9.400469256993921, 53.973432663040427 ], [ 9.399815493203256, 53.974238813826886 ], [ 9.399234359352766, 53.975063967577228 ], [ 9.398727448289938, 53.975905861540731 ], [ 9.398296149422761, 53.976762187199768 ], [ 9.397941644911452, 53.977630596607632 ], [ 9.397664906428233, 53.978508708832955 ], [ 9.397466692494053, 53.979394116493289 ], [ 9.397347546399526, 53.98028439235933 ], [ 9.397307794715816, 53.981177096012125 ], [ 9.397347546399526, 53.982069780534637 ], [ 9.397466692494053, 53.982959999219389 ], [ 9.397664906428233, 53.983845312273935 ], [ 9.397941644911452, 53.984723293505489 ], [ 9.398296149422761, 53.985591536966794 ], [ 9.398727448289938, 53.986447663544652 ], [ 9.399234359352766, 53.987289327473491 ], [ 9.399815493203256, 53.988114222756003 ], [ 9.400469256993921, 53.988920089473311 ], [ 9.40119385880365, 53.989704719967662 ], [ 9.401987312549251, 53.990465964880656 ], [ 9.402847443429158, 53.991201739030693 ], [ 9.403771893884418, 53.991910027113661 ], [ 9.404758130060589, 53.99258888921139 ], [ 9.405803448752867, 53.993236466092917 ], [ 9.406904984815373, 53.993850984294312 ], [ 9.408059719014329, 53.994430760963141 ], [ 9.409264486303558, 53.994974208454678 ], [ 9.410515984499662, 53.995479838667237 ], [ 9.411810783333079, 53.995946267105097 ], [ 9.413145333850206, 53.99637221665796 ], [ 9.414515978140841, 53.996756521086724 ], [ 9.415918959364248, 53.997098128206353 ], [ 9.417350432046423, 53.99739610275698 ], [ 9.41880647262024, 53.997649628955813 ], [ 9.420283090179693, 53.997858012722766 ], [ 9.42177623741869, 53.998020683573934 ], [ 9.423281821724444, 53.998137196177808 ], [ 9.424795716395014, 53.998207231569964 ], [ 9.426313771950346, 53.998230598023113 ], [ 9.427831827505676, 53.998207231569964 ], [ 9.429345722176246, 53.998137196177808 ], [ 9.430851306481999, 53.998020683573934 ], [ 9.432344453720997, 53.997858012722766 ], [ 9.433821071280452, 53.997649628955813 ], [ 9.435277111854267, 53.99739610275698 ], [ 9.436708584536442, 53.997098128206353 ], [ 9.438111565759849, 53.996756521086724 ], [ 9.439482210050482, 53.99637221665796 ], [ 9.440816760567611, 53.995946267105097 ], [ 9.442111559401026, 53.995479838667237 ], [ 9.443363057597132, 53.994974208454678 ], [ 9.444567824886361, 53.994430760963141 ], [ 9.445722559085317, 53.993850984294312 ], [ 9.446824095147823, 53.993236466092917 ], [ 9.447869413840099, 53.99258888921139 ], [ 9.448855650016274, 53.991910027113661 ], [ 9.449780100471532, 53.991201739030693 ], [ 9.450640231351439, 53.990465964880656 ], [ 9.45143368509704, 53.989704719967662 ], [ 9.452158286906769, 53.988920089473311 ], [ 9.452812050697432, 53.988114222756003 ], [ 9.453393184547926, 53.987289327473491 ], [ 9.453900095610752, 53.986447663544652 ], [ 9.454331394477929, 53.985591536966794 ], [ 9.45468589898924, 53.984723293505489 ], [ 9.454962637472459, 53.983845312273935 ], [ 9.455160851406637, 53.982959999219389 ], [ 9.455279997501165, 53.982069780534637 ], [ 9.455319749184875, 53.981177096012125 ] ] ] } },
{ "type": "Feature", "properties": { "name": "Huje", "feature_type": "mrr", "metric_roundness": 48.64, "metric_rectangularity": 77.24, "metric_mobile_fit": 51.96, "metric_aspect_ratio": 1.043, "metric_area_km2": 15.92 }, "geometry": { "type": "Polygon", "coordinates": [ [ [ 9.436427089355639, 53.962869547054098 ], [ 9.392403368331708, 53.983314991019611 ], [ 9.410782494223561, 53.996999703004001 ], [ 9.454806215247492, 53.976560975862789 ], [ 9.436427089355639, 53.962869547054098 ] ] ] } }
]
}
