{
"type": "FeatureCollection",
"name": "hurtieres",
"crs": { "type": "name", "properties": { "name": "urn:ogc:def:crs:OGC:1.3:CRS84" } },
"features": [
{ "type": "Feature", "properties": { "name": "Hurtières", "metric_roundness": 67.36, "metric_rectangularity": 78.32, "metric_mobile_fit": 60.72, "metric_aspect_ratio": 0.955, "metric_area_km2": 6.56 }, "geometry": { "type": "Polygon", "coordinates": [ [ [ 5.9604821, 45.2871519 ], [ 5.957503, 45.27847449999998 ], [ 5.97905, 45.2792935 ], [ 5.9806272, 45.2862548 ], [ 5.9783777, 45.293773499999986 ], [ 5.9677792, 45.297605399999988 ], [ 5.959205, 45.296413 ], [ 5.9546495, 45.291039499999989 ], [ 5.9604821, 45.2871519 ] ] ] } }
]
}
