{
"type": "FeatureCollection",
"name": "le_cailar",
"crs": { "type": "name", "properties": { "name": "urn:ogc:def:crs:OGC:1.3:CRS84" } },
"features": [
{ "type": "Feature", "properties": { "name": "Le Cailar", "feature_type": "entity", "metric_roundness": 18.59, "metric_rectangularity": 56.67, "metric_mobile_fit": 73.22, "metric_aspect_ratio": 0.295, "metric_area_km2": 57.64 }, "geometry": { "type": "Polygon", "coordinates": [ [ [ 4.2160756, 43.6947299 ], [ 4.2245921, 43.6841428 ], [ 4.2245831, 43.6594734 ], [ 4.238589, 43.6334916 ], [ 4.2300825, 43.624363 ], [ 4.2407928, 43.6131773 ], [ 4.2417895, 43.6020592 ], [ 4.2385233, 43.589306799999989 ], [ 4.265272, 43.589289 ], [ 4.2555041, 43.6073215 ], [ 4.2629751, 43.614021099999988 ], [ 4.2628232, 43.620007899999983 ], [ 4.2670335, 43.626635799999981 ], [ 4.2568071, 43.6259334 ], [ 4.2504646, 43.6179584 ], [ 4.2433919, 43.6169406 ], [ 4.2649329, 43.6590085 ], [ 4.2571079, 43.680959799999982 ], [ 4.2467577, 43.6871461 ], [ 4.2452117, 43.6924339 ], [ 4.2606935, 43.7167175 ], [ 4.260408, 43.717442499999983 ], [ 4.25476, 43.715744 ], [ 4.246772, 43.71227 ], [ 4.236892, 43.710008 ], [ 4.229074, 43.71009 ], [ 4.220861, 43.711357 ], [ 4.2171635, 43.710109 ], [ 4.2148405, 43.709205 ], [ 4.2160756, 43.6947299 ] ] ] } },
{ "type": "Feature", "properties": { "name": "Le Cailar", "feature_type": "circle", "metric_roundness": 18.59, "metric_rectangularity": 56.67, "metric_mobile_fit": 73.22, "metric_aspect_ratio": 0.295, "metric_area_km2": 57.64 }, "geometry": { "type": "Polygon", "coordinates": [ [ [ 4.341237336540102, 43.653184131963833 ], [ 4.341115010722948, 43.649804107229741 ], [ 4.34074836855805, 43.646433157465857 ], [ 4.340138414986098, 43.643080524547756 ], [ 4.339286821847431, 43.639755401674378 ], [ 4.338195923299653, 43.63646690812773 ], [ 4.336868709419854, 43.633224064218943 ], [ 4.335308818009025, 43.630035766489925 ], [ 4.333520524621098, 43.626910763239451 ], [ 4.331508730843945, 43.623857630441734 ], [ 4.32927895086447, 43.620884748124588 ], [ 4.32683729635461, 43.618000277273275 ], [ 4.324190459719656, 43.615212137324534 ], [ 4.321345695754847, 43.612527984314298 ], [ 4.318310801760472, 43.609955189740269 ], [ 4.315094096170018, 43.607500820199171 ], [ 4.311704395749917, 43.605171617856158 ], [ 4.308150991433406, 43.602973981801711 ], [ 4.304443622854722, 43.600913950348776 ], [ 4.300592451653444, 43.598997184320645 ], [ 4.296608033622141, 43.597228951377112 ], [ 4.292501289773686, 43.595614111423401 ], [ 4.288283476407509, 43.594157103143893 ], [ 4.283966154256872, 43.592861931698728 ], [ 4.279561156801695, 43.591732157618928 ], [ 4.275080557833816, 43.590770886931566 ], [ 4.270536638363563, 43.589980762543412 ], [ 4.26594185295836, 43.589363956907874 ], [ 4.261308795605623, 43.588922165996209 ], [ 4.256650165193515, 43.588656604590334 ], [ 4.251978730704181, 43.588568002910932 ], [ 4.247307296214846, 43.588656604590334 ], [ 4.242648665802738, 43.588922165996209 ], [ 4.238015608450001, 43.589363956907874 ], [ 4.233420823044798, 43.589980762543412 ], [ 4.228876903574545, 43.590770886931566 ], [ 4.224396304606666, 43.591732157618928 ], [ 4.219991307151489, 43.592861931698728 ], [ 4.215673985000852, 43.594157103143893 ], [ 4.211456171634675, 43.595614111423401 ], [ 4.20734942778622, 43.597228951377112 ], [ 4.203365009754918, 43.598997184320645 ], [ 4.199513838553639, 43.600913950348776 ], [ 4.195806469974955, 43.602973981801711 ], [ 4.192253065658444, 43.605171617856158 ], [ 4.188863365238343, 43.607500820199171 ], [ 4.185646659647889, 43.609955189740269 ], [ 4.182611765653514, 43.612527984314298 ], [ 4.179767001688705, 43.615212137324534 ], [ 4.177120165053751, 43.618000277273275 ], [ 4.174678510543891, 43.620884748124588 ], [ 4.172448730564416, 43.623857630441734 ], [ 4.170436936787263, 43.626910763239451 ], [ 4.168648643399336, 43.630035766489925 ], [ 4.167088751988507, 43.633224064218943 ], [ 4.165761538108708, 43.63646690812773 ], [ 4.16467063956093, 43.639755401674378 ], [ 4.163819046422264, 43.643080524547756 ], [ 4.163209092850311, 43.646433157465857 ], [ 4.162842450685413, 43.649804107229741 ], [ 4.162720124868259, 43.653184131963833 ], [ 4.162842450685413, 43.656563966472845 ], [ 4.163209092850311, 43.659934347645631 ], [ 4.163819046422264, 43.66328603983623 ], [ 4.16467063956093, 43.666609860152519 ], [ 4.165761538108708, 43.669896703583596 ], [ 4.167088751988507, 43.673137567897363 ], [ 4.168648643399336, 43.67632357824079 ], [ 4.170436936787263, 43.679446011376214 ], [ 4.172448730564416, 43.682496319488159 ], [ 4.174678510543891, 43.68546615349667 ], [ 4.177120165053751, 43.688347385814446 ], [ 4.179767001688705, 43.691132132486786 ], [ 4.182611765653514, 43.69381277465525 ], [ 4.185646659647889, 43.696381979287651 ], [ 4.188863365238343, 43.69883271911943 ], [ 4.192253065658444, 43.701158291753281 ], [ 4.195806469974955, 43.703352337866583 ], [ 4.199513838553639, 43.705408858478535 ], [ 4.203365009754918, 43.707322231231323 ], [ 4.20734942778622, 43.709087225642584 ], [ 4.211456171634675, 43.710699017289102 ], [ 4.215673985000852, 43.71215320088438 ], [ 4.219991307151489, 43.713445802216057 ], [ 4.224396304606666, 43.714573288911808 ], [ 4.228876903574545, 43.715532580005586 ], [ 4.233420823044798, 43.716321054279433 ], [ 4.23801560845, 43.716936557358935 ], [ 4.242648665802738, 43.717377407543879 ], [ 4.247307296214846, 43.717642400359146 ], [ 4.251978730704181, 43.717730811813631 ], [ 4.256650165193515, 43.717642400359146 ], [ 4.261308795605623, 43.717377407543879 ], [ 4.26594185295836, 43.716936557358935 ], [ 4.270536638363563, 43.716321054279433 ], [ 4.275080557833816, 43.715532580005586 ], [ 4.279561156801695, 43.714573288911808 ], [ 4.283966154256872, 43.713445802216057 ], [ 4.288283476407509, 43.71215320088438 ], [ 4.292501289773686, 43.710699017289102 ], [ 4.296608033622141, 43.709087225642584 ], [ 4.300592451653444, 43.707322231231323 ], [ 4.304443622854722, 43.705408858478535 ], [ 4.308150991433406, 43.703352337866583 ], [ 4.311704395749917, 43.701158291753281 ], [ 4.315094096170018, 43.69883271911943 ], [ 4.318310801760472, 43.696381979287651 ], [ 4.321345695754847, 43.69381277465525 ], [ 4.324190459719656, 43.691132132486786 ], [ 4.32683729635461, 43.688347385814446 ], [ 4.32927895086447, 43.68546615349667 ], [ 4.331508730843945, 43.682496319488159 ], [ 4.333520524621098, 43.679446011376214 ], [ 4.335308818009025, 43.67632357824079 ], [ 4.336868709419854, 43.673137567897363 ], [ 4.338195923299653, 43.669896703583596 ], [ 4.339286821847431, 43.666609860152519 ], [ 4.340138414986098, 43.66328603983623 ], [ 4.34074836855805, 43.659934347645631 ], [ 4.341115010722948, 43.656563966472845 ], [ 4.341237336540102, 43.653184131963833 ] ] ] } },
{ "type": "Feature", "properties": { "name": "Le Cailar", "feature_type": "mrr", "metric_roundness": 18.59, "metric_rectangularity": 56.67, "metric_mobile_fit": 73.22, "metric_aspect_ratio": 0.295, "metric_area_km2": 57.64 }, "geometry": { "type": "Polygon", "coordinates": [ [ [ 4.260639560317211, 43.717451390125426 ], [ 4.270035737157482, 43.589472287380858 ], [ 4.223761205252359, 43.587691822826564 ], [ 4.214365028412089, 43.71567471574987 ], [ 4.260639560317211, 43.717451390125426 ] ] ] } }
]
}
