{
"type": "FeatureCollection",
"name": "le_frety",
"crs": { "type": "name", "properties": { "name": "urn:ogc:def:crs:OGC:1.3:CRS84" } },
"features": [
{ "type": "Feature", "properties": { "name": "Le Fréty", "metric_roundness": 33.98, "metric_rectangularity": 57.53, "metric_mobile_fit": -9.54, "metric_aspect_ratio": 1.658, "metric_area_km2": 16.56 }, "geometry": { "type": "Polygon", "coordinates": [ [ [ 4.293328, 49.739467499999989 ], [ 4.280229, 49.7470625 ], [ 4.2660814, 49.7389618 ], [ 4.2546189, 49.7466972 ], [ 4.2276225, 49.7310695 ], [ 4.2249605, 49.727643 ], [ 4.248065, 49.730304499999981 ], [ 4.2613583, 49.7204096 ], [ 4.2812335, 49.730185499999969 ], [ 4.293328, 49.739467499999989 ] ] ] } }
]
}
