{
"type": "FeatureCollection",
"name": "le_mazis",
"crs": { "type": "name", "properties": { "name": "urn:ogc:def:crs:OGC:1.3:CRS84" } },
"features": [
{ "type": "Feature", "properties": { "name": "Le Mazis", "feature_type": "entity", "metric_roundness": 45.03, "metric_rectangularity": 68.82, "metric_mobile_fit": 69.28, "metric_aspect_ratio": 0.87, "metric_area_km2": 9.59 }, "geometry": { "type": "Polygon", "coordinates": [ [ [ 1.7756599, 49.874998 ], [ 1.7864145, 49.878137499999987 ], [ 1.7631585, 49.885132499999976 ], [ 1.747686, 49.870126 ], [ 1.7544834, 49.857271899999972 ], [ 1.7581123, 49.8564305 ], [ 1.7632475, 49.8601355 ], [ 1.7756599, 49.874998 ] ] ] } },
{ "type": "Feature", "properties": { "name": "Le Mazis", "feature_type": "circle", "metric_roundness": 45.03, "metric_rectangularity": 68.82, "metric_mobile_fit": 69.28, "metric_aspect_ratio": 0.87, "metric_area_km2": 9.59 }, "geometry": { "type": "Polygon", "coordinates": [ [ [ 1.789909156031976, 49.87020958644699 ], [ 1.789877089284643, 49.869420312367033 ], [ 1.789780976935368, 49.868633188787584 ], [ 1.789621082421421, 49.867850373317985 ], [ 1.78939784400255, 49.867074011862961 ], [ 1.789111873559743, 49.866306232738005 ], [ 1.788763954918108, 49.865549140831881 ], [ 1.788355041698458, 49.864804811832158 ], [ 1.787886254703503, 49.864075286529918 ], [ 1.787358878845813, 49.863362565219091 ], [ 1.786774359625956, 49.862668602205915 ], [ 1.786134299170485, 49.86199530044378 ], [ 1.785440451840616, 49.861344506307958 ], [ 1.784694719423654, 49.860718004525033 ], [ 1.783899145920317, 49.860117513270644 ], [ 1.783055911942279, 49.859544679449471 ], [ 1.782167328735261, 49.859001074170138 ], [ 1.781235831844069, 49.858488188427863 ], [ 1.780263974436933, 49.85800742900674 ], [ 1.779254420307454, 49.857560114612767 ], [ 1.778209936573328, 49.85714747224872 ], [ 1.777133386091869, 49.856770633840661 ], [ 1.776027719613115, 49.856430633125512 ], [ 1.774895967692032, 49.856128402808366 ], [ 1.773741232381969, 49.855864771997375 ], [ 1.772566678732144, 49.855640463923372 ], [ 1.771375526112472, 49.855456093950579 ], [ 1.770171039389484, 49.855312167883881 ], [ 1.768956519977567, 49.855209080577445 ], [ 1.767735296790009, 49.855147114848428 ], [ 1.766510717114681, 49.855126440698967 ], [ 1.765286137439352, 49.855147114848428 ], [ 1.764064914251794, 49.855209080577445 ], [ 1.762850394839877, 49.855312167883881 ], [ 1.76164590811689, 49.855456093950579 ], [ 1.760454755497217, 49.855640463923372 ], [ 1.759280201847392, 49.855864771997375 ], [ 1.758125466537328, 49.856128402808366 ], [ 1.756993714616246, 49.856430633125512 ], [ 1.755888048137493, 49.856770633840661 ], [ 1.754811497656033, 49.85714747224872 ], [ 1.753767013921907, 49.857560114612767 ], [ 1.752757459792428, 49.85800742900674 ], [ 1.751785602385293, 49.858488188427863 ], [ 1.7508541054941, 49.859001074170138 ], [ 1.749965522287082, 49.859544679449471 ], [ 1.749122288309044, 49.860117513270644 ], [ 1.748326714805707, 49.860718004525033 ], [ 1.747580982388745, 49.861344506307958 ], [ 1.746887135058876, 49.86199530044378 ], [ 1.746247074603404, 49.862668602205915 ], [ 1.745662555383547, 49.863362565219091 ], [ 1.745135179525858, 49.864075286529918 ], [ 1.744666392530903, 49.864804811832158 ], [ 1.744257479311253, 49.865549140831881 ], [ 1.743909560669618, 49.866306232738005 ], [ 1.743623590226812, 49.867074011862961 ], [ 1.74340035180794, 49.867850373317985 ], [ 1.743240457293993, 49.868633188787584 ], [ 1.743144344944719, 49.869420312367033 ], [ 1.743112278197385, 49.87020958644699 ], [ 1.743144344944719, 49.87099884762916 ], [ 1.743240457293993, 49.871785932656557 ], [ 1.74340035180794, 49.872568684342212 ], [ 1.743623590226812, 49.873344957480249 ], [ 1.743909560669618, 49.87411262472277 ], [ 1.744257479311253, 49.874869582406859 ], [ 1.744666392530903, 49.87561375631546 ], [ 1.745135179525858, 49.876343107356739 ], [ 1.745662555383547, 49.877055637145993 ], [ 1.746247074603404, 49.877749393475341 ], [ 1.746887135058876, 49.878422475655853 ], [ 1.747580982388745, 49.879073039718051 ], [ 1.748326714805707, 49.879699303456078 ], [ 1.749122288309044, 49.880299551302365 ], [ 1.749965522287082, 49.880872139019061 ], [ 1.7508541054941, 49.881415498193938 ], [ 1.751785602385292, 49.881928140528089 ], [ 1.752757459792428, 49.882408661904321 ], [ 1.753767013921907, 49.882855746224671 ], [ 1.754811497656033, 49.883268169007117 ], [ 1.755888048137493, 49.883644800731339 ], [ 1.756993714616246, 49.883984609924923 ], [ 1.758125466537328, 49.884286665981115 ], [ 1.759280201847392, 49.884550141700998 ], [ 1.760454755497217, 49.884774315552946 ], [ 1.76164590811689, 49.884958573643331 ], [ 1.762850394839877, 49.885102411393021 ], [ 1.764064914251794, 49.885205434915534 ], [ 1.765286137439352, 49.885267362092499 ], [ 1.766510717114681, 49.885288023344174 ], [ 1.767735296790009, 49.885267362092499 ], [ 1.768956519977567, 49.885205434915534 ], [ 1.770171039389484, 49.885102411393021 ], [ 1.771375526112472, 49.884958573643331 ], [ 1.772566678732144, 49.884774315552946 ], [ 1.773741232381969, 49.884550141700998 ], [ 1.774895967692032, 49.884286665981115 ], [ 1.776027719613115, 49.883984609924923 ], [ 1.777133386091869, 49.883644800731339 ], [ 1.778209936573328, 49.883268169007117 ], [ 1.779254420307454, 49.882855746224671 ], [ 1.780263974436933, 49.882408661904321 ], [ 1.781235831844068, 49.881928140528089 ], [ 1.782167328735261, 49.881415498193938 ], [ 1.783055911942279, 49.880872139019061 ], [ 1.783899145920317, 49.880299551302365 ], [ 1.784694719423654, 49.879699303456078 ], [ 1.785440451840616, 49.879073039718051 ], [ 1.786134299170485, 49.878422475655853 ], [ 1.786774359625956, 49.877749393475341 ], [ 1.787358878845813, 49.877055637145993 ], [ 1.787886254703503, 49.876343107356739 ], [ 1.788355041698458, 49.87561375631546 ], [ 1.788763954918108, 49.874869582406859 ], [ 1.789111873559743, 49.87411262472277 ], [ 1.78939784400255, 49.873344957480249 ], [ 1.789621082421421, 49.872568684342212 ], [ 1.789780976935368, 49.871785932656557 ], [ 1.789877089284643, 49.87099884762916 ], [ 1.789909156031976, 49.87020958644699 ] ] ] } },
{ "type": "Feature", "properties": { "name": "Le Mazis", "feature_type": "mrr", "metric_roundness": 45.03, "metric_rectangularity": 68.82, "metric_mobile_fit": 69.28, "metric_aspect_ratio": 0.87, "metric_area_km2": 9.59 }, "geometry": { "type": "Polygon", "coordinates": [ [ [ 1.7864145, 49.878137499999987 ], [ 1.757492688966639, 49.855662660729003 ], [ 1.738381207931165, 49.865881753950418 ], [ 1.767303020785586, 49.888351838216224 ], [ 1.7864145, 49.878137499999987 ] ] ] } }
]
}
