{
"type": "FeatureCollection",
"name": "le_pre_saint_gervais",
"crs": { "type": "name", "properties": { "name": "urn:ogc:def:crs:OGC:1.3:CRS84" } },
"features": [
{ "type": "Feature", "properties": { "name": "Le Pré-Saint-Gervais", "metric_roundness": 38.72, "metric_rectangularity": 61.44, "metric_mobile_fit": 80.09, "metric_aspect_ratio": 0.762, "metric_area_km2": 1.59 }, "geometry": { "type": "Polygon", "coordinates": [ [ [ 2.4093496, 48.888315599999977 ], [ 2.3986445, 48.8894105 ], [ 2.3989115, 48.8856265 ], [ 2.400205, 48.883828 ], [ 2.404085, 48.881399499999979 ], [ 2.4094655, 48.8800935 ], [ 2.4106905, 48.878475 ], [ 2.41131, 48.8832375 ], [ 2.4093496, 48.888315599999977 ] ] ] } }
]
}
