{
"type": "FeatureCollection",
"name": "le_pont_de_claix",
"crs": { "type": "name", "properties": { "name": "urn:ogc:def:crs:OGC:1.3:CRS84" } },
"features": [
{ "type": "Feature", "properties": { "name": "Le Pont-de-Claix", "feature_type": "entity", "metric_roundness": 34.61, "metric_rectangularity": 62.79, "metric_mobile_fit": 90.15, "metric_aspect_ratio": 0.464, "metric_area_km2": 11.48 }, "geometry": { "type": "Polygon", "coordinates": [ [ [ 5.7030185, 45.103038 ], [ 5.7143914, 45.1170737 ], [ 5.7117494, 45.131062099999987 ], [ 5.7141425, 45.134861 ], [ 5.70312, 45.1405785 ], [ 5.688697, 45.142979499999988 ], [ 5.688125, 45.136064 ], [ 5.6895965, 45.1260705 ], [ 5.696644, 45.120419 ], [ 5.697711, 45.114715 ], [ 5.697256, 45.110136499999989 ], [ 5.6999015, 45.1058825 ], [ 5.7030185, 45.103038 ] ] ] } },
{ "type": "Feature", "properties": { "name": "Le Pont-de-Claix", "feature_type": "circle", "metric_roundness": 34.61, "metric_rectangularity": 62.79, "metric_mobile_fit": 90.15, "metric_aspect_ratio": 0.464, "metric_area_km2": 11.48 }, "geometry": { "type": "Polygon", "coordinates": [ [ [ 5.725053261998944, 45.123012245432676 ], [ 5.725013250564428, 45.121934115896963 ], [ 5.724893325929438, 45.120858921149065 ], [ 5.724693816799063, 45.119789608473219 ], [ 5.724415270013963, 45.118729109194987 ], [ 5.724058449051513, 45.117680330642237 ], [ 5.72362433193317, 45.116646148170055 ], [ 5.723114108543779, 45.115629397271604 ], [ 5.722529177370186, 45.114632865796764 ], [ 5.721871141668079, 45.113659286299757 ], [ 5.72114180506758, 45.112711328537017 ], [ 5.720343166629612, 45.111791592135972 ], [ 5.719477415366625, 45.11090259945496 ], [ 5.718546924242649, 45.110046788653989 ], [ 5.717554243669179, 45.109226506995547 ], [ 5.716502094514667, 45.108444004394052 ], [ 5.715393360646811, 45.107701427231611 ], [ 5.714231081028076, 45.107000812457507 ], [ 5.713018441386108, 45.106344081987508 ], [ 5.711758765481875, 45.105733037418787 ], [ 5.710455505999473, 45.105169355074885 ], [ 5.709112235082553, 45.104654581394712 ], [ 5.707732634543331, 45.104190128678255 ], [ 5.706320485770988, 45.10377727120084 ], [ 5.704879659367152, 45.103417141706807 ], [ 5.703414104536846, 45.103110728292435 ], [ 5.701927838263991, 45.102858871686507 ], [ 5.700424934301131, 45.102662262936406 ], [ 5.698909512003562, 45.102521441506148 ], [ 5.697385725038468, 45.102436793791341 ], [ 5.69585775, 45.102408552055614 ], [ 5.694329774961533, 45.102436793791341 ], [ 5.692805987996438, 45.102521441506148 ], [ 5.691290565698869, 45.102662262936406 ], [ 5.689787661736009, 45.102858871686507 ], [ 5.688301395463154, 45.103110728292435 ], [ 5.686835840632848, 45.103417141706807 ], [ 5.685395014229012, 45.10377727120084 ], [ 5.683982865456669, 45.104190128678255 ], [ 5.682603264917448, 45.104654581394712 ], [ 5.681259994000527, 45.105169355074885 ], [ 5.679956734518126, 45.105733037418787 ], [ 5.678697058613892, 45.106344081987508 ], [ 5.677484418971924, 45.107000812457507 ], [ 5.676322139353189, 45.107701427231611 ], [ 5.675213405485334, 45.108444004394052 ], [ 5.674161256330821, 45.109226506995547 ], [ 5.673168575757352, 45.110046788653989 ], [ 5.672238084633376, 45.11090259945496 ], [ 5.671372333370388, 45.111791592135972 ], [ 5.67057369493242, 45.112711328537017 ], [ 5.66984435833192, 45.113659286299757 ], [ 5.669186322629814, 45.114632865796764 ], [ 5.66860139145622, 45.115629397271604 ], [ 5.66809116806683, 45.116646148170055 ], [ 5.667657050948487, 45.117680330642237 ], [ 5.667300229986037, 45.118729109194987 ], [ 5.667021683200937, 45.119789608473219 ], [ 5.666822174070563, 45.120858921149065 ], [ 5.666702249435573, 45.121934115896963 ], [ 5.666662238001056, 45.123012245432676 ], [ 5.666702249435573, 45.124090354594408 ], [ 5.666822174070563, 45.125165488443578 ], [ 5.667021683200937, 45.126234700363192 ], [ 5.667300229986037, 45.127295060131566 ], [ 5.667657050948487, 45.128343661949344 ], [ 5.66809116806683, 45.129377632397791 ], [ 5.66860139145622, 45.13039413830672 ], [ 5.669186322629814, 45.131390394510397 ], [ 5.66984435833192, 45.132363671470529 ], [ 5.67057369493242, 45.133311302745348 ], [ 5.671372333370388, 45.134230692284497 ], [ 5.672238084633376, 45.135119321529913 ], [ 5.673168575757352, 45.135974756303497 ], [ 5.674161256330821, 45.136794653462566 ], [ 5.675213405485334, 45.137576767305369 ], [ 5.676322139353189, 45.138318955709117 ], [ 5.677484418971924, 45.139019185983855 ], [ 5.678697058613892, 45.139675540426474 ], [ 5.679956734518126, 45.14028622155962 ], [ 5.681259994000527, 45.140849557041633 ], [ 5.682603264917448, 45.141364004233893 ], [ 5.683982865456669, 45.141828154413496 ], [ 5.685395014229012, 45.142240736619769 ], [ 5.686835840632848, 45.142600621124281 ], [ 5.688301395463154, 45.142906822514931 ], [ 5.689787661736009, 45.143158502385909 ], [ 5.691290565698869, 45.143354971626167 ], [ 5.692805987996438, 45.143495692300192 ], [ 5.694329774961533, 45.143580279116293 ], [ 5.69585775, 45.143608500478031 ], [ 5.697385725038468, 45.143580279116293 ], [ 5.698909512003562, 45.143495692300192 ], [ 5.700424934301131, 45.143354971626167 ], [ 5.701927838263991, 45.143158502385909 ], [ 5.703414104536846, 45.142906822514931 ], [ 5.704879659367152, 45.142600621124281 ], [ 5.706320485770988, 45.142240736619769 ], [ 5.707732634543331, 45.141828154413496 ], [ 5.709112235082553, 45.141364004233893 ], [ 5.710455505999473, 45.140849557041633 ], [ 5.711758765481875, 45.14028622155962 ], [ 5.713018441386108, 45.139675540426474 ], [ 5.714231081028076, 45.139019185983855 ], [ 5.715393360646811, 45.138318955709117 ], [ 5.716502094514667, 45.137576767305369 ], [ 5.717554243669179, 45.136794653462566 ], [ 5.718546924242649, 45.135974756303497 ], [ 5.719477415366625, 45.135119321529913 ], [ 5.720343166629612, 45.134230692284497 ], [ 5.72114180506758, 45.133311302745348 ], [ 5.721871141668079, 45.132363671470529 ], [ 5.722529177370186, 45.131390394510397 ], [ 5.723114108543779, 45.13039413830672 ], [ 5.72362433193317, 45.129377632397791 ], [ 5.724058449051513, 45.128343661949344 ], [ 5.724415270013963, 45.127295060131566 ], [ 5.724693816799063, 45.126234700363192 ], [ 5.724893325929438, 45.125165488443578 ], [ 5.725013250564428, 45.124090354594408 ], [ 5.725053261998944, 45.123012245432676 ] ] ] } },
{ "type": "Feature", "properties": { "name": "Le Pont-de-Claix", "feature_type": "mrr", "metric_roundness": 34.61, "metric_rectangularity": 62.79, "metric_mobile_fit": 90.15, "metric_aspect_ratio": 0.464, "metric_area_km2": 11.48 }, "geometry": { "type": "Polygon", "coordinates": [ [ [ 5.714026402810716, 45.143155887072645 ], [ 5.714586621809082, 45.103118613961868 ], [ 5.688588492471665, 45.102937443368369 ], [ 5.688028273473296, 45.142974843578472 ], [ 5.714026402810716, 45.143155887072645 ] ] ] } }
]
}
