{
"type": "FeatureCollection",
"name": "le_pla",
"crs": { "type": "name", "properties": { "name": "urn:ogc:def:crs:OGC:1.3:CRS84" } },
"features": [
{ "type": "Feature", "properties": { "name": "Le Pla", "metric_roundness": 18.2, "metric_rectangularity": 61.03, "metric_mobile_fit": 83.69, "metric_aspect_ratio": 0.726, "metric_area_km2": 24.14 }, "geometry": { "type": "Polygon", "coordinates": [ [ [ 2.0281125, 42.652505 ], [ 2.0432695, 42.657497 ], [ 2.0443015, 42.6601575 ], [ 2.047022, 42.663587 ], [ 2.0770287, 42.701558299999988 ], [ 2.0889665, 42.7116575 ], [ 2.0875785, 42.722818 ], [ 2.079509, 42.7239655 ], [ 2.0741114, 42.7146909 ], [ 2.0456623, 42.6985774 ], [ 2.0413796, 42.6813274 ], [ 2.0350524, 42.6773479 ], [ 2.032719, 42.6676065 ], [ 2.0184215, 42.653653 ], [ 2.0281125, 42.652505 ] ] ] } }
]
}
