{
"type": "FeatureCollection",
"name": "le_planquay",
"crs": { "type": "name", "properties": { "name": "urn:ogc:def:crs:OGC:1.3:CRS84" } },
"features": [
{ "type": "Feature", "properties": { "name": "Le Planquay", "metric_roundness": 31.13, "metric_rectangularity": 58.76, "metric_mobile_fit": -54.44, "metric_aspect_ratio": 2.107, "metric_area_km2": 9.14 }, "geometry": { "type": "Polygon", "coordinates": [ [ [ 0.4257538, 49.086675299999989 ], [ 0.443926, 49.091492199999976 ], [ 0.4504685, 49.094102099999986 ], [ 0.4526735, 49.098407 ], [ 0.451158, 49.098698 ], [ 0.440817, 49.098481 ], [ 0.435986, 49.0995725 ], [ 0.434228, 49.0990055 ], [ 0.430052, 49.100916 ], [ 0.422556, 49.1015065 ], [ 0.417984, 49.102961 ], [ 0.415548, 49.0985155 ], [ 0.4101055, 49.097657499999983 ], [ 0.4120071, 49.0950005 ], [ 0.4022724, 49.091146599999988 ], [ 0.4002735, 49.087580599999988 ], [ 0.4164565, 49.087378 ], [ 0.4257538, 49.086675299999989 ] ] ] } }
]
}
