{
"type": "FeatureCollection",
"name": "leithaprodersdorf",
"crs": { "type": "name", "properties": { "name": "urn:ogc:def:crs:OGC:1.3:CRS84" } },
"features": [
{ "type": "Feature", "properties": { "name": "Leithaprodersdorf", "feature_type": "entity", "metric_roundness": 51.78, "metric_rectangularity": 58.83, "metric_mobile_fit": 29.16, "metric_aspect_ratio": 1.271, "metric_area_km2": 43.52 }, "geometry": { "type": "Polygon", "coordinates": [ [ [ 16.4875543, 47.9074519 ], [ 16.5134005, 47.8978335 ], [ 16.5152245, 47.895856 ], [ 16.519989, 47.8959905 ], [ 16.5065544, 47.9113844 ], [ 16.5167442, 47.917749099999973 ], [ 16.5303605, 47.916758 ], [ 16.536928, 47.918002 ], [ 16.54105, 47.9194295 ], [ 16.5179065, 47.943542499999985 ], [ 16.506181, 47.9400208 ], [ 16.4896124, 47.9418747 ], [ 16.4761711, 47.937720699999986 ], [ 16.4665062, 47.9387536 ], [ 16.4518515, 47.934127 ], [ 16.4539587, 47.9304568 ], [ 16.4506213, 47.920017099999988 ], [ 16.4656945, 47.9106995 ], [ 16.4875543, 47.9074519 ] ] ] } },
{ "type": "Feature", "properties": { "name": "Leithaprodersdorf", "feature_type": "circle", "metric_roundness": 51.78, "metric_rectangularity": 58.83, "metric_mobile_fit": 29.16, "metric_aspect_ratio": 1.271, "metric_area_km2": 43.52 }, "geometry": { "type": "Polygon", "coordinates": [ [ [ 16.541227675246468, 47.922150328349858 ], [ 16.541163982382958, 47.92052030015639 ], [ 16.540973078370126, 47.918894688606983 ], [ 16.540655486462612, 47.917277950020214 ], [ 16.540212077157758, 47.915674516807222 ], [ 16.539644065809643, 47.914088785311336 ], [ 16.538953009297892, 47.912525103742219 ], [ 16.53814080176037, 47.91098776023766 ], [ 16.537209669401481, 47.909480971086026 ], [ 16.536162164390298, 47.908008869141952 ], [ 16.535001157865246, 47.906575492467198 ], [ 16.533729832064509, 47.905184773228356 ], [ 16.532351671603738, 47.903840526881922 ], [ 16.530870453924962, 47.902546441677089 ], [ 16.529290238942878, 47.901306068505335 ], [ 16.527615357916918, 47.900122811124895 ], [ 16.52585040157955, 47.898999916787766 ], [ 16.524000207553414, 47.897940467295058 ], [ 16.522069847091732, 47.896947370505906 ], [ 16.520064611178352, 47.896023352323581 ], [ 16.517989996025527, 47.895170949181335 ], [ 16.515851688009192, 47.894392501048934 ], [ 16.513655548082983, 47.893690144979665 ], [ 16.511407595713791, 47.893065809215713 ], [ 16.509113992382801, 47.892521207868711 ], [ 16.506781024697315, 47.892057836190176 ], [ 16.504415087159604, 47.891676966445395 ], [ 16.502022664639998, 47.891379644402129 ], [ 16.499610314602336, 47.891166686444194 ], [ 16.497184649130379, 47.891038677317994 ], [ 16.49475231680459, 47.890995968518304 ], [ 16.492319984478801, 47.891038677317994 ], [ 16.489894319006847, 47.891166686444194 ], [ 16.487481968969181, 47.891379644402129 ], [ 16.485089546449576, 47.891676966445395 ], [ 16.482723608911865, 47.892057836190176 ], [ 16.480390641226382, 47.892521207868711 ], [ 16.478097037895392, 47.893065809215713 ], [ 16.475849085526196, 47.893690144979665 ], [ 16.473652945599987, 47.894392501048934 ], [ 16.471514637583653, 47.895170949181335 ], [ 16.469440022430827, 47.896023352323581 ], [ 16.467434786517448, 47.896947370505906 ], [ 16.465504426055769, 47.897940467295058 ], [ 16.463654232029629, 47.898999916787766 ], [ 16.461889275692261, 47.900122811124895 ], [ 16.460214394666302, 47.901306068505335 ], [ 16.458634179684218, 47.902546441677089 ], [ 16.457152962005441, 47.903840526881922 ], [ 16.455774801544674, 47.905184773228356 ], [ 16.454503475743934, 47.906575492467198 ], [ 16.453342469218882, 47.908008869141952 ], [ 16.452294964207702, 47.909480971086026 ], [ 16.451363831848813, 47.91098776023766 ], [ 16.450551624311288, 47.912525103742219 ], [ 16.44986056779954, 47.914088785311336 ], [ 16.449292556451422, 47.915674516807222 ], [ 16.448849147146571, 47.917277950020214 ], [ 16.448531555239054, 47.918894688606983 ], [ 16.448340651226225, 47.92052030015639 ], [ 16.448276958362715, 47.922150328349858 ], [ 16.448340651226225, 47.923780305182746 ], [ 16.448531555239054, 47.925405763213107 ], [ 16.448849147146571, 47.927022247804373 ], [ 16.449292556451422, 47.928625329328227 ], [ 16.44986056779954, 47.93021061529452 ], [ 16.450551624311288, 47.931773762374895 ], [ 16.451363831848813, 47.933310488287546 ], [ 16.452294964207702, 47.934816583510575 ], [ 16.453342469218882, 47.936287922792161 ], [ 16.454503475743934, 47.937720476426449 ], [ 16.455774801544674, 47.939110321264266 ], [ 16.457152962005441, 47.940453651429216 ], [ 16.458634179684218, 47.94174678870997 ], [ 16.460214394666302, 47.942986192600735 ], [ 16.461889275692261, 47.944168469962911 ], [ 16.463654232029629, 47.94529038428179 ], [ 16.465504426055769, 47.946348864493537 ], [ 16.467434786517448, 47.94734101335866 ], [ 16.469440022430827, 47.948264115359557 ], [ 16.471514637583653, 47.94911564410085 ], [ 16.473652945599987, 47.94989326919287 ], [ 16.475849085526196, 47.950594862599743 ], [ 16.478097037895392, 47.951218504435182 ], [ 16.480390641226382, 47.951762488190369 ], [ 16.482723608911865, 47.952225325380248 ], [ 16.485089546449576, 47.952605749595506 ], [ 16.487481968969181, 47.952902719949698 ], [ 16.489894319006847, 47.953115423912166 ], [ 16.492319984478801, 47.953243279519349 ], [ 16.49475231680459, 47.953285936958466 ], [ 16.497184649130379, 47.953243279519349 ], [ 16.499610314602336, 47.953115423912166 ], [ 16.502022664639998, 47.952902719949698 ], [ 16.504415087159604, 47.952605749595506 ], [ 16.506781024697315, 47.952225325380248 ], [ 16.509113992382801, 47.951762488190369 ], [ 16.511407595713791, 47.951218504435182 ], [ 16.513655548082983, 47.950594862599743 ], [ 16.515851688009192, 47.94989326919287 ], [ 16.517989996025527, 47.94911564410085 ], [ 16.520064611178352, 47.948264115359557 ], [ 16.522069847091732, 47.94734101335866 ], [ 16.524000207553414, 47.946348864493537 ], [ 16.52585040157955, 47.94529038428179 ], [ 16.527615357916918, 47.944168469962911 ], [ 16.529290238942878, 47.942986192600735 ], [ 16.530870453924962, 47.94174678870997 ], [ 16.532351671603738, 47.940453651429216 ], [ 16.533729832064509, 47.939110321264266 ], [ 16.535001157865246, 47.937720476426449 ], [ 16.536162164390298, 47.936287922792161 ], [ 16.537209669401481, 47.934816583510575 ], [ 16.53814080176037, 47.933310488287546 ], [ 16.538953009297892, 47.931773762374895 ], [ 16.539644065809643, 47.93021061529452 ], [ 16.540212077157758, 47.928625329328227 ], [ 16.540655486462612, 47.927022247804373 ], [ 16.540973078370126, 47.925405763213107 ], [ 16.541163982382958, 47.923780305182746 ], [ 16.541227675246468, 47.922150328349858 ] ] ] } },
{ "type": "Feature", "properties": { "name": "Leithaprodersdorf", "feature_type": "mrr", "metric_roundness": 51.78, "metric_rectangularity": 58.83, "metric_mobile_fit": 29.16, "metric_aspect_ratio": 1.271, "metric_area_km2": 43.52 }, "geometry": { "type": "Polygon", "coordinates": [ [ [ 16.523645986739162, 47.8933317622039 ], [ 16.441132003961897, 47.918058979634743 ], [ 16.468089914895298, 47.958458113274993 ], [ 16.550603897672559, 47.933750206278816 ], [ 16.523645986739162, 47.8933317622039 ] ] ] } }
]
}
