{
"type": "FeatureCollection",
"name": "les_salles_de_castillon",
"crs": { "type": "name", "properties": { "name": "urn:ogc:def:crs:OGC:1.3:CRS84" } },
"features": [
{ "type": "Feature", "properties": { "name": "Les Salles-de-Castillon", "metric_roundness": 58.76, "metric_rectangularity": 74.04, "metric_mobile_fit": 41.21, "metric_aspect_ratio": 1.15, "metric_area_km2": 21.53 }, "geometry": { "type": "Polygon", "coordinates": [ [ [ 0.017189, 44.894783 ], [ 0.0335533, 44.915229 ], [ 0.0220635, 44.9253095 ], [ 0.0182145, 44.9280275 ], [ 0.015277, 44.9285955 ], [ 0.012787, 44.927554 ], [ 0.0065745, 44.927702 ], [ 0.0048185, 44.92726 ], [ 0.0023655, 44.928377499999989 ], [ -0.002412, 44.9275215 ], [ -0.009927, 44.9281805 ], [ -0.016303, 44.926201 ], [ -0.01899, 44.9268275 ], [ -0.022145, 44.926535 ], [ -0.0217622, 44.914511399999988 ], [ -0.014992, 44.909212 ], [ 0.0159425, 44.894307 ], [ 0.017189, 44.894783 ] ] ] } }
]
}
