{
"type": "FeatureCollection",
"name": "les_chavannes_en_maurienne",
"crs": { "type": "name", "properties": { "name": "urn:ogc:def:crs:OGC:1.3:CRS84" } },
"features": [
{ "type": "Feature", "properties": { "name": "Les Chavannes-en-Maurienne", "feature_type": "entity", "metric_roundness": 47.08, "metric_rectangularity": 70.32, "metric_mobile_fit": 96.45, "metric_aspect_ratio": 0.598, "metric_area_km2": 9.4 }, "geometry": { "type": "Polygon", "coordinates": [ [ [ 6.3002145, 45.3766995 ], [ 6.2976545, 45.3833465 ], [ 6.298849, 45.3995825 ], [ 6.2844, 45.4027649 ], [ 6.27471, 45.399942 ], [ 6.2743645, 45.395991 ], [ 6.2749665, 45.391871 ], [ 6.2748825, 45.387101 ], [ 6.2783455, 45.381888499999988 ], [ 6.2842827, 45.383192799999982 ], [ 6.290281, 45.3748997 ], [ 6.2968395, 45.372406499999983 ], [ 6.3002145, 45.3766995 ] ] ] } },
{ "type": "Feature", "properties": { "name": "Les Chavannes-en-Maurienne", "feature_type": "circle", "metric_roundness": 47.08, "metric_rectangularity": 70.32, "metric_mobile_fit": 96.45, "metric_aspect_ratio": 0.598, "metric_area_km2": 9.4 }, "geometry": { "type": "Polygon", "coordinates": [ [ [ 6.310656064770771, 45.387058496015371 ], [ 6.310625016958075, 45.386225778717836 ], [ 6.310531958619882, 45.385395331624046 ], [ 6.310377144822631, 45.384569431082348 ], [ 6.310160999900178, 45.383750341077921 ], [ 6.309884116290732, 45.382940307024541 ], [ 6.309547252913021, 45.382141549606345 ], [ 6.309151333086145, 45.381356258686246 ], [ 6.308697441998833, 45.380586587297984 ], [ 6.308186823735004, 45.379834645738107 ], [ 6.307620877863828, 45.379102495774369 ], [ 6.307001155603597, 45.378392144986414 ], [ 6.306329355569951, 45.377705541254194 ], [ 6.305607319120088, 45.377044567409648 ], [ 6.304837025305726, 45.376411036066116 ], [ 6.30402058544867, 45.375806684639912 ], [ 6.303160237353817, 45.375233170577744 ], [ 6.302258339175492, 45.374692066803235 ], [ 6.301317362953914, 45.374184857395178 ], [ 6.300339887839498, 45.373712933509267 ], [ 6.299328593023589, 45.373277589554895 ], [ 6.298286250394985, 45.372880019637456 ], [ 6.297215716942377, 45.372521314275872 ], [ 6.296119926923547, 45.372202457404875 ], [ 6.295001883822771, 45.371924323669752 ], [ 6.293864652118471, 45.371687676021651 ], [ 6.292711348883702, 45.371493163619675 ], [ 6.291545135242465, 45.371341320045921 ], [ 6.29036920770529, 45.371232561838077 ], [ 6.289186789407816, 45.371167187344028 ], [ 6.288001121276409, 45.371145375901335 ], [ 6.286815453145, 45.371167187344028 ], [ 6.285633034847528, 45.371232561838077 ], [ 6.284457107310351, 45.371341320045921 ], [ 6.283290893669115, 45.371493163619675 ], [ 6.282137590434345, 45.371687676021651 ], [ 6.281000358730047, 45.371924323669752 ], [ 6.279882315629269, 45.372202457404875 ], [ 6.27878652561044, 45.372521314275872 ], [ 6.277715992157832, 45.372880019637456 ], [ 6.276673649529227, 45.373277589554895 ], [ 6.27566235471332, 45.373712933509267 ], [ 6.274684879598903, 45.374184857395178 ], [ 6.273743903377325, 45.374692066803235 ], [ 6.272842005199, 45.375233170577744 ], [ 6.271981657104146, 45.375806684639912 ], [ 6.27116521724709, 45.376411036066116 ], [ 6.270394923432729, 45.377044567409648 ], [ 6.269672886982865, 45.377705541254194 ], [ 6.26900108694922, 45.378392144986414 ], [ 6.26838136468899, 45.379102495774369 ], [ 6.267815418817813, 45.379834645738107 ], [ 6.267304800553984, 45.380586587297984 ], [ 6.266850909466672, 45.381356258686246 ], [ 6.266454989639796, 45.382141549606345 ], [ 6.266118126262085, 45.382940307024541 ], [ 6.265841242652638, 45.383750341077921 ], [ 6.265625097730186, 45.384569431082348 ], [ 6.265470283932935, 45.385395331624046 ], [ 6.265377225594742, 45.386225778717836 ], [ 6.265346177782046, 45.387058496015371 ], [ 6.265377225594742, 45.387891201046024 ], [ 6.265470283932935, 45.388721611473592 ], [ 6.265625097730186, 45.389547451351412 ], [ 6.265841242652638, 45.390366457358994 ], [ 6.266118126262085, 45.391176385002815 ], [ 6.266454989639796, 45.391975014764597 ], [ 6.266850909466672, 45.392760158180067 ], [ 6.267304800553984, 45.393529663831565 ], [ 6.267815418817813, 45.39428142323839 ], [ 6.26838136468899, 45.395013376628491 ], [ 6.26900108694922, 45.395723518575949 ], [ 6.269672886982865, 45.39640990348888 ], [ 6.270394923432729, 45.397070650932783 ], [ 6.27116521724709, 45.397703950774826 ], [ 6.271981657104146, 45.398308068135087 ], [ 6.272842005199, 45.398881348131297 ], [ 6.273743903377325, 45.399422220404318 ], [ 6.274684879598903, 45.399929203411745 ], [ 6.27566235471332, 45.400400908478389 ], [ 6.276673649529227, 45.400836043592243 ], [ 6.277715992157832, 45.401233416936073 ], [ 6.27878652561044, 45.401591940144598 ], [ 6.279882315629269, 45.401910631278838 ], [ 6.281000358730047, 45.402188617509331 ], [ 6.282137590434345, 45.402425137501034 ], [ 6.283290893669115, 45.402619543493451 ], [ 6.284457107310351, 45.402771303070359 ], [ 6.285633034847526, 45.402880000614338 ], [ 6.286815453145, 45.402945338442152 ], [ 6.288001121276409, 45.402967137617971 ], [ 6.289186789407816, 45.402945338442152 ], [ 6.29036920770529, 45.402880000614338 ], [ 6.291545135242465, 45.402771303070359 ], [ 6.292711348883702, 45.402619543493451 ], [ 6.293864652118471, 45.402425137501034 ], [ 6.295001883822771, 45.402188617509331 ], [ 6.296119926923547, 45.401910631278838 ], [ 6.297215716942377, 45.401591940144598 ], [ 6.298286250394985, 45.401233416936073 ], [ 6.299328593023589, 45.400836043592243 ], [ 6.300339887839498, 45.400400908478389 ], [ 6.301317362953914, 45.399929203411745 ], [ 6.302258339175492, 45.399422220404318 ], [ 6.303160237353817, 45.398881348131297 ], [ 6.30402058544867, 45.398308068135087 ], [ 6.304837025305726, 45.397703950774826 ], [ 6.305607319120088, 45.397070650932783 ], [ 6.306329355569951, 45.39640990348888 ], [ 6.307001155603597, 45.395723518575949 ], [ 6.307620877863828, 45.395013376628491 ], [ 6.308186823735004, 45.39428142323839 ], [ 6.308697441998833, 45.393529663831565 ], [ 6.309151333086145, 45.392760158180067 ], [ 6.309547252913021, 45.391975014764597 ], [ 6.309884116290732, 45.391176385002815 ], [ 6.310160999900178, 45.390366457358994 ], [ 6.310377144822631, 45.389547451351412 ], [ 6.310531958619882, 45.388721611473592 ], [ 6.310625016958075, 45.387891201046024 ], [ 6.310656064770771, 45.387058496015371 ] ] ] } },
{ "type": "Feature", "properties": { "name": "Les Chavannes-en-Maurienne", "feature_type": "mrr", "metric_roundness": 47.08, "metric_rectangularity": 70.32, "metric_mobile_fit": 96.45, "metric_aspect_ratio": 0.598, "metric_area_km2": 9.4 }, "geometry": { "type": "Polygon", "coordinates": [ [ [ 6.298634052092919, 45.403183732401594 ], [ 6.300464248083054, 45.372513215456806 ], [ 6.275796194474167, 45.371786971894217 ], [ 6.273965998484032, 45.402457882788099 ], [ 6.298634052092919, 45.403183732401594 ] ] ] } }
]
}
