{
"type": "FeatureCollection",
"name": "les_vigneaux",
"crs": { "type": "name", "properties": { "name": "urn:ogc:def:crs:OGC:1.3:CRS84" } },
"features": [
{ "type": "Feature", "properties": { "name": "Les Vigneaux", "metric_roundness": 44.09, "metric_rectangularity": 55.85, "metric_mobile_fit": 64.23, "metric_aspect_ratio": 0.92, "metric_area_km2": 32.46 }, "geometry": { "type": "Polygon", "coordinates": [ [ [ 6.524578, 44.834949 ], [ 6.514829, 44.8271405 ], [ 6.5139005, 44.825554 ], [ 6.5169662, 44.820005099999989 ], [ 6.5099812, 44.810707 ], [ 6.49573, 44.804183 ], [ 6.5325936, 44.801872 ], [ 6.5565, 44.8059004 ], [ 6.5598379, 44.7978227 ], [ 6.5662545, 44.809733 ], [ 6.561658, 44.8242076 ], [ 6.5518812, 44.8344332 ], [ 6.5496544, 44.8454214 ], [ 6.5350505, 44.852178 ], [ 6.524578, 44.834949 ] ] ] } }
]
}
