{
"type": "FeatureCollection",
"name": "les_bons_villers",
"crs": { "type": "name", "properties": { "name": "urn:ogc:def:crs:OGC:1.3:CRS84" } },
"features": [
{ "type": "Feature", "properties": { "name": "Les Bons Villers", "feature_type": "entity", "metric_roundness": 36.9, "metric_rectangularity": 53.98, "metric_mobile_fit": 58.95, "metric_aspect_ratio": 0.973, "metric_area_km2": 106.52 }, "geometry": { "type": "Polygon", "coordinates": [ [ [ 4.4800336, 50.4835741 ], [ 4.4852503, 50.493045199999983 ], [ 4.5026292, 50.4921243 ], [ 4.5106773, 50.498237599999989 ], [ 4.4972333, 50.514169 ], [ 4.4902985, 50.518056699999981 ], [ 4.5026095, 50.528244 ], [ 4.5021025, 50.5390395 ], [ 4.4846365, 50.5342026 ], [ 4.475134, 50.5359256 ], [ 4.4665095, 50.529421899999988 ], [ 4.4644896, 50.5329495 ], [ 4.4670756, 50.5377464 ], [ 4.4663368, 50.5456985 ], [ 4.4771267, 50.551839899999983 ], [ 4.469606, 50.55888 ], [ 4.4504689, 50.554997899999989 ], [ 4.4424073, 50.5597947 ], [ 4.4224196, 50.558998799999976 ], [ 4.4150591, 50.564532899999982 ], [ 4.3824775, 50.563991499999979 ], [ 4.3766645, 50.559215499999986 ], [ 4.374972, 50.555579 ], [ 4.386339, 50.543760499999983 ], [ 4.3870228, 50.5402159 ], [ 4.3838865, 50.53711569999998 ], [ 4.3899228, 50.5288093 ], [ 4.4018736, 50.5240175 ], [ 4.4087775, 50.5316208 ], [ 4.4171455, 50.531310499999982 ], [ 4.4255886, 50.5239857 ], [ 4.4512236, 50.5114958 ], [ 4.4515303, 50.5066617 ], [ 4.4451588, 50.502014 ], [ 4.4560655, 50.491779 ], [ 4.459343, 50.489988699999977 ], [ 4.4565013, 50.4862539 ], [ 4.4594861, 50.481322 ], [ 4.484757, 50.475860499999975 ], [ 4.4800336, 50.4835741 ] ] ] } },
{ "type": "Feature", "properties": { "name": "Les Bons Villers", "feature_type": "circle", "metric_roundness": 36.9, "metric_rectangularity": 53.98, "metric_mobile_fit": 58.95, "metric_aspect_ratio": 0.973, "metric_area_km2": 106.52 }, "geometry": { "type": "Polygon", "coordinates": [ [ [ 4.519748622511674, 50.519946570661403 ], [ 4.519630582459106, 50.51708040184311 ], [ 4.519276785840981, 50.51422191566224 ], [ 4.518688202389237, 50.511378949164296 ], [ 4.517866445370204, 50.508559298255186 ], [ 4.51681376716275, 50.505770696294476 ], [ 4.515533053084673, 50.503020792845241 ], [ 4.514027813484238, 50.500317132639246 ], [ 4.512302174118563, 50.497667134815934 ], [ 4.5103608648452, 50.495078072492923 ], [ 4.508209206657931, 50.492557052725097 ], [ 4.505853097102285, 50.490110996908378 ], [ 4.503298994110784, 50.487746621683122 ], [ 4.500553898302194, 50.485470420390975 ], [ 4.497625333793316, 50.483288645137293 ], [ 4.494521327575909, 50.481207289509989 ], [ 4.491250387515257, 50.479232072003619 ], [ 4.487821479030706, 50.477368420195909 ], [ 4.484244000522071, 50.475621455721601 ], [ 4.480527757609278, 50.473995980086585 ], [ 4.476682936255837, 50.472496461362553 ], [ 4.472720074849827, 50.471127021800612 ], [ 4.468650035318909, 50.469891426398995 ], [ 4.464483973358531, 50.468793072457906 ], [ 4.460233307854947, 50.467834980151345 ], [ 4.45590968958684, 50.467019784143119 ], [ 4.451524969291356, 50.466349726271162 ], [ 4.447091165182044, 50.465826649321201 ], [ 4.442620430007779, 50.465451991907862 ], [ 4.438125017742915, 50.465226784477856 ], [ 4.43361725, 50.465151646446756 ], [ 4.429109482257084, 50.465226784477856 ], [ 4.42461406999222, 50.465451991907862 ], [ 4.420143334817954, 50.465826649321201 ], [ 4.415709530708643, 50.466349726271162 ], [ 4.411324810413158, 50.467019784143119 ], [ 4.407001192145053, 50.467834980151345 ], [ 4.402750526641468, 50.468793072457906 ], [ 4.398584464681089, 50.469891426398995 ], [ 4.39451442515017, 50.471127021800612 ], [ 4.390551563744162, 50.472496461362553 ], [ 4.386706742390721, 50.473995980086585 ], [ 4.382990499477927, 50.475621455721601 ], [ 4.379413020969293, 50.477368420195909 ], [ 4.375984112484741, 50.479232072003619 ], [ 4.372713172424089, 50.481207289509989 ], [ 4.369609166206683, 50.483288645137293 ], [ 4.366680601697805, 50.485470420390975 ], [ 4.363935505889215, 50.487746621683122 ], [ 4.361381402897714, 50.490110996908378 ], [ 4.359025293342068, 50.492557052725097 ], [ 4.356873635154798, 50.495078072492923 ], [ 4.354932325881435, 50.497667134815934 ], [ 4.353206686515761, 50.500317132639246 ], [ 4.351701446915325, 50.503020792845241 ], [ 4.350420732837248, 50.505770696294476 ], [ 4.349368054629795, 50.508559298255186 ], [ 4.348546297610762, 50.511378949164296 ], [ 4.347957714159017, 50.51422191566224 ], [ 4.347603917540892, 50.51708040184311 ], [ 4.347485877488324, 50.519946570661403 ], [ 4.347603917540892, 50.522812565436055 ], [ 4.347957714159017, 50.525670531392905 ], [ 4.348546297610762, 50.528512637186132 ], [ 4.349368054629795, 50.531331096339876 ], [ 4.350420732837248, 50.534118188551716 ], [ 4.351701446915325, 50.536866280799714 ], [ 4.353206686515761, 50.539567848196022 ], [ 4.354932325881435, 50.542215494530453 ], [ 4.356873635154798, 50.544801972448816 ], [ 4.359025293342068, 50.547320203211541 ], [ 4.361381402897714, 50.549763295979623 ], [ 4.363935505889215, 50.552124566576495 ], [ 4.366680601697805, 50.554397555675486 ], [ 4.369609166206683, 50.556576046364697 ], [ 4.372713172424089, 50.558654081042619 ], [ 4.375984112484741, 50.560625977599699 ], [ 4.379413020969293, 50.562486344843229 ], [ 4.382990499477927, 50.564230097124813 ], [ 4.386706742390721, 50.56585246813205 ], [ 4.390551563744162, 50.567349023808156 ], [ 4.39451442515017, 50.568715674365805 ], [ 4.398584464681089, 50.569948685363656 ], [ 4.402750526641468, 50.571044687816759 ], [ 4.407001192145052, 50.5720006873145 ], [ 4.411324810413157, 50.572814072122291 ], [ 4.415709530708643, 50.573482620246104 ], [ 4.420143334817954, 50.574004505441309 ], [ 4.42461406999222, 50.574378302150357 ], [ 4.429109482257084, 50.57460298935662 ], [ 4.43361725, 50.574677953344192 ], [ 4.438125017742915, 50.57460298935662 ], [ 4.442620430007779, 50.574378302150357 ], [ 4.447091165182044, 50.574004505441309 ], [ 4.451524969291356, 50.573482620246104 ], [ 4.45590968958684, 50.572814072122291 ], [ 4.460233307854946, 50.5720006873145 ], [ 4.464483973358531, 50.571044687816759 ], [ 4.468650035318909, 50.569948685363656 ], [ 4.472720074849827, 50.568715674365805 ], [ 4.476682936255837, 50.567349023808156 ], [ 4.480527757609278, 50.56585246813205 ], [ 4.484244000522071, 50.564230097124813 ], [ 4.487821479030706, 50.562486344843229 ], [ 4.491250387515257, 50.560625977599699 ], [ 4.494521327575909, 50.558654081042619 ], [ 4.497625333793316, 50.556576046364697 ], [ 4.500553898302194, 50.554397555675486 ], [ 4.503298994110784, 50.552124566576495 ], [ 4.505853097102285, 50.549763295979623 ], [ 4.508209206657931, 50.547320203211541 ], [ 4.5103608648452, 50.544801972448816 ], [ 4.512302174118563, 50.542215494530453 ], [ 4.514027813484238, 50.539567848196022 ], [ 4.515533053084673, 50.536866280799714 ], [ 4.51681376716275, 50.534118188551716 ], [ 4.517866445370204, 50.531331096339876 ], [ 4.518688202389237, 50.528512637186132 ], [ 4.519276785840981, 50.525670531392905 ], [ 4.519630582459106, 50.522812565436055 ], [ 4.519748622511674, 50.519946570661403 ] ] ] } },
{ "type": "Feature", "properties": { "name": "Les Bons Villers", "feature_type": "mrr", "metric_roundness": 36.9, "metric_rectangularity": 53.98, "metric_mobile_fit": 58.95, "metric_aspect_ratio": 0.973, "metric_area_km2": 106.52 }, "geometry": { "type": "Polygon", "coordinates": [ [ [ 4.475509322198752, 50.470377011606246 ], [ 4.358849562589732, 50.55000599002846 ], [ 4.426929364937284, 50.590291562191396 ], [ 4.543589124546304, 50.510730604830492 ], [ 4.475509322198752, 50.470377011606246 ] ] ] } }
]
}
