{
"type": "FeatureCollection",
"name": "les_enfers",
"crs": { "type": "name", "properties": { "name": "urn:ogc:def:crs:OGC:1.3:CRS84" } },
"features": [
{ "type": "Feature", "properties": { "name": "Les Enfers", "feature_type": "entity", "metric_roundness": 24.76, "metric_rectangularity": 62.91, "metric_mobile_fit": -158.7, "metric_aspect_ratio": 3.149, "metric_area_km2": 15.51 }, "geometry": { "type": "Polygon", "coordinates": [ [ [ 7.03982, 47.282506499999982 ], [ 7.0454913, 47.282459 ], [ 7.07072, 47.2944105 ], [ 7.074748, 47.295089 ], [ 7.0728016, 47.297986099999974 ], [ 7.064652, 47.298168499999981 ], [ 7.0482394, 47.298773 ], [ 7.0274958, 47.2937153 ], [ 7.0094175, 47.29901 ], [ 7.0040359, 47.2994427 ], [ 6.995336, 47.2949564 ], [ 6.9947189, 47.2911463 ], [ 7.002789, 47.284239899999989 ], [ 7.0213317, 47.288691799999981 ], [ 7.0264985, 47.282207499999984 ], [ 7.03982, 47.282506499999982 ] ] ] } },
{ "type": "Feature", "properties": { "name": "Les Enfers", "feature_type": "circle", "metric_roundness": 24.76, "metric_rectangularity": 62.91, "metric_mobile_fit": -158.7, "metric_aspect_ratio": 3.149, "metric_area_km2": 15.51 }, "geometry": { "type": "Polygon", "coordinates": [ [ [ 7.074853421903747, 47.293117686743024 ], [ 7.074798438876606, 47.291693538769302 ], [ 7.074633640499836, 47.290273256092611 ], [ 7.074359478474336, 47.288860732079762 ], [ 7.073976704259158, 47.287459839139807 ], [ 7.073486367011821, 47.286074418101478 ], [ 7.072889810712638, 47.284708267673942 ], [ 7.072188670480956, 47.283365134019846 ], [ 7.071384868093417, 47.282048700469339 ], [ 7.070480606716493, 47.280762577403628 ], [ 7.069478364867764, 47.279510292335829 ], [ 7.06838088962247, 47.278295280216653 ], [ 7.067191189083977, 47.277120873991834 ], [ 7.065912524138764, 47.27599029543731 ], [ 7.064548399518569, 47.274906646297829 ], [ 7.063102554194154, 47.273872899753393 ], [ 7.061578951127055, 47.272891892237404 ], [ 7.059981766407375, 47.271966315629292 ], [ 7.058315377807411, 47.271098709843265 ], [ 7.056584352782487, 47.270291455834091 ], [ 7.054793435951874, 47.269546769039124 ], [ 7.052947536094119, 47.268866693275193 ], [ 7.051051712692425, 47.268253095107262 ], [ 7.049111162066961, 47.267707658704623 ], [ 7.047131203132104, 47.267231881199073 ], [ 7.045117262817668, 47.266827068558094 ], [ 7.043074861194069, 47.266494331984482 ], [ 7.041009596342191, 47.266234584852661 ], [ 7.038927129009441, 47.266048540190233 ], [ 7.036833167094023, 47.265936708711813 ], [ 7.03473345, 47.265899397410593 ], [ 7.032633732905977, 47.265936708711813 ], [ 7.030539770990559, 47.266048540190233 ], [ 7.028457303657809, 47.266234584852661 ], [ 7.026392038805931, 47.266494331984482 ], [ 7.024349637182332, 47.266827068558094 ], [ 7.022335696867897, 47.267231881199073 ], [ 7.020355737933039, 47.267707658704623 ], [ 7.018415187307575, 47.268253095107262 ], [ 7.016519363905881, 47.268866693275193 ], [ 7.014673464048127, 47.269546769039124 ], [ 7.012882547217513, 47.270291455834091 ], [ 7.01115152219259, 47.271098709843265 ], [ 7.009485133592626, 47.271966315629292 ], [ 7.007887948872946, 47.272891892237404 ], [ 7.006364345805847, 47.273872899753393 ], [ 7.004918500481431, 47.274906646297829 ], [ 7.003554375861237, 47.27599029543731 ], [ 7.002275710916024, 47.277120873991834 ], [ 7.001086010377531, 47.278295280216653 ], [ 6.999988535132237, 47.279510292335829 ], [ 6.998986293283507, 47.280762577403628 ], [ 6.998082031906582, 47.282048700469339 ], [ 6.997278229519044, 47.283365134019846 ], [ 6.996577089287363, 47.284708267673942 ], [ 6.995980532988179, 47.286074418101478 ], [ 6.995490195740843, 47.287459839139807 ], [ 6.995107421525664, 47.288860732079762 ], [ 6.994833259500163, 47.290273256092611 ], [ 6.994668461123395, 47.291693538769302 ], [ 6.994613478096253, 47.293117686743024 ], [ 6.994668461123395, 47.294541796365799 ], [ 6.994833259500163, 47.29596196440982 ], [ 6.995107421525664, 47.297374298764218 ], [ 6.995490195740843, 47.29877492909786 ], [ 6.995980532988179, 47.300160017459213 ], [ 6.996577089287363, 47.301525768783975 ], [ 6.997278229519044, 47.302868441282165 ], [ 6.998082031906582, 47.304184356676139 ], [ 6.998986293283507, 47.305469910261721 ], [ 6.999988535132237, 47.306721580765156 ], [ 7.001086010377531, 47.307935939969028 ], [ 7.002275710916024, 47.30910966208107 ], [ 7.003554375861237, 47.310239532820638 ], [ 7.004918500481431, 47.311322458197935 ], [ 7.006364345805847, 47.312355472962665 ], [ 7.007887948872946, 47.313335748698947 ], [ 7.009485133592626, 47.314260601544909 ], [ 7.01115152219259, 47.315127499515995 ], [ 7.012882547217513, 47.315934069412421 ], [ 7.014673464048127, 47.316678103292119 ], [ 7.016519363905881, 47.317357564491743 ], [ 7.018415187307575, 47.317970593179602 ], [ 7.020355737933039, 47.318515511425765 ], [ 7.022335696867897, 47.318990827775444 ], [ 7.024349637182332, 47.319395241313707 ], [ 7.026392038805931, 47.319727645210371 ], [ 7.028457303657809, 47.319987129735935 ], [ 7.030539770990559, 47.320172984739926 ], [ 7.032633732905977, 47.320284701585692 ], [ 7.03473345, 47.320321974535972 ], [ 7.036833167094023, 47.320284701585692 ], [ 7.038927129009441, 47.320172984739926 ], [ 7.041009596342191, 47.319987129735935 ], [ 7.043074861194069, 47.319727645210371 ], [ 7.045117262817668, 47.319395241313707 ], [ 7.047131203132104, 47.318990827775444 ], [ 7.049111162066961, 47.318515511425765 ], [ 7.051051712692425, 47.317970593179602 ], [ 7.052947536094119, 47.317357564491743 ], [ 7.054793435951874, 47.316678103292119 ], [ 7.056584352782487, 47.315934069412421 ], [ 7.058315377807411, 47.315127499515995 ], [ 7.059981766407375, 47.314260601544909 ], [ 7.061578951127055, 47.313335748698947 ], [ 7.063102554194154, 47.312355472962665 ], [ 7.064548399518569, 47.311322458197935 ], [ 7.065912524138764, 47.310239532820638 ], [ 7.067191189083977, 47.30910966208107 ], [ 7.06838088962247, 47.307935939969028 ], [ 7.069478364867764, 47.306721580765156 ], [ 7.070480606716493, 47.305469910261721 ], [ 7.071384868093417, 47.304184356676139 ], [ 7.072188670480956, 47.302868441282165 ], [ 7.072889810712638, 47.301525768783975 ], [ 7.073486367011821, 47.300160017459213 ], [ 7.073976704259158, 47.29877492909786 ], [ 7.074359478474336, 47.297374298764218 ], [ 7.074633640499836, 47.29596196440982 ], [ 7.074798438876606, 47.294541796365799 ], [ 7.074853421903747, 47.293117686743024 ] ] ] } },
{ "type": "Feature", "properties": { "name": "Les Enfers", "feature_type": "mrr", "metric_roundness": 24.76, "metric_rectangularity": 62.91, "metric_mobile_fit": -158.7, "metric_aspect_ratio": 3.149, "metric_area_km2": 15.51 }, "geometry": { "type": "Polygon", "coordinates": [ [ [ 6.994996691124478, 47.299579645654553 ], [ 7.074856070791521, 47.298369742329065 ], [ 7.074299892319887, 47.281483053337368 ], [ 6.994440512652845, 47.282693343027908 ], [ 6.994996691124478, 47.299579645654553 ] ] ] } }
]
}
