{
"type": "FeatureCollection",
"name": "les_ormes",
"crs": { "type": "name", "properties": { "name": "urn:ogc:def:crs:OGC:1.3:CRS84" } },
"features": [
{ "type": "Feature", "properties": { "name": "Les Ormes", "feature_type": "entity", "metric_roundness": 52.68, "metric_rectangularity": 66.48, "metric_mobile_fit": 81.65, "metric_aspect_ratio": 0.746, "metric_area_km2": 19.05 }, "geometry": { "type": "Polygon", "coordinates": [ [ [ 3.2423131, 47.842634599999982 ], [ 3.2510698, 47.8349424 ], [ 3.248886, 47.8261095 ], [ 3.2697233, 47.829163799999982 ], [ 3.2804873, 47.8396628 ], [ 3.2713013, 47.8489231 ], [ 3.278862, 47.851909 ], [ 3.2787065, 47.858207 ], [ 3.2618631, 47.857578799999978 ], [ 3.2401975, 47.8645412 ], [ 3.2377695, 47.859564 ], [ 3.2423131, 47.842634599999982 ] ] ] } },
{ "type": "Feature", "properties": { "name": "Les Ormes", "feature_type": "circle", "metric_roundness": 52.68, "metric_rectangularity": 66.48, "metric_mobile_fit": 81.65, "metric_aspect_ratio": 0.746, "metric_area_km2": 19.05 }, "geometry": { "type": "Polygon", "coordinates": [ [ [ 3.284418998989356, 47.846285858049292 ], [ 3.284377227737764, 47.845215286913394 ], [ 3.284252028475084, 47.844147628132937 ], [ 3.284043744363794, 47.843085808357657 ], [ 3.283752946296163, 47.842032738410538 ], [ 3.283380431329484, 47.84099130530452 ], [ 3.282927220501385, 47.839964364322633 ], [ 3.282394556031246, 47.838954731183215 ], [ 3.281783897915353, 47.837965174311876 ], [ 3.281096919925155, 47.836998407241495 ], [ 3.280335505019573, 47.836057081161151 ], [ 3.279501740183937, 47.835143777634663 ], [ 3.278597910709709, 47.834261001508736 ], [ 3.27762649393065, 47.833411174030459 ], [ 3.276590152432633, 47.83259662619308 ], [ 3.275491726755666, 47.831819592328529 ], [ 3.274334227608179, 47.831082203964542 ], [ 3.273120827614881, 47.830386483963323 ], [ 3.271854852620809, 47.829734340957984 ], [ 3.270539772575425, 47.829127564102414 ], [ 3.269179192021725, 47.828567818148947 ], [ 3.267776840216432, 47.828056638867636 ], [ 3.266336560908369, 47.827595428819912 ], [ 3.264862301803006, 47.827185453498288 ], [ 3.263358103742077, 47.826827837843005 ], [ 3.261828089627912, 47.826523563145194 ], [ 3.260276453122847, 47.826273464345249 ], [ 3.25870744715469, 47.826078227733987 ], [ 3.257125372259738, 47.825938389062927 ], [ 3.255534564795311, 47.825854332069028 ], [ 3.253939385054094, 47.825826287417989 ], [ 3.252344205312876, 47.825854332069028 ], [ 3.250753397848449, 47.825938389062927 ], [ 3.249171322953498, 47.826078227733987 ], [ 3.24760231698534, 47.826273464345249 ], [ 3.246050680480275, 47.826523563145194 ], [ 3.24452066636611, 47.826827837843005 ], [ 3.243016468305181, 47.827185453498288 ], [ 3.241542209199818, 47.827595428819912 ], [ 3.240101929891755, 47.828056638867636 ], [ 3.238699578086462, 47.828567818148947 ], [ 3.237338997532762, 47.829127564102414 ], [ 3.236023917487377, 47.829734340957984 ], [ 3.234757942493306, 47.830386483963323 ], [ 3.233544542500007, 47.831082203964542 ], [ 3.232387043352521, 47.831819592328529 ], [ 3.231288617675554, 47.83259662619308 ], [ 3.230252276177537, 47.833411174030459 ], [ 3.229280859398479, 47.834261001508736 ], [ 3.22837702992425, 47.835143777634663 ], [ 3.227543265088614, 47.836057081161151 ], [ 3.226781850183032, 47.836998407241495 ], [ 3.226094872192834, 47.837965174311876 ], [ 3.225484214076941, 47.838954731183215 ], [ 3.224951549606802, 47.839964364322633 ], [ 3.224498338778703, 47.84099130530452 ], [ 3.224125823812024, 47.842032738410538 ], [ 3.223835025744393, 47.843085808357657 ], [ 3.223626741633103, 47.844147628132937 ], [ 3.223501542370423, 47.845215286913394 ], [ 3.223459771118831, 47.846285858049292 ], [ 3.223501542370423, 47.847356407088881 ], [ 3.223626741633103, 47.848423999822529 ], [ 3.223835025744393, 47.849485710324103 ], [ 3.224125823812024, 47.850538628967868 ], [ 3.224498338778703, 47.851579870398581 ], [ 3.224951549606802, 47.852606581433236 ], [ 3.225484214076941, 47.853615948872871 ], [ 3.226094872192834, 47.854605207202916 ], [ 3.226781850183032, 47.85557164616138 ], [ 3.227543265088614, 47.856512618154056 ], [ 3.22837702992425, 47.857425545496582 ], [ 3.229280859398479, 47.858307927463791 ], [ 3.230252276177537, 47.859157347127081 ], [ 3.231288617675554, 47.859971477961324 ], [ 3.232387043352521, 47.860748090203352 ], [ 3.233544542500007, 47.861485056944815 ], [ 3.234757942493306, 47.862180359942911 ], [ 3.236023917487377, 47.862832095133271 ], [ 3.237338997532762, 47.86343847783013 ], [ 3.238699578086462, 47.863997847599641 ], [ 3.240101929891755, 47.864508672793299 ], [ 3.241542209199818, 47.864969554729136 ], [ 3.243016468305181, 47.865379231509479 ], [ 3.24452066636611, 47.865736581464986 ], [ 3.246050680480275, 47.866040626215586 ], [ 3.24760231698534, 47.866290533340234 ], [ 3.249171322953498, 47.866485618648149 ], [ 3.250753397848449, 47.866625348045524 ], [ 3.252344205312876, 47.866709338992607 ], [ 3.253939385054094, 47.866737361547351 ], [ 3.255534564795311, 47.866709338992607 ], [ 3.257125372259738, 47.866625348045524 ], [ 3.25870744715469, 47.866485618648149 ], [ 3.260276453122847, 47.866290533340234 ], [ 3.261828089627912, 47.866040626215586 ], [ 3.263358103742077, 47.865736581464986 ], [ 3.264862301803006, 47.865379231509479 ], [ 3.266336560908369, 47.864969554729136 ], [ 3.267776840216432, 47.864508672793299 ], [ 3.269179192021725, 47.863997847599641 ], [ 3.270539772575425, 47.86343847783013 ], [ 3.271854852620809, 47.862832095133271 ], [ 3.273120827614881, 47.862180359942911 ], [ 3.274334227608179, 47.861485056944815 ], [ 3.275491726755666, 47.860748090203352 ], [ 3.276590152432633, 47.859971477961324 ], [ 3.27762649393065, 47.859157347127081 ], [ 3.278597910709709, 47.858307927463791 ], [ 3.279501740183937, 47.857425545496582 ], [ 3.280335505019573, 47.856512618154056 ], [ 3.281096919925155, 47.85557164616138 ], [ 3.281783897915353, 47.854605207202916 ], [ 3.282394556031246, 47.853615948872871 ], [ 3.282927220501385, 47.852606581433236 ], [ 3.283380431329484, 47.851579870398581 ], [ 3.283752946296163, 47.850538628967868 ], [ 3.284043744363794, 47.849485710324103 ], [ 3.284252028475084, 47.848423999822529 ], [ 3.284377227737764, 47.847356407088881 ], [ 3.284418998989356, 47.846285858049292 ] ] ] } },
{ "type": "Feature", "properties": { "name": "Les Ormes", "feature_type": "mrr", "metric_roundness": 52.68, "metric_rectangularity": 66.48, "metric_mobile_fit": 81.65, "metric_aspect_ratio": 0.746, "metric_area_km2": 19.05 }, "geometry": { "type": "Polygon", "coordinates": [ [ [ 3.246813966634383, 47.825858954579928 ], [ 3.23655166497665, 47.864100679319655 ], [ 3.275849705210124, 47.868848812036113 ], [ 3.286112006867857, 47.830610589281868 ], [ 3.246813966634383, 47.825858954579928 ] ] ] } }
]
}
