{
"type": "FeatureCollection",
"name": "leuville_sur_orge",
"crs": { "type": "name", "properties": { "name": "urn:ogc:def:crs:OGC:1.3:CRS84" } },
"features": [
{ "type": "Feature", "properties": { "name": "Leuville-sur-Orge", "feature_type": "entity", "metric_roundness": 57.81, "metric_rectangularity": 75.64, "metric_mobile_fit": 64.16, "metric_aspect_ratio": 0.921, "metric_area_km2": 5.32 }, "geometry": { "type": "Polygon", "coordinates": [ [ [ 2.276026, 48.621968 ], [ 2.2639298, 48.6223894 ], [ 2.2577345, 48.613363 ], [ 2.2571625, 48.6064182 ], [ 2.264475, 48.604168199999989 ], [ 2.2681155, 48.6061785 ], [ 2.282544, 48.617733 ], [ 2.276026, 48.621968 ] ] ] } },
{ "type": "Feature", "properties": { "name": "Leuville-sur-Orge", "feature_type": "circle", "metric_roundness": 57.81, "metric_rectangularity": 75.64, "metric_mobile_fit": 64.16, "metric_aspect_ratio": 0.921, "metric_area_km2": 5.32 }, "geometry": { "type": "Polygon", "coordinates": [ [ [ 2.284371916980179, 48.612924555248881 ], [ 2.284350833558062, 48.612392237803725 ], [ 2.284287641079902, 48.611861373814541 ], [ 2.284182512751892, 48.611333418411533 ], [ 2.284035736723471, 48.610809818797748 ], [ 2.28384771529753, 48.610292010281171 ], [ 2.283618963827728, 48.609781412338918 ], [ 2.283350109305945, 48.60927942472437 ], [ 2.283041888643736, 48.608787423627852 ], [ 2.282695146652512, 48.608306757901651 ], [ 2.282310833727971, 48.607838745359402 ], [ 2.281890003245123, 48.607384669160368 ], [ 2.281433808671071, 48.606945774288349 ], [ 2.280943500403434, 48.606523264134871 ], [ 2.280420422343091, 48.606118297196382 ], [ 2.279866008210648, 48.605731983894174 ], [ 2.279281777616705, 48.605365383526035 ], [ 2.27866933189671, 48.605019501357965 ], [ 2.278030349721811, 48.604695285864032 ], [ 2.277366582497735, 48.604393626121841 ], [ 2.276679849564305, 48.604115349371 ], [ 2.275972033208756, 48.60386121874123 ], [ 2.275245073506522, 48.60363193115635 ], [ 2.274500963003612, 48.603428115420009 ], [ 2.273741741255196, 48.603250330488478 ], [ 2.272969489235312, 48.603099063935083 ], [ 2.272186323633067, 48.602974730610846 ], [ 2.271394391050941, 48.602877671504757 ], [ 2.270595862121095, 48.602808152806936 ], [ 2.26979292555582, 48.60276636517731 ], [ 2.26898778214843, 48.602752423221773 ], [ 2.26818263874104, 48.60276636517731 ], [ 2.267379702175765, 48.602808152806936 ], [ 2.266581173245918, 48.602877671504757 ], [ 2.265789240663793, 48.602974730610846 ], [ 2.265006075061548, 48.603099063935083 ], [ 2.264233823041664, 48.603250330488478 ], [ 2.263474601293248, 48.603428115420009 ], [ 2.262730490790339, 48.60363193115635 ], [ 2.262003531088104, 48.60386121874123 ], [ 2.261295714732555, 48.604115349371 ], [ 2.260608981799125, 48.604393626121841 ], [ 2.259945214575048, 48.604695285864032 ], [ 2.25930623240015, 48.605019501357965 ], [ 2.258693786680155, 48.605365383526035 ], [ 2.258109556086211, 48.605731983894174 ], [ 2.257555141953769, 48.606118297196382 ], [ 2.257032063893426, 48.606523264134871 ], [ 2.256541755625789, 48.606945774288349 ], [ 2.256085561051738, 48.607384669160368 ], [ 2.25566473056889, 48.607838745359402 ], [ 2.255280417644348, 48.608306757901651 ], [ 2.254933675653124, 48.608787423627852 ], [ 2.254625454990915, 48.60927942472437 ], [ 2.254356600469131, 48.609781412338918 ], [ 2.25412784899933, 48.610292010281171 ], [ 2.253939827573389, 48.610809818797748 ], [ 2.253793051544967, 48.611333418411533 ], [ 2.253687923216957, 48.611861373814541 ], [ 2.253624730738798, 48.612392237803725 ], [ 2.25360364731668, 48.612924555248881 ], [ 2.253624730738798, 48.613456867081872 ], [ 2.253687923216957, 48.613987714296037 ], [ 2.253793051544967, 48.614515641944955 ], [ 2.253939827573389, 48.615039203129662 ], [ 2.25412784899933, 48.615556962963211 ], [ 2.254356600469131, 48.616067502501863 ], [ 2.254625454990915, 48.616569422632146 ], [ 2.254933675653124, 48.617061347903082 ], [ 2.255280417644348, 48.61754193029315 ], [ 2.25566473056889, 48.618009852901757 ], [ 2.256085561051738, 48.618463833554962 ], [ 2.256541755625789, 48.618902628315823 ], [ 2.257032063893426, 48.61932503488962 ], [ 2.257555141953769, 48.619729895914766 ], [ 2.258109556086211, 48.620116102130353 ], [ 2.258693786680155, 48.620482595411886 ], [ 2.25930623240015, 48.620828371666597 ], [ 2.259945214575048, 48.621152483580858 ], [ 2.260608981799125, 48.621454043211891 ], [ 2.261295714732555, 48.621732224416917 ], [ 2.262003531088104, 48.621986265113051 ], [ 2.262730490790339, 48.622215469361791 ], [ 2.263474601293248, 48.622419209272536 ], [ 2.264233823041664, 48.622596926719801 ], [ 2.265006075061548, 48.622748134869603 ], [ 2.265789240663793, 48.62287241951082 ], [ 2.266581173245918, 48.622969440187831 ], [ 2.267379702175765, 48.623038931131575 ], [ 2.26818263874104, 48.623080701986169 ], [ 2.26898778214843, 48.62309463832954 ], [ 2.26979292555582, 48.623080701986169 ], [ 2.270595862121095, 48.623038931131575 ], [ 2.271394391050941, 48.622969440187831 ], [ 2.272186323633067, 48.62287241951082 ], [ 2.272969489235312, 48.622748134869603 ], [ 2.273741741255196, 48.622596926719801 ], [ 2.274500963003612, 48.622419209272536 ], [ 2.275245073506522, 48.622215469361791 ], [ 2.275972033208756, 48.621986265113051 ], [ 2.276679849564305, 48.621732224416917 ], [ 2.277366582497735, 48.621454043211891 ], [ 2.278030349721811, 48.621152483580858 ], [ 2.27866933189671, 48.620828371666597 ], [ 2.279281777616705, 48.620482595411886 ], [ 2.279866008210648, 48.620116102130353 ], [ 2.280420422343091, 48.619729895914766 ], [ 2.280943500403434, 48.61932503488962 ], [ 2.281433808671071, 48.618902628315823 ], [ 2.281890003245123, 48.618463833554962 ], [ 2.282310833727971, 48.618009852901757 ], [ 2.282695146652512, 48.61754193029315 ], [ 2.283041888643736, 48.617061347903082 ], [ 2.283350109305945, 48.616569422632146 ], [ 2.283618963827728, 48.616067502501863 ], [ 2.28384771529753, 48.615556962963211 ], [ 2.284035736723471, 48.615039203129662 ], [ 2.284182512751892, 48.614515641944955 ], [ 2.284287641079902, 48.613987714296037 ], [ 2.284350833558062, 48.613456867081872 ], [ 2.284371916980179, 48.612924555248881 ] ] ] } },
{ "type": "Feature", "properties": { "name": "Leuville-sur-Orge", "feature_type": "mrr", "metric_roundness": 57.81, "metric_rectangularity": 75.64, "metric_mobile_fit": 64.16, "metric_aspect_ratio": 0.921, "metric_area_km2": 5.32 }, "geometry": { "type": "Polygon", "coordinates": [ [ [ 2.283047289761389, 48.618136011459335 ], [ 2.263853794816796, 48.602765193474873 ], [ 2.249326355777583, 48.610695884443331 ], [ 2.268519850722176, 48.626064288497581 ], [ 2.283047289761389, 48.618136011459335 ] ] ] } }
]
}
