{
"type": "FeatureCollection",
"name": "gaiola",
"crs": { "type": "name", "properties": { "name": "urn:ogc:def:crs:OGC:1.3:CRS84" } },
"features": [
{ "type": "Feature", "properties": { "name": "Gaiola", "metric_roundness": 43.61, "metric_rectangularity": 64.97, "metric_mobile_fit": 52.7, "metric_aspect_ratio": 1.035, "metric_area_km2": 9.5 }, "geometry": { "type": "Polygon", "coordinates": [ [ [ 7.420785, 44.31924 ], [ 7.42181, 44.3242085 ], [ 7.4235555, 44.332493 ], [ 7.415293, 44.343416499999982 ], [ 7.4044487, 44.3418182 ], [ 7.3893165, 44.344511 ], [ 7.386974, 44.336149 ], [ 7.392311, 44.331535 ], [ 7.420785, 44.31924 ] ] ] } }
]
}
