{
"type": "FeatureCollection",
"name": "galbarros",
"crs": { "type": "name", "properties": { "name": "urn:ogc:def:crs:OGC:1.3:CRS84" } },
"features": [
{ "type": "Feature", "properties": { "name": "Galbarros", "feature_type": "entity", "metric_roundness": 33.76, "metric_rectangularity": 52.89, "metric_mobile_fit": 40.64, "metric_aspect_ratio": 1.156, "metric_area_km2": 58.82 }, "geometry": { "type": "Polygon", "coordinates": [ [ [ -3.412927, 42.5079195 ], [ -3.4104255, 42.5126955 ], [ -3.406965, 42.517685 ], [ -3.4166773, 42.5202536 ], [ -3.4080935, 42.534008 ], [ -3.4089431, 42.5407664 ], [ -3.4198817, 42.555668 ], [ -3.430292, 42.5568885 ], [ -3.4335705, 42.553707 ], [ -3.4423245, 42.554863 ], [ -3.450598, 42.545783 ], [ -3.45742, 42.545212 ], [ -3.4585165, 42.5377722 ], [ -3.4658629, 42.529637699999981 ], [ -3.5169662, 42.4942858 ], [ -3.5194645, 42.492557499999982 ], [ -3.5169662, 42.4894819 ], [ -3.5134604, 42.4851659 ], [ -3.4817952, 42.4986323 ], [ -3.476666, 42.4925995 ], [ -3.4595209, 42.4985866 ], [ -3.4603283, 42.5048384 ], [ -3.442282, 42.502048499999987 ], [ -3.4348965, 42.502426 ], [ -3.4266655, 42.5055465 ], [ -3.4208642, 42.509474399999981 ], [ -3.4130805, 42.505398 ], [ -3.412927, 42.5079195 ] ] ] } },
{ "type": "Feature", "properties": { "name": "Galbarros", "feature_type": "circle", "metric_roundness": 33.76, "metric_rectangularity": 52.89, "metric_mobile_fit": 40.64, "metric_aspect_ratio": 1.156, "metric_area_km2": 58.82 }, "geometry": { "type": "Polygon", "coordinates": [ [ [ -3.39976237945628, 42.520426893854015 ], [ -3.399854075463878, 42.517845938519784 ], [ -3.400128912154289, 42.515271951236947 ], [ -3.400586136219247, 42.512711988435449 ], [ -3.401224494439372, 42.51017306896172 ], [ -3.402042237119155, 42.507662154816785 ], [ -3.40303712288275, 42.505186132041025 ], [ -3.404206424817433, 42.502751791798353 ], [ -3.40554693794788, 42.500365811712186 ], [ -3.407054988020775, 42.498034737504881 ], [ -3.408726441575695, 42.495764964991466 ], [ -3.410556717274625, 42.493562722477968 ], [ -3.412540798459096, 42.491434053613105 ], [ -3.414673246900493, 42.489384800741504 ], [ -3.416948217705863, 42.487420588804497 ], [ -3.419359475338359, 42.485546809834169 ], [ -3.421900410708415, 42.48376860808353 ], [ -3.424564059288802, 42.482090865834984 ], [ -3.427343120203906, 42.480518189926826 ], [ -3.43022997624093, 42.479054899035638 ], [ -3.43321671472814, 42.477705011750601 ], [ -3.436295149222948, 42.476472235473253 ], [ -3.439456841950383, 42.475359956174103 ], [ -3.442693126930445, 42.474371229035057 ], [ -3.445995133730956, 42.473508770004145 ], [ -3.449353811780795, 42.472774948286492 ], [ -3.452759955176886, 42.472171779792852 ], [ -3.45620422791694, 42.471700921564185 ], [ -3.459677189488783, 42.471363667188236 ], [ -3.46316932074615, 42.471160943221044 ], [ -3.46667105, 42.471093306623636 ], [ -3.47017277925385, 42.471160943221044 ], [ -3.473664910511217, 42.471363667188236 ], [ -3.47713787208306, 42.471700921564185 ], [ -3.480582144823113, 42.472171779792852 ], [ -3.483988288219204, 42.472774948286492 ], [ -3.487346966269044, 42.473508770004145 ], [ -3.490648973069554, 42.474371229035057 ], [ -3.493885258049617, 42.475359956174103 ], [ -3.497046950777051, 42.476472235473253 ], [ -3.500125385271859, 42.477705011750601 ], [ -3.503112123759069, 42.479054899035638 ], [ -3.505998979796094, 42.480518189926826 ], [ -3.508778040711198, 42.482090865834984 ], [ -3.511441689291584, 42.48376860808353 ], [ -3.513982624661641, 42.485546809834169 ], [ -3.516393882294136, 42.487420588804497 ], [ -3.518668853099506, 42.489384800741504 ], [ -3.520801301540903, 42.491434053613105 ], [ -3.522785382725374, 42.493562722477968 ], [ -3.524615658424304, 42.495764964991466 ], [ -3.526287111979224, 42.498034737504881 ], [ -3.52779516205212, 42.500365811712186 ], [ -3.529135675182566, 42.502751791798353 ], [ -3.53030497711725, 42.505186132041025 ], [ -3.531299862880844, 42.507662154816785 ], [ -3.532117605560627, 42.51017306896172 ], [ -3.532755963780753, 42.512711988435449 ], [ -3.53321318784571, 42.515271951236947 ], [ -3.533488024536121, 42.517845938519784 ], [ -3.533579720543719, 42.520426893854015 ], [ -3.533488024536121, 42.523007742581747 ], [ -3.53321318784571, 42.525581411213075 ], [ -3.532755963780753, 42.528140846809265 ], [ -3.532117605560627, 42.530679036300072 ], [ -3.531299862880844, 42.533189025682319 ], [ -3.53030497711725, 42.535663939047538 ], [ -3.529135675182566, 42.538096997386745 ], [ -3.52779516205212, 42.54048153712133 ], [ -3.526287111979224, 42.542811028309742 ], [ -3.524615658424305, 42.545079092480847 ], [ -3.522785382725374, 42.547279520045606 ], [ -3.520801301540903, 42.549406287240217 ], [ -3.518668853099506, 42.551453572555204 ], [ -3.516393882294136, 42.553415772606165 ], [ -3.513982624661641, 42.555287517403691 ], [ -3.511441689291584, 42.557063684981578 ], [ -3.508778040711198, 42.558739415344249 ], [ -3.505998979796094, 42.560310123696034 ], [ -3.503112123759069, 42.561771512917332 ], [ -3.500125385271859, 42.563119585254043 ], [ -3.497046950777051, 42.564350653189564 ], [ -3.493885258049617, 42.56546134947034 ], [ -3.490648973069554, 42.566448636258322 ], [ -3.487346966269044, 42.567309813386281 ], [ -3.483988288219204, 42.568042525693855 ], [ -3.480582144823113, 42.568644769425241 ], [ -3.47713787208306, 42.569114897671341 ], [ -3.473664910511217, 42.569451624842245 ], [ -3.47017277925385, 42.569654030158084 ], [ -3.46667105, 42.569721560149041 ], [ -3.46316932074615, 42.569654030158084 ], [ -3.459677189488783, 42.569451624842245 ], [ -3.45620422791694, 42.569114897671341 ], [ -3.452759955176886, 42.568644769425241 ], [ -3.449353811780795, 42.568042525693855 ], [ -3.445995133730956, 42.567309813386281 ], [ -3.442693126930445, 42.566448636258322 ], [ -3.439456841950383, 42.56546134947034 ], [ -3.436295149222948, 42.564350653189564 ], [ -3.43321671472814, 42.563119585254043 ], [ -3.43022997624093, 42.561771512917332 ], [ -3.427343120203906, 42.560310123696034 ], [ -3.424564059288802, 42.558739415344249 ], [ -3.421900410708415, 42.557063684981578 ], [ -3.419359475338359, 42.555287517403691 ], [ -3.416948217705863, 42.553415772606165 ], [ -3.414673246900493, 42.551453572555204 ], [ -3.412540798459096, 42.549406287240217 ], [ -3.410556717274625, 42.547279520045606 ], [ -3.408726441575695, 42.545079092480847 ], [ -3.407054988020775, 42.542811028309742 ], [ -3.40554693794788, 42.54048153712133 ], [ -3.404206424817433, 42.538096997386745 ], [ -3.40303712288275, 42.535663939047538 ], [ -3.402042237119155, 42.533189025682319 ], [ -3.401224494439372, 42.530679036300072 ], [ -3.400586136219247, 42.528140846809265 ], [ -3.400128912154289, 42.525581411213075 ], [ -3.399854075463878, 42.523007742581747 ], [ -3.39976237945628, 42.520426893854015 ] ] ] } },
{ "type": "Feature", "properties": { "name": "Galbarros", "feature_type": "mrr", "metric_roundness": 33.76, "metric_rectangularity": 52.89, "metric_mobile_fit": 40.64, "metric_aspect_ratio": 1.156, "metric_area_km2": 58.82 }, "geometry": { "type": "Polygon", "coordinates": [ [ [ -3.397024627245389, 42.508633539922286 ], [ -3.516497494201399, 42.484553656640145 ], [ -3.535603801425206, 42.536077159695097 ], [ -3.416130934469196, 42.560137197246981 ], [ -3.397024627245389, 42.508633539922286 ] ] ] } }
]
}
