{
"type": "FeatureCollection",
"name": "gambettola",
"crs": { "type": "name", "properties": { "name": "urn:ogc:def:crs:OGC:1.3:CRS84" } },
"features": [
{ "type": "Feature", "properties": { "name": "Gambettola", "feature_type": "entity", "metric_roundness": 53.03, "metric_rectangularity": 64.33, "metric_mobile_fit": 38.49, "metric_aspect_ratio": 1.178, "metric_area_km2": 14.47 }, "geometry": { "type": "Polygon", "coordinates": [ [ [ 12.3462925, 44.1310528 ], [ 12.3422994, 44.1271447 ], [ 12.3315157, 44.124212699999987 ], [ 12.3264908, 44.1228464 ], [ 12.3233041, 44.1153889 ], [ 12.3319078, 44.1101344 ], [ 12.331511, 44.1061425 ], [ 12.3359777, 44.105057099999989 ], [ 12.3485389, 44.1099354 ], [ 12.3703935, 44.104212499999988 ], [ 12.3697943, 44.1092777 ], [ 12.3652062, 44.1130397 ], [ 12.3643881, 44.124212699999987 ], [ 12.363956, 44.1301145 ], [ 12.3621915, 44.1329205 ], [ 12.3462925, 44.1310528 ] ] ] } },
{ "type": "Feature", "properties": { "name": "Gambettola", "feature_type": "circle", "metric_roundness": 53.03, "metric_rectangularity": 64.33, "metric_mobile_fit": 38.49, "metric_aspect_ratio": 1.178, "metric_area_km2": 14.47 }, "geometry": { "type": "Polygon", "coordinates": [ [ [ 12.376245963289245, 44.116134550347695 ], [ 12.376209671835682, 44.115139551817101 ], [ 12.376100896947348, 44.114147263823355 ], [ 12.375919936768648, 44.113160406364571 ], [ 12.375667287298855, 44.112181684688807 ], [ 12.375343641032602, 44.111213781875399 ], [ 12.374949885061813, 44.110259351475655 ], [ 12.374487098644229, 44.109321010233153 ], [ 12.373956550245255, 44.108401330903511 ], [ 12.373359694061177, 44.107502835193685 ], [ 12.372698166033308, 44.106627986839854 ], [ 12.371973779363984, 44.105779184843364 ], [ 12.37118851954672, 44.104958756883086 ], [ 12.370344538924094, 44.10416895292262 ], [ 12.369444150788322, 44.10341193902989 ], [ 12.368489823040706, 44.102689791426059 ], [ 12.367484171427261, 44.102004490780658 ], [ 12.366429952369161, 44.101357916768258 ], [ 12.365330055407565, 44.100751842901978 ], [ 12.364187495283593, 44.100187931658326 ], [ 12.363005403675126, 44.099667729906372 ], [ 12.3617870206131, 44.099192664654566 ], [ 12.360535685600794, 44.098764039126529 ], [ 12.359254828460498, 44.098383029176929 ], [ 12.357947959932606, 44.098050680057334 ], [ 12.356618662052909, 44.097767903541097 ], [ 12.355270578334501, 44.097535475415121 ], [ 12.353907403781147, 44.097354033345709 ], [ 12.352532874759547, 44.097224075124188 ], [ 12.351150758758205, 44.09714595729735 ], [ 12.349764844061012, 44.097119894186406 ], [ 12.348378929363818, 44.09714595729735 ], [ 12.346996813362477, 44.097224075124188 ], [ 12.345622284340877, 44.097354033345709 ], [ 12.344259109787522, 44.097535475415121 ], [ 12.342911026069114, 44.097767903541097 ], [ 12.341581728189418, 44.098050680057334 ], [ 12.340274859661525, 44.098383029176929 ], [ 12.338994002521229, 44.098764039126529 ], [ 12.337742667508923, 44.099192664654566 ], [ 12.336524284446897, 44.099667729906372 ], [ 12.33534219283843, 44.100187931658326 ], [ 12.334199632714459, 44.100751842901978 ], [ 12.333099735752862, 44.101357916768258 ], [ 12.332045516694762, 44.102004490780658 ], [ 12.331039865081317, 44.102689791426059 ], [ 12.330085537333701, 44.10341193902989 ], [ 12.329185149197929, 44.10416895292262 ], [ 12.328341168575303, 44.104958756883086 ], [ 12.32755590875804, 44.105779184843364 ], [ 12.326831522088716, 44.106627986839854 ], [ 12.326169994060846, 44.107502835193685 ], [ 12.325573137876768, 44.108401330903511 ], [ 12.325042589477794, 44.109321010233153 ], [ 12.32457980306021, 44.110259351475655 ], [ 12.324186047089421, 44.111213781875399 ], [ 12.323862400823169, 44.112181684688807 ], [ 12.323609751353375, 44.113160406364571 ], [ 12.323428791174676, 44.114147263823355 ], [ 12.323320016286342, 44.115139551817101 ], [ 12.323283724832779, 44.116134550347695 ], [ 12.323320016286342, 44.117129532124473 ], [ 12.323428791174676, 44.118121770040347 ], [ 12.323609751353375, 44.11910854464584 ], [ 12.323862400823169, 44.120087151600679 ], [ 12.324186047089421, 44.121054909082432 ], [ 12.32457980306021, 44.122009165132063 ], [ 12.325042589477794, 44.122947304916224 ], [ 12.325573137876768, 44.123866757886482 ], [ 12.326169994060846, 44.12476500481597 ], [ 12.326831522088716, 44.12563958469417 ], [ 12.32755590875804, 44.126488101461227 ], [ 12.328341168575303, 44.127308230563287 ], [ 12.329185149197929, 44.1280977253111 ], [ 12.330085537333701, 44.128854423024563 ], [ 12.331039865081317, 44.12957625094662 ], [ 12.332045516694762, 44.130261231910261 ], [ 12.333099735752862, 44.1309074897434 ], [ 12.334199632714459, 44.131513254397035 ], [ 12.33534219283843, 44.132076866782491 ], [ 12.336524284446897, 44.132596783305019 ], [ 12.337742667508923, 44.1330715800812 ], [ 12.338994002521229, 44.133499956828885 ], [ 12.340274859661525, 44.133880740419144 ], [ 12.341581728189418, 44.134212888080391 ], [ 12.342911026069114, 44.134495490246536 ], [ 12.344259109787522, 44.134727773040858 ], [ 12.345622284340877, 44.134909100389358 ], [ 12.346996813362477, 44.135038975757595 ], [ 12.348378929363818, 44.135117043506568 ], [ 12.349764844061012, 44.135143089863696 ], [ 12.351150758758205, 44.135117043506568 ], [ 12.352532874759547, 44.135038975757595 ], [ 12.353907403781147, 44.134909100389358 ], [ 12.355270578334501, 44.134727773040858 ], [ 12.356618662052909, 44.134495490246536 ], [ 12.357947959932606, 44.134212888080391 ], [ 12.359254828460498, 44.133880740419144 ], [ 12.360535685600794, 44.133499956828885 ], [ 12.3617870206131, 44.1330715800812 ], [ 12.363005403675126, 44.132596783305019 ], [ 12.364187495283593, 44.132076866782491 ], [ 12.365330055407565, 44.131513254397035 ], [ 12.366429952369161, 44.1309074897434 ], [ 12.367484171427261, 44.130261231910261 ], [ 12.368489823040706, 44.12957625094662 ], [ 12.369444150788322, 44.128854423024563 ], [ 12.370344538924094, 44.1280977253111 ], [ 12.37118851954672, 44.127308230563287 ], [ 12.371973779363984, 44.126488101461227 ], [ 12.372698166033308, 44.12563958469417 ], [ 12.373359694061177, 44.12476500481597 ], [ 12.373956550245255, 44.123866757886482 ], [ 12.374487098644229, 44.122947304916224 ], [ 12.374949885061813, 44.122009165132063 ], [ 12.375343641032602, 44.121054909082432 ], [ 12.375667287298855, 44.120087151600679 ], [ 12.375919936768648, 44.11910854464584 ], [ 12.376100896947348, 44.118121770040347 ], [ 12.376209671835682, 44.117129532124473 ], [ 12.376245963289245, 44.116134550347695 ] ] ] } },
{ "type": "Feature", "properties": { "name": "Gambettola", "feature_type": "mrr", "metric_roundness": 53.03, "metric_rectangularity": 64.33, "metric_mobile_fit": 38.49, "metric_aspect_ratio": 1.178, "metric_area_km2": 14.47 }, "geometry": { "type": "Polygon", "coordinates": [ [ [ 12.320425596327, 44.128014017625787 ], [ 12.364346127631292, 44.133173606964981 ], [ 12.370934364289361, 44.104276068056009 ], [ 12.327013832985074, 44.099113954786247 ], [ 12.320425596327, 44.128014017625787 ] ] ] } }
]
}
