{
"type": "FeatureCollection",
"name": "gasztony",
"crs": { "type": "name", "properties": { "name": "urn:ogc:def:crs:OGC:1.3:CRS84" } },
"features": [
{ "type": "Feature", "properties": { "name": "Gasztony", "feature_type": "entity", "metric_roundness": 36.13, "metric_rectangularity": 72.66, "metric_mobile_fit": 88.53, "metric_aspect_ratio": 0.677, "metric_area_km2": 31.14 }, "geometry": { "type": "Polygon", "coordinates": [ [ [ 16.4244875, 46.994626499999981 ], [ 16.424896, 46.988262499999983 ], [ 16.4317001, 46.972062099999981 ], [ 16.4329165, 46.9543895 ], [ 16.438423, 46.949454 ], [ 16.4435295, 46.9456736 ], [ 16.45567, 46.9432615 ], [ 16.4772725, 46.941438 ], [ 16.4707868, 46.9510599 ], [ 16.4714983, 46.9620223 ], [ 16.4655871, 46.979489099999974 ], [ 16.4623615, 46.9831931 ], [ 16.4542736, 46.9829487 ], [ 16.4454895, 46.993198 ], [ 16.4244875, 46.994626499999981 ] ] ] } },
{ "type": "Feature", "properties": { "name": "Gasztony", "feature_type": "circle", "metric_roundness": 36.13, "metric_rectangularity": 72.66, "metric_mobile_fit": 88.53, "metric_aspect_ratio": 0.677, "metric_area_km2": 31.14 }, "geometry": { "type": "Polygon", "coordinates": [ [ [ 16.497947243302466, 46.968038861214943 ], [ 16.497882739281323, 46.966357857283889 ], [ 16.497689404018928, 46.964681408257093 ], [ 16.497367767433801, 46.963014109813223 ], [ 16.496918711109462, 46.961360532974354 ], [ 16.496343465878084, 46.959725211565335 ], [ 16.495643608446859, 46.95811262977066 ], [ 16.494821057076365, 46.956527209823008 ], [ 16.493878066322729, 46.954973299857414 ], [ 16.492817220858058, 46.953455161964854 ], [ 16.491641428386039, 46.951976960477893 ], [ 16.490353911672106, 46.950542750521386 ], [ 16.488958199710076, 46.949156466859428 ], [ 16.487458118049425, 46.947821913070058 ], [ 16.485857778309715, 46.94654275107748 ], [ 16.484161566910931, 46.945322491071074 ], [ 16.482374133050619, 46.944164481839358 ], [ 16.480500375960744, 46.943071901545849 ], [ 16.478545431479251, 46.942047748972527 ], [ 16.47651465797307, 46.941094835255548 ], [ 16.47441362165123, 46.940215776136199 ], [ 16.472248081308248, 46.939412984748941 ], [ 16.470023972539675, 46.938688664966683 ], [ 16.467747391473054, 46.938044805322022 ], [ 16.46542457805884, 46.937483173521514 ], [ 16.463061898967151, 46.937005311568335 ], [ 16.460665830137145, 46.936612531507244 ], [ 16.458242939026942, 46.936305911803572 ], [ 16.455799866612654, 46.936086294366611 ], [ 16.453343309185954, 46.935954282225651 ], [ 16.45088, 46.935910237865492 ], [ 16.448416690814046, 46.935954282225651 ], [ 16.445960133387349, 46.936086294366611 ], [ 16.443517060973061, 46.936305911803572 ], [ 16.441094169862854, 46.936612531507244 ], [ 16.438698101032848, 46.937005311568335 ], [ 16.436335421941155, 46.937483173521514 ], [ 16.434012608526945, 46.938044805322022 ], [ 16.431736027460325, 46.938688664966683 ], [ 16.429511918691748, 46.939412984748941 ], [ 16.427346378348766, 46.940215776136199 ], [ 16.42524534202693, 46.941094835255548 ], [ 16.423214568520752, 46.942047748972527 ], [ 16.421259624039255, 46.943071901545849 ], [ 16.41938586694938, 46.944164481839358 ], [ 16.417598433089069, 46.945322491071074 ], [ 16.415902221690285, 46.94654275107748 ], [ 16.414301881950575, 46.947821913070058 ], [ 16.412801800289927, 46.949156466859428 ], [ 16.411406088327897, 46.950542750521386 ], [ 16.41011857161396, 46.951976960477893 ], [ 16.408942779141942, 46.953455161964854 ], [ 16.407881933677274, 46.954973299857414 ], [ 16.406938942923635, 46.956527209823008 ], [ 16.406116391553141, 46.95811262977066 ], [ 16.405416534121915, 46.959725211565335 ], [ 16.404841288890541, 46.961360532974354 ], [ 16.404392232566202, 46.963014109813223 ], [ 16.404070595981072, 46.964681408257093 ], [ 16.40387726071868, 46.966357857283889 ], [ 16.403812756697537, 46.968038861214943 ], [ 16.40387726071868, 46.969719812318559 ], [ 16.404070595981072, 46.971396103441791 ], [ 16.404392232566202, 46.973063140636029 ], [ 16.404841288890541, 46.974716355741492 ], [ 16.405416534121915, 46.976351218896561 ], [ 16.406116391553141, 46.977963250937457 ], [ 16.406938942923635, 46.979548035654744 ], [ 16.407881933677274, 46.981101231873076 ], [ 16.408942779141942, 46.982618585321475 ], [ 16.41011857161396, 46.984095940261888 ], [ 16.411406088327897, 46.985529250844415 ], [ 16.412801800289927, 46.986914592158676 ], [ 16.414301881950575, 46.988248170951209 ], [ 16.415902221690285, 46.989526335980074 ], [ 16.417598433089069, 46.990745587978843 ], [ 16.41938586694938, 46.991902589202923 ], [ 16.421259624039255, 46.992994172532761 ], [ 16.423214568520752, 46.994017350109289 ], [ 16.42524534202693, 46.994969321478649 ], [ 16.427346378348766, 46.995847481224096 ], [ 16.429511918691748, 46.996649426064899 ], [ 16.431736027460325, 46.997372961403087 ], [ 16.434012608526945, 46.9980161073006 ], [ 16.436335421941155, 46.998577103870851 ], [ 16.438698101032848, 46.999054416070344 ], [ 16.441094169862854, 46.999446737877555 ], [ 16.443517060973061, 46.999752995847885 ], [ 16.445960133387349, 46.999972352035272 ], [ 16.448416690814046, 47.000104206272695 ], [ 16.45088, 47.00014819780543 ], [ 16.453343309185954, 47.000104206272695 ], [ 16.455799866612654, 46.999972352035272 ], [ 16.458242939026942, 46.999752995847885 ], [ 16.460665830137145, 46.999446737877555 ], [ 16.463061898967151, 46.999054416070344 ], [ 16.46542457805884, 46.998577103870851 ], [ 16.467747391473054, 46.9980161073006 ], [ 16.470023972539675, 46.997372961403087 ], [ 16.472248081308248, 46.996649426064899 ], [ 16.47441362165123, 46.995847481224096 ], [ 16.47651465797307, 46.994969321478649 ], [ 16.478545431479251, 46.994017350109289 ], [ 16.480500375960744, 46.992994172532761 ], [ 16.482374133050619, 46.991902589202923 ], [ 16.484161566910931, 46.990745587978843 ], [ 16.485857778309715, 46.989526335980074 ], [ 16.487458118049425, 46.988248170951209 ], [ 16.488958199710076, 46.986914592158676 ], [ 16.490353911672106, 46.985529250844415 ], [ 16.491641428386039, 46.984095940261888 ], [ 16.492817220858058, 46.982618585321475 ], [ 16.493878066322729, 46.981101231873076 ], [ 16.494821057076365, 46.979548035654744 ], [ 16.495643608446859, 46.977963250937457 ], [ 16.496343465878084, 46.976351218896561 ], [ 16.496918711109462, 46.974716355741492 ], [ 16.497367767433801, 46.973063140636029 ], [ 16.497689404018928, 46.971396103441791 ], [ 16.497882739281323, 46.969719812318559 ], [ 16.497947243302466, 46.968038861214943 ] ] ] } },
{ "type": "Feature", "properties": { "name": "Gasztony", "feature_type": "mrr", "metric_roundness": 36.13, "metric_rectangularity": 72.66, "metric_mobile_fit": 88.53, "metric_aspect_ratio": 0.677, "metric_area_km2": 31.14 }, "geometry": { "type": "Polygon", "coordinates": [ [ [ 16.461008706452219, 46.999396121030991 ], [ 16.4772725, 46.941438 ], [ 16.437989663953861, 46.936302135840222 ], [ 16.421725874001787, 46.994265818796364 ], [ 16.461008706452219, 46.999396121030991 ] ] ] } }
]
}
