{
"type": "FeatureCollection",
"name": "wunstorf_stadt",
"crs": { "type": "name", "properties": { "name": "urn:ogc:def:crs:OGC:1.3:CRS84" } },
"features": [
{ "type": "Feature", "properties": { "name": "Wunstorf, Stadt", "metric_roundness": 57.22, "metric_rectangularity": 60.1, "metric_mobile_fit": 51.83, "metric_aspect_ratio": 1.044, "metric_area_km2": 338.37 }, "geometry": { "type": "Polygon", "coordinates": [ [ [ 9.318474, 52.3985286 ], [ 9.320203, 52.388953 ], [ 9.3249815, 52.383284 ], [ 9.3306812, 52.387642199999988 ], [ 9.352747, 52.383898499999987 ], [ 9.3539207, 52.390111 ], [ 9.3773356, 52.3919078 ], [ 9.3793763, 52.3968289 ], [ 9.3986768, 52.40597039999998 ], [ 9.4117107, 52.4026236 ], [ 9.4194106, 52.3926884 ], [ 9.4167047, 52.3890717 ], [ 9.4259503, 52.368025199999984 ], [ 9.422451, 52.362656 ], [ 9.4351485, 52.364095499999983 ], [ 9.4431826, 52.36469 ], [ 9.4710305, 52.382127299999979 ], [ 9.4772486, 52.3870802 ], [ 9.4762551, 52.391168 ], [ 9.4888885, 52.4011815 ], [ 9.506169, 52.422607 ], [ 9.4907597, 52.427833899999989 ], [ 9.4875015, 52.43918 ], [ 9.4771162, 52.4460249 ], [ 9.4792548, 52.4557521 ], [ 9.4724493, 52.4551885 ], [ 9.4667731, 52.4615602 ], [ 9.4439436, 52.4651063 ], [ 9.4360565, 52.4744313 ], [ 9.4137098, 52.487137 ], [ 9.4008856, 52.4890786 ], [ 9.3885946, 52.4856768 ], [ 9.3736727, 52.4961003 ], [ 9.3608975, 52.498863399999983 ], [ 9.3057465, 52.4856172 ], [ 9.2811053, 52.4723024 ], [ 9.277887, 52.461958 ], [ 9.278929, 52.457745 ], [ 9.2729085, 52.454741 ], [ 9.2869185, 52.438517699999984 ], [ 9.2999764, 52.4377892 ], [ 9.3457666, 52.443709 ], [ 9.356924, 52.438263899999974 ], [ 9.3627309, 52.439966399999989 ], [ 9.3768552, 52.4376727 ], [ 9.3769007, 52.4352035 ], [ 9.365937, 52.4326084 ], [ 9.3663232, 52.424735799999986 ], [ 9.3484151, 52.4214869 ], [ 9.322327, 52.4054765 ], [ 9.318474, 52.3985286 ] ], [ [ 9.3846827, 52.435254699999987 ], [ 9.3849189, 52.435575399999976 ], [ 9.3852452, 52.4358036 ], [ 9.385629, 52.435916899999981 ], [ 9.3874523, 52.436140699999989 ], [ 9.3892045, 52.4356474 ], [ 9.3895625, 52.43548 ], [ 9.3898485, 52.435210199999979 ], [ 9.3900345, 52.4348637 ], [ 9.3901014, 52.4344762 ], [ 9.3900423, 52.4340874 ], [ 9.3898634, 52.4337373 ], [ 9.3895829, 52.433461699999981 ], [ 9.3892296, 52.433289 ], [ 9.3888381, 52.4332355 ], [ 9.3881684, 52.433252899999985 ], [ 9.3856709, 52.4334726 ], [ 9.3852834, 52.4335727 ], [ 9.3849494, 52.4337896 ], [ 9.3847025, 52.434102 ], [ 9.3845685, 52.434477099999988 ], [ 9.3845617, 52.434875299999987 ], [ 9.3846827, 52.435254699999987 ] ], [ [ 9.3791942, 52.435664899999985 ], [ 9.3794045, 52.435973499999974 ], [ 9.3797006, 52.4362013 ], [ 9.3800542, 52.4363271 ], [ 9.3830781, 52.4368805 ], [ 9.384141, 52.4356882 ], [ 9.384334, 52.435392 ], [ 9.3844318, 52.435053800000013 ], [ 9.3844258, 52.434701899999986 ], [ 9.3843166, 52.434367299999984 ], [ 9.3841139, 52.4340796 ], [ 9.3838355, 52.4338641 ], [ 9.3835062, 52.43374 ], [ 9.3831531, 52.4337172 ], [ 9.3802016, 52.433974199999973 ], [ 9.3801373, 52.4339824 ], [ 9.3797756, 52.4340829 ], [ 9.3794642, 52.434289099999987 ], [ 9.3792325, 52.434582099999986 ], [ 9.3791037, 52.434932699999983 ], [ 9.3790904, 52.435306 ], [ 9.3791942, 52.435664899999985 ] ] ] } }
]
}
