{
"type": "FeatureCollection",
"name": "wurmlingen",
"crs": { "type": "name", "properties": { "name": "urn:ogc:def:crs:OGC:1.3:CRS84" } },
"features": [
{ "type": "Feature", "properties": { "name": "Wurmlingen", "feature_type": "entity", "metric_roundness": 31.76, "metric_rectangularity": 49.57, "metric_mobile_fit": 23.09, "metric_aspect_ratio": 1.332, "metric_area_km2": 34.54 }, "geometry": { "type": "Polygon", "coordinates": [ [ [ 8.7573562, 47.983830499999982 ], [ 8.7789219, 47.982972899999986 ], [ 8.7916154, 47.9920167 ], [ 8.7934079, 47.998867499999989 ], [ 8.7914582, 48.0010067 ], [ 8.8038643, 48.0128944 ], [ 8.8258851, 48.020183399999986 ], [ 8.8352574, 48.01871 ], [ 8.8342109, 48.022808499999982 ], [ 8.8229273, 48.0263622 ], [ 8.8227205, 48.031487 ], [ 8.8208195, 48.030928499999987 ], [ 8.7965477, 48.024857 ], [ 8.7938991, 48.0157159 ], [ 8.7906299, 48.014094899999989 ], [ 8.776911, 48.019009 ], [ 8.7630849, 48.017628599999973 ], [ 8.7569905, 48.020332499999981 ], [ 8.7518426, 48.0093851 ], [ 8.7546699, 48.0042242 ], [ 8.7440693, 47.994041899999978 ], [ 8.7387005, 47.992446 ], [ 8.7573562, 47.983830499999982 ] ] ] } },
{ "type": "Feature", "properties": { "name": "Wurmlingen", "feature_type": "circle", "metric_roundness": 31.76, "metric_rectangularity": 49.57, "metric_mobile_fit": 23.09, "metric_aspect_ratio": 1.332, "metric_area_km2": 34.54 }, "geometry": { "type": "Polygon", "coordinates": [ [ [ 8.83932778871746, 48.007629484298967 ], [ 8.839255329357417, 48.005778166037942 ], [ 8.839038149883367, 48.00393185593289 ], [ 8.838676845569145, 48.002095615406937 ], [ 8.838172406724768, 48.000274478817161 ], [ 8.837526215982042, 47.998473439641053 ], [ 8.836740044504875, 47.996697436769246 ], [ 8.835816047134644, 47.994951340942436 ], [ 8.834756756483912, 47.993239941369879 ], [ 8.833565075994722, 47.991567932566603 ], [ 8.832244271980464, 47.989939901445581 ], [ 8.830797964673131, 47.988360314701012 ], [ 8.829230118300524, 47.986833506517435 ], [ 8.827545030220568, 47.985363666639131 ], [ 8.825747319142561, 47.983954828832999 ], [ 8.823841912467612, 47.982610859777033 ], [ 8.821834032782972, 47.981335448405659 ], [ 8.819729183547292, 47.980132095741439 ], [ 8.817533134006021, 47.979004105242076 ], [ 8.815251903378305, 47.977954573689289 ], [ 8.812891744358728, 47.976986382645656 ], [ 8.810459125979113, 47.976102190502971 ], [ 8.807960715877345, 47.975304425144998 ], [ 8.805403362021853, 47.974595277244745 ], [ 8.802794073941794, 47.973976694215651 ], [ 8.800140003514429, 47.973450374833384 ], [ 8.797448425362314, 47.973017764543698 ], [ 8.794726716914074, 47.972680051469375 ], [ 8.791982338183386, 47.972438163127812 ], [ 8.789222811321588, 47.972292763868161 ], [ 8.7864557, 47.972244253035676 ], [ 8.783688588678409, 47.972292763868161 ], [ 8.780929061816613, 47.972438163127812 ], [ 8.778184683085923, 47.972680051469375 ], [ 8.775462974637684, 47.973017764543698 ], [ 8.77277139648557, 47.973450374833384 ], [ 8.770117326058203, 47.973976694215651 ], [ 8.767508037978146, 47.974595277244745 ], [ 8.764950684122654, 47.975304425144998 ], [ 8.762452274020886, 47.976102190502971 ], [ 8.760019655641269, 47.976986382645656 ], [ 8.757659496621692, 47.977954573689289 ], [ 8.755378265993976, 47.979004105242076 ], [ 8.753182216452705, 47.980132095741439 ], [ 8.751077367217025, 47.981335448405659 ], [ 8.749069487532386, 47.982610859777033 ], [ 8.747164080857438, 47.983954828832999 ], [ 8.745366369779429, 47.985363666639131 ], [ 8.743681281699473, 47.986833506517435 ], [ 8.742113435326866, 47.988360314701012 ], [ 8.740667128019535, 47.989939901445581 ], [ 8.739346324005275, 47.991567932566603 ], [ 8.738154643516086, 47.993239941369879 ], [ 8.737095352865355, 47.994951340942436 ], [ 8.736171355495122, 47.996697436769246 ], [ 8.735385184017957, 47.998473439641053 ], [ 8.734738993275229, 48.000274478817161 ], [ 8.734234554430852, 48.002095615406937 ], [ 8.733873250116631, 48.00393185593289 ], [ 8.73365607064258, 48.005778166037942 ], [ 8.733583611282537, 48.007629484298967 ], [ 8.73365607064258, 48.009480736108792 ], [ 8.733873250116631, 48.011326847588293 ], [ 8.734234554430852, 48.013162759490562 ], [ 8.734738993275229, 48.014983441058952 ], [ 8.735385184017957, 48.016783903801311 ], [ 8.736171355495122, 48.01855921514251 ], [ 8.737095352865355, 48.020304511918432 ], [ 8.738154643516086, 48.022015013674377 ], [ 8.739346324005275, 48.023686035732005 ], [ 8.740667128019535, 48.025313001989318 ], [ 8.742113435326866, 48.026891457418991 ], [ 8.743681281699473, 48.028417080231414 ], [ 8.745366369779429, 48.029885693669492 ], [ 8.747164080857438, 48.031293277403456 ], [ 8.749069487532386, 48.032635978495179 ], [ 8.751077367217025, 48.033910121902338 ], [ 8.753182216452705, 48.035112220494426 ], [ 8.755378265993976, 48.036238984553634 ], [ 8.757659496621692, 48.037287330735381 ], [ 8.760019655641269, 48.038254390464246 ], [ 8.762452274020886, 48.039137517743356 ], [ 8.764950684122654, 48.039934296355831 ], [ 8.767508037978146, 48.040642546439621 ], [ 8.770117326058203, 48.04126033041797 ], [ 8.77277139648557, 48.041785958269784 ], [ 8.775462974637684, 48.042217992125828 ], [ 8.778184683085923, 48.042555250178864 ], [ 8.780929061816613, 48.042796809896807 ], [ 8.783688588678409, 48.042942010530972 ], [ 8.7864557, 48.042990454912278 ], [ 8.789222811321588, 48.042942010530972 ], [ 8.791982338183386, 48.042796809896807 ], [ 8.794726716914074, 48.042555250178864 ], [ 8.797448425362314, 48.042217992125828 ], [ 8.800140003514429, 48.041785958269784 ], [ 8.802794073941794, 48.04126033041797 ], [ 8.805403362021853, 48.040642546439621 ], [ 8.807960715877345, 48.039934296355831 ], [ 8.810459125979113, 48.039137517743356 ], [ 8.812891744358728, 48.038254390464246 ], [ 8.815251903378305, 48.037287330735381 ], [ 8.817533134006021, 48.036238984553634 ], [ 8.819729183547292, 48.035112220494426 ], [ 8.821834032782972, 48.033910121902338 ], [ 8.823841912467612, 48.032635978495179 ], [ 8.825747319142561, 48.031293277403456 ], [ 8.827545030220568, 48.029885693669492 ], [ 8.829230118300524, 48.028417080231414 ], [ 8.830797964673131, 48.026891457418991 ], [ 8.832244271980464, 48.025313001989318 ], [ 8.833565075994722, 48.023686035732005 ], [ 8.834756756483912, 48.022015013674377 ], [ 8.835816047134644, 48.020304511918432 ], [ 8.836740044504875, 48.01855921514251 ], [ 8.837526215982042, 48.016783903801311 ], [ 8.838172406724768, 48.014983441058952 ], [ 8.838676845569145, 48.013162759490562 ], [ 8.839038149883367, 48.011326847588293 ], [ 8.839255329357417, 48.009480736108792 ], [ 8.83932778871746, 48.007629484298967 ] ] ] } },
{ "type": "Feature", "properties": { "name": "Wurmlingen", "feature_type": "mrr", "metric_roundness": 31.76, "metric_rectangularity": 49.57, "metric_mobile_fit": 23.09, "metric_aspect_ratio": 1.332, "metric_area_km2": 34.54 }, "geometry": { "type": "Polygon", "coordinates": [ [ [ 8.838193427536096, 48.020571825176958 ], [ 8.764806370791623, 47.974014665614099 ], [ 8.726547314721532, 48.001024181947706 ], [ 8.799934371466005, 48.047556974730448 ], [ 8.838193427536096, 48.020571825176958 ] ] ] } }
]
}
