{
"type": "FeatureCollection",
"name": "uebeschi",
"crs": { "type": "name", "properties": { "name": "urn:ogc:def:crs:OGC:1.3:CRS84" } },
"features": [
{ "type": "Feature", "properties": { "name": "Uebeschi", "metric_roundness": 58.31, "metric_rectangularity": 68.17, "metric_mobile_fit": 48.33, "metric_aspect_ratio": 1.079, "metric_area_km2": 9.56 }, "geometry": { "type": "Polygon", "coordinates": [ [ [ 7.541942, 46.727332 ], [ 7.550502, 46.732356099999983 ], [ 7.566005, 46.735539 ], [ 7.568051, 46.737587499999982 ], [ 7.5658305, 46.739119 ], [ 7.5684765, 46.740348499999989 ], [ 7.5668855, 46.74277 ], [ 7.5607355, 46.742400399999987 ], [ 7.5541068, 46.748726699999985 ], [ 7.5410735, 46.752574 ], [ 7.537914, 46.7494555 ], [ 7.5384116, 46.7425326 ], [ 7.5321402, 46.73987349999998 ], [ 7.528728, 46.7344945 ], [ 7.541942, 46.727332 ] ] ] } }
]
}
