{
"type": "FeatureCollection",
"name": "evrange",
"crs": { "type": "name", "properties": { "name": "urn:ogc:def:crs:OGC:1.3:CRS84" } },
"features": [
{ "type": "Feature", "properties": { "name": "Évrange", "metric_roundness": 33.51, "metric_rectangularity": 62.98, "metric_mobile_fit": -46.78, "metric_aspect_ratio": 2.03, "metric_area_km2": 5.65 }, "geometry": { "type": "Polygon", "coordinates": [ [ [ 6.183612, 49.5050227 ], [ 6.1782645, 49.4965265 ], [ 6.184398, 49.4947932 ], [ 6.199305, 49.496814099999987 ], [ 6.216725, 49.5068435 ], [ 6.179625, 49.5070955 ], [ 6.183612, 49.5050227 ] ] ] } }
]
}
