{
"type": "FeatureCollection",
"name": "etouvelles",
"crs": { "type": "name", "properties": { "name": "urn:ogc:def:crs:OGC:1.3:CRS84" } },
"features": [
{ "type": "Feature", "properties": { "name": "Étouvelles", "metric_roundness": 41.21, "metric_rectangularity": 51.8, "metric_mobile_fit": 45.92, "metric_aspect_ratio": 1.103, "metric_area_km2": 5.89 }, "geometry": { "type": "Polygon", "coordinates": [ [ [ 3.5939675, 49.524258 ], [ 3.5925025, 49.526393 ], [ 3.590346, 49.5256525 ], [ 3.583639, 49.525676499999989 ], [ 3.578362, 49.522003 ], [ 3.572117, 49.526253 ], [ 3.568559, 49.524672499999987 ], [ 3.5736478, 49.51712689999998 ], [ 3.5645475, 49.510996 ], [ 3.5702055, 49.5076505 ], [ 3.5754675, 49.511334 ], [ 3.576855, 49.513925 ], [ 3.5909385, 49.513815 ], [ 3.5958322, 49.5177707 ], [ 3.5963975, 49.5248615 ], [ 3.5939675, 49.524258 ] ] ] } }
]
}
