{
"type": "FeatureCollection",
"name": "etroubles",
"crs": { "type": "name", "properties": { "name": "urn:ogc:def:crs:OGC:1.3:CRS84" } },
"features": [
{ "type": "Feature", "properties": { "name": "Etroubles", "metric_roundness": 39.09, "metric_rectangularity": 72.08, "metric_mobile_fit": 91.8, "metric_aspect_ratio": 0.48, "metric_area_km2": 81.99 }, "geometry": { "type": "Polygon", "coordinates": [ [ [ 7.2619837, 45.846412 ], [ 7.2546615, 45.859268499999985 ], [ 7.256847, 45.866914599999987 ], [ 7.2534594, 45.8745773 ], [ 7.2531435, 45.888465499999988 ], [ 7.2495018, 45.892201 ], [ 7.2178938, 45.888879499999973 ], [ 7.2142189, 45.883209099999988 ], [ 7.1999179, 45.8744567 ], [ 7.1997482, 45.863094199999985 ], [ 7.193669, 45.8598855 ], [ 7.1971817, 45.8515533 ], [ 7.2158539, 45.829978399999966 ], [ 7.224732, 45.8258503 ], [ 7.2122023, 45.8058982 ], [ 7.2082645, 45.7945365 ], [ 7.2335318, 45.7908234 ], [ 7.2432233, 45.8000219 ], [ 7.2513929, 45.8012368 ], [ 7.2569965, 45.80638 ], [ 7.2589687, 45.812874899999983 ], [ 7.2559478, 45.822302899999983 ], [ 7.2635865, 45.8361555 ], [ 7.2619837, 45.846412 ] ] ] } }
]
}
