{
"type": "FeatureCollection",
"name": "lycksele",
"crs": { "type": "name", "properties": { "name": "urn:ogc:def:crs:OGC:1.3:CRS84" } },
"features": [
{ "type": "Feature", "properties": { "name": "Lycksele", "feature_type": "entity", "metric_roundness": 41.35, "metric_rectangularity": 64.37, "metric_mobile_fit": 90.85, "metric_aspect_ratio": 0.654, "metric_area_km2": 32185.13 }, "geometry": { "type": "Polygon", "coordinates": [ [ [ 17.7198411, 64.5093297 ], [ 17.7222471, 64.50130129999998 ], [ 17.7361678, 64.4998641 ], [ 17.8093079, 64.520430099999984 ], [ 17.8372848, 64.502775 ], [ 17.7977168, 64.4861957 ], [ 17.7957346, 64.480669 ], [ 17.9615785, 64.416900799999979 ], [ 17.9668778, 64.4132529 ], [ 17.973243, 64.402463599999976 ], [ 18.0204366, 64.3852604 ], [ 18.0373528, 64.3874885 ], [ 18.0579751, 64.3845242 ], [ 18.1896187, 64.398022 ], [ 18.2137492, 64.3914992 ], [ 18.2470108, 64.389552900000012 ], [ 18.2615294, 64.3681195 ], [ 18.2612833, 64.3589449 ], [ 18.1970859, 64.3432286 ], [ 18.1949159, 64.340577299999978 ], [ 18.2927264, 64.2989667 ], [ 18.4025123, 64.2440262 ], [ 18.6500223, 64.1374208 ], [ 18.7878475, 64.0611955 ], [ 18.8174024, 64.066222 ], [ 18.8876419, 64.078066599999985 ], [ 18.8990724, 64.073608899999982 ], [ 18.9217512, 64.0838952 ], [ 19.0002735, 64.0971686 ], [ 19.0236432, 64.0971038 ], [ 19.0303337, 64.101579 ], [ 19.0691025, 64.108807199999987 ], [ 19.0710038, 64.111380099999977 ], [ 19.0636149, 64.1399357 ], [ 19.1002062, 64.130229 ], [ 19.1137285, 64.121156199999987 ], [ 19.1606215, 64.132637 ], [ 19.1342167, 64.1628272 ], [ 19.1284641, 64.1779024 ], [ 19.1662378, 64.1833352 ], [ 19.1720179, 64.1857573 ], [ 19.1716, 64.188255399999989 ], [ 19.1132879, 64.2197619 ], [ 19.0771498, 64.2281311 ], [ 19.0379202, 64.2249664 ], [ 18.9744886, 64.4280115 ], [ 19.2867985, 64.778084 ], [ 19.3111915, 64.8042375 ], [ 19.119137, 64.866928 ], [ 18.9753475, 64.913727 ], [ 18.864485, 64.949356 ], [ 18.756975, 64.984153499999977 ], [ 18.5963955, 65.062698499999982 ], [ 18.595566, 65.065872 ], [ 18.615782, 65.072647 ], [ 18.6124515, 65.0771715 ], [ 18.597647, 65.0778045 ], [ 18.592268, 65.081306499999982 ], [ 18.5613995, 65.0830085 ], [ 18.5574075, 65.0814745 ], [ 18.465004, 65.1256025 ], [ 18.3067835, 65.201881499999985 ], [ 18.167841, 65.2425005 ], [ 17.9781586, 65.066988399999985 ], [ 18.0160821, 65.0639678 ], [ 18.0413606, 65.049098499999985 ], [ 17.983993, 65.0364779 ], [ 17.9513285, 65.043579 ], [ 17.9001386, 64.994452799999976 ], [ 17.9113888, 64.9189557 ], [ 17.7452435, 64.8371182 ], [ 17.7599691, 64.824133 ], [ 17.7592042, 64.822089 ], [ 17.5578905, 64.732650499999977 ], [ 17.5062831, 64.7083454 ], [ 17.5487181, 64.669750599999986 ], [ 17.5686346, 64.672260800000018 ], [ 17.5888934, 64.6790659 ], [ 17.6537437, 64.666844099999977 ], [ 17.6545147, 64.6381565 ], [ 17.678445, 64.624580699999981 ], [ 17.6217776, 64.6016084 ], [ 17.7076625, 64.519920499999984 ], [ 17.7198411, 64.5093297 ] ] ] } },
{ "type": "Feature", "properties": { "name": "Lycksele", "feature_type": "circle", "metric_roundness": 41.35, "metric_rectangularity": 64.37, "metric_mobile_fit": 90.85, "metric_aspect_ratio": 0.654, "metric_area_km2": 32185.13 }, "geometry": { "type": "Polygon", "coordinates": [ [ [ 19.908378372543726, 64.659828662522415 ], [ 19.90644000950163, 64.628128894324604 ], [ 19.900630233293704, 64.596479139316358 ], [ 19.890964968112709, 64.564966568955313 ], [ 19.87747070577867, 64.533678277573827 ], [ 19.860184433126683, 64.502701036186608 ], [ 19.839153530628522, 64.472121043958921 ], [ 19.814435642526099, 64.442023678124173 ], [ 19.786098518832588, 64.412493243179327 ], [ 19.754219829634334, 64.383612720222146 ], [ 19.718886952202574, 64.3554635173262 ], [ 19.680196731498391, 64.328125221876704 ], [ 19.638255214727405, 64.301675355811838 ], [ 19.593177360671778, 64.27618913473178 ], [ 19.545086724596143, 64.251739231847282 ], [ 19.494115119591246, 64.22839554774545 ], [ 19.44040225528342, 64.206224986947873 ], [ 19.384095354900182, 64.185291242228629 ], [ 19.325348751741657, 64.165654587644653 ], [ 19.264323466163663, 64.147371681208639 ], [ 19.201186764232151, 64.130495378107668 ], [ 19.136111699258549, 64.115074555334203 ], [ 19.06927663747263, 64.101153948555421 ], [ 19.000864769133106, 64.088774001998658 ], [ 18.931063606415833, 64.077970732076878 ], [ 18.860064469456013, 64.068775605418352 ], [ 18.788061961952959, 64.061215431900052 ], [ 18.715253437774905, 64.055312273214284 ], [ 18.64183846002576, 64.051083367424695 ], [ 18.568018254056526, 64.048541069889197 ], [ 18.49399515592058, 64.047692810847863 ], [ 18.419972057784637, 64.048541069889197 ], [ 18.346151851815403, 64.051083367424695 ], [ 18.272736874066258, 64.055312273214284 ], [ 18.1999283498882, 64.061215431900052 ], [ 18.127925842385146, 64.068775605418352 ], [ 18.056926705425326, 64.077970732076878 ], [ 17.987125542708057, 64.088774001998658 ], [ 17.918713674368526, 64.101153948555421 ], [ 17.85187861258261, 64.115074555334203 ], [ 17.786803547609008, 64.130495378107668 ], [ 17.723666845677499, 64.147371681208639 ], [ 17.662641560099505, 64.165654587644653 ], [ 17.603894956940973, 64.185291242228629 ], [ 17.547588056557739, 64.206224986947873 ], [ 17.493875192249909, 64.22839554774545 ], [ 17.442903587245013, 64.251739231847282 ], [ 17.394812951169381, 64.27618913473178 ], [ 17.349735097113751, 64.301675355811838 ], [ 17.307793580342768, 64.328125221876704 ], [ 17.269103359638585, 64.3554635173262 ], [ 17.233770482206825, 64.383612720222146 ], [ 17.201891793008571, 64.412493243179327 ], [ 17.173554669315056, 64.442023678124173 ], [ 17.148836781212637, 64.472121043958921 ], [ 17.127805878714476, 64.502701036186608 ], [ 17.110519606062486, 64.533678277573827 ], [ 17.097025343728451, 64.564966568955313 ], [ 17.087360078547452, 64.596479139316358 ], [ 17.081550302339529, 64.628128894324604 ], [ 17.079611939297433, 64.659828662522415 ], [ 17.081550302339529, 64.691491438433687 ], [ 17.087360078547452, 64.723030621883581 ], [ 17.097025343728451, 64.754360252877589 ], [ 17.110519606062486, 64.785395241434415 ], [ 17.127805878714476, 64.816051591817001 ], [ 17.148836781212637, 64.84624662065616 ], [ 17.173554669315056, 64.875899168511026 ], [ 17.201891793008571, 64.904929804460451 ], [ 17.233770482206825, 64.933261023367265 ], [ 17.269103359638585, 64.960817435504964 ], [ 17.307793580342768, 64.987525948281117 ], [ 17.349735097113751, 65.013315939835422 ], [ 17.394812951169381, 65.038119424329977 ], [ 17.442903587245013, 65.061871208788048 ], [ 17.493875192249909, 65.084509041372243 ], [ 17.547588056557739, 65.105973751024024 ], [ 17.603894956940973, 65.126209378416107 ], [ 17.662641560099505, 65.145163298193239 ], [ 17.723666845677496, 65.16278633249901 ], [ 17.786803547609004, 65.17903285580455 ], [ 17.85187861258261, 65.193860891069505 ], [ 17.918713674368526, 65.207232197277506 ], [ 17.987125542708053, 65.219112348396166 ], [ 18.056926705425326, 65.229470803817662 ], [ 18.127925842385146, 65.238280970337399 ], [ 18.199928349888197, 65.245520255728991 ], [ 18.272736874066258, 65.251170113970403 ], [ 18.346151851815403, 65.255216082171628 ], [ 18.419972057784637, 65.257647809248041 ], [ 18.49399515592058, 65.258459076374677 ], [ 18.568018254056522, 65.257647809248041 ], [ 18.641838460025756, 65.255216082171628 ], [ 18.715253437774905, 65.251170113970403 ], [ 18.788061961952959, 65.245520255728991 ], [ 18.860064469456013, 65.238280970337399 ], [ 18.931063606415833, 65.229470803817662 ], [ 19.000864769133099, 65.219112348396166 ], [ 19.06927663747263, 65.207232197277506 ], [ 19.136111699258549, 65.193860891069505 ], [ 19.201186764232151, 65.17903285580455 ], [ 19.264323466163656, 65.16278633249901 ], [ 19.325348751741657, 65.145163298193239 ], [ 19.384095354900182, 65.126209378416107 ], [ 19.440402255283416, 65.105973751024024 ], [ 19.494115119591246, 65.084509041372243 ], [ 19.545086724596143, 65.061871208788048 ], [ 19.593177360671778, 65.038119424329977 ], [ 19.638255214727405, 65.013315939835422 ], [ 19.680196731498388, 64.987525948281117 ], [ 19.718886952202574, 64.960817435504964 ], [ 19.754219829634334, 64.933261023367265 ], [ 19.786098518832588, 64.904929804460451 ], [ 19.814435642526099, 64.875899168511026 ], [ 19.839153530628522, 64.84624662065616 ], [ 19.860184433126683, 64.816051591817001 ], [ 19.87747070577867, 64.785395241434415 ], [ 19.890964968112709, 64.754360252877589 ], [ 19.900630233293704, 64.723030621883581 ], [ 19.90644000950163, 64.691491438433687 ], [ 19.908378372543726, 64.659828662522415 ] ] ] } },
{ "type": "Feature", "properties": { "name": "Lycksele", "feature_type": "mrr", "metric_roundness": 41.35, "metric_rectangularity": 64.37, "metric_mobile_fit": 90.85, "metric_aspect_ratio": 0.654, "metric_area_km2": 32185.13 }, "geometry": { "type": "Polygon", "coordinates": [ [ [ 18.90177252366615, 64.01372676393828 ], [ 17.084322686694055, 64.761428305097951 ], [ 18.192934142917583, 65.253539221878867 ], [ 20.010383979889681, 64.519447529800431 ], [ 18.90177252366615, 64.01372676393828 ] ] ] } }
]
}
