{
"type": "FeatureCollection",
"name": "lythrodontas",
"crs": { "type": "name", "properties": { "name": "urn:ogc:def:crs:OGC:1.3:CRS84" } },
"features": [
{ "type": "Feature", "properties": { "name": "Λυθροδόντας", "feature_type": "entity", "metric_roundness": 48.28, "metric_rectangularity": 70.47, "metric_mobile_fit": 77.91, "metric_aspect_ratio": 0.783, "metric_area_km2": 63.32 }, "geometry": { "type": "Polygon", "coordinates": [ [ [ 33.2945852, 34.910779900000016 ], [ 33.302915, 34.917749 ], [ 33.3070434, 34.9253913 ], [ 33.3060548, 34.929392499999985 ], [ 33.324765500000012, 34.945248 ], [ 33.3199227, 34.9575016 ], [ 33.3259426, 34.972366199999989 ], [ 33.31052, 34.982059 ], [ 33.3074667, 34.979010399999986 ], [ 33.2954945, 34.984644 ], [ 33.2888906, 34.9779789 ], [ 33.2707407, 34.9701927 ], [ 33.248887499999988, 34.945853499999984 ], [ 33.2517324, 34.9414959 ], [ 33.259025099999988, 34.939538099999986 ], [ 33.2611615, 34.9322521 ], [ 33.2453336, 34.9344693 ], [ 33.2406214, 34.9230431 ], [ 33.2640075, 34.9138421 ], [ 33.2625665, 34.8953675 ], [ 33.2945852, 34.910779900000016 ] ] ] } },
{ "type": "Feature", "properties": { "name": "Λυθροδόντας", "feature_type": "circle", "metric_roundness": 48.28, "metric_rectangularity": 70.47, "metric_mobile_fit": 77.91, "metric_aspect_ratio": 0.783, "metric_area_km2": 63.32 }, "geometry": { "type": "Polygon", "coordinates": [ [ [ 33.344601304233869, 34.938724704555149 ], [ 33.344521737688325, 34.936233791307778 ], [ 33.344283256138063, 34.933749630141833 ], [ 33.343886513244435, 34.931279030901578 ], [ 33.343332596452136, 34.9288287668668 ], [ 33.342623024008589, 34.926405556170792 ], [ 33.341759740802544, 34.924016043363075 ], [ 33.34074511303325, 34.921666781167616 ], [ 33.339581921724921, 34.91936421248667 ], [ 33.338273355104057, 34.917114652700413 ], [ 33.336822999860829, 34.914924272310813 ], [ 33.335234831318125, 34.912799079978136 ], [ 33.333513202535542, 34.910744905997092 ], [ 33.331662832377901, 34.908767386258468 ], [ 33.329688792581187, 34.906871946740793 ], [ 33.32759649385126, 34.905063788575248 ], [ 33.325391671033522, 34.903347873725622 ], [ 33.323080367394049, 34.90172891132287 ], [ 33.320668918055468, 34.900211344692849 ], [ 33.318163932632785, 34.898799339113275 ], [ 33.315572277116935, 34.897496770334165 ], [ 33.312901055055541, 34.896307213894076 ], [ 33.310157588082596, 34.8952339352618 ], [ 33.30734939585038, 34.894279880831533 ], [ 33.304484175418608, 34.893447669796402 ], [ 33.301569780157322, 34.892739586923653 ], [ 33.298614198221351, 34.892157576251215 ], [ 33.29562553065535, 34.891703235723945 ], [ 33.292611969189373, 34.891377812784235 ], [ 33.289581773785933, 34.891182200929585 ], [ 33.28654325, 34.891116937246771 ], [ 33.283504726214062, 34.891182200929585 ], [ 33.280474530810622, 34.891377812784235 ], [ 33.277460969344645, 34.891703235723945 ], [ 33.274472301778644, 34.892157576251215 ], [ 33.27151671984268, 34.892739586923653 ], [ 33.268602324581387, 34.893447669796402 ], [ 33.265737104149608, 34.894279880831533 ], [ 33.262928911917399, 34.8952339352618 ], [ 33.260185444944455, 34.896307213894076 ], [ 33.25751422288306, 34.897496770334165 ], [ 33.254922567367203, 34.898799339113275 ], [ 33.252417581944528, 34.900211344692849 ], [ 33.25000613260594, 34.90172891132287 ], [ 33.247694828966466, 34.903347873725622 ], [ 33.245490006148728, 34.905063788575248 ], [ 33.243397707418808, 34.906871946740793 ], [ 33.241423667622087, 34.908767386258468 ], [ 33.239573297464453, 34.910744905997092 ], [ 33.237851668681863, 34.912799079978136 ], [ 33.236263500139167, 34.914924272310813 ], [ 33.234813144895931, 34.917114652700413 ], [ 33.233504578275074, 34.91936421248667 ], [ 33.232341386966738, 34.921666781167616 ], [ 33.231326759197458, 34.924016043363075 ], [ 33.230463475991407, 34.926405556170792 ], [ 33.229753903547859, 34.9288287668668 ], [ 33.22919998675556, 34.931279030901578 ], [ 33.228803243861933, 34.933749630141833 ], [ 33.22856476231167, 34.936233791307778 ], [ 33.228485195766126, 34.938724704555149 ], [ 33.22856476231167, 34.941215542150715 ], [ 33.228803243861933, 34.94369947719013 ], [ 33.22919998675556, 34.946169702306605 ], [ 33.229753903547859, 34.948619448319356 ], [ 33.230463475991407, 34.951042002770627 ], [ 33.231326759197458, 34.953430728300852 ], [ 33.232341386966738, 34.955779080811681 ], [ 33.233504578275074, 34.958080627367522 ], [ 33.234813144895931, 34.960329063786851 ], [ 33.236263500139167, 34.962518231875542 ], [ 33.237851668681863, 34.964642136255556 ], [ 33.239573297464453, 34.966694960743254 ], [ 33.241423667622087, 34.968671084233186 ], [ 33.243397707418808, 34.970565096044446 ], [ 33.245490006148728, 34.972371810688074 ], [ 33.247694828966466, 34.974086282015826 ], [ 33.25000613260594, 34.975703816712269 ], [ 33.252417581944528, 34.977219987093804 ], [ 33.254922567367203, 34.978630643180288 ], [ 33.25751422288306, 34.979931924007019 ], [ 33.260185444944455, 34.981120268146533 ], [ 33.262928911917399, 34.982192423412243 ], [ 33.265737104149608, 34.983145455717796 ], [ 33.268602324581387, 34.983976757068653 ], [ 33.27151671984268, 34.984684052664278 ], [ 33.274472301778644, 34.985265407092278 ], [ 33.277460969344645, 34.985719229597763 ], [ 33.280474530810622, 34.986044278413885 ], [ 33.283504726214062, 34.986239664142118 ], [ 33.28654325, 34.98630485217317 ], [ 33.289581773785933, 34.986239664142118 ], [ 33.292611969189373, 34.986044278413885 ], [ 33.29562553065535, 34.985719229597763 ], [ 33.298614198221351, 34.985265407092278 ], [ 33.301569780157322, 34.984684052664278 ], [ 33.304484175418608, 34.983976757068653 ], [ 33.30734939585038, 34.983145455717796 ], [ 33.310157588082596, 34.982192423412243 ], [ 33.312901055055541, 34.981120268146533 ], [ 33.315572277116935, 34.979931924007019 ], [ 33.318163932632785, 34.978630643180288 ], [ 33.320668918055468, 34.977219987093804 ], [ 33.323080367394049, 34.975703816712269 ], [ 33.325391671033522, 34.974086282015826 ], [ 33.32759649385126, 34.972371810688074 ], [ 33.329688792581187, 34.970565096044446 ], [ 33.331662832377901, 34.968671084233186 ], [ 33.333513202535542, 34.966694960743254 ], [ 33.335234831318125, 34.964642136255556 ], [ 33.336822999860829, 34.962518231875542 ], [ 33.338273355104057, 34.960329063786851 ], [ 33.339581921724921, 34.958080627367522 ], [ 33.34074511303325, 34.955779080811681 ], [ 33.341759740802544, 34.953430728300852 ], [ 33.342623024008589, 34.951042002770627 ], [ 33.343332596452136, 34.948619448319356 ], [ 33.343886513244435, 34.946169702306605 ], [ 33.344283256138063, 34.94369947719013 ], [ 33.344521737688325, 34.941215542150715 ], [ 33.344601304233869, 34.938724704555149 ] ] ] } },
{ "type": "Feature", "properties": { "name": "Λυθροδόντας", "feature_type": "mrr", "metric_roundness": 48.28, "metric_rectangularity": 70.47, "metric_mobile_fit": 77.91, "metric_aspect_ratio": 0.783, "metric_area_km2": 63.32 }, "geometry": { "type": "Polygon", "coordinates": [ [ [ 33.224299864415137, 34.918460159494465 ], [ 33.291627477960922, 34.993448783880694 ], [ 33.343040890467201, 34.962449347451802 ], [ 33.275713276921415, 34.887432358699805 ], [ 33.224299864415137, 34.918460159494465 ] ] ] } }
]
}
