{
"type": "FeatureCollection",
"name": "lebring_sankt_margarethen",
"crs": { "type": "name", "properties": { "name": "urn:ogc:def:crs:OGC:1.3:CRS84" } },
"features": [
{ "type": "Feature", "properties": { "name": "Lebring-Sankt Margarethen", "feature_type": "entity", "metric_roundness": 38.22, "metric_rectangularity": 60.25, "metric_mobile_fit": 79.62, "metric_aspect_ratio": 0.766, "metric_area_km2": 16.25 }, "geometry": { "type": "Polygon", "coordinates": [ [ [ 15.52092555283182, 46.846596499517752 ], [ 15.520612035732102, 46.8468882611974 ], [ 15.520497303687829, 46.847024058289641 ], [ 15.52046527262895, 46.847061942817426 ], [ 15.520371903976681, 46.847078959045234 ], [ 15.520358490156216, 46.84708137852698 ], [ 15.520311476229258, 46.847089847966835 ], [ 15.520318233622062, 46.847107450108531 ], [ 15.520348942887544, 46.847187599070558 ], [ 15.52048016380918, 46.847475897993782 ], [ 15.520514053053342, 46.847550404633573 ], [ 15.520560264966335, 46.84763745511507 ], [ 15.520610106892914, 46.847736227233113 ], [ 15.520639441696261, 46.847786068082847 ], [ 15.520694014400373, 46.847878627831612 ], [ 15.52078013280094, 46.847975798789932 ], [ 15.520973844034209, 46.848194659330034 ], [ 15.521000389580573, 46.848224480948737 ], [ 15.52109936187375, 46.848337515733554 ], [ 15.520288469339123, 46.848648698943052 ], [ 15.519813121865042, 46.848865812547906 ], [ 15.519222308268843, 46.849175527371258 ], [ 15.519163969087391, 46.849208608668128 ], [ 15.518524096500331, 46.849569944606323 ], [ 15.518180279797752, 46.849763448913279 ], [ 15.518037932276412, 46.849843607767227 ], [ 15.51799248962122, 46.849868068286789 ], [ 15.518011691989065, 46.8499748138914 ], [ 15.518023619868456, 46.850041733844456 ], [ 15.518030792565845, 46.850181476545217 ], [ 15.518046350043814, 46.850480921575425 ], [ 15.518052639463027, 46.850602318551189 ], [ 15.518061428872409, 46.850663088133679 ], [ 15.518077911373904, 46.850777087313304 ], [ 15.51813960408054, 46.850944132139631 ], [ 15.518161586918501, 46.851003476922607 ], [ 15.518176053846791, 46.851042713693566 ], [ 15.518343763771437, 46.85135380441654 ], [ 15.518213955800796, 46.851563881063107 ], [ 15.518151576768297, 46.851664909996963 ], [ 15.517939210399163, 46.852008719486811 ], [ 15.517851162339008, 46.852158940911593 ], [ 15.51763593651898, 46.852458698280643 ], [ 15.517573617253126, 46.852545233517134 ], [ 15.517471297734263, 46.852686638581453 ], [ 15.517359289689908, 46.852841372429616 ], [ 15.517136647467211, 46.853149193012662 ], [ 15.517053942012312, 46.853263395274389 ], [ 15.516999164493081, 46.853345103986292 ], [ 15.516907543208324, 46.85348189147377 ], [ 15.516667782583234, 46.853842789140607 ], [ 15.516645164502171, 46.853876800378963 ], [ 15.516635160219781, 46.853892025570353 ], [ 15.516429171337368, 46.854199793494608 ], [ 15.516314452479415, 46.854387793463943 ], [ 15.516263233948878, 46.854498777570093 ], [ 15.516233010289506, 46.854600175474573 ], [ 15.516142927849224, 46.854902737537103 ], [ 15.516122349008208, 46.854922487201506 ], [ 15.516080055497998, 46.854963088578558 ], [ 15.516047987663912, 46.854993861350856 ], [ 15.515427959244091, 46.855989300809064 ], [ 15.515410111811164, 46.856018089053954 ], [ 15.51540087872149, 46.856032939205342 ], [ 15.515395845638524, 46.856041407463977 ], [ 15.5153762303785, 46.85607509050368 ], [ 15.515345399037521, 46.856120061362184 ], [ 15.515221268050754, 46.856299510160255 ], [ 15.515131603808296, 46.856420235915031 ], [ 15.515001160202392, 46.856592965064713 ], [ 15.514918759366866, 46.856702028945151 ], [ 15.514773483910398, 46.856964426994004 ], [ 15.514740003365695, 46.857024841018891 ], [ 15.514713412125573, 46.857106095445694 ], [ 15.514594203916683, 46.857284098428906 ], [ 15.514536204613405, 46.857370638587682 ], [ 15.514516666443551, 46.857399819299921 ], [ 15.514449017834714, 46.857500677415601 ], [ 15.514400200518084, 46.857539063426437 ], [ 15.514171357364054, 46.857718727744441 ], [ 15.514154442064561, 46.857741466911023 ], [ 15.514118140006758, 46.857790683390874 ], [ 15.5141106815793, 46.857800818542337 ], [ 15.514081710445293, 46.857839992327079 ], [ 15.513954264646014, 46.858012392364216 ], [ 15.513904406528129, 46.858079872542596 ], [ 15.513581765454314, 46.858269893268471 ], [ 15.513578451144296, 46.858278688394414 ], [ 15.513556372127443, 46.858338792468622 ], [ 15.513542663982014, 46.858375781919676 ], [ 15.513506531177921, 46.858474052261712 ], [ 15.513477342999867, 46.858552835978209 ], [ 15.513471201983535, 46.858569516699241 ], [ 15.513452097066086, 46.858660618126365 ], [ 15.513417701952141, 46.858846258042888 ], [ 15.513344685059312, 46.859095020883572 ], [ 15.513315421246338, 46.859194419085703 ], [ 15.513286517566947, 46.859293000223623 ], [ 15.513273147573251, 46.859338264361853 ], [ 15.513241822152823, 46.859377663258542 ], [ 15.51311715542073, 46.859460985430601 ], [ 15.513155817910148, 46.859485444883283 ], [ 15.513122213298518, 46.859562153190232 ], [ 15.513106373456631, 46.859598373494606 ], [ 15.51300375397116, 46.859832493679448 ], [ 15.512955873646192, 46.859941971592697 ], [ 15.512882666295155, 46.860109185557498 ], [ 15.512847174034361, 46.860229586623511 ], [ 15.512826306961156, 46.860300108757208 ], [ 15.512805909137256, 46.860369271652225 ], [ 15.512790239772642, 46.860422501163093 ], [ 15.512776534572183, 46.860469211897289 ], [ 15.512761432465309, 46.860520270162034 ], [ 15.512758206187495, 46.860531223887172 ], [ 15.51273712078182, 46.860602830364037 ], [ 15.512728129320205, 46.86063324794344 ], [ 15.512714268463766, 46.860682572053918 ], [ 15.51269504679718, 46.86075162227251 ], [ 15.51265818887995, 46.86088357126939 ], [ 15.512639865223615, 46.860948913641373 ], [ 15.512618584796542, 46.861025384569558 ], [ 15.512599013654661, 46.861095521654953 ], [ 15.512584981092557, 46.861108573635754 ], [ 15.512548953001282, 46.861142121933668 ], [ 15.512508005926005, 46.861180535599146 ], [ 15.512503450933092, 46.86118467386617 ], [ 15.51247068375924, 46.861346068466204 ], [ 15.51233424926488, 46.861626295477265 ], [ 15.512304234320901, 46.861713826042276 ], [ 15.512296368455688, 46.861736480764726 ], [ 15.512211576292785, 46.861983128956986 ], [ 15.51200677128911, 46.8623148085845 ], [ 15.51179335646373, 46.862692740302656 ], [ 15.511770715679303, 46.862732781776963 ], [ 15.511445798602727, 46.863307736839545 ], [ 15.51073576223944, 46.864182910389367 ], [ 15.510695463342925, 46.864259746581098 ], [ 15.510348238053066, 46.864870592318994 ], [ 15.510275967257918, 46.865000070721571 ], [ 15.510131420938745, 46.865258937446598 ], [ 15.509895116704646, 46.865690773056322 ], [ 15.509843096412254, 46.865766664020519 ], [ 15.509739625327365, 46.865861726512641 ], [ 15.509377163581293, 46.86619328027642 ], [ 15.509339905116914, 46.866245033789177 ], [ 15.50933630048551, 46.866249963774465 ], [ 15.509039675214057, 46.866660813196539 ], [ 15.508992224649646, 46.866726534439891 ], [ 15.508957696240353, 46.866774454802645 ], [ 15.509145067677078, 46.866879410944435 ], [ 15.509133126997559, 46.866901963674138 ], [ 15.508371605098869, 46.868344023683449 ], [ 15.509275466268464, 46.868391289847317 ], [ 15.509698919445714, 46.868524203649585 ], [ 15.509796240338904, 46.868554738109992 ], [ 15.509859536233659, 46.86857485478852 ], [ 15.51047163109593, 46.868766429301736 ], [ 15.510975055862636, 46.868839202277279 ], [ 15.511390769890214, 46.868882155300675 ], [ 15.51173851306401, 46.869079527134659 ], [ 15.512350684471395, 46.869465159246346 ], [ 15.513345285730871, 46.869416763356988 ], [ 15.513572562171476, 46.86952139442419 ], [ 15.514188995164536, 46.869805489700298 ], [ 15.51448806850212, 46.869862019360674 ], [ 15.515171259104232, 46.870195951403538 ], [ 15.515553267659774, 46.870287245956725 ], [ 15.515919480300276, 46.870268487047404 ], [ 15.516396178133244, 46.870111316688011 ], [ 15.51652165578443, 46.870021674689333 ], [ 15.517209695827532, 46.869798047013425 ], [ 15.517443473084001, 46.869865729567877 ], [ 15.517760326495772, 46.869990858190327 ], [ 15.517873626086878, 46.870036379961782 ], [ 15.517933679251982, 46.870060515373048 ], [ 15.518493107985114, 46.870285288247445 ], [ 15.51864112169322, 46.870466690166502 ], [ 15.518782437281745, 46.870676755496518 ], [ 15.51872898944521, 46.871079157758501 ], [ 15.518418802585481, 46.871574277067801 ], [ 15.518600646571027, 46.871700388104038 ], [ 15.518816904438516, 46.871839876906591 ], [ 15.519044390646194, 46.871984279399527 ], [ 15.519268000370186, 46.87213973794843 ], [ 15.519477261840555, 46.872303754304347 ], [ 15.519634741991794, 46.872498114372206 ], [ 15.51966169321973, 46.872563124057571 ], [ 15.520194850089018, 46.872719445850862 ], [ 15.520688235888423, 46.872783009065799 ], [ 15.521147786794534, 46.872780163534465 ], [ 15.522913615109934, 46.872722814770952 ], [ 15.523321846532596, 46.872707270466712 ], [ 15.52418037585983, 46.872674553566853 ], [ 15.52602963159622, 46.872816903306031 ], [ 15.526173819662819, 46.872828063796959 ], [ 15.526638210121538, 46.872875780129029 ], [ 15.527145347432906, 46.872928787503767 ], [ 15.527183874284628, 46.872933622078833 ], [ 15.527374279017785, 46.872957837951006 ], [ 15.527443766830975, 46.872940928370305 ], [ 15.527527082362575, 46.872920663373101 ], [ 15.527604653785824, 46.872901796802267 ], [ 15.527908192461883, 46.872927321351462 ], [ 15.528244680858871, 46.873010895633087 ], [ 15.528324198267839, 46.873030651853 ], [ 15.528391024097072, 46.873047251471476 ], [ 15.528524301974006, 46.873080295812287 ], [ 15.528744329427859, 46.873097094173644 ], [ 15.528791599443185, 46.873100678557215 ], [ 15.528820860445647, 46.87310362187668 ], [ 15.529242504014345, 46.873123621837571 ], [ 15.529316214952638, 46.872434575692964 ], [ 15.529334104915705, 46.871757413544877 ], [ 15.529247222626195, 46.870732488556406 ], [ 15.529158223811109, 46.870203761738935 ], [ 15.529160114355717, 46.869631956213588 ], [ 15.529161232236941, 46.869302483334778 ], [ 15.529168746538948, 46.869230056401513 ], [ 15.529210930453932, 46.868858830888819 ], [ 15.529371020020346, 46.868561920930226 ], [ 15.529450595364528, 46.868410054425368 ], [ 15.529543273119238, 46.868232189753535 ], [ 15.529586323081466, 46.868149442121478 ], [ 15.529597690020791, 46.868125908046842 ], [ 15.529625625402225, 46.868068117362839 ], [ 15.529751399439844, 46.867808057928613 ], [ 15.529769182701585, 46.867771437370159 ], [ 15.529811998289201, 46.867683023302249 ], [ 15.529925369576667, 46.867446877889542 ], [ 15.530022925400859, 46.86724416429081 ], [ 15.530141787115234, 46.866838865797462 ], [ 15.530962807721826, 46.865310789818437 ], [ 15.531092707454542, 46.865147863757699 ], [ 15.531418872285798, 46.864738360074988 ], [ 15.531574507375547, 46.864588525974774 ], [ 15.531580165922618, 46.864585715705715 ], [ 15.531719167558505, 46.864516226793405 ], [ 15.53193352083048, 46.864409089057489 ], [ 15.532069807057498, 46.864315168590274 ], [ 15.532303211851252, 46.864154551888859 ], [ 15.532377799623797, 46.864104765865228 ], [ 15.532698466182453, 46.863889885430446 ], [ 15.53298071912759, 46.863698253769634 ], [ 15.533276574904342, 46.863524629956871 ], [ 15.533473300501564, 46.863397578464024 ], [ 15.533786695450802, 46.863210200365607 ], [ 15.534206557494281, 46.862957022054239 ], [ 15.534375620520194, 46.862856160604828 ], [ 15.534596651404474, 46.862720353312191 ], [ 15.5349125170666, 46.862526262868286 ], [ 15.534972668143327, 46.862489267705293 ], [ 15.534977277259596, 46.862486477663303 ], [ 15.535252784120184, 46.862265356545613 ], [ 15.53530905218776, 46.862220155398091 ], [ 15.535451428958229, 46.862105588968319 ], [ 15.535513370454089, 46.862019861007575 ], [ 15.535552965552327, 46.861964992415395 ], [ 15.535642590135328, 46.861841010027888 ], [ 15.535674741236713, 46.861796547788153 ], [ 15.53575501458239, 46.861659065023751 ], [ 15.535786749017619, 46.861604529263055 ], [ 15.535844258303174, 46.86144336540039 ], [ 15.535861323061196, 46.861395866025546 ], [ 15.535866145160064, 46.861382360112451 ], [ 15.535838900164444, 46.861120138633289 ], [ 15.535833912521587, 46.861075678623912 ], [ 15.535790643974853, 46.860682978200948 ], [ 15.535777276898907, 46.860562799217284 ], [ 15.535775143911263, 46.860542947569932 ], [ 15.53577084272316, 46.860496043824838 ], [ 15.535841536582176, 46.859977717209979 ], [ 15.53585156997551, 46.8599029902879 ], [ 15.535905886225851, 46.85970273229637 ], [ 15.535933498344381, 46.859612000940132 ], [ 15.535943817351358, 46.859375963011736 ], [ 15.536228292485077, 46.859311919498175 ], [ 15.536730028038013, 46.859199090518423 ], [ 15.536403411189969, 46.858355081807574 ], [ 15.53638107670781, 46.858303668195404 ], [ 15.536345618503262, 46.858230006377795 ], [ 15.536374152479329, 46.858145737973679 ], [ 15.536385962549147, 46.858114003207675 ], [ 15.536539132301515, 46.857702268270046 ], [ 15.536546210788359, 46.857683047516765 ], [ 15.53661336223769, 46.857501352308745 ], [ 15.536740330629739, 46.85715736752784 ], [ 15.536743153783737, 46.857149481349637 ], [ 15.536783935080532, 46.857044091176085 ], [ 15.536705454330187, 46.856469527510768 ], [ 15.536775733488112, 46.856192176203962 ], [ 15.537054698237347, 46.855674925869579 ], [ 15.537124858604246, 46.855540699228378 ], [ 15.537134378443055, 46.855523411221711 ], [ 15.537243792898112, 46.855323070077489 ], [ 15.53725549407242, 46.855301418914088 ], [ 15.537259643041631, 46.855293866968253 ], [ 15.53732815942336, 46.85516750342294 ], [ 15.537354840273867, 46.855120986753683 ], [ 15.53752876383516, 46.854808491931465 ], [ 15.537827985167814, 46.854270591842479 ], [ 15.538220382877562, 46.853565160002915 ], [ 15.538110919428734, 46.853542177809622 ], [ 15.538126624609097, 46.853519008338871 ], [ 15.538161107883537, 46.853467658761488 ], [ 15.53817866423473, 46.853441662789436 ], [ 15.538258392219147, 46.853240728471683 ], [ 15.538481818852739, 46.852834283110887 ], [ 15.538660118059983, 46.852523231306641 ], [ 15.538894152905971, 46.852106946847016 ], [ 15.539101588048707, 46.851710623188467 ], [ 15.53932360532648, 46.851286290546639 ], [ 15.53946592269971, 46.851044439304054 ], [ 15.539598166396688, 46.850819166782692 ], [ 15.53968464905372, 46.850778415124459 ], [ 15.539889912803798, 46.850681609741464 ], [ 15.540264273557543, 46.850504995467531 ], [ 15.540478668103367, 46.850403780302557 ], [ 15.540631202290847, 46.850320063469702 ], [ 15.54077629625044, 46.850240452131274 ], [ 15.541008891344859, 46.850109896407638 ], [ 15.541320554474529, 46.849804070362964 ], [ 15.541437436510373, 46.849730769295427 ], [ 15.542113520623774, 46.849316025999023 ], [ 15.542408733845596, 46.849088380156545 ], [ 15.542572599477046, 46.84896168261966 ], [ 15.542778424027986, 46.848802750886669 ], [ 15.542819739391389, 46.848770799529952 ], [ 15.542823425520163, 46.848767937138611 ], [ 15.542946202082147, 46.848675526343371 ], [ 15.543291997085456, 46.84841493563038 ], [ 15.543623932340408, 46.848165056083864 ], [ 15.543767439980265, 46.848056937114137 ], [ 15.543953822975089, 46.8479165656492 ], [ 15.544022010095336, 46.847865096024002 ], [ 15.544100382199295, 46.847806136279395 ], [ 15.544160473948647, 46.847761935804009 ], [ 15.544218067390355, 46.847717604059113 ], [ 15.54427531224232, 46.847674359264765 ], [ 15.544336632513092, 46.847628154378164 ], [ 15.544415764345512, 46.847568549462196 ], [ 15.544481410854527, 46.847519109485319 ], [ 15.544551507341694, 46.847466252009617 ], [ 15.54462351780303, 46.847412096897614 ], [ 15.544696033819461, 46.847357481788798 ], [ 15.544759930386411, 46.847310146158001 ], [ 15.544824969329328, 46.847261888026914 ], [ 15.544841244575734, 46.847252568626111 ], [ 15.544914930732595, 46.847210352505108 ], [ 15.544996363619243, 46.847158803506225 ], [ 15.545141281019999, 46.846999436911908 ], [ 15.545196491984861, 46.846973604156688 ], [ 15.545479490431317, 46.8468410637483 ], [ 15.54576609075432, 46.846706831947856 ], [ 15.546302868791155, 46.84645546077337 ], [ 15.546660244818263, 46.846288067858808 ], [ 15.546836619270724, 46.846203966129529 ], [ 15.546914601497193, 46.84616733555854 ], [ 15.5472100527951, 46.84602842615719 ], [ 15.547341850006983, 46.845967158969863 ], [ 15.547596952477642, 46.845848660854898 ], [ 15.548003925269835, 46.845659500001943 ], [ 15.548029023646302, 46.84564784715127 ], [ 15.548369484541283, 46.845503013177606 ], [ 15.548408343778213, 46.845481549421642 ], [ 15.548555831642721, 46.84541277256114 ], [ 15.548593409566305, 46.845395204440941 ], [ 15.548803190757802, 46.845297483656793 ], [ 15.54905361631897, 46.845180243862004 ], [ 15.54920478431076, 46.845108513621469 ], [ 15.549580824225494, 46.844929764000305 ], [ 15.549632794926437, 46.844904982601108 ], [ 15.549967666931961, 46.844745850733609 ], [ 15.550120113371536, 46.844673374071689 ], [ 15.550349491989163, 46.844564374749567 ], [ 15.550364551896154, 46.844557418704667 ], [ 15.550562888383563, 46.844465409583364 ], [ 15.550978222006027, 46.844272743322307 ], [ 15.550982338063251, 46.844270772374749 ], [ 15.551039093909992, 46.844244366307571 ], [ 15.551382710151392, 46.844084338659343 ], [ 15.55176984385764, 46.843901403457714 ], [ 15.551783004556155, 46.843896104703191 ], [ 15.551986998914025, 46.843798311179995 ], [ 15.552181989076063, 46.843704834454549 ], [ 15.5522947904827, 46.843650774760192 ], [ 15.552413381707915, 46.843593991016775 ], [ 15.552525781895893, 46.84353345788977 ], [ 15.552678476011957, 46.843451341219577 ], [ 15.553100943655195, 46.843263387792689 ], [ 15.553277144485545, 46.843185039991809 ], [ 15.55350061171246, 46.843079300490409 ], [ 15.553803455222921, 46.842935997540138 ], [ 15.553923013275561, 46.842880453394493 ], [ 15.554057367854327, 46.842817957730276 ], [ 15.554212316214283, 46.842745966348673 ], [ 15.554259286746678, 46.842724071307735 ], [ 15.554647112066457, 46.842536161505741 ], [ 15.554697849907837, 46.842516532728375 ], [ 15.555055839656198, 46.842346219784218 ], [ 15.555122496960372, 46.842315116503848 ], [ 15.55550720919226, 46.842150218522036 ], [ 15.555556691456951, 46.842125663182003 ], [ 15.555948309505537, 46.841943975326842 ], [ 15.55595590051168, 46.841940405704477 ], [ 15.556145663858937, 46.841847744642642 ], [ 15.556370954863576, 46.841741963443361 ], [ 15.556545842356195, 46.841660665670815 ], [ 15.556786968946916, 46.841547731446283 ], [ 15.556994599709233, 46.841443196019483 ], [ 15.557331240825894, 46.841286617208816 ], [ 15.55746880421678, 46.841222614055262 ], [ 15.557518606925935, 46.841199491765103 ], [ 15.557689502644553, 46.841120070895606 ], [ 15.557910639150769, 46.841024899899892 ], [ 15.558540006858694, 46.840715929489278 ], [ 15.558505832533353, 46.840572937554313 ], [ 15.558419381725148, 46.840588589398187 ], [ 15.558194751929822, 46.840631441438916 ], [ 15.558130459573047, 46.840643687005638 ], [ 15.55798104937964, 46.840672097928504 ], [ 15.557747307521419, 46.84071665841504 ], [ 15.55753464912743, 46.840757203513576 ], [ 15.557299992756981, 46.840801871047852 ], [ 15.557052974001902, 46.840848941321951 ], [ 15.555623772764214, 46.840446830213054 ], [ 15.555078004620274, 46.840291287158834 ], [ 15.553522418879243, 46.839849233949423 ], [ 15.553404882233313, 46.839918510397972 ], [ 15.553211675980009, 46.840032387888975 ], [ 15.552811944032001, 46.840267964253997 ], [ 15.552418485107713, 46.840499905580664 ], [ 15.55146042367808, 46.840438841866451 ], [ 15.551094699245391, 46.84041063266843 ], [ 15.551003105291453, 46.840403605879878 ], [ 15.550790590769148, 46.840387786249636 ], [ 15.550041737126902, 46.840332333351022 ], [ 15.54993972024231, 46.839778220966451 ], [ 15.549891081137124, 46.839463492249521 ], [ 15.549862059034458, 46.839289252226123 ], [ 15.549830307844312, 46.839099853174879 ], [ 15.549821995976588, 46.839064010103513 ], [ 15.549749390886694, 46.838756501783614 ], [ 15.549304180130548, 46.838463130335029 ], [ 15.549275855411716, 46.838444421773261 ], [ 15.549176322107048, 46.838378859507991 ], [ 15.549090277295713, 46.83832221458465 ], [ 15.54903538441487, 46.838286023170348 ], [ 15.548995661278957, 46.838258176166377 ], [ 15.548740547502517, 46.838078820180968 ], [ 15.54849286096907, 46.837904539135344 ], [ 15.548446244627472, 46.837871786047138 ], [ 15.548391521331631, 46.837833340655713 ], [ 15.548749973569196, 46.837579774916001 ], [ 15.547933002099651, 46.837045684676703 ], [ 15.547883922771257, 46.837013609674756 ], [ 15.54776355218862, 46.83714729608684 ], [ 15.547338409915112, 46.836749107894825 ], [ 15.547098297408544, 46.836886396116469 ], [ 15.547064200284289, 46.83686446940429 ], [ 15.547029159583829, 46.836841931036453 ], [ 15.546953881790552, 46.836785434047258 ], [ 15.54672644465375, 46.83659941149444 ], [ 15.546578105421959, 46.836470261156656 ], [ 15.54629694966486, 46.836254053249846 ], [ 15.546126832421784, 46.836134239620066 ], [ 15.545962388608631, 46.83601836548506 ], [ 15.545893886153099, 46.835970196738465 ], [ 15.545816734457407, 46.835915896023543 ], [ 15.545637430866581, 46.835789600214582 ], [ 15.545454342665142, 46.835660587663874 ], [ 15.545406524876391, 46.83562407627722 ], [ 15.545392161966978, 46.835613015183654 ], [ 15.545261684947617, 46.835525370837331 ], [ 15.545204387028772, 46.83548166346641 ], [ 15.545197347872541, 46.835476400170137 ], [ 15.545080323616711, 46.835377871006713 ], [ 15.544830371298881, 46.835167350903468 ], [ 15.544814335142449, 46.835153892047735 ], [ 15.544719448690602, 46.834988229262542 ], [ 15.54463855896336, 46.834726787621207 ], [ 15.54461163142363, 46.834678435919265 ], [ 15.544522628262717, 46.834518598999701 ], [ 15.544498957825043, 46.834476034575502 ], [ 15.544459988022172, 46.834428278179296 ], [ 15.544395327984651, 46.834349338606188 ], [ 15.544314487439664, 46.834224987783699 ], [ 15.544282587684604, 46.834176913182155 ], [ 15.544187300592418, 46.834033131350836 ], [ 15.544148982632295, 46.833963128566609 ], [ 15.544103695344104, 46.833899022836377 ], [ 15.5440300143961, 46.833830250896739 ], [ 15.543947733831857, 46.833753365566167 ], [ 15.54379477578814, 46.833610529895743 ], [ 15.543640521253907, 46.83345538738466 ], [ 15.543427826521533, 46.833241526395128 ], [ 15.543377567506182, 46.833180848028597 ], [ 15.54321463924015, 46.832984107699914 ], [ 15.543156082742408, 46.832903608078411 ], [ 15.543014349207262, 46.832708703992338 ], [ 15.542979437269334, 46.832660687880136 ], [ 15.54291379129638, 46.832570515004186 ], [ 15.542756305277537, 46.832425876160904 ], [ 15.542687848186924, 46.832334317819729 ], [ 15.542562460798296, 46.832166638505221 ], [ 15.542516914252239, 46.83210568777406 ], [ 15.542484836701416, 46.832062747014049 ], [ 15.542434300302713, 46.831995322612059 ], [ 15.542394305555739, 46.831941734654549 ], [ 15.542375331136736, 46.83191114010048 ], [ 15.542327271900216, 46.831833855738701 ], [ 15.542262338486159, 46.831729176310489 ], [ 15.542182230443276, 46.8316001291061 ], [ 15.542136271721573, 46.831526044192337 ], [ 15.542120968876965, 46.831485926434503 ], [ 15.542053706320619, 46.831309190881463 ], [ 15.541989834788907, 46.831141480563616 ], [ 15.541948631168735, 46.831033367380101 ], [ 15.541925859946934, 46.830987094355422 ], [ 15.5418492375571, 46.830831334687687 ], [ 15.541840896933273, 46.830804133105261 ], [ 15.541787601985073, 46.830628925130377 ], [ 15.54174340748577, 46.830483424299118 ], [ 15.54172321673429, 46.830417117705359 ], [ 15.541699626204839, 46.830351057482972 ], [ 15.54164905485821, 46.83020991173975 ], [ 15.541523518989123, 46.830168254383679 ], [ 15.541448538159232, 46.830143883357565 ], [ 15.541411042181418, 46.830131562913451 ], [ 15.541352407050734, 46.830115514259241 ], [ 15.540945935227709, 46.830000934979395 ], [ 15.54088537358756, 46.829995365329275 ], [ 15.540811647524157, 46.829988612215487 ], [ 15.540770439416855, 46.829984825319372 ], [ 15.540448589256611, 46.829953207013986 ], [ 15.540428048890947, 46.829951267252966 ], [ 15.540414982005544, 46.82994927174483 ], [ 15.540342402697334, 46.829938535334215 ], [ 15.540248575695331, 46.829924612678909 ], [ 15.540034866313411, 46.829894664807419 ], [ 15.539820498207776, 46.829864639366868 ], [ 15.539694251217414, 46.829846937683534 ], [ 15.539606523487782, 46.829834605855581 ], [ 15.538410581408243, 46.829674106892654 ], [ 15.538099782262853, 46.8296337152874 ], [ 15.535862863178014, 46.829342422500055 ], [ 15.534925219948171, 46.829227267384915 ], [ 15.53487381080434, 46.829220976401011 ], [ 15.534818182173636, 46.82921413738196 ], [ 15.534781928867009, 46.829209621836021 ], [ 15.53472379922829, 46.829202561382949 ], [ 15.53468530699976, 46.829197819318551 ], [ 15.534658017941688, 46.829191239055881 ], [ 15.534645684691002, 46.829191118914338 ], [ 15.53447624440188, 46.829162729890214 ], [ 15.534425790900105, 46.829154169764841 ], [ 15.534421851539003, 46.829166758344968 ], [ 15.53435317619277, 46.829155222091984 ], [ 15.532808721223315, 46.82889432594768 ], [ 15.532594938109741, 46.828843302347927 ], [ 15.532496174768516, 46.828824068440149 ], [ 15.530121637794588, 46.828370972395057 ], [ 15.530067333547773, 46.828361224914815 ], [ 15.530000873118809, 46.828349283007711 ], [ 15.529957778776216, 46.828624301972162 ], [ 15.529946996450461, 46.828693641969949 ], [ 15.529892006660779, 46.829030101277155 ], [ 15.529876283449395, 46.829157776183472 ], [ 15.529866639278726, 46.82923564540166 ], [ 15.529815400041311, 46.829589944628822 ], [ 15.529806233646337, 46.829644400944765 ], [ 15.529763858784253, 46.829895552150496 ], [ 15.529720935838681, 46.830184339793391 ], [ 15.529686010764483, 46.830418963832699 ], [ 15.529636290540747, 46.830717874900188 ], [ 15.529611825899117, 46.830865792510835 ], [ 15.52948050069279, 46.831654342694613 ], [ 15.529402802830164, 46.832121042420326 ], [ 15.529247526670458, 46.833054259303346 ], [ 15.529169882906562, 46.833232643183266 ], [ 15.529103266501419, 46.833650070033507 ], [ 15.529061798419294, 46.833910654746845 ], [ 15.529022222424626, 46.833911512589566 ], [ 15.529050707172091, 46.83409035767918 ], [ 15.529013708783749, 46.834685527382909 ], [ 15.529006099482842, 46.83472051039454 ], [ 15.528848187645977, 46.835500934026932 ], [ 15.52878847263986, 46.835796257885583 ], [ 15.528752723279542, 46.836039718875988 ], [ 15.528644820212808, 46.836773354956627 ], [ 15.528546242150947, 46.837440469777732 ], [ 15.528510548091461, 46.837605707502995 ], [ 15.528475532791246, 46.837768321645676 ], [ 15.52843434869785, 46.838099651457682 ], [ 15.528428790637406, 46.838143055941188 ], [ 15.52838675885717, 46.838476112432389 ], [ 15.528343176488656, 46.838800197581683 ], [ 15.528309426153442, 46.838961706954279 ], [ 15.528290312586245, 46.839077295417674 ], [ 15.52824255423466, 46.839366896158126 ], [ 15.528214752507406, 46.839523159342534 ], [ 15.528187172018093, 46.839678428074521 ], [ 15.528165854681513, 46.839829704748013 ], [ 15.528142421769223, 46.839996504830005 ], [ 15.528138578102419, 46.84002421363035 ], [ 15.528121435031712, 46.840136703371165 ], [ 15.528096539239588, 46.84029984123643 ], [ 15.528075981918233, 46.840450473051128 ], [ 15.528034750909896, 46.840882709141844 ], [ 15.526855257260276, 46.840722125057503 ], [ 15.526785071007993, 46.840811248725721 ], [ 15.526724812487485, 46.84087704640266 ], [ 15.526694689056043, 46.840913275627742 ], [ 15.526569210969525, 46.841064589991461 ], [ 15.52655523739222, 46.841082053400847 ], [ 15.526503955937807, 46.841146056753139 ], [ 15.526494100570522, 46.841158399582902 ], [ 15.526438733117482, 46.841237874441745 ], [ 15.526383720464796, 46.841303660291722 ], [ 15.526313344829154, 46.841378655134825 ], [ 15.526262865610606, 46.841439852395247 ], [ 15.52622800116615, 46.841482024236626 ], [ 15.526199120609732, 46.841510218006441 ], [ 15.52594500549286, 46.841758538217171 ], [ 15.525670208803488, 46.842027151443986 ], [ 15.525578946856472, 46.842120643108693 ], [ 15.525529675927146, 46.84218892770334 ], [ 15.525482844653917, 46.842246363367558 ], [ 15.525327651404153, 46.842402572381083 ], [ 15.525157967506075, 46.842573283943061 ], [ 15.525097989535396, 46.842617291906265 ], [ 15.525040030387723, 46.842675302899153 ], [ 15.524944147193359, 46.842771313863679 ], [ 15.524828461115579, 46.842893002020716 ], [ 15.524707514048128, 46.843033514770518 ], [ 15.524566660424604, 46.843203577209088 ], [ 15.524189806759235, 46.843546083191775 ], [ 15.524099643033571, 46.84362812056176 ], [ 15.524077134829495, 46.843648629258823 ], [ 15.524049446149961, 46.843670768446763 ], [ 15.523240315900608, 46.844413466266978 ], [ 15.522852431210902, 46.844767927679143 ], [ 15.522652911942446, 46.844950121954433 ], [ 15.52224746593004, 46.84532054717782 ], [ 15.521838433777761, 46.845694190656189 ], [ 15.521594909106721, 46.845916722711181 ], [ 15.521592203508124, 46.845916009897216 ], [ 15.521544351011984, 46.845962814913634 ], [ 15.521132415038387, 46.846404013051817 ], [ 15.52092555283182, 46.846596499517752 ] ] ] } },
{ "type": "Feature", "properties": { "name": "Lebring-Sankt Margarethen", "feature_type": "circle", "metric_roundness": 38.22, "metric_rectangularity": 60.25, "metric_mobile_fit": 79.62, "metric_aspect_ratio": 0.766, "metric_area_km2": 16.25 }, "geometry": { "type": "Polygon", "coordinates": [ [ [ 15.56219757609013, 46.850956458564042 ], [ 15.562152267595001, 46.849773122163789 ], [ 15.562016466297063, 46.848593003242001 ], [ 15.561790544418226, 46.847419336742675 ], [ 15.561475121194656, 46.846255340133624 ], [ 15.56107106117949, 46.845104204581901 ], [ 15.560579471873137, 46.843969086198946 ], [ 15.560001700687723, 46.842853097379788 ], [ 15.559339331253895, 46.841759298259866 ], [ 15.558594179080243, 46.840690688313465 ], [ 15.557768286577076, 46.839650198116367 ], [ 15.556863917458335, 46.838640681295978 ], [ 15.555883550536919, 46.837664906690961 ], [ 15.554829872930405, 46.836725550742017 ], [ 15.553705772695881, 46.835825190135054 ], [ 15.552514330913953, 46.834966294716999 ], [ 15.551258813243725, 46.834151220703951 ], [ 15.549942660971865, 46.833382204200632 ], [ 15.548569481580264, 46.832661355048913 ], [ 15.547143038858188, 46.831990651022799 ], [ 15.545667242585985, 46.831371932385792 ], [ 15.544146137818657, 46.830806896825962 ], [ 15.542583893798641, 46.830297094782672 ], [ 15.540984792528203, 46.829843925178196 ], [ 15.539353217032774, 46.829448631565882 ], [ 15.537693639347379, 46.829112298705844 ], [ 15.536010608259097, 46.828835849577594 ], [ 15.534308736839156, 46.82862004283799 ], [ 15.532592689798822, 46.828465470731643 ], [ 15.53086717070375, 46.828372557459581 ], [ 15.529136909081842, 46.828341558010749 ], [ 15.527406647459934, 46.828372557459581 ], [ 15.525681128364866, 46.828465470731643 ], [ 15.52396508132453, 46.82862004283799 ], [ 15.522263209904585, 46.828835849577594 ], [ 15.520580178816306, 46.829112298705844 ], [ 15.51892060113091, 46.829448631565882 ], [ 15.517289025635481, 46.829843925178196 ], [ 15.515689924365043, 46.830297094782672 ], [ 15.514127680345029, 46.830806896825962 ], [ 15.512606575577699, 46.831371932385792 ], [ 15.511130779305498, 46.831990651022799 ], [ 15.50970433658342, 46.832661355048913 ], [ 15.508331157191819, 46.833382204200632 ], [ 15.507015004919959, 46.834151220703951 ], [ 15.505759487249735, 46.834966294716999 ], [ 15.504568045467803, 46.835825190135054 ], [ 15.503443945233279, 46.836725550742017 ], [ 15.502390267626765, 46.837664906690961 ], [ 15.501409900705349, 46.838640681295978 ], [ 15.500505531586608, 46.839650198116367 ], [ 15.499679639083441, 46.840690688313465 ], [ 15.498934486909789, 46.841759298259866 ], [ 15.498272117475965, 46.842853097379788 ], [ 15.497694346290547, 46.843969086198946 ], [ 15.497202756984194, 46.845104204581901 ], [ 15.496798696969028, 46.846255340133624 ], [ 15.496483273745461, 46.847419336742675 ], [ 15.496257351866625, 46.848593003242001 ], [ 15.496121550568683, 46.849773122163789 ], [ 15.496076242073558, 46.850956458564042 ], [ 15.496121550568683, 46.852139768892926 ], [ 15.496257351866625, 46.853319809886244 ], [ 15.496483273745461, 46.854493347453833 ], [ 15.496798696969028, 46.855657165540443 ], [ 15.497202756984194, 46.856808074934982 ], [ 15.497694346290547, 46.857942922003808 ], [ 15.498272117475965, 46.859058597324491 ], [ 15.498934486909789, 46.860152044196319 ], [ 15.499679639083441, 46.861220267004349 ], [ 15.500505531586608, 46.862260339414355 ], [ 15.501409900705349, 46.863269412376262 ], [ 15.502390267626765, 46.864244721914453 ], [ 15.503443945233279, 46.865183596683579 ], [ 15.504568045467803, 46.866083465269639 ], [ 15.505759487249735, 46.866941863216411 ], [ 15.507015004919959, 46.867756439758161 ], [ 15.508331157191819, 46.868524964240592 ], [ 15.50970433658342, 46.8692453322125 ], [ 15.511130779305498, 46.869915571171802 ], [ 15.512606575577699, 46.870533845950369 ], [ 15.514127680345029, 46.871098463723115 ], [ 15.515689924365043, 46.871607878628041 ], [ 15.517289025635481, 46.872060695984466 ], [ 15.51892060113091, 46.872455676098326 ], [ 15.520580178816306, 46.872791737644263 ], [ 15.522263209904585, 46.873067960615344 ], [ 15.52396508132453, 46.873283588832535 ], [ 15.525681128364862, 46.873438032007151 ], [ 15.527406647459934, 46.873530867350752 ], [ 15.529136909081842, 46.873561840728215 ], [ 15.53086717070375, 46.873530867350752 ], [ 15.532592689798822, 46.873438032007151 ], [ 15.534308736839156, 46.873283588832535 ], [ 15.536010608259097, 46.873067960615344 ], [ 15.537693639347379, 46.872791737644263 ], [ 15.539353217032774, 46.872455676098326 ], [ 15.540984792528203, 46.872060695984466 ], [ 15.542583893798641, 46.871607878628041 ], [ 15.544146137818657, 46.871098463723115 ], [ 15.545667242585985, 46.870533845950369 ], [ 15.547143038858188, 46.869915571171802 ], [ 15.548569481580264, 46.8692453322125 ], [ 15.549942660971865, 46.868524964240592 ], [ 15.551258813243725, 46.867756439758161 ], [ 15.552514330913953, 46.866941863216411 ], [ 15.553705772695881, 46.866083465269639 ], [ 15.554829872930405, 46.865183596683579 ], [ 15.555883550536919, 46.864244721914453 ], [ 15.556863917458335, 46.863269412376262 ], [ 15.557768286577076, 46.862260339414355 ], [ 15.558594179080243, 46.861220267004349 ], [ 15.559339331253895, 46.860152044196319 ], [ 15.560001700687723, 46.859058597324491 ], [ 15.560579471873137, 46.857942922003808 ], [ 15.56107106117949, 46.856808074934982 ], [ 15.561475121194656, 46.855657165540443 ], [ 15.561790544418226, 46.854493347453833 ], [ 15.562016466297063, 46.853319809886244 ], [ 15.562152267595001, 46.852139768892926 ], [ 15.56219757609013, 46.850956458564042 ] ] ] } },
{ "type": "Feature", "properties": { "name": "Lebring-Sankt Margarethen", "feature_type": "mrr", "metric_roundness": 38.22, "metric_rectangularity": 60.25, "metric_mobile_fit": 79.62, "metric_aspect_ratio": 0.766, "metric_area_km2": 16.25 }, "geometry": { "type": "Polygon", "coordinates": [ [ [ 15.530588588053268, 46.827295888373413 ], [ 15.507137819193435, 46.869312006967931 ], [ 15.538070126947558, 46.877383931454141 ], [ 15.561520895807391, 46.835374129821574 ], [ 15.530588588053268, 46.827295888373413 ] ] ] } }
]
}
