{
"type": "FeatureCollection",
"name": "leitzersdorf",
"crs": { "type": "name", "properties": { "name": "urn:ogc:def:crs:OGC:1.3:CRS84" } },
"features": [
{ "type": "Feature", "properties": { "name": "Leitzersdorf", "metric_roundness": 48.08, "metric_rectangularity": 57.13, "metric_mobile_fit": 46.88, "metric_aspect_ratio": 1.094, "metric_area_km2": 63.3 }, "geometry": { "type": "Polygon", "coordinates": [ [ [ 16.280921552842074, 48.414924176842575 ], [ 16.28100974100283, 48.414943641513176 ], [ 16.281059878371199, 48.414924192012151 ], [ 16.281426723466495, 48.414782062662937 ], [ 16.281669469167547, 48.414718679470106 ], [ 16.281889327513412, 48.414671266457404 ], [ 16.28207706877836, 48.414402153296237 ], [ 16.282234490493636, 48.414227329530554 ], [ 16.282581093466685, 48.414074186378819 ], [ 16.282699201689955, 48.414080111468451 ], [ 16.283002481644694, 48.414008983913035 ], [ 16.283086048653463, 48.413983017356436 ], [ 16.283309387668282, 48.413949285491576 ], [ 16.283593363856919, 48.413885845562319 ], [ 16.284391021323376, 48.41372785895247 ], [ 16.284408819654971, 48.413769624734691 ], [ 16.284417716266066, 48.413790462682954 ], [ 16.285789865004165, 48.414096169901377 ], [ 16.285917671377774, 48.414058820081699 ], [ 16.287130038515489, 48.413704710061296 ], [ 16.287248005809985, 48.413670308266809 ], [ 16.287282316201335, 48.413660258083766 ], [ 16.288249026075839, 48.413377796106452 ], [ 16.291765484503202, 48.412116421467879 ], [ 16.292214167242047, 48.412460053324537 ], [ 16.29255630140177, 48.412361810856623 ], [ 16.292614302580787, 48.412345217149436 ], [ 16.293250411419088, 48.412164893036596 ], [ 16.294118654274094, 48.411913503600132 ], [ 16.294748911048075, 48.411732689466476 ], [ 16.295194656881353, 48.412041279657856 ], [ 16.295274174327282, 48.411994343792514 ], [ 16.295314719891596, 48.411970450796744 ], [ 16.295574275508173, 48.411818667806095 ], [ 16.295693978802394, 48.411748657778027 ], [ 16.296022553513978, 48.411550834193655 ], [ 16.296743489114494, 48.411126469394965 ], [ 16.296769256434796, 48.411111322565716 ], [ 16.296815815251158, 48.411083855714409 ], [ 16.2967934412851, 48.411035546788973 ], [ 16.296606764548443, 48.410675374406715 ], [ 16.296590821632115, 48.410644904777776 ], [ 16.296526427191921, 48.410556977181379 ], [ 16.29652795752267, 48.410491678458726 ], [ 16.296529365105538, 48.410433673952696 ], [ 16.296530302484356, 48.410393414066753 ], [ 16.296478158394468, 48.410349371900459 ], [ 16.296467933021589, 48.410340810334297 ], [ 16.296332808385028, 48.410226595203184 ], [ 16.296298281186651, 48.410197407750225 ], [ 16.296064128384732, 48.409999564856207 ], [ 16.295982018645926, 48.409923338654011 ], [ 16.295748560093436, 48.409645545471889 ], [ 16.295576030787835, 48.409447126672696 ], [ 16.295555915832779, 48.409424053966823 ], [ 16.295542941416851, 48.409409981298758 ], [ 16.295201438288156, 48.409511727797145 ], [ 16.294824984030416, 48.409633533563401 ], [ 16.294579647969972, 48.409702951932715 ], [ 16.294196595912268, 48.409794588542205 ], [ 16.293865794628751, 48.409875536244385 ], [ 16.293482509984841, 48.40997023679995 ], [ 16.293105014737055, 48.41005272734801 ], [ 16.293062948374629, 48.409976833286187 ], [ 16.292313706882677, 48.408624127944506 ], [ 16.292128246942809, 48.408575094720803 ], [ 16.291507559767989, 48.408733599708327 ], [ 16.290665397323053, 48.408948574538584 ], [ 16.289079270733939, 48.409353603657927 ], [ 16.288945877661199, 48.409387588419342 ], [ 16.288911098612701, 48.409396480893633 ], [ 16.288566631229958, 48.409484420719139 ], [ 16.288164065593211, 48.409587243290659 ], [ 16.287269343832914, 48.408473398833969 ], [ 16.287134859717995, 48.408306049554639 ], [ 16.28578784127426, 48.406629093355328 ], [ 16.285755816607015, 48.406589128020023 ], [ 16.285340095556887, 48.405933192629547 ], [ 16.283850361496114, 48.403582027509763 ], [ 16.28381843559643, 48.403531887671789 ], [ 16.283635458574064, 48.403267646901746 ], [ 16.283600940985824, 48.403219462849727 ], [ 16.283562257478021, 48.40316697352057 ], [ 16.28352881481042, 48.403118672243075 ], [ 16.283465422664747, 48.403038273705839 ], [ 16.282480735443361, 48.401789040113876 ], [ 16.282432061754161, 48.401727261654393 ], [ 16.282410494730179, 48.401699902907858 ], [ 16.282350438046727, 48.401663706006261 ], [ 16.28232369723225, 48.40164754971255 ], [ 16.282362318398366, 48.401618398927972 ], [ 16.282373185431133, 48.401545843435635 ], [ 16.282276997362828, 48.401435489055416 ], [ 16.280843889206096, 48.399790810546072 ], [ 16.280749149683647, 48.39968203861217 ], [ 16.280722037408029, 48.399739972327296 ], [ 16.279862720426113, 48.400007873954301 ], [ 16.279207279024028, 48.400212380539344 ], [ 16.278701380611277, 48.400370170165047 ], [ 16.277985620287428, 48.400593295545377 ], [ 16.277851078241987, 48.400635308328773 ], [ 16.277793697042963, 48.400653139529211 ], [ 16.277497910331121, 48.400745399714047 ], [ 16.276423191266808, 48.399511713371886 ], [ 16.27467780581901, 48.39750804111619 ], [ 16.274643531476212, 48.397468669750694 ], [ 16.274323217681406, 48.39763805213849 ], [ 16.273508177665875, 48.398068884419224 ], [ 16.273277615555589, 48.398190814209805 ], [ 16.272949943569767, 48.398364068588478 ], [ 16.271704318600925, 48.396933920583507 ], [ 16.271658047367698, 48.396880808662836 ], [ 16.270828925522103, 48.395928837019078 ], [ 16.270801157722449, 48.39589686178514 ], [ 16.270267035648953, 48.39528364488099 ], [ 16.269618121839066, 48.39453856683248 ], [ 16.270268616736889, 48.393969144250228 ], [ 16.270367887572608, 48.393882211557361 ], [ 16.270275463607703, 48.393801727462673 ], [ 16.27026886093844, 48.393785421369529 ], [ 16.269970609275109, 48.393050685130767 ], [ 16.269768407088375, 48.392436397177754 ], [ 16.269758594615411, 48.39240639987981 ], [ 16.269226714669333, 48.391012798013236 ], [ 16.269223044265054, 48.391002898971919 ], [ 16.269085103391728, 48.390434698562672 ], [ 16.269042316364114, 48.389983279579546 ], [ 16.269068335260805, 48.389541649742839 ], [ 16.269297604209545, 48.388433214395583 ], [ 16.269329323225652, 48.387939682938594 ], [ 16.269357033315114, 48.387511241917167 ], [ 16.269375819940503, 48.386908939730453 ], [ 16.268985111654455, 48.386958654238285 ], [ 16.267952404754492, 48.387233269615336 ], [ 16.267719369810628, 48.387222842651568 ], [ 16.267370293631942, 48.387206064187083 ], [ 16.267329704643689, 48.387207625713067 ], [ 16.267301390893479, 48.387208788303589 ], [ 16.26738655038773, 48.387628447208932 ], [ 16.267407593633681, 48.387896967141941 ], [ 16.267410904159529, 48.387938649959501 ], [ 16.267422033670414, 48.388080050664037 ], [ 16.26740942398726, 48.388358058711866 ], [ 16.267388588950876, 48.388517276286088 ], [ 16.267312053392232, 48.388668984229668 ], [ 16.267304868256353, 48.388675736001986 ], [ 16.266932992708504, 48.389022012693083 ], [ 16.266901093205696, 48.389071962491983 ], [ 16.266873544866623, 48.389115231842673 ], [ 16.266677208401575, 48.38931595016313 ], [ 16.266669875314495, 48.389455925028187 ], [ 16.266649888077627, 48.389842224057162 ], [ 16.266669612612297, 48.390032735611506 ], [ 16.266753710515076, 48.390202544823936 ], [ 16.266782576896812, 48.390261137197406 ], [ 16.266809785483815, 48.390316710828031 ], [ 16.266820699760352, 48.39054011874385 ], [ 16.266860191488984, 48.390709789943948 ], [ 16.26682100741932, 48.390917265774064 ], [ 16.26679836772146, 48.391309212133734 ], [ 16.266791365121495, 48.39130965834989 ], [ 16.26667300589726, 48.391317406753586 ], [ 16.266672193996776, 48.391324538209453 ], [ 16.266627875870277, 48.391682194765686 ], [ 16.266651337537954, 48.391843267923008 ], [ 16.266705400930732, 48.391976747324257 ], [ 16.26676261052004, 48.392084673864119 ], [ 16.26699676818361, 48.392433794001249 ], [ 16.267113674840626, 48.392605297792798 ], [ 16.267172684137901, 48.392756835166331 ], [ 16.267200211564653, 48.392984775562894 ], [ 16.267187333262555, 48.39305080908597 ], [ 16.267128905726405, 48.393350312181255 ], [ 16.267073980712286, 48.393518578171864 ], [ 16.266988917197189, 48.393767893941316 ], [ 16.266959585413677, 48.393917963391985 ], [ 16.266960004073916, 48.393975381120264 ], [ 16.26697121496418, 48.394032437313349 ], [ 16.267051168803981, 48.394231514650293 ], [ 16.267138101723404, 48.394444008288929 ], [ 16.267196114237965, 48.394851927478705 ], [ 16.267193024772112, 48.394959480638143 ], [ 16.267188889488601, 48.395003330961231 ], [ 16.267154950872413, 48.395231827513598 ], [ 16.267135684155281, 48.395361570789049 ], [ 16.267120878966896, 48.395412710556812 ], [ 16.267048585851189, 48.395613187844702 ], [ 16.266893672011154, 48.395691525843262 ], [ 16.266231438258597, 48.396026379472303 ], [ 16.266337754947529, 48.396168356012943 ], [ 16.266515104150017, 48.396464087910751 ], [ 16.266531972218107, 48.396492197679478 ], [ 16.266249649931371, 48.396669243050766 ], [ 16.26617120196989, 48.39671838281393 ], [ 16.265819231901581, 48.396930573472247 ], [ 16.265400338146932, 48.39718306119012 ], [ 16.264670307666854, 48.397524200303529 ], [ 16.263712199942333, 48.398084126080036 ], [ 16.263663396665706, 48.398112626275271 ], [ 16.263644166178487, 48.398123911024086 ], [ 16.263120297090918, 48.398430154867761 ], [ 16.263037097078488, 48.398235657612126 ], [ 16.262684657885025, 48.397585709210134 ], [ 16.262232061486472, 48.396928464077043 ], [ 16.262137657526868, 48.396791405618998 ], [ 16.26195459355268, 48.396525605416031 ], [ 16.261825736604347, 48.396338644868656 ], [ 16.26177492595636, 48.396264850367302 ], [ 16.260974437798311, 48.395094173564367 ], [ 16.260677066972644, 48.394659317166848 ], [ 16.260408291148238, 48.394266318232617 ], [ 16.260344768935845, 48.394280694578335 ], [ 16.260207978585168, 48.394311582059167 ], [ 16.26001727145394, 48.394354624166866 ], [ 16.259301696811999, 48.394492479032166 ], [ 16.258630488931345, 48.394587990629219 ], [ 16.258223090602964, 48.394664009523353 ], [ 16.257693587602478, 48.394762982051837 ], [ 16.257042902984814, 48.394884523320059 ], [ 16.256509781771054, 48.394984121148326 ], [ 16.25622105207605, 48.395053017386545 ], [ 16.256022894259647, 48.395016938611732 ], [ 16.253387411437043, 48.395345261686025 ], [ 16.25309360935978, 48.395381872617641 ], [ 16.25283959293148, 48.395428918251227 ], [ 16.252700286420268, 48.395472821489065 ], [ 16.252558154350005, 48.395533717594532 ], [ 16.252441233279818, 48.395583901028729 ], [ 16.252434636908259, 48.395586766526137 ], [ 16.252402959093907, 48.395600251252773 ], [ 16.252395043442895, 48.395603689847022 ], [ 16.252386333181455, 48.395607418368925 ], [ 16.252374059859719, 48.395612676279789 ], [ 16.252326550694672, 48.395633038169471 ], [ 16.252299365469749, 48.395644700173065 ], [ 16.252254494802663, 48.395663915837282 ], [ 16.252107484399701, 48.395727003756932 ], [ 16.251022512161406, 48.396026082926461 ], [ 16.250047906016757, 48.396271534319808 ], [ 16.249054607427592, 48.396502052637715 ], [ 16.248664757942983, 48.396592540571049 ], [ 16.248362961886762, 48.396662553601708 ], [ 16.248469693622777, 48.396841529753388 ], [ 16.248010567065673, 48.396918805223144 ], [ 16.247626027891059, 48.396983683423862 ], [ 16.247657665790928, 48.397170927769871 ], [ 16.247666995644238, 48.397240543894483 ], [ 16.247697901859276, 48.397472362425553 ], [ 16.247707015794692, 48.397540543745038 ], [ 16.247710482446408, 48.397719580908692 ], [ 16.247712511856029, 48.397827544536113 ], [ 16.247714628867271, 48.397932265538984 ], [ 16.247728844525163, 48.398673788627569 ], [ 16.247730052083845, 48.398738387006148 ], [ 16.24773160886318, 48.398801986524347 ], [ 16.247734582509295, 48.398969874434819 ], [ 16.247735917685862, 48.39905832277055 ], [ 16.247738017287062, 48.39918671728249 ], [ 16.247739156063407, 48.399259688472085 ], [ 16.24774002898441, 48.399311153460786 ], [ 16.247742005230617, 48.399434960435059 ], [ 16.247742490716981, 48.399462761975784 ], [ 16.247744032144748, 48.399559666255271 ], [ 16.247746301076763, 48.399700658170573 ], [ 16.247752677578486, 48.40000806938415 ], [ 16.247744741904228, 48.400114301680851 ], [ 16.248218899027069, 48.400195253335056 ], [ 16.248974159200277, 48.400327863228313 ], [ 16.248953588789579, 48.4003705930987 ], [ 16.248873024284933, 48.400538409193693 ], [ 16.248869769924777, 48.400545421469808 ], [ 16.248833672945537, 48.400643626755432 ], [ 16.248425841027906, 48.401415592171325 ], [ 16.24794128955913, 48.402332771719742 ], [ 16.247764080711459, 48.402306596300853 ], [ 16.247714405238593, 48.402667614705862 ], [ 16.247679956355398, 48.402917448061835 ], [ 16.247623486644819, 48.403328232541732 ], [ 16.248726419891955, 48.403502923334678 ], [ 16.249556280330481, 48.403581548817996 ], [ 16.249912629100191, 48.403615213443963 ], [ 16.249888747044238, 48.403810146177328 ], [ 16.249867871485137, 48.403981690644478 ], [ 16.249856042489863, 48.404078749134925 ], [ 16.24984577320852, 48.404162716905638 ], [ 16.249823710266753, 48.404344372342877 ], [ 16.24980243625356, 48.404518447040012 ], [ 16.249784883783338, 48.404662634759831 ], [ 16.249781008713558, 48.404694595825795 ], [ 16.249760299745979, 48.404869106409862 ], [ 16.249753141513168, 48.404929143225417 ], [ 16.249725616323474, 48.405160171577187 ], [ 16.249733765846607, 48.405230356977832 ], [ 16.249750616978236, 48.405373324307618 ], [ 16.249749573599356, 48.405407554857625 ], [ 16.249748513719346, 48.405446286406374 ], [ 16.249747458307898, 48.405477906915785 ], [ 16.249744443747222, 48.405529919065216 ], [ 16.249683933570466, 48.405768162962637 ], [ 16.249651986306588, 48.40589443812194 ], [ 16.249647215597253, 48.405912919799789 ], [ 16.249620128258119, 48.406019900925308 ], [ 16.249564706522676, 48.406238124864039 ], [ 16.249508531962938, 48.406459788010125 ], [ 16.249331799663974, 48.407156666405619 ], [ 16.248225235752461, 48.407041297994361 ], [ 16.247238554585138, 48.406918063588073 ], [ 16.24644688746967, 48.406793550807478 ], [ 16.245378168472328, 48.406627344127806 ], [ 16.244928369916714, 48.406557383209375 ], [ 16.244478707578217, 48.406487417185609 ], [ 16.244325273278196, 48.406463523238941 ], [ 16.244068731323701, 48.406423569951713 ], [ 16.24364648968989, 48.406357957092816 ], [ 16.243664019983985, 48.40624428527876 ], [ 16.243729203949634, 48.405908446230733 ], [ 16.243943848898105, 48.404800719205141 ], [ 16.243950571002006, 48.404766437086359 ], [ 16.24395741614947, 48.404736742482775 ], [ 16.243325488742109, 48.404728298152911 ], [ 16.242704516452552, 48.40471993717275 ], [ 16.242554752131245, 48.404717912275437 ], [ 16.242411347808254, 48.404715998583981 ], [ 16.242236423671631, 48.404713700720215 ], [ 16.242075294433334, 48.404711508607662 ], [ 16.241921517194388, 48.404712643369464 ], [ 16.241598552915754, 48.40471493649757 ], [ 16.240990193645654, 48.40471930353889 ], [ 16.240783760675328, 48.404726430123723 ], [ 16.240602426839892, 48.404732750666689 ], [ 16.240459681675233, 48.404737749021315 ], [ 16.240043161811894, 48.404754341288708 ], [ 16.239881965308335, 48.404765379489376 ], [ 16.239032909139262, 48.404823890547085 ], [ 16.238078541090847, 48.404889608858127 ], [ 16.237194663699146, 48.404915489504617 ], [ 16.23648974608243, 48.404936098809863 ], [ 16.235244300464448, 48.404972584420385 ], [ 16.23453761726692, 48.404964152241696 ], [ 16.234001727574018, 48.404944627333983 ], [ 16.233980187379849, 48.404943812883872 ], [ 16.23396312226409, 48.404943247177677 ], [ 16.233928801570389, 48.404941130372897 ], [ 16.233895051122204, 48.404939539442623 ], [ 16.233905215785764, 48.405002654440111 ], [ 16.233939692950475, 48.405219623764566 ], [ 16.233970308363716, 48.405411125968868 ], [ 16.233996771769476, 48.405576808235082 ], [ 16.23403829544916, 48.405837437620335 ], [ 16.234048325464148, 48.405900555937365 ], [ 16.234079979761137, 48.406098513030777 ], [ 16.234150611223072, 48.40654060070117 ], [ 16.234177717809178, 48.406710497391657 ], [ 16.234204227931077, 48.406876988484164 ], [ 16.234273422259939, 48.407310290644709 ], [ 16.234287565022807, 48.407398509697821 ], [ 16.234301321831119, 48.407484668093844 ], [ 16.234353902349785, 48.407814600695829 ], [ 16.234368301434817, 48.407904973613903 ], [ 16.23439876484419, 48.408096119290221 ], [ 16.234512379621506, 48.408807800281629 ], [ 16.230975200507341, 48.409009410743813 ], [ 16.228216540083416, 48.409166570973511 ], [ 16.228039882746629, 48.409056281720133 ], [ 16.227657992183644, 48.408817869352546 ], [ 16.22740808767746, 48.408664571445506 ], [ 16.227266543955757, 48.40857771269922 ], [ 16.227164374019686, 48.40850832910396 ], [ 16.227012304916506, 48.408404899213309 ], [ 16.226913073988488, 48.408330041858136 ], [ 16.226809051919833, 48.408251702853406 ], [ 16.22676530355962, 48.408218854117301 ], [ 16.22652666770805, 48.408027650437077 ], [ 16.226340723821888, 48.407814076879269 ], [ 16.22625202003492, 48.407676040457794 ], [ 16.226097153601788, 48.40767718115395 ], [ 16.225990671518339, 48.407716726366424 ], [ 16.225735024498846, 48.407762670927511 ], [ 16.225337750748398, 48.407809606322161 ], [ 16.223744883449999, 48.407997697702058 ], [ 16.223005529180043, 48.408085055401862 ], [ 16.222758943870094, 48.40811420689996 ], [ 16.221514317782788, 48.408261146273084 ], [ 16.221453732660247, 48.408231772890957 ], [ 16.22133747655273, 48.407488915278797 ], [ 16.221086953534225, 48.405888701772376 ], [ 16.221062298385043, 48.405754656542193 ], [ 16.221040777544026, 48.405594430658944 ], [ 16.221510887755095, 48.405544805778028 ], [ 16.221955462669879, 48.40549788165702 ], [ 16.222296149390314, 48.405461900151117 ], [ 16.222912370787242, 48.405290916471039 ], [ 16.22268588666039, 48.404801379273181 ], [ 16.222682960063484, 48.404794971013153 ], [ 16.222431612341179, 48.404131338708275 ], [ 16.2223688177002, 48.403965564509868 ], [ 16.222257823494136, 48.403996847286088 ], [ 16.221555508622039, 48.404194532889335 ], [ 16.221464476678651, 48.404220189931031 ], [ 16.221021564068561, 48.404342680161825 ], [ 16.220889369825766, 48.404379257049641 ], [ 16.220812291016895, 48.404400607643552 ], [ 16.220764899795679, 48.404413752331145 ], [ 16.220474682363992, 48.404494025498714 ], [ 16.220355801355812, 48.404526941805543 ], [ 16.220253688939291, 48.404555122414358 ], [ 16.220112974230581, 48.404594069549184 ], [ 16.219607265951034, 48.404792907195805 ], [ 16.21946427346861, 48.40484919189047 ], [ 16.21795502113843, 48.405470967265359 ], [ 16.217908094246837, 48.405182294521943 ], [ 16.217894741046941, 48.405100445312371 ], [ 16.217816307655994, 48.405138749313892 ], [ 16.217677744080323, 48.405206623551081 ], [ 16.217305067965949, 48.405388929265023 ], [ 16.217068459943455, 48.405504682261615 ], [ 16.21652773477561, 48.405769269172666 ], [ 16.216512605681736, 48.405776753979332 ], [ 16.216402005821248, 48.405858877034007 ], [ 16.216368258855642, 48.405884013998929 ], [ 16.216074763803768, 48.406102162514948 ], [ 16.215763121771211, 48.406327059401995 ], [ 16.214789396519592, 48.406985061070358 ], [ 16.214765682417415, 48.407001038656205 ], [ 16.214859990989609, 48.407055865219007 ], [ 16.214959345265303, 48.407113897425361 ], [ 16.215085252344092, 48.40718747533802 ], [ 16.215107339514891, 48.407200521158558 ], [ 16.216738200948583, 48.408166439610604 ], [ 16.217866380662333, 48.408844854797088 ], [ 16.218840745722002, 48.409428953660687 ], [ 16.219596021719649, 48.409902443033936 ], [ 16.220335202895097, 48.410365884929476 ], [ 16.220361654313493, 48.410384402421265 ], [ 16.220564134120842, 48.410526377451902 ], [ 16.221073479228878, 48.410883080908285 ], [ 16.221097492522411, 48.410908769413616 ], [ 16.221227167140647, 48.41102284237946 ], [ 16.221419401911643, 48.411191892713674 ], [ 16.221549788172904, 48.411306577793596 ], [ 16.221667235834445, 48.411409881781637 ], [ 16.221791221086701, 48.411518874438578 ], [ 16.221997114117688, 48.411700007079169 ], [ 16.222004796701412, 48.411706837626838 ], [ 16.222117574687378, 48.411806386387248 ], [ 16.222220394684108, 48.411897090627846 ], [ 16.222407269237664, 48.412062041697141 ], [ 16.222528436717489, 48.412168943158818 ], [ 16.222636385012208, 48.41226429057798 ], [ 16.222829359351181, 48.412434310518009 ], [ 16.223079574296492, 48.412743058155989 ], [ 16.223239754449963, 48.412940712930506 ], [ 16.223532374875738, 48.413301695164833 ], [ 16.223545156110006, 48.41331749032755 ], [ 16.222027759768181, 48.414498836111406 ], [ 16.221814740601324, 48.414659828515092 ], [ 16.22177829063191, 48.41468746407125 ], [ 16.221752465578351, 48.414706825631697 ], [ 16.221703066582894, 48.414812460539693 ], [ 16.221670316996764, 48.414882129177059 ], [ 16.221650018424945, 48.414925386579711 ], [ 16.221602898223669, 48.415025834425116 ], [ 16.221560179119091, 48.415171178335797 ], [ 16.22152539493846, 48.415289142705369 ], [ 16.221490275828053, 48.415408375488077 ], [ 16.221463125936758, 48.4155831272002 ], [ 16.22143941231856, 48.415739521765936 ], [ 16.221425263077233, 48.415820251073498 ], [ 16.221404853443516, 48.415817966047975 ], [ 16.221391930523488, 48.415816575790956 ], [ 16.221230329079059, 48.415799244071458 ], [ 16.219606314185313, 48.415601179883403 ], [ 16.219583309114416, 48.415598418699126 ], [ 16.217496994232295, 48.415346595460818 ], [ 16.217444343225431, 48.415340786402531 ], [ 16.216783576151457, 48.415268281193867 ], [ 16.215644624816949, 48.415148271785355 ], [ 16.215003223562299, 48.415049535305826 ], [ 16.214962595355672, 48.415043518155841 ], [ 16.215065401583868, 48.414923065660687 ], [ 16.214923885571785, 48.414875435888966 ], [ 16.213642541642987, 48.414444250290721 ], [ 16.21287367885456, 48.414236767354623 ], [ 16.212210116271191, 48.414057824187971 ], [ 16.211144578311043, 48.413747569563071 ], [ 16.210689942001871, 48.413615129139153 ], [ 16.210515518148792, 48.413554264380188 ], [ 16.210264526635118, 48.413417339362013 ], [ 16.209978290069419, 48.413166970673103 ], [ 16.209739758662295, 48.413023076592907 ], [ 16.209470724191799, 48.412860672069698 ], [ 16.20900831496969, 48.412615004794809 ], [ 16.208960248546035, 48.412589456862968 ], [ 16.208895904434943, 48.412604274479669 ], [ 16.208238298631702, 48.41298160224315 ], [ 16.207568614633903, 48.41353825267236 ], [ 16.207556667329218, 48.413549528217743 ], [ 16.207447395968504, 48.413653661349628 ], [ 16.205722957986467, 48.41294527680887 ], [ 16.205675917561731, 48.412926002963324 ], [ 16.204759356488534, 48.412358646198285 ], [ 16.204748575653799, 48.41235198084739 ], [ 16.204652098323777, 48.412292159123133 ], [ 16.204568372128975, 48.412240394344991 ], [ 16.204524683971442, 48.412213296723692 ], [ 16.204484559584952, 48.412204113270001 ], [ 16.203688250450849, 48.412022089518054 ], [ 16.203667568348695, 48.412017287882684 ], [ 16.203633469878245, 48.412009486025028 ], [ 16.203614427681757, 48.412007434321737 ], [ 16.203569137457496, 48.412002608118449 ], [ 16.203058524242561, 48.411947394052092 ], [ 16.202896385995498, 48.411929780546785 ], [ 16.202865067560484, 48.411925780485049 ], [ 16.202820537692244, 48.41192003519533 ], [ 16.202781858483206, 48.41191495605166 ], [ 16.202735693458102, 48.411908980925425 ], [ 16.202706550292859, 48.411905197340715 ], [ 16.201504888454828, 48.411749421108588 ], [ 16.200922905804337, 48.411606663352543 ], [ 16.199886596063433, 48.411394600256827 ], [ 16.199860204012737, 48.411389218206011 ], [ 16.199839007372905, 48.411384878597055 ], [ 16.1997646873428, 48.411578244798669 ], [ 16.199703550628097, 48.411707020315603 ], [ 16.199609256062459, 48.411905917718698 ], [ 16.199335477549276, 48.412257200275327 ], [ 16.199301601295915, 48.412316808656122 ], [ 16.199284187602174, 48.412349009771617 ], [ 16.199005599937415, 48.412867286671926 ], [ 16.1988935724541, 48.413239076586166 ], [ 16.198155173506699, 48.414387458386074 ], [ 16.197939700367517, 48.414815342723273 ], [ 16.197924418308951, 48.4148567621518 ], [ 16.197678546791359, 48.415519415897919 ], [ 16.197609561810246, 48.415721469914672 ], [ 16.196011353424232, 48.418651336999375 ], [ 16.196022454107577, 48.418697959236745 ], [ 16.196034219400197, 48.418746815386257 ], [ 16.196179921203385, 48.419351159960407 ], [ 16.196229237015192, 48.41955553001349 ], [ 16.196146703134431, 48.420450712940657 ], [ 16.196114150390986, 48.421061771375967 ], [ 16.196108963739324, 48.421158568077814 ], [ 16.196057279716801, 48.422132290904749 ], [ 16.196087496187719, 48.422453240705295 ], [ 16.196109206158035, 48.423040554938517 ], [ 16.196011371139402, 48.423430082829888 ], [ 16.195813091617428, 48.423847097266233 ], [ 16.195555698809862, 48.42438842312869 ], [ 16.1956024239323, 48.42471202799701 ], [ 16.195602724703761, 48.424746763943524 ], [ 16.19560335626354, 48.424853408654243 ], [ 16.195921707979906, 48.425283310473617 ], [ 16.196279278531875, 48.425720439953572 ], [ 16.196534126036497, 48.426129216198134 ], [ 16.196607571173914, 48.426246585299687 ], [ 16.196847551442541, 48.426762835935406 ], [ 16.197384676319739, 48.42738916406276 ], [ 16.197562142036698, 48.427755733302597 ], [ 16.197764734765091, 48.428129066150042 ], [ 16.197838693315532, 48.428345881366731 ], [ 16.198001454348393, 48.428822801367652 ], [ 16.198030977887999, 48.428979681522264 ], [ 16.197988380731584, 48.429104219001339 ], [ 16.197991437457144, 48.429125205956474 ], [ 16.196924055694225, 48.429176157480718 ], [ 16.196802418830647, 48.429180132563033 ], [ 16.196140219000558, 48.429201511310353 ], [ 16.194306403429092, 48.429208684101191 ], [ 16.194276654638436, 48.429242986607797 ], [ 16.194262293114452, 48.429259630237176 ], [ 16.194216646539488, 48.429312144160505 ], [ 16.19191444037315, 48.431964492369111 ], [ 16.191689968946907, 48.432200141713281 ], [ 16.191603817965515, 48.432290729887889 ], [ 16.191086225403655, 48.432834184174297 ], [ 16.190880543550151, 48.433050199830433 ], [ 16.19084215023252, 48.43318264174426 ], [ 16.190696438960803, 48.433685844289073 ], [ 16.190537204102412, 48.434756697974414 ], [ 16.190180815167196, 48.43634011182796 ], [ 16.190041104932373, 48.436756397954433 ], [ 16.18989854635884, 48.43732918714791 ], [ 16.189844665613691, 48.437546164742137 ], [ 16.189758800873502, 48.43809974427203 ], [ 16.189719094836768, 48.438350487730396 ], [ 16.189689883985292, 48.438460742136314 ], [ 16.189675276704527, 48.438781347347167 ], [ 16.1896525106377, 48.43927982750472 ], [ 16.189680174217507, 48.439278610432218 ], [ 16.194190076106619, 48.439079131405649 ], [ 16.194757507585088, 48.439054059906312 ], [ 16.198929670337971, 48.439277704523832 ], [ 16.200611348546534, 48.438916242875841 ], [ 16.202638559510646, 48.438480555821961 ], [ 16.203758222082239, 48.4382398834505 ], [ 16.203881733365908, 48.438213263434939 ], [ 16.20394366062467, 48.438324790824367 ], [ 16.204099175193925, 48.438557687740406 ], [ 16.20426802536781, 48.438784675896116 ], [ 16.204901686393768, 48.439600944526504 ], [ 16.205288407863641, 48.440079904593645 ], [ 16.205425106103714, 48.440249086862771 ], [ 16.205450675834999, 48.440280770648471 ], [ 16.205472903666937, 48.440308306273856 ], [ 16.205511784817652, 48.440309329642034 ], [ 16.205930531562082, 48.440320265971252 ], [ 16.207040599301532, 48.440349284433253 ], [ 16.208448274209871, 48.440390403319562 ], [ 16.209119392872491, 48.44041005244685 ], [ 16.210462084916632, 48.440333576893913 ], [ 16.210502677277624, 48.440331316109791 ], [ 16.210547177267273, 48.440328778963085 ], [ 16.211081301145178, 48.440273846465224 ], [ 16.21165241362144, 48.440215119025169 ], [ 16.211719528480653, 48.440208153333671 ], [ 16.211770507545914, 48.440202935685463 ], [ 16.211817178720658, 48.440198094286494 ], [ 16.211909720514988, 48.44018861119401 ], [ 16.211909791633335, 48.44021174166928 ], [ 16.211940267183564, 48.440426110744703 ], [ 16.211969982327663, 48.440532128124296 ], [ 16.212015969365577, 48.440548995615387 ], [ 16.212225195511312, 48.440625832854579 ], [ 16.213610248655879, 48.441134503034426 ], [ 16.213946541479139, 48.441258066305693 ], [ 16.214066379129356, 48.441480940432527 ], [ 16.214266517872044, 48.44185322702095 ], [ 16.2143533191404, 48.442014900300521 ], [ 16.215774124127126, 48.441929055686693 ], [ 16.215839177282938, 48.442151840963952 ], [ 16.215849203594299, 48.44218606670389 ], [ 16.215910923620832, 48.442397593144342 ], [ 16.215943550862377, 48.442509568311813 ], [ 16.215989538547646, 48.442667027950229 ], [ 16.217786765452015, 48.444527932883432 ], [ 16.219515058241853, 48.446317429144301 ], [ 16.219551384248934, 48.446354964675571 ], [ 16.219780142317351, 48.446591881688917 ], [ 16.220186401075917, 48.446811717312848 ], [ 16.227043265968561, 48.45052213152259 ], [ 16.227954135021232, 48.450717730511265 ], [ 16.228616307510816, 48.450859995026917 ], [ 16.231275979563346, 48.451431173982932 ], [ 16.233069850848807, 48.451816331951029 ], [ 16.235240392309574, 48.451935484123069 ], [ 16.235310837623551, 48.451939403543967 ], [ 16.235257333224617, 48.451565035178483 ], [ 16.235152423052856, 48.450865661138906 ], [ 16.235126429222902, 48.450691959398092 ], [ 16.234991155755711, 48.449808460754873 ], [ 16.234977974874305, 48.449585835419043 ], [ 16.234989458529252, 48.449481949285925 ], [ 16.235030385067876, 48.449343397768281 ], [ 16.235051128578036, 48.449274295051119 ], [ 16.235170731909736, 48.448864749866331 ], [ 16.235242821462538, 48.448842615661725 ], [ 16.235259101758707, 48.44878559507373 ], [ 16.235269089327964, 48.448753843520187 ], [ 16.235282984011164, 48.448709753565353 ], [ 16.236297711664402, 48.448899555337434 ], [ 16.236406987974139, 48.4486868458606 ], [ 16.23759558561224, 48.44637130898905 ], [ 16.23831762113463, 48.444968004200454 ], [ 16.238715443830845, 48.44419455068401 ], [ 16.244860132510365, 48.446055318163893 ], [ 16.245926847811969, 48.446377944076531 ], [ 16.253304329432908, 48.448608686794493 ], [ 16.253401785791706, 48.448638112502415 ], [ 16.254965683289399, 48.449110958312239 ], [ 16.255022261432508, 48.449111342429468 ], [ 16.255049960319397, 48.449270957256388 ], [ 16.25514379668007, 48.449482742744287 ], [ 16.255161593294471, 48.4495127207284 ], [ 16.255404710175799, 48.449923742323207 ], [ 16.255454269397951, 48.449981818438623 ], [ 16.255519769099774, 48.45005857765112 ], [ 16.255660019549261, 48.450153177762282 ], [ 16.255701049940825, 48.45012505754115 ], [ 16.261170067505933, 48.446388406525443 ], [ 16.261756592658791, 48.445987727753227 ], [ 16.2669961754996, 48.442406939513234 ], [ 16.267066774544229, 48.442270778588558 ], [ 16.26726138958923, 48.441895671397326 ], [ 16.269593250028876, 48.437400558543999 ], [ 16.270216845409582, 48.436198427758661 ], [ 16.270571105106754, 48.435515236593453 ], [ 16.270600490452356, 48.43545868990654 ], [ 16.270553136486889, 48.435448990389709 ], [ 16.270521871042853, 48.435336812979813 ], [ 16.270436351601663, 48.435026895776566 ], [ 16.270468425678015, 48.435010516545688 ], [ 16.270340228241288, 48.434973057855515 ], [ 16.270218282369143, 48.434933731482097 ], [ 16.27000194721948, 48.434863926126781 ], [ 16.269644839708246, 48.434761477941947 ], [ 16.269464930033724, 48.434716138307472 ], [ 16.269281868046253, 48.434670067607968 ], [ 16.268739510054207, 48.434542483445377 ], [ 16.268473981691351, 48.434390022140065 ], [ 16.268172381938157, 48.434283563125227 ], [ 16.26776454794302, 48.434073741381077 ], [ 16.267751612406961, 48.434017449515601 ], [ 16.26771291315, 48.43385046144514 ], [ 16.267664350770328, 48.433640785945663 ], [ 16.267694927063587, 48.433600412093931 ], [ 16.267818121100259, 48.433437904110413 ], [ 16.267882919644499, 48.433352294007875 ], [ 16.267909099952703, 48.433317881373128 ], [ 16.268063372905029, 48.433114356417008 ], [ 16.268153731428445, 48.432995339168819 ], [ 16.268198273478891, 48.432936521623702 ], [ 16.268223309220936, 48.432903397847213 ], [ 16.268243325071172, 48.432877151173699 ], [ 16.268327883152025, 48.432765570567163 ], [ 16.268368653554891, 48.432711798431669 ], [ 16.268335216386273, 48.432694637141957 ], [ 16.268327833198665, 48.432690862336365 ], [ 16.268299827038703, 48.432676444805466 ], [ 16.268272796994367, 48.432662542786552 ], [ 16.268268061771398, 48.432660141561485 ], [ 16.268245907136595, 48.432648727247269 ], [ 16.268285187108418, 48.432599673217815 ], [ 16.268332294941846, 48.43254079106638 ], [ 16.268353266274836, 48.432514700355789 ], [ 16.268383703959238, 48.43247667005636 ], [ 16.26844016837352, 48.43240630108459 ], [ 16.268463402328639, 48.432377183061433 ], [ 16.268531491119635, 48.43229238985294 ], [ 16.268573298295717, 48.432240211747619 ], [ 16.268623687451075, 48.432177196398982 ], [ 16.268634048117654, 48.43216433417944 ], [ 16.268665746931173, 48.432127082170439 ], [ 16.268747399188406, 48.432031056236916 ], [ 16.268864551453394, 48.431893271974474 ], [ 16.268902584519662, 48.431848479598848 ], [ 16.268943924977233, 48.431800003544225 ], [ 16.269009854465558, 48.431722465237371 ], [ 16.269112417551362, 48.43160169983129 ], [ 16.269126870267595, 48.431584684090154 ], [ 16.269161236217656, 48.431544394436948 ], [ 16.269168714817827, 48.431535565176489 ], [ 16.269282442792147, 48.431401827066587 ], [ 16.269336456563295, 48.431338360101563 ], [ 16.269360421024356, 48.431310213607752 ], [ 16.269390335138223, 48.431274896508064 ], [ 16.269424695570475, 48.431234516888537 ], [ 16.269497212835951, 48.431149161509992 ], [ 16.269504826384882, 48.431140328827922 ], [ 16.269680798104375, 48.430954707587297 ], [ 16.269702362264066, 48.430931932092257 ], [ 16.269782368370834, 48.430847468191494 ], [ 16.269825631554681, 48.430801913758579 ], [ 16.269852941414435, 48.430773142886821 ], [ 16.269923124391195, 48.430699097382984 ], [ 16.270001600970964, 48.430616292005681 ], [ 16.270050474488027, 48.430564745527143 ], [ 16.270195565660682, 48.430411764647893 ], [ 16.269803518714177, 48.43016518818991 ], [ 16.26978275854821, 48.430152118871646 ], [ 16.269866005333345, 48.430072343912791 ], [ 16.26992539217704, 48.430015402224797 ], [ 16.269938858473218, 48.430002461700134 ], [ 16.269959889829366, 48.429982219868783 ], [ 16.270011586571119, 48.429932762605048 ], [ 16.270075460133544, 48.429871477364422 ], [ 16.270104321421119, 48.429843837510916 ], [ 16.270130079151475, 48.429818706074265 ], [ 16.270134950929314, 48.429813992866983 ], [ 16.270139432850179, 48.429809559506381 ], [ 16.27015904479352, 48.429790523508885 ], [ 16.270224800878204, 48.429726670467581 ], [ 16.270238381652177, 48.429713366975037 ], [ 16.27031080306503, 48.429643045301461 ], [ 16.270347914568902, 48.429608266824275 ], [ 16.270586632196011, 48.42938451979348 ], [ 16.270923843550325, 48.429068550966427 ], [ 16.271080558880136, 48.428920316723072 ], [ 16.271189375829945, 48.42882171452883 ], [ 16.271242851524217, 48.428772661903238 ], [ 16.271396856599679, 48.428626745702807 ], [ 16.271634546760161, 48.428408872836066 ], [ 16.271859243361625, 48.428202758137317 ], [ 16.272213677697579, 48.427854577113251 ], [ 16.272531990139271, 48.427541959307703 ], [ 16.272920390402923, 48.427137202851135 ], [ 16.273448667181569, 48.426578600434361 ], [ 16.27347596768217, 48.4265497387766 ], [ 16.273671785957013, 48.426342637491516 ], [ 16.273978317931434, 48.425951641494628 ], [ 16.274839771086008, 48.424641494866115 ], [ 16.27499491777483, 48.424435236215203 ], [ 16.275019061119128, 48.42440321328403 ], [ 16.27515057271021, 48.424228424420058 ], [ 16.275789288255847, 48.423914557961055 ], [ 16.276270260539107, 48.423678206720155 ], [ 16.276306668745978, 48.423666846945089 ], [ 16.27733676938092, 48.423343908563098 ], [ 16.277360754476124, 48.423337632568398 ], [ 16.277394859433915, 48.423328580864499 ], [ 16.278677287656386, 48.423024466202122 ], [ 16.278812055829182, 48.422992530012614 ], [ 16.280345577355501, 48.422692768583751 ], [ 16.280852569543381, 48.422593099187324 ], [ 16.281390620828802, 48.422483191418273 ], [ 16.282704011204, 48.422049351008276 ], [ 16.282747650766577, 48.422032045542416 ], [ 16.284453037467685, 48.421519684628386 ], [ 16.284508561488671, 48.421513959516389 ], [ 16.284542833347096, 48.421507871848782 ], [ 16.284927849945763, 48.421467797569434 ], [ 16.285792423056151, 48.421368960396904 ], [ 16.285917265243164, 48.421364630807311 ], [ 16.287054456990415, 48.42132486378059 ], [ 16.287123159078028, 48.421315473302478 ], [ 16.287796336644423, 48.421223086996427 ], [ 16.288549594651855, 48.421126417966768 ], [ 16.289120175702692, 48.421072717824551 ], [ 16.290170983192962, 48.421043029900773 ], [ 16.290993527562353, 48.420963851621885 ], [ 16.291824243392579, 48.42084791500438 ], [ 16.292243489740184, 48.420751590307432 ], [ 16.292996122266761, 48.420530870111421 ], [ 16.293747621539953, 48.420115745420048 ], [ 16.293780825382658, 48.420081598009638 ], [ 16.293759296961095, 48.420074043136474 ], [ 16.293613281952783, 48.420022660299118 ], [ 16.292145956408756, 48.419506033775875 ], [ 16.291915759491484, 48.419425009304149 ], [ 16.291161135330061, 48.419159343281216 ], [ 16.290561561760377, 48.419067517895144 ], [ 16.288797235922509, 48.418797363099948 ], [ 16.287125768043957, 48.418407814281665 ], [ 16.285659896063891, 48.418066146740003 ], [ 16.28443052344036, 48.417785628266586 ], [ 16.284354879947216, 48.417768099036273 ], [ 16.284320464691167, 48.417759788309098 ], [ 16.284027133114794, 48.417692857533829 ], [ 16.283806023522317, 48.41764273208301 ], [ 16.283071503259126, 48.417223395177309 ], [ 16.282418273225787, 48.416839804204642 ], [ 16.282379382530301, 48.416817024007514 ], [ 16.281861452747162, 48.416520022330303 ], [ 16.28084834370388, 48.415765034993058 ], [ 16.280259442727868, 48.415335160840741 ], [ 16.280203215316838, 48.415304716781094 ], [ 16.280135603693349, 48.415269069504077 ], [ 16.279814778054487, 48.415096608163203 ], [ 16.279888093105622, 48.415009334283027 ], [ 16.280163091180889, 48.414985105253727 ], [ 16.280652266181391, 48.414984538490401 ], [ 16.280780651679738, 48.414924046562319 ], [ 16.280825555853077, 48.414902929136574 ], [ 16.280921552842074, 48.414924176842575 ] ] ] } }
]
}
