{
"type": "FeatureCollection",
"name": "bad_grund_harz",
"crs": { "type": "name", "properties": { "name": "urn:ogc:def:crs:OGC:1.3:CRS84" } },
"features": [
{ "type": "Feature", "properties": { "name": "Bad Grund (Harz)", "feature_type": "entity", "metric_roundness": 46.11, "metric_rectangularity": 63.24, "metric_mobile_fit": 64.76, "metric_aspect_ratio": 0.915, "metric_area_km2": 109.72 }, "geometry": { "type": "Polygon", "coordinates": [ [ [ 10.2354836, 51.7702942 ], [ 10.2426002, 51.775382 ], [ 10.232567, 51.7788083 ], [ 10.2310068, 51.786227 ], [ 10.2436582, 51.8025467 ], [ 10.2610948, 51.8082159 ], [ 10.2610508, 51.8108899 ], [ 10.2521251, 51.8126908 ], [ 10.255214, 51.822167499999985 ], [ 10.2468335, 51.825007799999987 ], [ 10.2421207, 51.832119 ], [ 10.2316824, 51.831687399999986 ], [ 10.2235802, 51.8288236 ], [ 10.2134381, 51.8164951 ], [ 10.2026625, 51.826825499999984 ], [ 10.1979231, 51.822819 ], [ 10.1965339, 51.8141209 ], [ 10.1931026, 51.8118551 ], [ 10.182231, 51.8093101 ], [ 10.169548, 51.8140735 ], [ 10.1627489, 51.796838699999988 ], [ 10.1537145, 51.7935435 ], [ 10.1570242, 51.7882356 ], [ 10.1537744, 51.784492099999987 ], [ 10.1588342, 51.779591199999984 ], [ 10.152451, 51.7771566 ], [ 10.1431747, 51.758212 ], [ 10.149811, 51.75404 ], [ 10.2031956, 51.7523957 ], [ 10.2121572, 51.7614838 ], [ 10.234704, 51.762810499999986 ], [ 10.2354836, 51.7702942 ] ] ] } },
{ "type": "Feature", "properties": { "name": "Bad Grund (Harz)", "feature_type": "circle", "metric_roundness": 46.11, "metric_rectangularity": 63.24, "metric_mobile_fit": 64.76, "metric_aspect_ratio": 0.915, "metric_area_km2": 109.72 }, "geometry": { "type": "Polygon", "coordinates": [ [ [ 10.274159965039843, 51.793096397256022 ], [ 10.274052802722784, 51.790565186624569 ], [ 10.273731609496069, 51.788040772386623 ], [ 10.273197265728008, 51.785530075527383 ], [ 10.272451236017726, 51.783039980575396 ], [ 10.271495565180803, 51.780577316700935 ], [ 10.270332872644575, 51.778148838954053 ], [ 10.268966345268469, 51.775761209694032 ], [ 10.26739972860903, 51.773420980261854 ], [ 10.265637316653635, 51.771134572946586 ], [ 10.263683940050946, 51.76890826329597 ], [ 10.261544952870453, 51.766748162820669 ], [ 10.259226217927344, 51.764660202140618 ], [ 10.256734090712916, 51.762650114620733 ], [ 10.254075401974644, 51.760723420542107 ], [ 10.251257438993553, 51.758885411853278 ], [ 10.248287925610303, 51.757141137544622 ], [ 10.245175001054669, 51.755495389687503 ], [ 10.24192719763648, 51.753952690177378 ], [ 10.238553417359153, 51.752517278218917 ], [ 10.23506290751992, 51.751193098588566 ], [ 10.231465235363629, 51.749983790708114 ], [ 10.227770261859588, 51.74889267856031 ], [ 10.223988114673338, 51.747922761475564 ], [ 10.220129160407421, 51.747076705815985 ], [ 10.216203976187247, 51.746356837580628 ], [ 10.212223320669931, 51.745765135953121 ], [ 10.208198104555551, 51.745303227810304 ], [ 10.204139360681689, 51.744972383207561 ], [ 10.200058213783182, 51.744773511853843 ], [ 10.19596585, 51.744707160586614 ], [ 10.191873486216817, 51.744773511853843 ], [ 10.187792339318309, 51.744972383207561 ], [ 10.183733595444446, 51.745303227810304 ], [ 10.179708379330068, 51.745765135953121 ], [ 10.17572772381275, 51.746356837580628 ], [ 10.171802539592578, 51.747076705815985 ], [ 10.167943585326659, 51.747922761475564 ], [ 10.164161438140409, 51.74889267856031 ], [ 10.160466464636368, 51.749983790708114 ], [ 10.156868792480079, 51.751193098588566 ], [ 10.153378282640846, 51.752517278218917 ], [ 10.150004502363519, 51.753952690177378 ], [ 10.146756698945328, 51.755495389687503 ], [ 10.143643774389696, 51.757141137544622 ], [ 10.140674261006444, 51.758885411853278 ], [ 10.137856298025353, 51.760723420542107 ], [ 10.135197609287083, 51.762650114620733 ], [ 10.132705482072655, 51.764660202140618 ], [ 10.130386747129544, 51.766748162820669 ], [ 10.128247759949051, 51.76890826329597 ], [ 10.126294383346362, 51.771134572946586 ], [ 10.124531971390967, 51.773420980261854 ], [ 10.12296535473153, 51.775761209694032 ], [ 10.121598827355422, 51.778148838954053 ], [ 10.120436134819196, 51.780577316700935 ], [ 10.119480463982272, 51.783039980575396 ], [ 10.118734434271989, 51.785530075527383 ], [ 10.11820009050393, 51.788040772386623 ], [ 10.117878897277215, 51.790565186624569 ], [ 10.117771734960156, 51.793096397256022 ], [ 10.117878897277215, 51.795627465828076 ], [ 10.11820009050393, 51.798151455444255 ], [ 10.118734434271989, 51.800661449771596 ], [ 10.119480463982272, 51.803150571978655 ], [ 10.120436134819196, 51.80561200355276 ], [ 10.121598827355422, 51.8080390029452 ], [ 10.12296535473153, 51.810424923993878 ], [ 10.124531971390967, 51.812763234073323 ], [ 10.126294383346362, 51.815047531923312 ], [ 10.128247759949051, 51.817271565107866 ], [ 10.130386747129544, 51.819429247057755 ], [ 10.132705482072655, 51.821514673650924 ], [ 10.135197609287083, 51.823522139286453 ], [ 10.137856298025353, 51.825446152409171 ], [ 10.140674261006444, 51.827281450443664 ], [ 10.143643774389696, 51.82902301409802 ], [ 10.146756698945328, 51.830666080999386 ], [ 10.150004502363519, 51.832206158625425 ], [ 10.153378282640846, 51.833639036497388 ], [ 10.156868792480079, 51.834960797602754 ], [ 10.160466464636368, 51.83616782901764 ], [ 10.164161438140409, 51.837256831700707 ], [ 10.167943585326659, 51.838224829433258 ], [ 10.171802539592578, 51.83906917688202 ], [ 10.17572772381275, 51.839787566763441 ], [ 10.179708379330068, 51.840378036091032 ], [ 10.183733595444446, 51.840838971489283 ], [ 10.187792339318309, 51.841169113560412 ], [ 10.191873486216817, 51.841367560292532 ], [ 10.19596585, 51.841433769500412 ], [ 10.200058213783182, 51.841367560292532 ], [ 10.204139360681689, 51.841169113560412 ], [ 10.208198104555551, 51.840838971489283 ], [ 10.212223320669931, 51.840378036091032 ], [ 10.216203976187247, 51.839787566763441 ], [ 10.220129160407421, 51.83906917688202 ], [ 10.223988114673338, 51.838224829433258 ], [ 10.227770261859588, 51.837256831700707 ], [ 10.231465235363629, 51.83616782901764 ], [ 10.23506290751992, 51.834960797602754 ], [ 10.238553417359153, 51.833639036497388 ], [ 10.24192719763648, 51.832206158625425 ], [ 10.245175001054669, 51.830666080999386 ], [ 10.248287925610303, 51.82902301409802 ], [ 10.251257438993553, 51.827281450443664 ], [ 10.254075401974644, 51.825446152409171 ], [ 10.256734090712916, 51.823522139286453 ], [ 10.259226217927344, 51.821514673650924 ], [ 10.261544952870453, 51.819429247057755 ], [ 10.263683940050946, 51.817271565107866 ], [ 10.265637316653635, 51.815047531923312 ], [ 10.26739972860903, 51.812763234073323 ], [ 10.268966345268469, 51.810424923993878 ], [ 10.270332872644575, 51.8080390029452 ], [ 10.271495565180803, 51.80561200355276 ], [ 10.272451236017726, 51.803150571978655 ], [ 10.273197265728008, 51.800661449771596 ], [ 10.273731609496069, 51.798151455444255 ], [ 10.274052802722784, 51.795627465828076 ], [ 10.274159965039843, 51.793096397256022 ] ] ] } },
{ "type": "Feature", "properties": { "name": "Bad Grund (Harz)", "feature_type": "mrr", "metric_roundness": 46.11, "metric_rectangularity": 63.24, "metric_mobile_fit": 64.76, "metric_aspect_ratio": 0.915, "metric_area_km2": 109.72 }, "geometry": { "type": "Polygon", "coordinates": [ [ [ 10.271055226126608, 51.825888983195775 ], [ 10.221842612332596, 51.738502096466554 ], [ 10.133457014469951, 51.757566962573414 ], [ 10.182669628263964, 51.844916952879188 ], [ 10.271055226126608, 51.825888983195775 ] ] ] } }
]
}
