{
"type": "FeatureCollection",
"name": "bagnes",
"crs": { "type": "name", "properties": { "name": "urn:ogc:def:crs:OGC:1.3:CRS84" } },
"features": [
{ "type": "Feature", "properties": { "name": "Bagnes", "metric_roundness": 42.07, "metric_rectangularity": 67.58, "metric_mobile_fit": 61.23, "metric_aspect_ratio": 0.95, "metric_area_km2": 588.74 }, "geometry": { "type": "Polygon", "coordinates": [ [ [ 7.2048861, 46.0144133 ], [ 7.2312389, 46.008683899999987 ], [ 7.2418404, 45.9923631 ], [ 7.263538, 45.984087899999984 ], [ 7.2711659, 45.9680736 ], [ 7.262123, 45.961329 ], [ 7.2660236, 45.9495717 ], [ 7.2791529, 45.937981699999987 ], [ 7.2993095, 45.936361199999986 ], [ 7.294443, 45.9217795 ], [ 7.3014354, 45.9177217 ], [ 7.3148454, 45.916472 ], [ 7.3229114, 45.910555199999976 ], [ 7.3452466, 45.914432299999987 ], [ 7.3553432, 45.9104132 ], [ 7.3602564, 45.9043548 ], [ 7.3739595, 45.900377 ], [ 7.3825306, 45.897104099999979 ], [ 7.388139, 45.898416599999983 ], [ 7.4007514, 45.910415699999987 ], [ 7.4111003, 45.909139 ], [ 7.4288601, 45.9166338 ], [ 7.4453044, 45.9314458 ], [ 7.4602136, 45.9353348 ], [ 7.4721998, 45.9349574 ], [ 7.4743552, 45.9380805 ], [ 7.472639, 45.947755699999981 ], [ 7.487446, 45.95581 ], [ 7.4863465, 45.960083 ], [ 7.4833435, 45.962648 ], [ 7.4804415, 45.963504 ], [ 7.480935, 45.9678575 ], [ 7.475777, 45.970522 ], [ 7.4739095, 45.9757665 ], [ 7.470905, 45.978349 ], [ 7.469837, 45.983027 ], [ 7.46727, 45.985034 ], [ 7.454871, 45.991504 ], [ 7.454393, 45.988301499999977 ], [ 7.4520955, 45.98644 ], [ 7.440172, 45.987331 ], [ 7.4368815, 45.984875 ], [ 7.433268, 45.9843355 ], [ 7.430429, 45.988158 ], [ 7.4316545, 45.991037 ], [ 7.4268405, 45.992287 ], [ 7.4219045, 45.992016499999984 ], [ 7.419177, 45.9932015 ], [ 7.4166445, 45.9931665 ], [ 7.412374, 45.989568 ], [ 7.406423, 45.993029 ], [ 7.4003305, 45.9943765 ], [ 7.3938305, 46.004368 ], [ 7.3891805, 46.007397499999982 ], [ 7.3874995, 46.010437 ], [ 7.378423, 46.0110355 ], [ 7.3741075, 46.0142625 ], [ 7.369121, 46.016274499999987 ], [ 7.3717965, 46.024650499999986 ], [ 7.3696865, 46.028571499999984 ], [ 7.3659765, 46.031088 ], [ 7.3686415, 46.037746 ], [ 7.367477, 46.0391395 ], [ 7.3612625, 46.040422 ], [ 7.3556475, 46.04604 ], [ 7.355553, 46.048801499999989 ], [ 7.352989, 46.0526945 ], [ 7.3541595, 46.056069 ], [ 7.352851, 46.05829 ], [ 7.354152, 46.0606655 ], [ 7.3520955, 46.0619145 ], [ 7.3473515, 46.06272 ], [ 7.340736, 46.062507499999981 ], [ 7.3389345, 46.0653845 ], [ 7.3334805, 46.0656135 ], [ 7.3331, 46.068456 ], [ 7.33174, 46.0701005 ], [ 7.331434, 46.07458 ], [ 7.3249695, 46.0753115 ], [ 7.3211995, 46.0795355 ], [ 7.3187675, 46.080369499999989 ], [ 7.316664, 46.078793 ], [ 7.3135345, 46.07932 ], [ 7.311454, 46.07912 ], [ 7.3091925, 46.0787125 ], [ 7.303732, 46.081 ], [ 7.300516, 46.084999 ], [ 7.288674, 46.0898235 ], [ 7.28647, 46.0920065 ], [ 7.2864645, 46.094066 ], [ 7.2790215, 46.096934499999982 ], [ 7.268195, 46.0999529 ], [ 7.2632985, 46.106174699999983 ], [ 7.2437354, 46.1190394 ], [ 7.223962, 46.123406499999987 ], [ 7.2119355, 46.1223665 ], [ 7.2091675, 46.119212499999982 ], [ 7.2051285, 46.1199235 ], [ 7.2020315, 46.118118 ], [ 7.199923, 46.118185499999981 ], [ 7.199389, 46.116088499999982 ], [ 7.1964875, 46.114085 ], [ 7.1967255, 46.109992499999983 ], [ 7.1930055, 46.103148 ], [ 7.1863755, 46.105085499999987 ], [ 7.182976, 46.104718 ], [ 7.1808315, 46.101519499999988 ], [ 7.177827, 46.0997135 ], [ 7.1795355, 46.093942 ], [ 7.17884, 46.090765 ], [ 7.182635, 46.0810135 ], [ 7.1882338, 46.083994699999984 ], [ 7.1922439, 46.075057699999981 ], [ 7.1828021, 46.060176099999985 ], [ 7.183543, 46.052796499999985 ], [ 7.1982825, 46.0341361 ], [ 7.200815, 46.017887 ], [ 7.2048861, 46.0144133 ] ] ] } }
]
}
