{
"type": "FeatureCollection",
"name": "bagnolet",
"crs": { "type": "name", "properties": { "name": "urn:ogc:def:crs:OGC:1.3:CRS84" } },
"features": [
{ "type": "Feature", "properties": { "name": "Bagnolet", "feature_type": "entity", "metric_roundness": 39.68, "metric_rectangularity": 66.07, "metric_mobile_fit": 93.37, "metric_aspect_ratio": 0.629, "metric_area_km2": 6.04 }, "geometry": { "type": "Polygon", "coordinates": [ [ [ 2.4221985, 48.8575441 ], [ 2.4353585, 48.874584 ], [ 2.4351005, 48.877713199999988 ], [ 2.429712, 48.878282 ], [ 2.4209225, 48.878063499999982 ], [ 2.4132705, 48.873117 ], [ 2.4140155, 48.870016 ], [ 2.4137315, 48.861972 ], [ 2.415315, 48.8551735 ], [ 2.4221985, 48.8575441 ] ] ] } },
{ "type": "Feature", "properties": { "name": "Bagnolet", "feature_type": "circle", "metric_roundness": 39.68, "metric_rectangularity": 66.07, "metric_mobile_fit": 93.37, "metric_aspect_ratio": 0.629, "metric_area_km2": 6.04 }, "geometry": { "type": "Polygon", "coordinates": [ [ [ 2.444991054469722, 48.866444619044003 ], [ 2.444963942138507, 48.86576352561616 ], [ 2.444882679457876, 48.865084289786154 ], [ 2.444747489163188, 48.86440877340597 ], [ 2.444558741801645, 48.863738828207303 ], [ 2.444316954716645, 48.863076290724123 ], [ 2.44402279062978, 48.862422977255875 ], [ 2.443677055824368, 48.861780678885616 ], [ 2.443280697935475, 48.861151156566386 ], [ 2.442834803352528, 48.860536136289554 ], [ 2.442340594241582, 48.859937304348364 ], [ 2.441799425195459, 48.859356302709735 ], [ 2.4412127795209, 48.858794724507021 ], [ 2.440582265172918, 48.858254109666298 ], [ 2.439909610347518, 48.857735940678047 ], [ 2.439196658744819, 48.857241638526062 ], [ 2.438445364515608, 48.856772558784776 ], [ 2.437657786905143, 48.856329987895741 ], [ 2.436836084608915, 48.855915139633623 ], [ 2.435982509855798, 48.855529151771471 ], [ 2.435099402234861, 48.855173082954465 ], [ 2.434189182282708, 48.854847909790763 ], [ 2.433254344848961, 48.854554524167625 ], [ 2.432297452258045, 48.854293730800109 ], [ 2.431321127286038, 48.854066245019176 ], [ 2.430328045971826, 48.853872690805446 ], [ 2.429320930282262, 48.853713599073863 ], [ 2.428302540651448, 48.853589406214113 ], [ 2.427275668414576, 48.853500452890934 ], [ 2.426243128157068, 48.853446983107546 ], [ 2.42520775, 48.853429143534711 ], [ 2.424172371842931, 48.853446983107546 ], [ 2.423139831585424, 48.853500452890934 ], [ 2.422112959348551, 48.853589406214113 ], [ 2.421094569717737, 48.853713599073863 ], [ 2.420087454028173, 48.853872690805446 ], [ 2.419094372713961, 48.854066245019176 ], [ 2.418118047741954, 48.854293730800109 ], [ 2.417161155151037, 48.854554524167625 ], [ 2.41622631771729, 48.854847909790763 ], [ 2.415316097765138, 48.855173082954465 ], [ 2.414432990144201, 48.855529151771471 ], [ 2.413579415391084, 48.855915139633623 ], [ 2.412757713094856, 48.856329987895741 ], [ 2.411970135484391, 48.856772558784776 ], [ 2.41121884125518, 48.857241638526062 ], [ 2.410505889652481, 48.857735940678047 ], [ 2.409833234827081, 48.858254109666298 ], [ 2.4092027204791, 48.858794724507021 ], [ 2.40861607480454, 48.859356302709735 ], [ 2.408074905758417, 48.859937304348364 ], [ 2.407580696647472, 48.860536136289554 ], [ 2.407134802064523, 48.861151156566386 ], [ 2.406738444175631, 48.861780678885616 ], [ 2.406392709370218, 48.862422977255875 ], [ 2.406098545283355, 48.863076290724123 ], [ 2.405856758198353, 48.863738828207303 ], [ 2.40566801083681, 48.86440877340597 ], [ 2.405532820542123, 48.865084289786154 ], [ 2.405451557861491, 48.86576352561616 ], [ 2.405424445530276, 48.866444619044003 ], [ 2.405451557861491, 48.867125703201879 ], [ 2.405532820542123, 48.867804911323567 ], [ 2.40566801083681, 48.868480381860664 ], [ 2.405856758198353, 48.869150263583713 ], [ 2.406098545283355, 48.869812720654231 ], [ 2.406392709370218, 48.870465937653762 ], [ 2.406738444175631, 48.871108124556194 ], [ 2.407134802064523, 48.871737521629754 ], [ 2.407580696647472, 48.872352404255288 ], [ 2.408074905758417, 48.872951087647685 ], [ 2.40861607480454, 48.873531931467575 ], [ 2.4092027204791, 48.874093344310666 ], [ 2.409833234827081, 48.874633788062624 ], [ 2.410505889652481, 48.875151782107444 ], [ 2.41121884125518, 48.87564590737805 ], [ 2.411970135484391, 48.876114810237958 ], [ 2.412757713094856, 48.876557206183563 ], [ 2.413579415391084, 48.876971883356923 ], [ 2.414432990144201, 48.877357705859453 ], [ 2.415316097765138, 48.877713616857712 ], [ 2.41622631771729, 48.878038641472621 ], [ 2.417161155151037, 48.878331889444475 ], [ 2.418118047741954, 48.878592557566321 ], [ 2.419094372713961, 48.878819931879434 ], [ 2.420087454028173, 48.879013389624447 ], [ 2.421094569717737, 48.879172400943375 ], [ 2.422112959348551, 48.879296530327522 ], [ 2.423139831585424, 48.879385437807585 ], [ 2.424172371842931, 48.87943887988267 ], [ 2.42520775, 48.879456710185536 ], [ 2.426243128157068, 48.87943887988267 ], [ 2.427275668414576, 48.879385437807585 ], [ 2.428302540651448, 48.879296530327522 ], [ 2.429320930282262, 48.879172400943375 ], [ 2.430328045971826, 48.879013389624447 ], [ 2.431321127286038, 48.878819931879434 ], [ 2.432297452258045, 48.878592557566321 ], [ 2.433254344848961, 48.878331889444475 ], [ 2.434189182282708, 48.878038641472621 ], [ 2.435099402234861, 48.877713616857712 ], [ 2.435982509855798, 48.877357705859453 ], [ 2.436836084608915, 48.876971883356923 ], [ 2.437657786905143, 48.876557206183563 ], [ 2.438445364515608, 48.876114810237958 ], [ 2.439196658744819, 48.87564590737805 ], [ 2.439909610347518, 48.875151782107444 ], [ 2.440582265172918, 48.874633788062624 ], [ 2.4412127795209, 48.874093344310666 ], [ 2.441799425195459, 48.873531931467575 ], [ 2.442340594241582, 48.872951087647685 ], [ 2.442834803352528, 48.872352404255288 ], [ 2.443280697935475, 48.871737521629754 ], [ 2.443677055824368, 48.871108124556194 ], [ 2.44402279062978, 48.870465937653762 ], [ 2.444316954716645, 48.869812720654231 ], [ 2.444558741801645, 48.869150263583713 ], [ 2.444747489163188, 48.868480381860664 ], [ 2.444882679457876, 48.867804911323567 ], [ 2.444963942138507, 48.867125703201879 ], [ 2.444991054469722, 48.866444619044003 ] ] ] } },
{ "type": "Feature", "properties": { "name": "Bagnolet", "feature_type": "mrr", "metric_roundness": 39.68, "metric_rectangularity": 66.07, "metric_mobile_fit": 93.37, "metric_aspect_ratio": 0.629, "metric_area_km2": 6.04 }, "geometry": { "type": "Polygon", "coordinates": [ [ [ 2.437226865216067, 48.877002731538312 ], [ 2.419331388558083, 48.853830917470454 ], [ 2.402675482606444, 48.859398352679733 ], [ 2.420570959264428, 48.882567589312202 ], [ 2.437226865216067, 48.877002731538312 ] ] ] } }
]
}
