{
"type": "FeatureCollection",
"name": "bailleul_neuville",
"crs": { "type": "name", "properties": { "name": "urn:ogc:def:crs:OGC:1.3:CRS84" } },
"features": [
{ "type": "Feature", "properties": { "name": "Bailleul-Neuville", "metric_roundness": 25.5, "metric_rectangularity": 63.76, "metric_mobile_fit": 34.93, "metric_aspect_ratio": 1.213, "metric_area_km2": 32.51 }, "geometry": { "type": "Polygon", "coordinates": [ [ [ 1.4356855, 49.829781 ], [ 1.4138596, 49.8117169 ], [ 1.390614, 49.809503 ], [ 1.3801646, 49.797506399999989 ], [ 1.3890866, 49.784391199999988 ], [ 1.3947951, 49.782767799999981 ], [ 1.4119565, 49.790388 ], [ 1.4375195, 49.809294 ], [ 1.476865, 49.831804 ], [ 1.4722686, 49.8342075 ], [ 1.4552675, 49.83402 ], [ 1.4356855, 49.829781 ] ] ] } }
]
}
