{
"type": "FeatureCollection",
"name": "barbentane",
"crs": { "type": "name", "properties": { "name": "urn:ogc:def:crs:OGC:1.3:CRS84" } },
"features": [
{ "type": "Feature", "properties": { "name": "Barbentane", "feature_type": "entity", "metric_roundness": 56.33, "metric_rectangularity": 70.34, "metric_mobile_fit": 66.52, "metric_aspect_ratio": 0.897, "metric_area_km2": 52.06 }, "geometry": { "type": "Polygon", "coordinates": [ [ [ 4.7116926, 43.8978526 ], [ 4.7150369, 43.888078199999988 ], [ 4.7172231, 43.8859153 ], [ 4.7206164, 43.8825582 ], [ 4.7295622, 43.8798806 ], [ 4.7267745, 43.8697115 ], [ 4.728698, 43.86594 ], [ 4.7310555, 43.8634245 ], [ 4.7344675, 43.8577105 ], [ 4.7694719, 43.8783627 ], [ 4.7765767, 43.8859153 ], [ 4.781508, 43.8911575 ], [ 4.789381, 43.9061644 ], [ 4.7910103, 43.90927 ], [ 4.7919373, 43.911037 ], [ 4.7741284, 43.91543609999998 ], [ 4.773595, 43.919636 ], [ 4.7390595, 43.924062 ], [ 4.740211, 43.921716 ], [ 4.740099, 43.919679 ], [ 4.7355085, 43.9165085 ], [ 4.725261, 43.90927 ], [ 4.7208644, 43.9061644 ], [ 4.709326, 43.898014 ], [ 4.7116926, 43.8978526 ] ] ] } },
{ "type": "Feature", "properties": { "name": "Barbentane", "feature_type": "circle", "metric_roundness": 56.33, "metric_rectangularity": 70.34, "metric_mobile_fit": 66.52, "metric_aspect_ratio": 0.897, "metric_area_km2": 52.06 }, "geometry": { "type": "Polygon", "coordinates": [ [ [ 4.801314758969838, 43.890327055355236 ], [ 4.801247967407892, 43.888488842595223 ], [ 4.801047775793084, 43.886655611749667 ], [ 4.800714732836715, 43.88483238827358 ], [ 4.800249751386379, 43.883024170648362 ], [ 4.799654105923911, 43.881235916668658 ], [ 4.79892942907212, 43.879472529835873 ], [ 4.798077707119884, 43.877738845895969 ], [ 4.797101274577876, 43.876039619558341 ], [ 4.796002807779816, 43.874379511432849 ], [ 4.79478531754685, 43.872763075220867 ], [ 4.793452140935078, 43.871194745196057 ], [ 4.792006932088924, 43.869678824009355 ], [ 4.79045365222538, 43.868219470852239 ], [ 4.788796558776585, 43.866820690011195 ], [ 4.787040193720501, 43.865486319845061 ], [ 4.78518937113166, 43.864220022216195 ], [ 4.783249163986131, 43.863025272404833 ], [ 4.781224890256838, 43.861905349534901 ], [ 4.779122098337367, 43.860863327537984 ], [ 4.776946551834205, 43.859902066680711 ], [ 4.774704213769097, 43.859024205679511 ], [ 4.772401230234818, 43.858232154424542 ], [ 4.770043913549156, 43.857528087333506 ], [ 4.76763872495329, 43.856913937353724 ], [ 4.765192256901981, 43.856391390629646 ], [ 4.762711214994105, 43.855961881850504 ], [ 4.760202399593076, 43.855626590291401 ], [ 4.757672687187523, 43.855386436558817 ], [ 4.755129011543311, 43.855242080049806 ], [ 4.752578344698572, 43.855193917132056 ], [ 4.750027677853833, 43.855242080049806 ], [ 4.747484002209621, 43.855386436558817 ], [ 4.744954289804067, 43.855626590291401 ], [ 4.742445474403039, 43.855961881850504 ], [ 4.739964432495163, 43.856391390629646 ], [ 4.737517964443853, 43.856913937353724 ], [ 4.735112775847988, 43.857528087333506 ], [ 4.732755459162325, 43.858232154424542 ], [ 4.730452475628046, 43.859024205679511 ], [ 4.72821013756294, 43.859902066680711 ], [ 4.726034591059777, 43.860863327537984 ], [ 4.723931799140305, 43.861905349534901 ], [ 4.721907525411012, 43.863025272404833 ], [ 4.719967318265483, 43.864220022216195 ], [ 4.718116495676643, 43.865486319845061 ], [ 4.716360130620558, 43.866820690011195 ], [ 4.714703037171764, 43.868219470852239 ], [ 4.71314975730822, 43.869678824009355 ], [ 4.711704548462065, 43.871194745196057 ], [ 4.710371371850294, 43.872763075220867 ], [ 4.709153881617327, 43.874379511432849 ], [ 4.708055414819269, 43.876039619558341 ], [ 4.70707898227726, 43.877738845895969 ], [ 4.706227260325025, 43.879472529835873 ], [ 4.705502583473233, 43.881235916668658 ], [ 4.704906938010764, 43.883024170648362 ], [ 4.704441956560428, 43.88483238827358 ], [ 4.70410891360406, 43.886655611749667 ], [ 4.703908721989252, 43.888488842595223 ], [ 4.703841930427306, 43.890327055355236 ], [ 4.703908721989252, 43.892165211383144 ], [ 4.70410891360406, 43.893998272653924 ], [ 4.704441956560428, 43.895821215570486 ], [ 4.704906938010764, 43.897629044725285 ], [ 4.705502583473233, 43.899416806579858 ], [ 4.706227260325025, 43.901179603024595 ], [ 4.70707898227726, 43.902912604781982 ], [ 4.708055414819269, 43.904611064616745 ], [ 4.709153881617327, 43.906270330317 ], [ 4.710371371850294, 43.907885857411159 ], [ 4.711704548462065, 43.909453221586048 ], [ 4.71314975730822, 43.910968130772794 ], [ 4.714703037171764, 43.912426436867584 ], [ 4.716360130620558, 43.913824147055784 ], [ 4.718116495676643, 43.915157434708853 ], [ 4.719967318265483, 43.916422649824668 ], [ 4.721907525411012, 43.917616328983215 ], [ 4.723931799140305, 43.918735204790899 ], [ 4.726034591059777, 43.919776214787952 ], [ 4.72821013756294, 43.920736509795404 ], [ 4.730452475628046, 43.921613461678916 ], [ 4.732755459162325, 43.922404670508783 ], [ 4.735112775847988, 43.923107971097096 ], [ 4.737517964443853, 43.923721438894489 ], [ 4.739964432495161, 43.924243395230661 ], [ 4.742445474403039, 43.924672411884771 ], [ 4.744954289804067, 43.925007314973548 ], [ 4.747484002209621, 43.925247188146678 ], [ 4.750027677853833, 43.925391375080956 ], [ 4.752578344698572, 43.925439481266601 ], [ 4.755129011543311, 43.925391375080956 ], [ 4.757672687187523, 43.925247188146678 ], [ 4.760202399593076, 43.925007314973548 ], [ 4.762711214994105, 43.924672411884771 ], [ 4.765192256901981, 43.924243395230661 ], [ 4.76763872495329, 43.923721438894489 ], [ 4.770043913549156, 43.923107971097096 ], [ 4.772401230234818, 43.922404670508783 ], [ 4.774704213769097, 43.921613461678916 ], [ 4.776946551834205, 43.920736509795404 ], [ 4.779122098337367, 43.919776214787952 ], [ 4.781224890256838, 43.918735204790899 ], [ 4.783249163986131, 43.917616328983215 ], [ 4.78518937113166, 43.916422649824668 ], [ 4.787040193720501, 43.915157434708853 ], [ 4.788796558776585, 43.913824147055784 ], [ 4.79045365222538, 43.912426436867584 ], [ 4.792006932088924, 43.910968130772794 ], [ 4.793452140935078, 43.909453221586048 ], [ 4.79478531754685, 43.907885857411159 ], [ 4.796002807779816, 43.906270330317 ], [ 4.797101274577876, 43.904611064616745 ], [ 4.798077707119884, 43.902912604781982 ], [ 4.79892942907212, 43.901179603024595 ], [ 4.799654105923911, 43.899416806579858 ], [ 4.800249751386379, 43.897629044725285 ], [ 4.800714732836715, 43.895821215570486 ], [ 4.801047775793084, 43.893998272653924 ], [ 4.801247967407892, 43.892165211383144 ], [ 4.801314758969838, 43.890327055355236 ] ] ] } },
{ "type": "Feature", "properties": { "name": "Barbentane", "feature_type": "mrr", "metric_roundness": 56.33, "metric_rectangularity": 70.34, "metric_mobile_fit": 66.52, "metric_aspect_ratio": 0.897, "metric_area_km2": 52.06 }, "geometry": { "type": "Polygon", "coordinates": [ [ [ 4.692038518392461, 43.88286408684111 ], [ 4.751521466679345, 43.934975908888376 ], [ 4.800779443803419, 43.905798381023622 ], [ 4.741296495516536, 43.85366100886413 ], [ 4.692038518392461, 43.88286408684111 ] ] ] } }
]
}
