{
"type": "FeatureCollection",
"name": "barcena_de_campos",
"crs": { "type": "name", "properties": { "name": "urn:ogc:def:crs:OGC:1.3:CRS84" } },
"features": [
{ "type": "Feature", "properties": { "name": "Bárcena de Campos", "metric_roundness": 37.56, "metric_rectangularity": 63.59, "metric_mobile_fit": 83.12, "metric_aspect_ratio": 0.731, "metric_area_km2": 26.47 }, "geometry": { "type": "Polygon", "coordinates": [ [ [ -4.4988528, 42.4691118 ], [ -4.4728205, 42.48666 ], [ -4.479528, 42.500920199999989 ], [ -4.4774898, 42.5112878 ], [ -4.4916095, 42.5190085 ], [ -4.4958325, 42.514881 ], [ -4.497137, 42.512947 ], [ -4.497296, 42.5103685 ], [ -4.495938, 42.5045245 ], [ -4.4971655, 42.50288 ], [ -4.4999415, 42.50087 ], [ -4.4999755, 42.498771499999989 ], [ -4.501463, 42.4942855 ], [ -4.5068915, 42.4928705 ], [ -4.510829, 42.49308 ], [ -4.5126195, 42.4942205 ], [ -4.5142935, 42.491504499999984 ], [ -4.51415, 42.4895705 ], [ -4.517083, 42.488495 ], [ -4.5209485, 42.4858245 ], [ -4.5241605, 42.4843865 ], [ -4.531254, 42.477844499999989 ], [ -4.520945, 42.4600905 ], [ -4.4988528, 42.4691118 ] ] ] } }
]
}
