{
"type": "FeatureCollection",
"name": "barzago",
"crs": { "type": "name", "properties": { "name": "urn:ogc:def:crs:OGC:1.3:CRS84" } },
"features": [
{ "type": "Feature", "properties": { "name": "Barzago", "feature_type": "entity", "metric_roundness": 55.77, "metric_rectangularity": 64.26, "metric_mobile_fit": 28.11, "metric_aspect_ratio": 1.281, "metric_area_km2": 7.65 }, "geometry": { "type": "Polygon", "coordinates": [ [ [ 9.3229093, 45.760547500000015 ], [ 9.3209143, 45.7590831 ], [ 9.299006, 45.761348 ], [ 9.3009037, 45.753636299999989 ], [ 9.30589, 45.750358 ], [ 9.314061, 45.7490834 ], [ 9.312503, 45.7442915 ], [ 9.3232285, 45.745053499999976 ], [ 9.332677, 45.751453 ], [ 9.335444, 45.758181699999987 ], [ 9.330323, 45.762102499999983 ], [ 9.3284645, 45.763184 ], [ 9.320857, 45.764132499999988 ], [ 9.3229093, 45.760547500000015 ] ] ] } },
{ "type": "Feature", "properties": { "name": "Barzago", "feature_type": "circle", "metric_roundness": 55.77, "metric_rectangularity": 64.26, "metric_mobile_fit": 28.11, "metric_aspect_ratio": 1.281, "metric_area_km2": 7.65 }, "geometry": { "type": "Polygon", "coordinates": [ [ [ 9.335513854831426, 45.75705283620546 ], [ 9.335488127073939, 45.756367337117759 ], [ 9.335411014319467, 45.755683708548986 ], [ 9.335282727928712, 45.755003824380921 ], [ 9.335103619525757, 45.754329548299872 ], [ 9.33487418003428, 45.753662728686557 ], [ 9.334595038331981, 45.753005193547224 ], [ 9.334266959526865, 45.752358745499969 ], [ 9.333890842860129, 45.751725156829906 ], [ 9.333467719241415, 45.751106164626847 ], [ 9.332998748423151, 45.750503466019055 ], [ 9.332485215821752, 45.749918713515811 ], [ 9.331928528994382, 45.749353510471991 ], [ 9.331330213780941, 45.748809406686881 ], [ 9.330691910121841, 45.748287894149534 ], [ 9.330015367563043, 45.747790402942385 ], [ 9.329302440460674, 45.747318297314258 ], [ 9.328555082898369, 45.74687287193391 ], [ 9.327775343331256, 45.746455348334131 ], [ 9.32696535897129, 45.746066871556508 ], [ 9.326127349929301, 45.745708507005936 ], [ 9.325263613129822, 45.745381237523617 ], [ 9.324376516015384, 45.745085960686779 ], [ 9.323468490057518, 45.744823486342334 ], [ 9.322542024092256, 45.744594534381577 ], [ 9.32159965749841, 45.744399732761877 ], [ 9.320643973237315, 45.744239615780877 ], [ 9.319677590773097, 45.744114622608166 ], [ 9.318703158892921, 45.744025096078204 ], [ 9.317723348446837, 45.74397128174806 ], [ 9.316740845027173, 45.743953327222435 ], [ 9.315758341607509, 45.74397128174806 ], [ 9.314778531161426, 45.744025096078204 ], [ 9.313804099281249, 45.744114622608166 ], [ 9.312837716817032, 45.744239615780877 ], [ 9.311882032555935, 45.744399732761877 ], [ 9.310939665962092, 45.744594534381577 ], [ 9.310013199996829, 45.744823486342334 ], [ 9.309105174038962, 45.745085960686779 ], [ 9.308218076924526, 45.745381237523617 ], [ 9.307354340125048, 45.745708507005936 ], [ 9.306516331083058, 45.746066871556508 ], [ 9.305706346723092, 45.746455348334131 ], [ 9.304926607155977, 45.74687287193391 ], [ 9.304179249593671, 45.747318297314258 ], [ 9.303466322491303, 45.747790402942385 ], [ 9.302789779932507, 45.748287894149534 ], [ 9.302151476273407, 45.748809406686881 ], [ 9.301553161059966, 45.749353510471991 ], [ 9.300996474232594, 45.749918713515811 ], [ 9.300482941631195, 45.750503466019055 ], [ 9.300013970812932, 45.751106164626847 ], [ 9.299590847194219, 45.751725156829906 ], [ 9.299214730527481, 45.752358745499969 ], [ 9.298886651722365, 45.753005193547224 ], [ 9.298607510020068, 45.753662728686557 ], [ 9.298378070528591, 45.754329548299872 ], [ 9.298198962125634, 45.755003824380921 ], [ 9.298070675734881, 45.755683708548986 ], [ 9.297993562980407, 45.756367337117759 ], [ 9.29796783522292, 45.75705283620546 ], [ 9.297993562980407, 45.757738326872158 ], [ 9.298070675734881, 45.758421930270181 ], [ 9.298198962125634, 45.759101772793521 ], [ 9.298378070528591, 45.759775991212159 ], [ 9.298607510020068, 45.760442737777119 ], [ 9.298886651722365, 45.76110018528248 ], [ 9.299214730527481, 45.761746532070305 ], [ 9.299590847194219, 45.762380006964889 ], [ 9.300013970812932, 45.762998874122964 ], [ 9.300482941631195, 45.763601437786292 ], [ 9.300996474232594, 45.76418604692406 ], [ 9.301553161059966, 45.764751099752147 ], [ 9.302151476273407, 45.765295048117054 ], [ 9.302789779932507, 45.765816401732543 ], [ 9.303466322491303, 45.76631373225738 ], [ 9.304179249593671, 45.766785677203195 ], [ 9.304926607155977, 45.767230943661701 ], [ 9.305706346723092, 45.76764831184127 ], [ 9.306516331083058, 45.76803663840316 ], [ 9.307354340125048, 45.76839485958827 ], [ 9.308218076924526, 45.768721994126118 ], [ 9.309105174038962, 45.769017145917978 ], [ 9.310013199996829, 45.769279506486939 ], [ 9.310939665962092, 45.769508357188258 ], [ 9.311882032555935, 45.769703071174007 ], [ 9.312837716817032, 45.769863115106645 ], [ 9.313804099281249, 45.769988050616945 ], [ 9.314778531161426, 45.770077535502182 ], [ 9.315758341607509, 45.770131324661591 ], [ 9.316740845027173, 45.770149270766204 ], [ 9.317723348446837, 45.770131324661591 ], [ 9.318703158892921, 45.770077535502182 ], [ 9.319677590773097, 45.769988050616945 ], [ 9.320643973237315, 45.769863115106645 ], [ 9.32159965749841, 45.769703071174007 ], [ 9.322542024092256, 45.769508357188258 ], [ 9.323468490057518, 45.769279506486939 ], [ 9.324376516015384, 45.769017145917978 ], [ 9.325263613129822, 45.768721994126118 ], [ 9.326127349929301, 45.76839485958827 ], [ 9.32696535897129, 45.76803663840316 ], [ 9.327775343331256, 45.76764831184127 ], [ 9.328555082898369, 45.767230943661701 ], [ 9.329302440460674, 45.766785677203195 ], [ 9.330015367563043, 45.76631373225738 ], [ 9.330691910121841, 45.765816401732543 ], [ 9.331330213780941, 45.765295048117054 ], [ 9.331928528994382, 45.764751099752147 ], [ 9.332485215821752, 45.76418604692406 ], [ 9.332998748423151, 45.763601437786292 ], [ 9.333467719241415, 45.762998874122964 ], [ 9.333890842860129, 45.762380006964889 ], [ 9.334266959526865, 45.761746532070305 ], [ 9.334595038331981, 45.76110018528248 ], [ 9.33487418003428, 45.760442737777119 ], [ 9.335103619525757, 45.759775991212159 ], [ 9.335282727928712, 45.759101772793521 ], [ 9.335411014319467, 45.758421930270181 ], [ 9.335488127073939, 45.757738326872158 ], [ 9.335513854831426, 45.75705283620546 ] ] ] } },
{ "type": "Feature", "properties": { "name": "Barzago", "feature_type": "mrr", "metric_roundness": 55.77, "metric_rectangularity": 64.26, "metric_mobile_fit": 28.11, "metric_aspect_ratio": 1.281, "metric_area_km2": 7.65 }, "geometry": { "type": "Polygon", "coordinates": [ [ [ 9.298888626988816, 45.761333041496961 ], [ 9.333465243841419, 45.765739119758614 ], [ 9.338375322366719, 45.74698425562233 ], [ 9.303798705514117, 45.742576696317236 ], [ 9.298888626988816, 45.761333041496961 ] ] ] } }
]
}
