{
"type": "FeatureCollection",
"name": "bas_mauco",
"crs": { "type": "name", "properties": { "name": "urn:ogc:def:crs:OGC:1.3:CRS84" } },
"features": [
{ "type": "Feature", "properties": { "name": "Bas-Mauco", "feature_type": "entity", "metric_roundness": 48.72, "metric_rectangularity": 63.82, "metric_mobile_fit": 41.02, "metric_aspect_ratio": 1.152, "metric_area_km2": 22.08 }, "geometry": { "type": "Polygon", "coordinates": [ [ [ -0.5645525, 43.777784499999989 ], [ -0.5575609, 43.784267599999986 ], [ -0.5462803, 43.7833164 ], [ -0.5377443, 43.7885046 ], [ -0.518313, 43.792551 ], [ -0.5283775, 43.798824499999974 ], [ -0.530974, 43.801059 ], [ -0.531744, 43.802792499999988 ], [ -0.5362525, 43.803537 ], [ -0.5394575, 43.8030475 ], [ -0.5412325, 43.8037735 ], [ -0.542648, 43.8084135 ], [ -0.5414095, 43.812413499999984 ], [ -0.5430335, 43.815294 ], [ -0.5515045, 43.8162995 ], [ -0.5521496, 43.809488599999987 ], [ -0.5594199, 43.8078005 ], [ -0.5704681, 43.799121 ], [ -0.5819955, 43.7994015 ], [ -0.5845789, 43.7866253 ], [ -0.5772575, 43.7747915 ], [ -0.5645525, 43.777784499999989 ] ] ] } },
{ "type": "Feature", "properties": { "name": "Bas-Mauco", "feature_type": "circle", "metric_roundness": 48.72, "metric_rectangularity": 63.82, "metric_mobile_fit": 41.02, "metric_aspect_ratio": 1.152, "metric_area_km2": 22.08 }, "geometry": { "type": "Polygon", "coordinates": [ [ [ -0.518291707043343, 43.791680954314195 ], [ -0.518338472071856, 43.790391780627267 ], [ -0.518478638977702, 43.789106112782235 ], [ -0.518711823573135, 43.78782747504674 ], [ -0.519037386715388, 43.786559372642884 ], [ -0.519454436058516, 43.785305282133393 ], [ -0.51996182849926, 43.78406864188409 ], [ -0.520558173310208, 43.782852842628657 ], [ -0.521241835951684, 43.781661218161865 ], [ -0.522010942551909, 43.780497036186866 ], [ -0.522863385043152, 43.779363489341684 ], [ -0.523796826939796, 43.778263686429852 ], [ -0.524808709742486, 43.777200643879347 ], [ -0.525896259950794, 43.776177277453463 ], [ -0.527056496665195, 43.775196394236588 ], [ -0.528286239757501, 43.77426068491706 ], [ -0.529582118587375, 43.773372716388586 ], [ -0.530940581241019, 43.772534924690682 ], [ -0.532357904266726, 43.771749608307765 ], [ -0.533830202880598, 43.771018921845567 ], [ -0.535353441614474, 43.770344870102406 ], [ -0.536923445376862, 43.769729302551845 ], [ -0.53853591089658, 43.769173908252135 ], [ -0.54018641851772, 43.768680211196525 ], [ -0.541870444313616, 43.768249566117554 ], [ -0.543583372486619, 43.767883154756923 ], [ -0.545320508019669, 43.767581982611361 ], [ -0.547077089545018, 43.767346876163586 ], [ -0.548848302394802, 43.767178480606141 ], [ -0.550629291797717, 43.767077258064418 ], [ -0.552415176185604, 43.767043486323772 ], [ -0.554201060573491, 43.767077258064418 ], [ -0.555982049976406, 43.767178480606141 ], [ -0.55775326282619, 43.767346876163586 ], [ -0.559509844351539, 43.767581982611361 ], [ -0.561246979884589, 43.767883154756923 ], [ -0.562959908057592, 43.768249566117554 ], [ -0.564643933853488, 43.768680211196525 ], [ -0.566294441474628, 43.769173908252135 ], [ -0.567906906994346, 43.769729302551845 ], [ -0.569476910756734, 43.770344870102406 ], [ -0.57100014949061, 43.771018921845567 ], [ -0.572472448104482, 43.771749608307765 ], [ -0.573889771130188, 43.772534924690682 ], [ -0.575248233783833, 43.773372716388586 ], [ -0.576544112613706, 43.77426068491706 ], [ -0.577773855706012, 43.775196394236588 ], [ -0.578934092420413, 43.776177277453463 ], [ -0.580021642628722, 43.777200643879347 ], [ -0.581033525431412, 43.778263686429852 ], [ -0.581966967328056, 43.779363489341684 ], [ -0.582819409819299, 43.780497036186866 ], [ -0.583588516419524, 43.781661218161865 ], [ -0.584272179061, 43.782852842628657 ], [ -0.584868523871948, 43.78406864188409 ], [ -0.585375916312692, 43.785305282133393 ], [ -0.58579296565582, 43.786559372642884 ], [ -0.586118528798073, 43.78782747504674 ], [ -0.586351713393506, 43.789106112782235 ], [ -0.586491880299352, 43.790391780627267 ], [ -0.586538645327865, 43.791680954314195 ], [ -0.586491880299352, 43.792970100193251 ], [ -0.586351713393506, 43.794255684919371 ], [ -0.586118528798073, 43.795534185135544 ], [ -0.58579296565582, 43.796802097126388 ], [ -0.585375916312692, 43.798055946415367 ], [ -0.584868523871948, 43.799292297279521 ], [ -0.584272179061, 43.80050776215576 ], [ -0.583588516419524, 43.801699010912792 ], [ -0.582819409819299, 43.802862779963874 ], [ -0.581966967328056, 43.803995881195021 ], [ -0.581033525431412, 43.805095210684968 ], [ -0.580021642628722, 43.806157757192622 ], [ -0.578934092420413, 43.807180610389459 ], [ -0.577773855706012, 43.808160968814121 ], [ -0.576544112613706, 43.809096147528038 ], [ -0.575248233783833, 43.809983585450887 ], [ -0.573889771130189, 43.810820852356606 ], [ -0.572472448104482, 43.81160565551049 ], [ -0.57100014949061, 43.812335845929873 ], [ -0.569476910756734, 43.81300942425117 ], [ -0.567906906994346, 43.813624546187725 ], [ -0.566294441474628, 43.814179527563539 ], [ -0.564643933853488, 43.814672848909439 ], [ -0.562959908057592, 43.815103159609222 ], [ -0.561246979884589, 43.81546928158474 ], [ -0.559509844351539, 43.815770212509833 ], [ -0.55775326282619, 43.816005128544617 ], [ -0.555982049976406, 43.816173386582754 ], [ -0.554201060573491, 43.816274526005571 ], [ -0.552415176185604, 43.816308269938347 ], [ -0.550629291797717, 43.816274526005571 ], [ -0.548848302394802, 43.816173386582754 ], [ -0.547077089545018, 43.816005128544617 ], [ -0.545320508019669, 43.815770212509833 ], [ -0.543583372486619, 43.81546928158474 ], [ -0.541870444313616, 43.815103159609222 ], [ -0.54018641851772, 43.814672848909439 ], [ -0.53853591089658, 43.814179527563539 ], [ -0.536923445376862, 43.813624546187725 ], [ -0.535353441614474, 43.81300942425117 ], [ -0.533830202880598, 43.812335845929873 ], [ -0.532357904266726, 43.81160565551049 ], [ -0.530940581241019, 43.810820852356606 ], [ -0.529582118587375, 43.809983585450887 ], [ -0.528286239757502, 43.809096147528038 ], [ -0.527056496665195, 43.808160968814121 ], [ -0.525896259950794, 43.807180610389459 ], [ -0.524808709742486, 43.806157757192622 ], [ -0.523796826939796, 43.805095210684968 ], [ -0.522863385043152, 43.803995881195021 ], [ -0.522010942551909, 43.802862779963874 ], [ -0.521241835951684, 43.801699010912792 ], [ -0.520558173310208, 43.80050776215576 ], [ -0.51996182849926, 43.799292297279521 ], [ -0.519454436058516, 43.798055946415367 ], [ -0.519037386715388, 43.796802097126388 ], [ -0.518711823573135, 43.795534185135544 ], [ -0.518478638977702, 43.794255684919371 ], [ -0.518338472071856, 43.792970100193251 ], [ -0.518291707043343, 43.791680954314195 ] ] ] } },
{ "type": "Feature", "properties": { "name": "Bas-Mauco", "feature_type": "mrr", "metric_roundness": 48.72, "metric_rectangularity": 63.82, "metric_mobile_fit": 41.02, "metric_aspect_ratio": 1.152, "metric_area_km2": 22.08 }, "geometry": { "type": "Polygon", "coordinates": [ [ [ -0.518313, 43.792551 ], [ -0.576364236404676, 43.773381309365718 ], [ -0.594553654708614, 43.802090038010363 ], [ -0.536502424967022, 43.821250520053475 ], [ -0.518313, 43.792551 ] ] ] } }
]
}
