{
"type": "FeatureCollection",
"name": "basconcillos_del_tozo",
"crs": { "type": "name", "properties": { "name": "urn:ogc:def:crs:OGC:1.3:CRS84" } },
"features": [
{ "type": "Feature", "properties": { "name": "Basconcillos del Tozo", "metric_roundness": 44.64, "metric_rectangularity": 58.24, "metric_mobile_fit": 68.18, "metric_aspect_ratio": 0.881, "metric_area_km2": 224.94 }, "geometry": { "type": "Polygon", "coordinates": [ [ [ -3.8673333, 42.6175798 ], [ -3.8562296, 42.637651 ], [ -3.8516235, 42.64106 ], [ -3.8607478, 42.6447219 ], [ -3.8616076, 42.6527216 ], [ -3.8592725, 42.6561307 ], [ -3.8658525, 42.6642495 ], [ -3.870426, 42.6686452 ], [ -3.8770283, 42.669463399999984 ], [ -3.8925452, 42.661397099999988 ], [ -3.89896, 42.663054799999976 ], [ -3.9069623, 42.6713852 ], [ -3.9041962, 42.6822349 ], [ -3.910696, 42.691365499999982 ], [ -3.9233226, 42.698204499999981 ], [ -3.9357495, 42.704935299999981 ], [ -3.9326079, 42.7108176 ], [ -3.9329402, 42.7245188 ], [ -3.9446589, 42.736183699999984 ], [ -3.9516232, 42.7499495 ], [ -3.9466005, 42.7618635 ], [ -3.9524985, 42.761528 ], [ -3.956566, 42.762169 ], [ -3.9657135, 42.7585525 ], [ -3.978902, 42.758034 ], [ -3.9854785, 42.756511499999988 ], [ -3.9946875, 42.756241 ], [ -4.0018079, 42.751410299999982 ], [ -4.0038297, 42.746137499999989 ], [ -3.9965568, 42.7241984 ], [ -4.0250071, 42.722417599999986 ], [ -4.0249196, 42.7032138 ], [ -4.0297343, 42.691023799999989 ], [ -4.0202049, 42.6848229 ], [ -4.0305495, 42.6694145 ], [ -3.988731, 42.6548621 ], [ -3.985648, 42.6351585 ], [ -3.9740118, 42.6359567 ], [ -3.9696093, 42.6313777 ], [ -3.9233226, 42.6283987 ], [ -3.9097973, 42.6275283 ], [ -3.8973536, 42.6196428 ], [ -3.8948395, 42.612831 ], [ -3.8673333, 42.6175798 ] ] ] } }
]
}
