{
"type": "FeatureCollection",
"name": "bassano_bresciano",
"crs": { "type": "name", "properties": { "name": "urn:ogc:def:crs:OGC:1.3:CRS84" } },
"features": [
{ "type": "Feature", "properties": { "name": "Bassano Bresciano", "metric_roundness": 52.9, "metric_rectangularity": 61.28, "metric_mobile_fit": 71.26, "metric_aspect_ratio": 0.85, "metric_area_km2": 18.1 }, "geometry": { "type": "Polygon", "coordinates": [ [ [ 10.1192018, 45.307603899999989 ], [ 10.1205241, 45.3027706 ], [ 10.1258405, 45.3019165 ], [ 10.1379559, 45.315884799999985 ], [ 10.150198, 45.321059 ], [ 10.153791, 45.331535 ], [ 10.1400389, 45.3381671 ], [ 10.1235584, 45.335828899999981 ], [ 10.111103, 45.3404024 ], [ 10.1080015, 45.3316255 ], [ 10.1072705, 45.325091099999987 ], [ 10.1179636, 45.316509599999989 ], [ 10.1152945, 45.3098515 ], [ 10.1192018, 45.307603899999989 ] ] ] } }
]
}
