{
"type": "FeatureCollection",
"name": "batsfjord",
"crs": { "type": "name", "properties": { "name": "urn:ogc:def:crs:OGC:1.3:CRS84" } },
"features": [
{ "type": "Feature", "properties": { "name": "Båtsfjord", "feature_type": "entity", "metric_roundness": 56.34, "metric_rectangularity": 71.58, "metric_mobile_fit": 39.23, "metric_aspect_ratio": 1.17, "metric_area_km2": 12818.48 }, "geometry": { "type": "Polygon", "coordinates": [ [ [ 29.2840226, 70.4609051 ], [ 29.3191698, 70.4472916 ], [ 29.4520289, 70.425263899999976 ], [ 29.573928, 70.3769489 ], [ 29.6524069, 70.3616449 ], [ 29.6451622, 70.3548339 ], [ 29.6099627, 70.3432996 ], [ 29.6079693, 70.340684099999976 ], [ 29.6105372, 70.3388113 ], [ 29.7393536, 70.3274962 ], [ 29.8626846, 70.3248264 ], [ 29.9302961, 70.315392599999981 ], [ 29.9882567, 70.311631199999979 ], [ 30.074358, 70.29643 ], [ 30.241585, 70.347475 ], [ 30.2510879, 70.3503538 ], [ 30.2924069, 70.362870899999976 ], [ 30.3677645, 70.3856995 ], [ 30.5488875, 70.4252675 ], [ 30.7060958, 70.459412799999981 ], [ 30.7439445, 70.467633499999977 ], [ 30.7082137, 70.4741444 ], [ 30.6678567, 70.489245899999986 ], [ 30.6347376, 70.4943039 ], [ 30.591237, 70.507128899999984 ], [ 30.5917555, 70.5138649 ], [ 30.6132074, 70.5251611 ], [ 30.616354, 70.537058 ], [ 30.6278419, 70.5408262 ], [ 30.6247984, 70.545657 ], [ 30.6136768, 70.5495346 ], [ 30.5946887, 70.547494699999987 ], [ 30.5796237, 70.5418862 ], [ 30.5593306, 70.540576699999988 ], [ 30.5360216, 70.5418444 ], [ 30.5091367, 70.547666 ], [ 30.4732506, 70.54697849999998 ], [ 30.4409195, 70.5530503 ], [ 30.4022386, 70.5490699 ], [ 30.3765576, 70.5502328 ], [ 30.2071288, 70.525180399999982 ], [ 30.133594, 70.5060684 ], [ 30.1213203, 70.508269099999978 ], [ 30.1037245, 70.516944 ], [ 30.041906, 70.5241913 ], [ 30.0174491, 70.5321639 ], [ 30.0136671, 70.53641 ], [ 30.0250004, 70.5383396 ], [ 30.0563624, 70.5308415 ], [ 30.1382304, 70.532896499999978 ], [ 30.1395708, 70.534291899999985 ], [ 30.1364408, 70.535680699999986 ], [ 30.0973417, 70.540988299999981 ], [ 30.0940789, 70.5447143 ], [ 30.2104223, 70.555364 ], [ 30.2249502, 70.568342 ], [ 30.2771862, 70.574844199999987 ], [ 30.3091401, 70.5867548 ], [ 30.319796, 70.5942194 ], [ 30.327512, 70.610936099999989 ], [ 30.3217483, 70.6151865 ], [ 30.2437239, 70.64013869999998 ], [ 30.186113, 70.647493400000016 ], [ 30.1157022, 70.6500574 ], [ 30.1144948, 70.652247399999979 ], [ 30.1194553, 70.654416399999988 ], [ 30.1844341, 70.6650704 ], [ 30.2022046, 70.674868599999982 ], [ 30.1703096, 70.6851926 ], [ 30.1072987, 70.6967985 ], [ 30.0778285, 70.7067354 ], [ 30.0216571, 70.7099843 ], [ 29.9472435, 70.7026253 ], [ 29.9320013, 70.6933626 ], [ 29.8965625, 70.6804964 ], [ 29.8193095, 70.6384328 ], [ 29.7913277, 70.6319127 ], [ 29.743085499999989, 70.6269388 ], [ 29.7145707, 70.620118299999987 ], [ 29.7018611, 70.620710699999989 ], [ 29.7053946, 70.6266756 ], [ 29.7205871, 70.629185 ], [ 29.7510334, 70.6445471 ], [ 29.7803067, 70.654718699999989 ], [ 29.7829312, 70.6639128 ], [ 29.804641599999989, 70.688077 ], [ 29.7971082, 70.70286489999998 ], [ 29.796716, 70.7264184 ], [ 29.7832784, 70.7305258 ], [ 29.756361, 70.731488 ], [ 29.624821, 70.6765785 ], [ 29.5257475, 70.634439 ], [ 29.5076065, 70.603486499999988 ], [ 29.419033, 70.574365 ], [ 29.3568117, 70.5536066 ], [ 29.3228405, 70.542273 ], [ 29.2250775, 70.500353 ], [ 29.2217898, 70.4990635 ], [ 29.2177, 70.4974595 ], [ 29.233796, 70.485635 ], [ 29.2259895, 70.4777905 ], [ 29.2840226, 70.4609051 ] ] ] } },
{ "type": "Feature", "properties": { "name": "Båtsfjord", "feature_type": "circle", "metric_roundness": 56.34, "metric_rectangularity": 71.58, "metric_mobile_fit": 39.23, "metric_aspect_ratio": 1.17, "metric_area_km2": 12818.48 }, "geometry": { "type": "Polygon", "coordinates": [ [ [ 30.746603717502257, 70.488925165133779 ], [ 30.745555770035583, 70.475554689574253 ], [ 30.74241479998674, 70.462212092925981 ], [ 30.737189416536289, 70.448934049442812 ], [ 30.729893942097071, 70.435757127399256 ], [ 30.720548373057412, 70.422717687016203 ], [ 30.709178324972456, 70.409851778194678 ], [ 30.695814962353666, 70.397195038365155 ], [ 30.680494913249124, 70.384782590767827 ], [ 30.663260168848527, 70.372648943485459 ], [ 30.644157968388306, 70.36082788955656 ], [ 30.62324066967216, 70.34935240849974 ], [ 30.600565605561904, 70.338254569582986 ], [ 30.576194926832159, 70.327565437172339 ], [ 30.550195431819326, 70.317314978493329 ], [ 30.522638383332037, 70.307531974136324 ], [ 30.493599313324729, 70.298243931632157 ], [ 30.46315781586981, 70.289477002418309 ], [ 30.431397328995835, 70.281255902508448 ], [ 30.3984049059897, 70.273603837167343 ], [ 30.364270976789566, 70.266542429882477 ], [ 30.329089100122768, 70.260091655909889 ], [ 30.29295570706778, 70.254269780656657 ], [ 30.255969836743361, 70.249093303146083 ], [ 30.21823286484922, 70.244576904792851 ], [ 30.179848225802253, 70.240733403696339 ], [ 30.140921129230005, 70.23757371463833 ], [ 30.101558271598392, 70.235106814950257 ], [ 30.061867543764095, 70.233339716390347 ], [ 30.021957735253245, 70.232277443147822 ], [ 29.981938236076878, 70.231923016065679 ], [ 29.941918736900508, 70.232277443147822 ], [ 29.902008928389666, 70.233339716390347 ], [ 29.862318200555372, 70.235106814950257 ], [ 29.822955342923755, 70.23757371463833 ], [ 29.7840282463515, 70.240733403696339 ], [ 29.745643607304537, 70.244576904792851 ], [ 29.707906635410399, 70.249093303146083 ], [ 29.670920765085977, 70.254269780656657 ], [ 29.634787372030996, 70.260091655909889 ], [ 29.599605495364191, 70.266542429882477 ], [ 29.56547156616406, 70.273603837167343 ], [ 29.532479143157918, 70.281255902508448 ], [ 29.500718656283954, 70.289477002418309 ], [ 29.470277158829031, 70.298243931632157 ], [ 29.44123808882172, 70.307531974136324 ], [ 29.413681040334431, 70.317314978493329 ], [ 29.387681545321598, 70.327565437172339 ], [ 29.363310866591849, 70.338254569582986 ], [ 29.340635802481597, 70.34935240849974 ], [ 29.319718503765447, 70.36082788955656 ], [ 29.30061630330523, 70.372648943485459 ], [ 29.283381558904633, 70.384782590767827 ], [ 29.268061509800088, 70.397195038365155 ], [ 29.254698147181301, 70.409851778194678 ], [ 29.243328099096342, 70.422717687016203 ], [ 29.233982530056693, 70.435757127399256 ], [ 29.226687055617468, 70.448934049442812 ], [ 29.221461672167017, 70.462212092925981 ], [ 29.21832070211817, 70.475554689574253 ], [ 29.217272754651503, 70.488925165133779 ], [ 29.21832070211817, 70.502286840955591 ], [ 29.221461672167017, 70.515603134801083 ], [ 29.226687055617468, 70.528837660591307 ], [ 29.233982530056693, 70.541954326833874 ], [ 29.243328099096342, 70.554917433474074 ], [ 29.254698147181301, 70.567691766928419 ], [ 29.268061509800088, 70.580242693072961 ], [ 29.283381558904633, 70.592536247971253 ], [ 29.30061630330523, 70.604539226140261 ], [ 29.319718503765447, 70.616219266166425 ], [ 29.340635802481597, 70.627544933496679 ], [ 29.363310866591849, 70.63848580024262 ], [ 29.387681545321598, 70.649012521849173 ], [ 29.413681040334431, 70.659096910490774 ], [ 29.44123808882172, 70.668712005070972 ], [ 29.470277158829028, 70.67783213771223 ], [ 29.500718656283947, 70.686432996633997 ], [ 29.532479143157918, 70.694491685327677 ], [ 29.56547156616406, 70.701986777946544 ], [ 29.599605495364191, 70.708898370838114 ], [ 29.634787372030996, 70.715208130155148 ], [ 29.670920765085977, 70.720899335488895 ], [ 29.707906635410392, 70.725956919476317 ], [ 29.745643607304537, 70.730367503338471 ], [ 29.7840282463515, 70.734119428314941 ], [ 29.822955342923755, 70.737202782963379 ], [ 29.862318200555372, 70.73960942629904 ], [ 29.902008928389666, 70.741333006753919 ], [ 29.941918736900508, 70.742368976939005 ], [ 29.981938236076878, 70.742714604197303 ], [ 30.021957735253245, 70.742368976939005 ], [ 30.061867543764095, 70.741333006753919 ], [ 30.101558271598392, 70.73960942629904 ], [ 30.140921129230005, 70.737202782963379 ], [ 30.179848225802253, 70.734119428314941 ], [ 30.21823286484922, 70.730367503338471 ], [ 30.255969836743358, 70.725956919476317 ], [ 30.292955707067772, 70.720899335488895 ], [ 30.329089100122768, 70.715208130155148 ], [ 30.364270976789566, 70.708898370838114 ], [ 30.3984049059897, 70.701986777946544 ], [ 30.431397328995835, 70.694491685327677 ], [ 30.46315781586981, 70.686432996633997 ], [ 30.493599313324722, 70.67783213771223 ], [ 30.522638383332037, 70.668712005070972 ], [ 30.550195431819326, 70.659096910490774 ], [ 30.576194926832159, 70.649012521849173 ], [ 30.600565605561904, 70.63848580024262 ], [ 30.62324066967216, 70.627544933496679 ], [ 30.644157968388306, 70.616219266166425 ], [ 30.663260168848527, 70.604539226140261 ], [ 30.680494913249124, 70.592536247971253 ], [ 30.695814962353666, 70.580242693072961 ], [ 30.709178324972456, 70.567691766928419 ], [ 30.720548373057412, 70.554917433474074 ], [ 30.729893942097071, 70.541954326833874 ], [ 30.737189416536289, 70.528837660591307 ], [ 30.74241479998674, 70.515603134801083 ], [ 30.745555770035583, 70.502286840955591 ], [ 30.746603717502257, 70.488925165133779 ] ] ] } },
{ "type": "Feature", "properties": { "name": "Båtsfjord", "feature_type": "mrr", "metric_roundness": 56.34, "metric_rectangularity": 71.58, "metric_mobile_fit": 39.23, "metric_aspect_ratio": 1.17, "metric_area_km2": 12818.48 }, "geometry": { "type": "Polygon", "coordinates": [ [ [ 29.876719425387609, 70.774521722240777 ], [ 30.806417289840141, 70.490276158314344 ], [ 30.031779021133101, 70.207725176270742 ], [ 29.102081156680565, 70.495927062756152 ], [ 29.876719425387609, 70.774521722240777 ] ] ] } }
]
}
