{
"type": "FeatureCollection",
"name": "bazus_neste",
"crs": { "type": "name", "properties": { "name": "urn:ogc:def:crs:OGC:1.3:CRS84" } },
"features": [
{ "type": "Feature", "properties": { "name": "Bazus-Neste", "feature_type": "entity", "metric_roundness": 42.38, "metric_rectangularity": 64.4, "metric_mobile_fit": 90.17, "metric_aspect_ratio": 0.661, "metric_area_km2": 4.69 }, "geometry": { "type": "Polygon", "coordinates": [ [ [ 0.3980365, 43.0196375 ], [ 0.395475, 43.0324235 ], [ 0.394039, 43.035058 ], [ 0.39078, 43.037254 ], [ 0.388425, 43.039862 ], [ 0.388443, 43.042972499999983 ], [ 0.3775027, 43.038417399999986 ], [ 0.3769403, 43.0342478 ], [ 0.3812841, 43.0302776 ], [ 0.379041, 43.0261485 ], [ 0.3980365, 43.0196375 ] ] ] } },
{ "type": "Feature", "properties": { "name": "Bazus-Neste", "feature_type": "circle", "metric_roundness": 42.38, "metric_rectangularity": 64.4, "metric_mobile_fit": 90.17, "metric_aspect_ratio": 0.661, "metric_area_km2": 4.69 }, "geometry": { "type": "Polygon", "coordinates": [ [ [ 0.407594340180156, 43.030752927815804 ], [ 0.407571216656617, 43.030107424603635 ], [ 0.407501909465973, 43.029463683909995 ], [ 0.407386608574414, 43.028823470266751 ], [ 0.407225630013671, 43.028188538592914 ], [ 0.407019415014788, 43.027560629383025 ], [ 0.406768528798745, 43.026941463934477 ], [ 0.40647365902722, 43.026332739626945 ], [ 0.40613561391776, 43.025736125266761 ], [ 0.405755320028514, 43.025153256509178 ], [ 0.405333819718598, 43.024585731371047 ], [ 0.404872268291064, 43.024035105846181 ], [ 0.404371930826292, 43.02350288963563 ], [ 0.403834178714495, 43.022990542004443 ], [ 0.403260485896833, 43.022499467776548 ], [ 0.402652424825442, 43.022031013478532 ], [ 0.402011662153454, 43.021586463643139 ], [ 0.401339954166813, 43.021167037282666 ], [ 0.40063914197042, 43.020773884541867 ], [ 0.399911146441793, 43.020408083539721 ], [ 0.399157962966075, 43.020070637408807 ], [ 0.398381655966818, 43.019762471540233 ], [ 0.397584353247547, 43.019484431042081 ], [ 0.396768240159596, 43.019237278418096 ], [ 0.395935553612211, 43.019021691473206 ], [ 0.39508857594134, 43.018838261451549 ], [ 0.394229628653906, 43.018687491412251 ], [ 0.393361066064719, 43.018569794847409 ], [ 0.392485268843462, 43.018485494546049 ], [ 0.391604637489444, 43.018434821707359 ], [ 0.390721585751994, 43.018417915305413 ], [ 0.389838534014544, 43.018434821707359 ], [ 0.388957902660526, 43.018485494546049 ], [ 0.388082105439269, 43.018569794847409 ], [ 0.387213542850082, 43.018687491412251 ], [ 0.386354595562648, 43.018838261451549 ], [ 0.385507617891777, 43.019021691473206 ], [ 0.384674931344393, 43.019237278418096 ], [ 0.383858818256441, 43.019484431042081 ], [ 0.38306151553717, 43.019762471540233 ], [ 0.382285208537913, 43.020070637408807 ], [ 0.381532025062195, 43.020408083539721 ], [ 0.380804029533568, 43.020773884541867 ], [ 0.380103217337176, 43.021167037282666 ], [ 0.379431509350534, 43.021586463643139 ], [ 0.378790746678546, 43.022031013478532 ], [ 0.378182685607155, 43.022499467776548 ], [ 0.377608992789493, 43.022990542004443 ], [ 0.377071240677696, 43.02350288963563 ], [ 0.376570903212924, 43.024035105846181 ], [ 0.37610935178539, 43.024585731371047 ], [ 0.375687851475474, 43.025153256509178 ], [ 0.375307557586228, 43.025736125266761 ], [ 0.374969512476769, 43.026332739626945 ], [ 0.374674642705243, 43.026941463934477 ], [ 0.3744237564892, 43.027560629383025 ], [ 0.374217541490317, 43.028188538592914 ], [ 0.374056562929574, 43.028823470266751 ], [ 0.373941262038016, 43.029463683909995 ], [ 0.373871954847371, 43.030107424603635 ], [ 0.373848831323833, 43.030752927815804 ], [ 0.373871954847371, 43.031398424239185 ], [ 0.373941262038016, 43.032042144640812 ], [ 0.374056562929574, 43.032682324711153 ], [ 0.374217541490317, 43.033317209899032 ], [ 0.3744237564892, 43.033945060219217 ], [ 0.374674642705243, 43.03456415501951 ], [ 0.374969512476769, 43.035172797694301 ], [ 0.375307557586228, 43.035769320331603 ], [ 0.375687851475474, 43.036352088281127 ], [ 0.37610935178539, 43.03691950463049 ], [ 0.376570903212924, 43.037470014577799 ], [ 0.377071240677696, 43.038002109688293 ], [ 0.377608992789493, 43.038514332023695 ], [ 0.378182685607155, 43.039005278132876 ], [ 0.378790746678546, 43.03947360289294 ], [ 0.379431509350534, 43.039918023190381 ], [ 0.380103217337176, 43.040337321432133 ], [ 0.380804029533568, 43.040730348877169 ], [ 0.381532025062195, 43.041096028779229 ], [ 0.382285208537913, 43.041433359332601 ], [ 0.38306151553717, 43.041741416412414 ], [ 0.383858818256441, 43.042019356102507 ], [ 0.384674931344393, 43.042266417003624 ], [ 0.385507617891777, 43.042481922315758 ], [ 0.386354595562648, 43.042665281689168 ], [ 0.387213542850082, 43.042815992838761 ], [ 0.388082105439269, 43.042933642917653 ], [ 0.388957902660526, 43.043017909646103 ], [ 0.389838534014544, 43.043068562192779 ], [ 0.390721585751994, 43.04308546180593 ], [ 0.391604637489444, 43.043068562192779 ], [ 0.392485268843462, 43.043017909646103 ], [ 0.393361066064719, 43.042933642917653 ], [ 0.394229628653906, 43.042815992838761 ], [ 0.39508857594134, 43.042665281689168 ], [ 0.395935553612211, 43.042481922315758 ], [ 0.396768240159596, 43.042266417003624 ], [ 0.397584353247547, 43.042019356102507 ], [ 0.398381655966818, 43.041741416412414 ], [ 0.399157962966075, 43.041433359332601 ], [ 0.399911146441793, 43.041096028779229 ], [ 0.40063914197042, 43.040730348877169 ], [ 0.401339954166813, 43.040337321432133 ], [ 0.402011662153454, 43.039918023190381 ], [ 0.402652424825442, 43.03947360289294 ], [ 0.403260485896833, 43.039005278132876 ], [ 0.403834178714495, 43.038514332023695 ], [ 0.404371930826292, 43.038002109688293 ], [ 0.404872268291064, 43.037470014577799 ], [ 0.405333819718598, 43.03691950463049 ], [ 0.405755320028514, 43.036352088281127 ], [ 0.40613561391776, 43.035769320331603 ], [ 0.40647365902722, 43.035172797694301 ], [ 0.406768528798745, 43.03456415501951 ], [ 0.407019415014788, 43.033945060219217 ], [ 0.407225630013671, 43.033317209899032 ], [ 0.407386608574414, 43.032682324711153 ], [ 0.407501909465973, 43.032042144640812 ], [ 0.407571216656617, 43.031398424239185 ], [ 0.407594340180156, 43.030752927815804 ] ] ] } },
{ "type": "Feature", "properties": { "name": "Bazus-Neste", "feature_type": "mrr", "metric_roundness": 42.38, "metric_rectangularity": 64.4, "metric_mobile_fit": 90.17, "metric_aspect_ratio": 0.661, "metric_area_km2": 4.69 }, "geometry": { "type": "Polygon", "coordinates": [ [ [ 0.381330082399228, 43.017321649128206 ], [ 0.375154746436755, 43.041131183811274 ], [ 0.392589531352775, 43.043547061913664 ], [ 0.398764867315247, 43.01973846457102 ], [ 0.381330082399228, 43.017321649128206 ] ] ] } }
]
}
