{
"type": "FeatureCollection",
"name": "cillan",
"crs": { "type": "name", "properties": { "name": "urn:ogc:def:crs:OGC:1.3:CRS84" } },
"features": [
{ "type": "Feature", "properties": { "name": "Cillán", "metric_roundness": 34.9, "metric_rectangularity": 42.89, "metric_mobile_fit": 56.56, "metric_aspect_ratio": 0.997, "metric_area_km2": 24.25 }, "geometry": { "type": "Polygon", "coordinates": [ [ [ -4.9832801, 40.6904882 ], [ -4.9708377, 40.6760709 ], [ -4.9685983, 40.6873429 ], [ -4.9599155, 40.688686499999989 ], [ -4.9616818, 40.694653599999988 ], [ -4.9675005, 40.6997879 ], [ -4.9654379, 40.7055093 ], [ -4.9690696, 40.7114768 ], [ -4.9609733, 40.7211295 ], [ -4.9669775, 40.72802 ], [ -4.9829999, 40.7158192 ], [ -4.9988903, 40.7133548 ], [ -4.9959549, 40.7083773 ], [ -5.0080645, 40.706691499999984 ], [ -5.0026859, 40.7001874 ], [ -5.0172383, 40.6978554 ], [ -5.0216161, 40.691805399999986 ], [ -5.028225, 40.688697 ], [ -5.0267155, 40.686668499999982 ], [ -5.0217793, 40.679281399999986 ], [ -5.0172205, 40.6777547 ], [ -5.0034047, 40.6929851 ], [ -4.992542, 40.688759 ], [ -4.9832801, 40.6904882 ] ] ] } }
]
}
