{
"type": "FeatureCollection",
"name": "cize",
"crs": { "type": "name", "properties": { "name": "urn:ogc:def:crs:OGC:1.3:CRS84" } },
"features": [
{ "type": "Feature", "properties": { "name": "Cize", "feature_type": "entity", "metric_roundness": 44.26, "metric_rectangularity": 65.44, "metric_mobile_fit": 84.76, "metric_aspect_ratio": 0.715, "metric_area_km2": 9.53 }, "geometry": { "type": "Polygon", "coordinates": [ [ [ 5.4456415, 46.2169755 ], [ 5.438761, 46.2088805 ], [ 5.4360275, 46.2007165 ], [ 5.433631, 46.1961905 ], [ 5.4503438, 46.1921683 ], [ 5.46054, 46.1860865 ], [ 5.4655379, 46.190289799999981 ], [ 5.463875, 46.2034502 ], [ 5.4525646, 46.2087891 ], [ 5.4504035, 46.215179 ], [ 5.4475565, 46.216428 ], [ 5.4456415, 46.2169755 ] ] ] } },
{ "type": "Feature", "properties": { "name": "Cize", "feature_type": "circle", "metric_roundness": 44.26, "metric_rectangularity": 65.44, "metric_mobile_fit": 84.76, "metric_aspect_ratio": 0.715, "metric_area_km2": 9.53 }, "geometry": { "type": "Polygon", "coordinates": [ [ [ 5.476615945425455, 46.20153317077763 ], [ 5.476583704962733, 46.200681011860766 ], [ 5.476487071943432, 46.199831175489571 ], [ 5.476326311231944, 46.198985991168719 ], [ 5.476101863462203, 46.198147775758152 ], [ 5.475814343829945, 46.197318827119787 ], [ 5.475464540406496, 46.196501417815135 ], [ 5.475053411978727, 46.195697788871286 ], [ 5.47458208542108, 46.194910143632114 ], [ 5.474051852606887, 46.194140641711982 ], [ 5.473464166867438, 46.193391393068325 ], [ 5.472820639008494, 46.192664452209598 ], [ 5.472123032895185, 46.191961812554453 ], [ 5.471373260617378, 46.191285400957781 ], [ 5.470573377248771, 46.190637072418774 ], [ 5.469725575214078, 46.190018604985461 ], [ 5.468832178279745, 46.189431694870038 ], [ 5.467895635184671, 46.188877951788271 ], [ 5.46691851292838, 46.188358894536044 ], [ 5.465903489735059, 46.187875946815218 ], [ 5.464853347712727, 46.187430433320408 ], [ 5.463770965227672, 46.18702357609741 ], [ 5.462659309015051, 46.186656491183619 ], [ 5.461521426047272, 46.186330185539447 ], [ 5.460360435182457, 46.186045554279517 ], [ 5.459179518615866, 46.185803378211155 ], [ 5.457981913157724, 46.185604321687144 ], [ 5.456770901361347, 46.18544893077852 ], [ 5.455549802525893, 46.185337631772725 ], [ 5.454321963598392, 46.185270730001101 ], [ 5.45309075, 46.18524840899903 ], [ 5.451859536401606, 46.185270730001101 ], [ 5.450631697474105, 46.185337631772725 ], [ 5.449410598638652, 46.18544893077852 ], [ 5.448199586842274, 46.185604321687144 ], [ 5.447001981384131, 46.185803378211155 ], [ 5.445821064817541, 46.186045554279517 ], [ 5.444660073952726, 46.186330185539447 ], [ 5.443522190984947, 46.186656491183619 ], [ 5.442410534772326, 46.18702357609741 ], [ 5.441328152287271, 46.187430433320408 ], [ 5.440278010264938, 46.187875946815218 ], [ 5.439262987071618, 46.188358894536044 ], [ 5.438285864815326, 46.188877951788271 ], [ 5.437349321720253, 46.189431694870038 ], [ 5.43645592478592, 46.190018604985461 ], [ 5.435608122751227, 46.190637072418774 ], [ 5.434808239382619, 46.191285400957781 ], [ 5.434058467104813, 46.191961812554453 ], [ 5.433360860991504, 46.192664452209598 ], [ 5.43271733313256, 46.193391393068325 ], [ 5.432129647393111, 46.194140641711982 ], [ 5.431599414578919, 46.194910143632114 ], [ 5.431128088021271, 46.195697788871286 ], [ 5.430716959593503, 46.196501417815135 ], [ 5.430367156170052, 46.197318827119787 ], [ 5.430079636537795, 46.198147775758152 ], [ 5.429855188768054, 46.198985991168719 ], [ 5.429694428056566, 46.199831175489571 ], [ 5.429597795037266, 46.200681011860766 ], [ 5.429565554574543, 46.20153317077763 ], [ 5.429597795037266, 46.202385316477503 ], [ 5.429694428056566, 46.203235113342586 ], [ 5.429855188768054, 46.204080232301017 ], [ 5.430079636537795, 46.204918357208982 ], [ 5.430367156170052, 46.205747191196131 ], [ 5.430716959593503, 46.206564462957083 ], [ 5.431128088021271, 46.207367932971714 ], [ 5.431599414578919, 46.208155399637427 ], [ 5.432129647393111, 46.208924705296326 ], [ 5.43271733313256, 46.20967374214127 ], [ 5.433360860991504, 46.210400457984306 ], [ 5.434058467104813, 46.211102861872106 ], [ 5.434808239382619, 46.211779029532892 ], [ 5.435608122751227, 46.212427108640092 ], [ 5.43645592478592, 46.213045323878497 ], [ 5.437349321720253, 46.213631981799004 ], [ 5.438285864815326, 46.214185475448957 ], [ 5.439262987071618, 46.214704288765311 ], [ 5.440278010264938, 46.215187000718792 ], [ 5.441328152287271, 46.215632289197927 ], [ 5.442410534772326, 46.216038934622212 ], [ 5.443522190984947, 46.216405823274783 ], [ 5.444660073952726, 46.216731950345498 ], [ 5.445821064817541, 46.217016422676224 ], [ 5.447001981384131, 46.217258461200899 ], [ 5.448199586842274, 46.217457403073688 ], [ 5.449410598638652, 46.217612703479716 ], [ 5.450631697474105, 46.217723937123075 ], [ 5.451859536401606, 46.217790799388588 ], [ 5.45309075, 46.21781310717369 ], [ 5.454321963598392, 46.217790799388588 ], [ 5.455549802525893, 46.217723937123075 ], [ 5.456770901361347, 46.217612703479716 ], [ 5.457981913157724, 46.217457403073688 ], [ 5.459179518615866, 46.217258461200899 ], [ 5.460360435182457, 46.217016422676224 ], [ 5.461521426047272, 46.216731950345498 ], [ 5.462659309015051, 46.216405823274783 ], [ 5.463770965227672, 46.216038934622212 ], [ 5.464853347712727, 46.215632289197927 ], [ 5.465903489735059, 46.215187000718792 ], [ 5.46691851292838, 46.214704288765311 ], [ 5.467895635184671, 46.214185475448957 ], [ 5.468832178279745, 46.213631981799004 ], [ 5.469725575214078, 46.213045323878497 ], [ 5.470573377248771, 46.212427108640092 ], [ 5.471373260617378, 46.211779029532892 ], [ 5.472123032895185, 46.211102861872106 ], [ 5.472820639008494, 46.210400457984306 ], [ 5.473464166867438, 46.20967374214127 ], [ 5.474051852606887, 46.208924705296326 ], [ 5.47458208542108, 46.208155399637427 ], [ 5.475053411978727, 46.207367932971714 ], [ 5.475464540406496, 46.206564462957083 ], [ 5.475814343829945, 46.205747191196131 ], [ 5.476101863462203, 46.204918357208982 ], [ 5.476326311231944, 46.204080232301017 ], [ 5.476487071943432, 46.203235113342586 ], [ 5.476583704962733, 46.202385316477503 ], [ 5.476615945425455, 46.20153317077763 ] ] ] } },
{ "type": "Feature", "properties": { "name": "Cize", "feature_type": "mrr", "metric_roundness": 44.26, "metric_rectangularity": 65.44, "metric_mobile_fit": 84.76, "metric_aspect_ratio": 0.715, "metric_area_km2": 9.53 }, "geometry": { "type": "Polygon", "coordinates": [ [ [ 5.46185710060958, 46.185591898737371 ], [ 5.429910400734062, 46.19758739485988 ], [ 5.445331689458333, 46.217262999868673 ], [ 5.477278389333851, 46.205271799229152 ], [ 5.46185710060958, 46.185591898737371 ] ] ] } }
]
}
