{
"type": "FeatureCollection",
"name": "kirchdorf_in_tirol",
"crs": { "type": "name", "properties": { "name": "urn:ogc:def:crs:OGC:1.3:CRS84" } },
"features": [
{ "type": "Feature", "properties": { "name": "Kirchdorf in Tirol", "metric_roundness": 44.65, "metric_rectangularity": 59.99, "metric_mobile_fit": 7.51, "metric_aspect_ratio": 1.487, "metric_area_km2": 248.21 }, "geometry": { "type": "Polygon", "coordinates": [ [ [ 12.531108004773106, 47.534650922289039 ], [ 12.531062176979276, 47.534571781424376 ], [ 12.531012359050715, 47.534126762735454 ], [ 12.53098874033844, 47.533915509616925 ], [ 12.531037387967153, 47.53379213009115 ], [ 12.531048722934218, 47.533763236444997 ], [ 12.531062543740665, 47.533728151699442 ], [ 12.53113026967552, 47.53355595751723 ], [ 12.531065053097263, 47.533275760572003 ], [ 12.531046591482058, 47.533196900911783 ], [ 12.531096124366771, 47.532178337697928 ], [ 12.531110300376113, 47.53180601832161 ], [ 12.531110174586757, 47.531700923272453 ], [ 12.531110099257853, 47.531609955102333 ], [ 12.531110044685343, 47.531596098126208 ], [ 12.531109954994049, 47.53154966890903 ], [ 12.531109281213913, 47.531000979007587 ], [ 12.531087623592365, 47.530678526800585 ], [ 12.531055114352132, 47.530196377908489 ], [ 12.531051974912954, 47.530149567450906 ], [ 12.53103968279936, 47.529883866729143 ], [ 12.53090796599955, 47.529774522592092 ], [ 12.530625112850615, 47.529540041879578 ], [ 12.530272268711684, 47.529164975122427 ], [ 12.529850261609614, 47.528456054769713 ], [ 12.529802058000097, 47.528350263154742 ], [ 12.52955229454972, 47.527802618042124 ], [ 12.529746965658731, 47.527660016411758 ], [ 12.529949159397445, 47.527511888476262 ], [ 12.529999622206109, 47.527347671977971 ], [ 12.529891661668019, 47.527101096468634 ], [ 12.52969846487675, 47.526659841547968 ], [ 12.529666126247436, 47.526646208392179 ], [ 12.52946707615461, 47.526562484577312 ], [ 12.529406490758774, 47.526536956367003 ], [ 12.528841554339985, 47.526299145088167 ], [ 12.528622700826434, 47.526164083487132 ], [ 12.528219867696484, 47.525915708386073 ], [ 12.527045611707376, 47.525191329934486 ], [ 12.526519819844742, 47.525218047511828 ], [ 12.525828511583054, 47.525253225911889 ], [ 12.525194634315044, 47.525285475369081 ], [ 12.524792231213729, 47.52528741004663 ], [ 12.524755962813268, 47.525287604426133 ], [ 12.524607437115074, 47.52528826752647 ], [ 12.524499694516919, 47.525288857943956 ], [ 12.524349264155306, 47.52532702814301 ], [ 12.524158823964425, 47.52537544350421 ], [ 12.523999056548369, 47.525416066803189 ], [ 12.523679788012752, 47.525497224638414 ], [ 12.523059998323934, 47.52570141984615 ], [ 12.522742572473367, 47.525774849985211 ], [ 12.52235728719425, 47.525863995832772 ], [ 12.522110806852233, 47.525954031590906 ], [ 12.521555712664435, 47.526114316792253 ], [ 12.52032488402868, 47.526469835971753 ], [ 12.520142339046497, 47.526522619586054 ], [ 12.51994444885594, 47.526579793067782 ], [ 12.519874069466935, 47.526569396680991 ], [ 12.519787255439248, 47.526556544327526 ], [ 12.519684005406802, 47.526541325938339 ], [ 12.518626708894638, 47.526188939526911 ], [ 12.51866024581696, 47.526614324212069 ], [ 12.51891199591414, 47.52979998560582 ], [ 12.518901859236548, 47.530592710347264 ], [ 12.518901194631718, 47.530644263054697 ], [ 12.516373959261802, 47.530615595899853 ], [ 12.512856078215918, 47.530575567053525 ], [ 12.50879528102316, 47.530888384937704 ], [ 12.508562888462933, 47.530839386784216 ], [ 12.508071884222989, 47.530735981811247 ], [ 12.506986994725162, 47.530507459964063 ], [ 12.506026849609631, 47.530305200830796 ], [ 12.503681270702344, 47.529811115875354 ], [ 12.502603677077293, 47.529585664263017 ], [ 12.502453916128337, 47.529554347544249 ], [ 12.501774603617275, 47.529388816764509 ], [ 12.500343194822506, 47.529418477706265 ], [ 12.500048036579001, 47.529424523266684 ], [ 12.500088646017963, 47.529343297742031 ], [ 12.500146949220326, 47.529226929150816 ], [ 12.500082613463656, 47.529187231568983 ], [ 12.499834482976151, 47.529033996448852 ], [ 12.499820726910169, 47.529038575424991 ], [ 12.499811912798688, 47.52904148070067 ], [ 12.499798556658149, 47.529045972600159 ], [ 12.499543598311925, 47.529131039805769 ], [ 12.499445434351385, 47.529163798591831 ], [ 12.499336332236243, 47.529081935421011 ], [ 12.49973659149763, 47.528722320474351 ], [ 12.499757209976089, 47.528703844708744 ], [ 12.49980464698687, 47.528661269558881 ], [ 12.500067572288675, 47.528425186031981 ], [ 12.500032548121657, 47.528271068826683 ], [ 12.499825280233212, 47.527357903370209 ], [ 12.499747786456679, 47.52701668256541 ], [ 12.499590481028044, 47.526791223935433 ], [ 12.499280034932534, 47.52634600487405 ], [ 12.499261130286305, 47.526340198853589 ], [ 12.499228609903557, 47.526330154872966 ], [ 12.498443886799453, 47.52608825593493 ], [ 12.498268294775496, 47.526011216672984 ], [ 12.498119880131503, 47.525946072107786 ], [ 12.497433480928969, 47.525644956043244 ], [ 12.497412505791761, 47.525635715455003 ], [ 12.497178739055199, 47.52553314679308 ], [ 12.49702994291966, 47.525467098229164 ], [ 12.496687107088112, 47.525314875451471 ], [ 12.496336753690702, 47.52515935758273 ], [ 12.495811492345055, 47.524951184679281 ], [ 12.495638824091982, 47.524882890565173 ], [ 12.494893429576262, 47.524751297691644 ], [ 12.493727230898067, 47.524851286029161 ], [ 12.49351878668752, 47.524869106287071 ], [ 12.493438027091218, 47.525068537405701 ], [ 12.493407015068012, 47.525155589549684 ], [ 12.493397435266305, 47.525331427314484 ], [ 12.493401432601413, 47.525372306785677 ], [ 12.493404421080314, 47.525401481674649 ], [ 12.493454993246578, 47.525912029557887 ], [ 12.493466547506499, 47.526028816147324 ], [ 12.493583147343816, 47.526647461263451 ], [ 12.493401628560706, 47.52681736194468 ], [ 12.493311064475456, 47.526964983582111 ], [ 12.493108100649689, 47.527138325981518 ], [ 12.49297802200406, 47.527198019086988 ], [ 12.492912827491137, 47.527204290100848 ], [ 12.492851489348515, 47.527210319382846 ], [ 12.492594955406986, 47.526977915745903 ], [ 12.492271300290307, 47.526764454997725 ], [ 12.491560621034871, 47.526969704423351 ], [ 12.491531857419078, 47.526965714363421 ], [ 12.491052821554922, 47.526899034966156 ], [ 12.491008815735889, 47.526892863410197 ], [ 12.49096268753545, 47.526886496303028 ], [ 12.490967773506346, 47.526875826195315 ], [ 12.491017525851751, 47.526771906310593 ], [ 12.48971524592177, 47.526689188880056 ], [ 12.48955573731552, 47.526628810471522 ], [ 12.488229767431379, 47.526127052049937 ], [ 12.486891032045751, 47.526363097782223 ], [ 12.485687371133636, 47.526575381557222 ], [ 12.485582848227098, 47.526681054146621 ], [ 12.485424846609671, 47.526840858549917 ], [ 12.484588228722735, 47.527687221286577 ], [ 12.484574783158289, 47.527697199450465 ], [ 12.484389500381949, 47.527834845933903 ], [ 12.484268753652774, 47.527924741072688 ], [ 12.48406231276555, 47.527957405528348 ], [ 12.483882109208915, 47.527985944833354 ], [ 12.483568186268455, 47.528035538636836 ], [ 12.483214172723645, 47.528091493055804 ], [ 12.48287946999158, 47.528144440230015 ], [ 12.481840196773655, 47.528308773668485 ], [ 12.481740587752459, 47.528298856826936 ], [ 12.481570682195034, 47.528281939778317 ], [ 12.481503445255125, 47.528340376730156 ], [ 12.481346876190074, 47.528476251934947 ], [ 12.480686723641872, 47.52869107726638 ], [ 12.480646284133798, 47.528801000570702 ], [ 12.480636974817459, 47.528826215383496 ], [ 12.48058861673959, 47.528957494732637 ], [ 12.480534210182023, 47.529650825104646 ], [ 12.480511796063654, 47.52965668712654 ], [ 12.480015218781654, 47.52978634456332 ], [ 12.479894342429919, 47.529817928092235 ], [ 12.479729705880853, 47.52986088326783 ], [ 12.47959322017511, 47.529896489406504 ], [ 12.479530007441474, 47.529903127503765 ], [ 12.479287402298974, 47.529928676041301 ], [ 12.479114399085997, 47.529946823980801 ], [ 12.478349587287317, 47.530027238884557 ], [ 12.478282356104609, 47.530093142236993 ], [ 12.478075801928259, 47.530295584706138 ], [ 12.477673761436794, 47.530689483688569 ], [ 12.476749099041513, 47.531595419300288 ], [ 12.476716124822151, 47.531605160836286 ], [ 12.475876311781047, 47.53185128006487 ], [ 12.47500871516109, 47.5320408588479 ], [ 12.474938571591744, 47.532040514257872 ], [ 12.474849962970119, 47.532040031521312 ], [ 12.474374236327685, 47.532037642167637 ], [ 12.473394356440538, 47.532032554595602 ], [ 12.473330110558267, 47.53185823460052 ], [ 12.473164777153738, 47.531788611976324 ], [ 12.473119254086598, 47.531769465289656 ], [ 12.47229325107347, 47.531421803073002 ], [ 12.472280583728116, 47.531416489286435 ], [ 12.472227282579395, 47.531393684745311 ], [ 12.471629110181272, 47.531137075439581 ], [ 12.471449026977083, 47.531059781359609 ], [ 12.471299370243891, 47.531022935961552 ], [ 12.471272377057087, 47.531016254767628 ], [ 12.470914317987651, 47.530927815320922 ], [ 12.469272298831724, 47.530405106847596 ], [ 12.468944545716687, 47.530227180585825 ], [ 12.468745314942272, 47.53011896528335 ], [ 12.468485084614377, 47.530020097685608 ], [ 12.468460130667763, 47.530010641848563 ], [ 12.468449171715044, 47.530006510228311 ], [ 12.468439400905888, 47.530002837453658 ], [ 12.468415767953916, 47.529993841454555 ], [ 12.468407979355595, 47.529990813465261 ], [ 12.468355166855105, 47.529970800117674 ], [ 12.468339323999663, 47.529964742128101 ], [ 12.468335890938022, 47.529963456553652 ], [ 12.46831172963088, 47.529954276593536 ], [ 12.468197656494166, 47.529910946872555 ], [ 12.467908777239755, 47.529801244514346 ], [ 12.467784802692062, 47.529754150591657 ], [ 12.467749682734665, 47.529740838827834 ], [ 12.467744533185789, 47.529738910439626 ], [ 12.467427799090805, 47.529618559249926 ], [ 12.467414067024666, 47.529613416842153 ], [ 12.467209689262583, 47.529535752751585 ], [ 12.46710287948798, 47.529495176097434 ], [ 12.466981810996515, 47.529449182970659 ], [ 12.466858632158218, 47.529402273995245 ], [ 12.466594370178584, 47.529338913203247 ], [ 12.466538235653903, 47.529310955791985 ], [ 12.466464706695637, 47.529266310891806 ], [ 12.466403147319218, 47.529228954652218 ], [ 12.466118500653165, 47.529104703130876 ], [ 12.466026037231098, 47.529064323834305 ], [ 12.465944253754461, 47.528940164988114 ], [ 12.465919888654712, 47.528903089565766 ], [ 12.465733380874308, 47.528620046390891 ], [ 12.465712158394236, 47.528601890213281 ], [ 12.465502510976712, 47.528425206552861 ], [ 12.465470408867985, 47.528398150146145 ], [ 12.465439251215198, 47.528410511567344 ], [ 12.465336951871787, 47.528451128179775 ], [ 12.465218334008602, 47.528498459659531 ], [ 12.464484169698714, 47.52879055403352 ], [ 12.464216562701218, 47.528906040176345 ], [ 12.464079281308406, 47.528965196336173 ], [ 12.464005264038795, 47.529247978861122 ], [ 12.463992068099975, 47.529298896869044 ], [ 12.463988056068775, 47.529316592296389 ], [ 12.464005907142571, 47.529571097454287 ], [ 12.463820426371019, 47.52964464474892 ], [ 12.463710501205011, 47.529688261435716 ], [ 12.463060846187453, 47.529945805399677 ], [ 12.462903241106277, 47.530028650440869 ], [ 12.462638150985574, 47.530168086388322 ], [ 12.462640485931992, 47.530179531404201 ], [ 12.462644533301871, 47.530199897307924 ], [ 12.462618297661287, 47.530468824758543 ], [ 12.462577653096501, 47.53074943009748 ], [ 12.462576119531585, 47.530970676217713 ], [ 12.462572536832512, 47.531460403360917 ], [ 12.462582923008744, 47.531475058710342 ], [ 12.462601620521294, 47.531501294388875 ], [ 12.46292663119738, 47.531956802426464 ], [ 12.462952073948706, 47.532057231666471 ], [ 12.462979133681808, 47.532164331585179 ], [ 12.462936598538915, 47.532366461177418 ], [ 12.462838847768195, 47.532830459980744 ], [ 12.462787946035442, 47.533072476599628 ], [ 12.462766602421816, 47.533174080647242 ], [ 12.462612247527844, 47.533670312161803 ], [ 12.462590913600051, 47.533739163994646 ], [ 12.462442673267713, 47.533729041493757 ], [ 12.462242892367156, 47.533935106427457 ], [ 12.461782929166272, 47.533838216989288 ], [ 12.461712358876074, 47.533823374517596 ], [ 12.461528953920569, 47.53389081539855 ], [ 12.461479989161051, 47.533903130494032 ], [ 12.461383129796831, 47.533927318858396 ], [ 12.461175999763931, 47.533935103018493 ], [ 12.46092845596174, 47.53394428924927 ], [ 12.460901867249293, 47.533945256886156 ], [ 12.460868364545794, 47.533946531879621 ], [ 12.460611520093529, 47.533971752926298 ], [ 12.460362259596133, 47.533996311248238 ], [ 12.459786471756299, 47.534049787106255 ], [ 12.459682273474272, 47.53405979152874 ], [ 12.45950235532244, 47.534077047595048 ], [ 12.459297901905657, 47.534115621477468 ], [ 12.459260050854638, 47.534122711509966 ], [ 12.458977768300029, 47.534231505412507 ], [ 12.45882491285224, 47.534323199029203 ], [ 12.45878827630696, 47.534345144653265 ], [ 12.458781027806063, 47.534349588364385 ], [ 12.458754189245747, 47.53436558005226 ], [ 12.458209232098914, 47.534442317497152 ], [ 12.458053815721275, 47.534464167061671 ], [ 12.457956463045804, 47.534477911253539 ], [ 12.457952102109722, 47.534500462663424 ], [ 12.457946282535728, 47.534530831100604 ], [ 12.45802114430585, 47.534583229752315 ], [ 12.458105330763351, 47.53464217792321 ], [ 12.458149066720152, 47.534672744254635 ], [ 12.458204927836562, 47.534701243521496 ], [ 12.458224427896841, 47.534711109892491 ], [ 12.458230162562527, 47.534717812039574 ], [ 12.458356361464999, 47.534863099984321 ], [ 12.458356427511978, 47.535003017430363 ], [ 12.458353207727322, 47.535004882440674 ], [ 12.458198393592205, 47.535094310836271 ], [ 12.45805055742194, 47.535179563233633 ], [ 12.458039285855092, 47.535186225690133 ], [ 12.458004671046851, 47.535206386909202 ], [ 12.457919473629909, 47.535256125287454 ], [ 12.457875197778677, 47.535281971428148 ], [ 12.457705970341657, 47.535399092670936 ], [ 12.45760246906598, 47.535374998598691 ], [ 12.457592145663323, 47.535372580392306 ], [ 12.457541930206876, 47.5353960416438 ], [ 12.457097070607475, 47.535604816544513 ], [ 12.456937195843587, 47.535710670738602 ], [ 12.456929586342248, 47.53570485400094 ], [ 12.456230083188856, 47.535518653895522 ], [ 12.456118702774912, 47.535489009572252 ], [ 12.456101382163398, 47.535499854614912 ], [ 12.456008734748936, 47.535557992658148 ], [ 12.455929886314465, 47.535449865370509 ], [ 12.455867667360561, 47.535452089133713 ], [ 12.455732993959261, 47.535456818219892 ], [ 12.455642246123293, 47.535297401830256 ], [ 12.455449524290309, 47.534958687621142 ], [ 12.455326563519709, 47.534914467363009 ], [ 12.455288526595588, 47.534900769572452 ], [ 12.454942497925142, 47.534776110913867 ], [ 12.454858488011606, 47.534794363551093 ], [ 12.454716979585982, 47.534754949515879 ], [ 12.454247048675377, 47.534841600260592 ], [ 12.454252479800836, 47.53489032038307 ], [ 12.454258507576434, 47.534943094119924 ], [ 12.454304705839574, 47.535017050565621 ], [ 12.454345209077291, 47.535081965501732 ], [ 12.454341171018463, 47.53508508383765 ], [ 12.454472433962438, 47.535300508372522 ], [ 12.4545309114801, 47.535538320116153 ], [ 12.454498163947534, 47.535733053416536 ], [ 12.454468441581776, 47.535786363227317 ], [ 12.454411476619569, 47.535887693065028 ], [ 12.454480314922039, 47.535942657289468 ], [ 12.454534336371134, 47.535985810796745 ], [ 12.454600424088381, 47.536038414440213 ], [ 12.4546931861464, 47.536188489272199 ], [ 12.45481523795269, 47.536303246575542 ], [ 12.454872429580144, 47.536435143237988 ], [ 12.454888350752558, 47.536532082224646 ], [ 12.454894859745455, 47.536571992625817 ], [ 12.454896918577678, 47.536583975556091 ], [ 12.45489007593028, 47.536802931487692 ], [ 12.454881428707726, 47.537082249343094 ], [ 12.45474505318402, 47.537093172809165 ], [ 12.454472566173786, 47.537115111256504 ], [ 12.45356130440331, 47.537188391934848 ], [ 12.453143820025012, 47.53727589013954 ], [ 12.453133554092972, 47.53727797091333 ], [ 12.453115019563446, 47.537281877837401 ], [ 12.452458395934292, 47.537430974638639 ], [ 12.452247678613972, 47.537469577985242 ], [ 12.452005906245251, 47.537513881122571 ], [ 12.451576970796696, 47.537578701068412 ], [ 12.451493712962312, 47.53759137836807 ], [ 12.451460144407392, 47.537596429236295 ], [ 12.451369828582838, 47.537610041991009 ], [ 12.45110880394725, 47.537566196070159 ], [ 12.451089326947294, 47.537562897122051 ], [ 12.450894377471373, 47.537445505967092 ], [ 12.45031706344677, 47.536897954436959 ], [ 12.450560185170392, 47.53667802659804 ], [ 12.450653353179598, 47.536565549704086 ], [ 12.450760356854913, 47.536436173116911 ], [ 12.450411063142793, 47.53628439209362 ], [ 12.450388375508682, 47.536274499872427 ], [ 12.45026411904551, 47.536220456532469 ], [ 12.450024178855724, 47.536116214520469 ], [ 12.449963765959826, 47.536097843835186 ], [ 12.4498811442182, 47.53607273373845 ], [ 12.449368097999541, 47.535916809755079 ], [ 12.448987643911845, 47.535801225795403 ], [ 12.448942261890295, 47.535789808757571 ], [ 12.448889337609447, 47.535776534011582 ], [ 12.44868491731518, 47.535725290439636 ], [ 12.448280782379006, 47.535659099956007 ], [ 12.448092776752542, 47.535635245477444 ], [ 12.447967482533373, 47.535619432629311 ], [ 12.447932173324821, 47.535609532542502 ], [ 12.44781129874459, 47.535575847818343 ], [ 12.44774314491689, 47.535575412008008 ], [ 12.447710463690624, 47.535575159866426 ], [ 12.447817666202024, 47.535363186889768 ], [ 12.447833557055437, 47.535247866583425 ], [ 12.447805272754955, 47.535160008962109 ], [ 12.447622107712151, 47.535132861819115 ], [ 12.447589238263449, 47.535128019265663 ], [ 12.447467942616024, 47.535087852437961 ], [ 12.447310715056116, 47.53491693874809 ], [ 12.44742281926565, 47.534650566720821 ], [ 12.447475354458371, 47.534560543390043 ], [ 12.4475251553114, 47.534475087857395 ], [ 12.447490428563754, 47.53420164394177 ], [ 12.447456981814646, 47.533939007345978 ], [ 12.447438782360592, 47.533709870578122 ], [ 12.447515001425391, 47.533317700881369 ], [ 12.447489404724285, 47.53322023613665 ], [ 12.447504514931891, 47.533206585976671 ], [ 12.447608939558949, 47.533112104155968 ], [ 12.447340149444985, 47.532615415580665 ], [ 12.447303684429528, 47.532548009823856 ], [ 12.447281816249136, 47.532497452815754 ], [ 12.447206757176817, 47.532323393996499 ], [ 12.447121629243046, 47.532187138509173 ], [ 12.447071691107968, 47.532107211549473 ], [ 12.447063118930499, 47.532095538077151 ], [ 12.447060779274643, 47.532092460727696 ], [ 12.446948221596982, 47.532117685449897 ], [ 12.44681686039438, 47.53214708382167 ], [ 12.446745110216979, 47.53217901202509 ], [ 12.44663587780321, 47.532227656652474 ], [ 12.446381883070222, 47.532280941285208 ], [ 12.446312742440623, 47.532292014271214 ], [ 12.446079879271524, 47.532329085374165 ], [ 12.445676385475668, 47.532313278618105 ], [ 12.445472621857737, 47.532279220221213 ], [ 12.445450760561398, 47.532275631914779 ], [ 12.445394057385281, 47.532266105398286 ], [ 12.445394350246067, 47.532248741725482 ], [ 12.445190606298262, 47.532268670351144 ], [ 12.445136725584193, 47.532280850475637 ], [ 12.445112187001977, 47.532286329261829 ], [ 12.445021576556842, 47.532317840508256 ], [ 12.444950477880662, 47.532342574323913 ], [ 12.444943245187291, 47.53234602752309 ], [ 12.444786939680593, 47.532420579909363 ], [ 12.444745511719098, 47.532442753936913 ], [ 12.4445963076677, 47.532537336372563 ], [ 12.444586367947997, 47.532543737894912 ], [ 12.444313831443001, 47.532672006838311 ], [ 12.444156280795596, 47.532686442783223 ], [ 12.444090146815569, 47.532692498906343 ], [ 12.443979170197025, 47.532702616516517 ], [ 12.443882732410838, 47.532725083823237 ], [ 12.443859772409494, 47.532731474365967 ], [ 12.443799436907874, 47.532748192774548 ], [ 12.44366024258988, 47.532824225934171 ], [ 12.443654208377925, 47.53282750838445 ], [ 12.44353486154103, 47.532892627818491 ], [ 12.443408051884887, 47.53297478527363 ], [ 12.443378641742212, 47.533001191021889 ], [ 12.443346288753975, 47.533044489990999 ], [ 12.443342709092622, 47.533059758660009 ], [ 12.443339305859414, 47.533064591136373 ], [ 12.443352322634333, 47.533104102853429 ], [ 12.443547246649286, 47.533456891937526 ], [ 12.44368963557956, 47.533671515701386 ], [ 12.443890926574996, 47.534080230404214 ], [ 12.443949857656603, 47.534186052379503 ], [ 12.444028001121731, 47.534326485106263 ], [ 12.444037118681996, 47.534345181385561 ], [ 12.444101332729819, 47.534476508242015 ], [ 12.444102730227383, 47.534480298183638 ], [ 12.444123597858454, 47.534534897097643 ], [ 12.444190313854367, 47.534761980860523 ], [ 12.444184879001726, 47.534776965242656 ], [ 12.444175267454034, 47.534787508303282 ], [ 12.444153208297603, 47.534803443653757 ], [ 12.444142177954566, 47.534811456310969 ], [ 12.44411344139778, 47.534829409442366 ], [ 12.444076571550303, 47.534841180990199 ], [ 12.443907316054132, 47.534895296646923 ], [ 12.443890989945446, 47.534902188498364 ], [ 12.443877226562426, 47.53491467889944 ], [ 12.443812486147797, 47.535011084527902 ], [ 12.443759657256455, 47.535102363654943 ], [ 12.443695166890452, 47.535199670944486 ], [ 12.443673459973134, 47.535234054614499 ], [ 12.443662811860099, 47.535250888123791 ], [ 12.443607457596441, 47.535310744961301 ], [ 12.443598460866184, 47.535316343898664 ], [ 12.443579795547869, 47.535327986458121 ], [ 12.44357536436525, 47.535330741457123 ], [ 12.443465673742669, 47.535382348864495 ], [ 12.443407012467915, 47.535409877533816 ], [ 12.443382814521629, 47.535418687820993 ], [ 12.443306210793992, 47.535446527223534 ], [ 12.443174260158324, 47.535494452576629 ], [ 12.442950731604283, 47.535575679499594 ], [ 12.442936978012279, 47.535579711845642 ], [ 12.442897187709356, 47.535591280407345 ], [ 12.442883468042474, 47.535601161640891 ], [ 12.442858990972974, 47.535618607631008 ], [ 12.442796989830372, 47.535678592477424 ], [ 12.44271859633804, 47.535772912038212 ], [ 12.442669812984381, 47.535836958443277 ], [ 12.442622889429263, 47.535901019259128 ], [ 12.442574827239431, 47.535977398333678 ], [ 12.442541151661981, 47.536035893247472 ], [ 12.442526478693976, 47.536070691204827 ], [ 12.44249989213886, 47.536142108106972 ], [ 12.442449377767817, 47.536292700714121 ], [ 12.442443215574412, 47.536311368505672 ], [ 12.442438081563113, 47.536339941958786 ], [ 12.442434552046446, 47.536360069845244 ], [ 12.442407998700258, 47.536366702154943 ], [ 12.442398790772517, 47.536369060118965 ], [ 12.442349820754023, 47.536381277077368 ], [ 12.442257616149885, 47.53640440577076 ], [ 12.442163542390562, 47.536428059752915 ], [ 12.441955383876245, 47.536503645438998 ], [ 12.441769449584784, 47.536584982061598 ], [ 12.441679793507086, 47.536622346760161 ], [ 12.441569933215893, 47.536668012450711 ], [ 12.441510116514227, 47.536693011776308 ], [ 12.441471578899998, 47.536708998550367 ], [ 12.441447089937036, 47.536719245836245 ], [ 12.441430095625108, 47.536726312108208 ], [ 12.441161644780749, 47.536839129061541 ], [ 12.441154686076619, 47.536842044281663 ], [ 12.441084944604249, 47.536864626797041 ], [ 12.441009724044651, 47.536889056236319 ], [ 12.440949027013234, 47.53690325095662 ], [ 12.440853913348494, 47.536925456127072 ], [ 12.440755760745391, 47.536946647820926 ], [ 12.440744831644134, 47.536948632354161 ], [ 12.440697118935924, 47.536957169253164 ], [ 12.440660072664157, 47.536963539607733 ], [ 12.440363306608619, 47.536857665635317 ], [ 12.439743196669777, 47.536708963665973 ], [ 12.439484533353442, 47.536652062617492 ], [ 12.439292721431269, 47.536609808372944 ], [ 12.439255913177385, 47.536641284258955 ], [ 12.439102847819854, 47.536774160610932 ], [ 12.439007500545127, 47.536857008257961 ], [ 12.438721250840638, 47.537102039930446 ], [ 12.438693066894816, 47.537126384534005 ], [ 12.438622944404147, 47.537186933716335 ], [ 12.438608378988127, 47.537199597201152 ], [ 12.438402587164287, 47.537377770961193 ], [ 12.438199713704233, 47.537556147072316 ], [ 12.438012795875267, 47.53771818112692 ], [ 12.437852707067149, 47.537857389560415 ], [ 12.437637280800109, 47.538023609585622 ], [ 12.437612237289612, 47.53804293960944 ], [ 12.437601477108222, 47.538050593838321 ], [ 12.437561802165625, 47.538078627618702 ], [ 12.437383471889229, 47.538110618091999 ], [ 12.437368061308284, 47.538126064172957 ], [ 12.437446357383822, 47.5381787730742 ], [ 12.437467112976455, 47.538192791817551 ], [ 12.437333467819569, 47.53826148244071 ], [ 12.436873953612549, 47.538497508831114 ], [ 12.436857659341744, 47.538580432167123 ], [ 12.43684892458532, 47.53865639617738 ], [ 12.436750458058897, 47.538687929605295 ], [ 12.436735360804974, 47.538692760531887 ], [ 12.43669661585791, 47.538705144941098 ], [ 12.436513179187994, 47.538763727967414 ], [ 12.436490733294727, 47.538770930883075 ], [ 12.436470292533885, 47.538777429628425 ], [ 12.436453057231224, 47.538782963645723 ], [ 12.436338692687073, 47.538819501312666 ], [ 12.435875220528938, 47.538967583370962 ], [ 12.435655573186891, 47.539037849141529 ], [ 12.435485496842025, 47.53909203606603 ], [ 12.435469328809807, 47.539097308347444 ], [ 12.435422968856896, 47.539112062201681 ], [ 12.435407069600066, 47.539117156618772 ], [ 12.435398138873374, 47.539118796362494 ], [ 12.435391608820401, 47.539119915010161 ], [ 12.435345751101741, 47.539136382362571 ], [ 12.435286790258489, 47.539157606055511 ], [ 12.435260234599685, 47.53916423670762 ], [ 12.435202062325903, 47.539178178229541 ], [ 12.435146692349738, 47.539191421816405 ], [ 12.434983650305684, 47.539230456594325 ], [ 12.434775406611276, 47.53928641329869 ], [ 12.434741129605287, 47.539293883182118 ], [ 12.43472645821743, 47.539297097558602 ], [ 12.434697515551248, 47.539303439459133 ], [ 12.434693381542335, 47.53930430688704 ], [ 12.434508501860629, 47.538956890254461 ], [ 12.434470651968025, 47.538885690443138 ], [ 12.434301224919148, 47.538567277682844 ], [ 12.434144031673009, 47.538279553329772 ], [ 12.434138877220535, 47.53827015513734 ], [ 12.43412152281353, 47.538274878061557 ], [ 12.433512791106667, 47.538439988404264 ], [ 12.433237257993186, 47.538514760323906 ], [ 12.433123787414329, 47.538545543154065 ], [ 12.431689239484692, 47.538934781095065 ], [ 12.430852209869199, 47.53916187917936 ], [ 12.430846069037051, 47.539163540503317 ], [ 12.430703864009676, 47.538932615964818 ], [ 12.430700372475256, 47.538927009810067 ], [ 12.430611171711901, 47.538782161954465 ], [ 12.430525023092333, 47.538815766475551 ], [ 12.430174385157775, 47.538922872720342 ], [ 12.428918091935056, 47.539306370197501 ], [ 12.428890307199936, 47.539314879259038 ], [ 12.428838746680395, 47.539330579263854 ], [ 12.428848111605108, 47.53934235032974 ], [ 12.428877893388702, 47.539380016269831 ], [ 12.428945638679039, 47.539466390028174 ], [ 12.42896202506561, 47.539487124327529 ], [ 12.428953732097966, 47.539490298239947 ], [ 12.427602936555074, 47.540012954358232 ], [ 12.427487623768055, 47.540011414638201 ], [ 12.427441392675751, 47.540010779885598 ], [ 12.42729083877507, 47.5400571906439 ], [ 12.427130000059737, 47.540106669285635 ], [ 12.427087938363639, 47.540110836195268 ], [ 12.427039754185603, 47.540115584607307 ], [ 12.42700387345695, 47.540123489425532 ], [ 12.42688395990684, 47.540149896268488 ], [ 12.426620671471625, 47.540261010673404 ], [ 12.426424992194679, 47.540311922746213 ], [ 12.426365247865784, 47.540332055950486 ], [ 12.426329230466568, 47.540347877638325 ], [ 12.426288258387117, 47.540365909643484 ], [ 12.426247420692201, 47.540383852716971 ], [ 12.4261556782089, 47.540425597885424 ], [ 12.426128086833511, 47.540438246850179 ], [ 12.426103275759171, 47.540459195856002 ], [ 12.426054595994632, 47.540500381467218 ], [ 12.425951570188463, 47.540595394891056 ], [ 12.425991784306362, 47.540713855271839 ], [ 12.426001265180826, 47.540742003678119 ], [ 12.425953280408974, 47.540781395158454 ], [ 12.425889391245008, 47.540833797844975 ], [ 12.425771585604018, 47.540930493859022 ], [ 12.425726162129697, 47.540967745996866 ], [ 12.425642756053815, 47.541011446230968 ], [ 12.425516440818756, 47.541077571795959 ], [ 12.425516003461629, 47.541141453480321 ], [ 12.425310643327977, 47.541337333391439 ], [ 12.425285471057574, 47.541325257045862 ], [ 12.425196009657018, 47.541442601924075 ], [ 12.425155221925637, 47.541496086744047 ], [ 12.425130702366648, 47.541530894625922 ], [ 12.425113790243097, 47.541563783148554 ], [ 12.425100020293367, 47.54159939590015 ], [ 12.425001694911659, 47.541768318487094 ], [ 12.424984742920611, 47.541795807930825 ], [ 12.424971621390732, 47.541816939166978 ], [ 12.424960975082163, 47.541871742159309 ], [ 12.424967932286751, 47.541922905320206 ], [ 12.424973307718007, 47.541934825090721 ], [ 12.424979338166846, 47.541947289918156 ], [ 12.425065930335267, 47.542127213343207 ], [ 12.425136925921869, 47.542240698740265 ], [ 12.425186055442195, 47.542473953199703 ], [ 12.425201665185059, 47.54250116037705 ], [ 12.425460719625816, 47.54291369374701 ], [ 12.425478919320552, 47.542937142244071 ], [ 12.425586435528679, 47.543075210469588 ], [ 12.425421581118991, 47.543249006057259 ], [ 12.425354265646174, 47.543368865632637 ], [ 12.425349401027493, 47.543381244265596 ], [ 12.425328100636229, 47.543414278063118 ], [ 12.425326053266447, 47.543417411136311 ], [ 12.42529172477018, 47.543458439997366 ], [ 12.425253190325932, 47.543504474405971 ], [ 12.425238131304939, 47.543522351097721 ], [ 12.425075071145125, 47.543715235941661 ], [ 12.424844127591243, 47.543860524353299 ], [ 12.424788096273918, 47.543911638931284 ], [ 12.42465267689987, 47.544035098150381 ], [ 12.424620136803869, 47.544057155391485 ], [ 12.424439960620655, 47.54417900038419 ], [ 12.424552653767387, 47.544286607640061 ], [ 12.424576187057138, 47.544309018745189 ], [ 12.424590019021764, 47.544316056618882 ], [ 12.424817258970448, 47.544431678589817 ], [ 12.424833540161726, 47.544435406591454 ], [ 12.425138784364311, 47.544505036030991 ], [ 12.425548606006846, 47.544498109652224 ], [ 12.425561038619666, 47.544501537181645 ], [ 12.426075268457826, 47.544643629862684 ], [ 12.426333922517388, 47.544779652329062 ], [ 12.426447683578839, 47.54481015410547 ], [ 12.426523611908705, 47.544830549237844 ], [ 12.426772560955005, 47.544897480150091 ], [ 12.426925990535864, 47.544916417452875 ], [ 12.427296897978199, 47.544962355151668 ], [ 12.427222053325261, 47.545025649545856 ], [ 12.427079237661477, 47.545146623772489 ], [ 12.427040733333429, 47.545183211208489 ], [ 12.426944535617643, 47.545274860198859 ], [ 12.426748288028733, 47.545535149533016 ], [ 12.42668999405908, 47.545571040707699 ], [ 12.426629149028663, 47.545608441348769 ], [ 12.426479119674232, 47.545700564592963 ], [ 12.426466488296663, 47.545708652906505 ], [ 12.42644687296896, 47.545721005043021 ], [ 12.426266964639449, 47.545834936843008 ], [ 12.426178822618372, 47.545890837209399 ], [ 12.425955644534366, 47.546009285491365 ], [ 12.425583273075434, 47.546163445215697 ], [ 12.425430004329812, 47.546242854455691 ], [ 12.425380391296047, 47.546268466037574 ], [ 12.425190664843781, 47.546319603169501 ], [ 12.425075707968574, 47.546350546368039 ], [ 12.424799195952755, 47.546425020657075 ], [ 12.42472215755822, 47.546445736018995 ], [ 12.42455673332273, 47.546405465817514 ], [ 12.424358886474751, 47.546357290467405 ], [ 12.424258045790802, 47.546332647608125 ], [ 12.424253723001593, 47.546329014219552 ], [ 12.42410784262321, 47.546203687993859 ], [ 12.423942972144657, 47.546154513359447 ], [ 12.423901987107449, 47.546142221505733 ], [ 12.423683052638777, 47.545914819688598 ], [ 12.423856854813463, 47.545623944770369 ], [ 12.424038957369564, 47.545506344947292 ], [ 12.423686981640824, 47.545379925524735 ], [ 12.423674450276275, 47.545374517472467 ], [ 12.423363122785352, 47.545241490717537 ], [ 12.423343203406063, 47.545232964783025 ], [ 12.423065363386128, 47.545138533700829 ], [ 12.42289506591071, 47.545080676499744 ], [ 12.422741390385131, 47.545083686737172 ], [ 12.422481232919663, 47.545088731342915 ], [ 12.422199148833458, 47.544886469562712 ], [ 12.422191010352384, 47.54488064631358 ], [ 12.422036815092129, 47.544836952346941 ], [ 12.421950286986387, 47.544715063684407 ], [ 12.421926547636517, 47.544681582974448 ], [ 12.421732994528035, 47.544409029300532 ], [ 12.421710978118597, 47.544375832159915 ], [ 12.421620186344073, 47.544239332759602 ], [ 12.421628120773679, 47.544203224181729 ], [ 12.42166937745043, 47.544015585517414 ], [ 12.421108210547965, 47.543799407111329 ], [ 12.420813570927233, 47.543685851380999 ], [ 12.420228770193635, 47.543491885545329 ], [ 12.420067784589742, 47.543541173266405 ], [ 12.419811942429439, 47.543619579067389 ], [ 12.419795702153959, 47.543766655660185 ], [ 12.41974759823991, 47.544118721024383 ], [ 12.419633845218113, 47.544463155539219 ], [ 12.419409686851354, 47.544645198612642 ], [ 12.419156211596349, 47.544770590918304 ], [ 12.419037079255329, 47.544812382300883 ], [ 12.418993625057569, 47.544827602614646 ], [ 12.418767929508894, 47.544906696117316 ], [ 12.418089054428451, 47.544971469777494 ], [ 12.417896706185099, 47.544989821584309 ], [ 12.417595863353332, 47.545171699571547 ], [ 12.417258230613946, 47.545627089672109 ], [ 12.417080845316757, 47.545953737976163 ], [ 12.416746745670064, 47.546007308079652 ], [ 12.416562791018249, 47.546024195047117 ], [ 12.416503426328685, 47.54602956963398 ], [ 12.416467088409826, 47.546032878607683 ], [ 12.416422097852832, 47.546037018257579 ], [ 12.416414799059995, 47.546036420091241 ], [ 12.41623657819825, 47.546021679680599 ], [ 12.415891103519474, 47.546178812385591 ], [ 12.415761701625977, 47.546237614371307 ], [ 12.415368920269248, 47.546363864505885 ], [ 12.413958461978284, 47.546023614651325 ], [ 12.413067041681838, 47.545808620899294 ], [ 12.412974133274705, 47.545809495758903 ], [ 12.412889067675572, 47.545810253463159 ], [ 12.412778347629072, 47.545811345278828 ], [ 12.411950278758091, 47.5458191892873 ], [ 12.410844681673268, 47.545829566593 ], [ 12.409861364980948, 47.545808614361192 ], [ 12.409796535896785, 47.545807283067063 ], [ 12.409584118355728, 47.545802694801679 ], [ 12.409532972311869, 47.545801653410919 ], [ 12.409295181902799, 47.545796500527373 ], [ 12.40820532561106, 47.545773236884592 ], [ 12.406862934345419, 47.545744506044315 ], [ 12.402080848069948, 47.545647869231367 ], [ 12.399905753352245, 47.545603841408365 ], [ 12.398919502833801, 47.545583851252495 ], [ 12.398419829896499, 47.545590850764569 ], [ 12.397926139391288, 47.545597716886626 ], [ 12.397404668318609, 47.545604894291522 ], [ 12.397299256978387, 47.545606374367836 ], [ 12.396812587749507, 47.545659272417105 ], [ 12.396690486844584, 47.545672583050006 ], [ 12.395585325973672, 47.545792591787219 ], [ 12.393803914533212, 47.546222075738989 ], [ 12.392721600220279, 47.546482971836923 ], [ 12.392365011440091, 47.546402757438464 ], [ 12.392185259836801, 47.54636241292566 ], [ 12.391926752732392, 47.546304326275127 ], [ 12.391903828557721, 47.546293160804467 ], [ 12.391593543017077, 47.546143139690486 ], [ 12.39146587127119, 47.546081446197043 ], [ 12.391146890919169, 47.545927303440862 ], [ 12.391033451562778, 47.545872384736711 ], [ 12.390627210231298, 47.545812002710562 ], [ 12.3888112615046, 47.545542165139949 ], [ 12.388674096274217, 47.545543196087465 ], [ 12.387148400090386, 47.54555456654564 ], [ 12.385990603492509, 47.545563194431452 ], [ 12.385716358377248, 47.54551621127149 ], [ 12.385470599079991, 47.545474051599228 ], [ 12.385000543503159, 47.545467200403728 ], [ 12.384983670097624, 47.545466971042345 ], [ 12.384934090179112, 47.545467551251036 ], [ 12.384624378107555, 47.545471380866481 ], [ 12.383953515272122, 47.54547951202639 ], [ 12.383307142881566, 47.545249935902199 ], [ 12.383146969310021, 47.545193092919853 ], [ 12.3828305345553, 47.545252829350041 ], [ 12.382680954213091, 47.545256989605484 ], [ 12.382458646447935, 47.545263066749122 ], [ 12.382370228572519, 47.545265483675159 ], [ 12.38184466873661, 47.54524889186127 ], [ 12.381529569009718, 47.545197960857791 ], [ 12.381168225679756, 47.545139537066724 ], [ 12.380974211394134, 47.54505820583546 ], [ 12.380699081759909, 47.544942998724935 ], [ 12.380302970111369, 47.544889322533187 ], [ 12.380248086274058, 47.544881938475108 ], [ 12.380093910606369, 47.54486104286174 ], [ 12.379954486732798, 47.544891467963431 ], [ 12.3797418156361, 47.544937840762522 ], [ 12.379324360748148, 47.545027951340067 ], [ 12.379274864272171, 47.545038607515153 ], [ 12.379143594045468, 47.545117688409157 ], [ 12.378992167287182, 47.545209018791994 ], [ 12.378929211198079, 47.54522172244377 ], [ 12.378811569721105, 47.545245398817045 ], [ 12.377873153334875, 47.545592472456313 ], [ 12.377858035631379, 47.545598015357349 ], [ 12.377734247423959, 47.545638105756815 ], [ 12.377086965692209, 47.545847587622049 ], [ 12.376052500770372, 47.545833477853627 ], [ 12.375824508619766, 47.545830406825665 ], [ 12.374994253433837, 47.545819070254602 ], [ 12.374861657389259, 47.545817243492408 ], [ 12.374553950282527, 47.545812964518909 ], [ 12.374240204297532, 47.545760855045309 ], [ 12.373702680053515, 47.545671422401448 ], [ 12.373279496626006, 47.545601119359958 ], [ 12.372814789438404, 47.545585175021891 ], [ 12.37204474768177, 47.54555884432132 ], [ 12.371957625870811, 47.545577550419168 ], [ 12.37160513533528, 47.545653240415433 ], [ 12.371649069978913, 47.54584526531135 ], [ 12.372362465685953, 47.546237521959085 ], [ 12.372795118160395, 47.546320774665418 ], [ 12.373042765902644, 47.5463683761052 ], [ 12.372081528935755, 47.547183106460977 ], [ 12.37184380707791, 47.547443136782213 ], [ 12.37166262634058, 47.547641644211588 ], [ 12.37165436123075, 47.547650303012894 ], [ 12.371566649459098, 47.547890174031188 ], [ 12.371508924018908, 47.548001805168035 ], [ 12.371503411497576, 47.548012556551839 ], [ 12.371482852248011, 47.548024891492844 ], [ 12.371439719136598, 47.548050714221574 ], [ 12.371255763122713, 47.548160927668349 ], [ 12.371127580076751, 47.54820817256428 ], [ 12.370998596224513, 47.548255590565624 ], [ 12.370939187417113, 47.548277497537569 ], [ 12.370842982876079, 47.5483129528915 ], [ 12.370754139328257, 47.548345590530012 ], [ 12.37066113520857, 47.548380442707597 ], [ 12.370515005081998, 47.548435184717171 ], [ 12.370096419353093, 47.548591927522992 ], [ 12.369713945421502, 47.548837691919786 ], [ 12.369583358024727, 47.548921716637331 ], [ 12.3695730024955, 47.54892837818997 ], [ 12.369366833853315, 47.549271359689179 ], [ 12.369628173911865, 47.549624204546525 ], [ 12.369707804587712, 47.549731948765327 ], [ 12.369482276034089, 47.549774865587331 ], [ 12.369342503562162, 47.549801495854609 ], [ 12.368829827756516, 47.549899047256282 ], [ 12.368752206663268, 47.549913781699352 ], [ 12.368605364150254, 47.549941791352516 ], [ 12.368576623250883, 47.549958106120997 ], [ 12.36835958605019, 47.550081443992781 ], [ 12.368267773097127, 47.550101817534753 ], [ 12.367966579593325, 47.550168569861476 ], [ 12.367805962944695, 47.550244601839061 ], [ 12.367738257982973, 47.550276605118633 ], [ 12.367627389538983, 47.549539188532975 ], [ 12.36759555351348, 47.549521374702415 ], [ 12.367405185719514, 47.549415396780674 ], [ 12.36686073383223, 47.549339910927188 ], [ 12.366820614543638, 47.549338943344395 ], [ 12.366627062606565, 47.549334074554217 ], [ 12.366031791472818, 47.549319253109545 ], [ 12.36595580290113, 47.549288559633418 ], [ 12.365921767036777, 47.549274775886055 ], [ 12.365372312061572, 47.549052393782446 ], [ 12.365201340460516, 47.548983287421336 ], [ 12.365187080636266, 47.548985416671222 ], [ 12.365178152669605, 47.548986691082781 ], [ 12.364755832073804, 47.549049174231044 ], [ 12.363928760221452, 47.548631436074722 ], [ 12.363334640807174, 47.548677166707115 ], [ 12.363042238215051, 47.548699710312199 ], [ 12.362447404804916, 47.548870502290235 ], [ 12.362369642352379, 47.548892879511683 ], [ 12.362188007081434, 47.54907058308865 ], [ 12.362220310597282, 47.549206995802002 ], [ 12.362310303533961, 47.549587831710951 ], [ 12.362399316025838, 47.5499642502092 ], [ 12.362411274710851, 47.550014830010802 ], [ 12.361539113040228, 47.550937842523531 ], [ 12.361457371853975, 47.551024341072349 ], [ 12.360801535655281, 47.5517182908035 ], [ 12.360680748238089, 47.551846208697725 ], [ 12.360184994245845, 47.552370729286153 ], [ 12.359928368947664, 47.552642272523194 ], [ 12.359685570693234, 47.552899085779416 ], [ 12.359896407313714, 47.553112685867504 ], [ 12.359808164317446, 47.553492822166525 ], [ 12.359318430362174, 47.554035476031672 ], [ 12.359247284755613, 47.555143153394027 ], [ 12.359238904456008, 47.55527274314349 ], [ 12.358199208611483, 47.556061769039196 ], [ 12.357859602467814, 47.556319465937207 ], [ 12.354703773844138, 47.558727646480847 ], [ 12.354651996213718, 47.558767066246624 ], [ 12.354646735857317, 47.558771160483616 ], [ 12.353678690651106, 47.559509828159669 ], [ 12.353546677937747, 47.559610469001754 ], [ 12.352387912582524, 47.559568273617515 ], [ 12.351243627774416, 47.559526640261332 ], [ 12.35098605155752, 47.559517238729867 ], [ 12.350854407620389, 47.55951242333385 ], [ 12.350564950198214, 47.559501848289223 ], [ 12.349831142987117, 47.559475140473438 ], [ 12.349752634211432, 47.559472308536762 ], [ 12.348722705500203, 47.559436038460468 ], [ 12.348394850099019, 47.559424498837664 ], [ 12.348072829951777, 47.559456288653926 ], [ 12.347738425298607, 47.559489230994977 ], [ 12.34443695951661, 47.559815098569935 ], [ 12.342082210920665, 47.558538316462823 ], [ 12.34185084720016, 47.558365627050208 ], [ 12.341551451621635, 47.558142230741574 ], [ 12.341296103946874, 47.557951606960579 ], [ 12.340995404399091, 47.557727118118173 ], [ 12.340946903453506, 47.557690976914181 ], [ 12.339879893928906, 47.557846593936489 ], [ 12.338581612852591, 47.558035919925558 ], [ 12.336808813747478, 47.556138525800158 ], [ 12.336747841602399, 47.556073300954459 ], [ 12.336507865411475, 47.556019929271216 ], [ 12.336424741796657, 47.556001391568948 ], [ 12.335819443616325, 47.555866743421603 ], [ 12.335323481239472, 47.555756347254473 ], [ 12.33522023970821, 47.555733314767984 ], [ 12.335002503176872, 47.555684902169347 ], [ 12.334970170444922, 47.55570765596012 ], [ 12.334449327756163, 47.556074834085074 ], [ 12.334388835862768, 47.55611749829604 ], [ 12.333270469614387, 47.556905707169534 ], [ 12.332712149766552, 47.557299185247139 ], [ 12.332618510892441, 47.557365224461073 ], [ 12.332585232085094, 47.557388689186745 ], [ 12.332393509074016, 47.557446944887843 ], [ 12.331638249071897, 47.557676196846266 ], [ 12.331574608270572, 47.55769552727434 ], [ 12.330637776684274, 47.557979876034153 ], [ 12.329771393068688, 47.558242967750601 ], [ 12.32628333697059, 47.560543817153984 ], [ 12.324878549549318, 47.561470432300545 ], [ 12.319554477039139, 47.564981732349764 ], [ 12.316753268135658, 47.566828829019791 ], [ 12.316466818222805, 47.566984118412257 ], [ 12.311990061710507, 47.569411742209255 ], [ 12.308904140952066, 47.57108488576047 ], [ 12.308069865711632, 47.5716484563387 ], [ 12.305236394297584, 47.573562833506024 ], [ 12.305660352333936, 47.573852404695003 ], [ 12.306046001136918, 47.574115717340341 ], [ 12.306662337776016, 47.574536576604189 ], [ 12.306575334028762, 47.575192654450042 ], [ 12.306564571290016, 47.575273990327737 ], [ 12.306988165783249, 47.576046656699639 ], [ 12.307233214936225, 47.576681586529112 ], [ 12.307454599258321, 47.577255207838085 ], [ 12.307500417314699, 47.577374120878083 ], [ 12.30753800146227, 47.577458407989866 ], [ 12.307550612910136, 47.577486774375714 ], [ 12.307620686309285, 47.577643875573408 ], [ 12.307632920037793, 47.577671158813928 ], [ 12.307702093071947, 47.577826722250066 ], [ 12.307724388200134, 47.577876770306624 ], [ 12.307728341376427, 47.577885443694917 ], [ 12.307743254989491, 47.577918509576783 ], [ 12.307885626160873, 47.578234711058009 ], [ 12.307939019256503, 47.578353961444769 ], [ 12.307945900693829, 47.578369319492076 ], [ 12.307976102800106, 47.578436714253762 ], [ 12.30800388054157, 47.578498868519539 ], [ 12.30796459021122, 47.578570231975732 ], [ 12.30793370828756, 47.578626373854213 ], [ 12.30765397288827, 47.579135053575271 ], [ 12.307377405957538, 47.579637822222473 ], [ 12.307226430998703, 47.579912532750889 ], [ 12.307206961411328, 47.579963017643543 ], [ 12.306989491342719, 47.580530828943978 ], [ 12.306776784903683, 47.581085995185227 ], [ 12.306631477229041, 47.581465132467891 ], [ 12.30659406331068, 47.581562786406174 ], [ 12.306226472867637, 47.581917621250298 ], [ 12.305746105599425, 47.582381221940977 ], [ 12.305568541276031, 47.582552575270398 ], [ 12.30585041727306, 47.582848431725033 ], [ 12.306211267181538, 47.583227325301728 ], [ 12.307832966960435, 47.583786281925832 ], [ 12.308307751823918, 47.583949963628328 ], [ 12.309739573260321, 47.584598078378086 ], [ 12.310208663367563, 47.584863738634027 ], [ 12.310923489454211, 47.585268533527618 ], [ 12.311577551424641, 47.585638861020797 ], [ 12.311483741835701, 47.585853438676139 ], [ 12.311277185884066, 47.586326155539915 ], [ 12.311210930707512, 47.586477812169626 ], [ 12.311419427765399, 47.586856592771987 ], [ 12.311717338164176, 47.587397951907832 ], [ 12.311746883348487, 47.587451752660975 ], [ 12.312024573973641, 47.588137438795222 ], [ 12.313187110423637, 47.588989978319276 ], [ 12.313280089768197, 47.589058108758984 ], [ 12.313566083768116, 47.589406260046189 ], [ 12.314067990890189, 47.589519139295454 ], [ 12.314175121882803, 47.589598372063314 ], [ 12.314333656113055, 47.589715582206765 ], [ 12.314482750362448, 47.589825779968507 ], [ 12.315188073171251, 47.590362463131235 ], [ 12.316002218341582, 47.59098135707972 ], [ 12.31666681265118, 47.591486627134515 ], [ 12.31793477303639, 47.591950257263861 ], [ 12.318453058622366, 47.592139744493892 ], [ 12.31891349523271, 47.59230811329352 ], [ 12.319010971120411, 47.592343795953639 ], [ 12.319516710004066, 47.592487637817172 ], [ 12.319853121800774, 47.592583284601382 ], [ 12.319954984620137, 47.592612256664864 ], [ 12.321324589132674, 47.593001702110378 ], [ 12.321861608532364, 47.593221121977322 ], [ 12.322185880766872, 47.593353636610075 ], [ 12.322209368790716, 47.593356542684724 ], [ 12.322253956144992, 47.59336206386223 ], [ 12.323567191362285, 47.59352324776863 ], [ 12.324261498722187, 47.593608529056439 ], [ 12.324349746788936, 47.593619381696968 ], [ 12.324550130297565, 47.593643995873194 ], [ 12.324718135749409, 47.59366454635763 ], [ 12.324898480518787, 47.593686734539148 ], [ 12.324939752191368, 47.593691775672291 ], [ 12.325320396474464, 47.593666681901276 ], [ 12.325469830458292, 47.593656835224479 ], [ 12.326238710405967, 47.593606079596562 ], [ 12.326256422818112, 47.593604975119426 ], [ 12.326620892468904, 47.593681232246013 ], [ 12.326763220499176, 47.593702094644797 ], [ 12.327156641871044, 47.5937599778958 ], [ 12.327812433599629, 47.593856507737172 ], [ 12.328073272103714, 47.593752614079037 ], [ 12.329065333646179, 47.593772536166455 ], [ 12.32947266408406, 47.593638516709284 ], [ 12.32971173313379, 47.593559893384956 ], [ 12.329869693889338, 47.593556234075322 ], [ 12.330182822447968, 47.593548890422404 ], [ 12.330291677243412, 47.593546421456537 ], [ 12.330702535567228, 47.59358986806771 ], [ 12.332568193513351, 47.593787440390258 ], [ 12.334069332700738, 47.593946361051515 ], [ 12.334417138779086, 47.59398321736758 ], [ 12.334989141813621, 47.59413593466266 ], [ 12.335808631471329, 47.594081685578182 ], [ 12.336654204703224, 47.594286347711709 ], [ 12.338848701361357, 47.594499536367735 ], [ 12.339203742230858, 47.594534011295707 ], [ 12.339582815284292, 47.594570852460279 ], [ 12.33980680789756, 47.594592584795222 ], [ 12.340448373285032, 47.59446505056966 ], [ 12.340867092724542, 47.594381747709662 ], [ 12.341079921748603, 47.594339495813323 ], [ 12.341811384825343, 47.594283364034986 ], [ 12.342530990996062, 47.594228115149704 ], [ 12.34272253500934, 47.5942141101606 ], [ 12.343467928725829, 47.594159707582016 ], [ 12.343823975063398, 47.594133710793898 ], [ 12.344740264566679, 47.594066734695737 ], [ 12.345097641297681, 47.594040655436466 ], [ 12.348848884682553, 47.593748660048242 ], [ 12.349188317660765, 47.593799796503397 ], [ 12.351264998554317, 47.594112065427879 ], [ 12.351912422929836, 47.59438141571507 ], [ 12.351927744472102, 47.594380106903984 ], [ 12.351955853891607, 47.594377827554062 ], [ 12.352508326271323, 47.594332516101197 ], [ 12.352800616764918, 47.594308466727611 ], [ 12.353012173295884, 47.594291106179142 ], [ 12.353489898490428, 47.594252350648915 ], [ 12.353620320359218, 47.594241765390656 ], [ 12.353692128027182, 47.594235809111787 ], [ 12.353702385545782, 47.594234996767526 ], [ 12.353708380460578, 47.59423450799995 ], [ 12.35579050456524, 47.59406310329922 ], [ 12.355814618736639, 47.594061058957493 ], [ 12.35749104242772, 47.59420415777668 ], [ 12.357768211264268, 47.594227836252649 ], [ 12.358509810327016, 47.594291086610667 ], [ 12.360612225045772, 47.594179692811316 ], [ 12.360989464616015, 47.594136456330013 ], [ 12.36101665750747, 47.594133357200292 ], [ 12.361038385884406, 47.594130841680816 ], [ 12.361049715560675, 47.59412958785812 ], [ 12.361082906605864, 47.594125819631735 ], [ 12.362229095705452, 47.5939542039443 ], [ 12.362363986834097, 47.593924750950357 ], [ 12.363048052436591, 47.593775585227888 ], [ 12.363184412241463, 47.593745783762373 ], [ 12.363213258845789, 47.593739548810881 ], [ 12.363976793979186, 47.59354362953728 ], [ 12.364284183719878, 47.593464791192609 ], [ 12.36538942302661, 47.593305215916857 ], [ 12.365818872895979, 47.593243237910542 ], [ 12.366612684783693, 47.593128717212181 ], [ 12.366856523861216, 47.593120240809824 ], [ 12.368721258349037, 47.593055018484328 ], [ 12.368759856367539, 47.593053722870316 ], [ 12.369591731301671, 47.593024621251338 ], [ 12.370354660018446, 47.592997905147215 ], [ 12.370393924572612, 47.592996524591634 ], [ 12.37081345455911, 47.592981863748605 ], [ 12.370872151039137, 47.592979835986633 ], [ 12.371936149371262, 47.592942583767595 ], [ 12.372769350726347, 47.592913470262523 ], [ 12.374138669247516, 47.592712738483755 ], [ 12.374461290882817, 47.59266549281778 ], [ 12.374741502013705, 47.592624370939745 ], [ 12.37593862535584, 47.592448904917845 ], [ 12.376271247679648, 47.592400117896773 ], [ 12.37662114447571, 47.592454589519953 ], [ 12.378074592045158, 47.592680741211169 ], [ 12.378875729960418, 47.592805450645614 ], [ 12.378896854740137, 47.592806795834917 ], [ 12.378959176565658, 47.592810192786061 ], [ 12.379017910832536, 47.592813379951224 ], [ 12.37929749798584, 47.592828478561813 ], [ 12.379325270845083, 47.592829968846573 ], [ 12.379449668211194, 47.592835680458926 ], [ 12.379511334928939, 47.592838531798847 ], [ 12.379737803110361, 47.592848869418034 ], [ 12.379739791776785, 47.592937245111642 ], [ 12.37976412960165, 47.5940156630163 ], [ 12.37977272934047, 47.594392295592769 ], [ 12.37977405628309, 47.594451152726506 ], [ 12.379880038475603, 47.594445643636291 ], [ 12.379904936821605, 47.594444320580642 ], [ 12.380031824126414, 47.594437635116236 ], [ 12.380050064413805, 47.594436706688498 ], [ 12.380076826353086, 47.594435309076708 ], [ 12.380384790836006, 47.594441102611938 ], [ 12.380450940011666, 47.594504996208649 ], [ 12.380588467494585, 47.594637865446977 ], [ 12.380707142467379, 47.594732067316862 ], [ 12.380753301168296, 47.594768711401152 ], [ 12.3807763813578, 47.59478698845362 ], [ 12.380840242402538, 47.594837725948388 ], [ 12.380910418709199, 47.594877628318628 ], [ 12.381048137726898, 47.594955971442424 ], [ 12.381293821187636, 47.595044296763021 ], [ 12.3814880090996, 47.595082166837948 ], [ 12.381565551668814, 47.595097295681285 ], [ 12.381737603916067, 47.595130842969958 ], [ 12.381997196424537, 47.595237187713401 ], [ 12.382041299395237, 47.595255188648864 ], [ 12.382132968115757, 47.595320372239989 ], [ 12.382160152505113, 47.595339762723334 ], [ 12.382399541840156, 47.595423264671702 ], [ 12.382481629154459, 47.595451927305966 ], [ 12.382554332079842, 47.595477273003056 ], [ 12.382739911239302, 47.595520558412616 ], [ 12.382941768243731, 47.595539054039975 ], [ 12.382994887247946, 47.595543992276582 ], [ 12.383010425574826, 47.595545380477851 ], [ 12.384221934825339, 47.595334045376596 ], [ 12.384495087424952, 47.595286362908553 ], [ 12.385132796229746, 47.595175104215116 ], [ 12.38526406664141, 47.595390156615281 ], [ 12.385365281548948, 47.595538466670902 ], [ 12.385437720052357, 47.595630212614154 ], [ 12.385532305364455, 47.595799522832351 ], [ 12.385608705477225, 47.595915055701084 ], [ 12.385696997312104, 47.595872684033786 ], [ 12.385790756660118, 47.595829547573963 ], [ 12.386039312511119, 47.595722182714226 ], [ 12.38608114117311, 47.595704081888378 ], [ 12.386239299766189, 47.595645189752545 ], [ 12.386267958076694, 47.595634538521523 ], [ 12.386292723696192, 47.595625834733795 ], [ 12.386299015255677, 47.595623637116766 ], [ 12.386423513085012, 47.595579853674799 ], [ 12.386530946261624, 47.595545557220106 ], [ 12.386649945683772, 47.595519004136456 ], [ 12.386847852488179, 47.595520544358379 ], [ 12.387262949631467, 47.595523872515599 ], [ 12.387370057373731, 47.595522414810553 ], [ 12.387446162973022, 47.595521421656024 ], [ 12.387384448088527, 47.595114390083857 ], [ 12.387333061018326, 47.595013190965496 ], [ 12.387306595459442, 47.594961145382051 ], [ 12.387254817785228, 47.59485949311415 ], [ 12.387271401944446, 47.594854500864884 ], [ 12.38748966541697, 47.594789083508061 ], [ 12.387926797261118, 47.594254608247191 ], [ 12.387957595734521, 47.594250632629581 ], [ 12.388293979828541, 47.594207150498818 ], [ 12.388644813694507, 47.594121946101438 ], [ 12.38918011394205, 47.594023409937883 ], [ 12.389375302414352, 47.594183465899683 ], [ 12.389356997830376, 47.594617732435722 ], [ 12.389355364257568, 47.594656859725525 ], [ 12.389385569070233, 47.594693369235785 ], [ 12.3895605408138, 47.594905356395529 ], [ 12.3899457557978, 47.595024411926651 ], [ 12.390095292921499, 47.595045344766646 ], [ 12.390190030377267, 47.595058629375522 ], [ 12.390194409685135, 47.595059205189592 ], [ 12.390299670305575, 47.595071676287532 ], [ 12.390481893218396, 47.595042758758552 ], [ 12.390492966067937, 47.595040960057403 ], [ 12.390717477051506, 47.595005280798588 ], [ 12.390771903764104, 47.594996639393848 ], [ 12.390798992223528, 47.594984444528649 ], [ 12.390948645134891, 47.594917288143442 ], [ 12.391135444738023, 47.594833340205525 ], [ 12.391246477149682, 47.594783502583944 ], [ 12.391768667865863, 47.594674319383373 ], [ 12.392111941124263, 47.59460262924528 ], [ 12.392654590554567, 47.594435213501519 ], [ 12.3931671415203, 47.594277086700423 ], [ 12.393428174948378, 47.594147583375914 ], [ 12.39347326893798, 47.59412518761922 ], [ 12.393508378328542, 47.594207445266655 ], [ 12.393779564215816, 47.59484221228611 ], [ 12.393818367319522, 47.595164472869342 ], [ 12.394100266196549, 47.595267013369913 ], [ 12.394758224662255, 47.595368936130399 ], [ 12.395079974197195, 47.595362925629445 ], [ 12.395413434127322, 47.595356649892203 ], [ 12.395479567501438, 47.595355390069713 ], [ 12.395900315798494, 47.595347575803338 ], [ 12.396354754411908, 47.595382504565741 ], [ 12.396368171445872, 47.595383513747386 ], [ 12.396533156296973, 47.595396196124632 ], [ 12.396746361197406, 47.595412600482184 ], [ 12.396821014671927, 47.595418427651985 ], [ 12.396913868438997, 47.595425572804537 ], [ 12.397061717275674, 47.595436945061707 ], [ 12.397226729829502, 47.59526876984409 ], [ 12.397338231041372, 47.595154955469688 ], [ 12.397499575073082, 47.595073219342517 ], [ 12.397670715630198, 47.59498661393863 ], [ 12.397744810183498, 47.594949066316147 ], [ 12.397990132212659, 47.594610584647313 ], [ 12.398132841047863, 47.594469580072506 ], [ 12.398265800473634, 47.5943382136713 ], [ 12.398278798664508, 47.594325362531272 ], [ 12.398367752463175, 47.594237547449659 ], [ 12.398321621679344, 47.594078989862176 ], [ 12.398309964828417, 47.594038854569156 ], [ 12.398204552384865, 47.593675923190098 ], [ 12.398187125081503, 47.593616215578798 ], [ 12.39815921328306, 47.593607530448857 ], [ 12.397787357038089, 47.593492300374905 ], [ 12.397752015075074, 47.593475096669167 ], [ 12.397569370435829, 47.593386240309385 ], [ 12.397284787399158, 47.593247874926618 ], [ 12.397016835248349, 47.593161651944094 ], [ 12.39684952904018, 47.593107921056323 ], [ 12.39681502719359, 47.592849401385692 ], [ 12.39680459274312, 47.592770585095593 ], [ 12.396788055036355, 47.59264609992357 ], [ 12.396782784966575, 47.592620862970371 ], [ 12.396686150834586, 47.592154166246956 ], [ 12.396819164107866, 47.592042057333224 ], [ 12.397283697451723, 47.591650296535811 ], [ 12.397461812448917, 47.591500043448114 ], [ 12.397497495436502, 47.591363476636609 ], [ 12.397535605578257, 47.591217571805238 ], [ 12.397449610718311, 47.591094500549382 ], [ 12.397221704585659, 47.59088875258567 ], [ 12.39730238685544, 47.590495753474293 ], [ 12.397368371189225, 47.590173717664911 ], [ 12.397234540240259, 47.589898732552712 ], [ 12.397216756726454, 47.589881581713961 ], [ 12.397185764187531, 47.589851816228197 ], [ 12.397069775205363, 47.589740197476743 ], [ 12.397061088545637, 47.589563228721133 ], [ 12.397539523810755, 47.589218549007896 ], [ 12.397611806399048, 47.589192683957137 ], [ 12.397624390232636, 47.589188107546022 ], [ 12.397786488226831, 47.589130221545645 ], [ 12.397999585876057, 47.589054034927656 ], [ 12.398029594008303, 47.589056888578014 ], [ 12.398228231935814, 47.589075781215193 ], [ 12.398663484316664, 47.589117113610733 ], [ 12.398776580697923, 47.589032373898277 ], [ 12.398951864106559, 47.588995828460483 ], [ 12.398983368344945, 47.588989336252553 ], [ 12.39913758059946, 47.588843655092035 ], [ 12.399220099252457, 47.588765594688773 ], [ 12.399292454623559, 47.588548344676497 ], [ 12.399395059436891, 47.588372730655216 ], [ 12.399512969172793, 47.588286409736632 ], [ 12.399702966546727, 47.588147587092521 ], [ 12.399983921770447, 47.587942109057813 ], [ 12.40000224841134, 47.587928671156028 ], [ 12.399730581611504, 47.587738318790592 ], [ 12.399524469097919, 47.587593847780532 ], [ 12.399662878659663, 47.58710188969598 ], [ 12.399725480486255, 47.586879431331099 ], [ 12.399789640369958, 47.586651586867454 ], [ 12.399976840964859, 47.586684960167851 ], [ 12.400003223896505, 47.586689673416295 ], [ 12.400599296433979, 47.586796009771476 ], [ 12.400786029029764, 47.586855831659378 ], [ 12.401043249280944, 47.586938269966268 ], [ 12.401086138383505, 47.587047222153423 ], [ 12.40121850054199, 47.587383286388331 ], [ 12.401799436796553, 47.587240972732623 ], [ 12.402519647355508, 47.587728284972727 ], [ 12.402555347012802, 47.587770234257491 ], [ 12.402640177720933, 47.587869268009641 ], [ 12.403088415392238, 47.587559592483146 ], [ 12.40350125815373, 47.587355893496778 ], [ 12.403621972869715, 47.58716305648089 ], [ 12.403688897407042, 47.587056253545661 ], [ 12.403695724513881, 47.587046231183109 ], [ 12.40369763712116, 47.587043367343476 ], [ 12.404028512572889, 47.587240487662697 ], [ 12.404655176283732, 47.587942528331162 ], [ 12.404719875174695, 47.588150001897198 ], [ 12.404743801787056, 47.588188436148066 ], [ 12.405126383842427, 47.588802391672751 ], [ 12.405081223880796, 47.589077721051432 ], [ 12.40524822504714, 47.589344416715363 ], [ 12.405199286834447, 47.589547462846916 ], [ 12.405420158748981, 47.589791468869272 ], [ 12.405464621759092, 47.589902321525798 ], [ 12.405516092900355, 47.590030596600151 ], [ 12.40551639344762, 47.590036177693946 ], [ 12.405516988193005, 47.59004769974424 ], [ 12.405529171353869, 47.5902768833717 ], [ 12.405850297173119, 47.590409944667364 ], [ 12.40591162752265, 47.590477023771186 ], [ 12.406064425298677, 47.590644537159335 ], [ 12.406128565609746, 47.590688064453971 ], [ 12.406519838988867, 47.590954228134983 ], [ 12.40682869133663, 47.591195431717139 ], [ 12.40683354698694, 47.591199159985308 ], [ 12.407195532582513, 47.591293496219549 ], [ 12.407403608899244, 47.591298232361837 ], [ 12.408048978829106, 47.591312878698474 ], [ 12.408281824919682, 47.5915805497349 ], [ 12.408295260254436, 47.591588036124712 ], [ 12.408298420393086, 47.591589861133173 ], [ 12.408475566310745, 47.591583638889858 ], [ 12.408856340679472, 47.591570416886007 ], [ 12.409174385522794, 47.591614815191498 ], [ 12.40934010761473, 47.591638012658706 ], [ 12.409524542811559, 47.591633287065761 ], [ 12.409869061457442, 47.591624449097253 ], [ 12.410287367754856, 47.591715988897469 ], [ 12.410487976636746, 47.591759800055314 ], [ 12.411071839867191, 47.591777984398362 ], [ 12.411163301959411, 47.591780787941644 ], [ 12.411296036316775, 47.59176619684834 ], [ 12.411576032449899, 47.591735331170177 ], [ 12.411752258978089, 47.591690495771317 ], [ 12.411836429959456, 47.591669126097251 ], [ 12.412189433596458, 47.59184408505952 ], [ 12.412583849181459, 47.591910230986244 ], [ 12.412748697005195, 47.59193791542765 ], [ 12.412995375990818, 47.592093124554182 ], [ 12.413080233634123, 47.592146531484396 ], [ 12.413126939131976, 47.592175878545568 ], [ 12.413645125639384, 47.592489192645594 ], [ 12.413806888388413, 47.592586943981537 ], [ 12.413964678439751, 47.59275979520821 ], [ 12.414529935722456, 47.593379138126252 ], [ 12.415422353588454, 47.594147396538439 ], [ 12.415429017124742, 47.594154288115035 ], [ 12.415659317597415, 47.594395379715102 ], [ 12.415856173621533, 47.59460174213261 ], [ 12.416002478521946, 47.594755063384611 ], [ 12.416667329736192, 47.595768305099611 ], [ 12.416845538897201, 47.5962970889179 ], [ 12.416966202604691, 47.596655084753863 ], [ 12.417109715746827, 47.597282117492746 ], [ 12.417154457414023, 47.597477996834755 ], [ 12.417161640359225, 47.597508556709613 ], [ 12.417163126703084, 47.597514867033233 ], [ 12.417167254124754, 47.59752992629744 ], [ 12.417412789512248, 47.59844030328685 ], [ 12.417512256852913, 47.598809016751794 ], [ 12.417583112013274, 47.599071507825066 ], [ 12.418060900429499, 47.600526391576871 ], [ 12.418166143465415, 47.600846562058301 ], [ 12.418193809562739, 47.60093091190641 ], [ 12.418386862879442, 47.601518296489104 ], [ 12.41849321501687, 47.601790247138425 ], [ 12.418770505356671, 47.602498962020853 ], [ 12.418712103110469, 47.602781838282091 ], [ 12.418606048194537, 47.603295488948795 ], [ 12.418738480775279, 47.603376263433503 ], [ 12.419024012526531, 47.603550573265103 ], [ 12.420127452646105, 47.604346833667243 ], [ 12.420612040502235, 47.604696558361056 ], [ 12.420779440127875, 47.604817378369965 ], [ 12.422864777294839, 47.606322151756665 ], [ 12.422892503610827, 47.606342166529117 ], [ 12.422929429799346, 47.606368732576456 ], [ 12.423736759267939, 47.607829797573771 ], [ 12.42517169200004, 47.61042647815006 ], [ 12.425399807271985, 47.610839298953117 ], [ 12.425485481356267, 47.610994287610282 ], [ 12.426157558044624, 47.612289785427237 ], [ 12.426172239090631, 47.612318064336954 ], [ 12.426750077829952, 47.613431959039083 ], [ 12.428355976758658, 47.614996818362613 ], [ 12.428507789902211, 47.615144767008829 ], [ 12.428673478211717, 47.615306141333093 ], [ 12.428720856372871, 47.615352222832719 ], [ 12.428731587016927, 47.615362744684596 ], [ 12.428750170721422, 47.615380886455945 ], [ 12.428918871186855, 47.61554516339465 ], [ 12.429688350457072, 47.616648132367629 ], [ 12.429948040757766, 47.617046974824028 ], [ 12.430222902316034, 47.617469240020256 ], [ 12.430361375257126, 47.617681775183804 ], [ 12.430453268301928, 47.617824841531238 ], [ 12.430640298926379, 47.618115858248721 ], [ 12.430933743757214, 47.618572548946361 ], [ 12.431742430728868, 47.61983093189265 ], [ 12.431776523556726, 47.619883836128736 ], [ 12.431840426338692, 47.61998331255429 ], [ 12.43233481221583, 47.620752537194512 ], [ 12.43285770283337, 47.621233784628224 ], [ 12.433630342557944, 47.621291120460626 ], [ 12.433650545639807, 47.621292628214327 ], [ 12.433663853580882, 47.621308208484884 ], [ 12.433796151959477, 47.621463015236095 ], [ 12.433892048849863, 47.621575247627078 ], [ 12.434061271013444, 47.621773352153575 ], [ 12.436070864021762, 47.623722488385425 ], [ 12.436318046108747, 47.623962317414403 ], [ 12.436380235063032, 47.624022637562852 ], [ 12.436739493014294, 47.624371132848765 ], [ 12.436790162652187, 47.624420205736214 ], [ 12.436822501147418, 47.624451590074948 ], [ 12.436992181376434, 47.624616221974371 ], [ 12.437222875819817, 47.624839994413925 ], [ 12.438131928372545, 47.625721565796823 ], [ 12.438295447711543, 47.626357809162094 ], [ 12.438466698117383, 47.627024884603316 ], [ 12.438706368824144, 47.627957655241659 ], [ 12.439103263774667, 47.62783333447841 ], [ 12.440025907479402, 47.627544480335899 ], [ 12.440197590243963, 47.627490657831039 ], [ 12.440435373215555, 47.627416293664517 ], [ 12.440462882328294, 47.627481470904549 ], [ 12.44088257798855, 47.628475019334815 ], [ 12.441178304416812, 47.628241483561645 ], [ 12.441959564814423, 47.627624539416964 ], [ 12.442220611074891, 47.627418355190706 ], [ 12.44241851868882, 47.62726206850418 ], [ 12.443078677573244, 47.627742261512211 ], [ 12.444749127232393, 47.62710275672643 ], [ 12.445392567155226, 47.626856330622331 ], [ 12.44547948210035, 47.626848363926051 ], [ 12.445651981098825, 47.626832420062833 ], [ 12.445993910318535, 47.626800957767408 ], [ 12.446050067805254, 47.626777907039333 ], [ 12.446159838903045, 47.626732685647617 ], [ 12.446460463785964, 47.626609126473326 ], [ 12.446562861609541, 47.626566997036633 ], [ 12.446809392344171, 47.626612356996255 ], [ 12.447338680019939, 47.626709652857002 ], [ 12.447270074731565, 47.627099985415612 ], [ 12.447259040812309, 47.627162344602816 ], [ 12.447237689885545, 47.627284009270213 ], [ 12.446040783390801, 47.627832278927656 ], [ 12.446072475476486, 47.628320200142021 ], [ 12.446137102587056, 47.628331675999966 ], [ 12.446970618495534, 47.628479907897976 ], [ 12.447012965122468, 47.62843137666399 ], [ 12.447662118991275, 47.627688307621966 ], [ 12.447931927646955, 47.627379424085227 ], [ 12.448351700657492, 47.626898757922525 ], [ 12.448129849772322, 47.625854303923305 ], [ 12.447900499795029, 47.625832113248386 ], [ 12.447843495406879, 47.625826545578761 ], [ 12.447789678856715, 47.625821362340311 ], [ 12.447147607283467, 47.62575919023034 ], [ 12.447148884087488, 47.625470373004305 ], [ 12.446515294239793, 47.625560504260932 ], [ 12.44661154419776, 47.625164806594498 ], [ 12.446890033698919, 47.624498692474752 ], [ 12.446929701754968, 47.624403622338363 ], [ 12.447070612311931, 47.624066303877484 ], [ 12.44731273949103, 47.623740652481523 ], [ 12.447341369776975, 47.623834449499 ], [ 12.44737290616513, 47.623937446584193 ], [ 12.447546361543292, 47.624503750427003 ], [ 12.447561371096155, 47.624552903678833 ], [ 12.447699760649844, 47.62500466590663 ], [ 12.448077720613728, 47.624729726555465 ], [ 12.4480733824363, 47.624718625950138 ], [ 12.447989103451302, 47.624507160274327 ], [ 12.447605916894632, 47.623544511284223 ], [ 12.447552260078943, 47.622621920370534 ], [ 12.447725974877976, 47.622619839367161 ], [ 12.44792564753158, 47.622617418130389 ], [ 12.44837996913378, 47.62261191803313 ], [ 12.448368977481762, 47.622553348175771 ], [ 12.448224484102393, 47.621784459401255 ], [ 12.448210135695831, 47.621775081279289 ], [ 12.448204870532635, 47.621771621607969 ], [ 12.448423281181949, 47.621675767350148 ], [ 12.448436822567025, 47.621669843087361 ], [ 12.448440577258742, 47.621668162414956 ], [ 12.448564061542282, 47.62161395660457 ], [ 12.451148854629965, 47.620479588953586 ], [ 12.452145791792541, 47.620042026207486 ], [ 12.453101553093566, 47.619622585016238 ], [ 12.4534629236922, 47.619690674614993 ], [ 12.453503650638543, 47.619698364422604 ], [ 12.453604341535288, 47.619717310326863 ], [ 12.454039851864747, 47.619816467665501 ], [ 12.454681241866369, 47.619995117222921 ], [ 12.45482410895174, 47.620062522206027 ], [ 12.455539767006139, 47.620400364294589 ], [ 12.455746951126425, 47.620513427712439 ], [ 12.456040387745476, 47.62067348719426 ], [ 12.456298238649673, 47.620796923657679 ], [ 12.456486512575937, 47.620886987240354 ], [ 12.456540801149551, 47.620903507176607 ], [ 12.456766690167203, 47.620972532526508 ], [ 12.456938557053665, 47.62102503973761 ], [ 12.457051502010884, 47.621059552076403 ], [ 12.457320219527968, 47.621209972213869 ], [ 12.4575116302955, 47.621271715158464 ], [ 12.457640297267261, 47.621313184937762 ], [ 12.458036379593969, 47.621439649646412 ], [ 12.458329585113541, 47.621534377946681 ], [ 12.458508832769265, 47.621575421863817 ], [ 12.45882344345423, 47.621647547518904 ], [ 12.459273954185093, 47.621822559672587 ], [ 12.459285847242976, 47.621899670557831 ], [ 12.459508961959157, 47.622128018948011 ], [ 12.459837344653998, 47.622332692851423 ], [ 12.459967487278711, 47.622349697401852 ], [ 12.460455387560055, 47.622413597091544 ], [ 12.461116728087401, 47.622491947178425 ], [ 12.461155219303802, 47.622217538896365 ], [ 12.461261076830311, 47.622206284890687 ], [ 12.461572520466598, 47.622172925707602 ], [ 12.461714641420317, 47.622157807275499 ], [ 12.461732106380854, 47.622155960172371 ], [ 12.461737814391775, 47.622140797302727 ], [ 12.461762863541873, 47.622074853975178 ], [ 12.461791329349575, 47.622099813466619 ], [ 12.461809564940953, 47.622115697692536 ], [ 12.461821501219813, 47.622126225516588 ], [ 12.461877623209308, 47.622152744265797 ], [ 12.461935328667865, 47.62218008478208 ], [ 12.461964114138931, 47.622193799507983 ], [ 12.462072880931368, 47.621999013416556 ], [ 12.462127746171792, 47.621900634233867 ], [ 12.462211685207775, 47.621750378529299 ], [ 12.462326241831935, 47.621479155475392 ], [ 12.462463001810436, 47.621120822628903 ], [ 12.462525288392463, 47.620895721634838 ], [ 12.462632172134452, 47.620549219224948 ], [ 12.462698906156151, 47.620256398986577 ], [ 12.462722412596822, 47.620122780919402 ], [ 12.462751078373293, 47.619958879600603 ], [ 12.462797511713848, 47.619686420359834 ], [ 12.462919159794474, 47.618769573988267 ], [ 12.463006332143399, 47.618126267035031 ], [ 12.4630453866382, 47.618114415746732 ], [ 12.46317539223716, 47.61807482004766 ], [ 12.463288409750607, 47.618040494278468 ], [ 12.463318770586858, 47.618031276424333 ], [ 12.463349510793057, 47.618039337057382 ], [ 12.463392629039269, 47.618055319360167 ], [ 12.464205520768161, 47.618341206444363 ], [ 12.464278951130281, 47.618367045110354 ], [ 12.464510888015853, 47.618448517847902 ], [ 12.46477019373302, 47.618540814181394 ], [ 12.464760811069606, 47.618625411827139 ], [ 12.465008027873774, 47.618660120866778 ], [ 12.46511915615887, 47.61867571636521 ], [ 12.465368497956614, 47.618710710603921 ], [ 12.465387269968362, 47.618710222478612 ], [ 12.465414161676662, 47.618709615691373 ], [ 12.46575511822445, 47.618700851926143 ], [ 12.465830472363001, 47.618698901161864 ], [ 12.465839211980335, 47.618733788267839 ], [ 12.46584633021026, 47.618762094806186 ], [ 12.466160955645332, 47.618776435243539 ], [ 12.466722922493021, 47.618801907078847 ], [ 12.467014182363158, 47.618885531413341 ], [ 12.467090872105091, 47.618907523805674 ], [ 12.467251359300457, 47.618972436674206 ], [ 12.467275550983629, 47.618982246459936 ], [ 12.467734807346949, 47.61916790868451 ], [ 12.468106418027762, 47.619318178334318 ], [ 12.468666159255431, 47.619252836952896 ], [ 12.469112698377588, 47.619200678434886 ], [ 12.469311175301771, 47.619278200812047 ], [ 12.469335004966267, 47.619350541529975 ], [ 12.469365938684751, 47.619444080244726 ], [ 12.469598180947896, 47.619588708821531 ], [ 12.469820747552813, 47.619674329249236 ], [ 12.469973488717077, 47.619733151621418 ], [ 12.470320763271582, 47.619866765463485 ], [ 12.470488978069481, 47.619931551795375 ], [ 12.470507509588858, 47.619937629353124 ], [ 12.471042110492013, 47.620115115792068 ], [ 12.471259181236114, 47.620187195612353 ], [ 12.471721485833521, 47.620448175326722 ], [ 12.471893432949168, 47.620545289299528 ], [ 12.4734004325142, 47.620684967533435 ], [ 12.47359377456895, 47.620702879204082 ], [ 12.473964598283972, 47.620854113519123 ], [ 12.47416686666477, 47.620936604457377 ], [ 12.474544436008488, 47.621090586585865 ], [ 12.47490894861882, 47.621107075089085 ], [ 12.475067203248022, 47.621114105010633 ], [ 12.475383576628849, 47.621128343139091 ], [ 12.475540898445388, 47.621135455423826 ], [ 12.47570332648362, 47.621098786784778 ], [ 12.475906896049917, 47.621052797191446 ], [ 12.4762446827272, 47.620610829330758 ], [ 12.476252708214451, 47.620600181893309 ], [ 12.476299484932314, 47.620539076285581 ], [ 12.476328445575515, 47.620501411837651 ], [ 12.476619328316312, 47.620454542163628 ], [ 12.476657490691693, 47.620448348168708 ], [ 12.476773309886525, 47.620429686054948 ], [ 12.476785555217555, 47.620421409419848 ], [ 12.476846651681495, 47.62037984530113 ], [ 12.476911241684475, 47.62040156099814 ], [ 12.476945785627962, 47.62041324537671 ], [ 12.477013665537058, 47.620404573297087 ], [ 12.477493222757882, 47.620343450472326 ], [ 12.47758990760533, 47.620331123452011 ], [ 12.478304974870694, 47.620239898004172 ], [ 12.478733587059391, 47.620185229406985 ], [ 12.478781481898336, 47.620153373634942 ], [ 12.478878754129008, 47.620088503348732 ], [ 12.479235844532631, 47.620078199855207 ], [ 12.479269661998378, 47.620077281361716 ], [ 12.479598792569499, 47.620067758794157 ], [ 12.480896137750536, 47.620030416698405 ], [ 12.481569913080298, 47.620064022779594 ], [ 12.481724694110735, 47.620071737634547 ], [ 12.48172961313645, 47.620072043999578 ], [ 12.481933461627321, 47.620082191463361 ], [ 12.48264633462929, 47.620117610342604 ], [ 12.483031217469586, 47.620223750866074 ], [ 12.483222534237903, 47.620276452416235 ], [ 12.48432579288643, 47.620580358398101 ], [ 12.484684450115481, 47.620679191495256 ], [ 12.485168050489655, 47.620812416602348 ], [ 12.48567536931089, 47.620952202872687 ], [ 12.485817801369809, 47.620991403029528 ], [ 12.486171225123375, 47.621200594468249 ], [ 12.486350903089738, 47.621307011155345 ], [ 12.486702090662178, 47.621514834791235 ], [ 12.486752054125624, 47.621544355174059 ], [ 12.487006876754103, 47.621695232761994 ], [ 12.487834715086807, 47.622006434597232 ], [ 12.488852223682409, 47.622167772550824 ], [ 12.488947137663917, 47.622182865895532 ], [ 12.489123825059089, 47.622210886403046 ], [ 12.489179267088344, 47.622172873357094 ], [ 12.490014493750573, 47.62160189107783 ], [ 12.490172198315337, 47.62149408573945 ], [ 12.490295857855994, 47.621409604495099 ], [ 12.49076829359543, 47.621086631607717 ], [ 12.491670765080608, 47.620469522184464 ], [ 12.491860216380443, 47.620340082579354 ], [ 12.492088016617959, 47.620184290121941 ], [ 12.493368807751903, 47.619308642270099 ], [ 12.49408070077285, 47.618830125586825 ], [ 12.495569552798118, 47.61782937465096 ], [ 12.496191953387102, 47.617411017213868 ], [ 12.496640688144675, 47.617109442299338 ], [ 12.496661134873353, 47.617095644692334 ], [ 12.496712383989575, 47.617061196610123 ], [ 12.496803583500292, 47.616999866197062 ], [ 12.497290243884832, 47.616672741371502 ], [ 12.497443721013607, 47.616569484236379 ], [ 12.497642523739717, 47.616435964256347 ], [ 12.498206247594881, 47.616056939248708 ], [ 12.49832568954958, 47.615976647729163 ], [ 12.498419560677165, 47.615914435682875 ], [ 12.498454662323159, 47.61589111666666 ], [ 12.498920923981991, 47.615581922212677 ], [ 12.498957235519759, 47.615557802034473 ], [ 12.499181888063996, 47.615404852077667 ], [ 12.500214739573869, 47.61470134467352 ], [ 12.500462387437338, 47.61453272295887 ], [ 12.50130150168394, 47.613961237796268 ], [ 12.501323832867266, 47.613945923401012 ], [ 12.501563807234518, 47.613782462458197 ], [ 12.501949188230165, 47.613519998443032 ], [ 12.502045768557789, 47.613454203985626 ], [ 12.502292730892668, 47.613286113271656 ], [ 12.502360127508632, 47.613239812507395 ], [ 12.503164559051426, 47.612688038035664 ], [ 12.503576320539951, 47.612405514336707 ], [ 12.504982000552543, 47.611441382768881 ], [ 12.505953439035299, 47.610774902117569 ], [ 12.506057414370346, 47.610703578985074 ], [ 12.506022602637717, 47.610489093676712 ], [ 12.505985011611841, 47.610256772933845 ], [ 12.505977619690356, 47.610210741579756 ], [ 12.505971190155192, 47.610171195482117 ], [ 12.505899885675026, 47.609730785576986 ], [ 12.505852113208938, 47.609435317700886 ], [ 12.505821920992203, 47.609248668359349 ], [ 12.505775230604412, 47.60896058630631 ], [ 12.505733393385103, 47.608702321490938 ], [ 12.50572127520922, 47.608626923622694 ], [ 12.505696172863505, 47.608471982707876 ], [ 12.505685253427099, 47.608404961309724 ], [ 12.505602438750946, 47.607893116497721 ], [ 12.505579517819546, 47.607751777743857 ], [ 12.506444100514861, 47.606954776814156 ], [ 12.506610021851889, 47.606801749893322 ], [ 12.506805504649696, 47.60662167230506 ], [ 12.506880568927174, 47.606552299992686 ], [ 12.507295157490281, 47.606170179024652 ], [ 12.507553572944852, 47.605998110463553 ], [ 12.507642715486849, 47.605938646274815 ], [ 12.507139022239429, 47.605218181152544 ], [ 12.507762522159869, 47.603206278511657 ], [ 12.508030855897209, 47.602469135026752 ], [ 12.508101065966239, 47.602276278699584 ], [ 12.508130821493085, 47.602194343387552 ], [ 12.508253999843788, 47.601856014611542 ], [ 12.50830650192041, 47.601757236891089 ], [ 12.50833528714001, 47.601703187410273 ], [ 12.508489642116196, 47.601412589970998 ], [ 12.508628368548475, 47.601151392621361 ], [ 12.508831904392506, 47.600990444474824 ], [ 12.508890365935628, 47.600944165798488 ], [ 12.508957446244318, 47.600891200639381 ], [ 12.508990042536253, 47.600865521068314 ], [ 12.508997720403762, 47.600859457702377 ], [ 12.50908156647982, 47.600729862374884 ], [ 12.509156546102774, 47.600614239811826 ], [ 12.508970868906689, 47.600425396227628 ], [ 12.508903563943223, 47.600356980861406 ], [ 12.508899106656809, 47.600301882987061 ], [ 12.50889122842956, 47.600201952043918 ], [ 12.508884783179816, 47.600120926540363 ], [ 12.508866216417141, 47.599888202886831 ], [ 12.508860419792059, 47.599816719588304 ], [ 12.508810174509883, 47.599186430304911 ], [ 12.508771681160539, 47.598994413185373 ], [ 12.508695296866851, 47.598614432166364 ], [ 12.508681225723597, 47.598544689007028 ], [ 12.508621744312316, 47.598249047654178 ], [ 12.508607182247106, 47.598176691623237 ], [ 12.508942186047003, 47.59797853634366 ], [ 12.509036575960923, 47.597922797781699 ], [ 12.509729937830544, 47.597512614728601 ], [ 12.509757544668924, 47.597499585942003 ], [ 12.509888341274145, 47.597437899157754 ], [ 12.510857250972375, 47.596980555853371 ], [ 12.510963656256701, 47.596930300331294 ], [ 12.511149260506516, 47.596842731006909 ], [ 12.511311781899705, 47.59678513858146 ], [ 12.51163214169072, 47.59667162912713 ], [ 12.51216571551403, 47.596482532144833 ], [ 12.512670553430082, 47.596327508744857 ], [ 12.512972227173645, 47.59623473681053 ], [ 12.513073942239433, 47.596203520993264 ], [ 12.513213348384411, 47.5961607870737 ], [ 12.513336316149683, 47.596122974410676 ], [ 12.513376548398428, 47.596110574705932 ], [ 12.513386204436307, 47.596114062723537 ], [ 12.513436194748245, 47.596064482145024 ], [ 12.513533876143816, 47.595967733900849 ], [ 12.513929593559119, 47.595576006911259 ], [ 12.513967792869749, 47.59554037844417 ], [ 12.514086982677687, 47.595429026851399 ], [ 12.514713398799554, 47.59479447402272 ], [ 12.514869166032472, 47.594315556202922 ], [ 12.514921977041796, 47.594264015576712 ], [ 12.51496830594024, 47.594218727157177 ], [ 12.514956800812126, 47.594171677232978 ], [ 12.514944548111668, 47.594121382811267 ], [ 12.515023740467775, 47.593707962530132 ], [ 12.515079451492225, 47.593666609882682 ], [ 12.515203846988149, 47.593604961510842 ], [ 12.515234996328171, 47.593526453378082 ], [ 12.51533121849973, 47.593283570557084 ], [ 12.515349882645708, 47.593229537245044 ], [ 12.515402807583731, 47.593076503134867 ], [ 12.515411305223147, 47.593051819936328 ], [ 12.515446265858067, 47.592950574682824 ], [ 12.515483571251449, 47.592843947483544 ], [ 12.515536607421579, 47.59269226375234 ], [ 12.51558107428535, 47.592552755890985 ], [ 12.515590022506878, 47.592524746734234 ], [ 12.51552117813633, 47.592504101971812 ], [ 12.515487815738918, 47.592494057048313 ], [ 12.515493996426875, 47.592481504251055 ], [ 12.515512804464072, 47.592443847749969 ], [ 12.515544710548539, 47.592419241147816 ], [ 12.515561675035785, 47.592406045270749 ], [ 12.515610677133562, 47.592368333683893 ], [ 12.515623022999154, 47.592215910470344 ], [ 12.515703069917752, 47.592166182867722 ], [ 12.515735033206878, 47.592146435379746 ], [ 12.515772310426795, 47.592109989960797 ], [ 12.515880224803356, 47.592004494778934 ], [ 12.515899941253705, 47.591899811787727 ], [ 12.515839185791689, 47.591838015265388 ], [ 12.515841267281433, 47.591823903678382 ], [ 12.515841493848008, 47.591809329010623 ], [ 12.515841670066369, 47.591797993157876 ], [ 12.516387418142347, 47.59147174847071 ], [ 12.51639620223103, 47.591454265395583 ], [ 12.516453440741543, 47.591340041548655 ], [ 12.516438656900728, 47.591315642656824 ], [ 12.5160467920833, 47.590666821163438 ], [ 12.516056905563024, 47.59062370410642 ], [ 12.516251623343489, 47.590238637341308 ], [ 12.516448540470861, 47.589651857294193 ], [ 12.516421001672295, 47.589583818814994 ], [ 12.516459573868163, 47.589583733111681 ], [ 12.517479535625247, 47.589594758228849 ], [ 12.51777582668921, 47.589597311346765 ], [ 12.518262683144259, 47.589601665424929 ], [ 12.519434665318604, 47.589612851585571 ], [ 12.520212353882105, 47.589620156704733 ], [ 12.520325256910674, 47.589621225485146 ], [ 12.520605852841454, 47.589623840209917 ], [ 12.521523179663054, 47.589632123971867 ], [ 12.521574183371524, 47.589636623224088 ], [ 12.521585739486282, 47.589637604627882 ], [ 12.521591717026604, 47.589638096738469 ], [ 12.52168549168195, 47.589646227216875 ], [ 12.521808220391039, 47.58965699147835 ], [ 12.522365762284787, 47.589735068598465 ], [ 12.522864415054348, 47.589828473647202 ], [ 12.522972467017315, 47.589850920129749 ], [ 12.523233788830645, 47.589913317171145 ], [ 12.523351124016358, 47.589946176090429 ], [ 12.523453230682906, 47.589974698644852 ], [ 12.523633324757157, 47.590034722726323 ], [ 12.523759033305184, 47.590076637921293 ], [ 12.523908426755371, 47.590126547806648 ], [ 12.523940845868445, 47.590137393437047 ], [ 12.523983030092603, 47.590153256568598 ], [ 12.524066208629906, 47.590184524519891 ], [ 12.524426430757581, 47.590319866771537 ], [ 12.524846608840187, 47.590465887088513 ], [ 12.524861690941762, 47.590471121884669 ], [ 12.524896088728518, 47.590483060886015 ], [ 12.524931100116161, 47.590437778854351 ], [ 12.524939196421705, 47.590404274408179 ], [ 12.525001189156361, 47.590143867314715 ], [ 12.525108383700282, 47.589694286633552 ], [ 12.525132468246989, 47.589593177959912 ], [ 12.525181341703849, 47.589519074747642 ], [ 12.525263719385942, 47.589302944545452 ], [ 12.52525393162634, 47.58920851687212 ], [ 12.525154406337823, 47.588248689367397 ], [ 12.525209230997403, 47.588100531939432 ], [ 12.525504704971841, 47.587301994278398 ], [ 12.526068472991355, 47.586788597598996 ], [ 12.526553771341913, 47.586537371095446 ], [ 12.526932297956604, 47.586154242814608 ], [ 12.527204354740931, 47.585737488790571 ], [ 12.527322449133932, 47.585650931573468 ], [ 12.527404190715897, 47.585512661414633 ], [ 12.52747941994075, 47.585308986223893 ], [ 12.527872803135059, 47.584925608142626 ], [ 12.528000308822033, 47.584846098423682 ], [ 12.528004378288751, 47.584826125056068 ], [ 12.52803958247352, 47.584653175036777 ], [ 12.528224571354347, 47.584577631020366 ], [ 12.528400124888211, 47.584505943608157 ], [ 12.528505364516816, 47.584271849797872 ], [ 12.528666389516543, 47.584117020428749 ], [ 12.528856579640308, 47.584066417468939 ], [ 12.528852330550972, 47.583939916023425 ], [ 12.529056422243267, 47.583628071816513 ], [ 12.528983003219992, 47.583526099781295 ], [ 12.528969147657621, 47.583506855674074 ], [ 12.529037487710877, 47.583450468595842 ], [ 12.52952584369692, 47.583047549822119 ], [ 12.529764396467252, 47.583044800573624 ], [ 12.529831757464969, 47.582958389845309 ], [ 12.530070990988639, 47.582857047902536 ], [ 12.530260737010302, 47.582747171676779 ], [ 12.530797155732619, 47.582486873139963 ], [ 12.531176247249883, 47.582350505907762 ], [ 12.531225476539445, 47.581677389562039 ], [ 12.531352485211151, 47.581548511291992 ], [ 12.531685805874522, 47.581352168143312 ], [ 12.531621354699908, 47.581156396291 ], [ 12.531846997276153, 47.580857942140312 ], [ 12.531946764423365, 47.580763343382216 ], [ 12.532264920429183, 47.580520572617765 ], [ 12.532622074954849, 47.580452601235251 ], [ 12.532801305775385, 47.580225362507477 ], [ 12.5329577108247, 47.580140911011355 ], [ 12.533120722987041, 47.580084524171532 ], [ 12.533215913845918, 47.579899753453077 ], [ 12.533278568292419, 47.57973221163418 ], [ 12.533322686799252, 47.579557576486906 ], [ 12.533337458783722, 47.579499113289074 ], [ 12.533239701926993, 47.579356088869893 ], [ 12.533241034514125, 47.579327053558998 ], [ 12.533244389888363, 47.579254204514015 ], [ 12.533065674956676, 47.579008231226958 ], [ 12.533070904909744, 47.57887423783243 ], [ 12.532761565662684, 47.578533364052426 ], [ 12.532698826843934, 47.57832290237846 ], [ 12.532515077071496, 47.578203634773985 ], [ 12.532571396268066, 47.577916811497566 ], [ 12.532559156649404, 47.577743385337463 ], [ 12.532558384940154, 47.577535523892358 ], [ 12.532488772359793, 47.577440427751931 ], [ 12.532618906355504, 47.577163881453238 ], [ 12.532754982593165, 47.576637465017683 ], [ 12.532898892344656, 47.576457685778543 ], [ 12.532934205853218, 47.576353900286996 ], [ 12.532958604894979, 47.576251703321176 ], [ 12.532869125014438, 47.576019595787344 ], [ 12.532878750138639, 47.575875528515667 ], [ 12.532811261174974, 47.575745842126167 ], [ 12.53276807890788, 47.575618781452363 ], [ 12.532761896237531, 47.575464112686177 ], [ 12.532823439817715, 47.575345726755458 ], [ 12.532709533031015, 47.575112953953813 ], [ 12.532724280130912, 47.574780006375619 ], [ 12.533056578116977, 47.574689681247932 ], [ 12.532906086182011, 47.57427385618611 ], [ 12.532975324086424, 47.57410407483863 ], [ 12.532997275230988, 47.573911874629644 ], [ 12.533039169180219, 47.573840382721585 ], [ 12.533135493771693, 47.573767416425 ], [ 12.533156657703453, 47.573716960695265 ], [ 12.533148864953128, 47.573633992472487 ], [ 12.533173097593293, 47.573476188379729 ], [ 12.53317329635262, 47.573284790362976 ], [ 12.533207441813559, 47.573127370220057 ], [ 12.53320435044728, 47.572845441247885 ], [ 12.533246988830387, 47.572783501019103 ], [ 12.533252890716222, 47.572689183072463 ], [ 12.533303321757113, 47.572566823442706 ], [ 12.533274510808909, 47.572414606365008 ], [ 12.53347750884245, 47.572112302048239 ], [ 12.533531401804364, 47.571738543194229 ], [ 12.53357912340903, 47.571626385974746 ], [ 12.533485720686127, 47.571171656802832 ], [ 12.533584345060984, 47.570916430351211 ], [ 12.533473011437257, 47.570778044060837 ], [ 12.53327545151504, 47.570532497136746 ], [ 12.533277971111326, 47.570523310017514 ], [ 12.533418613103967, 47.570010708587262 ], [ 12.53360272710953, 47.569722047985216 ], [ 12.533653890083045, 47.569654507370679 ], [ 12.533650154338458, 47.569393835365986 ], [ 12.533719329292657, 47.569252107928897 ], [ 12.533770445179302, 47.569118514655123 ], [ 12.533852132244883, 47.568830535271125 ], [ 12.533935583411109, 47.568078141609348 ], [ 12.533559493346257, 47.567511798180938 ], [ 12.532689653124212, 47.565919726946007 ], [ 12.533194569198177, 47.565986220481562 ], [ 12.533489642383072, 47.566025166310141 ], [ 12.5335268782159, 47.565027397537406 ], [ 12.533320466426511, 47.564561047310335 ], [ 12.532945303778998, 47.563897370258829 ], [ 12.532848617603547, 47.56382138543119 ], [ 12.532797163124332, 47.562170482505017 ], [ 12.532786796668109, 47.561838303827528 ], [ 12.532550610098845, 47.560167666951969 ], [ 12.532528903298397, 47.559882017329485 ], [ 12.532507972404199, 47.559606540542354 ], [ 12.532532136521244, 47.559494867125835 ], [ 12.532534990558979, 47.559482020257846 ], [ 12.532538135064689, 47.559467555821868 ], [ 12.53254127956866, 47.559453091385755 ], [ 12.532558148875536, 47.559375288578011 ], [ 12.532593164319085, 47.559214383188035 ], [ 12.53259165836513, 47.559208524156652 ], [ 12.532542179869589, 47.559009599025295 ], [ 12.532489441864392, 47.558797784362802 ], [ 12.532263233891221, 47.558490193528336 ], [ 12.532219999431129, 47.558431316645432 ], [ 12.532070235452164, 47.558227822633917 ], [ 12.531207769785652, 47.557874129146263 ], [ 12.530686677921638, 47.557658591470194 ], [ 12.530513113117761, 47.557586835947504 ], [ 12.530471638170022, 47.557569630241375 ], [ 12.530405528296699, 47.557520490241856 ], [ 12.529687800905506, 47.556986312419454 ], [ 12.529395239490499, 47.556655936884219 ], [ 12.528887575353071, 47.556058890271196 ], [ 12.528863007493133, 47.555866166306267 ], [ 12.528684271075427, 47.554464144005415 ], [ 12.528579717012143, 47.553556977576584 ], [ 12.528532433157034, 47.553146348549021 ], [ 12.528525153914966, 47.553083493195949 ], [ 12.528512719318085, 47.552975342996021 ], [ 12.528511450317032, 47.552788900590642 ], [ 12.528512753692649, 47.552781891475526 ], [ 12.528582806388371, 47.552407535887198 ], [ 12.528588017061528, 47.552379679357301 ], [ 12.528597854537756, 47.552327381352455 ], [ 12.528748262804228, 47.552225950866053 ], [ 12.528953950194106, 47.552125177358327 ], [ 12.529063087718312, 47.552071685334838 ], [ 12.529216818106629, 47.551996281026881 ], [ 12.529448374722458, 47.551881111426482 ], [ 12.529545469790998, 47.551832843319389 ], [ 12.529951797349195, 47.551630627954736 ], [ 12.53008277418332, 47.551565500702644 ], [ 12.530168620008514, 47.551522731991582 ], [ 12.530845331043931, 47.551185998371864 ], [ 12.531148063085507, 47.551013377219441 ], [ 12.531286022737872, 47.550934620799858 ], [ 12.531455218282955, 47.550838176815915 ], [ 12.531861448638214, 47.550606441438688 ], [ 12.532042306216445, 47.550503329679401 ], [ 12.532228268987826, 47.549951265206644 ], [ 12.531861664378043, 47.549693350567424 ], [ 12.531656496289203, 47.549481820669548 ], [ 12.531376878462879, 47.549193559415997 ], [ 12.531334972121691, 47.54898703807951 ], [ 12.531314951282171, 47.548888012860928 ], [ 12.531350716256696, 47.548668987258381 ], [ 12.531382224257122, 47.5484763853215 ], [ 12.531168232112263, 47.548469311928713 ], [ 12.530963140550272, 47.548462480288855 ], [ 12.530828979230389, 47.548458123550446 ], [ 12.530800355907044, 47.5484439769657 ], [ 12.530126449158116, 47.548111566312009 ], [ 12.530130588327136, 47.547727120862 ], [ 12.529074404903934, 47.547339122243834 ], [ 12.529059340247491, 47.547333528085055 ], [ 12.528853047743391, 47.547257761344994 ], [ 12.528818291053152, 47.547245010923426 ], [ 12.528828861218104, 47.547222950482684 ], [ 12.529474133073261, 47.545870066932451 ], [ 12.529259624835209, 47.545853988520967 ], [ 12.529068346997759, 47.54583960205472 ], [ 12.528960162841001, 47.545831556003456 ], [ 12.529048320800335, 47.545636922021004 ], [ 12.529287886762107, 47.54510872136791 ], [ 12.529289260875704, 47.545105761727193 ], [ 12.529300549334492, 47.545088834996861 ], [ 12.52951709736586, 47.544762292609796 ], [ 12.529697597212525, 47.544490113957885 ], [ 12.530025899608908, 47.544198364351267 ], [ 12.530065909574134, 47.544162833159795 ], [ 12.530822321592355, 47.543490770737122 ], [ 12.530798791796631, 47.543186301694227 ], [ 12.530777836822377, 47.542913432800511 ], [ 12.530599657740773, 47.542398054498307 ], [ 12.530527098055721, 47.542215432243886 ], [ 12.529853990070709, 47.540521481398223 ], [ 12.529818799527645, 47.540432966926801 ], [ 12.529946265363987, 47.540221691435605 ], [ 12.530056282988767, 47.540039176579697 ], [ 12.530212920758677, 47.539779516910492 ], [ 12.530320001863243, 47.539667433846418 ], [ 12.531005140275685, 47.538950782459239 ], [ 12.532599609334754, 47.53839352540971 ], [ 12.532477020297781, 47.53829396467993 ], [ 12.532071721377569, 47.537964607233981 ], [ 12.531805287838518, 47.537748060329129 ], [ 12.531365737139675, 47.536972531204441 ], [ 12.531712674593642, 47.536360765930695 ], [ 12.531816848897979, 47.536177128818032 ], [ 12.531738197471366, 47.535967291257364 ], [ 12.531725049243313, 47.535932018121173 ], [ 12.531620613213947, 47.535652987424868 ], [ 12.531497542475309, 47.535323888758001 ], [ 12.531413003739658, 47.535177984034526 ], [ 12.531108004773106, 47.534650922289039 ] ] ] } }
]
}
