{
"type": "FeatureCollection",
"name": "nagynyarad",
"crs": { "type": "name", "properties": { "name": "urn:ogc:def:crs:OGC:1.3:CRS84" } },
"features": [
{ "type": "Feature", "properties": { "name": "Nagynyárád", "feature_type": "entity", "metric_roundness": 39.05, "metric_rectangularity": 49.61, "metric_mobile_fit": 32.67, "metric_aspect_ratio": 1.236, "metric_area_km2": 50.31 }, "geometry": { "type": "Polygon", "coordinates": [ [ [ 18.6281972, 45.9578309 ], [ 18.6268865, 45.974128799999988 ], [ 18.623077, 45.978058499999982 ], [ 18.6126946, 45.9863201 ], [ 18.6010715, 45.984844 ], [ 18.5924153, 45.9690606 ], [ 18.571002, 45.962074 ], [ 18.553446, 45.9585235 ], [ 18.5622382, 45.951307899999989 ], [ 18.5597571, 45.9471937 ], [ 18.5627588, 45.9408771 ], [ 18.553506, 45.9348515 ], [ 18.5635042, 45.9308063 ], [ 18.5632565, 45.9230205 ], [ 18.5832179, 45.925075199999988 ], [ 18.5912545, 45.9278744 ], [ 18.5914411, 45.933282399999982 ], [ 18.6122435, 45.938037 ], [ 18.6110376, 45.942831399999989 ], [ 18.6230241, 45.9487246 ], [ 18.6520114, 45.950781499999984 ], [ 18.665962, 45.947731 ], [ 18.6489415, 45.952809 ], [ 18.6281972, 45.9578309 ] ] ] } },
{ "type": "Feature", "properties": { "name": "Nagynyárád", "feature_type": "circle", "metric_roundness": 39.05, "metric_rectangularity": 49.61, "metric_mobile_fit": 32.67, "metric_aspect_ratio": 1.236, "metric_area_km2": 50.31 }, "geometry": { "type": "Polygon", "coordinates": [ [ [ 18.66597908452658, 45.946756118770708 ], [ 18.665900228842268, 45.94466218881319 ], [ 18.665663877927294, 45.942573919403401 ], [ 18.665270679603083, 45.940497035313548 ], [ 18.664721711598908, 45.93843723074508 ], [ 18.66401847859791, 45.936400153703609 ], [ 18.663162908112866, 45.934391390493829 ], [ 18.66215734520301, 45.932416450376934 ], [ 18.661004546046371, 45.930480750433027 ], [ 18.65970767038532, 45.92858960067057 ], [ 18.658270272865888, 45.926748189423897 ], [ 18.656696293294768, 45.924961569079429 ], [ 18.65499004584056, 45.923234642170527 ], [ 18.653156207208934, 45.921572147879232 ], [ 18.651199803824117, 45.919978648983133 ], [ 18.649126198051789, 45.918458519283341 ], [ 18.646941073501242, 45.917015931549031 ], [ 18.644650419446986, 45.915654846012281 ], [ 18.642260514412555, 45.914378999445404 ], [ 18.639777908961531, 45.913191894851529 ], [ 18.637209407742898, 45.912096791797424 ], [ 18.634562050839953, 45.911096697415758 ], [ 18.631843094473954, 45.910194358102146 ], [ 18.629059991115312, 45.909392251930413 ], [ 18.626220369056878, 45.908692581807514 ], [ 18.623332011505337, 45.908097269387433 ], [ 18.620402835247965, 45.907607949761264 ], [ 18.617440868953288, 45.907225966938441 ], [ 18.614454231165023, 45.906952370132075 ], [ 18.611451108049764, 45.90678791085876 ], [ 18.608439730959212, 45.90673304086107 ], [ 18.605428353868664, 45.90678791085876 ], [ 18.602425230753404, 45.906952370132075 ], [ 18.599438592965143, 45.907225966938441 ], [ 18.596476626670462, 45.907607949761264 ], [ 18.593547450413094, 45.908097269387433 ], [ 18.59065909286155, 45.908692581807514 ], [ 18.587819470803119, 45.909392251930413 ], [ 18.585036367444474, 45.910194358102146 ], [ 18.582317411078474, 45.911096697415758 ], [ 18.57967005417553, 45.912096791797424 ], [ 18.577101552956897, 45.913191894851529 ], [ 18.574618947505876, 45.914378999445404 ], [ 18.572229042471445, 45.915654846012281 ], [ 18.569938388417185, 45.917015931549031 ], [ 18.567753263866642, 45.918458519283341 ], [ 18.565679658094314, 45.919978648983133 ], [ 18.563723254709494, 45.921572147879232 ], [ 18.561889416077868, 45.923234642170527 ], [ 18.560183168623659, 45.924961569079429 ], [ 18.558609189052543, 45.926748189423897 ], [ 18.557171791533111, 45.92858960067057 ], [ 18.555874915872057, 45.930480750433027 ], [ 18.554722116715421, 45.932416450376934 ], [ 18.553716553805561, 45.934391390493829 ], [ 18.552860983320517, 45.936400153703609 ], [ 18.55215775031952, 45.93843723074508 ], [ 18.551608782315345, 45.940497035313548 ], [ 18.551215583991134, 45.942573919403401 ], [ 18.550979233076159, 45.94466218881319 ], [ 18.550900377391848, 45.946756118770708 ], [ 18.550979233076159, 45.948849969634786 ], [ 18.551215583991134, 45.950938002630821 ], [ 18.551608782315345, 45.953014495576809 ], [ 18.55215775031952, 45.955073758556779 ], [ 18.552860983320517, 45.957110149498831 ], [ 18.553716553805561, 45.959118089615359 ], [ 18.554722116715421, 45.961092078663157 ], [ 18.555874915872057, 45.963026709982209 ], [ 18.557171791533111, 45.964916685272158 ], [ 18.558609189052543, 45.966756829066433 ], [ 18.560183168623659, 45.968542102865086 ], [ 18.561889416077868, 45.97026761888781 ], [ 18.563723254709494, 45.971928653410515 ], [ 18.565679658094314, 45.973520659649147 ], [ 18.567753263866642, 45.97503928015648 ], [ 18.569938388417185, 45.97648035869836 ], [ 18.572229042471445, 45.977839951577714 ], [ 18.574618947505876, 45.979114338376128 ], [ 18.577101552956897, 45.980300032083981 ], [ 18.57967005417553, 45.98139378859247 ], [ 18.582317411078474, 45.982392615521952 ], [ 18.585036367444474, 45.98329378036329 ], [ 18.587819470803119, 45.984094817910417 ], [ 18.59065909286155, 45.984793536964446 ], [ 18.593547450413094, 45.985388026291496 ], [ 18.596476626670462, 45.985876659818452 ], [ 18.599438592965143, 45.986258101052925 ], [ 18.602425230753404, 45.986531306715555 ], [ 18.605428353868664, 45.986695529575194 ], [ 18.608439730959212, 45.986750320479473 ], [ 18.611451108049764, 45.986695529575194 ], [ 18.614454231165023, 45.986531306715555 ], [ 18.617440868953288, 45.986258101052925 ], [ 18.620402835247965, 45.985876659818452 ], [ 18.623332011505337, 45.985388026291496 ], [ 18.626220369056878, 45.984793536964446 ], [ 18.629059991115312, 45.984094817910417 ], [ 18.631843094473954, 45.98329378036329 ], [ 18.634562050839953, 45.982392615521952 ], [ 18.637209407742898, 45.98139378859247 ], [ 18.639777908961531, 45.980300032083981 ], [ 18.642260514412555, 45.979114338376128 ], [ 18.644650419446986, 45.977839951577714 ], [ 18.646941073501242, 45.97648035869836 ], [ 18.649126198051789, 45.97503928015648 ], [ 18.651199803824117, 45.973520659649147 ], [ 18.653156207208934, 45.971928653410515 ], [ 18.65499004584056, 45.97026761888781 ], [ 18.656696293294768, 45.968542102865086 ], [ 18.658270272865888, 45.966756829066433 ], [ 18.65970767038532, 45.964916685272158 ], [ 18.661004546046371, 45.963026709982209 ], [ 18.66215734520301, 45.961092078663157 ], [ 18.663162908112866, 45.959118089615359 ], [ 18.66401847859791, 45.957110149498831 ], [ 18.664721711598908, 45.955073758556779 ], [ 18.665270679603083, 45.953014495576809 ], [ 18.665663877927294, 45.950938002630821 ], [ 18.665900228842268, 45.948849969634786 ], [ 18.66597908452658, 45.946756118770708 ] ] ] } },
{ "type": "Feature", "properties": { "name": "Nagynyárád", "feature_type": "mrr", "metric_roundness": 39.05, "metric_rectangularity": 49.61, "metric_mobile_fit": 32.67, "metric_aspect_ratio": 1.236, "metric_area_km2": 50.31 }, "geometry": { "type": "Polygon", "coordinates": [ [ [ 18.665962, 45.947731 ], [ 18.562284602515223, 45.919342077959882 ], [ 18.535375802051377, 45.966868950052884 ], [ 18.639053200963055, 45.995233539819203 ], [ 18.665962, 45.947731 ] ] ] } }
]
}
