{
"type": "FeatureCollection",
"name": "nagyborzsony",
"crs": { "type": "name", "properties": { "name": "urn:ogc:def:crs:OGC:1.3:CRS84" } },
"features": [
{ "type": "Feature", "properties": { "name": "Nagybörzsöny", "feature_type": "entity", "metric_roundness": 42.99, "metric_rectangularity": 63.91, "metric_mobile_fit": 24.79, "metric_aspect_ratio": 1.315, "metric_area_km2": 112.87 }, "geometry": { "type": "Polygon", "coordinates": [ [ [ 18.8705562, 47.9493449 ], [ 18.8430037, 47.950774399999986 ], [ 18.8054463, 47.9623058 ], [ 18.7905424, 47.943074499999987 ], [ 18.7799479, 47.9461819 ], [ 18.7728555, 47.944661 ], [ 18.773745, 47.938468 ], [ 18.7821867, 47.9366923 ], [ 18.7850518, 47.9279984 ], [ 18.8031575, 47.9312064 ], [ 18.8071565, 47.924878899999982 ], [ 18.8167552, 47.922805399999987 ], [ 18.8328406, 47.913642 ], [ 18.845297, 47.898381 ], [ 18.8458865, 47.895702 ], [ 18.8863208, 47.8871769 ], [ 18.8969955, 47.888997 ], [ 18.9105291, 47.8893968 ], [ 18.9169526, 47.8917807 ], [ 18.9171855, 47.8953605 ], [ 18.9202427, 47.912166899999988 ], [ 18.9141635, 47.9249913 ], [ 18.9174545, 47.933377 ], [ 18.8823382, 47.947938599999986 ], [ 18.877914, 47.9523685 ], [ 18.8705562, 47.9493449 ] ] ] } },
{ "type": "Feature", "properties": { "name": "Nagybörzsöny", "feature_type": "circle", "metric_roundness": 42.99, "metric_rectangularity": 63.91, "metric_mobile_fit": 24.79, "metric_aspect_ratio": 1.315, "metric_area_km2": 112.87 }, "geometry": { "type": "Polygon", "coordinates": [ [ [ 18.927046788257364, 47.918227606027926 ], [ 18.926934214489421, 47.915346364108125 ], [ 18.926596801742456, 47.912472859683547 ], [ 18.92603547484136, 47.909614970798444 ], [ 18.925251772344144, 47.906780533985341 ], [ 18.924247842324888, 47.903977322749952 ], [ 18.923026436485991, 47.901213026215189 ], [ 18.921590902615957, 47.898495227983133 ], [ 18.919945175413336, 47.895831385273894 ], [ 18.918093765702007, 47.893228808398931 ], [ 18.916041748067297, 47.890694640626634 ], [ 18.913794746946898, 47.88823583849576 ], [ 18.911358921214703, 47.88585915263242 ], [ 18.90874094729973, 47.883571109124084 ], [ 18.905948000886504, 47.881377991503307 ], [ 18.902987737247013, 47.879285823391584 ], [ 18.899868270258128, 47.877300351852902 ], [ 18.896598150162028, 47.875427031503484 ], [ 18.893186340130601, 47.873671009423305 ], [ 18.88964219169798, 47.872037110912011 ], [ 18.88597541912868, 47.870529826129818 ], [ 18.882196072791434, 47.869153297661398 ], [ 18.878314511611855, 47.867911309038412 ], [ 18.874341374679329, 47.866807274253361 ], [ 18.870287552086022, 47.865844228294776 ], [ 18.866164155077875, 47.865024818730959 ], [ 18.861982485599487, 47.864351298366344 ], [ 18.857754005316231, 47.863825518991469 ], [ 18.853490304198637, 47.86344892624475 ], [ 18.849203068755113, 47.863222555600608 ], [ 18.84490405, 47.863147029495565 ], [ 18.840605031244891, 47.863222555600608 ], [ 18.83631779580136, 47.86344892624475 ], [ 18.83205409468377, 47.863825518991469 ], [ 18.82782561440051, 47.864351298366344 ], [ 18.823643944922125, 47.865024818730959 ], [ 18.819520547913982, 47.865844228294776 ], [ 18.815466725320675, 47.866807274253361 ], [ 18.811493588388146, 47.867911309038412 ], [ 18.807612027208567, 47.869153297661398 ], [ 18.80383268087132, 47.870529826129818 ], [ 18.80016590830202, 47.872037110912011 ], [ 18.796621759869403, 47.873671009423305 ], [ 18.793209949837973, 47.875427031503484 ], [ 18.789939829741872, 47.877300351852902 ], [ 18.786820362752987, 47.879285823391584 ], [ 18.7838600991135, 47.881377991503307 ], [ 18.781067152700274, 47.883571109124084 ], [ 18.778449178785301, 47.88585915263242 ], [ 18.776013353053106, 47.88823583849576 ], [ 18.773766351932711, 47.890694640626634 ], [ 18.77171433429799, 47.893228808398931 ], [ 18.769862924586661, 47.895831385273894 ], [ 18.768217197384043, 47.898495227983133 ], [ 18.766781663514006, 47.901213026215189 ], [ 18.765560257675109, 47.903977322749952 ], [ 18.764556327655853, 47.906780533985341 ], [ 18.763772625158648, 47.909614970798444 ], [ 18.763211298257549, 47.912472859683547 ], [ 18.762873885510583, 47.915346364108125 ], [ 18.762761311742636, 47.918227606027926 ], [ 18.762873885510583, 47.921108687501743 ], [ 18.763211298257549, 47.923981712346183 ], [ 18.763772625158648, 47.926838807771411 ], [ 18.764556327655853, 47.929672145938227 ], [ 18.765560257675109, 47.932473965377909 ], [ 18.766781663514006, 47.935236592216384 ], [ 18.768217197384043, 47.937952461145088 ], [ 18.769862924586661, 47.94061413608182 ], [ 18.77171433429799, 47.943214330465665 ], [ 18.773766351932711, 47.945745927131355 ], [ 18.776013353053106, 47.948201997709695 ], [ 18.778449178785301, 47.950575821502085 ], [ 18.781067152700274, 47.952860903778472 ], [ 18.7838600991135, 47.955050993450222 ], [ 18.786820362752987, 47.957140100070646 ], [ 18.789939829741872, 47.959122510118135 ], [ 18.793209949837973, 47.960992802518795 ], [ 18.796621759869403, 47.962745863367481 ], [ 18.80016590830202, 47.964376899808407 ], [ 18.80383268087132, 47.96588145303879 ], [ 18.807612027208567, 47.967255410401407 ], [ 18.811493588388146, 47.968495016534156 ], [ 18.815466725320675, 47.969596883547581 ], [ 18.819520547913982, 47.970558000203695 ], [ 18.823643944922125, 47.97137574007202 ], [ 18.82782561440051, 47.97204786864166 ], [ 18.83205409468377, 47.972572549370831 ], [ 18.83631779580136, 47.972948348658129 ], [ 18.840605031244891, 47.973174239722411 ], [ 18.84490405, 47.973249605381547 ], [ 18.849203068755113, 47.973174239722411 ], [ 18.853490304198637, 47.972948348658129 ], [ 18.857754005316231, 47.972572549370831 ], [ 18.861982485599487, 47.97204786864166 ], [ 18.866164155077875, 47.97137574007202 ], [ 18.870287552086022, 47.970558000203695 ], [ 18.874341374679329, 47.969596883547581 ], [ 18.878314511611855, 47.968495016534156 ], [ 18.882196072791434, 47.967255410401407 ], [ 18.88597541912868, 47.96588145303879 ], [ 18.88964219169798, 47.964376899808407 ], [ 18.893186340130601, 47.962745863367481 ], [ 18.896598150162028, 47.960992802518795 ], [ 18.899868270258128, 47.959122510118135 ], [ 18.902987737247013, 47.957140100070646 ], [ 18.905948000886504, 47.955050993450222 ], [ 18.90874094729973, 47.952860903778472 ], [ 18.911358921214703, 47.950575821502085 ], [ 18.913794746946898, 47.948201997709695 ], [ 18.916041748067297, 47.945745927131355 ], [ 18.918093765702007, 47.943214330465665 ], [ 18.919945175413336, 47.940614136081827 ], [ 18.921590902615957, 47.937952461145088 ], [ 18.923026436485991, 47.935236592216384 ], [ 18.924247842324888, 47.932473965377909 ], [ 18.925251772344144, 47.929672145938227 ], [ 18.92603547484136, 47.926838807771411 ], [ 18.926596801742456, 47.923981712346183 ], [ 18.926934214489421, 47.921108687501743 ], [ 18.927046788257364, 47.918227606027926 ] ] ] } },
{ "type": "Feature", "properties": { "name": "Nagybörzsöny", "feature_type": "mrr", "metric_roundness": 42.99, "metric_rectangularity": 63.91, "metric_mobile_fit": 24.79, "metric_aspect_ratio": 1.315, "metric_area_km2": 112.87 }, "geometry": { "type": "Polygon", "coordinates": [ [ [ 18.813976746209121, 47.983063123692801 ], [ 18.946511628099188, 47.919416271234184 ], [ 18.895592031078735, 47.871800896163116 ], [ 18.763057149188665, 47.935506334226034 ], [ 18.813976746209121, 47.983063123692801 ] ] ] } }
]
}
