{
"type": "FeatureCollection",
"name": "nant",
"crs": { "type": "name", "properties": { "name": "urn:ogc:def:crs:OGC:1.3:CRS84" } },
"features": [
{ "type": "Feature", "properties": { "name": "Nant", "feature_type": "entity", "metric_roundness": 51.06, "metric_rectangularity": 68.71, "metric_mobile_fit": 92.93, "metric_aspect_ratio": 0.633, "metric_area_km2": 211.85 }, "geometry": { "type": "Polygon", "coordinates": [ [ [ 3.337721, 44.058962199999982 ], [ 3.3330445, 44.073958499999989 ], [ 3.328914, 44.079025499999986 ], [ 3.3230545, 44.079843 ], [ 3.3165373, 44.0778342 ], [ 3.30748, 44.069601 ], [ 3.2975961, 44.068800899999985 ], [ 3.2818702, 44.078220399999985 ], [ 3.2759443, 44.0872453 ], [ 3.263114, 44.0924255 ], [ 3.246745, 44.0824606 ], [ 3.2383727, 44.0834489 ], [ 3.2350274, 44.0810203 ], [ 3.2352938, 44.067569499999976 ], [ 3.2418934, 44.0685272 ], [ 3.2462419, 44.0627287 ], [ 3.2430768, 44.053730699999981 ], [ 3.244428, 44.049756 ], [ 3.244891, 44.0436295 ], [ 3.239251, 44.04214 ], [ 3.2367615, 44.0378845 ], [ 3.2330085, 44.037155 ], [ 3.2282615, 44.0371935 ], [ 3.2251941, 44.0196853 ], [ 3.227447, 43.986967 ], [ 3.2340225, 43.9827142 ], [ 3.23919, 43.963431 ], [ 3.2552895, 43.9623626 ], [ 3.2677517, 43.9702072 ], [ 3.3095491, 43.966916 ], [ 3.3105781, 43.960148499999981 ], [ 3.3043324, 43.9521103 ], [ 3.313967, 43.948498499999978 ], [ 3.3261531, 43.9516287 ], [ 3.3385482, 43.960441599999982 ], [ 3.3397589, 43.9660217 ], [ 3.328506, 43.9729117 ], [ 3.3260966, 43.985327099999985 ], [ 3.3333068, 43.988048899999988 ], [ 3.3344725, 43.9936216 ], [ 3.3449551, 43.991142499999988 ], [ 3.3487847, 43.9929616 ], [ 3.3519233, 44.0007881 ], [ 3.351421, 44.009629499999981 ], [ 3.3363371, 44.012701299999982 ], [ 3.3323639, 44.0186023 ], [ 3.334057, 44.0230422 ], [ 3.3410669, 44.019773699999988 ], [ 3.3439685, 44.0270631 ], [ 3.3423182, 44.0324001 ], [ 3.3347155, 44.0388174 ], [ 3.3344381, 44.0435351 ], [ 3.3399298, 44.049612 ], [ 3.3478725, 44.052398 ], [ 3.337721, 44.058962199999982 ] ] ] } },
{ "type": "Feature", "properties": { "name": "Nant", "feature_type": "circle", "metric_roundness": 51.06, "metric_rectangularity": 68.71, "metric_mobile_fit": 92.93, "metric_aspect_ratio": 0.633, "metric_area_km2": 211.85 }, "geometry": { "type": "Polygon", "coordinates": [ [ [ 3.391795714071378, 44.020505673695226 ], [ 3.391654206389084, 44.0166196063185 ], [ 3.391230071204924, 44.012743936736257 ], [ 3.390524471043955, 44.008889291017667 ], [ 3.389539339907174, 44.005066239653594 ], [ 3.388277377970551, 44.001285268526814 ], [ 3.386742044184035, 43.997556750092514 ], [ 3.384937546790817, 43.993890914848606 ], [ 3.382868831792822, 43.990297823175339 ], [ 3.380541569394065, 43.986787337622687 ], [ 3.377962138459014, 43.983369095722885 ], [ 3.375137609028569, 43.9800524834044 ], [ 3.372075722941568, 43.976846609082067 ], [ 3.368784872614946, 43.973760278496485 ], [ 3.365274078040705, 43.970801970373522 ], [ 3.36155296206274, 43.967979812973248 ], [ 3.357631724001295, 43.965301561594643 ], [ 3.353521111697335, 43.96277457710012 ], [ 3.349232392053458, 43.960405805521283 ], [ 3.344777320152105, 43.958201758803988 ], [ 3.340168107035689, 43.956168496748042 ], [ 3.335417386236979, 43.954311610193322 ], [ 3.330538179151465, 43.952636205500504 ], [ 3.325543859346621, 43.951146890371255 ], [ 3.320448115905879, 43.949847761048666 ], [ 3.315264915907811, 43.948742390934896 ], [ 3.31000846614333, 43.947833820658943 ], [ 3.30469317417587, 43.94712454962319 ], [ 3.299333608851254, 43.946616529053316 ], [ 3.293944460365495, 43.94631115657171 ], [ 3.2885405, 43.946209272309915 ], [ 3.283136539634505, 43.94631115657171 ], [ 3.277747391148746, 43.946616529053316 ], [ 3.27238782582413, 43.94712454962319 ], [ 3.26707253385667, 43.947833820658943 ], [ 3.26181608409219, 43.948742390934896 ], [ 3.256632884094121, 43.949847761048666 ], [ 3.25153714065338, 43.951146890371255 ], [ 3.246542820848535, 43.952636205500504 ], [ 3.241663613763021, 43.954311610193322 ], [ 3.236912892964311, 43.956168496748042 ], [ 3.232303679847895, 43.958201758803988 ], [ 3.227848607946542, 43.960405805521283 ], [ 3.223559888302666, 43.96277457710012 ], [ 3.219449275998706, 43.965301561594643 ], [ 3.21552803793726, 43.967979812973248 ], [ 3.211806921959295, 43.970801970373522 ], [ 3.208296127385053, 43.973760278496485 ], [ 3.205005277058432, 43.976846609082067 ], [ 3.201943390971431, 43.9800524834044 ], [ 3.199118861540986, 43.983369095722885 ], [ 3.196539430605935, 43.986787337622687 ], [ 3.194212168207178, 43.990297823175339 ], [ 3.192143453209183, 43.993890914848606 ], [ 3.190338955815965, 43.997556750092514 ], [ 3.18880362202945, 44.001285268526814 ], [ 3.187541660092826, 44.005066239653594 ], [ 3.186556528956045, 44.008889291017667 ], [ 3.185850928795077, 44.012743936736257 ], [ 3.185426793610916, 44.0166196063185 ], [ 3.185285285928622, 44.020505673695226 ], [ 3.185426793610916, 44.024391486378491 ], [ 3.185850928795077, 44.028266394670858 ], [ 3.186556528956045, 44.032119780843985 ], [ 3.187541660092826, 44.035941088206926 ], [ 3.18880362202945, 44.039719849984515 ], [ 3.190338955815965, 44.043445717927739 ], [ 3.192143453209183, 44.047108490578061 ], [ 3.194212168207178, 44.050698141109663 ], [ 3.196539430605935, 44.054204844674508 ], [ 3.199118861540986, 44.057619005176662 ], [ 3.201943390971431, 44.060931281404329 ], [ 3.205005277058432, 44.064132612449811 ], [ 3.208296127385053, 44.067214242349671 ], [ 3.211806921959295, 44.070167743879743 ], [ 3.21552803793726, 44.07298504144201 ], [ 3.219449275998705, 44.075658432982891 ], [ 3.223559888302665, 44.078180610885362 ], [ 3.227848607946542, 44.080544681779863 ], [ 3.232303679847894, 44.082744185222182 ], [ 3.236912892964311, 44.084773111189534 ], [ 3.241663613763021, 44.086625916349121 ], [ 3.246542820848535, 44.088297539056846 ], [ 3.25153714065338, 44.089783413047201 ], [ 3.256632884094121, 44.091079479778898 ], [ 3.26181608409219, 44.092182199404121 ], [ 3.26707253385667, 44.093088560333136 ], [ 3.27238782582413, 44.09379608736959 ], [ 3.277747391148746, 44.094302848395401 ], [ 3.283136539634504, 44.094607459587976 ], [ 3.2885405, 44.094709089156609 ], [ 3.293944460365495, 44.094607459587976 ], [ 3.299333608851254, 44.094302848395401 ], [ 3.30469317417587, 44.09379608736959 ], [ 3.31000846614333, 44.093088560333136 ], [ 3.315264915907811, 44.092182199404121 ], [ 3.320448115905879, 44.091079479778898 ], [ 3.325543859346621, 44.089783413047201 ], [ 3.330538179151465, 44.088297539056846 ], [ 3.335417386236979, 44.086625916349121 ], [ 3.340168107035689, 44.084773111189534 ], [ 3.344777320152105, 44.082744185222182 ], [ 3.349232392053458, 44.080544681779863 ], [ 3.353521111697334, 44.078180610885362 ], [ 3.357631724001295, 44.075658432982891 ], [ 3.36155296206274, 44.07298504144201 ], [ 3.365274078040705, 44.070167743879743 ], [ 3.368784872614946, 44.067214242349671 ], [ 3.372075722941568, 44.064132612449811 ], [ 3.375137609028569, 44.060931281404329 ], [ 3.377962138459014, 44.057619005176662 ], [ 3.380541569394065, 44.054204844674508 ], [ 3.382868831792822, 44.050698141109663 ], [ 3.384937546790817, 44.047108490578061 ], [ 3.386742044184035, 44.043445717927739 ], [ 3.388277377970551, 44.039719849984515 ], [ 3.389539339907174, 44.035941088206926 ], [ 3.390524471043955, 44.032119780843985 ], [ 3.391230071204924, 44.028266394670858 ], [ 3.391654206389084, 44.024391486378491 ], [ 3.391795714071378, 44.020505673695226 ] ] ] } },
{ "type": "Feature", "properties": { "name": "Nant", "feature_type": "mrr", "metric_roundness": 51.06, "metric_rectangularity": 68.71, "metric_mobile_fit": 92.93, "metric_aspect_ratio": 0.633, "metric_area_km2": 211.85 }, "geometry": { "type": "Polygon", "coordinates": [ [ [ 3.215106698757031, 43.956699346814688 ], [ 3.23720107479894, 44.094569974492174 ], [ 3.365257592089496, 44.083971646250532 ], [ 3.343163216047587, 43.946076342479664 ], [ 3.215106698757031, 43.956699346814688 ] ] ] } }
]
}
