{
"type": "FeatureCollection",
"name": "navas_de_jadraque_las",
"crs": { "type": "name", "properties": { "name": "urn:ogc:def:crs:OGC:1.3:CRS84" } },
"features": [
{ "type": "Feature", "properties": { "name": "Navas de Jadraque, Las", "metric_roundness": 49.15, "metric_rectangularity": 65.47, "metric_mobile_fit": 15.15, "metric_aspect_ratio": 1.411, "metric_area_km2": 15.63 }, "geometry": { "type": "Polygon", "coordinates": [ [ [ -3.071941, 41.092495 ], [ -3.063941, 41.094597 ], [ -3.060857, 41.095005 ], [ -3.0571065, 41.0950165 ], [ -3.0693738, 41.104993799999988 ], [ -3.0756129, 41.1143339 ], [ -3.0913723, 41.119250699999981 ], [ -3.10398, 41.11364 ], [ -3.1058245, 41.1119345 ], [ -3.1094575, 41.1123275 ], [ -3.1098012, 41.10066459999998 ], [ -3.1062215, 41.0954245 ], [ -3.1020815, 41.094383 ], [ -3.09747, 41.093143499999989 ], [ -3.089276, 41.0915565 ], [ -3.0817255, 41.09111 ], [ -3.0797985, 41.092121 ], [ -3.071941, 41.092495 ] ] ] } }
]
}
