{
"type": "FeatureCollection",
"name": "navalmorales_los",
"crs": { "type": "name", "properties": { "name": "urn:ogc:def:crs:OGC:1.3:CRS84" } },
"features": [
{ "type": "Feature", "properties": { "name": "Navalmorales, Los", "metric_roundness": 46.58, "metric_rectangularity": 62.65, "metric_mobile_fit": 55.73, "metric_aspect_ratio": 1.005, "metric_area_km2": 178.73 }, "geometry": { "type": "Polygon", "coordinates": [ [ [ -4.6350749, 39.757158199999985 ], [ -4.6794695, 39.766144499999982 ], [ -4.6840496, 39.7565783 ], [ -4.6858912, 39.7405569 ], [ -4.6965682, 39.7331256 ], [ -4.7154085, 39.7277335 ], [ -4.7077122, 39.7207126 ], [ -4.6938943, 39.718616199999985 ], [ -4.6833153, 39.704806099999985 ], [ -4.6678116, 39.69105579999998 ], [ -4.6512901, 39.6846645 ], [ -4.6405528, 39.6897903 ], [ -4.6315278, 39.688139399999976 ], [ -4.6247103, 39.679338899999983 ], [ -4.5919998, 39.653586099999984 ], [ -4.582276, 39.640827 ], [ -4.5546765, 39.647522 ], [ -4.5516682, 39.6733477 ], [ -4.5565347, 39.6770631 ], [ -4.5659502, 39.695482899999988 ], [ -4.568567, 39.7131554 ], [ -4.5675009, 39.719878499999986 ], [ -4.561322, 39.724285 ], [ -4.5609668, 39.7378161 ], [ -4.5950555, 39.763904499999988 ], [ -4.6350749, 39.757158199999985 ] ] ] } }
]
}
