{
"type": "FeatureCollection",
"name": "la_chapelle_montbrandeix",
"crs": { "type": "name", "properties": { "name": "urn:ogc:def:crs:OGC:1.3:CRS84" } },
"features": [
{ "type": "Feature", "properties": { "name": "La Chapelle-Montbrandeix", "metric_roundness": 58.89, "metric_rectangularity": 69.13, "metric_mobile_fit": 76.89, "metric_aspect_ratio": 0.794, "metric_area_km2": 40.87 }, "geometry": { "type": "Polygon", "coordinates": [ [ [ 0.862482, 45.6169115 ], [ 0.8662585, 45.619571 ], [ 0.8675355, 45.622152 ], [ 0.869358, 45.623526 ], [ 0.8822171, 45.6511379 ], [ 0.8835109, 45.6595407 ], [ 0.8797765, 45.6660425 ], [ 0.878977, 45.667157 ], [ 0.8580954, 45.667476699999987 ], [ 0.8433376, 45.6635266 ], [ 0.8316005, 45.665496 ], [ 0.8245056, 45.662558499999989 ], [ 0.8218837, 45.6551809 ], [ 0.8299467, 45.6409158 ], [ 0.8241243, 45.6317692 ], [ 0.8355114, 45.625749899999981 ], [ 0.8485437, 45.624866 ], [ 0.846603, 45.616162 ], [ 0.848779, 45.613940499999984 ], [ 0.856282, 45.616245 ], [ 0.859698, 45.613186 ], [ 0.862482, 45.6169115 ] ] ] } }
]
}
