{
"type": "FeatureCollection",
"name": "la_digne_d_aval",
"crs": { "type": "name", "properties": { "name": "urn:ogc:def:crs:OGC:1.3:CRS84" } },
"features": [
{ "type": "Feature", "properties": { "name": "La Digne-d'Aval", "feature_type": "entity", "metric_roundness": 48.51, "metric_rectangularity": 61.49, "metric_mobile_fit": 50.64, "metric_aspect_ratio": 1.056, "metric_area_km2": 5.88 }, "geometry": { "type": "Polygon", "coordinates": [ [ [ 2.1886937, 43.0428431 ], [ 2.1908079, 43.0511706 ], [ 2.1804035, 43.0558705 ], [ 2.1608895, 43.051393 ], [ 2.1688855, 43.0496561 ], [ 2.1718663, 43.039972599999984 ], [ 2.177753, 43.035167499999986 ], [ 2.1783035, 43.035573 ], [ 2.1843115, 43.037567 ], [ 2.1905695, 43.0374325 ], [ 2.1886937, 43.0428431 ] ] ] } },
{ "type": "Feature", "properties": { "name": "La Digne-d'Aval", "feature_type": "circle", "metric_roundness": 48.51, "metric_rectangularity": 61.49, "metric_mobile_fit": 50.64, "metric_aspect_ratio": 1.056, "metric_area_km2": 5.88 }, "geometry": { "type": "Polygon", "coordinates": [ [ [ 2.19340149389873, 43.044440361074464 ], [ 2.193377307890351, 43.043765348558793 ], [ 2.193304816157386, 43.043092178808784 ], [ 2.193184217394633, 43.042422697027135 ], [ 2.193015842154919, 43.041758738367768 ], [ 2.192800151943072, 43.041102122904121 ], [ 2.192537737950971, 43.040454650638203 ], [ 2.192229319437129, 43.039818096563991 ], [ 2.191875741755252, 43.039194205798793 ], [ 2.191477974037192, 43.038584688796064 ], [ 2.191037106536613, 43.037991216652543 ], [ 2.190554347640691, 43.037415416523025 ], [ 2.190031020558005, 43.036858867155033 ], [ 2.18946855969171, 43.036323094555918 ], [ 2.188868506707947, 43.035809567804201 ], [ 2.188232506310233, 43.03531969501676 ], [ 2.187562301731451, 43.03485481948298 ], [ 2.186859729955766, 43.03441621597652 ], [ 2.186126716683581, 43.034005087254855 ], [ 2.185365271053323, 43.033622560756278 ], [ 2.184577480134537, 43.033269685503555 ], [ 2.183765503207373, 43.032947429222588 ], [ 2.18293156584415, 43.032656675684343 ], [ 2.182077953809211, 43.032398222277067 ], [ 2.181207006793813, 43.032172777815774 ], [ 2.180321112003184, 43.031980960594893 ], [ 2.179422697613369, 43.031823296689574 ], [ 2.178514226115763, 43.031700218510267 ], [ 2.177598187567592, 43.03161206361461 ], [ 2.176677092766845, 43.031559073779903 ], [ 2.175753466370345, 43.031541394338781 ], [ 2.174829839973845, 43.031559073779903 ], [ 2.173908745173097, 43.03161206361461 ], [ 2.172992706624927, 43.031700218510267 ], [ 2.17208423512732, 43.031823296689574 ], [ 2.171185820737505, 43.031980960594893 ], [ 2.170299925946877, 43.032172777815774 ], [ 2.169428978931479, 43.032398222277067 ], [ 2.168575366896541, 43.032656675684343 ], [ 2.167741429533316, 43.032947429222588 ], [ 2.166929452606153, 43.033269685503555 ], [ 2.166141661687367, 43.033622560756278 ], [ 2.165380216057109, 43.034005087254855 ], [ 2.164647202784924, 43.03441621597652 ], [ 2.163944631009239, 43.03485481948298 ], [ 2.163274426430458, 43.03531969501676 ], [ 2.162638426032743, 43.035809567804201 ], [ 2.16203837304898, 43.036323094555918 ], [ 2.161475912182685, 43.036858867155033 ], [ 2.160952585099998, 43.037415416523025 ], [ 2.160469826204077, 43.037991216652543 ], [ 2.160028958703498, 43.038584688796064 ], [ 2.159631190985437, 43.039194205798793 ], [ 2.159277613303561, 43.039818096563991 ], [ 2.158969194789719, 43.040454650638203 ], [ 2.158706780797618, 43.041102122904121 ], [ 2.158491090585771, 43.041758738367768 ], [ 2.158322715346058, 43.042422697027135 ], [ 2.158202116583305, 43.043092178808784 ], [ 2.158129624850338, 43.043765348558793 ], [ 2.15810543884196, 43.044440361074464 ], [ 2.158129624850338, 43.045115366162904 ], [ 2.158202116583305, 43.045788513712559 ], [ 2.158322715346058, 43.046457958763988 ], [ 2.158491090585771, 43.047121866565696 ], [ 2.158706780797618, 43.047778417601435 ], [ 2.158969194789719, 43.04842581257509 ], [ 2.159277613303561, 43.049062277339523 ], [ 2.159631190985437, 43.049686067755893 ], [ 2.160028958703498, 43.050295474470225 ], [ 2.160469826204077, 43.0508888275941 ], [ 2.160952585099998, 43.051464501276733 ], [ 2.161475912182685, 43.052020918155975 ], [ 2.16203837304898, 43.052556553676062 ], [ 2.162638426032743, 43.053069940260329 ], [ 2.163274426430458, 43.053559671327598 ], [ 2.163944631009239, 43.054024405141206 ], [ 2.164647202784924, 43.054462868480222 ], [ 2.165380216057109, 43.054873860122861 ], [ 2.166141661687367, 43.055256254132686 ], [ 2.166929452606153, 43.055609002938532 ], [ 2.167741429533316, 43.055931140199846 ], [ 2.168575366896541, 43.056221783449693 ], [ 2.169428978931479, 43.056480136508156 ], [ 2.170299925946877, 43.056705491659663 ], [ 2.171185820737505, 43.056897231588295 ], [ 2.17208423512732, 43.057054831065699 ], [ 2.172992706624927, 43.057177858387341 ], [ 2.173908745173097, 43.057265976552792 ], [ 2.174829839973845, 43.057318944187159 ], [ 2.175753466370345, 43.057336616201042 ], [ 2.176677092766845, 43.057318944187159 ], [ 2.177598187567592, 43.057265976552792 ], [ 2.178514226115763, 43.057177858387341 ], [ 2.179422697613369, 43.057054831065699 ], [ 2.180321112003184, 43.056897231588295 ], [ 2.181207006793813, 43.056705491659663 ], [ 2.182077953809211, 43.056480136508156 ], [ 2.18293156584415, 43.056221783449693 ], [ 2.183765503207373, 43.055931140199846 ], [ 2.184577480134537, 43.055609002938532 ], [ 2.185365271053323, 43.055256254132686 ], [ 2.186126716683581, 43.054873860122861 ], [ 2.186859729955766, 43.054462868480222 ], [ 2.187562301731451, 43.054024405141206 ], [ 2.188232506310233, 43.053559671327598 ], [ 2.188868506707947, 43.053069940260329 ], [ 2.18946855969171, 43.052556553676062 ], [ 2.190031020558005, 43.052020918155975 ], [ 2.190554347640691, 43.051464501276733 ], [ 2.191037106536613, 43.0508888275941 ], [ 2.191477974037192, 43.050295474470225 ], [ 2.191875741755252, 43.049686067755893 ], [ 2.192229319437129, 43.049062277339523 ], [ 2.192537737950971, 43.04842581257509 ], [ 2.192800151943072, 43.047778417601435 ], [ 2.193015842154919, 43.047121866565696 ], [ 2.193184217394633, 43.046457958763988 ], [ 2.193304816157386, 43.045788513712559 ], [ 2.193377307890351, 43.045115366162904 ], [ 2.19340149389873, 43.044440361074464 ] ] ] } },
{ "type": "Feature", "properties": { "name": "La Digne-d'Aval", "feature_type": "mrr", "metric_roundness": 48.51, "metric_rectangularity": 61.49, "metric_mobile_fit": 50.64, "metric_aspect_ratio": 1.056, "metric_area_km2": 5.88 }, "geometry": { "type": "Polygon", "coordinates": [ [ [ 2.1608895, 43.051393 ], [ 2.188035683049376, 43.057621620096683 ], [ 2.196159464429493, 43.038715445971363 ], [ 2.169013280623611, 43.032484905360526 ], [ 2.1608895, 43.051393 ] ] ] } }
]
}
