{
"type": "FeatureCollection",
"name": "la_dornac",
"crs": { "type": "name", "properties": { "name": "urn:ogc:def:crs:OGC:1.3:CRS84" } },
"features": [
{ "type": "Feature", "properties": { "name": "La Dornac", "feature_type": "entity", "metric_roundness": 62.33, "metric_rectangularity": 76.91, "metric_mobile_fit": 37.38, "metric_aspect_ratio": 1.189, "metric_area_km2": 32.63 }, "geometry": { "type": "Polygon", "coordinates": [ [ [ 1.3723226, 45.0706537 ], [ 1.3722311, 45.077548 ], [ 1.3578265, 45.0889071 ], [ 1.3223335, 45.0919805 ], [ 1.306817, 45.078748499999989 ], [ 1.3150595, 45.066791299999977 ], [ 1.339037, 45.058559499999987 ], [ 1.3430214, 45.0544052 ], [ 1.35753, 45.049855 ], [ 1.377719, 45.065459 ], [ 1.3723226, 45.0706537 ] ] ] } },
{ "type": "Feature", "properties": { "name": "La Dornac", "feature_type": "circle", "metric_roundness": 62.33, "metric_rectangularity": 76.91, "metric_mobile_fit": 37.38, "metric_aspect_ratio": 1.189, "metric_area_km2": 32.63 }, "geometry": { "type": "Polygon", "coordinates": [ [ [ 1.378946353607843, 45.072104136276003 ], [ 1.378896087198965, 45.07074846959754 ], [ 1.37874542574906, 45.069396486682997 ], [ 1.378494782210693, 45.068051893618389 ], [ 1.378144843580378, 45.066718376493043 ], [ 1.377696569015579, 45.06539959128915 ], [ 1.377151187205718, 45.064099153851089 ], [ 1.376510193004426, 45.062820629962047 ], [ 1.375775343332255, 45.061567525555439 ], [ 1.374948652361077, 45.06034327708791 ], [ 1.374032385993381, 45.059151242100839 ], [ 1.373029055651593, 45.057994689995887 ], [ 1.371941411394439, 45.056876793050726 ], [ 1.370772434379226, 45.055800617699383 ], [ 1.369525328690699, 45.05476911610149 ], [ 1.368203512558864, 45.053785118023995 ], [ 1.366810608989861, 45.052851323057595 ], [ 1.365350435835552, 45.05197029318974 ], [ 1.363826995329059, 45.051144445754801 ], [ 1.362244463114916, 45.050376046781039 ], [ 1.360607176803922, 45.049667204752794 ], [ 1.358919624084049, 45.049019864805565 ], [ 1.357186430420001, 45.048435803369777 ], [ 1.35541234637514, 45.047916623278638 ], [ 1.353602234590517, 45.047463749353277 ], [ 1.351761056456715, 45.047078424477952 ], [ 1.349893858515018, 45.046761706175928 ], [ 1.348005758625199, 45.04651446369585 ], [ 1.346101931937816, 45.046337375616631 ], [ 1.344187596709483, 45.046230927977597 ], [ 1.342268, 45.046195412939134 ], [ 1.340348403290517, 45.046230927977597 ], [ 1.338434068062184, 45.046337375616631 ], [ 1.336530241374801, 45.04651446369585 ], [ 1.334642141484982, 45.046761706175928 ], [ 1.332774943543285, 45.047078424477952 ], [ 1.330933765409482, 45.047463749353277 ], [ 1.32912365362486, 45.047916623278638 ], [ 1.327349569579998, 45.048435803369777 ], [ 1.325616375915951, 45.049019864805565 ], [ 1.323928823196078, 45.049667204752794 ], [ 1.322291536885084, 45.050376046781039 ], [ 1.320709004670941, 45.051144445754801 ], [ 1.319185564164448, 45.05197029318974 ], [ 1.317725391010139, 45.052851323057595 ], [ 1.316332487441136, 45.053785118023995 ], [ 1.315010671309301, 45.05476911610149 ], [ 1.313763565620774, 45.055800617699383 ], [ 1.312594588605561, 45.056876793050726 ], [ 1.311506944348407, 45.057994689995887 ], [ 1.310503614006619, 45.059151242100839 ], [ 1.309587347638923, 45.06034327708791 ], [ 1.308760656667745, 45.061567525555439 ], [ 1.308025806995574, 45.062820629962047 ], [ 1.307384812794283, 45.064099153851089 ], [ 1.306839430984421, 45.06539959128915 ], [ 1.306391156419622, 45.066718376493043 ], [ 1.306041217789307, 45.068051893618389 ], [ 1.30579057425094, 45.069396486682997 ], [ 1.305639912801035, 45.07074846959754 ], [ 1.305589646392157, 45.072104136276003 ], [ 1.305639912801035, 45.073459770798181 ], [ 1.30579057425094, 45.07481165759615 ], [ 1.306041217789307, 45.076156091636982 ], [ 1.306391156419622, 45.07748938857366 ], [ 1.306839430984421, 45.078807894836395 ], [ 1.307384812794283, 45.080107997636972 ], [ 1.308025806995574, 45.081386134858548 ], [ 1.308760656667745, 45.082638804804148 ], [ 1.309587347638923, 45.083862575777118 ], [ 1.310503614006619, 45.085054095467676 ], [ 1.311506944348407, 45.086210100119807 ], [ 1.312594588605561, 45.087327423453864 ], [ 1.313763565620774, 45.088403005320444 ], [ 1.315010671309301, 45.089433900062225 ], [ 1.316332487441136, 45.090417284561106 ], [ 1.317725391010139, 45.091350465948921 ], [ 1.319185564164448, 45.092230888960678 ], [ 1.320709004670941, 45.093056142910854 ], [ 1.322291536885084, 45.093823968273554 ], [ 1.323928823196078, 45.094532262849015 ], [ 1.325616375915951, 45.095179087499766 ], [ 1.327349569579998, 45.095762671441044 ], [ 1.32912365362486, 45.096281417071204 ], [ 1.330933765409482, 45.096733904329142 ], [ 1.332774943543285, 45.097118894567032 ], [ 1.334642141484981, 45.097435333927933 ], [ 1.336530241374801, 45.097682356219366 ], [ 1.338434068062184, 45.097859285274829 ], [ 1.340348403290517, 45.097965636797305 ], [ 1.342268, 45.098001119679473 ], [ 1.344187596709483, 45.097965636797305 ], [ 1.346101931937816, 45.097859285274829 ], [ 1.348005758625199, 45.097682356219366 ], [ 1.349893858515018, 45.097435333927933 ], [ 1.351761056456714, 45.097118894567032 ], [ 1.353602234590517, 45.096733904329142 ], [ 1.35541234637514, 45.096281417071204 ], [ 1.357186430420001, 45.095762671441044 ], [ 1.358919624084049, 45.095179087499766 ], [ 1.360607176803922, 45.094532262849015 ], [ 1.362244463114916, 45.093823968273554 ], [ 1.363826995329059, 45.093056142910854 ], [ 1.365350435835552, 45.092230888960678 ], [ 1.366810608989861, 45.091350465948921 ], [ 1.368203512558864, 45.090417284561106 ], [ 1.369525328690699, 45.089433900062225 ], [ 1.370772434379226, 45.088403005320444 ], [ 1.371941411394439, 45.087327423453864 ], [ 1.373029055651593, 45.086210100119807 ], [ 1.374032385993381, 45.085054095467676 ], [ 1.374948652361077, 45.083862575777118 ], [ 1.375775343332255, 45.082638804804148 ], [ 1.376510193004426, 45.081386134858548 ], [ 1.377151187205718, 45.080107997636972 ], [ 1.377696569015579, 45.078807894836395 ], [ 1.378144843580378, 45.07748938857366 ], [ 1.378494782210693, 45.076156091636982 ], [ 1.37874542574906, 45.07481165759615 ], [ 1.378896087198965, 45.073459770798181 ], [ 1.378946353607843, 45.072104136276003 ] ] ] } },
{ "type": "Feature", "properties": { "name": "La Dornac", "feature_type": "mrr", "metric_roundness": 62.33, "metric_rectangularity": 76.91, "metric_mobile_fit": 37.38, "metric_aspect_ratio": 1.189, "metric_area_km2": 32.63 }, "geometry": { "type": "Polygon", "coordinates": [ [ [ 1.301852163011243, 45.074514002991826 ], [ 1.334630270767857, 45.102464648193241 ], [ 1.385939712360496, 45.072471398563728 ], [ 1.353161604603882, 45.044506076707755 ], [ 1.301852163011243, 45.074514002991826 ] ] ] } }
]
}
