{
"type": "FeatureCollection",
"name": "la_ferte_saint_aubin",
"crs": { "type": "name", "properties": { "name": "urn:ogc:def:crs:OGC:1.3:CRS84" } },
"features": [
{ "type": "Feature", "properties": { "name": "La Ferté-Saint-Aubin", "metric_roundness": 62.14, "metric_rectangularity": 64.35, "metric_mobile_fit": 59.98, "metric_aspect_ratio": 0.963, "metric_area_km2": 191.12 }, "geometry": { "type": "Polygon", "coordinates": [ [ [ 1.9865941, 47.6701846 ], [ 1.9845389, 47.6855671 ], [ 1.988303, 47.6890252 ], [ 1.9864896, 47.695579899999977 ], [ 1.9902918, 47.700711299999988 ], [ 1.9854284, 47.70868789999998 ], [ 1.9863965, 47.713537 ], [ 1.9798484, 47.7328178 ], [ 1.9856815, 47.7371865 ], [ 1.9834724, 47.743624699999977 ], [ 1.9875974, 47.751562199999988 ], [ 1.9593775, 47.761343 ], [ 1.9499769, 47.760728499999985 ], [ 1.939094, 47.7660221 ], [ 1.9256055, 47.7646015 ], [ 1.923578, 47.760451499999988 ], [ 1.902186, 47.753496 ], [ 1.9063761, 47.735989899999979 ], [ 1.900886, 47.7292282 ], [ 1.8901719, 47.729860699999989 ], [ 1.8832743, 47.7393071 ], [ 1.8886105, 47.7519979 ], [ 1.869594, 47.747797 ], [ 1.8664343, 47.735455899999984 ], [ 1.8585342, 47.733961 ], [ 1.859504, 47.720620499999981 ], [ 1.8678952, 47.7141983 ], [ 1.8556054, 47.709159799999981 ], [ 1.8450408, 47.7101674 ], [ 1.834737, 47.703896 ], [ 1.8520299, 47.7002732 ], [ 1.8544555, 47.689408 ], [ 1.859001, 47.691348399999988 ], [ 1.8631114, 47.688774599999988 ], [ 1.8615195, 47.678857599999986 ], [ 1.8671217, 47.674655099999974 ], [ 1.8893001, 47.6788166 ], [ 1.9015368, 47.672813 ], [ 1.9139855, 47.674484499999977 ], [ 1.9363804, 47.6789791 ], [ 1.9412908, 47.673964299999987 ], [ 1.9396326, 47.670469299999986 ], [ 1.9431004, 47.666843699999987 ], [ 1.9427685, 47.660600699999989 ], [ 1.956355, 47.6619935 ], [ 1.964111, 47.657296 ], [ 1.966895, 47.658969 ], [ 1.9676075, 47.6616705 ], [ 1.969859, 47.663476 ], [ 1.9749175, 47.663672 ], [ 1.981895, 47.665536499999988 ], [ 1.9865941, 47.6701846 ] ] ] } }
]
}
