{
"type": "FeatureCollection",
"name": "la_roche_posay",
"crs": { "type": "name", "properties": { "name": "urn:ogc:def:crs:OGC:1.3:CRS84" } },
"features": [
{ "type": "Feature", "properties": { "name": "La Roche-Posay", "feature_type": "entity", "metric_roundness": 53.03, "metric_rectangularity": 66.82, "metric_mobile_fit": 61.19, "metric_aspect_ratio": 0.951, "metric_area_km2": 75.5 }, "geometry": { "type": "Polygon", "coordinates": [ [ [ 0.8580602, 46.7598247 ], [ 0.8457688, 46.7621885 ], [ 0.8291981, 46.7766143 ], [ 0.8276612, 46.786398299999988 ], [ 0.8152802, 46.7895079 ], [ 0.8122536, 46.7962054 ], [ 0.8160257, 46.804110199999982 ], [ 0.8108275, 46.808751499999985 ], [ 0.810165, 46.814187499999989 ], [ 0.8014182, 46.8132517 ], [ 0.7900545, 46.8162125 ], [ 0.7857715, 46.808346299999982 ], [ 0.7602193, 46.7951237 ], [ 0.7579433, 46.788111 ], [ 0.7523071, 46.785042599999983 ], [ 0.7540555, 46.777705499999982 ], [ 0.753721, 46.776887499999987 ], [ 0.7611709, 46.773600399999985 ], [ 0.7766268, 46.753728399999986 ], [ 0.8047854, 46.753191799999989 ], [ 0.8191052, 46.746834 ], [ 0.815136, 46.741823499999981 ], [ 0.8286528, 46.7388145 ], [ 0.8510978, 46.7460722 ], [ 0.8597365, 46.755720499999988 ], [ 0.8580602, 46.7598247 ] ] ] } },
{ "type": "Feature", "properties": { "name": "La Roche-Posay", "feature_type": "circle", "metric_roundness": 53.03, "metric_rectangularity": 66.82, "metric_mobile_fit": 61.19, "metric_aspect_ratio": 0.951, "metric_area_km2": 75.5 }, "geometry": { "type": "Polygon", "coordinates": [ [ [ 0.872289550174902, 46.777573001212041 ], [ 0.872206654759197, 46.775405019141232 ], [ 0.871958195722653, 46.773242892432414 ], [ 0.871544854074219, 46.771092548395885 ], [ 0.870967762754624, 46.768959882747858 ], [ 0.87022850353106, 46.766850743431334 ], [ 0.869329102661674, 46.764770914560359 ], [ 0.868272025341733, 46.762726100532134 ], [ 0.867060168946694, 46.760721910350796 ], [ 0.865696855090701, 46.758763842206264 ], [ 0.86418582052227, 46.756857268351034 ], [ 0.862531206882122, 46.755007420316893 ], [ 0.860737549351235, 46.753219374512661 ], [ 0.858809764220225, 46.751498038243284 ], [ 0.856753135414138, 46.749848136189158 ], [ 0.854573300009575, 46.748274197383587 ], [ 0.852276232783864, 46.746780542724913 ], [ 0.849868229838602, 46.745371273058247 ], [ 0.847355891342483, 46.744050257860387 ], [ 0.844746103440696, 46.742821124559711 ], [ 0.842046019380475, 46.741687248521124 ], [ 0.839263039904549, 46.740651743724371 ], [ 0.836404792966218, 46.739717454161926 ], [ 0.833479112821666, 46.738886945980838 ], [ 0.830494018556808, 46.738162500390771 ], [ 0.827457692107533, 46.737546107358312 ], [ 0.824378455833585, 46.737039460105322 ], [ 0.821264749707556, 46.736643950427066 ], [ 0.818125108181507, 46.736360664843346 ], [ 0.814968136794627, 46.736190381593438 ], [ 0.811802488586048, 46.736133568483687 ], [ 0.80863684037747, 46.736190381593438 ], [ 0.805479868990589, 46.736360664843346 ], [ 0.80234022746454, 46.736643950427066 ], [ 0.799226521338512, 46.737039460105322 ], [ 0.796147285064564, 46.737546107358312 ], [ 0.793110958615288, 46.738162500390771 ], [ 0.79012586435043, 46.738886945980838 ], [ 0.787200184205879, 46.739717454161926 ], [ 0.784341937267548, 46.740651743724371 ], [ 0.781558957791621, 46.741687248521124 ], [ 0.7788588737314, 46.742821124559711 ], [ 0.776249085829613, 46.744050257860387 ], [ 0.773736747333495, 46.745371273058247 ], [ 0.771328744388233, 46.746780542724913 ], [ 0.769031677162521, 46.748274197383587 ], [ 0.766851841757959, 46.749848136189158 ], [ 0.764795212951871, 46.751498038243284 ], [ 0.762867427820861, 46.753219374512661 ], [ 0.761073770289974, 46.755007420316893 ], [ 0.759419156649827, 46.756857268351034 ], [ 0.757908122081396, 46.758763842206264 ], [ 0.756544808225402, 46.760721910350796 ], [ 0.755332951830363, 46.762726100532134 ], [ 0.754275874510422, 46.764770914560359 ], [ 0.753376473641037, 46.766850743431334 ], [ 0.752637214417473, 46.768959882747858 ], [ 0.752060123097877, 46.771092548395885 ], [ 0.751646781449444, 46.773242892432414 ], [ 0.7513983224129, 46.775405019141232 ], [ 0.751315426997194, 46.777573001212041 ], [ 0.7513983224129, 46.77974089599855 ], [ 0.751646781449444, 46.781902761810791 ], [ 0.752060123097877, 46.7840526741969 ], [ 0.752637214417473, 46.786184742169922 ], [ 0.753376473641037, 46.788293124335105 ], [ 0.754275874510422, 46.790372044873919 ], [ 0.755332951830363, 46.792415809341037 ], [ 0.756544808225402, 46.794418820231549 ], [ 0.757908122081396, 46.796375592276092 ], [ 0.759419156649827, 46.798280767422519 ], [ 0.761073770289974, 46.800129129463599 ], [ 0.762867427820861, 46.801915618271352 ], [ 0.764795212951871, 46.803635343599623 ], [ 0.766851841757959, 46.80528359841783 ], [ 0.769031677162521, 46.806855871740119 ], [ 0.771328744388233, 46.808347860915539 ], [ 0.773736747333495, 46.809755483346379 ], [ 0.776249085829613, 46.811074887603269 ], [ 0.7788588737314, 46.812302463907663 ], [ 0.781558957791621, 46.813434853953403 ], [ 0.784341937267548, 46.814468960041609 ], [ 0.787200184205879, 46.815401953504342 ], [ 0.79012586435043, 46.816231282394881 ], [ 0.793110958615288, 46.816954678424125 ], [ 0.796147285064564, 46.817570163124678 ], [ 0.799226521338512, 46.818076053226555 ], [ 0.80234022746454, 46.818470965229984 ], [ 0.805479868990589, 46.818753819163433 ], [ 0.80863684037747, 46.818923841516842 ], [ 0.811802488586048, 46.818980567342329 ], [ 0.814968136794627, 46.818923841516842 ], [ 0.818125108181507, 46.818753819163433 ], [ 0.821264749707556, 46.818470965229984 ], [ 0.824378455833585, 46.818076053226555 ], [ 0.827457692107533, 46.817570163124678 ], [ 0.830494018556808, 46.816954678424125 ], [ 0.833479112821666, 46.816231282394881 ], [ 0.836404792966218, 46.815401953504342 ], [ 0.839263039904549, 46.814468960041609 ], [ 0.842046019380475, 46.813434853953403 ], [ 0.844746103440696, 46.812302463907663 ], [ 0.847355891342483, 46.811074887603269 ], [ 0.849868229838602, 46.809755483346379 ], [ 0.852276232783864, 46.808347860915539 ], [ 0.854573300009575, 46.806855871740119 ], [ 0.856753135414138, 46.80528359841783 ], [ 0.858809764220225, 46.803635343599623 ], [ 0.860737549351235, 46.801915618271352 ], [ 0.862531206882122, 46.800129129463599 ], [ 0.86418582052227, 46.798280767422519 ], [ 0.865696855090701, 46.796375592276092 ], [ 0.867060168946694, 46.794418820231549 ], [ 0.868272025341733, 46.792415809341037 ], [ 0.869329102661674, 46.790372044873919 ], [ 0.87022850353106, 46.788293124335105 ], [ 0.870967762754624, 46.786184742169922 ], [ 0.871544854074219, 46.7840526741969 ], [ 0.871958195722653, 46.781902761810791 ], [ 0.872206654759197, 46.77974089599855 ], [ 0.872289550174902, 46.777573001212041 ] ] ] } },
{ "type": "Feature", "properties": { "name": "La Roche-Posay", "feature_type": "mrr", "metric_roundness": 53.03, "metric_rectangularity": 66.82, "metric_mobile_fit": 61.19, "metric_aspect_ratio": 0.951, "metric_area_km2": 75.5 }, "geometry": { "type": "Polygon", "coordinates": [ [ [ 0.803490462308169, 46.821758975792378 ], [ 0.865080431352367, 46.751851858109589 ], [ 0.799598514213631, 46.724779854962712 ], [ 0.738008545169432, 46.794722100051501 ], [ 0.803490462308169, 46.821758975792378 ] ] ] } }
]
}
