{
"type": "FeatureCollection",
"name": "la_tour_du_crieu",
"crs": { "type": "name", "properties": { "name": "urn:ogc:def:crs:OGC:1.3:CRS84" } },
"features": [
{ "type": "Feature", "properties": { "name": "La Tour-du-Crieu", "metric_roundness": 56.12, "metric_rectangularity": 63.32, "metric_mobile_fit": 29.9, "metric_aspect_ratio": 1.264, "metric_area_km2": 19.61 }, "geometry": { "type": "Polygon", "coordinates": [ [ [ 1.6833258, 43.108921 ], [ 1.6851088, 43.1197003 ], [ 1.6694836, 43.118656199999982 ], [ 1.671607, 43.1234975 ], [ 1.6682546, 43.1235602 ], [ 1.6673192, 43.1182848 ], [ 1.66196, 43.1150125 ], [ 1.6430007, 43.1135751 ], [ 1.6419477, 43.1080945 ], [ 1.6368489, 43.1064059 ], [ 1.6373815, 43.1017471 ], [ 1.646817, 43.0939615 ], [ 1.6804854, 43.0906177 ], [ 1.6933145, 43.09306549999998 ], [ 1.6938625, 43.0989175 ], [ 1.6889335, 43.1010985 ], [ 1.6862605, 43.103283499999989 ], [ 1.6884455, 43.106315499999987 ], [ 1.6833258, 43.108921 ] ] ] } }
]
}
