{
"type": "FeatureCollection",
"name": "la_ville_es_nonais",
"crs": { "type": "name", "properties": { "name": "urn:ogc:def:crs:OGC:1.3:CRS84" } },
"features": [
{ "type": "Feature", "properties": { "name": "La Ville-ès-Nonais", "metric_roundness": 46.31, "metric_rectangularity": 57.65, "metric_mobile_fit": 67.63, "metric_aspect_ratio": 0.886, "metric_area_km2": 9.84 }, "geometry": { "type": "Polygon", "coordinates": [ [ [ -1.9614106, 48.5492931 ], [ -1.9684921, 48.5370284 ], [ -1.948051, 48.5389195 ], [ -1.931861, 48.550784 ], [ -1.9417105, 48.5537655 ], [ -1.947019, 48.564241499999987 ], [ -1.9500825, 48.564391099999987 ], [ -1.9529161, 48.5602712 ], [ -1.9590045, 48.5612 ], [ -1.9631315, 48.55586 ], [ -1.9614106, 48.5492931 ] ] ] } }
]
}
