{
"type": "FeatureCollection",
"name": "labska_stran",
"crs": { "type": "name", "properties": { "name": "urn:ogc:def:crs:OGC:1.3:CRS84" } },
"features": [
{ "type": "Feature", "properties": { "name": "Labská Stráň", "metric_roundness": 39.26, "metric_rectangularity": 65.1, "metric_mobile_fit": 98.75, "metric_aspect_ratio": 0.55, "metric_area_km2": 7.38 }, "geometry": { "type": "Polygon", "coordinates": [ [ [ 14.2411457, 50.840025699999984 ], [ 14.2382547, 50.848794699999985 ], [ 14.245558, 50.854243499999974 ], [ 14.2418685, 50.8565975 ], [ 14.2377575, 50.859827 ], [ 14.2294768, 50.861295399999989 ], [ 14.2215031, 50.8481996 ], [ 14.2227573, 50.8439934 ], [ 14.2339825, 50.833683 ], [ 14.2411457, 50.840025699999984 ] ] ] } }
]
}
