{
"type": "FeatureCollection",
"name": "ladeveze_ville",
"crs": { "type": "name", "properties": { "name": "urn:ogc:def:crs:OGC:1.3:CRS84" } },
"features": [
{ "type": "Feature", "properties": { "name": "Ladevèze-Ville", "metric_roundness": 42.73, "metric_rectangularity": 59.94, "metric_mobile_fit": 79.57, "metric_aspect_ratio": 0.767, "metric_area_km2": 17.16 }, "geometry": { "type": "Polygon", "coordinates": [ [ [ 0.088597, 43.5310415 ], [ 0.0808401, 43.5344844 ], [ 0.0718842, 43.5331761 ], [ 0.0588521, 43.5560829 ], [ 0.057565, 43.564235 ], [ 0.052945, 43.5614175 ], [ 0.0448094, 43.5540051 ], [ 0.048797, 43.5425952 ], [ 0.039857, 43.536904 ], [ 0.0532684, 43.5181567 ], [ 0.0703346, 43.519582 ], [ 0.0805725, 43.523952 ], [ 0.088597, 43.5310415 ] ] ] } }
]
}
