{
"type": "FeatureCollection",
"name": "landeda",
"crs": { "type": "name", "properties": { "name": "urn:ogc:def:crs:OGC:1.3:CRS84" } },
"features": [
{ "type": "Feature", "properties": { "name": "Landéda", "feature_type": "entity", "metric_roundness": 35.66, "metric_rectangularity": 55.83, "metric_mobile_fit": -13.21, "metric_aspect_ratio": 1.695, "metric_area_km2": 24.28 }, "geometry": { "type": "Polygon", "coordinates": [ [ [ -4.5936951, 48.5784073 ], [ -4.5870423, 48.580176299999984 ], [ -4.5666247, 48.576631 ], [ -4.557539, 48.580283699999988 ], [ -4.5505901, 48.578777 ], [ -4.543361, 48.588385699999982 ], [ -4.529102, 48.592001 ], [ -4.5439505, 48.597630199999983 ], [ -4.5907093, 48.5947386 ], [ -4.589166, 48.6022004 ], [ -4.5993486, 48.6061713 ], [ -4.6051031, 48.6020362 ], [ -4.6069882, 48.5903577 ], [ -4.6048983, 48.5839256 ], [ -4.6098963, 48.578099699999981 ], [ -4.594381, 48.5746355 ], [ -4.5936951, 48.5784073 ] ] ] } },
{ "type": "Feature", "properties": { "name": "Landéda", "feature_type": "circle", "metric_roundness": 35.66, "metric_rectangularity": 55.83, "metric_mobile_fit": -13.21, "metric_aspect_ratio": 1.695, "metric_area_km2": 24.28 }, "geometry": { "type": "Polygon", "coordinates": [ [ [ -4.528356435682, 48.58680034175736 ], [ -4.528413763095222, 48.585352168643801 ], [ -4.528585588204432, 48.583907923544629 ], [ -4.528871440048951, 48.582471565544537 ], [ -4.529270535128741, 48.581047032443664 ], [ -4.529781779551929, 48.579638229955222 ], [ -4.530403772033086, 48.578249020987336 ], [ -4.531134807734059, 48.576883215038933 ], [ -4.531972882936802, 48.575544557738723 ], [ -4.532915700535439, 48.574236720556264 ], [ -4.533960676332468, 48.57296329071346 ], [ -4.535104946121864, 48.571727761324496 ], [ -4.536345373539669, 48.570533521791567 ], [ -4.537678558660556, 48.56938384848295 ], [ -4.539100847316774, 48.568281895719373 ], [ -4.54060834111398, 48.567230687093776 ], [ -4.54219690811646, 48.566233107148634 ], [ -4.54386219417248, 48.565291893433958 ], [ -4.545599634848713, 48.564409628968221 ], [ -4.547404467941034, 48.563588735123247 ], [ -4.549271746527389, 48.562831464952922 ], [ -4.551196352526966, 48.562139896984384 ], [ -4.553173010728497, 48.561515929489197 ], [ -4.555196303249248, 48.560961275250271 ], [ -4.557260684385058, 48.560477456839607 ], [ -4.559360495810726, 48.56006580241975 ], [ -4.56148998208909, 48.559727442080941 ], [ -4.563643306446281, 48.55946330472414 ], [ -4.56581456676991, 48.559274115498837 ], [ -4.567997811786354, 48.559160393802614 ], [ -4.570187057372777, 48.559122451848289 ], [ -4.572376302959201, 48.559160393802614 ], [ -4.574559547975645, 48.559274115498837 ], [ -4.576730808299274, 48.55946330472414 ], [ -4.578884132656465, 48.559727442080941 ], [ -4.581013618934828, 48.56006580241975 ], [ -4.583113430360497, 48.560477456839607 ], [ -4.585177811496306, 48.560961275250271 ], [ -4.587201104017057, 48.561515929489197 ], [ -4.589177762218589, 48.562139896984384 ], [ -4.591102368218166, 48.562831464952922 ], [ -4.592969646804521, 48.563588735123247 ], [ -4.594774479896842, 48.564409628968221 ], [ -4.596511920573074, 48.565291893433958 ], [ -4.598177206629095, 48.566233107148634 ], [ -4.599765773631574, 48.567230687093776 ], [ -4.601273267428781, 48.568281895719373 ], [ -4.602695556084999, 48.56938384848295 ], [ -4.604028741205885, 48.570533521791567 ], [ -4.605269168623692, 48.571727761324496 ], [ -4.606413438413087, 48.57296329071346 ], [ -4.607458414210115, 48.574236720556264 ], [ -4.608401231808752, 48.575544557738723 ], [ -4.609239307011496, 48.576883215038933 ], [ -4.609970342712468, 48.578249020987336 ], [ -4.610592335193626, 48.579638229955222 ], [ -4.611103579616814, 48.581047032443664 ], [ -4.611502674696604, 48.582471565544537 ], [ -4.611788526541122, 48.583907923544629 ], [ -4.611960351650333, 48.585352168643801 ], [ -4.612017679063554, 48.58680034175736 ], [ -4.611960351650333, 48.58824847337327 ], [ -4.611788526541122, 48.589692594434162 ], [ -4.611502674696604, 48.591128747214341 ], [ -4.611103579616814, 48.59255299616207 ], [ -4.610592335193626, 48.593961438677404 ], [ -4.609970342712468, 48.595350215796167 ], [ -4.609239307011496, 48.596715522750848 ], [ -4.608401231808752, 48.598053619379797 ], [ -4.607458414210115, 48.599360840356333 ], [ -4.606413438413087, 48.600633605209801 ], [ -4.605269168623692, 48.601868428111793 ], [ -4.604028741205885, 48.603061927400525 ], [ -4.602695556084999, 48.604210834817998 ], [ -4.601273267428781, 48.605312004434758 ], [ -4.599765773631574, 48.606362421238167 ], [ -4.598177206629095, 48.607359209361121 ], [ -4.596511920573074, 48.608299639928994 ], [ -4.594774479896842, 48.609181138503615 ], [ -4.592969646804521, 48.610001292104435 ], [ -4.591102368218166, 48.610757855787838 ], [ -4.589177762218589, 48.611448758767082 ], [ -4.587201104017057, 48.61207211005641 ], [ -4.585177811496306, 48.612626203624146 ], [ -4.583113430360497, 48.613109523041132 ], [ -4.581013618934828, 48.613520745611901 ], [ -4.578884132656465, 48.613858745977666 ], [ -4.576730808299274, 48.614122599181364 ], [ -4.574559547975645, 48.614311583186776 ], [ -4.572376302959201, 48.614425180844741 ], [ -4.570187057372777, 48.614463081301423 ], [ -4.567997811786354, 48.614425180844741 ], [ -4.56581456676991, 48.614311583186776 ], [ -4.563643306446281, 48.614122599181364 ], [ -4.56148998208909, 48.613858745977666 ], [ -4.559360495810726, 48.613520745611901 ], [ -4.557260684385058, 48.613109523041132 ], [ -4.555196303249248, 48.612626203624146 ], [ -4.553173010728497, 48.61207211005641 ], [ -4.551196352526966, 48.611448758767082 ], [ -4.549271746527389, 48.610757855787838 ], [ -4.547404467941034, 48.610001292104435 ], [ -4.545599634848713, 48.609181138503615 ], [ -4.54386219417248, 48.608299639928994 ], [ -4.54219690811646, 48.607359209361121 ], [ -4.54060834111398, 48.606362421238167 ], [ -4.539100847316774, 48.605312004434758 ], [ -4.537678558660556, 48.604210834817998 ], [ -4.536345373539669, 48.603061927400525 ], [ -4.535104946121864, 48.601868428111793 ], [ -4.533960676332468, 48.600633605209801 ], [ -4.532915700535439, 48.599360840356333 ], [ -4.531972882936802, 48.598053619379797 ], [ -4.531134807734059, 48.596715522750848 ], [ -4.530403772033086, 48.595350215796167 ], [ -4.529781779551929, 48.593961438677404 ], [ -4.529270535128741, 48.59255299616207 ], [ -4.528871440048951, 48.591128747214341 ], [ -4.528585588204432, 48.589692594434162 ], [ -4.528413763095222, 48.58824847337327 ], [ -4.528356435682, 48.58680034175736 ] ] ] } },
{ "type": "Feature", "properties": { "name": "Landéda", "feature_type": "mrr", "metric_roundness": 35.66, "metric_rectangularity": 55.83, "metric_mobile_fit": -13.21, "metric_aspect_ratio": 1.695, "metric_area_km2": 24.28 }, "geometry": { "type": "Polygon", "coordinates": [ [ [ -4.603423637822407, 48.606799519114304 ], [ -4.527985438461979, 48.595168490305021 ], [ -4.538272140274977, 48.56597940774234 ], [ -4.613710339635406, 48.577617155521729 ], [ -4.603423637822407, 48.606799519114304 ] ] ] } }
]
}
