{
"type": "FeatureCollection",
"name": "landsberg_stadt",
"crs": { "type": "name", "properties": { "name": "urn:ogc:def:crs:OGC:1.3:CRS84" } },
"features": [
{ "type": "Feature", "properties": { "name": "Landsberg, Stadt", "feature_type": "entity", "metric_roundness": 57.05, "metric_rectangularity": 62.92, "metric_mobile_fit": 46.39, "metric_aspect_ratio": 1.099, "metric_area_km2": 325.83 }, "geometry": { "type": "Polygon", "coordinates": [ [ [ 12.0820172, 51.57736869999998 ], [ 12.0869062, 51.5699256 ], [ 12.0787242, 51.567893399999988 ], [ 12.0780292, 51.555614499999983 ], [ 12.0668151, 51.552388699999987 ], [ 12.0611637, 51.5558346 ], [ 12.0189672, 51.5634138 ], [ 12.0137361, 51.5746473 ], [ 12.00685, 51.574979799999987 ], [ 12.0025665, 51.566733 ], [ 11.9979364, 51.5642911 ], [ 11.997638, 51.5583245 ], [ 11.9921252, 51.557225699999982 ], [ 11.9904815, 51.5403755 ], [ 11.9998733, 51.543008 ], [ 12.0059066, 51.538944 ], [ 12.0161553, 51.5399387 ], [ 12.0110052, 51.5277871 ], [ 12.0241094, 51.5255333 ], [ 12.0232878, 51.5168981 ], [ 12.0285821, 51.510641199999988 ], [ 12.0289491, 51.5043023 ], [ 12.035386, 51.4976671 ], [ 12.0662724, 51.492755699999989 ], [ 12.0699708, 51.4966803 ], [ 12.0804717, 51.4972141 ], [ 12.0823917, 51.4923927 ], [ 12.0877259, 51.490371799999984 ], [ 12.087035, 51.4849715 ], [ 12.0851498, 51.4808228 ], [ 12.0906155, 51.478018 ], [ 12.0887739, 51.472342299999987 ], [ 12.1059698, 51.459851599999986 ], [ 12.1486725, 51.459495 ], [ 12.1503323, 51.462809899999989 ], [ 12.1743731, 51.4692995 ], [ 12.1771853, 51.4821381 ], [ 12.2021091, 51.485754199999981 ], [ 12.207803, 51.500986399999981 ], [ 12.1936339, 51.5071948 ], [ 12.1913077, 51.522031199999979 ], [ 12.1936204, 51.530662699999979 ], [ 12.198939, 51.531320499999985 ], [ 12.196901, 51.5346054 ], [ 12.1867824, 51.5358233 ], [ 12.1703147, 51.5493506 ], [ 12.1648455, 51.57541449999998 ], [ 12.1621514, 51.580963899999986 ], [ 12.0824295, 51.582578 ], [ 12.0820172, 51.57736869999998 ] ] ] } },
{ "type": "Feature", "properties": { "name": "Landsberg, Stadt", "feature_type": "circle", "metric_roundness": 57.05, "metric_rectangularity": 62.92, "metric_mobile_fit": 46.39, "metric_aspect_ratio": 1.099, "metric_area_km2": 325.83 }, "geometry": { "type": "Polygon", "coordinates": [ [ [ 12.224525518610957, 51.529452102721969 ], [ 12.224359483959164, 51.525507362114176 ], [ 12.223861835093226, 51.521573093392497 ], [ 12.22303393603409, 51.517660084299642 ], [ 12.221878055995534, 51.51377906705401 ], [ 12.220397363164398, 51.509940688857682 ], [ 12.21859591601681, 51.506155482607994 ], [ 12.216478652194185, 51.502433837894479 ], [ 12.214051374969493, 51.498785972361766 ], [ 12.211320737340886, 51.495221903518924 ], [ 12.208294223796303, 51.491751421074483 ], [ 12.204980129798995, 51.488384059875173 ], [ 12.201387539050257, 51.485129073525101 ], [ 12.197526298591601, 51.481995408760454 ], [ 12.193406991814744, 51.478991680652562 ], [ 12.189040909453226, 51.476126148710748 ], [ 12.184440018635318, 51.473406693953073 ], [ 12.17961693008295, 51.470840797011405 ], [ 12.174584863546592, 51.46843551733383 ], [ 12.169357611570849, 51.466197473544668 ], [ 12.163949501690039, 51.464132825019234 ], [ 12.158375357157439, 51.462247254726698 ], [ 12.152650456315756, 51.460545953391389 ], [ 12.146790490720264, 51.459033605018661 ], [ 12.140811522129338, 51.457714373827656 ], [ 12.134729938480294, 51.456591892629454 ], [ 12.128562408971188, 51.455669252684565 ], [ 12.122325838371706, 51.454948995069799 ], [ 12.11603732068836, 51.454433103579696 ], [ 12.109714092311012, 51.454122999183667 ], [ 12.103373484769122, 51.454019536055007 ], [ 12.097032877227234, 51.454122999183667 ], [ 12.090709648849886, 51.454433103579696 ], [ 12.08442113116654, 51.454948995069799 ], [ 12.078184560567058, 51.455669252684565 ], [ 12.072017031057952, 51.456591892629454 ], [ 12.065935447408906, 51.457714373827656 ], [ 12.059956478817982, 51.459033605018661 ], [ 12.054096513222488, 51.460545953391389 ], [ 12.048371612380803, 51.462247254726698 ], [ 12.042797467848207, 51.464132825019234 ], [ 12.037389357967397, 51.466197473544668 ], [ 12.032162105991654, 51.46843551733383 ], [ 12.027130039455296, 51.470840797011405 ], [ 12.022306950902927, 51.473406693953073 ], [ 12.01770606008502, 51.476126148710748 ], [ 12.013339977723501, 51.478991680652562 ], [ 12.009220670946641, 51.481995408760454 ], [ 12.005359430487989, 51.485129073525101 ], [ 12.001766839739249, 51.488384059875173 ], [ 11.998452745741941, 51.491751421074483 ], [ 11.99542623219736, 51.495221903518924 ], [ 11.992695594568753, 51.498785972361766 ], [ 11.990268317344059, 51.502433837894479 ], [ 11.988151053521436, 51.506155482607994 ], [ 11.986349606373848, 51.509940688857682 ], [ 11.98486891354271, 51.51377906705401 ], [ 11.983713033504154, 51.517660084299642 ], [ 11.98288513444502, 51.521573093392497 ], [ 11.982387485579082, 51.525507362114176 ], [ 11.982221450927288, 51.529452102721969 ], [ 11.982387485579082, 51.533396501563082 ], [ 11.98288513444502, 51.537329748729164 ], [ 11.983713033504154, 51.54124106766993 ], [ 11.98486891354271, 51.545119744684634 ], [ 11.986349606373848, 51.548955158211328 ], [ 11.988151053521436, 51.552736807834215 ], [ 11.990268317344059, 51.556454342930998 ], [ 11.992695594568753, 51.560097590882897 ], [ 11.99542623219736, 51.563656584772069 ], [ 11.998452745741941, 51.567121590492327 ], [ 12.001766839739249, 51.570483133201087 ], [ 12.005359430487989, 51.573732023042908 ], [ 12.009220670946641, 51.57685938007625 ], [ 12.013339977723501, 51.579856658338628 ], [ 12.01770606008502, 51.582715668986609 ], [ 12.022306950902927, 51.585428602450783 ], [ 12.027130039455296, 51.587988049547924 ], [ 12.032162105991654, 51.590387021495808 ], [ 12.037389357967397, 51.592618968778858 ], [ 12.042797467848207, 51.594677798816349 ], [ 12.048371612380803, 51.596557892387629 ], [ 12.054096513222488, 51.598254118772431 ], [ 12.059956478817982, 51.59976184956755 ], [ 12.065935447408906, 51.601076971144956 ], [ 12.072017031057952, 51.602195895719312 ], [ 12.078184560567058, 51.603115570997147 ], [ 12.08442113116654, 51.603833488383145 ], [ 12.090709648849886, 51.604347689722758 ], [ 12.097032877227234, 51.604656772564191 ], [ 12.103373484769122, 51.604759893926499 ], [ 12.109714092311012, 51.604656772564191 ], [ 12.11603732068836, 51.604347689722758 ], [ 12.122325838371706, 51.603833488383145 ], [ 12.128562408971188, 51.603115570997147 ], [ 12.134729938480294, 51.602195895719312 ], [ 12.140811522129338, 51.601076971144956 ], [ 12.146790490720264, 51.59976184956755 ], [ 12.152650456315756, 51.598254118772431 ], [ 12.158375357157439, 51.596557892387629 ], [ 12.163949501690039, 51.594677798816349 ], [ 12.169357611570849, 51.592618968778858 ], [ 12.174584863546592, 51.590387021495808 ], [ 12.17961693008295, 51.587988049547924 ], [ 12.184440018635318, 51.585428602450783 ], [ 12.189040909453226, 51.582715668986609 ], [ 12.193406991814744, 51.579856658338628 ], [ 12.197526298591601, 51.57685938007625 ], [ 12.201387539050257, 51.573732023042908 ], [ 12.204980129798995, 51.570483133201087 ], [ 12.208294223796303, 51.567121590492327 ], [ 12.211320737340886, 51.563656584772069 ], [ 12.214051374969493, 51.560097590882897 ], [ 12.216478652194185, 51.556454342930998 ], [ 12.21859591601681, 51.552736807834215 ], [ 12.220397363164398, 51.548955158211328 ], [ 12.221878055995534, 51.545119744684634 ], [ 12.22303393603409, 51.54124106766993 ], [ 12.223861835093226, 51.537329748729164 ], [ 12.224359483959164, 51.533396501563082 ], [ 12.224525518610957, 51.529452102721969 ] ] ] } },
{ "type": "Feature", "properties": { "name": "Landsberg, Stadt", "feature_type": "mrr", "metric_roundness": 57.05, "metric_rectangularity": 62.92, "metric_mobile_fit": 46.39, "metric_aspect_ratio": 1.099, "metric_area_km2": 325.83 }, "geometry": { "type": "Polygon", "coordinates": [ [ [ 12.138127086080456, 51.612986492491991 ], [ 12.234489137392734, 51.484406902135689 ], [ 12.068453885569394, 51.436195852572858 ], [ 11.972091834257117, 51.564911459165792 ], [ 12.138127086080456, 51.612986492491991 ] ] ] } }
]
}
