{
"type": "FeatureCollection",
"name": "lanrodec",
"crs": { "type": "name", "properties": { "name": "urn:ogc:def:crs:OGC:1.3:CRS84" } },
"features": [
{ "type": "Feature", "properties": { "name": "Lanrodec", "metric_roundness": 47.85, "metric_rectangularity": 59.47, "metric_mobile_fit": 82.38, "metric_aspect_ratio": 0.739, "metric_area_km2": 73.9 }, "geometry": { "type": "Polygon", "coordinates": [ [ [ -3.0227144, 48.4724759 ], [ -3.0016667, 48.483340899999988 ], [ -2.9975015, 48.4882035 ], [ -3.0176962, 48.4999313 ], [ -3.0218885, 48.510838699999987 ], [ -3.0166329, 48.528466699999981 ], [ -3.024732, 48.5365925 ], [ -3.0432121, 48.538369499999973 ], [ -3.0564608, 48.53197219999997 ], [ -3.0624655, 48.53345 ], [ -3.0639424, 48.522363299999988 ], [ -3.0697062, 48.517320599999977 ], [ -3.0660959, 48.5141826 ], [ -3.0809256, 48.511107699999982 ], [ -3.089315, 48.503718 ], [ -3.0752629, 48.492906 ], [ -3.0809078, 48.4896502 ], [ -3.0806822, 48.4868921 ], [ -3.0734494, 48.484564399999989 ], [ -3.0722737, 48.480701399999987 ], [ -3.0663066, 48.4793313 ], [ -3.056411, 48.470992 ], [ -3.0372531, 48.4678214 ], [ -3.0349529, 48.4584843 ], [ -3.0225385, 48.456008499999982 ], [ -3.0227144, 48.4724759 ] ] ] } }
]
}
