{
"type": "FeatureCollection",
"name": "lathen",
"crs": { "type": "name", "properties": { "name": "urn:ogc:def:crs:OGC:1.3:CRS84" } },
"features": [
{ "type": "Feature", "properties": { "name": "Lathen", "metric_roundness": 35.17, "metric_rectangularity": 52.74, "metric_mobile_fit": -9.72, "metric_aspect_ratio": 1.66, "metric_area_km2": 104.74 }, "geometry": { "type": "Polygon", "coordinates": [ [ [ 7.3202585, 52.8714601 ], [ 7.3077927, 52.8797369 ], [ 7.30223, 52.874773499999975 ], [ 7.3073291, 52.8653243 ], [ 7.3010719, 52.8595705 ], [ 7.3051766, 52.8515796 ], [ 7.2941895, 52.8459735 ], [ 7.2786681, 52.8348887 ], [ 7.2724247, 52.8348394 ], [ 7.2639356, 52.8406314 ], [ 7.2584955, 52.837592 ], [ 7.2572115, 52.8332735 ], [ 7.2602093, 52.830443099999975 ], [ 7.2628301, 52.8279686 ], [ 7.2848155, 52.828524099999981 ], [ 7.3021352, 52.8194124 ], [ 7.3104171, 52.818336599999988 ], [ 7.322806, 52.830443099999975 ], [ 7.3254856, 52.8330616 ], [ 7.3436863, 52.830443099999975 ], [ 7.3683915, 52.830443099999975 ], [ 7.3896391, 52.830443099999975 ], [ 7.3919117, 52.8516755 ], [ 7.4075905, 52.84046679999998 ], [ 7.423048, 52.837709 ], [ 7.4259575, 52.852774199999978 ], [ 7.4210782, 52.8570934 ], [ 7.425223, 52.8627895 ], [ 7.410455, 52.866170499999988 ], [ 7.403972, 52.867743499999982 ], [ 7.398241, 52.865859 ], [ 7.3965695, 52.865007 ], [ 7.393486, 52.864094499999986 ], [ 7.3878965, 52.863570499999987 ], [ 7.384457, 52.868886 ], [ 7.383102, 52.870822 ], [ 7.3202585, 52.8714601 ] ] ] } }
]
}
