{
"type": "FeatureCollection",
"name": "lauregno_laurein",
"crs": { "type": "name", "properties": { "name": "urn:ogc:def:crs:OGC:1.3:CRS84" } },
"features": [
{ "type": "Feature", "properties": { "name": "Lauregno/Laurein", "feature_type": "entity", "metric_roundness": 21.63, "metric_rectangularity": 55.31, "metric_mobile_fit": 92.93, "metric_aspect_ratio": 0.492, "metric_area_km2": 29.63 }, "geometry": { "type": "Polygon", "coordinates": [ [ [ 11.026475, 46.5177665 ], [ 11.0217375, 46.514345 ], [ 11.0343871, 46.505925499999989 ], [ 11.0379392, 46.497513899999987 ], [ 11.0442082, 46.4959442 ], [ 11.0418101, 46.484147699999987 ], [ 11.0293727, 46.4787578 ], [ 11.028344, 46.4735909 ], [ 11.048698, 46.453322299999989 ], [ 11.048976, 46.4494495 ], [ 11.0588388, 46.448145499999981 ], [ 11.0713166, 46.4421087 ], [ 11.0757764, 46.445511 ], [ 11.0615763, 46.487263199999987 ], [ 11.0490825, 46.507014 ], [ 11.034478, 46.51384849999998 ], [ 11.026475, 46.5177665 ] ] ] } },
{ "type": "Feature", "properties": { "name": "Lauregno/Laurein", "feature_type": "circle", "metric_roundness": 21.63, "metric_rectangularity": 55.31, "metric_mobile_fit": 92.93, "metric_aspect_ratio": 0.492, "metric_area_km2": 29.63 }, "geometry": { "type": "Polygon", "coordinates": [ [ [ 11.108230261450405, 46.479950750442903 ], [ 11.108148945633131, 46.477812355130403 ], [ 11.107905221062312, 46.475679737316497 ], [ 11.107499755770055, 46.47355874338988 ], [ 11.106933661108544, 46.471455188554309 ], [ 11.106208488703897, 46.469374840870898 ], [ 11.105326226203269, 46.467323405422249 ], [ 11.104289291826849, 46.465306508642506 ], [ 11.103100527739686, 46.463329682856319 ], [ 11.101763192261513, 46.46139835106964 ], [ 11.100280950935916, 46.459517812054578 ], [ 11.098657866483347, 46.457693225769603 ], [ 11.096898387665462, 46.455929599155922 ], [ 11.095007337091406, 46.45423177234936 ], [ 11.092989897999356, 46.452604405346477 ], [ 11.090851600049632, 46.451051965161945 ], [ 11.088598304168285, 46.449578713513503 ], [ 11.086236186482697, 46.448188695068595 ], [ 11.083771721393262, 46.446885726286141 ], [ 11.081211663827483, 46.445673384884437 ], [ 11.078563030725201, 46.444554999965142 ], [ 11.075833081805644, 46.44353364282086 ], [ 11.073029299669047, 46.442612118452665 ], [ 11.070159369287355, 46.441792957821043 ], [ 11.067231156940259, 46.44107841085269 ], [ 11.064252688654264, 46.44047044022237 ], [ 11.061232128203912, 46.439970715927949 ], [ 11.058177754735445, 46.439580610673659 ], [ 11.055097940074223, 46.439301196074823 ], [ 11.052001125778165, 46.439133239694698 ], [ 11.0488958, 46.439077202921943 ], [ 11.045790474221832, 46.439133239694698 ], [ 11.042693659925774, 46.439301196074823 ], [ 11.039613845264554, 46.439580610673659 ], [ 11.036559471796085, 46.439970715927949 ], [ 11.033538911345731, 46.44047044022237 ], [ 11.030560443059738, 46.44107841085269 ], [ 11.027632230712642, 46.441792957821043 ], [ 11.02476230033095, 46.442612118452665 ], [ 11.021958518194353, 46.44353364282086 ], [ 11.019228569274796, 46.444554999965142 ], [ 11.016579936172514, 46.445673384884437 ], [ 11.014019878606735, 46.446885726286141 ], [ 11.011555413517298, 46.448188695068595 ], [ 11.009193295831713, 46.449578713513503 ], [ 11.006939999950365, 46.451051965161945 ], [ 11.004801702000643, 46.452604405346477 ], [ 11.002784262908593, 46.45423177234936 ], [ 11.000893212334535, 46.455929599155922 ], [ 10.999133733516651, 46.457693225769603 ], [ 10.997510649064081, 46.459517812054578 ], [ 10.996028407738484, 46.46139835106964 ], [ 10.994691072260313, 46.463329682856319 ], [ 10.99350230817315, 46.465306508642506 ], [ 10.992465373796728, 46.467323405422249 ], [ 10.991583111296098, 46.469374840870898 ], [ 10.990857938891455, 46.471455188554309 ], [ 10.990291844229944, 46.47355874338988 ], [ 10.989886378937687, 46.475679737316497 ], [ 10.989642654366868, 46.477812355130403 ], [ 10.989561338549594, 46.479950750442903 ], [ 10.989642654366868, 46.482089061716202 ], [ 10.989886378937687, 46.484221428333242 ], [ 10.990291844229944, 46.486342006657509 ], [ 10.990857938891455, 46.488444986038644 ], [ 10.991583111296098, 46.490524604720378 ], [ 10.992465373796728, 46.492575165607185 ], [ 10.99350230817315, 46.494591051846811 ], [ 10.994691072260313, 46.496566742186282 ], [ 10.996028407738484, 46.498496826059863 ], [ 10.997510649064081, 46.500376018367852 ], [ 10.999133733516651, 46.502199173906561 ], [ 11.000893212334535, 46.503961301410371 ], [ 11.002784262908593, 46.505657577167995 ], [ 11.004801702000643, 46.507283358176522 ], [ 11.006939999950365, 46.508834194797721 ], [ 11.009193295831713, 46.510305842882893 ], [ 11.011555413517298, 46.511694275333511 ], [ 11.014019878606735, 46.512995693067161 ], [ 11.016579936172514, 46.514206535359165 ], [ 11.019228569274796, 46.51532348953242 ], [ 11.021958518194353, 46.516343499969864 ], [ 11.02476230033095, 46.517263776425224 ], [ 11.027632230712642, 46.5180818016104 ], [ 11.030560443059738, 46.518795338038885 ], [ 11.033538911345731, 46.519402434107604 ], [ 11.036559471796085, 46.519901429400562 ], [ 11.039613845264554, 46.520290959200608 ], [ 11.042693659925774, 46.520569958197207 ], [ 11.045790474221832, 46.520737663380558 ], [ 11.0488958, 46.520793616114126 ], [ 11.052001125778165, 46.520737663380558 ], [ 11.055097940074223, 46.520569958197207 ], [ 11.058177754735445, 46.520290959200608 ], [ 11.061232128203912, 46.519901429400562 ], [ 11.064252688654264, 46.519402434107604 ], [ 11.067231156940259, 46.518795338038885 ], [ 11.070159369287355, 46.5180818016104 ], [ 11.073029299669047, 46.517263776425224 ], [ 11.075833081805644, 46.516343499969864 ], [ 11.078563030725201, 46.51532348953242 ], [ 11.081211663827483, 46.514206535359165 ], [ 11.083771721393262, 46.512995693067161 ], [ 11.086236186482697, 46.511694275333511 ], [ 11.088598304168285, 46.510305842882893 ], [ 11.090851600049632, 46.508834194797721 ], [ 11.092989897999356, 46.507283358176522 ], [ 11.095007337091406, 46.505657577167995 ], [ 11.096898387665462, 46.503961301410371 ], [ 11.098657866483347, 46.502199173906561 ], [ 11.100280950935916, 46.500376018367852 ], [ 11.101763192261513, 46.498496826059863 ], [ 11.103100527739686, 46.496566742186282 ], [ 11.104289291826849, 46.494591051846811 ], [ 11.105326226203269, 46.492575165607185 ], [ 11.106208488703897, 46.490524604720378 ], [ 11.106933661108544, 46.488444986038644 ], [ 11.107499755770055, 46.486342006657509 ], [ 11.107905221062312, 46.484221428333242 ], [ 11.108148945633131, 46.482089061716202 ], [ 11.108230261450405, 46.479950750442903 ] ] ] } },
{ "type": "Feature", "properties": { "name": "Lauregno/Laurein", "feature_type": "mrr", "metric_roundness": 21.63, "metric_rectangularity": 55.31, "metric_mobile_fit": 92.93, "metric_aspect_ratio": 0.492, "metric_area_km2": 29.63 }, "geometry": { "type": "Polygon", "coordinates": [ [ [ 11.049909119206653, 46.52154392703612 ], [ 11.07664087116167, 46.442968153449051 ], [ 11.040728124378345, 46.437170776249701 ], [ 11.013996372423327, 46.515754916339652 ], [ 11.049909119206653, 46.52154392703612 ] ] ] } }
]
}
