{
"type": "FeatureCollection",
"name": "lautertal_vogelsberg",
"crs": { "type": "name", "properties": { "name": "urn:ogc:def:crs:OGC:1.3:CRS84" } },
"features": [
{ "type": "Feature", "properties": { "name": "Lautertal (Vogelsberg)", "feature_type": "entity", "metric_roundness": 42.6, "metric_rectangularity": 50.7, "metric_mobile_fit": 85.6, "metric_aspect_ratio": 0.707, "metric_area_km2": 132.67 }, "geometry": { "type": "Polygon", "coordinates": [ [ [ 9.2700487, 50.629904099999983 ], [ 9.243865, 50.645126499999989 ], [ 9.2384926, 50.638810499999984 ], [ 9.2367998, 50.6313764 ], [ 9.243546, 50.616443499999981 ], [ 9.2586417, 50.604774199999987 ], [ 9.2544788, 50.598121899999988 ], [ 9.2316715, 50.5819952 ], [ 9.2351212, 50.577635299999983 ], [ 9.2491289, 50.5742275 ], [ 9.2533718, 50.5640734 ], [ 9.2403378, 50.558925 ], [ 9.2347088, 50.551499699999979 ], [ 9.2424685, 50.534983 ], [ 9.2651553, 50.539369099999988 ], [ 9.279575, 50.548257199999981 ], [ 9.2896449, 50.5591186 ], [ 9.2998192, 50.560926599999988 ], [ 9.3103079, 50.5721469 ], [ 9.3458479, 50.5730976 ], [ 9.3449533, 50.5775863 ], [ 9.3542505, 50.585885499999989 ], [ 9.344196, 50.59003 ], [ 9.332178, 50.5900496 ], [ 9.3238399, 50.603672499999973 ], [ 9.3279018, 50.612106 ], [ 9.3263047, 50.615835099999984 ], [ 9.2853935, 50.6352195 ], [ 9.2700487, 50.629904099999983 ] ] ] } },
{ "type": "Feature", "properties": { "name": "Lautertal (Vogelsberg)", "feature_type": "circle", "metric_roundness": 42.6, "metric_rectangularity": 50.7, "metric_mobile_fit": 85.6, "metric_aspect_ratio": 0.707, "metric_area_km2": 132.67 }, "geometry": { "type": "Polygon", "coordinates": [ [ [ 9.354482721639995, 50.58997526843951 ], [ 9.354360120258159, 50.587002760118892 ], [ 9.35399265215452, 50.584038212339735 ], [ 9.353381324533609, 50.581089753021821 ], [ 9.352527813001936, 50.578165467495801 ], [ 9.351434456975289, 50.575273376300174 ], [ 9.350104253266535, 50.5724214131398 ], [ 9.348540847871581, 50.569617403066971 ], [ 9.34674852597594, 50.566869040945669 ], [ 9.344732200209348, 50.564183870258958 ], [ 9.342497397180578, 50.561569262318741 ], [ 9.340050242329392, 50.559032395936157 ], [ 9.337397443137135, 50.556580237609566 ], [ 9.334546270742004, 50.554219522286125 ], [ 9.331504540009348, 50.551956734751045 ], [ 9.32828058811168, 50.549798091697369 ], [ 9.324883251677054, 50.547749524526964 ], [ 9.321321842568492, 50.54581666293182 ], [ 9.317606122360813, 50.544004819302152 ], [ 9.313746275584826, 50.542318974006079 ], [ 9.309752881812253, 50.540763761582824 ], [ 9.305636886657844, 50.539343457889011 ], [ 9.301409571778219, 50.538061968234942 ], [ 9.297082523949625, 50.536922816545008 ], [ 9.292667603309393, 50.535929135573319 ], [ 9.28817691084812, 50.535083658202886 ], [ 9.283622755241696, 50.534388709853332 ], [ 9.279017619114088, 50.53384620201907 ], [ 9.274374124823314, 50.533457626956803 ], [ 9.269704999864468, 50.533224053537353 ], [ 9.265023041984509, 50.533146124274246 ], [ 9.260341084104551, 50.533224053537353 ], [ 9.255671959145706, 50.533457626956803 ], [ 9.251028464854933, 50.53384620201907 ], [ 9.246423328727325, 50.534388709853332 ], [ 9.2418691731209, 50.535083658202886 ], [ 9.237378480659627, 50.535929135573319 ], [ 9.232963560019396, 50.536922816545008 ], [ 9.228636512190802, 50.538061968234942 ], [ 9.224409197311177, 50.539343457889011 ], [ 9.220293202156768, 50.540763761582824 ], [ 9.216299808384194, 50.542318974006079 ], [ 9.212439961608208, 50.544004819302152 ], [ 9.208724241400526, 50.54581666293182 ], [ 9.205162832291967, 50.547749524526964 ], [ 9.201765495857341, 50.549798091697369 ], [ 9.198541543959672, 50.551956734751045 ], [ 9.195499813227016, 50.554219522286125 ], [ 9.192648640831885, 50.556580237609566 ], [ 9.189995841639629, 50.559032395936157 ], [ 9.187548686788443, 50.561569262318741 ], [ 9.185313883759672, 50.564183870258958 ], [ 9.183297557993081, 50.566869040945669 ], [ 9.18150523609744, 50.569617403066971 ], [ 9.179941830702486, 50.5724214131398 ], [ 9.17861162699373, 50.575273376300174 ], [ 9.177518270967084, 50.578165467495801 ], [ 9.176664759435411, 50.581089753021821 ], [ 9.176053431814498, 50.584038212339735 ], [ 9.17568596371086, 50.587002760118892 ], [ 9.175563362329026, 50.58997526843951 ], [ 9.17568596371086, 50.592947589095836 ], [ 9.176053431814498, 50.595911575938274 ], [ 9.176664759435411, 50.598859107192773 ], [ 9.177518270967084, 50.601782107696721 ], [ 9.17861162699373, 50.60467257099063 ], [ 9.179941830702486, 50.607522581205288 ], [ 9.18150523609744, 50.610324334685266 ], [ 9.183297557993081, 50.613070161290324 ], [ 9.185313883759672, 50.615752545317079 ], [ 9.187548686788443, 50.618364145984842 ], [ 9.189995841639629, 50.620897817430816 ], [ 9.192648640831885, 50.623346628161038 ], [ 9.195499813227016, 50.62570387990533 ], [ 9.198541543959672, 50.627963125826192 ], [ 9.201765495857341, 50.630118188033265 ], [ 9.205162832291967, 50.632163174357146 ], [ 9.208724241400526, 50.634092494338411 ], [ 9.212439961608208, 50.635900874389449 ], [ 9.216299808384194, 50.637583372089843 ], [ 9.220293202156768, 50.639135389577319 ], [ 9.224409197311177, 50.64055268599963 ], [ 9.228636512190802, 50.641831388994731 ], [ 9.232963560019396, 50.642968005169465 ], [ 9.237378480659627, 50.643959429549319 ], [ 9.2418691731209, 50.644802953974953 ], [ 9.246423328727325, 50.645496274423643 ], [ 9.251028464854933, 50.646037497236513 ], [ 9.255671959145706, 50.646425144235891 ], [ 9.260341084104551, 50.646658156718942 ], [ 9.265023041984509, 50.646735898317878 ], [ 9.269704999864468, 50.646658156718942 ], [ 9.274374124823314, 50.646425144235891 ], [ 9.279017619114088, 50.646037497236513 ], [ 9.283622755241696, 50.645496274423643 ], [ 9.28817691084812, 50.644802953974953 ], [ 9.292667603309393, 50.643959429549319 ], [ 9.297082523949625, 50.642968005169465 ], [ 9.301409571778219, 50.641831388994731 ], [ 9.305636886657844, 50.64055268599963 ], [ 9.309752881812253, 50.639135389577319 ], [ 9.313746275584826, 50.637583372089843 ], [ 9.317606122360813, 50.635900874389449 ], [ 9.321321842568492, 50.634092494338411 ], [ 9.324883251677054, 50.632163174357146 ], [ 9.32828058811168, 50.630118188033265 ], [ 9.331504540009348, 50.627963125826192 ], [ 9.334546270742004, 50.62570387990533 ], [ 9.337397443137135, 50.623346628161038 ], [ 9.340050242329392, 50.620897817430816 ], [ 9.342497397180578, 50.618364145984842 ], [ 9.344732200209348, 50.615752545317079 ], [ 9.34674852597594, 50.613070161290324 ], [ 9.348540847871581, 50.610324334685266 ], [ 9.350104253266535, 50.607522581205288 ], [ 9.351434456975289, 50.60467257099063 ], [ 9.352527813001936, 50.601782107696721 ], [ 9.353381324533609, 50.598859107192773 ], [ 9.35399265215452, 50.595911575938274 ], [ 9.354360120258159, 50.592947589095836 ], [ 9.354482721639995, 50.58997526843951 ] ] ] } },
{ "type": "Feature", "properties": { "name": "Lautertal (Vogelsberg)", "feature_type": "mrr", "metric_roundness": 42.6, "metric_rectangularity": 50.7, "metric_mobile_fit": 85.6, "metric_aspect_ratio": 0.707, "metric_area_km2": 132.67 }, "geometry": { "type": "Polygon", "coordinates": [ [ [ 9.226862014046686, 50.535636778852613 ], [ 9.238253104678229, 50.645361042980618 ], [ 9.359899867195683, 50.640276710942885 ], [ 9.34850877656414, 50.530540583715293 ], [ 9.226862014046686, 50.535636778852613 ] ] ] } }
]
}
