{
"type": "FeatureCollection",
"name": "laval_de_cere",
"crs": { "type": "name", "properties": { "name": "urn:ogc:def:crs:OGC:1.3:CRS84" } },
"features": [
{ "type": "Feature", "properties": { "name": "Laval-de-Cère", "feature_type": "entity", "metric_roundness": 25.17, "metric_rectangularity": 37.76, "metric_mobile_fit": 23.68, "metric_aspect_ratio": 1.326, "metric_area_km2": 15.58 }, "geometry": { "type": "Polygon", "coordinates": [ [ [ 1.92732, 44.9302105 ], [ 1.9515307, 44.9374313 ], [ 1.960549, 44.935231 ], [ 1.9654226, 44.9390085 ], [ 1.9509915, 44.953152 ], [ 1.9413519, 44.953512 ], [ 1.940154, 44.9718325 ], [ 1.936152, 44.959133899999983 ], [ 1.9266945, 44.951887299999989 ], [ 1.9249658, 44.9457637 ], [ 1.9067768, 44.9489648 ], [ 1.8987544, 44.953135 ], [ 1.887456, 44.950897499999989 ], [ 1.8970343, 44.951362 ], [ 1.9166809, 44.9438995 ], [ 1.916078, 44.934801 ], [ 1.92732, 44.9302105 ] ] ] } },
{ "type": "Feature", "properties": { "name": "Laval-de-Cère", "feature_type": "circle", "metric_roundness": 25.17, "metric_rectangularity": 37.76, "metric_mobile_fit": 23.68, "metric_aspect_ratio": 1.326, "metric_area_km2": 15.58 }, "geometry": { "type": "Polygon", "coordinates": [ [ [ 1.966427519304248, 44.945305496994933 ], [ 1.966372863758628, 44.943828188676235 ], [ 1.966209046928817, 44.942354891695977 ], [ 1.96593651782536, 44.94088964472558 ], [ 1.965556023431586, 44.939436464677378 ], [ 1.965068606656181, 44.9379993356862 ], [ 1.964475603474646, 44.936582198177327 ], [ 1.963778639267482, 44.935188938051297 ], [ 1.962979624365136, 44.933823376015006 ], [ 1.962080748811917, 44.932489257089003 ], [ 1.961084476363235, 44.931190240319346 ], [ 1.959993537732623, 44.929929888723166 ], [ 1.958810923107036, 44.928711659495164 ], [ 1.957539873950962, 44.927538894502625 ], [ 1.956183874121787, 44.926414811094993 ], [ 1.954746640320788, 44.925342493253829 ], [ 1.953232111905914, 44.924324883107545 ], [ 1.951644440094275, 44.923364772834518 ], [ 1.94998797658395, 44.922464796977344 ], [ 1.948267261626282, 44.921627425189428 ], [ 1.946487011581364, 44.920854955434265 ], [ 1.944652105990825, 44.920149507656355 ], [ 1.942767574203345, 44.919513017941448 ], [ 1.940838581589564, 44.918947233182458 ], [ 1.938870415384151, 44.918453706265964 ], [ 1.936868470193872, 44.918033791792695 ], [ 1.934838233211338, 44.917688642344146 ], [ 1.932785269174999, 44.917419205305571 ], [ 1.930715205116579, 44.91722622025447 ], [ 1.928633714937773, 44.917110216921735 ], [ 1.926546503858479, 44.917071513731173 ], [ 1.924459292779185, 44.917110216921735 ], [ 1.922377802600379, 44.91722622025447 ], [ 1.920307738541958, 44.917419205305571 ], [ 1.91825477450562, 44.917688642344146 ], [ 1.916224537523086, 44.918033791792695 ], [ 1.914222592332806, 44.918453706265964 ], [ 1.912254426127394, 44.918947233182458 ], [ 1.910325433513612, 44.919513017941448 ], [ 1.908440901726133, 44.920149507656355 ], [ 1.906605996135594, 44.920854955434265 ], [ 1.904825746090676, 44.921627425189428 ], [ 1.903105031133007, 44.922464796977344 ], [ 1.901448567622683, 44.923364772834518 ], [ 1.899860895811044, 44.924324883107545 ], [ 1.89834636739617, 44.925342493253829 ], [ 1.896909133595171, 44.926414811094993 ], [ 1.895553133765996, 44.927538894502625 ], [ 1.894282084609921, 44.928711659495164 ], [ 1.893099469984335, 44.929929888723166 ], [ 1.892008531353723, 44.931190240319346 ], [ 1.891012258905041, 44.932489257089003 ], [ 1.890113383351822, 44.933823376015006 ], [ 1.889314368449476, 44.935188938051297 ], [ 1.888617404242312, 44.936582198177327 ], [ 1.888024401060777, 44.9379993356862 ], [ 1.887536984285371, 44.939436464677378 ], [ 1.887156489891598, 44.94088964472558 ], [ 1.886883960788141, 44.942354891695977 ], [ 1.88672014395833, 44.943828188676235 ], [ 1.886665488412709, 44.945305496994933 ], [ 1.88672014395833, 44.946782767296497 ], [ 1.886883960788141, 44.948255950641887 ], [ 1.887156489891598, 44.949721009604694 ], [ 1.887536984285371, 44.951173929332427 ], [ 1.888024401060777, 44.952610728542382 ], [ 1.888617404242312, 44.954027470422439 ], [ 1.889314368449476, 44.955420273406652 ], [ 1.890113383351822, 44.956785321796644 ], [ 1.891012258905041, 44.958118876199528 ], [ 1.892008531353723, 44.959417283754249 ], [ 1.893099469984335, 44.960676988118365 ], [ 1.894282084609921, 44.961894539188386 ], [ 1.895553133765996, 44.963066602527078 ], [ 1.896909133595171, 44.964189968472454 ], [ 1.89834636739617, 44.96526156090362 ], [ 1.899860895811044, 44.966278445639922 ], [ 1.901448567622683, 44.967237838450721 ], [ 1.903105031133007, 44.96813711265407 ], [ 1.904825746090675, 44.968973806284055 ], [ 1.906605996135594, 44.969745628807196 ], [ 1.908440901726133, 44.97045046737022 ], [ 1.910325433513612, 44.971086392562057 ], [ 1.912254426127394, 44.971651663674812 ], [ 1.914222592332806, 44.972144733449547 ], [ 1.916224537523086, 44.972564252294049 ], [ 1.91825477450562, 44.972909071961432 ], [ 1.920307738541958, 44.973178248679574 ], [ 1.922377802600379, 44.973371045723106 ], [ 1.924459292779185, 44.973486935421008 ], [ 1.926546503858479, 44.973525600594435 ], [ 1.928633714937773, 44.973486935421008 ], [ 1.930715205116579, 44.973371045723106 ], [ 1.932785269174999, 44.973178248679574 ], [ 1.934838233211338, 44.972909071961432 ], [ 1.936868470193872, 44.972564252294049 ], [ 1.938870415384151, 44.972144733449547 ], [ 1.940838581589564, 44.971651663674812 ], [ 1.942767574203345, 44.971086392562057 ], [ 1.944652105990825, 44.97045046737022 ], [ 1.946487011581364, 44.969745628807196 ], [ 1.948267261626282, 44.968973806284055 ], [ 1.94998797658395, 44.96813711265407 ], [ 1.951644440094275, 44.967237838450721 ], [ 1.953232111905914, 44.966278445639922 ], [ 1.954746640320788, 44.96526156090362 ], [ 1.956183874121787, 44.964189968472454 ], [ 1.957539873950962, 44.963066602527078 ], [ 1.958810923107036, 44.961894539188386 ], [ 1.959993537732623, 44.960676988118365 ], [ 1.961084476363235, 44.959417283754249 ], [ 1.962080748811917, 44.958118876199528 ], [ 1.962979624365136, 44.956785321796644 ], [ 1.963778639267482, 44.955420273406652 ], [ 1.964475603474646, 44.954027470422439 ], [ 1.965068606656181, 44.952610728542382 ], [ 1.965556023431586, 44.951173929332427 ], [ 1.96593651782536, 44.949721009604694 ], [ 1.966209046928817, 44.948255950641887 ], [ 1.966372863758628, 44.946782767296497 ], [ 1.966427519304248, 44.945305496994933 ] ] ] } },
{ "type": "Feature", "properties": { "name": "Laval-de-Cère", "feature_type": "mrr", "metric_roundness": 25.17, "metric_rectangularity": 37.76, "metric_mobile_fit": 23.68, "metric_aspect_ratio": 1.326, "metric_area_km2": 15.58 }, "geometry": { "type": "Polygon", "coordinates": [ [ [ 1.887456, 44.950897499999989 ], [ 1.940154, 44.9718325 ], [ 1.967120387472181, 44.937842702829663 ], [ 1.914422387469435, 44.916895301640551 ], [ 1.887456, 44.950897499999989 ] ] ] } }
]
}
