{
"type": "FeatureCollection",
"name": "lavau_sur_loire",
"crs": { "type": "name", "properties": { "name": "urn:ogc:def:crs:OGC:1.3:CRS84" } },
"features": [
{ "type": "Feature", "properties": { "name": "Lavau-sur-Loire", "metric_roundness": 55.04, "metric_rectangularity": 71.83, "metric_mobile_fit": 54.43, "metric_aspect_ratio": 1.018, "metric_area_km2": 35.65 }, "geometry": { "type": "Polygon", "coordinates": [ [ [ -1.988818, 47.3094725 ], [ -1.9851425, 47.307842 ], [ -1.9825295, 47.3050115 ], [ -1.964297, 47.3047465 ], [ -1.9535865, 47.304965 ], [ -1.9470075, 47.303593499999984 ], [ -1.9397678, 47.3135961 ], [ -1.9296647, 47.3166295 ], [ -1.9231925, 47.334062 ], [ -1.9285792, 47.344723899999984 ], [ -1.942184, 47.3430306 ], [ -1.9450914, 47.339125899999978 ], [ -1.9528386, 47.344497899999986 ], [ -1.9603278, 47.344967799999985 ], [ -1.963918, 47.3494 ], [ -1.9715042, 47.341940599999987 ], [ -1.9816289, 47.320536599999983 ], [ -1.9920005, 47.309927 ], [ -1.988818, 47.3094725 ] ] ] } }
]
}
