{
"type": "FeatureCollection",
"name": "adelberg",
"crs": { "type": "name", "properties": { "name": "urn:ogc:def:crs:OGC:1.3:CRS84" } },
"features": [
{ "type": "Feature", "properties": { "name": "Adelberg", "metric_roundness": 44.93, "metric_rectangularity": 68.08, "metric_mobile_fit": 68.41, "metric_aspect_ratio": 0.878, "metric_area_km2": 22.09 }, "geometry": { "type": "Polygon", "coordinates": [ [ [ 9.6141445, 48.760882299999977 ], [ 9.6179379, 48.7659228 ], [ 9.614526, 48.76929 ], [ 9.608289, 48.774034 ], [ 9.605964, 48.7754185 ], [ 9.599356, 48.776606 ], [ 9.596534, 48.775414 ], [ 9.5935875, 48.7765325 ], [ 9.591965, 48.778875499999984 ], [ 9.588386, 48.7810675 ], [ 9.5855225, 48.781359 ], [ 9.5812805, 48.780415499999975 ], [ 9.5793415, 48.780058 ], [ 9.5739905, 48.780202499999987 ], [ 9.571766, 48.7719833 ], [ 9.5848618, 48.762029599999984 ], [ 9.580032, 48.750051499999984 ], [ 9.584707, 48.7456677 ], [ 9.5934604, 48.744114799999984 ], [ 9.6115301, 48.7470629 ], [ 9.6213955, 48.745277499999986 ], [ 9.6141445, 48.760882299999977 ] ] ] } }
]
}
