{
"type": "FeatureCollection",
"name": "adrada_la",
"crs": { "type": "name", "properties": { "name": "urn:ogc:def:crs:OGC:1.3:CRS84" } },
"features": [
{ "type": "Feature", "properties": { "name": "Adrada, La", "feature_type": "entity", "metric_roundness": 38.55, "metric_rectangularity": 60.96, "metric_mobile_fit": 96.84, "metric_aspect_ratio": 0.594, "metric_area_km2": 100.48 }, "geometry": { "type": "Polygon", "coordinates": [ [ [ -4.6827245, 40.361393 ], [ -4.6836582, 40.3494905 ], [ -4.6613138, 40.3245302 ], [ -4.6605309, 40.3052264 ], [ -4.665433, 40.300113 ], [ -4.6805015, 40.297423699999989 ], [ -4.6984981, 40.2886509 ], [ -4.698169, 40.282226499999986 ], [ -4.6951172, 40.2668164 ], [ -4.7018766, 40.262975399999988 ], [ -4.7018565, 40.2589375 ], [ -4.687204, 40.24960549999998 ], [ -4.6679178, 40.2515823 ], [ -4.6609558, 40.2575254 ], [ -4.6422307, 40.263205599999985 ], [ -4.638987, 40.268452 ], [ -4.6409679, 40.2716049 ], [ -4.6231762, 40.2801514 ], [ -4.6120541, 40.300163299999987 ], [ -4.6186697, 40.314053699999988 ], [ -4.6333722, 40.3263812 ], [ -4.6294016, 40.333174799999988 ], [ -4.6224937, 40.3360129 ], [ -4.6216875, 40.3426909 ], [ -4.6106905, 40.354637 ], [ -4.61646, 40.3587 ], [ -4.624228, 40.364815 ], [ -4.630948, 40.3666495 ], [ -4.6827245, 40.361393 ] ] ] } },
{ "type": "Feature", "properties": { "name": "Adrada, La", "feature_type": "circle", "metric_roundness": 38.55, "metric_rectangularity": 60.96, "metric_mobile_fit": 96.84, "metric_aspect_ratio": 0.594, "metric_area_km2": 100.48 }, "geometry": { "type": "Polygon", "coordinates": [ [ [ -4.573877261566469, 40.307234814190295 ], [ -4.573989418713222, 40.303968493741387 ], [ -4.574325582738537, 40.300710968754117 ], [ -4.574884832240187, 40.297471169820199 ], [ -4.575665634354161, 40.294257980214574 ], [ -4.576665848956138, 40.291080211511698 ], [ -4.577882734527416, 40.287946579384936 ], [ -4.579312955669232, 40.284865679655788 ], [ -4.580952592244848, 40.281845964659254 ], [ -4.582797150124379, 40.278895719991198 ], [ -4.584841573502893, 40.276023041701883 ], [ -4.587080258758014, 40.273235813999776 ], [ -4.589507069809068, 40.27054168752754 ], [ -4.592115354935649, 40.267948058271173 ], [ -4.594897965009524, 40.265462047161307 ], [ -4.597847273089898, 40.263090480424061 ], [ -4.600955195328328, 40.260839870736774 ], [ -4.604213213125985, 40.258716399241536 ], [ -4.607612396482549, 40.256725898467643 ], [ -4.611143428472714, 40.254873836210841 ], [ -4.614796630783234, 40.253165300415411 ], [ -4.618561990240507, 40.251604985101743 ], [ -4.622429186255987, 40.250197177379398 ], [ -4.626387619114201, 40.248945745582596 ], [ -4.630426439025833, 40.247854128561904 ], [ -4.634534575866238, 40.246925326162611 ], [ -4.638700769517891, 40.246161890916973 ], [ -4.642913600733583, 40.245565920973959 ], [ -4.647161522435779, 40.24513905428676 ], [ -4.651432891366365, 40.244882464074635 ], [ -4.655716, 40.244796855572083 ], [ -4.659999108633634, 40.244882464074635 ], [ -4.664270477564219, 40.24513905428676 ], [ -4.668518399266415, 40.245565920973959 ], [ -4.672731230482107, 40.246161890916973 ], [ -4.67689742413376, 40.246925326162611 ], [ -4.681005560974166, 40.247854128561904 ], [ -4.685044380885798, 40.248945745582596 ], [ -4.689002813744011, 40.250197177379398 ], [ -4.692870009759491, 40.251604985101743 ], [ -4.696635369216764, 40.253165300415411 ], [ -4.700288571527285, 40.254873836210841 ], [ -4.70381960351745, 40.256725898467643 ], [ -4.707218786874014, 40.258716399241536 ], [ -4.710476804671671, 40.260839870736774 ], [ -4.7135847269101, 40.263090480424061 ], [ -4.716534034990475, 40.265462047161307 ], [ -4.71931664506435, 40.267948058271173 ], [ -4.721924930190931, 40.27054168752754 ], [ -4.724351741241985, 40.273235813999776 ], [ -4.726590426497106, 40.276023041701883 ], [ -4.728634849875619, 40.278895719991198 ], [ -4.73047940775515, 40.281845964659254 ], [ -4.732119044330766, 40.284865679655788 ], [ -4.733549265472583, 40.287946579384936 ], [ -4.734766151043862, 40.291080211511698 ], [ -4.735766365645838, 40.294257980214574 ], [ -4.736547167759811, 40.297471169820199 ], [ -4.737106417261462, 40.300710968754117 ], [ -4.737442581286776, 40.303968493741387 ], [ -4.73755473843353, 40.307234814190295 ], [ -4.737442581286776, 40.310500976691777 ], [ -4.737106417261462, 40.313758029567275 ], [ -4.736547167759811, 40.316997047397642 ], [ -4.735766365645838, 40.320209155465882 ], [ -4.734766151043862, 40.3233855540471 ], [ -4.733549265472583, 40.326517542479287 ], [ -4.732119044330766, 40.329596542949638 ], [ -4.73047940775515, 40.332614123931805 ], [ -4.728634849875619, 40.335562023210706 ], [ -4.726590426497106, 40.338432170432647 ], [ -4.724351741241985, 40.341216709120097 ], [ -4.721924930190931, 40.343908018091795 ], [ -4.71931664506435, 40.346498732230899 ], [ -4.716534034990475, 40.348981762545428 ], [ -4.7135847269101, 40.351350315467464 ], [ -4.710476804671671, 40.353597911339691 ], [ -4.707218786874014, 40.355718402039969 ], [ -4.70381960351745, 40.357705987697244 ], [ -4.700288571527285, 40.359555232454369 ], [ -4.696635369216764, 40.361261079236165 ], [ -4.692870009759491, 40.362818863483625 ], [ -4.689002813744011, 40.364224325818057 ], [ -4.685044380885798, 40.365473623601794 ], [ -4.681005560974166, 40.366563341364916 ], [ -4.67689742413376, 40.367490500070801 ], [ -4.672731230482107, 40.36825256519581 ], [ -4.668518399266415, 40.368847453602292 ], [ -4.664270477564219, 40.36927353918658 ], [ -4.659999108633634, 40.369529657287337 ], [ -4.655716, 40.369615107842591 ], [ -4.651432891366365, 40.369529657287337 ], [ -4.647161522435779, 40.36927353918658 ], [ -4.642913600733583, 40.368847453602292 ], [ -4.638700769517891, 40.36825256519581 ], [ -4.634534575866238, 40.367490500070801 ], [ -4.630426439025833, 40.366563341364916 ], [ -4.626387619114201, 40.365473623601794 ], [ -4.622429186255988, 40.364224325818057 ], [ -4.618561990240507, 40.362818863483625 ], [ -4.614796630783234, 40.361261079236165 ], [ -4.611143428472714, 40.359555232454369 ], [ -4.607612396482549, 40.357705987697244 ], [ -4.604213213125985, 40.355718402039969 ], [ -4.600955195328328, 40.353597911339691 ], [ -4.597847273089898, 40.351350315467464 ], [ -4.594897965009524, 40.348981762545428 ], [ -4.592115354935649, 40.346498732230899 ], [ -4.589507069809068, 40.343908018091795 ], [ -4.587080258758014, 40.341216709120097 ], [ -4.584841573502893, 40.338432170432647 ], [ -4.582797150124379, 40.335562023210706 ], [ -4.580952592244848, 40.332614123931805 ], [ -4.579312955669232, 40.329596542949638 ], [ -4.577882734527416, 40.326517542479287 ], [ -4.576665848956138, 40.3233855540471 ], [ -4.575665634354161, 40.320209155465882 ], [ -4.574884832240187, 40.316997047397642 ], [ -4.574325582738537, 40.313758029567275 ], [ -4.573989418713222, 40.310500976691777 ], [ -4.573877261566469, 40.307234814190295 ] ] ] } },
{ "type": "Feature", "properties": { "name": "Adrada, La", "feature_type": "mrr", "metric_roundness": 38.55, "metric_rectangularity": 60.96, "metric_mobile_fit": 96.84, "metric_aspect_ratio": 0.594, "metric_area_km2": 100.48 }, "geometry": { "type": "Polygon", "coordinates": [ [ [ -4.706432300405151, 40.25203161888021 ], [ -4.680236938841672, 40.372857559970605 ], [ -4.598521470719899, 40.362564987982708 ], [ -4.624716832283378, 40.241720616995231 ], [ -4.706432300405151, 40.25203161888021 ] ] ] } }
]
}
