{
"type": "FeatureCollection",
"name": "bobitz",
"crs": { "type": "name", "properties": { "name": "urn:ogc:def:crs:OGC:1.3:CRS84" } },
"features": [
{ "type": "Feature", "properties": { "name": "Bobitz", "metric_roundness": 60.89, "metric_rectangularity": 68.91, "metric_mobile_fit": 66.16, "metric_aspect_ratio": 0.901, "metric_area_km2": 188.5 }, "geometry": { "type": "Polygon", "coordinates": [ [ [ 11.3752967, 53.7754771 ], [ 11.3857228, 53.7770952 ], [ 11.3946616, 53.7734533 ], [ 11.402046, 53.7755035 ], [ 11.3986675, 53.785943299999985 ], [ 11.4239476, 53.7869241 ], [ 11.4250644, 53.8012659 ], [ 11.42085, 53.806729 ], [ 11.4191403, 53.8095626 ], [ 11.4313765, 53.822847499999988 ], [ 11.4151057, 53.827979 ], [ 11.4261495, 53.843302 ], [ 11.4124775, 53.844396 ], [ 11.3988849, 53.839618599999973 ], [ 11.3965191, 53.845977899999987 ], [ 11.3874005, 53.846707 ], [ 11.3516492, 53.841192 ], [ 11.3491217, 53.849192599999981 ], [ 11.3418655, 53.850174499999987 ], [ 11.3235319, 53.8517217 ], [ 11.3157635, 53.8552835 ], [ 11.3151863, 53.8514601 ], [ 11.3044449, 53.850946199999981 ], [ 11.3039262, 53.844485899999974 ], [ 11.2937331, 53.8402299 ], [ 11.2934464, 53.8371382 ], [ 11.3003131, 53.832562199999984 ], [ 11.3000117, 53.8214559 ], [ 11.2895133, 53.814516099999985 ], [ 11.2872815, 53.807751 ], [ 11.304973, 53.803179199999981 ], [ 11.3208605, 53.761255 ], [ 11.3344877, 53.7608397 ], [ 11.3509242, 53.7705962 ], [ 11.3617345, 53.7638314 ], [ 11.366511, 53.764763 ], [ 11.3752967, 53.7754771 ] ] ] } }
]
}
