{
"type": "FeatureCollection",
"name": "bochor",
"crs": { "type": "name", "properties": { "name": "urn:ogc:def:crs:OGC:1.3:CRS84" } },
"features": [
{ "type": "Feature", "properties": { "name": "Bochoř", "metric_roundness": 36.73, "metric_rectangularity": 60.58, "metric_mobile_fit": 34.98, "metric_aspect_ratio": 1.213, "metric_area_km2": 21.65 }, "geometry": { "type": "Polygon", "coordinates": [ [ [ 17.4315516, 49.4183229 ], [ 17.4411278, 49.423743599999987 ], [ 17.4434087, 49.429976199999984 ], [ 17.4348495, 49.43353 ], [ 17.4356509, 49.4387128 ], [ 17.4244526, 49.4368351 ], [ 17.4251737, 49.430342799999984 ], [ 17.4149496, 49.4222908 ], [ 17.3880842, 49.4175902 ], [ 17.3830365, 49.4209365 ], [ 17.3701995, 49.41282349999998 ], [ 17.381473, 49.405845099999986 ], [ 17.3814225, 49.403298 ], [ 17.3924382, 49.399442799999981 ], [ 17.3984384, 49.4047959 ], [ 17.407791, 49.402927 ], [ 17.4175908, 49.40924159999998 ], [ 17.4277216, 49.409652699999988 ], [ 17.434231, 49.415679 ], [ 17.4315516, 49.4183229 ] ] ] } }
]
}
