{
"type": "FeatureCollection",
"name": "bois_les_pargny",
"crs": { "type": "name", "properties": { "name": "urn:ogc:def:crs:OGC:1.3:CRS84" } },
"features": [
{ "type": "Feature", "properties": { "name": "Bois-lès-Pargny", "metric_roundness": 51.56, "metric_rectangularity": 72.98, "metric_mobile_fit": 79.64, "metric_aspect_ratio": 0.766, "metric_area_km2": 24.95 }, "geometry": { "type": "Polygon", "coordinates": [ [ [ 3.6560145, 49.71562 ], [ 3.660914, 49.7162965 ], [ 3.6650885, 49.7223125 ], [ 3.6813875, 49.741999499999977 ], [ 3.68376, 49.745239 ], [ 3.6678795, 49.747355 ], [ 3.6635029, 49.75243649999998 ], [ 3.6552414, 49.7522057 ], [ 3.6467215, 49.7608065 ], [ 3.646633, 49.7553776 ], [ 3.6370785, 49.7536505 ], [ 3.63865, 49.7504615 ], [ 3.638218, 49.7453995 ], [ 3.6329995, 49.745334 ], [ 3.6301993, 49.73909029999998 ], [ 3.6395695, 49.722285 ], [ 3.6560145, 49.71562 ] ] ] } }
]
}
