{
"type": "FeatureCollection",
"name": "bonares",
"crs": { "type": "name", "properties": { "name": "urn:ogc:def:crs:OGC:1.3:CRS84" } },
"features": [
{ "type": "Feature", "properties": { "name": "Bonares", "metric_roundness": 28.63, "metric_rectangularity": 51.51, "metric_mobile_fit": 98.93, "metric_aspect_ratio": 0.552, "metric_area_km2": 101.62 }, "geometry": { "type": "Polygon", "coordinates": [ [ [ -6.6662616, 37.329989099999985 ], [ -6.6794756, 37.3446262 ], [ -6.6959491, 37.3429189 ], [ -6.7088247, 37.3455399 ], [ -6.7142612, 37.331118 ], [ -6.7229785, 37.328884 ], [ -6.7116633, 37.3149417 ], [ -6.7055709, 37.302289699999989 ], [ -6.6902649, 37.2960459 ], [ -6.69867, 37.2898971 ], [ -6.7014662, 37.278156799999984 ], [ -6.7141874, 37.2521531 ], [ -6.7070573, 37.241622 ], [ -6.741843, 37.2117967 ], [ -6.733457, 37.205487199999979 ], [ -6.729722, 37.19859 ], [ -6.7239885, 37.1968195 ], [ -6.707538, 37.207245 ], [ -6.6844885, 37.220604 ], [ -6.677479, 37.2261085 ], [ -6.6739105, 37.2296255 ], [ -6.668153, 37.233795 ], [ -6.672306, 37.2476305 ], [ -6.6704195, 37.2603035 ], [ -6.6570155, 37.285629 ], [ -6.656702, 37.293369 ], [ -6.653841, 37.302971 ], [ -6.649962, 37.306965 ], [ -6.646948, 37.310623 ], [ -6.642409, 37.3191415 ], [ -6.6392475, 37.3214185 ], [ -6.638728, 37.324714499999985 ], [ -6.6662616, 37.329989099999985 ] ] ] } }
]
}
