{
"type": "FeatureCollection",
"name": "borac",
"crs": { "type": "name", "properties": { "name": "urn:ogc:def:crs:OGC:1.3:CRS84" } },
"features": [
{ "type": "Feature", "properties": { "name": "Borač", "feature_type": "entity", "metric_roundness": 47.0, "metric_rectangularity": 54.11, "metric_mobile_fit": 50.5, "metric_aspect_ratio": 1.057, "metric_area_km2": 13.67 }, "geometry": { "type": "Polygon", "coordinates": [ [ [ 16.3798572, 49.398603799999989 ], [ 16.3787036, 49.405445099999987 ], [ 16.384173, 49.4146085 ], [ 16.3733798, 49.4125982 ], [ 16.370637, 49.414757 ], [ 16.3639134, 49.406159599999981 ], [ 16.3364095, 49.4053765 ], [ 16.344808, 49.3935165 ], [ 16.3493003, 49.3948405 ], [ 16.366271, 49.385363199999986 ], [ 16.371954, 49.3860595 ], [ 16.3765898, 49.3877099 ], [ 16.376455, 49.3910865 ], [ 16.3798572, 49.398603799999989 ] ] ] } },
{ "type": "Feature", "properties": { "name": "Borač", "feature_type": "circle", "metric_roundness": 47.0, "metric_rectangularity": 54.11, "metric_mobile_fit": 50.5, "metric_aspect_ratio": 1.057, "metric_area_km2": 13.67 }, "geometry": { "type": "Polygon", "coordinates": [ [ [ 16.390829090264873, 49.402976793980748 ], [ 16.390791628943617, 49.402045850411106 ], [ 16.390679347658725, 49.401117440916167 ], [ 16.390492554165395, 49.400194110418425 ], [ 16.390231760451613, 49.399278390061042 ], [ 16.389897681334812, 49.398372790266201 ], [ 16.389491232502635, 49.397479793848824 ], [ 16.389013528003083, 49.39660184920438 ], [ 16.388465877190974, 49.395741363589842 ], [ 16.387849781139128, 49.394900696515919 ], [ 16.387166928523992, 49.394082153269153 ], [ 16.38641919099712, 49.393287978581391 ], [ 16.385608618055102, 49.392520350464544 ], [ 16.384737431422025, 49.391781374227122 ], [ 16.3838080189599, 49.391073076689715 ], [ 16.38282292812368, 49.390397400614845 ], [ 16.381784858978875, 49.389756199367049 ], [ 16.380696656800858, 49.38915123181777 ], [ 16.379561304276155, 49.388584157509257 ], [ 16.378381913327118, 49.388056532090886 ], [ 16.377161716582364, 49.38756980304057 ], [ 16.375904058516351, 49.387125305683107 ], [ 16.374612386282429, 49.386724259516711 ], [ 16.373290240264396, 49.386367764857653 ], [ 16.371941244372589, 49.386056799812593 ], [ 16.370569096110987, 49.385792217586946 ], [ 16.36917755644259, 49.385574744136697 ], [ 16.36777043948091, 49.385404976170392 ], [ 16.366351602035731, 49.385283379506717 ], [ 16.364924933041866, 49.385210287792205 ], [ 16.363494342899855, 49.385185901582908 ], [ 16.362063752757848, 49.385210287792205 ], [ 16.360637083763983, 49.385283379506717 ], [ 16.3592182463188, 49.385404976170392 ], [ 16.357811129357117, 49.385574744136697 ], [ 16.356419589688723, 49.385792217586946 ], [ 16.355047441427118, 49.386056799812593 ], [ 16.353698445535318, 49.386367764857653 ], [ 16.352376299517285, 49.386724259516711 ], [ 16.351084627283356, 49.387125305683107 ], [ 16.349826969217347, 49.38756980304057 ], [ 16.348606772472596, 49.388056532090886 ], [ 16.347427381523556, 49.388584157509257 ], [ 16.346292028998857, 49.38915123181777 ], [ 16.345203826820836, 49.389756199367049 ], [ 16.344165757676031, 49.390397400614845 ], [ 16.34318066683981, 49.391073076689715 ], [ 16.342251254377683, 49.391781374227122 ], [ 16.341380067744613, 49.392520350464544 ], [ 16.34056949480259, 49.393287978581391 ], [ 16.339821757275722, 49.394082153269153 ], [ 16.339138904660583, 49.394900696515919 ], [ 16.338522808608737, 49.395741363589842 ], [ 16.337975157796631, 49.39660184920438 ], [ 16.337497453297072, 49.397479793848824 ], [ 16.337091004464899, 49.398372790266201 ], [ 16.336756925348102, 49.399278390061042 ], [ 16.336496131634313, 49.400194110418425 ], [ 16.336309338140985, 49.401117440916167 ], [ 16.336197056856093, 49.402045850411106 ], [ 16.336159595534838, 49.402976793980748 ], [ 16.336197056856093, 49.403907719901049 ], [ 16.336309338140985, 49.404836076641374 ], [ 16.336496131634313, 49.405759319857211 ], [ 16.336756925348102, 49.406674919361677 ], [ 16.337091004464899, 49.407580366056656 ], [ 16.337497453297072, 49.40847317880467 ], [ 16.337975157796631, 49.409350911222518 ], [ 16.338522808608733, 49.410211158378452 ], [ 16.339138904660583, 49.411051563374357 ], [ 16.339821757275722, 49.411869823795094 ], [ 16.34056949480259, 49.412663698007471 ], [ 16.341380067744613, 49.413431011291706 ], [ 16.342251254377683, 49.414169661788613 ], [ 16.34318066683981, 49.414877626246515 ], [ 16.344165757676031, 49.415552965552166 ], [ 16.345203826820836, 49.41619383003075 ], [ 16.346292028998857, 49.416798464500509 ], [ 16.347427381523556, 49.417365213068521 ], [ 16.348606772472596, 49.417892523654274 ], [ 16.349826969217347, 49.41837895222924 ], [ 16.351084627283356, 49.418823166760667 ], [ 16.352376299517285, 49.419223950849059 ], [ 16.353698445535318, 49.419580207049528 ], [ 16.355047441427118, 49.419890959868006 ], [ 16.356419589688723, 49.420155358424282 ], [ 16.357811129357117, 49.42037267877469 ], [ 16.3592182463188, 49.420542325888078 ], [ 16.360637083763983, 49.420663835269849 ], [ 16.362063752757848, 49.420736874229746 ], [ 16.363494342899855, 49.420761242789723 ], [ 16.364924933041866, 49.420736874229746 ], [ 16.366351602035731, 49.420663835269849 ], [ 16.36777043948091, 49.420542325888078 ], [ 16.36917755644259, 49.42037267877469 ], [ 16.370569096110987, 49.420155358424282 ], [ 16.371941244372589, 49.419890959868006 ], [ 16.373290240264396, 49.419580207049528 ], [ 16.374612386282429, 49.419223950849059 ], [ 16.375904058516351, 49.418823166760667 ], [ 16.377161716582364, 49.41837895222924 ], [ 16.378381913327118, 49.417892523654274 ], [ 16.379561304276155, 49.417365213068521 ], [ 16.380696656800858, 49.416798464500509 ], [ 16.381784858978875, 49.41619383003075 ], [ 16.38282292812368, 49.415552965552166 ], [ 16.3838080189599, 49.414877626246515 ], [ 16.384737431422025, 49.414169661788613 ], [ 16.385608618055102, 49.413431011291706 ], [ 16.38641919099712, 49.412663698007471 ], [ 16.387166928523992, 49.411869823795094 ], [ 16.387849781139128, 49.411051563374357 ], [ 16.388465877190974, 49.410211158378452 ], [ 16.389013528003083, 49.409350911222518 ], [ 16.389491232502635, 49.40847317880467 ], [ 16.389897681334812, 49.407580366056656 ], [ 16.390231760451613, 49.406674919361677 ], [ 16.390492554165395, 49.405759319857211 ], [ 16.390679347658725, 49.404836076641374 ], [ 16.390791628943617, 49.403907719901049 ], [ 16.390829090264873, 49.402976793980748 ] ] ] } },
{ "type": "Feature", "properties": { "name": "Borač", "feature_type": "mrr", "metric_roundness": 47.0, "metric_rectangularity": 54.11, "metric_mobile_fit": 50.5, "metric_aspect_ratio": 1.057, "metric_area_km2": 13.67 }, "geometry": { "type": "Polygon", "coordinates": [ [ [ 16.3364095, 49.4053765 ], [ 16.382051610001483, 49.417884924295862 ], [ 16.398025926722074, 49.393207828417005 ], [ 16.352383828418759, 49.380693117300027 ], [ 16.3364095, 49.4053765 ] ] ] } }
]
}
