{
"type": "FeatureCollection",
"name": "bot",
"crs": { "type": "name", "properties": { "name": "urn:ogc:def:crs:OGC:1.3:CRS84" } },
"features": [
{ "type": "Feature", "properties": { "name": "Bot", "feature_type": "entity", "metric_roundness": 62.52, "metric_rectangularity": 74.15, "metric_mobile_fit": 68.57, "metric_aspect_ratio": 0.877, "metric_area_km2": 61.04 }, "geometry": { "type": "Polygon", "coordinates": [ [ [ 0.3349429, 41.035722799999981 ], [ 0.336961, 41.0305984 ], [ 0.3343013, 41.023601499999984 ], [ 0.3375225, 41.0170239 ], [ 0.3353425, 41.008345 ], [ 0.3646568, 41.002719 ], [ 0.3651246, 41.0002193 ], [ 0.351035, 40.986622399999987 ], [ 0.3758045, 40.975347 ], [ 0.3967957, 40.987558899999989 ], [ 0.4069262, 41.0012507 ], [ 0.417898, 41.0080696 ], [ 0.4204195, 41.006786499999983 ], [ 0.4179755, 41.010109 ], [ 0.414505, 41.0128715 ], [ 0.394069, 41.032604 ], [ 0.389784, 41.037170499999988 ], [ 0.38085, 41.0441245 ], [ 0.3779745, 41.0479085 ], [ 0.367763, 41.0494615 ], [ 0.363663, 41.049301 ], [ 0.3602115, 41.04834 ], [ 0.3421775, 41.0438815 ], [ 0.3349429, 41.035722799999981 ] ] ] } },
{ "type": "Feature", "properties": { "name": "Bot", "feature_type": "circle", "metric_roundness": 62.52, "metric_rectangularity": 74.15, "metric_mobile_fit": 68.57, "metric_aspect_ratio": 0.877, "metric_area_km2": 61.04 }, "geometry": { "type": "Polygon", "coordinates": [ [ [ 0.421096535662645, 41.01298004635759 ], [ 0.421027888781945, 41.011001921130116 ], [ 0.420822136296171, 41.009029158658159 ], [ 0.420479842158586, 41.00706716687629 ], [ 0.420001944573629, 41.00512132467464 ], [ 0.419389753425362, 41.003196967142436 ], [ 0.418644946687168, 41.001299370926624 ], [ 0.417769565822547, 40.999433739745768 ], [ 0.416766010189602, 40.997605190099108 ], [ 0.415637030464565, 40.995818737210534 ], [ 0.41438572110239, 40.994079281246044 ], [ 0.41301551185506, 40.992391593843024 ], [ 0.41153015837088, 40.990760304988733 ], [ 0.409933731900505, 40.989189890284287 ], [ 0.408230608137924, 40.987684658629668 ], [ 0.406425455226987, 40.986248740364033 ], [ 0.404523220966348, 40.984886075894266 ], [ 0.402529119247894, 40.983600404843649 ], [ 0.400448615765826, 40.982395255750788 ], [ 0.398287413035574, 40.981273936347698 ], [ 0.396051434763599, 40.980239524444251 ], [ 0.393746809610924, 40.97929485944443 ], [ 0.391379854394898, 40.97844253451823 ], [ 0.388957056775246, 40.977684889451133 ], [ 0.386485057471834, 40.977024004191257 ], [ 0.383970632062928, 40.976461693112235 ], [ 0.381420672413797, 40.975999500008058 ], [ 0.378842167786595, 40.975638693833808 ], [ 0.376242185683274, 40.975380265204336 ], [ 0.373627852474058, 40.975224923660832 ], [ 0.371006333864553, 40.975173095712755 ], [ 0.368384815255048, 40.975224923660832 ], [ 0.365770482045832, 40.975380265204336 ], [ 0.363170499942511, 40.975638693833808 ], [ 0.360591995315309, 40.975999500008058 ], [ 0.358042035666178, 40.976461693112235 ], [ 0.355527610257272, 40.977024004191257 ], [ 0.35305561095386, 40.977684889451133 ], [ 0.350632813334207, 40.97844253451823 ], [ 0.348265858118182, 40.97929485944443 ], [ 0.345961232965507, 40.980239524444251 ], [ 0.343725254693532, 40.981273936347698 ], [ 0.34156405196328, 40.982395255750788 ], [ 0.339483548481212, 40.983600404843649 ], [ 0.337489446762758, 40.984886075894266 ], [ 0.335587212502119, 40.986248740364033 ], [ 0.333782059591182, 40.987684658629668 ], [ 0.332078935828601, 40.989189890284287 ], [ 0.330482509358226, 40.990760304988733 ], [ 0.328997155874046, 40.992391593843024 ], [ 0.327626946626716, 40.994079281246044 ], [ 0.326375637264541, 40.995818737210534 ], [ 0.325246657539504, 40.997605190099108 ], [ 0.324243101906559, 40.999433739745768 ], [ 0.323367721041938, 41.001299370926624 ], [ 0.322622914303744, 41.003196967142436 ], [ 0.322010723155477, 41.00512132467464 ], [ 0.321532825570519, 41.00706716687629 ], [ 0.321190531432935, 41.009029158658159 ], [ 0.320984778947161, 41.011001921130116 ], [ 0.320916132066461, 41.01298004635759 ], [ 0.320984778947161, 41.014958112192275 ], [ 0.321190531432935, 41.016930697136623 ], [ 0.321532825570519, 41.018892395201064 ], [ 0.322010723155477, 41.020837830713518 ], [ 0.322622914303744, 41.02276167304052 ], [ 0.323367721041938, 41.024658651179813 ], [ 0.324243101906559, 41.026523568184643 ], [ 0.325246657539504, 41.028351315380412 ], [ 0.326375637264541, 41.03013688633505 ], [ 0.327626946626716, 41.031875390545231 ], [ 0.328997155874046, 41.033562066801167 ], [ 0.330482509358226, 41.035192296193955 ], [ 0.332078935828601, 41.036761614730167 ], [ 0.333782059591182, 41.038265725519672 ], [ 0.335587212502119, 41.039700510503749 ], [ 0.337489446762758, 41.041062041691951 ], [ 0.339483548481212, 41.042346591877504 ], [ 0.34156405196328, 41.043550644802231 ], [ 0.343725254693532, 41.044670904743946 ], [ 0.345961232965507, 41.04570430550045 ], [ 0.348265858118182, 41.046648018746112 ], [ 0.350632813334207, 41.047499461738553 ], [ 0.35305561095386, 41.048256304354929 ], [ 0.355527610257272, 41.048916475438944 ], [ 0.358042035666178, 41.049478168441624 ], [ 0.360591995315309, 41.049939846340735 ], [ 0.363170499942511, 41.050300245825909 ], [ 0.365770482045832, 41.050558380738032 ], [ 0.368384815255048, 41.050713544753975 ], [ 0.371006333864553, 41.050765313309284 ], [ 0.373627852474058, 41.050713544753975 ], [ 0.376242185683274, 41.050558380738032 ], [ 0.378842167786595, 41.050300245825909 ], [ 0.381420672413797, 41.049939846340735 ], [ 0.383970632062928, 41.049478168441624 ], [ 0.386485057471834, 41.048916475438944 ], [ 0.388957056775246, 41.048256304354929 ], [ 0.391379854394898, 41.047499461738553 ], [ 0.393746809610924, 41.046648018746112 ], [ 0.396051434763599, 41.04570430550045 ], [ 0.398287413035574, 41.044670904743946 ], [ 0.400448615765826, 41.043550644802231 ], [ 0.402529119247894, 41.042346591877504 ], [ 0.404523220966348, 41.041062041691951 ], [ 0.406425455226987, 41.039700510503749 ], [ 0.408230608137924, 41.038265725519672 ], [ 0.409933731900505, 41.036761614730167 ], [ 0.41153015837088, 41.035192296193955 ], [ 0.41301551185506, 41.033562066801167 ], [ 0.41438572110239, 41.031875390545231 ], [ 0.415637030464565, 41.03013688633505 ], [ 0.416766010189602, 41.028351315380412 ], [ 0.417769565822547, 41.026523568184643 ], [ 0.418644946687168, 41.024658651179813 ], [ 0.419389753425362, 41.02276167304052 ], [ 0.420001944573629, 41.020837830713518 ], [ 0.420479842158586, 41.018892395201064 ], [ 0.420822136296171, 41.016930697136623 ], [ 0.421027888781945, 41.014958112192275 ], [ 0.421096535662645, 41.01298004635759 ] ] ] } },
{ "type": "Feature", "properties": { "name": "Bot", "feature_type": "mrr", "metric_roundness": 62.52, "metric_rectangularity": 74.15, "metric_mobile_fit": 68.57, "metric_aspect_ratio": 0.877, "metric_area_km2": 61.04 }, "geometry": { "type": "Polygon", "coordinates": [ [ [ 0.367283117501375, 41.058761490169665 ], [ 0.424404369511332, 41.003936252582164 ], [ 0.367905518102831, 40.970417003257808 ], [ 0.310784266092874, 41.025270132125264 ], [ 0.367283117501375, 41.058761490169665 ] ] ] } }
]
}
