{
"type": "FeatureCollection",
"name": "botkyrka",
"crs": { "type": "name", "properties": { "name": "urn:ogc:def:crs:OGC:1.3:CRS84" } },
"features": [
{ "type": "Feature", "properties": { "name": "Botkyrka", "feature_type": "entity", "metric_roundness": 40.57, "metric_rectangularity": 50.98, "metric_mobile_fit": 83.99, "metric_aspect_ratio": 0.723, "metric_area_km2": 794.43 }, "geometry": { "type": "Polygon", "coordinates": [ [ [ 17.738767, 59.172626599999987 ], [ 17.7352251, 59.169039799999986 ], [ 17.7386712, 59.163049899999983 ], [ 17.7253741, 59.1475891 ], [ 17.6861355, 59.1335365 ], [ 17.6934434, 59.114996499999982 ], [ 17.7063441, 59.101676699999985 ], [ 17.6987002, 59.096763499999973 ], [ 17.6808088, 59.098137 ], [ 17.6937875, 59.0927456 ], [ 17.6849374, 59.08662349999998 ], [ 17.6838901, 59.076769299999981 ], [ 17.6885937, 59.0711327 ], [ 17.6872885, 59.0658846 ], [ 17.6942316, 59.053253899999987 ], [ 17.7078511, 59.0622033 ], [ 17.7201492, 59.0616801 ], [ 17.724226, 59.0577771 ], [ 17.7292312, 59.0624423 ], [ 17.7379257, 59.062401099999988 ], [ 17.7332552, 59.0756792 ], [ 17.7377009, 59.079884 ], [ 17.7393363, 59.087641399999981 ], [ 17.7351443, 59.0978084 ], [ 17.7554562, 59.1064113 ], [ 17.7694151, 59.116119699999985 ], [ 17.7732546, 59.1158728 ], [ 17.7696951, 59.103074199999988 ], [ 17.7835436, 59.0967591 ], [ 17.7818065, 59.0928955 ], [ 17.7910407, 59.0902009 ], [ 17.8206505, 59.0940297 ], [ 17.8367515, 59.088111199999986 ], [ 17.8700913, 59.085666199999984 ], [ 17.9090805, 59.102130899999985 ], [ 17.9102599, 59.105052399999984 ], [ 17.9073987, 59.108644499999983 ], [ 17.9120261, 59.1117646 ], [ 17.9134012, 59.1174467 ], [ 17.9224275, 59.12058649999998 ], [ 17.914959, 59.128921499999983 ], [ 17.920833, 59.132942 ], [ 17.9253695, 59.1362345 ], [ 17.9300805, 59.142624 ], [ 17.9429835, 59.143551 ], [ 17.9649885, 59.15161149999998 ], [ 17.9682005, 59.1526335 ], [ 17.984373, 59.1573485 ], [ 17.9722522, 59.168053799999988 ], [ 17.9704907, 59.177649199999983 ], [ 17.9643921, 59.1877661 ], [ 17.9489972, 59.190659399999987 ], [ 17.938838, 59.191832599999984 ], [ 17.934206, 59.196073799999986 ], [ 17.9297233, 59.204405199999989 ], [ 17.928325, 59.22143089999998 ], [ 17.9202546, 59.226859799999986 ], [ 17.8767067, 59.224562399999982 ], [ 17.8783311, 59.232036199999989 ], [ 17.8737077, 59.2385864 ], [ 17.8716876, 59.2591479 ], [ 17.856701, 59.2676475 ], [ 17.8301552, 59.262139199999986 ], [ 17.7895965, 59.262133899999981 ], [ 17.777321, 59.26075419999998 ], [ 17.7638874, 59.266573299999983 ], [ 17.7431469, 59.268622699999987 ], [ 17.731148, 59.266674 ], [ 17.737494, 59.250742199999983 ], [ 17.7694755, 59.238614399999989 ], [ 17.7722779, 59.226418599999988 ], [ 17.7895943, 59.2180707 ], [ 17.7929126, 59.1996402 ], [ 17.796403, 59.195000199999974 ], [ 17.7902711, 59.1910626 ], [ 17.7379835, 59.1807745 ], [ 17.738767, 59.172626599999987 ] ] ] } },
{ "type": "Feature", "properties": { "name": "Botkyrka", "feature_type": "circle", "metric_roundness": 40.57, "metric_rectangularity": 50.98, "metric_mobile_fit": 83.99, "metric_aspect_ratio": 0.723, "metric_area_km2": 794.43 }, "geometry": { "type": "Polygon", "coordinates": [ [ [ 17.999800973458512, 59.160618656938617 ], [ 17.999493530585191, 59.154599419877592 ], [ 17.998572044644778, 59.148595626415919 ], [ 17.997039041366186, 59.142623745419414 ], [ 17.994898722604844, 59.136700166799272 ], [ 17.992156954825699, 59.130841156355487 ], [ 17.988821253023659, 59.125062810869643 ], [ 17.984900760125505, 59.119381013573559 ], [ 17.980406221929755, 59.113811390120354 ], [ 17.975349957653201, 59.108369265184244 ], [ 17.969745826164754, 59.103069619813745 ], [ 17.9636091879993, 59.097927049662822 ], [ 17.956956863255488, 59.09295572422166 ], [ 17.949807085493049, 59.088169347167515 ], [ 17.942179451755852, 59.083581117953109 ], [ 17.934094868857784, 59.079203694747136 ], [ 17.925575496078608, 59.075049158838176 ], [ 17.916644684426945, 59.07112898060948 ], [ 17.907326912636758, 59.067453987187832 ], [ 17.897647720072854, 59.064034331865258 ], [ 17.887633636729255, 59.060879465387316 ], [ 17.877312110512339, 59.057998109196241 ], [ 17.866711432008021, 59.055398230711852 ], [ 17.855860656939239, 59.053087020726707 ], [ 17.844789526526231, 59.051070872986202 ], [ 17.833528385967917, 59.049355366017124 ], [ 17.822108101267805, 59.047945247261723 ], [ 17.810559974632454, 59.046844419567151 ], [ 17.798915658674268, 59.046055930072725 ], [ 17.787207069653899, 59.045581961529997 ], [ 17.7754663, 59.045423826083301 ], [ 17.7637255303461, 59.045581961529997 ], [ 17.752016941325728, 59.046055930072725 ], [ 17.740372625367538, 59.046844419567151 ], [ 17.728824498732187, 59.047945247261723 ], [ 17.717404214032083, 59.049355366017124 ], [ 17.706143073473765, 59.051070872986202 ], [ 17.695071943060757, 59.053087020726707 ], [ 17.684221167991979, 59.055398230711852 ], [ 17.673620489487661, 59.057998109196241 ], [ 17.663298963270744, 59.060879465387316 ], [ 17.653284879927146, 59.064034331865258 ], [ 17.643605687363237, 59.067453987187832 ], [ 17.634287915573051, 59.07112898060948 ], [ 17.625357103921388, 59.075049158838176 ], [ 17.616837731142216, 59.079203694747136 ], [ 17.608753148244144, 59.083581117953109 ], [ 17.601125514506951, 59.088169347167515 ], [ 17.593975736744508, 59.09295572422166 ], [ 17.5873234120007, 59.097927049662822 ], [ 17.581186773835242, 59.103069619813745 ], [ 17.575582642346799, 59.108369265184244 ], [ 17.570526378070241, 59.113811390120354 ], [ 17.566031839874494, 59.119381013573559 ], [ 17.562111346976334, 59.125062810869643 ], [ 17.558775645174297, 59.130841156355487 ], [ 17.556033877395155, 59.136700166799272 ], [ 17.55389355863381, 59.142623745419414 ], [ 17.552360555355218, 59.148595626415919 ], [ 17.551439069414808, 59.154599419877592 ], [ 17.551131626541487, 59.160618656938617 ], [ 17.551439069414808, 59.166636835058078 ], [ 17.552360555355218, 59.172637463297178 ], [ 17.55389355863381, 59.178604107468978 ], [ 17.556033877395155, 59.184520435038174 ], [ 17.558775645174297, 59.190370259648887 ], [ 17.562111346976334, 59.196137585161708 ], [ 17.566031839874494, 59.201806649082194 ], [ 17.570526378070241, 59.207361965266912 ], [ 17.575582642346799, 59.21278836579539 ], [ 17.581186773835242, 59.218071041899215 ], [ 17.5873234120007, 59.223195583843498 ], [ 17.593975736744508, 59.228148019659045 ], [ 17.601125514506951, 59.232914852627452 ], [ 17.608753148244144, 59.237483097425226 ], [ 17.616837731142216, 59.24184031483717 ], [ 17.625357103921388, 59.245974644953669 ], [ 17.634287915573051, 59.249874838770324 ], [ 17.643605687363237, 59.253530288113694 ], [ 17.653284879927146, 59.256931053820615 ], [ 17.663298963270744, 59.260067892103947 ], [ 17.673620489487661, 59.262932279041941 ], [ 17.684221167991979, 59.265516433133264 ], [ 17.695071943060757, 59.267813335864837 ], [ 17.706143073473765, 59.269816750244289 ], [ 17.717404214032083, 59.271521237253957 ], [ 17.728824498732187, 59.272922170188359 ], [ 17.740372625367538, 59.274015746841897 ], [ 17.752016941325728, 59.274798999519071 ], [ 17.7637255303461, 59.275269802843802 ], [ 17.7754663, 59.275426879350526 ], [ 17.787207069653896, 59.275269802843802 ], [ 17.798915658674268, 59.274798999519071 ], [ 17.810559974632454, 59.274015746841897 ], [ 17.822108101267805, 59.272922170188359 ], [ 17.833528385967917, 59.271521237253957 ], [ 17.844789526526231, 59.269816750244289 ], [ 17.855860656939239, 59.267813335864837 ], [ 17.866711432008021, 59.265516433133264 ], [ 17.877312110512339, 59.262932279041941 ], [ 17.887633636729255, 59.260067892103947 ], [ 17.897647720072854, 59.256931053820615 ], [ 17.907326912636758, 59.253530288113694 ], [ 17.916644684426945, 59.249874838770324 ], [ 17.925575496078608, 59.245974644953669 ], [ 17.934094868857784, 59.24184031483717 ], [ 17.942179451755852, 59.237483097425226 ], [ 17.949807085493049, 59.232914852627452 ], [ 17.956956863255485, 59.228148019659045 ], [ 17.963609187999296, 59.223195583843498 ], [ 17.969745826164754, 59.218071041899215 ], [ 17.975349957653201, 59.21278836579539 ], [ 17.980406221929755, 59.207361965266912 ], [ 17.984900760125505, 59.201806649082194 ], [ 17.988821253023659, 59.196137585161708 ], [ 17.992156954825699, 59.190370259648887 ], [ 17.994898722604844, 59.184520435038174 ], [ 17.997039041366186, 59.178604107468978 ], [ 17.998572044644778, 59.172637463297178 ], [ 17.999493530585191, 59.166636835058078 ], [ 17.999800973458512, 59.160618656938617 ] ] ] } },
{ "type": "Feature", "properties": { "name": "Botkyrka", "feature_type": "mrr", "metric_roundness": 40.57, "metric_rectangularity": 50.98, "metric_mobile_fit": 83.99, "metric_aspect_ratio": 0.723, "metric_area_km2": 794.43 }, "geometry": { "type": "Polygon", "coordinates": [ [ [ 17.660100136148834, 59.056292262754958 ], [ 17.735121411750722, 59.278401602634609 ], [ 18.016877200917406, 59.253474219327721 ], [ 17.941855925315522, 59.031202481244449 ], [ 17.660100136148834, 59.056292262754958 ] ] ] } }
]
}
