{
"type": "FeatureCollection",
"name": "bottmingen",
"crs": { "type": "name", "properties": { "name": "urn:ogc:def:crs:OGC:1.3:CRS84" } },
"features": [
{ "type": "Feature", "properties": { "name": "Bottmingen", "metric_roundness": 52.88, "metric_rectangularity": 61.57, "metric_mobile_fit": 56.01, "metric_aspect_ratio": 1.002, "metric_area_km2": 6.3 }, "geometry": { "type": "Polygon", "coordinates": [ [ [ 7.5670974, 47.518675299999984 ], [ 7.581417, 47.510909 ], [ 7.582549, 47.512319499999982 ], [ 7.5845785, 47.5118225 ], [ 7.586354, 47.5201755 ], [ 7.589264, 47.520691 ], [ 7.5880047, 47.5275329 ], [ 7.583701, 47.5308905 ], [ 7.5830545, 47.527455499999988 ], [ 7.580399, 47.527549 ], [ 7.5795135, 47.529124 ], [ 7.5636455, 47.529367 ], [ 7.560896, 47.5291 ], [ 7.5596045, 47.527671 ], [ 7.5670974, 47.518675299999984 ] ] ] } }
]
}
