{
"type": "FeatureCollection",
"name": "boulay_moselle",
"crs": { "type": "name", "properties": { "name": "urn:ogc:def:crs:OGC:1.3:CRS84" } },
"features": [
{ "type": "Feature", "properties": { "name": "Boulay-Moselle", "feature_type": "entity", "metric_roundness": 54.48, "metric_rectangularity": 69.34, "metric_mobile_fit": 87.26, "metric_aspect_ratio": 0.69, "metric_area_km2": 45.64 }, "geometry": { "type": "Polygon", "coordinates": [ [ [ 6.5195913, 49.148218299999989 ], [ 6.5276725, 49.1721075 ], [ 6.5278975, 49.1756245 ], [ 6.52644, 49.181049499999986 ], [ 6.5207675, 49.190746 ], [ 6.517866, 49.19458 ], [ 6.5164025, 49.1982565 ], [ 6.4861625, 49.204149 ], [ 6.4693015, 49.19757449999998 ], [ 6.4662669, 49.1948626 ], [ 6.4683896, 49.189205099999988 ], [ 6.4667918, 49.177867 ], [ 6.4723305, 49.170533 ], [ 6.487427, 49.1621746 ], [ 6.4961721, 49.162387 ], [ 6.4987982, 49.1572538 ], [ 6.4967724, 49.1536856 ], [ 6.500123, 49.148879199999989 ], [ 6.511295, 49.145751499999982 ], [ 6.5195913, 49.148218299999989 ] ] ] } },
{ "type": "Feature", "properties": { "name": "Boulay-Moselle", "feature_type": "circle", "metric_roundness": 54.48, "metric_rectangularity": 69.34, "metric_mobile_fit": 87.26, "metric_aspect_ratio": 0.69, "metric_area_km2": 45.64 }, "geometry": { "type": "Polygon", "coordinates": [ [ [ 6.545126255944664, 49.174958861768623 ], [ 6.545062669775293, 49.173371359382948 ], [ 6.544872085552448, 49.171788157529036 ], [ 6.544555025654239, 49.170213596277776 ], [ 6.544112359119805, 49.168651992425907 ], [ 6.543545299267352, 49.167107627652662 ], [ 6.542855400368516, 49.165584736768245 ], [ 6.542044553388226, 49.164087496086729 ], [ 6.541114980801694, 49.162620011955141 ], [ 6.540069230502764, 49.16118630947075 ], [ 6.538910168820318, 49.159790321417653 ], [ 6.537640972661863, 49.15843587745313 ], [ 6.536265120805846, 49.157126693574256 ], [ 6.534786384366571, 49.15586636189353 ], [ 6.533208816457834, 49.154658340752235 ], [ 6.531536741083615, 49.153505945199171 ], [ 6.529774741286292, 49.15241233786098 ], [ 6.527927646584834, 49.151380520230006 ], [ 6.526000519737425, 49.150413324393568 ], [ 6.523998642864806, 49.149513405228241 ], [ 6.521927502972332, 49.148683233080654 ], [ 6.519792776910486, 49.147925086955659 ], [ 6.517600315815022, 49.147241048230612 ], [ 6.515356129069405, 49.146632994913816 ], [ 6.513066367833513, 49.146102596462988 ], [ 6.510737308183735, 49.145651309178369 ], [ 6.508375333910681, 49.145280372183606 ], [ 6.505986919021653, 49.144990804005538 ], [ 6.503578609995847, 49.144783399762566 ], [ 6.5011570078409, 49.144658728969667 ], [ 6.49872875, 49.14461713396598 ], [ 6.496300492159098, 49.144658728969667 ], [ 6.493878890004152, 49.144783399762566 ], [ 6.491470580978344, 49.144990804005538 ], [ 6.489082166089317, 49.145280372183606 ], [ 6.486720191816263, 49.145651309178369 ], [ 6.484391132166485, 49.146102596462988 ], [ 6.482101370930594, 49.146632994913816 ], [ 6.479857184184977, 49.147241048230612 ], [ 6.477664723089513, 49.147925086955659 ], [ 6.475529997027667, 49.148683233080654 ], [ 6.473458857135192, 49.149513405228241 ], [ 6.471456980262572, 49.150413324393568 ], [ 6.469529853415166, 49.151380520230006 ], [ 6.467682758713707, 49.15241233786098 ], [ 6.465920758916384, 49.153505945199171 ], [ 6.464248683542165, 49.154658340752235 ], [ 6.462671115633428, 49.15586636189353 ], [ 6.461192379194152, 49.157126693574256 ], [ 6.459816527338137, 49.15843587745313 ], [ 6.458547331179679, 49.159790321417653 ], [ 6.457388269497233, 49.16118630947075 ], [ 6.456342519198305, 49.162620011955141 ], [ 6.455412946611773, 49.164087496086729 ], [ 6.454602099631483, 49.165584736768245 ], [ 6.453912200732646, 49.167107627652662 ], [ 6.453345140880193, 49.168651992425907 ], [ 6.452902474345759, 49.170213596277776 ], [ 6.45258541444755, 49.171788157529036 ], [ 6.452394830224706, 49.173371359382948 ], [ 6.452331244055334, 49.174958861768623 ], [ 6.452394830224706, 49.17654631324362 ], [ 6.45258541444755, 49.178129362923357 ], [ 6.452902474345759, 49.179703672404145 ], [ 6.453345140880193, 49.181264927647717 ], [ 6.453912200732646, 49.182808850794267 ], [ 6.454602099631483, 49.184331211872141 ], [ 6.455412946611772, 49.185827840371942 ], [ 6.456342519198305, 49.187294636653832 ], [ 6.457388269497233, 49.188727583156769 ], [ 6.458547331179679, 49.19012275537937 ], [ 6.459816527338137, 49.191476332602726 ], [ 6.461192379194152, 49.192784608325979 ], [ 6.462671115633428, 49.194044000386583 ], [ 6.464248683542165, 49.195251060737917 ], [ 6.465920758916384, 49.196402484857821 ], [ 6.467682758713707, 49.197495120762838 ], [ 6.469529853415166, 49.198525977603886 ], [ 6.471456980262572, 49.199492233820237 ], [ 6.473458857135192, 49.200391244830016 ], [ 6.475529997027667, 49.201220550236499 ], [ 6.477664723089513, 49.201977880531061 ], [ 6.479857184184977, 49.20266116327474 ], [ 6.482101370930594, 49.203268528741916 ], [ 6.484391132166485, 49.203798315011106 ], [ 6.486720191816263, 49.204249072489262 ], [ 6.489082166089317, 49.204619567857392 ], [ 6.491470580978344, 49.204908787427229 ], [ 6.493878890004152, 49.205115939899763 ], [ 6.496300492159098, 49.205240458518503 ], [ 6.49872875, 49.205282002611547 ], [ 6.5011570078409, 49.205240458518503 ], [ 6.503578609995847, 49.205115939899763 ], [ 6.505986919021653, 49.204908787427229 ], [ 6.508375333910681, 49.204619567857392 ], [ 6.510737308183735, 49.204249072489262 ], [ 6.513066367833513, 49.203798315011106 ], [ 6.515356129069405, 49.203268528741916 ], [ 6.517600315815022, 49.20266116327474 ], [ 6.519792776910486, 49.201977880531061 ], [ 6.521927502972332, 49.201220550236499 ], [ 6.523998642864806, 49.200391244830016 ], [ 6.526000519737425, 49.199492233820237 ], [ 6.527927646584834, 49.198525977603886 ], [ 6.529774741286292, 49.197495120762838 ], [ 6.531536741083615, 49.196402484857821 ], [ 6.533208816457834, 49.195251060737917 ], [ 6.534786384366571, 49.194044000386583 ], [ 6.536265120805846, 49.192784608325979 ], [ 6.537640972661863, 49.191476332602726 ], [ 6.538910168820318, 49.19012275537937 ], [ 6.540069230502764, 49.188727583156769 ], [ 6.541114980801694, 49.187294636653832 ], [ 6.542044553388226, 49.185827840371942 ], [ 6.542855400368516, 49.184331211872141 ], [ 6.543545299267352, 49.182808850794267 ], [ 6.544112359119805, 49.181264927647717 ], [ 6.544555025654239, 49.179703672404145 ], [ 6.544872085552448, 49.178129362923357 ], [ 6.545062669775293, 49.17654631324362 ], [ 6.545126255944664, 49.174958861768623 ] ] ] } },
{ "type": "Feature", "properties": { "name": "Boulay-Moselle", "feature_type": "mrr", "metric_roundness": 54.48, "metric_rectangularity": 69.34, "metric_mobile_fit": 87.26, "metric_aspect_ratio": 0.69, "metric_area_km2": 45.64 }, "geometry": { "type": "Polygon", "coordinates": [ [ [ 6.509563144191794, 49.209977578971923 ], [ 6.542486183957219, 49.153529547519973 ], [ 6.488786951856246, 49.140137980677551 ], [ 6.455863912090819, 49.19660127677804 ], [ 6.509563144191794, 49.209977578971923 ] ] ] } }
]
}
