{
"type": "FeatureCollection",
"name": "boulange",
"crs": { "type": "name", "properties": { "name": "urn:ogc:def:crs:OGC:1.3:CRS84" } },
"features": [
{ "type": "Feature", "properties": { "name": "Boulange", "feature_type": "entity", "metric_roundness": 59.52, "metric_rectangularity": 68.82, "metric_mobile_fit": 71.4, "metric_aspect_ratio": 0.849, "metric_area_km2": 30.73 }, "geometry": { "type": "Polygon", "coordinates": [ [ [ 5.9709042, 49.394009699999984 ], [ 5.9621928, 49.393619 ], [ 5.9527245, 49.406351 ], [ 5.9479125, 49.4082483 ], [ 5.9334966, 49.40176049999998 ], [ 5.929674, 49.401484 ], [ 5.9334966, 49.386296499999972 ], [ 5.9351378, 49.3797757 ], [ 5.9334966, 49.37871089999998 ], [ 5.924775, 49.3730525 ], [ 5.9334966, 49.3697635 ], [ 5.9413257, 49.3616775 ], [ 5.9561225, 49.361591499999989 ], [ 5.9855915, 49.377895499999987 ], [ 5.9823655, 49.378047 ], [ 5.981661, 49.379777 ], [ 5.9795285, 49.379805499999989 ], [ 5.9781755, 49.382094499999987 ], [ 5.976141, 49.383505 ], [ 5.976877, 49.387854 ], [ 5.975134, 49.391243 ], [ 5.9709042, 49.394009699999984 ] ] ] } },
{ "type": "Feature", "properties": { "name": "Boulange", "feature_type": "circle", "metric_roundness": 59.52, "metric_rectangularity": 68.82, "metric_mobile_fit": 71.4, "metric_aspect_ratio": 0.849, "metric_area_km2": 30.73 }, "geometry": { "type": "Polygon", "coordinates": [ [ [ 5.987080587557475, 49.384606836394674 ], [ 5.98703066327062, 49.383365710249876 ], [ 5.986881027249052, 49.382127954724766 ], [ 5.986632089634705, 49.380896962805913 ], [ 5.986284532748281, 49.379676109193227 ], [ 5.985839309219042, 49.37846874104315 ], [ 5.985297639373736, 49.377278168784791 ], [ 5.984661007891761, 49.376107657033863 ], [ 5.983931159735754, 49.374960415630035 ], [ 5.983110095368779, 49.373839590822016 ], [ 5.982200065271198, 49.372748256624789 ], [ 5.98120356377225, 49.371689406373065 ], [ 5.980123322213278, 49.370665944494107 ], [ 5.97896230146131, 49.36968067852289 ], [ 5.977723683793524, 49.368736311381689 ], [ 5.976410864174854, 49.367835433945487 ], [ 5.975027440952619, 49.36698051791398 ], [ 5.973577205993713, 49.366173909009866 ], [ 5.972064134291352, 49.365417820522424 ], [ 5.970492373069902, 49.364714327214521 ], [ 5.968866230417618, 49.364065359609654 ], [ 5.967190163478477, 49.363472698675452 ], [ 5.965468766235458, 49.362937970918082 ], [ 5.963706756918753, 49.362462643901502 ], [ 5.96190896507342, 49.362048022204057 ], [ 5.960080318321947, 49.361695243823618 ], [ 5.958225828857972, 49.361405277041428 ], [ 5.95635057970821, 49.361178917753449 ], [ 5.954459710800235, 49.361016787276654 ], [ 5.952558404874289, 49.360919330636285 ], [ 5.950651873277759, 49.360886815339171 ], [ 5.94874534168123, 49.360919330636285 ], [ 5.946844035755285, 49.361016787276654 ], [ 5.944953166847309, 49.361178917753449 ], [ 5.943077917697546, 49.361405277041428 ], [ 5.941223428233571, 49.361695243823618 ], [ 5.939394781482099, 49.362048022204057 ], [ 5.937596989636766, 49.362462643901502 ], [ 5.935834980320061, 49.362937970918082 ], [ 5.934113583077042, 49.363472698675452 ], [ 5.932437516137901, 49.364065359609654 ], [ 5.930811373485617, 49.364714327214521 ], [ 5.929239612264167, 49.365417820522424 ], [ 5.927726540561806, 49.366173909009866 ], [ 5.9262763056029, 49.36698051791398 ], [ 5.924892882380665, 49.367835433945487 ], [ 5.923580062761994, 49.368736311381689 ], [ 5.922341445094209, 49.36968067852289 ], [ 5.92118042434224, 49.370665944494107 ], [ 5.920100182783268, 49.371689406373065 ], [ 5.91910368128432, 49.372748256624789 ], [ 5.91819365118674, 49.373839590822016 ], [ 5.917372586819765, 49.374960415630035 ], [ 5.916642738663757, 49.376107657033863 ], [ 5.916006107181782, 49.377278168784791 ], [ 5.915464437336477, 49.37846874104315 ], [ 5.915019213807239, 49.379676109193227 ], [ 5.914671656920814, 49.380896962805913 ], [ 5.914422719306467, 49.382127954724766 ], [ 5.9142730832849, 49.383365710249876 ], [ 5.914223158998044, 49.384606836394674 ], [ 5.9142730832849, 49.385847931190106 ], [ 5.914422719306467, 49.387085593010582 ], [ 5.914671656920814, 49.388316429896193 ], [ 5.915019213807239, 49.389537068845605 ], [ 5.915464437336477, 49.390744165054244 ], [ 5.916006107181782, 49.391934411072498 ], [ 5.916642738663757, 49.393104545858961 ], [ 5.917372586819765, 49.394251363704086 ], [ 5.91819365118674, 49.395371722999776 ], [ 5.91910368128432, 49.396462554831281 ], [ 5.920100182783268, 49.397520871367917 ], [ 5.92118042434224, 49.398543774029925 ], [ 5.922341445094209, 49.399528461409226 ], [ 5.923580062761994, 49.400472236922703 ], [ 5.924892882380665, 49.401372516177375 ], [ 5.9262763056029, 49.402226834027374 ], [ 5.927726540561806, 49.403032851303777 ], [ 5.929239612264167, 49.403788361199304 ], [ 5.930811373485617, 49.404491295290278 ], [ 5.932437516137901, 49.405139729180078 ], [ 5.934113583077042, 49.405731887748594 ], [ 5.935834980320061, 49.40626614999367 ], [ 5.937596989636766, 49.406741053451576 ], [ 5.939394781482099, 49.407155298184591 ], [ 5.941223428233571, 49.407507750324946 ], [ 5.943077917697546, 49.407797445165727 ], [ 5.944953166847309, 49.408023589790446 ], [ 5.946844035755285, 49.408185565234014 ], [ 5.94874534168123, 49.408282928169768 ], [ 5.950651873277759, 49.408315412117517 ], [ 5.952558404874289, 49.408282928169768 ], [ 5.954459710800235, 49.408185565234014 ], [ 5.95635057970821, 49.408023589790446 ], [ 5.958225828857972, 49.407797445165727 ], [ 5.960080318321947, 49.407507750324946 ], [ 5.96190896507342, 49.407155298184591 ], [ 5.963706756918753, 49.406741053451576 ], [ 5.965468766235458, 49.40626614999367 ], [ 5.967190163478477, 49.405731887748594 ], [ 5.968866230417618, 49.405139729180078 ], [ 5.970492373069902, 49.404491295290278 ], [ 5.972064134291352, 49.403788361199304 ], [ 5.973577205993713, 49.403032851303777 ], [ 5.975027440952619, 49.402226834027374 ], [ 5.976410864174854, 49.401372516177375 ], [ 5.977723683793524, 49.400472236922703 ], [ 5.97896230146131, 49.399528461409226 ], [ 5.980123322213278, 49.398543774029925 ], [ 5.98120356377225, 49.397520871367917 ], [ 5.982200065271198, 49.396462554831281 ], [ 5.983110095368779, 49.395371722999776 ], [ 5.983931159735754, 49.394251363704086 ], [ 5.984661007891761, 49.393104545858961 ], [ 5.985297639373736, 49.391934411072498 ], [ 5.985839309219042, 49.390744165054244 ], [ 5.986284532748281, 49.389537068845605 ], [ 5.986632089634705, 49.388316429896193 ], [ 5.986881027249052, 49.387085593010582 ], [ 5.98703066327062, 49.385847931190106 ], [ 5.987080587557475, 49.384606836394674 ] ] ] } },
{ "type": "Feature", "properties": { "name": "Boulange", "feature_type": "mrr", "metric_roundness": 59.52, "metric_rectangularity": 68.82, "metric_mobile_fit": 71.4, "metric_aspect_ratio": 0.849, "metric_area_km2": 30.73 }, "geometry": { "type": "Polygon", "coordinates": [ [ [ 5.98963543835214, 49.380132423960973 ], [ 5.946601321699873, 49.356322662403159 ], [ 5.905276919035302, 49.387992949810133 ], [ 5.948311035687568, 49.411787373624342 ], [ 5.98963543835214, 49.380132423960973 ] ] ] } }
]
}
