{
"type": "FeatureCollection",
"name": "bourbriac",
"crs": { "type": "name", "properties": { "name": "urn:ogc:def:crs:OGC:1.3:CRS84" } },
"features": [
{ "type": "Feature", "properties": { "name": "Bourbriac", "metric_roundness": 62.61, "metric_rectangularity": 70.36, "metric_mobile_fit": 71.78, "metric_aspect_ratio": 0.845, "metric_area_km2": 166.68 }, "geometry": { "type": "Polygon", "coordinates": [ [ [ -3.2167591, 48.517694199999987 ], [ -3.2253125, 48.511753899999988 ], [ -3.2439385, 48.508777 ], [ -3.249452, 48.499216 ], [ -3.2409121, 48.4916036 ], [ -3.2514832, 48.4826786 ], [ -3.2501532, 48.4622322 ], [ -3.2625508, 48.456689499999989 ], [ -3.2635125, 48.452088 ], [ -3.2567058, 48.437713399999986 ], [ -3.258714, 48.433478499999978 ], [ -3.2531021, 48.430927599999976 ], [ -3.2346543, 48.432448 ], [ -3.2175601, 48.4210941 ], [ -3.2019572, 48.417422 ], [ -3.18305, 48.417001 ], [ -3.1784934, 48.4129484 ], [ -3.1644535, 48.421556499999987 ], [ -3.1695671, 48.4370884 ], [ -3.1611979, 48.445103799999984 ], [ -3.1428767, 48.4495025 ], [ -3.130078, 48.469566499999985 ], [ -3.1418365, 48.471861299999979 ], [ -3.1506787, 48.481666399999988 ], [ -3.143575, 48.499443799999987 ], [ -3.1461057, 48.5045371 ], [ -3.144044, 48.51105 ], [ -3.1667102, 48.510862599999975 ], [ -3.184275, 48.499880199999986 ], [ -3.2024497, 48.499911 ], [ -3.2060341, 48.5031513 ], [ -3.2033334, 48.509167199999986 ], [ -3.2063665, 48.517432 ], [ -3.2167591, 48.517694199999987 ] ] ] } }
]
}
