{
"type": "FeatureCollection",
"name": "bourguignons",
"crs": { "type": "name", "properties": { "name": "urn:ogc:def:crs:OGC:1.3:CRS84" } },
"features": [
{ "type": "Feature", "properties": { "name": "Bourguignons", "feature_type": "entity", "metric_roundness": 45.61, "metric_rectangularity": 59.26, "metric_mobile_fit": 47.39, "metric_aspect_ratio": 1.089, "metric_area_km2": 37.92 }, "geometry": { "type": "Polygon", "coordinates": [ [ [ 4.3438508, 48.151523199999986 ], [ 4.335267, 48.141934499999977 ], [ 4.3355386, 48.1341429 ], [ 4.329364, 48.1212435 ], [ 4.340271, 48.1163035 ], [ 4.3489361, 48.117118699999985 ], [ 4.3577333, 48.1244733 ], [ 4.3673915, 48.1254057 ], [ 4.3937941, 48.1383417 ], [ 4.406095, 48.1488485 ], [ 4.4090345, 48.151809499999985 ], [ 4.4065645, 48.153967499999986 ], [ 4.405835, 48.155914 ], [ 4.4005285, 48.1560075 ], [ 4.397945, 48.155243499999983 ], [ 4.3944185, 48.156159 ], [ 4.3715211, 48.153791 ], [ 4.3648916, 48.1570557 ], [ 4.361425, 48.165142499999988 ], [ 4.352808, 48.164796 ], [ 4.342383, 48.161151499999988 ], [ 4.3438508, 48.151523199999986 ] ] ] } },
{ "type": "Feature", "properties": { "name": "Bourguignons", "feature_type": "circle", "metric_roundness": 45.61, "metric_rectangularity": 59.26, "metric_mobile_fit": 47.39, "metric_aspect_ratio": 1.089, "metric_area_km2": 37.92 }, "geometry": { "type": "Polygon", "coordinates": [ [ [ 4.413824568970869, 48.138581676733068 ], [ 4.413761219120377, 48.136967221559303 ], [ 4.413571343206438, 48.135357140935042 ], [ 4.413255461665734, 48.13375584860237 ], [ 4.41281444030761, 48.132167734623273 ], [ 4.412249487940955, 48.130597153335465 ], [ 4.411562153060937, 48.129048411401797 ], [ 4.410754319604687, 48.127525755986234 ], [ 4.409828201787553, 48.12603336308883 ], [ 4.408786338034101, 48.124575326072204 ], [ 4.40763158402046, 48.123155644411014 ], [ 4.406367104847114, 48.121778212695716 ], [ 4.404996366363587, 48.120446809921241 ], [ 4.40352312566878, 48.119165089090053 ], [ 4.401951420813036, 48.117936567158793 ], [ 4.400285559730117, 48.116764615356367 ], [ 4.398530108429457, 48.115652449900544 ], [ 4.396689878481053, 48.114603123138892 ], [ 4.394769913827279, 48.113619515138936 ], [ 4.392775476957797, 48.112704325750926 ], [ 4.390712034485434, 48.111860067165608 ], [ 4.388585242162579, 48.111089056987673 ], [ 4.386400929379158, 48.110393411844512 ], [ 4.38416508318468, 48.109775041548019 ], [ 4.381883831878152, 48.10923564382599 ], [ 4.379563428210838, 48.10877669963795 ], [ 4.3772102322479, 48.108399469088425 ], [ 4.374830693935905, 48.108104987949297 ], [ 4.372431335423965, 48.107894064801002 ], [ 4.370018733186986, 48.107767278800637 ], [ 4.3675995, 48.107724978083219 ], [ 4.365180266813012, 48.107767278800637 ], [ 4.362767664576033, 48.107894064801002 ], [ 4.360368306064093, 48.108104987949297 ], [ 4.357988767752098, 48.108399469088425 ], [ 4.35563557178916, 48.10877669963795 ], [ 4.353315168121846, 48.10923564382599 ], [ 4.351033916815318, 48.109775041548019 ], [ 4.34879807062084, 48.110393411844512 ], [ 4.346613757837418, 48.111089056987673 ], [ 4.344486965514564, 48.111860067165608 ], [ 4.342423523042202, 48.112704325750926 ], [ 4.340429086172719, 48.113619515138936 ], [ 4.338509121518945, 48.114603123138892 ], [ 4.336668891570541, 48.115652449900544 ], [ 4.334913440269881, 48.116764615356367 ], [ 4.333247579186961, 48.117936567158793 ], [ 4.331675874331218, 48.119165089090053 ], [ 4.330202633636412, 48.120446809921241 ], [ 4.328831895152883, 48.121778212695716 ], [ 4.327567415979538, 48.123155644411014 ], [ 4.326412661965897, 48.124575326072204 ], [ 4.325370798212445, 48.12603336308883 ], [ 4.324444680395311, 48.127525755986234 ], [ 4.323636846939061, 48.129048411401797 ], [ 4.322949512059042, 48.130597153335465 ], [ 4.322384559692388, 48.132167734623273 ], [ 4.321943538334264, 48.13375584860237 ], [ 4.32162765679356, 48.135357140935042 ], [ 4.321437780879621, 48.136967221559303 ], [ 4.321374431029128, 48.138581676733068 ], [ 4.321437780879621, 48.14019608113869 ], [ 4.32162765679356, 48.141806010014761 ], [ 4.321943538334264, 48.143407051281777 ], [ 4.322384559692388, 48.144994817628493 ], [ 4.322949512059042, 48.146564958525914 ], [ 4.323636846939061, 48.148113172136199 ], [ 4.324444680395311, 48.149635217083819 ], [ 4.325370798212445, 48.151126924057124 ], [ 4.326412661965897, 48.152584207208626 ], [ 4.327567415979538, 48.154003075323175 ], [ 4.328831895152883, 48.155379642723702 ], [ 4.330202633636412, 48.156710139884893 ], [ 4.331675874331218, 48.157990923726373 ], [ 4.333247579186961, 48.159218487557368 ], [ 4.334913440269881, 48.160389470646081 ], [ 4.336668891570541, 48.161500667388225 ], [ 4.338509121518945, 48.162549036049619 ], [ 4.340429086172719, 48.163531707059917 ], [ 4.342423523042202, 48.164445990834707 ], [ 4.344486965514564, 48.165289385105318 ], [ 4.346613757837418, 48.166059581736704 ], [ 4.34879807062084, 48.166754473014819 ], [ 4.351033916815318, 48.167372157387312 ], [ 4.353315168121846, 48.16791094464147 ], [ 4.35563557178916, 48.168369360506205 ], [ 4.357988767752098, 48.168746150665413 ], [ 4.360368306064093, 48.169040284172219 ], [ 4.362767664576033, 48.169250956254913 ], [ 4.365180266813012, 48.169377590507104 ], [ 4.3675995, 48.169419840456392 ], [ 4.370018733186986, 48.169377590507104 ], [ 4.372431335423965, 48.169250956254913 ], [ 4.374830693935905, 48.169040284172219 ], [ 4.3772102322479, 48.168746150665413 ], [ 4.379563428210838, 48.168369360506205 ], [ 4.381883831878152, 48.16791094464147 ], [ 4.38416508318468, 48.167372157387312 ], [ 4.386400929379158, 48.166754473014819 ], [ 4.388585242162579, 48.166059581736704 ], [ 4.390712034485434, 48.165289385105318 ], [ 4.392775476957797, 48.164445990834707 ], [ 4.394769913827279, 48.163531707059917 ], [ 4.396689878481053, 48.162549036049619 ], [ 4.398530108429457, 48.161500667388225 ], [ 4.400285559730117, 48.160389470646081 ], [ 4.401951420813036, 48.159218487557368 ], [ 4.40352312566878, 48.157990923726373 ], [ 4.404996366363587, 48.156710139884893 ], [ 4.406367104847114, 48.155379642723702 ], [ 4.40763158402046, 48.154003075323175 ], [ 4.408786338034101, 48.152584207208626 ], [ 4.409828201787553, 48.151126924057124 ], [ 4.410754319604687, 48.149635217083819 ], [ 4.411562153060937, 48.148113172136199 ], [ 4.412249487940955, 48.146564958525914 ], [ 4.41281444030761, 48.144994817628493 ], [ 4.413255461665734, 48.143407051281777 ], [ 4.413571343206438, 48.141806010014761 ], [ 4.413761219120377, 48.14019608113869 ], [ 4.413824568970869, 48.138581676733068 ] ] ] } },
{ "type": "Feature", "properties": { "name": "Bourguignons", "feature_type": "mrr", "metric_roundness": 45.61, "metric_rectangularity": 59.26, "metric_mobile_fit": 47.39, "metric_aspect_ratio": 1.089, "metric_area_km2": 37.92 }, "geometry": { "type": "Polygon", "coordinates": [ [ [ 4.345766611409377, 48.168395952561482 ], [ 4.410498557905485, 48.15494480493679 ], [ 4.387844011387689, 48.106408246036175 ], [ 4.32311206489158, 48.119872114381373 ], [ 4.345766611409377, 48.168395952561482 ] ] ] } }
]
}
