{
"type": "FeatureCollection",
"name": "bouro_santa_maria",
"crs": { "type": "name", "properties": { "name": "urn:ogc:def:crs:OGC:1.3:CRS84" } },
"features": [
{ "type": "Feature", "properties": { "name": "Bouro (Santa Maria)", "feature_type": "entity", "metric_roundness": 48.55, "metric_rectangularity": 62.19, "metric_mobile_fit": 69.15, "metric_aspect_ratio": 0.871, "metric_area_km2": 12.36 }, "geometry": { "type": "Polygon", "coordinates": [ [ [ -8.2761807, 41.6670237 ], [ -8.2805346, 41.659996799999988 ], [ -8.276167, 41.65161 ], [ -8.2633406, 41.6552223 ], [ -8.259431, 41.653916 ], [ -8.246332, 41.652366 ], [ -8.2430685, 41.6575446 ], [ -8.2522027, 41.668089 ], [ -8.25578, 41.68005 ], [ -8.2593508, 41.682196199999986 ], [ -8.2654688, 41.6787188 ], [ -8.2754195, 41.683742 ], [ -8.2761807, 41.6670237 ] ] ] } },
{ "type": "Feature", "properties": { "name": "Bouro (Santa Maria)", "feature_type": "circle", "metric_roundness": 48.55, "metric_rectangularity": 62.19, "metric_mobile_fit": 69.15, "metric_aspect_ratio": 0.871, "metric_area_km2": 12.36 }, "geometry": { "type": "Polygon", "coordinates": [ [ [ -8.23637454921656, 41.667498342069095 ], [ -8.23640960434272, 41.666498303817704 ], [ -8.236514673637533, 41.665500991131999 ], [ -8.236689469113369, 41.664509137767517 ], [ -8.236933511667974, 41.663525462640983 ], [ -8.237246132397672, 41.662552662374516 ], [ -8.237626474430773, 41.661593403899559 ], [ -8.2380734952762, 41.660650317140956 ], [ -8.238585969680889, 41.659725987801245 ], [ -8.239162492988116, 41.658822950264998 ], [ -8.239801484987574, 41.657943680642816 ], [ -8.240501194246603, 41.657090589974082 ], [ -8.241259702910765, 41.656266017607322 ], [ -8.242074931960532, 41.655472224776226 ], [ -8.242944646909745, 41.65471138838938 ], [ -8.243866463930184, 41.653985595050557 ], [ -8.244837856385464, 41.653296835326302 ], [ -8.245856161756391, 41.652646998276587 ], [ -8.246918588938726, 41.652037866263683 ], [ -8.248022225893408, 41.65147111005367 ], [ -8.249164047628256, 41.650948284224043 ], [ -8.250340924489263, 41.650470822890284 ], [ -8.25154963073876, 41.650040035763141 ], [ -8.252786853396927, 41.649657104547579 ], [ -8.254049201322461, 41.649323079693467 ], [ -8.255333214507441, 41.649038877506911 ], [ -8.256635373560977, 41.648805277630295 ], [ -8.257952109355617, 41.648622920898092 ], [ -8.259279812810075, 41.648492307574301 ], [ -8.260614844781463, 41.648413795976502 ], [ -8.261953546039951, 41.648387601490214 ], [ -8.263292247298438, 41.648413795976502 ], [ -8.264627279269828, 41.648492307574301 ], [ -8.265954982724283, 41.648622920898092 ], [ -8.267271718518924, 41.648805277630295 ], [ -8.268573877572461, 41.649038877506911 ], [ -8.269857890757441, 41.649323079693467 ], [ -8.271120238682975, 41.649657104547579 ], [ -8.272357461341144, 41.650040035763141 ], [ -8.273566167590637, 41.650470822890284 ], [ -8.274743044451645, 41.650948284224043 ], [ -8.275884866186495, 41.65147111005367 ], [ -8.276988503141178, 41.652037866263683 ], [ -8.278050930323509, 41.652646998276587 ], [ -8.279069235694438, 41.653296835326302 ], [ -8.28004062814972, 41.653985595050557 ], [ -8.280962445170156, 41.65471138838938 ], [ -8.28183216011937, 41.655472224776226 ], [ -8.282647389169137, 41.656266017607322 ], [ -8.283405897833298, 41.657090589974082 ], [ -8.284105607092329, 41.657943680642816 ], [ -8.284744599091786, 41.658822950264998 ], [ -8.285321122399015, 41.659725987801245 ], [ -8.285833596803704, 41.660650317140956 ], [ -8.28628061764913, 41.661593403899559 ], [ -8.28666095968223, 41.662552662374516 ], [ -8.286973580411928, 41.663525462640983 ], [ -8.287217622966534, 41.664509137767517 ], [ -8.287392418442368, 41.665500991131999 ], [ -8.287497487737182, 41.666498303817704 ], [ -8.287532542863341, 41.667498342069095 ], [ -8.287497487737182, 41.668498364786984 ], [ -8.287392418442368, 41.669495631042345 ], [ -8.287217622966534, 41.67048740758834 ], [ -8.286973580411928, 41.671470976349887 ], [ -8.28666095968223, 41.672443641870231 ], [ -8.28628061764913, 41.673402738694236 ], [ -8.285833596803704, 41.674345638668136 ], [ -8.285321122399015, 41.675269758135848 ], [ -8.284744599091786, 41.676172565012202 ], [ -8.284105607092329, 41.677051585713748 ], [ -8.283405897833298, 41.677904411928331 ], [ -8.282647389169137, 41.67872870720484 ], [ -8.28183216011937, 41.679522213345457 ], [ -8.280962445170156, 41.680282756582621 ], [ -8.28004062814972, 41.681008253524382 ], [ -8.279069235694438, 41.681696716851576 ], [ -8.278050930323509, 41.682346260751622 ], [ -8.276988503141178, 41.682955106074054 ], [ -8.275884866186495, 41.68352158519383 ], [ -8.274743044451645, 41.684044146569313 ], [ -8.273566167590637, 41.684521358982437 ], [ -8.272357461341144, 41.684951915449702 ], [ -8.271120238682975, 41.685334636793272 ], [ -8.269857890757441, 41.685668474862688 ], [ -8.268573877572463, 41.685952515398299 ], [ -8.267271718518924, 41.686185980528805 ], [ -8.265954982724283, 41.686368230896043 ], [ -8.264627279269828, 41.686498767401346 ], [ -8.263292247298438, 41.686577232568801 ], [ -8.261953546039951, 41.686603411521581 ], [ -8.260614844781463, 41.686577232568801 ], [ -8.259279812810075, 41.686498767401346 ], [ -8.257952109355617, 41.686368230896043 ], [ -8.256635373560977, 41.686185980528805 ], [ -8.255333214507441, 41.685952515398299 ], [ -8.254049201322461, 41.685668474862688 ], [ -8.252786853396927, 41.685334636793272 ], [ -8.25154963073876, 41.684951915449702 ], [ -8.250340924489263, 41.684521358982437 ], [ -8.249164047628256, 41.684044146569313 ], [ -8.248022225893408, 41.68352158519383 ], [ -8.246918588938726, 41.682955106074054 ], [ -8.245856161756391, 41.682346260751622 ], [ -8.244837856385464, 41.681696716851576 ], [ -8.243866463930184, 41.681008253524382 ], [ -8.242944646909745, 41.680282756582621 ], [ -8.242074931960532, 41.679522213345457 ], [ -8.241259702910765, 41.67872870720484 ], [ -8.240501194246603, 41.677904411928331 ], [ -8.239801484987574, 41.677051585713748 ], [ -8.239162492988116, 41.676172565012202 ], [ -8.238585969680889, 41.675269758135848 ], [ -8.2380734952762, 41.674345638668136 ], [ -8.237626474430773, 41.673402738694236 ], [ -8.237246132397672, 41.672443641870231 ], [ -8.236933511667974, 41.671470976349887 ], [ -8.236689469113369, 41.67048740758834 ], [ -8.236514673637533, 41.669495631042345 ], [ -8.23640960434272, 41.668498364786984 ], [ -8.23637454921656, 41.667498342069095 ] ] ] } },
{ "type": "Feature", "properties": { "name": "Bouro (Santa Maria)", "feature_type": "mrr", "metric_roundness": 48.55, "metric_rectangularity": 62.19, "metric_mobile_fit": 69.15, "metric_aspect_ratio": 0.871, "metric_area_km2": 12.36 }, "geometry": { "type": "Polygon", "coordinates": [ [ [ -8.24283746705105, 41.652454547517756 ], [ -8.280149347203423, 41.651509088015231 ], [ -8.28160552963695, 41.683585325873551 ], [ -8.244293649484577, 41.684530314435456 ], [ -8.24283746705105, 41.652454547517756 ] ] ] } }
]
}
