{
"type": "FeatureCollection",
"name": "fichtenau",
"crs": { "type": "name", "properties": { "name": "urn:ogc:def:crs:OGC:1.3:CRS84" } },
"features": [
{ "type": "Feature", "properties": { "name": "Fichtenau", "metric_roundness": 60.35, "metric_rectangularity": 67.75, "metric_mobile_fit": 41.06, "metric_aspect_ratio": 1.152, "metric_area_km2": 72.88 }, "geometry": { "type": "Polygon", "coordinates": [ [ [ 10.2613302, 49.0617759 ], [ 10.2569143, 49.070249499999989 ], [ 10.2351798, 49.0754349 ], [ 10.2407287, 49.079877399999987 ], [ 10.2467108, 49.0803654 ], [ 10.2484737, 49.091461899999985 ], [ 10.2301328, 49.0902788 ], [ 10.2224056, 49.097098099999982 ], [ 10.2129972, 49.094998499999988 ], [ 10.2049975, 49.098119 ], [ 10.2001075, 49.0948551 ], [ 10.1725395, 49.099423 ], [ 10.1694633, 49.0981168 ], [ 10.16767, 49.098374 ], [ 10.1610465, 49.093569 ], [ 10.1600626, 49.089301899999988 ], [ 10.1626127, 49.0856901 ], [ 10.1595681, 49.080809199999983 ], [ 10.1699079, 49.06795 ], [ 10.1659585, 49.063198 ], [ 10.167368, 49.0587255 ], [ 10.1819215, 49.05937549999998 ], [ 10.1889244, 49.054418799999979 ], [ 10.1861181, 49.0484759 ], [ 10.1920055, 49.0433435 ], [ 10.2081331, 49.0415475 ], [ 10.221313, 49.04802549999998 ], [ 10.2340909, 49.0469327 ], [ 10.2413735, 49.056969 ], [ 10.2567635, 49.059495 ], [ 10.2613302, 49.0617759 ] ] ] } }
]
}
