{
"type": "FeatureCollection",
"name": "fier",
"crs": { "type": "name", "properties": { "name": "urn:ogc:def:crs:OGC:1.3:CRS84" } },
"features": [
{ "type": "Feature", "properties": { "name": "FIER", "feature_type": "entity", "metric_roundness": 49.85, "metric_rectangularity": 57.75, "metric_mobile_fit": 70.73, "metric_aspect_ratio": 0.855, "metric_area_km2": 1081.68 }, "geometry": { "type": "Polygon", "coordinates": [ [ [ 19.3767546, 40.8029124 ], [ 19.3701486, 40.7610147 ], [ 19.3687074, 40.7317992 ], [ 19.3626317, 40.7118124 ], [ 19.35137, 40.694197699999989 ], [ 19.3331714, 40.6752174 ], [ 19.3172703, 40.6675306 ], [ 19.3142987, 40.647619899999981 ], [ 19.318752, 40.644981 ], [ 19.3278668, 40.6500869 ], [ 19.3384566, 40.6619975 ], [ 19.350955, 40.664876299999982 ], [ 19.3915674, 40.6550593 ], [ 19.3968687, 40.651480299999989 ], [ 19.4030124, 40.640299299999988 ], [ 19.4160472, 40.6354611 ], [ 19.4219052, 40.6462161 ], [ 19.4339719, 40.6485572 ], [ 19.451184, 40.6568702 ], [ 19.4553183, 40.6539526 ], [ 19.4509847, 40.6450665 ], [ 19.4534198, 40.6382273 ], [ 19.4738755, 40.6308058 ], [ 19.4871843, 40.6293243 ], [ 19.4881463, 40.6261509 ], [ 19.4793672, 40.61583 ], [ 19.483313, 40.6128213 ], [ 19.4902373, 40.614961099999988 ], [ 19.494994, 40.61168 ], [ 19.5149712, 40.6108779 ], [ 19.5133533, 40.6027385 ], [ 19.536141, 40.601306799999982 ], [ 19.5386889, 40.5964397 ], [ 19.5367421, 40.585609 ], [ 19.542763, 40.5790417 ], [ 19.5517048, 40.5806806 ], [ 19.5612311, 40.5880499 ], [ 19.573368, 40.584240499999986 ], [ 19.5730152, 40.5804847 ], [ 19.5656334, 40.579535799999988 ], [ 19.5701155, 40.5692265 ], [ 19.5727263, 40.566688399999975 ], [ 19.5721386, 40.561676299999974 ], [ 19.5820476, 40.5567975 ], [ 19.5862504, 40.560598 ], [ 19.5906049, 40.5604466 ], [ 19.5977275, 40.553785 ], [ 19.6063028, 40.5522901 ], [ 19.6248503, 40.560801399999981 ], [ 19.6391501, 40.555320099999989 ], [ 19.64991, 40.5446605 ], [ 19.6508975, 40.550208 ], [ 19.6565112, 40.552884299999988 ], [ 19.6592957, 40.5600778 ], [ 19.6683505, 40.5666989 ], [ 19.677701, 40.5809725 ], [ 19.6746895, 40.594524799999988 ], [ 19.6664147, 40.6067342 ], [ 19.6686351, 40.6169761 ], [ 19.664322, 40.6261995 ], [ 19.6585184, 40.6240608 ], [ 19.6541989, 40.6269113 ], [ 19.6641624, 40.6453475 ], [ 19.6763474, 40.6511214 ], [ 19.6741451, 40.6581433 ], [ 19.65367, 40.6611275 ], [ 19.6450386, 40.6552473 ], [ 19.6234252, 40.6618775 ], [ 19.6139859, 40.6598815 ], [ 19.6089044, 40.6814354 ], [ 19.603881, 40.683842499999983 ], [ 19.5908393, 40.6832296 ], [ 19.5933658, 40.697377599999989 ], [ 19.6055949, 40.6992026 ], [ 19.5980336, 40.710012099999986 ], [ 19.6017291, 40.7126184 ], [ 19.6066863, 40.7317992 ], [ 19.6171181, 40.741375299999987 ], [ 19.6222885, 40.7528012 ], [ 19.6315117, 40.753070199999975 ], [ 19.6424052, 40.747583099999986 ], [ 19.6447356, 40.7556678 ], [ 19.6557315, 40.756215499999982 ], [ 19.6540126, 40.7703425 ], [ 19.6563491, 40.7751286 ], [ 19.684366, 40.7742365 ], [ 19.6594445, 40.7874293 ], [ 19.6524859, 40.786126 ], [ 19.623862, 40.7991188 ], [ 19.6168816, 40.797972099999988 ], [ 19.5897602, 40.8119793 ], [ 19.5937876, 40.8227991 ], [ 19.5820024, 40.844931599999988 ], [ 19.5816574, 40.853772799999987 ], [ 19.597573, 40.8666625 ], [ 19.5341169, 40.8667244 ], [ 19.4984178, 40.8709224 ], [ 19.4964071, 40.8662294 ], [ 19.4902373, 40.8652799 ], [ 19.4734737, 40.863916499999988 ], [ 19.4709964, 40.8695017 ], [ 19.465024, 40.8726755 ], [ 19.4631765, 40.862221899999987 ], [ 19.4572677, 40.8541487 ], [ 19.4421053, 40.857673 ], [ 19.4409618, 40.8481108 ], [ 19.4376493, 40.8437865 ], [ 19.4285206, 40.8448804 ], [ 19.4222831, 40.8510357 ], [ 19.4171287, 40.850829399999988 ], [ 19.4166396, 40.8405524 ], [ 19.4230126, 40.8381796 ], [ 19.4160241, 40.829109099999975 ], [ 19.4031162, 40.8297059 ], [ 19.3794133, 40.8235359 ], [ 19.36809, 40.823355 ], [ 19.3767546, 40.8029124 ] ] ] } },
{ "type": "Feature", "properties": { "name": "FIER", "feature_type": "circle", "metric_roundness": 49.85, "metric_rectangularity": 57.75, "metric_mobile_fit": 70.73, "metric_aspect_ratio": 0.855, "metric_area_km2": 1081.68 }, "geometry": { "type": "Polygon", "coordinates": [ [ [ 19.775069385354033, 40.702864692531286 ], [ 19.774745759450425, 40.693494825115962 ], [ 19.773775768775703, 40.684149327399233 ], [ 19.772162072006882, 40.674853830985661 ], [ 19.76990909217464, 40.665633841017311 ], [ 19.767023004540096, 40.656514665971116 ], [ 19.763511719668848, 40.647521347882517 ], [ 19.759384861748661, 40.638678593191315 ], [ 19.754653742210234, 40.630010704404604 ], [ 19.749331328723372, 40.621541512771351 ], [ 19.743432209653491, 40.61329431216042 ], [ 19.736972554075901, 40.605291794332707 ], [ 19.72997006745755, 40.597555985793832 ], [ 19.722443943127519, 40.590108186411442 ], [ 19.714414809669467, 40.582968909976003 ], [ 19.70590467438009, 40.576157826879864 ], [ 19.6969368629487, 40.569693709083573 ], [ 19.687535955523074, 40.563594377532489 ], [ 19.677727719337021, 40.557876652180312 ], [ 19.667539038084165, 40.552556304768771 ], [ 19.656997838231611, 40.547648014505214 ], [ 19.646133012475449, 40.543165326771437 ], [ 19.634974340547874, 40.539120614988619 ], [ 19.623552407592999, 40.535525045753801 ], [ 19.611898520335131, 40.53238854735384 ], [ 19.600044621269198, 40.529719781752874 ], [ 19.588023201108573, 40.52752612013861 ], [ 19.57586720973033, 40.525813622102469 ], [ 19.563609965861875, 40.524587018517231 ], [ 19.551285065756662, 40.523849698164724 ], [ 19.538926291109192, 40.52360369815478 ], [ 19.526567516461721, 40.523849698164724 ], [ 19.514242616356508, 40.524587018517231 ], [ 19.501985372488054, 40.525813622102469 ], [ 19.489829381109811, 40.52752612013861 ], [ 19.477807960949189, 40.529719781752874 ], [ 19.465954061883252, 40.53238854735384 ], [ 19.454300174625384, 40.535525045753801 ], [ 19.442878241670513, 40.539120614988619 ], [ 19.431719569742931, 40.543165326771437 ], [ 19.420854743986769, 40.547648014505214 ], [ 19.410313544134215, 40.552556304768771 ], [ 19.400124862881363, 40.557876652180312 ], [ 19.390316626695309, 40.563594377532489 ], [ 19.380915719269684, 40.569693709083573 ], [ 19.37194790783829, 40.576157826879864 ], [ 19.363437772548917, 40.582968909976003 ], [ 19.355408639090861, 40.590108186411442 ], [ 19.34788251476083, 40.597555985793832 ], [ 19.340880028142482, 40.605291794332707 ], [ 19.334420372564896, 40.61329431216042 ], [ 19.328521253495008, 40.621541512771351 ], [ 19.323198840008146, 40.630010704404604 ], [ 19.318467720469723, 40.638678593191315 ], [ 19.314340862549535, 40.647521347882517 ], [ 19.310829577678284, 40.656514665971116 ], [ 19.307943490043744, 40.665633841017311 ], [ 19.305690510211502, 40.674853830985661 ], [ 19.304076813442681, 40.684149327399233 ], [ 19.303106822767958, 40.693494825115962 ], [ 19.30278319686435, 40.702864692531286 ], [ 19.303106822767958, 40.712233242011393 ], [ 19.304076813442681, 40.721574800362234 ], [ 19.305690510211502, 40.730863779140186 ], [ 19.307943490043744, 40.740074744612485 ], [ 19.310829577678284, 40.749182487177407 ], [ 19.314340862549535, 40.758162090057318 ], [ 19.318467720469723, 40.766988997080446 ], [ 19.323198840008146, 40.775639079371423 ], [ 19.328521253495008, 40.784088700774454 ], [ 19.334420372564896, 40.792314781837547 ], [ 19.340880028142482, 40.80029486219135 ], [ 19.34788251476083, 40.808007161161022 ], [ 19.355408639090861, 40.815430636455652 ], [ 19.363437772548917, 40.822545040785279 ], [ 19.37194790783829, 40.829330976261964 ], [ 19.380915719269684, 40.835769946447925 ], [ 19.390316626695309, 40.841844405920114 ], [ 19.400124862881363, 40.8475378072281 ], [ 19.410313544134215, 40.852834645128766 ], [ 19.420854743986769, 40.857720497988922 ], [ 19.431719569742931, 40.862182066254498 ], [ 19.442878241670513, 40.866207207892323 ], [ 19.454300174625384, 40.869784970718577 ], [ 19.465954061883252, 40.872905621535701 ], [ 19.477807960949189, 40.875560672007616 ], [ 19.489829381109811, 40.877742901211114 ], [ 19.501985372488054, 40.879446374809511 ], [ 19.514242616356508, 40.880666460802708 ], [ 19.526567516461721, 40.881399841816247 ], [ 19.538926291109192, 40.881644523900093 ], [ 19.551285065756662, 40.881399841816247 ], [ 19.563609965861875, 40.880666460802708 ], [ 19.57586720973033, 40.879446374809511 ], [ 19.588023201108573, 40.877742901211114 ], [ 19.600044621269198, 40.875560672007616 ], [ 19.611898520335131, 40.872905621535701 ], [ 19.623552407592999, 40.869784970718577 ], [ 19.634974340547874, 40.866207207892323 ], [ 19.646133012475449, 40.862182066254498 ], [ 19.656997838231611, 40.857720497988922 ], [ 19.667539038084165, 40.852834645128766 ], [ 19.677727719337021, 40.8475378072281 ], [ 19.687535955523074, 40.841844405920114 ], [ 19.6969368629487, 40.835769946447925 ], [ 19.70590467438009, 40.829330976261964 ], [ 19.714414809669467, 40.822545040785279 ], [ 19.722443943127519, 40.815430636455652 ], [ 19.72997006745755, 40.808007161161022 ], [ 19.736972554075901, 40.80029486219135 ], [ 19.743432209653491, 40.792314781837547 ], [ 19.749331328723372, 40.784088700774454 ], [ 19.754653742210234, 40.775639079371423 ], [ 19.759384861748661, 40.766988997080446 ], [ 19.763511719668848, 40.758162090057318 ], [ 19.767023004540096, 40.749182487177407 ], [ 19.76990909217464, 40.740074744612485 ], [ 19.772162072006882, 40.730863779140186 ], [ 19.773775768775703, 40.721574800362234 ], [ 19.774745759450425, 40.712233242011393 ], [ 19.775069385354033, 40.702864692531286 ] ] ] } },
{ "type": "Feature", "properties": { "name": "FIER", "feature_type": "mrr", "metric_roundness": 49.85, "metric_rectangularity": 57.75, "metric_mobile_fit": 70.73, "metric_aspect_ratio": 0.855, "metric_area_km2": 1081.68 }, "geometry": { "type": "Polygon", "coordinates": [ [ [ 19.298516010731298, 40.609933602639714 ], [ 19.394625385400733, 40.90457320476208 ], [ 19.760874529015073, 40.836141927282959 ], [ 19.664765154345641, 40.541198565719867 ], [ 19.298516010731298, 40.609933602639714 ] ] ] } }
]
}
