{
"type": "FeatureCollection",
"name": "fierville_les_mines",
"crs": { "type": "name", "properties": { "name": "urn:ogc:def:crs:OGC:1.3:CRS84" } },
"features": [
{ "type": "Feature", "properties": { "name": "Fierville-les-Mines", "feature_type": "entity", "metric_roundness": 52.31, "metric_rectangularity": 68.57, "metric_mobile_fit": 60.57, "metric_aspect_ratio": 0.957, "metric_area_km2": 18.05 }, "geometry": { "type": "Polygon", "coordinates": [ [ [ -1.6793715, 49.4003277 ], [ -1.6852904, 49.3947767 ], [ -1.6836994, 49.3892874 ], [ -1.6882865, 49.3838915 ], [ -1.6892625, 49.3807632 ], [ -1.6849355, 49.378426 ], [ -1.6763295, 49.3818613 ], [ -1.671113, 49.378006 ], [ -1.6668145, 49.379417499999981 ], [ -1.668093, 49.381489499999979 ], [ -1.668919, 49.3848345 ], [ -1.665239, 49.384651499999983 ], [ -1.6598475, 49.3861885 ], [ -1.655488, 49.3885915 ], [ -1.652974, 49.389035 ], [ -1.6452905, 49.394614 ], [ -1.6421415, 49.3957615 ], [ -1.63978, 49.398187 ], [ -1.6438188, 49.4050751 ], [ -1.652687, 49.4110175 ], [ -1.656266, 49.411664 ], [ -1.6700625, 49.4074005 ], [ -1.6723595, 49.4076835 ], [ -1.678377, 49.405315 ], [ -1.6793715, 49.4003277 ] ] ] } },
{ "type": "Feature", "properties": { "name": "Fierville-les-Mines", "feature_type": "circle", "metric_roundness": 52.31, "metric_rectangularity": 68.57, "metric_mobile_fit": 60.57, "metric_aspect_ratio": 0.957, "metric_area_km2": 18.05 }, "geometry": { "type": "Polygon", "coordinates": [ [ [ -1.639030613325858, 49.394724453222445 ], [ -1.639071426653406, 49.393710038332294 ], [ -1.639193754769558, 49.392698383018725 ], [ -1.639397262381449, 49.391692260415745 ], [ -1.639681391688862, 49.390694428660936 ], [ -1.640045363913115, 49.389707623330942 ], [ -1.640488181431638, 49.388734549936991 ], [ -1.641008630512396, 49.387777876501076 ], [ -1.641605284640632, 49.386840226233325 ], [ -1.642276508428856, 49.385924170330576 ], [ -1.643020462099318, 49.385032220916223 ], [ -1.64383510652672, 49.384166824140593 ], [ -1.644718208827313, 49.383330353461197 ], [ -1.645667348479073, 49.382525103121125 ], [ -1.646679923956189, 49.381753281843871 ], [ -1.647753159859661, 49.381017006762029 ], [ -1.648884114524478, 49.380318297596517 ], [ -1.650069688082516, 49.379659071102701 ], [ -1.651306630959059, 49.379041135798751 ], [ -1.652591552779662, 49.378466186990714 ], [ -1.653920931662929, 49.377935802108517 ], [ -1.655291123873744, 49.377451436365419 ], [ -1.656698373810499, 49.377014418753404 ], [ -1.658138824298934, 49.37662594838531 ], [ -1.659608527164384, 49.376287091194222 ], [ -1.661103454053453, 49.375998776999019 ], [ -1.66261950747545, 49.375761796944509 ], [ -1.664152532033323, 49.375576801323092 ], [ -1.66569832581332, 49.375444297784256 ], [ -1.667252651902135, 49.375364649936586 ], [ -1.66881125, 49.375338076346551 ], [ -1.670369848097865, 49.375364649936586 ], [ -1.67192417418668, 49.375444297784256 ], [ -1.673469967966677, 49.375576801323092 ], [ -1.67500299252455, 49.375761796944509 ], [ -1.676519045946547, 49.375998776999019 ], [ -1.678013972835616, 49.376287091194222 ], [ -1.679483675701066, 49.37662594838531 ], [ -1.680924126189501, 49.377014418753404 ], [ -1.682331376126256, 49.377451436365419 ], [ -1.683701568337071, 49.377935802108517 ], [ -1.685030947220338, 49.378466186990714 ], [ -1.686315869040941, 49.379041135798751 ], [ -1.687552811917485, 49.379659071102701 ], [ -1.688738385475522, 49.380318297596517 ], [ -1.689869340140339, 49.381017006762029 ], [ -1.690942576043811, 49.381753281843871 ], [ -1.691955151520927, 49.382525103121125 ], [ -1.692904291172687, 49.383330353461197 ], [ -1.693787393473279, 49.384166824140593 ], [ -1.694602037900682, 49.385032220916223 ], [ -1.695345991571144, 49.385924170330576 ], [ -1.696017215359367, 49.386840226233325 ], [ -1.696613869487604, 49.387777876501076 ], [ -1.697134318568362, 49.388734549936991 ], [ -1.697577136086885, 49.389707623330942 ], [ -1.697941108311138, 49.390694428660936 ], [ -1.698225237618551, 49.391692260415745 ], [ -1.698428745230442, 49.392698383018725 ], [ -1.698551073346594, 49.393710038332294 ], [ -1.698591886674143, 49.394724453222445 ], [ -1.698551073346594, 49.395738847162541 ], [ -1.698428745230442, 49.396750439855438 ], [ -1.698225237618551, 49.397756458853259 ], [ -1.697941108311138, 49.398754147153504 ], [ -1.697577136086885, 49.399740770751265 ], [ -1.697134318568362, 49.400713626126418 ], [ -1.696613869487604, 49.401670047645609 ], [ -1.696017215359368, 49.402607414858785 ], [ -1.695345991571144, 49.4035231596703 ], [ -1.694602037900682, 49.404414773365147 ], [ -1.693787393473279, 49.405279813471196 ], [ -1.692904291172687, 49.4061159104387 ], [ -1.691955151520927, 49.406920774119037 ], [ -1.690942576043811, 49.407692200025025 ], [ -1.689869340140339, 49.40842807535585 ], [ -1.688738385475522, 49.409126384770346 ], [ -1.687552811917485, 49.409785215892889 ], [ -1.686315869040941, 49.410402764537118 ], [ -1.685030947220338, 49.410977339633277 ], [ -1.683701568337071, 49.411507367845907 ], [ -1.682331376126256, 49.411991397869507 ], [ -1.680924126189501, 49.412428104390301 ], [ -1.679483675701066, 49.412816291703827 ], [ -1.678013972835616, 49.413154896978213 ], [ -1.676519045946547, 49.413442993154625 ], [ -1.67500299252455, 49.413679791476916 ], [ -1.673469967966677, 49.41386464364377 ], [ -1.67192417418668, 49.413997043577453 ], [ -1.670369848097865, 49.414076628804466 ], [ -1.66881125, 49.414103181444446 ], [ -1.667252651902135, 49.414076628804466 ], [ -1.66569832581332, 49.413997043577453 ], [ -1.664152532033323, 49.41386464364377 ], [ -1.66261950747545, 49.413679791476916 ], [ -1.661103454053453, 49.413442993154625 ], [ -1.659608527164384, 49.413154896978213 ], [ -1.658138824298934, 49.412816291703827 ], [ -1.656698373810499, 49.412428104390301 ], [ -1.655291123873744, 49.411991397869507 ], [ -1.653920931662929, 49.411507367845907 ], [ -1.652591552779662, 49.410977339633277 ], [ -1.651306630959059, 49.410402764537118 ], [ -1.650069688082516, 49.409785215892889 ], [ -1.648884114524478, 49.409126384770346 ], [ -1.647753159859661, 49.40842807535585 ], [ -1.646679923956189, 49.407692200025025 ], [ -1.645667348479073, 49.406920774119037 ], [ -1.644718208827313, 49.4061159104387 ], [ -1.64383510652672, 49.405279813471196 ], [ -1.643020462099318, 49.404414773365147 ], [ -1.642276508428856, 49.4035231596703 ], [ -1.641605284640633, 49.402607414858785 ], [ -1.641008630512396, 49.401670047645609 ], [ -1.640488181431638, 49.400713626126418 ], [ -1.640045363913115, 49.399740770751265 ], [ -1.639681391688862, 49.398754147153504 ], [ -1.639397262381449, 49.397756458853259 ], [ -1.639193754769558, 49.396750439855438 ], [ -1.639071426653406, 49.395738847162541 ], [ -1.639030613325858, 49.394724453222445 ] ] ] } },
{ "type": "Feature", "properties": { "name": "Fierville-les-Mines", "feature_type": "mrr", "metric_roundness": 52.31, "metric_rectangularity": 68.57, "metric_mobile_fit": 60.57, "metric_aspect_ratio": 0.957, "metric_area_km2": 18.05 }, "geometry": { "type": "Polygon", "coordinates": [ [ [ -1.635601580686964, 49.400092775460308 ], [ -1.676808840945384, 49.372795440418059 ], [ -1.702582520972516, 49.389283822949061 ], [ -1.661375260714096, 49.416571998585432 ], [ -1.635601580686964, 49.400092775460308 ] ] ] } }
]
}
