{
"type": "FeatureCollection",
"name": "julienne",
"crs": { "type": "name", "properties": { "name": "urn:ogc:def:crs:OGC:1.3:CRS84" } },
"features": [
{ "type": "Feature", "properties": { "name": "Julienne", "metric_roundness": 26.97, "metric_rectangularity": 58.29, "metric_mobile_fit": -7.44, "metric_aspect_ratio": 1.637, "metric_area_km2": 12.97 }, "geometry": { "type": "Polygon", "coordinates": [ [ [ -0.199902, 45.6870795 ], [ -0.204438, 45.689362 ], [ -0.211887, 45.6907235 ], [ -0.2179535, 45.6927455 ], [ -0.220806, 45.69196 ], [ -0.228267, 45.696335499999989 ], [ -0.2309745, 45.699289 ], [ -0.2351275, 45.70157949999998 ], [ -0.2407435, 45.704916 ], [ -0.2484485, 45.704828 ], [ -0.2517625, 45.705652 ], [ -0.2614095, 45.7058795 ], [ -0.261919, 45.702689699999979 ], [ -0.251578, 45.7025207 ], [ -0.2424881, 45.6977762 ], [ -0.2515846, 45.690838799999987 ], [ -0.2364075, 45.682242 ], [ -0.207338, 45.6784495 ], [ -0.1996944, 45.6823609 ], [ -0.19764, 45.6867705 ], [ -0.199902, 45.6870795 ] ] ] } }
]
}
