{
"type": "FeatureCollection",
"name": "julianges",
"crs": { "type": "name", "properties": { "name": "urn:ogc:def:crs:OGC:1.3:CRS84" } },
"features": [
{ "type": "Feature", "properties": { "name": "Julianges", "feature_type": "entity", "metric_roundness": 30.27, "metric_rectangularity": 61.49, "metric_mobile_fit": 24.37, "metric_aspect_ratio": 1.319, "metric_area_km2": 19.11 }, "geometry": { "type": "Polygon", "coordinates": [ [ [ 3.3199357, 44.9303771 ], [ 3.3233165, 44.936964 ], [ 3.3407158, 44.9389496 ], [ 3.356327, 44.9490465 ], [ 3.3558955, 44.953188499999989 ], [ 3.3545315, 44.95482 ], [ 3.3527535, 44.9545665 ], [ 3.3476385, 44.955468499999988 ], [ 3.337942, 44.955907 ], [ 3.3177747, 44.945477 ], [ 3.3132831, 44.9393789 ], [ 3.3004809, 44.939286499999987 ], [ 3.2856485, 44.9263045 ], [ 3.291594, 44.9192285 ], [ 3.3141218, 44.9179693 ], [ 3.3209675, 44.922173 ], [ 3.3199357, 44.9303771 ] ] ] } },
{ "type": "Feature", "properties": { "name": "Julianges", "feature_type": "circle", "metric_roundness": 30.27, "metric_rectangularity": 61.49, "metric_mobile_fit": 24.37, "metric_aspect_ratio": 1.319, "metric_area_km2": 19.11 }, "geometry": { "type": "Polygon", "coordinates": [ [ [ 3.363152928132347, 44.937193924525324 ], [ 3.363097727780473, 44.935701679399877 ], [ 3.362932278025176, 44.934213485795098 ], [ 3.362657032352736, 44.932733423222338 ], [ 3.362272745192409, 44.931265549217976 ], [ 3.361780469848592, 44.929813888213353 ], [ 3.361181555613781, 44.928382420492149 ], [ 3.360477644070266, 44.926975071265545 ], [ 3.35967066459066, 44.925595699895354 ], [ 3.358762829049622, 44.924248089294771 ], [ 3.357756625761269, 44.922935935536074 ], [ 3.356654812658873, 44.921662837694107 ], [ 3.355460409735562, 44.920432287953417 ], [ 3.354176690766727, 44.91924766200674 ], [ 3.35280717433683, 44.918112209771337 ], [ 3.351355614195214, 44.917029046448981 ], [ 3.349825988967328, 44.91600114395446 ], [ 3.3482224912496, 44.915031322736496 ], [ 3.346549516117816, 44.91412224401374 ], [ 3.344811649080526, 44.913276402447664 ], [ 3.34301365351048, 44.912496119272632 ], [ 3.34116045758856, 44.911783535902458 ], [ 3.339257140795973, 44.911140608031189 ], [ 3.337308919991749, 44.91056910024475 ], [ 3.335321135113695, 44.910070581158379 ], [ 3.333299234541991, 44.909646419093633 ], [ 3.331248760165565, 44.909297778306929 ], [ 3.329175332192154, 44.909025615780166 ], [ 3.327084633743711, 44.908830678582639 ], [ 3.324982395279363, 44.908713501811384 ], [ 3.322874378888613, 44.908674407115917 ], [ 3.320766362497864, 44.908713501811384 ], [ 3.318664124033516, 44.908830678582639 ], [ 3.316573425585073, 44.909025615780166 ], [ 3.314499997611663, 44.909297778306929 ], [ 3.312449523235236, 44.909646419093633 ], [ 3.310427622663532, 44.910070581158379 ], [ 3.308439837785478, 44.91056910024475 ], [ 3.306491616981254, 44.911140608031189 ], [ 3.304588300188667, 44.911783535902458 ], [ 3.302735104266747, 44.912496119272632 ], [ 3.300937108696701, 44.913276402447664 ], [ 3.299199241659411, 44.91412224401374 ], [ 3.297526266527627, 44.915031322736496 ], [ 3.295922768809899, 44.91600114395446 ], [ 3.294393143582013, 44.917029046448981 ], [ 3.292941583440397, 44.918112209771337 ], [ 3.291572067010501, 44.91924766200674 ], [ 3.290288348041665, 44.920432287953417 ], [ 3.289093945118355, 44.921662837694107 ], [ 3.287992132015958, 44.922935935536074 ], [ 3.286985928727605, 44.924248089294771 ], [ 3.286078093186567, 44.925595699895354 ], [ 3.285271113706961, 44.926975071265545 ], [ 3.284567202163446, 44.928382420492149 ], [ 3.283968287928636, 44.929813888213353 ], [ 3.283476012584817, 44.931265549217976 ], [ 3.283091725424491, 44.932733423222338 ], [ 3.282816479752052, 44.934213485795098 ], [ 3.282651029996755, 44.935701679399877 ], [ 3.282595829644881, 44.937193924525324 ], [ 3.282651029996755, 44.938686130871965 ], [ 3.282816479752052, 44.940174208565232 ], [ 3.283091725424491, 44.941654079363708 ], [ 3.283476012584817, 44.943121687832154 ], [ 3.283968287928636, 44.944573012448465 ], [ 3.284567202163446, 44.946004076614528 ], [ 3.285271113706961, 44.947410959540569 ], [ 3.286078093186567, 44.9487898069737 ], [ 3.286985928727605, 44.95013684174107 ], [ 3.287992132015958, 44.951448374079348 ], [ 3.289093945118355, 44.952720811722116 ], [ 3.290288348041665, 44.953950669718097 ], [ 3.291572067010501, 44.955134579953459 ], [ 3.292941583440397, 44.956269300352425 ], [ 3.294393143582013, 44.957351723731378 ], [ 3.295922768809899, 44.958378886282496 ], [ 3.297526266527627, 44.959347975664052 ], [ 3.299199241659411, 44.960256338675514 ], [ 3.300937108696701, 44.961101488496929 ], [ 3.302735104266747, 44.961881111472806 ], [ 3.304588300188667, 44.962593073422617 ], [ 3.306491616981254, 44.963235425460731 ], [ 3.308439837785478, 44.963806409310173 ], [ 3.310427622663532, 44.964304462096052 ], [ 3.312449523235236, 44.964728220605693 ], [ 3.314499997611663, 44.96507652500415 ], [ 3.316573425585073, 44.965348421995024 ], [ 3.318664124033516, 44.965543167418303 ], [ 3.320766362497864, 44.965660228278061 ], [ 3.322874378888613, 44.965699284194741 ], [ 3.324982395279363, 44.965660228278061 ], [ 3.327084633743711, 44.965543167418303 ], [ 3.329175332192154, 44.965348421995024 ], [ 3.331248760165565, 44.96507652500415 ], [ 3.333299234541991, 44.964728220605693 ], [ 3.335321135113695, 44.964304462096052 ], [ 3.337308919991749, 44.963806409310173 ], [ 3.339257140795973, 44.963235425460731 ], [ 3.34116045758856, 44.962593073422617 ], [ 3.34301365351048, 44.961881111472806 ], [ 3.344811649080526, 44.961101488496929 ], [ 3.346549516117816, 44.960256338675514 ], [ 3.3482224912496, 44.959347975664052 ], [ 3.349825988967328, 44.958378886282496 ], [ 3.351355614195214, 44.957351723731378 ], [ 3.35280717433683, 44.956269300352425 ], [ 3.354176690766727, 44.955134579953459 ], [ 3.355460409735562, 44.953950669718097 ], [ 3.356654812658873, 44.952720811722116 ], [ 3.357756625761269, 44.951448374079348 ], [ 3.358762829049622, 44.95013684174107 ], [ 3.35967066459066, 44.9487898069737 ], [ 3.360477644070266, 44.947410959540569 ], [ 3.361181555613781, 44.946004076614528 ], [ 3.361780469848592, 44.944573012448465 ], [ 3.362272745192409, 44.943121687832154 ], [ 3.362657032352736, 44.941654079363708 ], [ 3.362932278025176, 44.940174208565232 ], [ 3.363097727780473, 44.938686130871965 ], [ 3.363152928132347, 44.937193924525324 ] ] ] } },
{ "type": "Feature", "properties": { "name": "Julianges", "feature_type": "mrr", "metric_roundness": 30.27, "metric_rectangularity": 61.49, "metric_mobile_fit": 24.37, "metric_aspect_ratio": 1.319, "metric_area_km2": 19.11 }, "geometry": { "type": "Polygon", "coordinates": [ [ [ 3.359561692797193, 44.951504273605124 ], [ 3.305248147399566, 44.910222138713166 ], [ 3.282222494395075, 44.925409187991157 ], [ 3.336536039792702, 44.966680409323224 ], [ 3.359561692797193, 44.951504273605124 ] ] ] } }
]
}
