{
"type": "FeatureCollection",
"name": "aubeguimont",
"crs": { "type": "name", "properties": { "name": "urn:ogc:def:crs:OGC:1.3:CRS84" } },
"features": [
{ "type": "Feature", "properties": { "name": "Aubéguimont", "feature_type": "entity", "metric_roundness": 61.01, "metric_rectangularity": 64.09, "metric_mobile_fit": 44.83, "metric_aspect_ratio": 1.114, "metric_area_km2": 11.07 }, "geometry": { "type": "Polygon", "coordinates": [ [ [ 1.6618259, 49.8028873 ], [ 1.6737475, 49.7981085 ], [ 1.6815923, 49.800376 ], [ 1.702061, 49.8062925 ], [ 1.6981185, 49.8149905 ], [ 1.6832992, 49.814232 ], [ 1.6842, 49.821413 ], [ 1.6815923, 49.8211778 ], [ 1.671917, 49.820305 ], [ 1.668926, 49.820872 ], [ 1.6618259, 49.8028873 ] ] ] } },
{ "type": "Feature", "properties": { "name": "Aubéguimont", "feature_type": "circle", "metric_roundness": 61.01, "metric_rectangularity": 64.09, "metric_mobile_fit": 44.83, "metric_aspect_ratio": 1.114, "metric_area_km2": 11.07 }, "geometry": { "type": "Polygon", "coordinates": [ [ [ 1.702574954403724, 49.809314655617158 ], [ 1.702545363964355, 49.80858541468389 ], [ 1.702456673751584, 49.80785816160774 ], [ 1.702309126859121, 49.807134889873716 ], [ 1.702103127702741, 49.806417582142473 ], [ 1.701839240911813, 49.805708204813641 ], [ 1.701518189781689, 49.805008702632598 ], [ 1.701140854291201, 49.804320993355823 ], [ 1.700708268690699, 49.80364696248926 ], [ 1.700221618667246, 49.802988458114406 ], [ 1.699682238094729, 49.80234728581609 ], [ 1.699091605377807, 49.801725203726193 ], [ 1.698451339399701, 49.80112391769682 ], [ 1.697763195084953, 49.800545076616189 ], [ 1.697029058589299, 49.799990267880418 ], [ 1.696250942129842, 49.799461013033401 ], [ 1.695430978469712, 49.798958763587017 ], [ 1.694571415072307, 49.798484897033248 ], [ 1.693674607941152, 49.798040713059116 ], [ 1.692743015162256, 49.797627429974959 ], [ 1.691779190166672, 49.79724618136607 ], [ 1.69078577473172, 49.796898012976733 ], [ 1.689765491740053, 49.796583879835552 ], [ 1.688721137716434, 49.796304643629796 ], [ 1.687655575162649, 49.796061070336286 ], [ 1.686571724711592, 49.795853828115185 ], [ 1.685472557122011, 49.795683485472686 ], [ 1.684361085135868, 49.795550509697662 ], [ 1.683240355220619, 49.795455265576493 ], [ 1.68211343921906, 49.795398014389896 ], [ 1.680983425929621, 49.795378913194305 ], [ 1.679853412640182, 49.795398014389896 ], [ 1.678726496638623, 49.795455265576493 ], [ 1.677605766723374, 49.795550509697662 ], [ 1.67649429473723, 49.795683485472686 ], [ 1.675395127147649, 49.795853828115185 ], [ 1.674311276696592, 49.796061070336286 ], [ 1.673245714142807, 49.796304643629796 ], [ 1.672201360119189, 49.796583879835552 ], [ 1.671181077127522, 49.796898012976733 ], [ 1.670187661692569, 49.79724618136607 ], [ 1.669223836696986, 49.797627429974959 ], [ 1.66829224391809, 49.798040713059116 ], [ 1.667395436786934, 49.798484897033248 ], [ 1.666535873389529, 49.798958763587017 ], [ 1.6657159097294, 49.799461013033401 ], [ 1.664937793269943, 49.799990267880418 ], [ 1.664203656774288, 49.800545076616189 ], [ 1.66351551245954, 49.80112391769682 ], [ 1.662875246481435, 49.801725203726193 ], [ 1.662284613764512, 49.80234728581609 ], [ 1.661745233191996, 49.802988458114406 ], [ 1.661258583168543, 49.80364696248926 ], [ 1.660825997568041, 49.804320993355823 ], [ 1.660448662077552, 49.805008702632598 ], [ 1.660127610947429, 49.805708204813641 ], [ 1.659863724156501, 49.806417582142473 ], [ 1.659657725000121, 49.807134889873716 ], [ 1.659510178107658, 49.80785816160774 ], [ 1.659421487894887, 49.80858541468389 ], [ 1.659391897455518, 49.809314655617158 ], [ 1.659421487894887, 49.810043885563765 ], [ 1.659510178107658, 49.810771105800285 ], [ 1.659657725000121, 49.811494323201565 ], [ 1.659863724156501, 49.81221155570217 ], [ 1.660127610947429, 49.812920837726736 ], [ 1.660448662077552, 49.813620225574063 ], [ 1.660825997568041, 49.814307802740323 ], [ 1.661258583168543, 49.814981685166998 ], [ 1.661745233191996, 49.815640026398967 ], [ 1.662284613764512, 49.81628102263879 ], [ 1.662875246481435, 49.816902917683535 ], [ 1.66351551245954, 49.817504007730413 ], [ 1.664203656774288, 49.818082646038413 ], [ 1.664937793269943, 49.818637247433031 ], [ 1.6657159097294, 49.819166292642066 ], [ 1.666535873389529, 49.819668332450476 ], [ 1.667395436786934, 49.820141991663093 ], [ 1.66829224391809, 49.820585972864599 ], [ 1.669223836696986, 49.820999059966248 ], [ 1.670187661692569, 49.821380121529991 ], [ 1.671181077127522, 49.821728113860836 ], [ 1.672201360119189, 49.822042083859131 ], [ 1.673245714142807, 49.822321171625013 ], [ 1.674311276696592, 49.822564612808016 ], [ 1.675395127147649, 49.822771740695401 ], [ 1.67649429473723, 49.822941988033634 ], [ 1.677605766723374, 49.823074888578027 ], [ 1.678726496638623, 49.823170078366438 ], [ 1.679853412640182, 49.823227296713419 ], [ 1.680983425929621, 49.823246386922357 ], [ 1.68211343921906, 49.823227296713419 ], [ 1.683240355220619, 49.823170078366438 ], [ 1.684361085135868, 49.823074888578027 ], [ 1.685472557122011, 49.822941988033634 ], [ 1.686571724711592, 49.822771740695401 ], [ 1.687655575162649, 49.822564612808016 ], [ 1.688721137716434, 49.822321171625013 ], [ 1.689765491740053, 49.822042083859131 ], [ 1.69078577473172, 49.821728113860836 ], [ 1.691779190166672, 49.821380121529991 ], [ 1.692743015162256, 49.820999059966248 ], [ 1.693674607941152, 49.820585972864599 ], [ 1.694571415072307, 49.820141991663093 ], [ 1.695430978469712, 49.819668332450476 ], [ 1.696250942129842, 49.819166292642066 ], [ 1.697029058589299, 49.818637247433031 ], [ 1.697763195084953, 49.818082646038413 ], [ 1.698451339399701, 49.817504007730413 ], [ 1.699091605377807, 49.816902917683535 ], [ 1.699682238094729, 49.81628102263879 ], [ 1.700221618667246, 49.815640026398967 ], [ 1.700708268690699, 49.814981685166998 ], [ 1.701140854291201, 49.814307802740323 ], [ 1.701518189781689, 49.813620225574063 ], [ 1.701839240911813, 49.812920837726736 ], [ 1.702103127702741, 49.81221155570217 ], [ 1.702309126859121, 49.811494323201565 ], [ 1.702456673751584, 49.810771105800285 ], [ 1.702545363964355, 49.810043885563765 ], [ 1.702574954403724, 49.809314655617158 ] ] ] } },
{ "type": "Feature", "properties": { "name": "Aubéguimont", "feature_type": "mrr", "metric_roundness": 61.01, "metric_rectangularity": 64.09, "metric_mobile_fit": 44.83, "metric_aspect_ratio": 1.114, "metric_area_km2": 11.07 }, "geometry": { "type": "Polygon", "coordinates": [ [ [ 1.703805039000378, 49.806795904601259 ], [ 1.66657890257288, 49.796036360172458 ], [ 1.652616027658268, 49.81615956136298 ], [ 1.689842164085767, 49.826914633646773 ], [ 1.703805039000378, 49.806795904601259 ] ] ] } }
]
}
