{
"type": "FeatureCollection",
"name": "auberville_la_manuel",
"crs": { "type": "name", "properties": { "name": "urn:ogc:def:crs:OGC:1.3:CRS84" } },
"features": [
{ "type": "Feature", "properties": { "name": "Auberville-la-Manuel", "feature_type": "entity", "metric_roundness": 62.64, "metric_rectangularity": 73.78, "metric_mobile_fit": 26.93, "metric_aspect_ratio": 1.293, "metric_area_km2": 7.04 }, "geometry": { "type": "Polygon", "coordinates": [ [ [ 0.5667695, 49.82826619999998 ], [ 0.569695, 49.825969 ], [ 0.5716685, 49.8231235 ], [ 0.5746925, 49.820383 ], [ 0.578043, 49.821824 ], [ 0.581355, 49.8203895 ], [ 0.588136, 49.8234155 ], [ 0.5931315, 49.823487 ], [ 0.596327, 49.8254285 ], [ 0.598856, 49.82826619999998 ], [ 0.5994807, 49.833657 ], [ 0.594133, 49.836699499999987 ], [ 0.5744065, 49.834632 ], [ 0.5667695, 49.82826619999998 ] ] ] } },
{ "type": "Feature", "properties": { "name": "Auberville-la-Manuel", "feature_type": "circle", "metric_roundness": 62.64, "metric_rectangularity": 73.78, "metric_mobile_fit": 26.93, "metric_aspect_ratio": 1.293, "metric_area_km2": 7.04 }, "geometry": { "type": "Polygon", "coordinates": [ [ [ 0.600617051485243, 49.829715372706481 ], [ 0.600593755865837, 49.829141507254995 ], [ 0.600523932859291, 49.828569207948163 ], [ 0.600407773845615, 49.828000043502165 ], [ 0.600245597208589, 49.827435574095475 ], [ 0.600037847463104, 49.826877347090971 ], [ 0.599785094036771, 49.826326892792679 ], [ 0.599488029709163, 49.825785720248582 ], [ 0.599147468712954, 49.825255313111306 ], [ 0.598764344502161, 49.824737125567786 ], [ 0.598339707193617, 49.82423257834936 ], [ 0.597874720688667, 49.823743054833045 ], [ 0.597370659483, 49.823269897244906 ], [ 0.596828905173346, 49.822814402975915 ], [ 0.596250942670609, 49.822377821020368 ], [ 0.595638356129836, 49.821961348546864 ], [ 0.594992824608155, 49.821566127611192 ], [ 0.594316117462597, 49.821193242020108 ], [ 0.593610089500409, 49.82084371435495 ], [ 0.592876675895161, 49.820518503162916 ], [ 0.592117886882567, 49.820218500324202 ], [ 0.591335802250566, 49.819944528601894 ], [ 0.590532565638773, 49.819697339381641 ], [ 0.589710378662909, 49.819477610607208 ], [ 0.588871494880324, 49.819285944917794 ], [ 0.588018213613158, 49.819122867992057 ], [ 0.587152873646052, 49.818988827103546 ], [ 0.586277846815707, 49.818884189891669 ], [ 0.585395531509843, 49.818809243351254 ], [ 0.584508346093385, 49.818764193043869 ], [ 0.58361872227989, 49.818749162532889 ], [ 0.582729098466396, 49.818764193043869 ], [ 0.581841913049937, 49.818809243351254 ], [ 0.580959597744073, 49.818884189891669 ], [ 0.580084570913729, 49.818988827103546 ], [ 0.579219230946623, 49.819122867992057 ], [ 0.578365949679456, 49.819285944917794 ], [ 0.577527065896872, 49.819477610607208 ], [ 0.576704878921008, 49.819697339381641 ], [ 0.575901642309215, 49.819944528601894 ], [ 0.575119557677214, 49.820218500324202 ], [ 0.574360768664619, 49.820518503162916 ], [ 0.573627355059372, 49.82084371435495 ], [ 0.572921327097184, 49.821193242020108 ], [ 0.572244619951625, 49.821566127611192 ], [ 0.571599088429944, 49.821961348546864 ], [ 0.570986501889171, 49.822377821020368 ], [ 0.570408539386435, 49.822814402975915 ], [ 0.56986678507678, 49.823269897244906 ], [ 0.569362723871114, 49.823743054833045 ], [ 0.568897737366164, 49.82423257834936 ], [ 0.568473100057619, 49.824737125567786 ], [ 0.568089975846827, 49.825255313111306 ], [ 0.567749414850617, 49.825785720248582 ], [ 0.567452350523009, 49.826326892792679 ], [ 0.567199597096676, 49.826877347090971 ], [ 0.566991847351191, 49.827435574095475 ], [ 0.566829670714166, 49.828000043502165 ], [ 0.566713511700489, 49.828569207948163 ], [ 0.566643688693944, 49.829141507254995 ], [ 0.566620393074538, 49.829715372706481 ], [ 0.566643688693944, 49.830289231349333 ], [ 0.566713511700489, 49.830861510304914 ], [ 0.566829670714166, 49.83143064107999 ], [ 0.566991847351191, 49.831995063865016 ], [ 0.567199597096676, 49.832553231807871 ], [ 0.567452350523009, 49.833103615251659 ], [ 0.567749414850617, 49.833644705924662 ], [ 0.568089975846827, 49.834175021071282 ], [ 0.568473100057619, 49.834693107512429 ], [ 0.568897737366164, 49.835197545624482 ], [ 0.569362723871114, 49.835686953225796 ], [ 0.56986678507678, 49.836159989360311 ], [ 0.570408539386435, 49.836615357967723 ], [ 0.570986501889171, 49.837051811430513 ], [ 0.571599088429944, 49.837468153987857 ], [ 0.572244619951625, 49.837863245007384 ], [ 0.572921327097184, 49.838236002105695 ], [ 0.573627355059372, 49.838585404109281 ], [ 0.574360768664619, 49.838910493847692 ], [ 0.575119557677214, 49.839210380771412 ], [ 0.575901642309215, 49.839484243387332 ], [ 0.576704878921008, 49.839731331505227 ], [ 0.577527065896872, 49.839950968288996 ], [ 0.578365949679456, 49.840142552107331 ], [ 0.579219230946623, 49.840305558178557 ], [ 0.580084570913729, 49.84043954000542 ], [ 0.580959597744073, 49.840544130595624 ], [ 0.581841913049937, 49.840619043465125 ], [ 0.582729098466396, 49.840664073421244 ], [ 0.58361872227989, 49.840679097123612 ], [ 0.584508346093385, 49.840664073421244 ], [ 0.585395531509843, 49.840619043465125 ], [ 0.586277846815707, 49.840544130595624 ], [ 0.587152873646052, 49.84043954000542 ], [ 0.588018213613158, 49.840305558178557 ], [ 0.588871494880324, 49.840142552107331 ], [ 0.589710378662909, 49.839950968288996 ], [ 0.590532565638773, 49.839731331505227 ], [ 0.591335802250566, 49.839484243387332 ], [ 0.592117886882567, 49.839210380771412 ], [ 0.592876675895161, 49.838910493847692 ], [ 0.593610089500409, 49.838585404109281 ], [ 0.594316117462597, 49.838236002105695 ], [ 0.594992824608155, 49.837863245007384 ], [ 0.595638356129836, 49.837468153987857 ], [ 0.596250942670609, 49.837051811430513 ], [ 0.596828905173346, 49.836615357967723 ], [ 0.597370659483, 49.836159989360311 ], [ 0.597874720688667, 49.835686953225796 ], [ 0.598339707193617, 49.835197545624482 ], [ 0.598764344502161, 49.834693107512429 ], [ 0.599147468712954, 49.834175021071282 ], [ 0.599488029709163, 49.833644705924662 ], [ 0.599785094036771, 49.833103615251659 ], [ 0.600037847463104, 49.832553231807871 ], [ 0.600245597208589, 49.831995063865016 ], [ 0.600407773845615, 49.83143064107999 ], [ 0.600523932859291, 49.830861510304914 ], [ 0.600593755865837, 49.830289231349333 ], [ 0.600617051485243, 49.829715372706481 ] ] ] } },
{ "type": "Feature", "properties": { "name": "Auberville-la-Manuel", "feature_type": "mrr", "metric_roundness": 62.64, "metric_rectangularity": 73.78, "metric_mobile_fit": 26.93, "metric_aspect_ratio": 1.293, "metric_area_km2": 7.04 }, "geometry": { "type": "Polygon", "coordinates": [ [ [ 0.565403558052404, 49.83368838791462 ], [ 0.59859631959683, 49.837167280368661 ], [ 0.602270456464469, 49.82258225507654 ], [ 0.569077694920042, 49.819102313445171 ], [ 0.565403558052404, 49.83368838791462 ] ] ] } }
]
}
