{
"type": "FeatureCollection",
"name": "aubigny",
"crs": { "type": "name", "properties": { "name": "urn:ogc:def:crs:OGC:1.3:CRS84" } },
"features": [
{ "type": "Feature", "properties": { "name": "Aubigny", "metric_roundness": 38.32, "metric_rectangularity": 54.98, "metric_mobile_fit": 71.02, "metric_aspect_ratio": 0.852, "metric_area_km2": 36.48 }, "geometry": { "type": "Polygon", "coordinates": [ [ [ 3.1719405, 46.644532 ], [ 3.1715914, 46.6586255 ], [ 3.192775, 46.6711603 ], [ 3.2085795, 46.6766035 ], [ 3.2044315, 46.678749499999988 ], [ 3.19726, 46.679928 ], [ 3.181805, 46.6863865 ], [ 3.1789605, 46.688432 ], [ 3.176096, 46.689218 ], [ 3.171002, 46.6895245 ], [ 3.165739, 46.691722 ], [ 3.156705, 46.69948 ], [ 3.149251, 46.708216 ], [ 3.146992, 46.710210499999988 ], [ 3.1453365, 46.7080251 ], [ 3.1533334, 46.6920852 ], [ 3.1476314, 46.687078499999984 ], [ 3.1457567, 46.6810892 ], [ 3.1302148, 46.675016699999986 ], [ 3.127606, 46.66806 ], [ 3.1269892, 46.661649399999988 ], [ 3.1516909, 46.6552664 ], [ 3.157728, 46.6506635 ], [ 3.1719405, 46.644532 ] ] ] } }
]
}
