{
"type": "FeatureCollection",
"name": "auboue",
"crs": { "type": "name", "properties": { "name": "urn:ogc:def:crs:OGC:1.3:CRS84" } },
"features": [
{ "type": "Feature", "properties": { "name": "Auboué", "feature_type": "entity", "metric_roundness": 31.7, "metric_rectangularity": 63.17, "metric_mobile_fit": 86.03, "metric_aspect_ratio": 0.423, "metric_area_km2": 10.68 }, "geometry": { "type": "Polygon", "coordinates": [ [ [ 5.9842186, 49.213475899999985 ], [ 5.9858743, 49.2172792 ], [ 5.9787572, 49.220001 ], [ 5.976157, 49.2319925 ], [ 5.9709774, 49.2305196 ], [ 5.9696405, 49.2243034 ], [ 5.964076, 49.221925499999983 ], [ 5.963041, 49.21719 ], [ 5.9628131, 49.2121554 ], [ 5.9691016, 49.203369399999985 ], [ 5.9674439, 49.1990196 ], [ 5.9720467, 49.1936508 ], [ 5.9785475, 49.1949945 ], [ 5.9859612, 49.202867399999974 ], [ 5.985049, 49.2071183 ], [ 5.98763, 49.209617 ], [ 5.9842186, 49.213475899999985 ] ] ] } },
{ "type": "Feature", "properties": { "name": "Auboué", "feature_type": "circle", "metric_roundness": 31.7, "metric_rectangularity": 63.17, "metric_mobile_fit": 86.03, "metric_aspect_ratio": 0.423, "metric_area_km2": 10.68 }, "geometry": { "type": "Polygon", "coordinates": [ [ [ 6.003520552430282, 49.212825367293497 ], [ 6.003480235121036, 49.211819575077548 ], [ 6.00335939370024, 49.210816519288514 ], [ 6.003158359385827, 49.20981894948374 ], [ 6.002877683198882, 49.208829600348309 ], [ 6.002518134453322, 49.207851184194915 ], [ 6.002080698647268, 49.206886383523305 ], [ 6.001566574761857, 49.20593784365974 ], [ 6.000977171974923, 49.205008165496743 ], [ 6.000314105798538, 49.204099898353199 ], [ 5.999579193650999, 49.203215532974362 ], [ 5.998774449875422, 49.202357494691242 ], [ 5.997902080218557, 49.201528136758206 ], [ 5.996964475784998, 49.200729733887137 ], [ 5.995964206483324, 49.199964475996232 ], [ 5.994904013982162, 49.199234462190574 ], [ 5.993786804195465, 49.198541694991214 ], [ 5.992615639317604, 49.197888074828896 ], [ 5.9913937294301, 49.197275394817481 ], [ 5.990124423703023, 49.196705335821747 ], [ 5.98881120121514, 49.196179461833317 ], [ 5.987457661418012, 49.195699215667396 ], [ 5.986067514270139, 49.195265914992447 ], [ 5.984644570068222, 49.194880748703781 ], [ 5.983192729003417, 49.194544773651202 ], [ 5.981715970471161, 49.194258911729833 ], [ 5.980218342163944, 49.194023947342146 ], [ 5.978703948976858, 49.193840525238443 ], [ 5.977176941756364, 49.193709148741547 ], [ 5.975641505923114, 49.193630178361083 ], [ 5.97410185, 49.193603830800633 ], [ 5.972562194076883, 49.193630178361083 ], [ 5.971026758243633, 49.193709148741547 ], [ 5.96949975102314, 49.193840525238443 ], [ 5.967985357836055, 49.194023947342146 ], [ 5.966487729528838, 49.194258911729833 ], [ 5.965010970996582, 49.194544773651202 ], [ 5.963559129931776, 49.194880748703781 ], [ 5.962136185729859, 49.195265914992447 ], [ 5.960746038581986, 49.195699215667396 ], [ 5.959392498784858, 49.196179461833317 ], [ 5.958079276296975, 49.196705335821747 ], [ 5.956809970569898, 49.197275394817481 ], [ 5.955588060682395, 49.197888074828896 ], [ 5.954416895804533, 49.198541694991214 ], [ 5.953299686017837, 49.199234462190574 ], [ 5.952239493516674, 49.199964475996232 ], [ 5.951239224215001, 49.200729733887137 ], [ 5.950301619781441, 49.201528136758206 ], [ 5.949429250124576, 49.202357494691242 ], [ 5.948624506349, 49.203215532974362 ], [ 5.94788959420146, 49.204099898353199 ], [ 5.947226528025076, 49.205008165496743 ], [ 5.946637125238142, 49.20593784365974 ], [ 5.94612300135273, 49.206886383523305 ], [ 5.945685565546676, 49.207851184194915 ], [ 5.945326016801117, 49.208829600348309 ], [ 5.945045340614171, 49.20981894948374 ], [ 5.944844306299759, 49.210816519288514 ], [ 5.944723464878963, 49.211819575077548 ], [ 5.944683147569716, 49.212825367293497 ], [ 5.944723464878963, 49.213831139045844 ], [ 5.944844306299759, 49.214834133668319 ], [ 5.945045340614171, 49.215831602273688 ], [ 5.945326016801117, 49.216820811285679 ], [ 5.945685565546676, 49.217799049926782 ], [ 5.94612300135273, 49.21876363764212 ], [ 5.946637125238142, 49.219711931438624 ], [ 5.947226528025076, 49.220641333119744 ], [ 5.94788959420146, 49.221549296395779 ], [ 5.948624506349, 49.222433333850731 ], [ 5.949429250124576, 49.223291023746363 ], [ 5.950301619781441, 49.224120016645337 ], [ 5.951239224215001, 49.224918041835139 ], [ 5.952239493516674, 49.22568291353555 ], [ 5.953299686017837, 49.226412536872658 ], [ 5.954416895804533, 49.227104913603455 ], [ 5.955588060682395, 49.22775814757528 ], [ 5.956809970569898, 49.228370449905448 ], [ 5.958079276296975, 49.228940143867113 ], [ 5.959392498784858, 49.22946566946807 ], [ 5.960746038581986, 49.229945587710112 ], [ 5.962136185729859, 49.230378584517567 ], [ 5.963559129931776, 49.23076347432437 ], [ 5.965010970996582, 49.231099203309903 ], [ 5.966487729528838, 49.231384852275021 ], [ 5.967985357836055, 49.231619639150423 ], [ 5.96949975102314, 49.231802921130686 ], [ 5.971026758243633, 49.231934196428185 ], [ 5.972562194076883, 49.232013105642089 ], [ 5.97410185, 49.232039432738958 ], [ 5.975641505923114, 49.232013105642089 ], [ 5.977176941756364, 49.231934196428185 ], [ 5.978703948976858, 49.231802921130686 ], [ 5.980218342163944, 49.231619639150423 ], [ 5.981715970471161, 49.231384852275021 ], [ 5.983192729003417, 49.231099203309903 ], [ 5.984644570068222, 49.23076347432437 ], [ 5.986067514270139, 49.230378584517567 ], [ 5.987457661418012, 49.229945587710112 ], [ 5.98881120121514, 49.22946566946807 ], [ 5.990124423703023, 49.228940143867113 ], [ 5.9913937294301, 49.228370449905448 ], [ 5.992615639317604, 49.22775814757528 ], [ 5.993786804195465, 49.227104913603455 ], [ 5.994904013982162, 49.226412536872658 ], [ 5.995964206483324, 49.22568291353555 ], [ 5.996964475784998, 49.224918041835139 ], [ 5.997902080218557, 49.224120016645337 ], [ 5.998774449875422, 49.223291023746363 ], [ 5.999579193650999, 49.222433333850731 ], [ 6.000314105798538, 49.221549296395779 ], [ 6.000977171974923, 49.220641333119744 ], [ 6.001566574761857, 49.219711931438624 ], [ 6.002080698647268, 49.21876363764212 ], [ 6.002518134453322, 49.217799049926782 ], [ 6.002877683198882, 49.216820811285679 ], [ 6.003158359385827, 49.215831602273688 ], [ 6.00335939370024, 49.214834133668319 ], [ 6.003480235121036, 49.213831139045844 ], [ 6.003520552430282, 49.212825367293497 ] ] ] } },
{ "type": "Feature", "properties": { "name": "Auboué", "feature_type": "mrr", "metric_roundness": 31.7, "metric_rectangularity": 63.17, "metric_mobile_fit": 86.03, "metric_aspect_ratio": 0.423, "metric_area_km2": 10.68 }, "geometry": { "type": "Polygon", "coordinates": [ [ [ 5.96947277731175, 49.193263373334794 ], [ 5.9568421986308, 49.229087420267042 ], [ 5.980457257571564, 49.232639264701277 ], [ 5.993087836252514, 49.196817792586501 ], [ 5.96947277731175, 49.193263373334794 ] ] ] } }
]
}
