{
"type": "FeatureCollection",
"name": "audun_le_roman",
"crs": { "type": "name", "properties": { "name": "urn:ogc:def:crs:OGC:1.3:CRS84" } },
"features": [
{ "type": "Feature", "properties": { "name": "Audun-le-Roman", "feature_type": "entity", "metric_roundness": 50.8, "metric_rectangularity": 59.52, "metric_mobile_fit": 68.87, "metric_aspect_ratio": 0.874, "metric_area_km2": 17.63 }, "geometry": { "type": "Polygon", "coordinates": [ [ [ 5.8888423, 49.353526799999983 ], [ 5.8869118, 49.345081 ], [ 5.8963355, 49.3468385 ], [ 5.8974825, 49.3580991 ], [ 5.916802, 49.3669267 ], [ 5.9189675, 49.37193 ], [ 5.8990375, 49.383169499999987 ], [ 5.8852394, 49.3805575 ], [ 5.8678645, 49.372516 ], [ 5.8774409, 49.366689 ], [ 5.8816775, 49.356606499999984 ], [ 5.8888423, 49.353526799999983 ] ] ] } },
{ "type": "Feature", "properties": { "name": "Audun-le-Roman", "feature_type": "circle", "metric_roundness": 50.8, "metric_rectangularity": 59.52, "metric_mobile_fit": 68.87, "metric_aspect_ratio": 0.874, "metric_area_km2": 17.63 }, "geometry": { "type": "Polygon", "coordinates": [ [ [ 5.922839175052097, 49.364128938005223 ], [ 5.922798246758443, 49.363111032091162 ], [ 5.922675574059085, 49.362095895201172 ], [ 5.922471493191368, 49.361086310013505 ], [ 5.922186563526764, 49.360085044158957 ], [ 5.921821566037678, 49.359094842630178 ], [ 5.921377501156857, 49.358118420251486 ], [ 5.920855586035274, 49.357158454229435 ], [ 5.920257251205998, 49.356217576804873 ], [ 5.919584136663206, 49.35529836802683 ], [ 5.918838087367074, 49.354403348667923 ], [ 5.918021148186863, 49.353534973300988 ], [ 5.917135558296083, 49.352695623556173 ], [ 5.916183745035068, 49.351887601576763 ], [ 5.915168317257806, 49.351113123692393 ], [ 5.914092058181255, 49.350374314326629 ], [ 5.91295791775673, 49.349673200156232 ], [ 5.911769004584304, 49.349011704538079 ], [ 5.910528577392342, 49.348391642219241 ], [ 5.909240036105557, 49.347814714345013 ], [ 5.907906912526049, 49.347282503778715 ], [ 5.906532860652885, 49.346796470746192 ], [ 5.905121646666743, 49.346357948817349 ], [ 5.903677138607065, 49.345968141235687 ], [ 5.902203295770034, 49.345628117606246 ], [ 5.900704157856424, 49.345338810951041 ], [ 5.899183833899052, 49.34510101514033 ], [ 5.897646491000206, 49.344915382706809 ], [ 5.896096342909915, 49.344782423048827 ], [ 5.894537638476343, 49.344702501027633 ], [ 5.89297465, 49.344675835962683 ], [ 5.891411661523657, 49.344702501027633 ], [ 5.889852957090086, 49.344782423048827 ], [ 5.888302808999795, 49.344915382706809 ], [ 5.886765466100949, 49.34510101514033 ], [ 5.885245142143575, 49.345338810951041 ], [ 5.883746004229966, 49.345628117606246 ], [ 5.882272161392935, 49.345968141235687 ], [ 5.880827653333257, 49.346357948817349 ], [ 5.879416439347114, 49.346796470746192 ], [ 5.878042387473951, 49.347282503778715 ], [ 5.876709263894443, 49.347814714345013 ], [ 5.875420722607658, 49.348391642219241 ], [ 5.874180295415696, 49.349011704538079 ], [ 5.872991382243271, 49.349673200156232 ], [ 5.871857241818746, 49.350374314326629 ], [ 5.870780982742194, 49.351113123692393 ], [ 5.869765554964931, 49.351887601576763 ], [ 5.868813741703916, 49.352695623556173 ], [ 5.867928151813135, 49.353534973300988 ], [ 5.867111212632927, 49.354403348667923 ], [ 5.866365163336794, 49.35529836802683 ], [ 5.865692048794003, 49.356217576804873 ], [ 5.865093713964726, 49.357158454229435 ], [ 5.864571798843142, 49.358118420251486 ], [ 5.864127733962323, 49.359094842630178 ], [ 5.863762736473236, 49.360085044158957 ], [ 5.863477806808632, 49.361086310013505 ], [ 5.863273725940914, 49.362095895201172 ], [ 5.863151053241557, 49.363111032091162 ], [ 5.863110124947902, 49.364128938005223 ], [ 5.863151053241557, 49.365146822847557 ], [ 5.863273725940914, 49.366161896753248 ], [ 5.863477806808632, 49.367171377734081 ], [ 5.863762736473236, 49.368172499301018 ], [ 5.864127733962323, 49.369162518042216 ], [ 5.864571798843142, 49.370138721136023 ], [ 5.865093713964726, 49.371098433778442 ], [ 5.865692048794003, 49.372039026504666 ], [ 5.866365163336794, 49.372957922384913 ], [ 5.867111212632927, 49.373852604074735 ], [ 5.867928151813135, 49.374720620700835 ], [ 5.868813741703916, 49.375559594563562 ], [ 5.869765554964931, 49.376367227637829 ], [ 5.870780982742194, 49.377141307854949 ], [ 5.871857241818746, 49.377879715148268 ], [ 5.872991382243271, 49.378580427246213 ], [ 5.874180295415696, 49.379241525197116 ], [ 5.875420722607658, 49.379861198610826 ], [ 5.876709263894443, 49.380437750602944 ], [ 5.878042387473951, 49.380969602428443 ], [ 5.879416439347114, 49.381455297791888 ], [ 5.880827653333257, 49.381893506822948 ], [ 5.882272161392935, 49.382283029706294 ], [ 5.883746004229966, 49.38262279995611 ], [ 5.885245142143575, 49.382911887326451 ], [ 5.886765466100949, 49.383149500349596 ], [ 5.888302808999795, 49.383334988495491 ], [ 5.889852957090086, 49.383467843946669 ], [ 5.891411661523657, 49.383547702983556 ], [ 5.89297465, 49.383574346976786 ], [ 5.894537638476343, 49.383547702983556 ], [ 5.896096342909915, 49.383467843946669 ], [ 5.897646491000206, 49.383334988495491 ], [ 5.899183833899052, 49.383149500349596 ], [ 5.900704157856424, 49.382911887326451 ], [ 5.902203295770034, 49.38262279995611 ], [ 5.903677138607065, 49.382283029706294 ], [ 5.905121646666743, 49.381893506822948 ], [ 5.906532860652885, 49.381455297791888 ], [ 5.907906912526049, 49.380969602428443 ], [ 5.909240036105557, 49.380437750602944 ], [ 5.910528577392342, 49.379861198610826 ], [ 5.911769004584304, 49.379241525197116 ], [ 5.91295791775673, 49.378580427246213 ], [ 5.914092058181255, 49.377879715148268 ], [ 5.915168317257806, 49.377141307854949 ], [ 5.916183745035068, 49.376367227637829 ], [ 5.917135558296083, 49.375559594563562 ], [ 5.918021148186863, 49.374720620700835 ], [ 5.918838087367074, 49.373852604074735 ], [ 5.919584136663206, 49.372957922384913 ], [ 5.920257251205998, 49.372039026504666 ], [ 5.920855586035274, 49.371098433778442 ], [ 5.921377501156857, 49.370138721136023 ], [ 5.921821566037678, 49.369162518042216 ], [ 5.922186563526764, 49.368172499301018 ], [ 5.922471493191368, 49.367171377734081 ], [ 5.922675574059085, 49.366161896753248 ], [ 5.922798246758443, 49.365146822847557 ], [ 5.922839175052097, 49.364128938005223 ] ] ] } },
{ "type": "Feature", "properties": { "name": "Audun-le-Roman", "feature_type": "mrr", "metric_roundness": 50.8, "metric_rectangularity": 59.52, "metric_mobile_fit": 68.87, "metric_aspect_ratio": 0.874, "metric_area_km2": 17.63 }, "geometry": { "type": "Polygon", "coordinates": [ [ [ 5.887498834989858, 49.344235208751421 ], [ 5.866177284495506, 49.374945457142857 ], [ 5.908266939002115, 49.387336141911845 ], [ 5.929588489496467, 49.35663363419453 ], [ 5.887498834989858, 49.344235208751421 ] ] ] } }
]
}
