{
"type": "FeatureCollection",
"name": "aulas",
"crs": { "type": "name", "properties": { "name": "urn:ogc:def:crs:OGC:1.3:CRS84" } },
"features": [
{ "type": "Feature", "properties": { "name": "Aulas", "feature_type": "entity", "metric_roundness": 32.33, "metric_rectangularity": 42.4, "metric_mobile_fit": 71.26, "metric_aspect_ratio": 0.85, "metric_area_km2": 5.46 }, "geometry": { "type": "Polygon", "coordinates": [ [ [ 3.5935362, 43.9986393 ], [ 3.605104, 44.007878 ], [ 3.604055, 44.00834 ], [ 3.5895641, 44.005147199999989 ], [ 3.5748365, 44.0069945 ], [ 3.5755233, 43.9997379 ], [ 3.5829593, 43.9918249 ], [ 3.58493, 43.982719 ], [ 3.5918385, 43.989755 ], [ 3.5935362, 43.9986393 ] ] ] } },
{ "type": "Feature", "properties": { "name": "Aulas", "feature_type": "circle", "metric_roundness": 32.33, "metric_rectangularity": 42.4, "metric_mobile_fit": 71.26, "metric_aspect_ratio": 0.85, "metric_area_km2": 5.46 }, "geometry": { "type": "Polygon", "coordinates": [ [ [ 3.61138555185188, 43.997153386321287 ], [ 3.61135699801304, 43.996368955882602 ], [ 3.611271414760605, 43.995586665185932 ], [ 3.611129036672323, 43.994808658563024 ], [ 3.610930253996637, 43.994037068686623 ], [ 3.610675611583043, 43.993274010722629 ], [ 3.610365807388697, 43.992521576529377 ], [ 3.610001690565361, 43.991781828919983 ], [ 3.60958425913194, 43.991056796003427 ], [ 3.609114657238977, 43.990348465620052 ], [ 3.608594172032618, 43.98965877988671 ], [ 3.608024230126635, 43.988989629866651 ], [ 3.607406393692178, 43.988342850378757 ], [ 3.606742356175968, 43.987720214960461 ], [ 3.606033937658679, 43.987123430998338 ], [ 3.605283079866226, 43.98655413503959 ], [ 3.604491840847627, 43.986013888297663 ], [ 3.603662389334032, 43.985504172364081 ], [ 3.602796998794389, 43.98502638513866 ], [ 3.601898041204011, 43.984581836989115 ], [ 3.600967980543168, 43.984171747150832 ], [ 3.600009366043486, 43.983797240376759 ], [ 3.599024825200673, 43.983459343846491 ], [ 3.598017056572747, 43.98315898434344 ], [ 3.596988822383466, 43.982896985707619 ], [ 3.595942940951273, 43.982674066571271 ], [ 3.594882278964474, 43.982490838383519 ], [ 3.593809743623851, 43.982347803729581 ], [ 3.592728274674219, 43.982245354949185 ], [ 3.591640836346798, 43.98218377305794 ], [ 3.590550409234456, 43.982163226974876 ], [ 3.589459982122115, 43.98218377305794 ], [ 3.588372543794695, 43.982245354949185 ], [ 3.587291074845063, 43.982347803729581 ], [ 3.586218539504439, 43.982490838383519 ], [ 3.58515787751764, 43.982674066571271 ], [ 3.584111996085447, 43.982896985707619 ], [ 3.583083761896166, 43.98315898434344 ], [ 3.582075993268239, 43.983459343846491 ], [ 3.581091452425428, 43.983797240376759 ], [ 3.580132837925745, 43.984171747150832 ], [ 3.579202777264902, 43.984581836989115 ], [ 3.578303819674525, 43.98502638513866 ], [ 3.57743842913488, 43.985504172364081 ], [ 3.576608977621286, 43.986013888297663 ], [ 3.575817738602687, 43.98655413503959 ], [ 3.575066880810234, 43.987123430998338 ], [ 3.574358462292945, 43.987720214960461 ], [ 3.573694424776735, 43.988342850378757 ], [ 3.573076588342277, 43.988989629866651 ], [ 3.572506646436295, 43.98965877988671 ], [ 3.571986161229937, 43.990348465620052 ], [ 3.571516559336973, 43.991056796003427 ], [ 3.571099127903552, 43.991781828919983 ], [ 3.570735011080217, 43.992521576529377 ], [ 3.57042520688587, 43.993274010722629 ], [ 3.570170564472277, 43.994037068686623 ], [ 3.56997178179659, 43.994808658563024 ], [ 3.569829403708308, 43.995586665185932 ], [ 3.569743820455873, 43.996368955882602 ], [ 3.569715266617033, 43.997153386321287 ], [ 3.569743820455873, 43.99793780639007 ], [ 3.569829403708308, 43.998720066090662 ], [ 3.56997178179659, 43.999498021430909 ], [ 3.570170564472277, 44.000269540299918 ], [ 3.57042520688587, 44.001032508309791 ], [ 3.570735011080217, 44.00178483458771 ], [ 3.571099127903552, 44.00252445750295 ], [ 3.571516559336973, 44.003249350312657 ], [ 3.571986161229937, 44.003957526711559 ], [ 3.572506646436295, 44.004647046269888 ], [ 3.573076588342277, 44.00531601974501 ], [ 3.573694424776735, 44.005962614252361 ], [ 3.574358462292945, 44.006585058281161 ], [ 3.575066880810234, 44.007181646541738 ], [ 3.575817738602687, 44.007750744631039 ], [ 3.576608977621286, 44.008290793503512 ], [ 3.57743842913488, 44.008800313735563 ], [ 3.578303819674525, 44.009277909571487 ], [ 3.579202777264902, 44.009722272740483 ], [ 3.580132837925745, 44.010132186033843 ], [ 3.581091452425428, 44.010506526632895 ], [ 3.582075993268239, 44.010844269178698 ], [ 3.583083761896166, 44.011144488574914 ], [ 3.584111996085447, 44.011406362516581 ], [ 3.58515787751764, 44.01162917373761 ], [ 3.586218539504439, 44.011812311971241 ], [ 3.587291074845063, 44.011955275617787 ], [ 3.588372543794695, 44.012057673115528 ], [ 3.589459982122115, 44.012119224010689 ], [ 3.590550409234456, 44.012139759723865 ], [ 3.591640836346798, 44.012119224010689 ], [ 3.592728274674218, 44.012057673115528 ], [ 3.593809743623851, 44.011955275617787 ], [ 3.594882278964474, 44.011812311971241 ], [ 3.595942940951273, 44.01162917373761 ], [ 3.596988822383466, 44.011406362516581 ], [ 3.598017056572747, 44.011144488574914 ], [ 3.599024825200673, 44.010844269178698 ], [ 3.600009366043486, 44.010506526632895 ], [ 3.600967980543168, 44.010132186033843 ], [ 3.601898041204011, 44.009722272740483 ], [ 3.602796998794389, 44.009277909571487 ], [ 3.603662389334032, 44.008800313735563 ], [ 3.604491840847627, 44.008290793503512 ], [ 3.605283079866226, 44.007750744631039 ], [ 3.606033937658679, 44.007181646541738 ], [ 3.606742356175968, 44.006585058281161 ], [ 3.607406393692178, 44.005962614252361 ], [ 3.608024230126635, 44.00531601974501 ], [ 3.608594172032618, 44.004647046269888 ], [ 3.609114657238977, 44.003957526711559 ], [ 3.60958425913194, 44.003249350312657 ], [ 3.610001690565361, 44.00252445750295 ], [ 3.610365807388697, 44.00178483458771 ], [ 3.610675611583043, 44.001032508309791 ], [ 3.610930253996637, 44.000269540299918 ], [ 3.611129036672323, 43.999498021430909 ], [ 3.611271414760605, 43.998720066090662 ], [ 3.61135699801304, 43.99793780639007 ], [ 3.61138555185188, 43.997153386321287 ] ] ] } },
{ "type": "Feature", "properties": { "name": "Aulas", "feature_type": "mrr", "metric_roundness": 32.33, "metric_rectangularity": 42.4, "metric_mobile_fit": 71.26, "metric_aspect_ratio": 0.85, "metric_area_km2": 5.46 }, "geometry": { "type": "Polygon", "coordinates": [ [ [ 3.5748365, 44.0069945 ], [ 3.605058757323765, 44.008386220988733 ], [ 3.607251593790081, 43.98374732253167 ], [ 3.577029334235642, 43.982355022384326 ], [ 3.5748365, 44.0069945 ] ] ] } }
]
}
