{
"type": "FeatureCollection",
"name": "aullene",
"crs": { "type": "name", "properties": { "name": "urn:ogc:def:crs:OGC:1.3:CRS84" } },
"features": [
{ "type": "Feature", "properties": { "name": "Aullène", "metric_roundness": 28.85, "metric_rectangularity": 67.6, "metric_mobile_fit": 66.97, "metric_aspect_ratio": 0.893, "metric_area_km2": 73.33 }, "geometry": { "type": "Polygon", "coordinates": [ [ [ 9.087547, 41.7651529 ], [ 9.0896785, 41.770440199999989 ], [ 9.095448, 41.772694 ], [ 9.0958351, 41.7801655 ], [ 9.1019465, 41.7928642 ], [ 9.151979, 41.844186499999985 ], [ 9.1414622, 41.849388199999986 ], [ 9.1447855, 41.8551084 ], [ 9.1435286, 41.8597926 ], [ 9.118419, 41.856304 ], [ 9.1182927, 41.853742099999984 ], [ 9.1116838, 41.8460215 ], [ 9.1085723, 41.8390142 ], [ 9.0998785, 41.835672499999987 ], [ 9.0925441, 41.826688799999978 ], [ 9.0873348, 41.8229475 ], [ 9.0728923, 41.8214586 ], [ 9.0700377, 41.818398599999988 ], [ 9.0692455, 41.813713899999989 ], [ 9.066365, 41.8121775 ], [ 9.060583, 41.804055 ], [ 9.059013, 41.8005365 ], [ 9.056652, 41.7987335 ], [ 9.0558535, 41.7957505 ], [ 9.049055, 41.7902795 ], [ 9.0368042, 41.7805745 ], [ 9.034639, 41.7707635 ], [ 9.0464628, 41.770995 ], [ 9.0529983, 41.764610899999987 ], [ 9.0722021, 41.761829199999987 ], [ 9.0821715, 41.7644805 ], [ 9.087547, 41.7651529 ] ] ] } }
]
}
