{
"type": "FeatureCollection",
"name": "aumuhle",
"crs": { "type": "name", "properties": { "name": "urn:ogc:def:crs:OGC:1.3:CRS84" } },
"features": [
{ "type": "Feature", "properties": { "name": "Aumühle", "metric_roundness": 48.54, "metric_rectangularity": 61.51, "metric_mobile_fit": 40.38, "metric_aspect_ratio": 1.159, "metric_area_km2": 8.56 }, "geometry": { "type": "Polygon", "coordinates": [ [ [ 10.3404436, 53.527938199999987 ], [ 10.3318795, 53.5315785 ], [ 10.307157, 53.531809 ], [ 10.300508, 53.524637 ], [ 10.3126367, 53.5185659 ], [ 10.3109705, 53.511318 ], [ 10.3404436, 53.527938199999987 ] ] ] } }
]
}
