{
"type": "FeatureCollection",
"name": "auppegard",
"crs": { "type": "name", "properties": { "name": "urn:ogc:def:crs:OGC:1.3:CRS84" } },
"features": [
{ "type": "Feature", "properties": { "name": "Auppegard", "feature_type": "entity", "metric_roundness": 51.44, "metric_rectangularity": 61.29, "metric_mobile_fit": 30.24, "metric_aspect_ratio": 1.26, "metric_area_km2": 17.41 }, "geometry": { "type": "Polygon", "coordinates": [ [ [ 1.0148115, 49.818904499999988 ], [ 1.0402896, 49.8262301 ], [ 1.0486661, 49.8197289 ], [ 1.054164, 49.8202125 ], [ 1.0550157, 49.82826619999998 ], [ 1.056244, 49.834724 ], [ 1.0498873, 49.837156 ], [ 1.0436825, 49.846723499999989 ], [ 1.0210995, 49.8396205 ], [ 1.0167886, 49.8335173 ], [ 1.003654, 49.830517 ], [ 0.9997276, 49.82826619999998 ], [ 1.007779, 49.817794 ], [ 1.0148115, 49.818904499999988 ] ] ] } },
{ "type": "Feature", "properties": { "name": "Auppegard", "feature_type": "circle", "metric_roundness": 51.44, "metric_rectangularity": 61.29, "metric_mobile_fit": 30.24, "metric_aspect_ratio": 1.26, "metric_area_km2": 17.41 }, "geometry": { "type": "Polygon", "coordinates": [ [ [ 1.058557576086683, 49.830203432309794 ], [ 1.058517158818873, 49.829207797022335 ], [ 1.058396017796366, 49.828214870291291 ], [ 1.058194485058283, 49.827227373911313 ], [ 1.057913112991852, 49.826248014957578 ], [ 1.057552672818347, 49.825279478361232 ], [ 1.057114152479232, 49.824324419543956 ], [ 1.056598753928275, 49.823385457131565 ], [ 1.056007889837078, 49.822465165767028 ], [ 1.055343179723046, 49.821566069042341 ], [ 1.054606445510397, 49.82069063256921 ], [ 1.053799706536398, 49.81984125720718 ], [ 1.052925174016502, 49.819020272468322 ], [ 1.051985244983557, 49.81822993011648 ], [ 1.050982495717709, 49.817472397978896 ], [ 1.049919674684997, 49.816749753987317 ], [ 1.048799695003993, 49.816063980465103 ], [ 1.047625626461156, 49.815416958676281 ], [ 1.046400687096752, 49.814810463651426 ], [ 1.045128234384435, 49.814246159305107 ], [ 1.043811756028643, 49.813725593858138 ], [ 1.042454860405041, 49.813250195577588 ], [ 1.041061266670217, 49.812821268846257 ], [ 1.039634794567731, 49.812439990572699 ], [ 1.038179353958462, 49.812107406951689 ], [ 1.036698934103954, 49.81182443058421 ], [ 1.035197592732126, 49.811591837964997 ], [ 1.033679444915321, 49.811410267344591 ], [ 1.03214865179118, 49.811280216971959 ], [ 1.030609409157251, 49.81120204372251 ], [ 1.029065935970603, 49.811175962115328 ], [ 1.027522462783956, 49.81120204372251 ], [ 1.025983220150027, 49.811280216971959 ], [ 1.024452427025885, 49.811410267344591 ], [ 1.022934279209081, 49.811591837964997 ], [ 1.021432937837253, 49.81182443058421 ], [ 1.019952517982745, 49.812107406951689 ], [ 1.018497077373476, 49.812439990572699 ], [ 1.01707060527099, 49.812821268846257 ], [ 1.015677011536166, 49.813250195577588 ], [ 1.014320115912564, 49.813725593858138 ], [ 1.013003637556771, 49.814246159305107 ], [ 1.011731184844455, 49.814810463651426 ], [ 1.010506245480051, 49.815416958676281 ], [ 1.009332176937214, 49.816063980465103 ], [ 1.00821219725621, 49.816749753987317 ], [ 1.007149376223497, 49.817472397978896 ], [ 1.00614662695765, 49.81822993011648 ], [ 1.005206697924705, 49.819020272468322 ], [ 1.004332165404809, 49.81984125720718 ], [ 1.00352542643081, 49.82069063256921 ], [ 1.002788692218161, 49.821566069042341 ], [ 1.002123982104129, 49.822465165767028 ], [ 1.001533118012932, 49.823385457131565 ], [ 1.001017719461974, 49.824324419543956 ], [ 1.00057919912286, 49.825279478361232 ], [ 1.000218758949355, 49.826248014957578 ], [ 0.999937386882924, 49.827227373911313 ], [ 0.999735854144841, 49.828214870291291 ], [ 0.999614713122333, 49.829207797022335 ], [ 0.999574295854524, 49.830203432309794 ], [ 0.999614713122333, 49.831199047102494 ], [ 0.999735854144841, 49.832191912573784 ], [ 0.999937386882924, 49.833179307600176 ], [ 1.000218758949355, 49.834158526216967 ], [ 1.00057919912286, 49.835126885030554 ], [ 1.001017719461974, 49.836081730567095 ], [ 1.001533118012932, 49.837020446537522 ], [ 1.002123982104129, 49.837940460998944 ], [ 1.002788692218161, 49.838839253393147 ], [ 1.00352542643081, 49.839714361442745 ], [ 1.004332165404809, 49.840563387886483 ], [ 1.005206697924705, 49.841384007035103 ], [ 1.00614662695765, 49.842173971130237 ], [ 1.007149376223497, 49.84293111648892 ], [ 1.00821219725621, 49.843653369417019 ], [ 1.009332176937214, 49.844338751875753 ], [ 1.010506245480051, 49.844985386885682 ], [ 1.011731184844455, 49.845591503653843 ], [ 1.013003637556771, 49.84615544240993 ], [ 1.014320115912564, 49.846675658938615 ], [ 1.015677011536166, 49.847150728795654 ], [ 1.017070605270989, 49.847579351196515 ], [ 1.018497077373476, 49.847960352566957 ], [ 1.019952517982745, 49.848292689746017 ], [ 1.021432937837252, 49.848575452832769 ], [ 1.022934279209081, 49.848807867669244 ], [ 1.024452427025885, 49.848989297952713 ], [ 1.025983220150027, 49.84911924697176 ], [ 1.027522462783956, 49.849197358961455 ], [ 1.029065935970603, 49.849223420073869 ], [ 1.030609409157251, 49.849197358961455 ], [ 1.03214865179118, 49.84911924697176 ], [ 1.033679444915321, 49.848989297952713 ], [ 1.035197592732126, 49.848807867669244 ], [ 1.036698934103954, 49.848575452832769 ], [ 1.038179353958462, 49.848292689746017 ], [ 1.039634794567731, 49.847960352566957 ], [ 1.041061266670217, 49.847579351196515 ], [ 1.042454860405041, 49.847150728795654 ], [ 1.043811756028643, 49.846675658938615 ], [ 1.045128234384435, 49.84615544240993 ], [ 1.046400687096752, 49.845591503653843 ], [ 1.047625626461156, 49.844985386885682 ], [ 1.048799695003993, 49.844338751875753 ], [ 1.049919674684997, 49.843653369417034 ], [ 1.050982495717709, 49.84293111648892 ], [ 1.051985244983557, 49.842173971130237 ], [ 1.052925174016502, 49.841384007035103 ], [ 1.053799706536398, 49.840563387886483 ], [ 1.054606445510397, 49.839714361442745 ], [ 1.055343179723046, 49.838839253393147 ], [ 1.056007889837078, 49.837940460998944 ], [ 1.056598753928275, 49.837020446537522 ], [ 1.057114152479232, 49.836081730567095 ], [ 1.057552672818347, 49.835126885030554 ], [ 1.057913112991852, 49.834158526216967 ], [ 1.058194485058283, 49.833179307600176 ], [ 1.058396017796366, 49.832191912573784 ], [ 1.058517158818873, 49.831199047102494 ], [ 1.058557576086683, 49.830203432309794 ] ] ] } },
{ "type": "Feature", "properties": { "name": "Auppegard", "feature_type": "mrr", "metric_roundness": 51.44, "metric_rectangularity": 61.29, "metric_mobile_fit": 30.24, "metric_aspect_ratio": 1.26, "metric_area_km2": 17.41 }, "geometry": { "type": "Polygon", "coordinates": [ [ [ 0.9968987728728, 49.832007519988181 ], [ 1.046499109780735, 49.847609331131643 ], [ 1.064707526841853, 49.823530201856826 ], [ 1.015107189933919, 49.807920620947499 ], [ 0.9968987728728, 49.832007519988181 ] ] ] } }
]
}
