{
"type": "FeatureCollection",
"name": "auvillar",
"crs": { "type": "name", "properties": { "name": "urn:ogc:def:crs:OGC:1.3:CRS84" } },
"features": [
{ "type": "Feature", "properties": { "name": "Auvillar", "metric_roundness": 46.74, "metric_rectangularity": 55.84, "metric_mobile_fit": 62.4, "metric_aspect_ratio": 0.939, "metric_area_km2": 30.24 }, "geometry": { "type": "Polygon", "coordinates": [ [ [ 0.90522, 44.0691403 ], [ 0.8944229, 44.0785024 ], [ 0.8871035, 44.0909663 ], [ 0.88253, 44.093104499999988 ], [ 0.8884669, 44.081478 ], [ 0.8747113, 44.071698399999981 ], [ 0.872021, 44.062356299999983 ], [ 0.8662608, 44.0596392 ], [ 0.8598485, 44.0609385 ], [ 0.8524257, 44.05413 ], [ 0.8506315, 44.047676 ], [ 0.8535136, 44.042265199999981 ], [ 0.864661, 44.038695 ], [ 0.8772055, 44.047784199999988 ], [ 0.8989078, 44.0401928 ], [ 0.9041655, 44.0427815 ], [ 0.91911, 44.055276 ], [ 0.9217004, 44.061006 ], [ 0.918843, 44.0685295 ], [ 0.90522, 44.0691403 ] ] ] } }
]
}
