{
"type": "FeatureCollection",
"name": "auwald",
"crs": { "type": "name", "properties": { "name": "urn:ogc:def:crs:OGC:1.3:CRS84" } },
"features": [
{ "type": "Feature", "properties": { "name": "Auwald", "metric_roundness": 9.25, "metric_rectangularity": 39.4, "metric_mobile_fit": 69.13, "metric_aspect_ratio": 0.254, "metric_area_km2": 9.57 }, "geometry": { "type": "Polygon", "coordinates": [ [ [ 10.0870081, 48.2080399 ], [ 10.0819171, 48.224239099999984 ], [ 10.0676645, 48.2382659 ], [ 10.0697867, 48.246528 ], [ 10.0764761, 48.250151799999983 ], [ 10.0770765, 48.253766 ], [ 10.076681, 48.262161499999984 ], [ 10.0705994, 48.269199799999981 ], [ 10.0624095, 48.272642499999982 ], [ 10.0650733, 48.2622283 ], [ 10.0630884, 48.2580677 ], [ 10.0671215, 48.254509499999983 ], [ 10.0677711, 48.2512633 ], [ 10.0614875, 48.2409354 ], [ 10.0689165, 48.2311115 ], [ 10.0695392, 48.2244416 ], [ 10.0774875, 48.220837099999976 ], [ 10.0773125, 48.2109962 ], [ 10.0851985, 48.2056835 ], [ 10.0870081, 48.2080399 ] ] ] } }
]
}
