{
"type": "FeatureCollection",
"name": "flins_sur_seine",
"crs": { "type": "name", "properties": { "name": "urn:ogc:def:crs:OGC:1.3:CRS84" } },
"features": [
{ "type": "Feature", "properties": { "name": "Flins-sur-Seine", "metric_roundness": 32.83, "metric_rectangularity": 66.3, "metric_mobile_fit": 87.48, "metric_aspect_ratio": 0.437, "metric_area_km2": 20.26 }, "geometry": { "type": "Polygon", "coordinates": [ [ [ 1.8598751, 48.977932699999982 ], [ 1.8636839, 48.9538099 ], [ 1.8699225, 48.9471435 ], [ 1.8721843, 48.9420717 ], [ 1.884799, 48.9405055 ], [ 1.8831916, 48.948510799999987 ], [ 1.887234, 48.956356899999975 ], [ 1.8865455, 48.972799399999985 ], [ 1.8895275, 48.9758245 ], [ 1.886564, 48.979093 ], [ 1.8769165, 48.981572499999984 ], [ 1.8777465, 48.98801 ], [ 1.875783, 48.9923615 ], [ 1.8648125, 48.989892 ], [ 1.8549875, 48.9876425 ], [ 1.8598751, 48.977932699999982 ] ] ] } }
]
}
