{
"type": "FeatureCollection",
"name": "florida_de_liebana",
"crs": { "type": "name", "properties": { "name": "urn:ogc:def:crs:OGC:1.3:CRS84" } },
"features": [
{ "type": "Feature", "properties": { "name": "Florida de Liébana", "metric_roundness": 56.48, "metric_rectangularity": 62.43, "metric_mobile_fit": 47.02, "metric_aspect_ratio": 1.092, "metric_area_km2": 36.23 }, "geometry": { "type": "Polygon", "coordinates": [ [ [ -5.7544027, 41.0069351 ], [ -5.7428762, 41.00163 ], [ -5.7286175, 41.001816 ], [ -5.7281885, 41.003826 ], [ -5.7322925, 41.011635 ], [ -5.7324585, 41.014496 ], [ -5.7315675, 41.0190925 ], [ -5.7275119, 41.0261387 ], [ -5.7419323, 41.034815699999989 ], [ -5.7592745, 41.038703599999984 ], [ -5.7689655, 41.044068 ], [ -5.7740268, 41.0418224 ], [ -5.7761791, 41.033836199999989 ], [ -5.789062, 41.022811499999989 ], [ -5.7912039, 41.0178151 ], [ -5.7974789, 41.0168898 ], [ -5.7960256, 41.0135894 ], [ -5.8035935, 41.004753 ], [ -5.7992748, 41.001185899999989 ], [ -5.7902488, 41.002116299999983 ], [ -5.7880889, 40.9988708 ], [ -5.780127, 40.9989256 ], [ -5.777013, 40.991516 ], [ -5.7544027, 41.0069351 ] ] ] } }
]
}
