{
"type": "FeatureCollection",
"name": "floss_m",
"crs": { "type": "name", "properties": { "name": "urn:ogc:def:crs:OGC:1.3:CRS84" } },
"features": [
{ "type": "Feature", "properties": { "name": "Floß, M", "feature_type": "entity", "metric_roundness": 64.73, "metric_rectangularity": 66.87, "metric_mobile_fit": 63.48, "metric_aspect_ratio": 0.928, "metric_area_km2": 128.72 }, "geometry": { "type": "Polygon", "coordinates": [ [ [ 12.2668024, 49.755617799999982 ], [ 12.2654369, 49.7518628 ], [ 12.250547, 49.749495 ], [ 12.2365205, 49.740545 ], [ 12.2295633, 49.733020899999985 ], [ 12.2205876, 49.7315785 ], [ 12.2093175, 49.72268 ], [ 12.2243201, 49.715307 ], [ 12.2247481, 49.7093188 ], [ 12.2307643, 49.7055521 ], [ 12.2232612, 49.702778399999985 ], [ 12.2268869, 49.6981189 ], [ 12.2465249, 49.694046 ], [ 12.2543807, 49.6871364 ], [ 12.282247, 49.682951 ], [ 12.2800797, 49.6864528 ], [ 12.2820254, 49.6889598 ], [ 12.3005338, 49.690699599999988 ], [ 12.3103641, 49.698060899999987 ], [ 12.3209717, 49.697897499999989 ], [ 12.3223245, 49.709245699999983 ], [ 12.3325565, 49.7159225 ], [ 12.3167862, 49.7304452 ], [ 12.324626, 49.732566199999987 ], [ 12.3262098, 49.7374185 ], [ 12.3146557, 49.7394274 ], [ 12.3218268, 49.746693 ], [ 12.3325839, 49.750465399999975 ], [ 12.3351785, 49.758438 ], [ 12.3226139, 49.7593234 ], [ 12.3221158, 49.763789799999984 ], [ 12.3126741, 49.76330979999998 ], [ 12.2945872, 49.770562399999989 ], [ 12.2826724, 49.7706488 ], [ 12.2721507, 49.764138799999984 ], [ 12.2634065, 49.7627075 ], [ 12.2668024, 49.755617799999982 ] ] ] } },
{ "type": "Feature", "properties": { "name": "Floß, M", "feature_type": "circle", "metric_roundness": 64.73, "metric_rectangularity": 66.87, "metric_mobile_fit": 63.48, "metric_aspect_ratio": 0.928, "metric_area_km2": 128.72 }, "geometry": { "type": "Polygon", "coordinates": [ [ [ 12.351630588576933, 49.728955263834663 ], [ 12.351532617281125, 49.726536764201683 ], [ 12.351238971926211, 49.724124773507356 ], [ 12.350750457373699, 49.721725904328338 ], [ 12.350068412608021, 49.719346734244375 ], [ 12.349194707066472, 49.716993787783004 ], [ 12.34813173551521, 49.714673518499062 ], [ 12.346882411485369, 49.71239229123897 ], [ 12.345450159287282, 49.710156364638742 ], [ 12.343838904624659, 49.707971873904313 ], [ 12.342053063834543, 49.705844813922084 ], [ 12.3400975317824, 49.70378102274686 ], [ 12.337977668445664, 49.701786165513262 ], [ 12.335699284222386, 49.699865718815666 ], [ 12.333268624005356, 49.698024955600467 ], [ 12.330692350065277, 49.696268930613229 ], [ 12.32797752378994, 49.694602466441616 ], [ 12.325131586329464, 49.693030140193493 ], [ 12.322162338200608, 49.691556270847911 ], [ 12.319077917906105, 49.690184907314695 ], [ 12.315886779627583, 49.688919817236574 ], [ 12.312597670053252, 49.687764476565498 ], [ 12.309219604403834, 49.686722059943051 ], [ 12.305761841722466, 49.68579543191187 ], [ 12.302233859496313, 49.684987138983722 ], [ 12.298645327679427, 49.684299402586319 ], [ 12.295006082188085, 49.683734112909299 ], [ 12.291326097941216, 49.683292823666889 ], [ 12.287615461519847, 49.682976747792232 ], [ 12.283884343520489, 49.682786754075657 ], [ 12.280142970678231, 49.682723364756534 ], [ 12.276401597835971, 49.682786754075657 ], [ 12.272670479836615, 49.682976747792232 ], [ 12.268959843415248, 49.683292823666889 ], [ 12.265279859168377, 49.683734112909299 ], [ 12.261640613677034, 49.684299402586319 ], [ 12.258052081860148, 49.684987138983722 ], [ 12.254524099633993, 49.68579543191187 ], [ 12.251066336952627, 49.686722059943051 ], [ 12.247688271303209, 49.687764476565498 ], [ 12.244399161728881, 49.688919817236574 ], [ 12.241208023450358, 49.690184907314695 ], [ 12.238123603155854, 49.691556270847911 ], [ 12.235154355026999, 49.693030140193493 ], [ 12.232308417566522, 49.694602466441616 ], [ 12.229593591291186, 49.696268930613229 ], [ 12.227017317351105, 49.698024955600467 ], [ 12.224586657134076, 49.699865718815666 ], [ 12.2223082729108, 49.701786165513262 ], [ 12.220188409574062, 49.70378102274686 ], [ 12.21823287752192, 49.705844813922084 ], [ 12.216447036731802, 49.707971873904313 ], [ 12.214835782069182, 49.710156364638742 ], [ 12.213403529871092, 49.71239229123897 ], [ 12.212154205841252, 49.714673518499062 ], [ 12.211091234289992, 49.716993787783004 ], [ 12.210217528748441, 49.719346734244375 ], [ 12.209535483982762, 49.721725904328338 ], [ 12.209046969430249, 49.724124773507356 ], [ 12.208753324075339, 49.726536764201683 ], [ 12.208655352779529, 49.728955263834663 ], [ 12.208753324075339, 49.731373642973693 ], [ 12.209046969430249, 49.733785273506264 ], [ 12.209535483982762, 49.736183546801762 ], [ 12.210217528748441, 49.738561891809056 ], [ 12.211091234289992, 49.740913793040342 ], [ 12.212154205841252, 49.743232808392534 ], [ 12.213403529871092, 49.745512586757563 ], [ 12.214835782069182, 49.747746885373822 ], [ 12.216447036731802, 49.749929586871914 ], [ 12.21823287752192, 49.75205471596869 ], [ 12.220188409574062, 49.754116455764532 ], [ 12.2223082729108, 49.756109163600172 ], [ 12.224586657134076, 49.758027386430506 ], [ 12.227017317351105, 49.759865875674279 ], [ 12.229593591291186, 49.761619601500044 ], [ 12.232308417566522, 49.763283766510227 ], [ 12.235154355026998, 49.764853818787067 ], [ 12.238123603155854, 49.766325464265613 ], [ 12.241208023450358, 49.767694678401178 ], [ 12.244399161728881, 49.768957717100285 ], [ 12.247688271303209, 49.770111126886306 ], [ 12.251066336952627, 49.771151754272857 ], [ 12.254524099633993, 49.772076754320508 ], [ 12.258052081860148, 49.772883598354042 ], [ 12.261640613677034, 49.773570080820107 ], [ 12.265279859168377, 49.774134325267397 ], [ 12.268959843415248, 49.774574789433444 ], [ 12.272670479836615, 49.774890269424809 ], [ 12.276401597835971, 49.775079902979776 ], [ 12.280142970678231, 49.775143171804977 ], [ 12.283884343520489, 49.775079902979776 ], [ 12.287615461519847, 49.774890269424809 ], [ 12.291326097941216, 49.774574789433444 ], [ 12.295006082188085, 49.774134325267397 ], [ 12.298645327679427, 49.773570080820107 ], [ 12.302233859496313, 49.772883598354042 ], [ 12.305761841722466, 49.772076754320508 ], [ 12.309219604403834, 49.771151754272857 ], [ 12.312597670053252, 49.770111126886306 ], [ 12.315886779627583, 49.768957717100285 ], [ 12.319077917906105, 49.767694678401178 ], [ 12.322162338200608, 49.766325464265613 ], [ 12.325131586329464, 49.764853818787067 ], [ 12.32797752378994, 49.763283766510227 ], [ 12.330692350065277, 49.761619601500044 ], [ 12.333268624005356, 49.759865875674279 ], [ 12.335699284222386, 49.758027386430506 ], [ 12.337977668445664, 49.756109163600172 ], [ 12.3400975317824, 49.754116455764532 ], [ 12.342053063834543, 49.75205471596869 ], [ 12.343838904624659, 49.749929586871914 ], [ 12.345450159287282, 49.747746885373822 ], [ 12.346882411485369, 49.745512586757563 ], [ 12.34813173551521, 49.743232808392534 ], [ 12.349194707066472, 49.740913793040342 ], [ 12.350068412608021, 49.738561891809056 ], [ 12.350750457373699, 49.736183546801762 ], [ 12.351238971926211, 49.733785273506264 ], [ 12.351532617281125, 49.731373642973693 ], [ 12.351630588576933, 49.728955263834663 ] ] ] } },
{ "type": "Feature", "properties": { "name": "Floß, M", "feature_type": "mrr", "metric_roundness": 64.73, "metric_rectangularity": 66.87, "metric_mobile_fit": 63.48, "metric_aspect_ratio": 0.928, "metric_area_km2": 128.72 }, "geometry": { "type": "Polygon", "coordinates": [ [ [ 12.197672595477751, 49.714911280903848 ], [ 12.29180042596227, 49.783338657467482 ], [ 12.373746218308805, 49.736287929575965 ], [ 12.279618387824286, 49.66779415480238 ], [ 12.197672595477751, 49.714911280903848 ] ] ] } }
]
}
