{
"type": "FeatureCollection",
"name": "vyzlovka",
"crs": { "type": "name", "properties": { "name": "urn:ogc:def:crs:OGC:1.3:CRS84" } },
"features": [
{ "type": "Feature", "properties": { "name": "Vyžlovka", "metric_roundness": 30.81, "metric_rectangularity": 46.28, "metric_mobile_fit": 82.81, "metric_aspect_ratio": 0.734, "metric_area_km2": 9.82 }, "geometry": { "type": "Polygon", "coordinates": [ [ [ 14.7748981, 49.9876957 ], [ 14.7771034, 49.9742427 ], [ 14.7620165, 49.962230499999983 ], [ 14.772816, 49.960114499999989 ], [ 14.7839206, 49.973366299999988 ], [ 14.791161, 49.975756 ], [ 14.7877349, 49.9805908 ], [ 14.7995849, 49.9823459 ], [ 14.8022316, 49.986953699999987 ], [ 14.7991465, 49.990061 ], [ 14.7893934, 49.992616299999987 ], [ 14.7807286, 49.9914486 ], [ 14.7739755, 49.9953285 ], [ 14.7707245, 49.991481 ], [ 14.7748981, 49.9876957 ] ] ] } }
]
}
