{
"type": "FeatureCollection",
"name": "ziar_okres_revuca",
"crs": { "type": "name", "properties": { "name": "urn:ogc:def:crs:OGC:1.3:CRS84" } },
"features": [
{ "type": "Feature", "properties": { "name": "Žiar (okres Revúca)", "metric_roundness": 54.43, "metric_rectangularity": 74.37, "metric_mobile_fit": 19.27, "metric_aspect_ratio": 1.37, "metric_area_km2": 10.91 }, "geometry": { "type": "Polygon", "coordinates": [ [ [ 20.2662047, 48.437157599999985 ], [ 20.2468905, 48.438366 ], [ 20.2475742, 48.428582699999978 ], [ 20.2555865, 48.4239515 ], [ 20.264772, 48.419681 ], [ 20.283977, 48.421012 ], [ 20.2881611, 48.4274772 ], [ 20.2752455, 48.439672499999986 ], [ 20.2662047, 48.437157599999985 ] ] ] } }
]
}
