{
"type": "FeatureCollection",
"name": "zichovice",
"crs": { "type": "name", "properties": { "name": "urn:ogc:def:crs:OGC:1.3:CRS84" } },
"features": [
{ "type": "Feature", "properties": { "name": "Žichovice", "metric_roundness": 43.79, "metric_rectangularity": 57.41, "metric_mobile_fit": 34.57, "metric_aspect_ratio": 1.217, "metric_area_km2": 12.34 }, "geometry": { "type": "Polygon", "coordinates": [ [ [ 13.6291757, 49.2716186 ], [ 13.6180417, 49.273048399999986 ], [ 13.6115006, 49.266206 ], [ 13.615952, 49.263846 ], [ 13.6225301, 49.261407299999973 ], [ 13.6221724, 49.255241899999987 ], [ 13.631185, 49.251704 ], [ 13.641421, 49.256426 ], [ 13.6390038, 49.259887899999988 ], [ 13.6429729, 49.265350799999986 ], [ 13.6600907, 49.269087299999988 ], [ 13.663269, 49.274967 ], [ 13.6525774, 49.279465599999988 ], [ 13.6378095, 49.274443499999983 ], [ 13.6291757, 49.2716186 ] ] ] } }
]
}
