{
"type": "FeatureCollection",
"name": "pfaffikon",
"crs": { "type": "name", "properties": { "name": "urn:ogc:def:crs:OGC:1.3:CRS84" } },
"features": [
{ "type": "Feature", "properties": { "name": "Pfäffikon", "metric_roundness": 37.77, "metric_rectangularity": 46.2, "metric_mobile_fit": 60.4, "metric_aspect_ratio": 0.959, "metric_area_km2": 43.32 }, "geometry": { "type": "Polygon", "coordinates": [ [ [ 8.7524688, 47.359284299999985 ], [ 8.7569355, 47.3496125 ], [ 8.7709822, 47.353390099999977 ], [ 8.779185, 47.3490505 ], [ 8.7956066, 47.3402163 ], [ 8.8168458, 47.3377574 ], [ 8.8288705, 47.339791 ], [ 8.821425, 47.344576 ], [ 8.8140721, 47.3468886 ], [ 8.8086953, 47.357818099999982 ], [ 8.8098569, 47.3649892 ], [ 8.80345, 47.372058299999985 ], [ 8.8168891, 47.384592299999987 ], [ 8.838105, 47.387581499999975 ], [ 8.8415325, 47.3884665 ], [ 8.8413565, 47.392355 ], [ 8.838919, 47.3943635 ], [ 8.8411965, 47.395838 ], [ 8.8323872, 47.4006889 ], [ 8.8222762, 47.398567699999987 ], [ 8.8167365, 47.4002705 ], [ 8.8129639, 47.3862284 ], [ 8.8006922, 47.3872886 ], [ 8.7839744, 47.380849799999986 ], [ 8.7763445, 47.3835635 ], [ 8.7681632, 47.3788766 ], [ 8.7660391, 47.37387 ], [ 8.7600771, 47.372645 ], [ 8.7553825, 47.3638975 ], [ 8.7524688, 47.359284299999985 ] ] ] } }
]
}
