{
"type": "FeatureCollection",
"name": "bietlenheim",
"crs": { "type": "name", "properties": { "name": "urn:ogc:def:crs:OGC:1.3:CRS84" } },
"features": [
{ "type": "Feature", "properties": { "name": "Bietlenheim", "feature_type": "entity", "metric_roundness": 36.24, "metric_rectangularity": 56.21, "metric_mobile_fit": 91.77, "metric_aspect_ratio": 0.645, "metric_area_km2": 5.03 }, "geometry": { "type": "Polygon", "coordinates": [ [ [ 7.7923595, 48.711246499999987 ], [ 7.7875383, 48.717250799999981 ], [ 7.7921315, 48.730235 ], [ 7.789548, 48.733382 ], [ 7.7830283, 48.732008199999981 ], [ 7.775261, 48.720817699999984 ], [ 7.7750495, 48.713909499999986 ], [ 7.7707255, 48.712054 ], [ 7.7923595, 48.711246499999987 ] ] ] } },
{ "type": "Feature", "properties": { "name": "Bietlenheim", "feature_type": "circle", "metric_roundness": 36.24, "metric_rectangularity": 56.21, "metric_mobile_fit": 91.77, "metric_aspect_ratio": 0.645, "metric_area_km2": 5.03 }, "geometry": { "type": "Polygon", "coordinates": [ [ [ 7.80130642173232, 48.721843537980874 ], [ 7.801280533650454, 48.721191322172089 ], [ 7.801202940362289, 48.720540885618853 ], [ 7.801073854545633, 48.719894011226344 ], [ 7.80089363001574, 48.719252472204076 ], [ 7.800662760755517, 48.718618027203782 ], [ 7.80038187956156, 48.717992415496454 ], [ 7.800051756309696, 48.717377352201787 ], [ 7.799673295844813, 48.716774523583233 ], [ 7.799247535500739, 48.71618558242151 ], [ 7.798775642256982, 48.715612143479241 ], [ 7.798258909540122, 48.715055779069424 ], [ 7.79769875367862, 48.714518014739667 ], [ 7.797096710020754, 48.714000325084307 ], [ 7.796454428726345, 48.713504129695906 ], [ 7.795773670243777, 48.713030789267144 ], [ 7.795056300484728, 48.712581601854126 ], [ 7.794304285709846, 48.712157799311235 ], [ 7.793519687139359, 48.71176054390741 ], [ 7.792704655303409, 48.711390925133294 ], [ 7.791861424147606, 48.711049956707974 ], [ 7.790992304909939, 48.71073857379367 ], [ 7.790099679785824, 48.710457630426028 ], [ 7.789185995398681, 48.710207897167173 ], [ 7.788253756093908, 48.709990058987998 ], [ 7.787305517074635, 48.709804713385566 ], [ 7.786343877398108, 48.709652368740841 ], [ 7.785371472851836, 48.709533442921263 ], [ 7.784390968729087, 48.709448262132128 ], [ 7.783405052523511, 48.709397060019874 ], [ 7.782416426562895, 48.709379977029791 ], [ 7.781427800602278, 48.709397060019874 ], [ 7.780441884396701, 48.709448262132128 ], [ 7.779461380273953, 48.709533442921263 ], [ 7.778488975727681, 48.709652368740841 ], [ 7.777527336051153, 48.709804713385566 ], [ 7.776579097031882, 48.709990058987998 ], [ 7.775646857727108, 48.710207897167173 ], [ 7.774733173339965, 48.710457630426028 ], [ 7.773840548215849, 48.71073857379367 ], [ 7.772971428978183, 48.711049956707974 ], [ 7.772128197822381, 48.711390925133294 ], [ 7.771313165986431, 48.71176054390741 ], [ 7.770528567415942, 48.712157799311235 ], [ 7.76977655264106, 48.712581601854126 ], [ 7.769059182882014, 48.713030789267144 ], [ 7.768378424399444, 48.713504129695906 ], [ 7.767736143105035, 48.714000325084307 ], [ 7.76713409944717, 48.714518014739667 ], [ 7.766573943585667, 48.715055779069424 ], [ 7.766057210868807, 48.715612143479241 ], [ 7.76558531762505, 48.71618558242151 ], [ 7.765159557280976, 48.716774523583233 ], [ 7.764781096816092, 48.717377352201787 ], [ 7.764450973564228, 48.717992415496454 ], [ 7.764170092370271, 48.718618027203782 ], [ 7.763939223110048, 48.719252472204076 ], [ 7.763758998580156, 48.719894011226344 ], [ 7.763629912763499, 48.720540885618853 ], [ 7.763552319475336, 48.721191322172089 ], [ 7.763526431393469, 48.721843537980874 ], [ 7.763552319475336, 48.72249574533226 ], [ 7.763629912763499, 48.723146156606013 ], [ 7.763758998580156, 48.723792989173909 ], [ 7.763939223110048, 48.724434470284663 ], [ 7.764170092370271, 48.725068841921036 ], [ 7.764450973564228, 48.72569436561583 ], [ 7.764781096816092, 48.726309327213635 ], [ 7.765159557280976, 48.7269120415652 ], [ 7.76558531762505, 48.727500857141749 ], [ 7.766057210868807, 48.728074160556581 ], [ 7.766573943585667, 48.728630380981599 ], [ 7.76713409944717, 48.729167994446705 ], [ 7.767736143105035, 48.729685528010442 ], [ 7.768378424399444, 48.730181563790474 ], [ 7.769059182882014, 48.730654742842773 ], [ 7.76977655264106, 48.731103768879329 ], [ 7.770528567415942, 48.73152741181385 ], [ 7.771313165986431, 48.731924511126053 ], [ 7.772128197822381, 48.732293979035525 ], [ 7.772971428978183, 48.732634803476039 ], [ 7.773840548215849, 48.732946050862921 ], [ 7.774733173339965, 48.733226868645396 ], [ 7.775646857727108, 48.733476487637262 ], [ 7.776579097031882, 48.733694224119574 ], [ 7.777527336051153, 48.733879481709472 ], [ 7.778488975727681, 48.734031752990276 ], [ 7.779461380273953, 48.73415062089834 ], [ 7.780441884396701, 48.734235759862855 ], [ 7.781427800602278, 48.734286936695625 ], [ 7.782416426562895, 48.734304011228339 ], [ 7.783405052523511, 48.734286936695625 ], [ 7.784390968729087, 48.734235759862855 ], [ 7.785371472851836, 48.73415062089834 ], [ 7.786343877398108, 48.734031752990276 ], [ 7.787305517074635, 48.733879481709472 ], [ 7.788253756093908, 48.733694224119574 ], [ 7.789185995398681, 48.733476487637262 ], [ 7.790099679785824, 48.733226868645396 ], [ 7.790992304909939, 48.732946050862921 ], [ 7.791861424147606, 48.732634803476039 ], [ 7.792704655303409, 48.732293979035525 ], [ 7.793519687139359, 48.731924511126053 ], [ 7.794304285709846, 48.73152741181385 ], [ 7.795056300484728, 48.731103768879329 ], [ 7.795773670243777, 48.730654742842773 ], [ 7.796454428726345, 48.730181563790474 ], [ 7.797096710020754, 48.729685528010442 ], [ 7.79769875367862, 48.729167994446705 ], [ 7.798258909540122, 48.728630380981599 ], [ 7.798775642256982, 48.728074160556581 ], [ 7.799247535500739, 48.727500857141749 ], [ 7.799673295844813, 48.7269120415652 ], [ 7.800051756309696, 48.726309327213635 ], [ 7.80038187956156, 48.72569436561583 ], [ 7.800662760755517, 48.725068841921036 ], [ 7.80089363001574, 48.724434470284663 ], [ 7.801073854545633, 48.723792989173909 ], [ 7.801202940362289, 48.723146156606013 ], [ 7.801280533650454, 48.72249574533226 ], [ 7.80130642173232, 48.721843537980874 ] ] ] } },
{ "type": "Feature", "properties": { "name": "Bietlenheim", "feature_type": "mrr", "metric_roundness": 36.24, "metric_rectangularity": 56.21, "metric_mobile_fit": 91.77, "metric_aspect_ratio": 0.645, "metric_area_km2": 5.03 }, "geometry": { "type": "Polygon", "coordinates": [ [ [ 7.7923595, 48.711246499999987 ], [ 7.7707255, 48.712054 ], [ 7.772608486322357, 48.73401399917671 ], [ 7.794242486322458, 48.733206851673962 ], [ 7.7923595, 48.711246499999987 ] ] ] } }
]
}
