{
"type": "FeatureCollection",
"name": "birac_sur_trec",
"crs": { "type": "name", "properties": { "name": "urn:ogc:def:crs:OGC:1.3:CRS84" } },
"features": [
{ "type": "Feature", "properties": { "name": "Birac-sur-Trec", "metric_roundness": 41.92, "metric_rectangularity": 76.42, "metric_mobile_fit": 0.92, "metric_aspect_ratio": 1.553, "metric_area_km2": 27.65 }, "geometry": { "type": "Polygon", "coordinates": [ [ [ 0.2996738, 44.495112 ], [ 0.2872205, 44.504225399999989 ], [ 0.2750075, 44.503883 ], [ 0.246952, 44.4937808 ], [ 0.2406745, 44.4940656 ], [ 0.223309, 44.4846735 ], [ 0.2231415, 44.473416499999985 ], [ 0.2272733, 44.4742812 ], [ 0.237592, 44.4683235 ], [ 0.2543547, 44.4704906 ], [ 0.2592323, 44.4771665 ], [ 0.265207, 44.4752854 ], [ 0.2726675, 44.480260699999988 ], [ 0.2767114, 44.478829499999989 ], [ 0.2816194, 44.483237 ], [ 0.2886158, 44.4831406 ], [ 0.301307, 44.4897335 ], [ 0.2996738, 44.495112 ] ] ] } }
]
}
