{
"type": "FeatureCollection",
"name": "birgland",
"crs": { "type": "name", "properties": { "name": "urn:ogc:def:crs:OGC:1.3:CRS84" } },
"features": [
{ "type": "Feature", "properties": { "name": "Birgland", "feature_type": "entity", "metric_roundness": 61.35, "metric_rectangularity": 65.58, "metric_mobile_fit": 76.51, "metric_aspect_ratio": 0.797, "metric_area_km2": 147.1 }, "geometry": { "type": "Polygon", "coordinates": [ [ [ 11.589288, 49.477829899999982 ], [ 11.595007, 49.472367199999987 ], [ 11.5778395, 49.451204 ], [ 11.5571803, 49.4320679 ], [ 11.557755, 49.419042 ], [ 11.5718301, 49.4147548 ], [ 11.5703099, 49.4097684 ], [ 11.5737323, 49.402180199999982 ], [ 11.5904563, 49.3895887 ], [ 11.5964181, 49.3886887 ], [ 11.6135034, 49.396377699999988 ], [ 11.6203822, 49.3935211 ], [ 11.6259595, 49.3869191 ], [ 11.6333225, 49.389068 ], [ 11.6409452, 49.394387699999982 ], [ 11.6583198, 49.3930758 ], [ 11.6579147, 49.3971736 ], [ 11.663679, 49.4020875 ], [ 11.6791099, 49.4068149 ], [ 11.6774815, 49.411566 ], [ 11.6679453, 49.421008599999986 ], [ 11.6570325, 49.4243677 ], [ 11.659477, 49.4329113 ], [ 11.6563007, 49.4360108 ], [ 11.6566245, 49.4449806 ], [ 11.6487188, 49.4479391 ], [ 11.6489075, 49.464686 ], [ 11.6541565, 49.468938499999986 ], [ 11.6635876, 49.4695101 ], [ 11.6634939, 49.475835299999986 ], [ 11.6561401, 49.480158 ], [ 11.6387349, 49.4788184 ], [ 11.6350656, 49.4857897 ], [ 11.630777, 49.486349 ], [ 11.626627, 49.4842945 ], [ 11.5914575, 49.485027 ], [ 11.589288, 49.477829899999982 ] ] ] } },
{ "type": "Feature", "properties": { "name": "Birgland", "feature_type": "circle", "metric_roundness": 61.35, "metric_rectangularity": 65.58, "metric_mobile_fit": 76.51, "metric_aspect_ratio": 0.797, "metric_area_km2": 147.1 }, "geometry": { "type": "Polygon", "coordinates": [ [ [ 11.697317965404967, 49.437207456277832 ], [ 11.697210388574007, 49.4345359033248 ], [ 11.696887952941744, 49.431871527989678 ], [ 11.696351542281834, 49.429221634924637 ], [ 11.695602626858609, 49.426593490256465 ], [ 11.694643259397187, 49.423994301638196 ], [ 11.693476069457098, 49.421431198448673 ], [ 11.692104256224836, 49.418911212194629 ], [ 11.690531579745118, 49.416441257169701 ], [ 11.688762350614855, 49.414028111424116 ], [ 11.686801418168121, 49.411678398098061 ], [ 11.684654157184447, 49.409398567170889 ], [ 11.682326453156936, 49.407194877677206 ], [ 11.679824686160529, 49.405073380439809 ], [ 11.677155713364668, 49.403039901368018 ], [ 11.674326850238272, 49.401100025368258 ], [ 11.671345850498534, 49.399259080912721 ], [ 11.668220884858536, 49.397522125309337 ], [ 11.664960518631883, 49.395893930715019 ], [ 11.661573688255775, 49.394378970931946 ], [ 11.658069676796863, 49.392981409024216 ], [ 11.654458088506988, 49.391705085790328 ], [ 11.650748822498619, 49.390553509124246 ], [ 11.646952045612055, 49.389529844295524 ], [ 11.643078164548831, 49.38863690517627 ], [ 11.639137797347672, 49.387877146439905 ], [ 11.635141744281185, 49.387252656754328 ], [ 11.631100958253066, 49.386765152988836 ], [ 11.62702651477694, 49.386415975451449 ], [ 11.622929581619168, 49.386206084170347 ], [ 11.618821388188758, 49.386136056230114 ], [ 11.61471319475835, 49.386206084170347 ], [ 11.610616261600578, 49.386415975451449 ], [ 11.606541818124452, 49.386765152988836 ], [ 11.602501032096329, 49.387252656754328 ], [ 11.598504979029844, 49.387877146439905 ], [ 11.594564611828686, 49.38863690517627 ], [ 11.590690730765461, 49.389529844295524 ], [ 11.586893953878898, 49.390553509124246 ], [ 11.58318468787053, 49.391705085790328 ], [ 11.579573099580653, 49.392981409024216 ], [ 11.576069088121741, 49.394378970931946 ], [ 11.572682257745635, 49.395893930715019 ], [ 11.56942189151898, 49.397522125309337 ], [ 11.566296925878982, 49.399259080912721 ], [ 11.563315926139245, 49.401100025368258 ], [ 11.560487063012848, 49.403039901368018 ], [ 11.557818090216989, 49.405073380439809 ], [ 11.55531632322058, 49.407194877677206 ], [ 11.552988619193071, 49.409398567170889 ], [ 11.550841358209397, 49.411678398098061 ], [ 11.548880425762661, 49.414028111424116 ], [ 11.547111196632398, 49.416441257169701 ], [ 11.545538520152681, 49.418911212194629 ], [ 11.544166706920418, 49.421431198448673 ], [ 11.542999516980329, 49.423994301638196 ], [ 11.542040149518909, 49.426593490256465 ], [ 11.541291234095683, 49.429221634924637 ], [ 11.540754823435773, 49.431871527989678 ], [ 11.540432387803509, 49.4345359033248 ], [ 11.54032481097255, 49.437207456277832 ], [ 11.540432387803509, 49.43987886371216 ], [ 11.540754823435773, 49.442542804085569 ], [ 11.541291234095683, 49.445191977511378 ], [ 11.542040149518909, 49.447819125747344 ], [ 11.542999516980329, 49.450417052057539 ], [ 11.544166706920418, 49.452978640893271 ], [ 11.545538520152681, 49.455496877339378 ], [ 11.547111196632398, 49.457964866273485 ], [ 11.548880425762661, 49.460375851186299 ], [ 11.550841358209397, 49.462723232612163 ], [ 11.552988619193071, 49.465000586120539 ], [ 11.55531632322058, 49.467201679819929 ], [ 11.557818090216989, 49.469320491327608 ], [ 11.560487063012848, 49.471351224159704 ], [ 11.563315926139245, 49.473288323498139 ], [ 11.566296925878982, 49.475126491292428 ], [ 11.56942189151898, 49.476860700656317 ], [ 11.572682257745635, 49.478486209521257 ], [ 11.576069088121741, 49.479998573510485 ], [ 11.579573099580653, 49.481393657999952 ], [ 11.58318468787053, 49.482667649334267 ], [ 11.586893953878898, 49.483817065168225 ], [ 11.590690730765461, 49.484838763906787 ], [ 11.594564611828686, 49.485729953218758 ], [ 11.598504979029844, 49.486488197601943 ], [ 11.602501032096329, 49.48711142498 ], [ 11.606541818124452, 49.487597932313726 ], [ 11.610616261600578, 49.487946390212215 ], [ 11.61471319475835, 49.488155846531789 ], [ 11.618821388188758, 49.488225728953417 ], [ 11.622929581619168, 49.488155846531789 ], [ 11.62702651477694, 49.487946390212215 ], [ 11.631100958253066, 49.487597932313726 ], [ 11.635141744281185, 49.48711142498 ], [ 11.639137797347672, 49.486488197601943 ], [ 11.643078164548831, 49.485729953218758 ], [ 11.646952045612055, 49.484838763906787 ], [ 11.650748822498619, 49.483817065168225 ], [ 11.654458088506988, 49.482667649334267 ], [ 11.658069676796863, 49.481393657999952 ], [ 11.661573688255775, 49.479998573510485 ], [ 11.664960518631883, 49.478486209521257 ], [ 11.668220884858536, 49.476860700656317 ], [ 11.671345850498534, 49.475126491292428 ], [ 11.674326850238272, 49.473288323498139 ], [ 11.677155713364668, 49.471351224159704 ], [ 11.679824686160529, 49.469320491327608 ], [ 11.682326453156936, 49.467201679819929 ], [ 11.684654157184447, 49.465000586120539 ], [ 11.686801418168121, 49.462723232612163 ], [ 11.688762350614855, 49.460375851186299 ], [ 11.690531579745118, 49.457964866273485 ], [ 11.692104256224836, 49.455496877339378 ], [ 11.693476069457098, 49.452978640893271 ], [ 11.694643259397187, 49.450417052057539 ], [ 11.695602626858609, 49.447819125747344 ], [ 11.696351542281834, 49.445191977511378 ], [ 11.696887952941744, 49.442542804085569 ], [ 11.697210388574007, 49.43987886371216 ], [ 11.697317965404967, 49.437207456277832 ] ] ] } },
{ "type": "Feature", "properties": { "name": "Birgland", "feature_type": "mrr", "metric_roundness": 61.35, "metric_rectangularity": 65.58, "metric_mobile_fit": 76.51, "metric_aspect_ratio": 0.797, "metric_area_km2": 147.1 }, "geometry": { "type": "Polygon", "coordinates": [ [ [ 11.65993066146455, 49.491570729650185 ], [ 11.682386069897388, 49.392322442113624 ], [ 11.566308224701725, 49.381206314192397 ], [ 11.543852816268886, 49.480477076173145 ], [ 11.65993066146455, 49.491570729650185 ] ] ] } }
]
}
