{
"type": "FeatureCollection",
"name": "macouria",
"crs": { "type": "name", "properties": { "name": "urn:ogc:def:crs:OGC:1.3:CRS84" } },
"features": [
{ "type": "Feature", "properties": { "name": "Macouria", "metric_roundness": 37.23, "metric_rectangularity": 50.17, "metric_mobile_fit": 34.72, "metric_aspect_ratio": 1.215, "metric_area_km2": 313.55 }, "geometry": { "type": "Polygon", "coordinates": [ [ [ -52.357397399999989, 4.9182452 ], [ -52.3753387, 4.9294592 ], [ -52.3893077, 4.9442077 ], [ -52.4016335, 4.9637003 ], [ -52.4139272, 4.9727352 ], [ -52.4168978, 4.9810779 ], [ -52.4252513, 4.983966199999986 ], [ -52.4584408, 5.0105136 ], [ -52.520282099999989, 5.0741555 ], [ -52.541339, 5.0899885 ], [ -52.5478981, 5.086851199999988 ], [ -52.5519854, 5.0882158 ], [ -52.5546982, 5.095129 ], [ -52.548603199999988, 5.0949367 ], [ -52.5482184, 5.0971576 ], [ -52.5555098, 5.1003392 ], [ -52.5575948, 5.107382199999988 ], [ -52.5608013, 5.1044318 ], [ -52.564872, 5.1057835 ], [ -52.6061763, 5.0541609 ], [ -52.6017948, 5.0490924 ], [ -52.600901799999988, 5.0417549 ], [ -52.5811754, 5.0427308 ], [ -52.5718362, 5.0352286 ], [ -52.5784362, 5.0252673 ], [ -52.5785079, 5.018189 ], [ -52.5857492, 5.0012548 ], [ -52.5837288, 4.9900527 ], [ -52.5930651, 4.9691648 ], [ -52.600216499999988, 4.9637665 ], [ -52.6021194, 4.9583476 ], [ -52.6121131, 4.9570536 ], [ -52.606767, 4.9409404 ], [ -52.604569, 4.916758 ], [ -52.5932636, 4.9115806 ], [ -52.5646584, 4.9055302 ], [ -52.562967500000013, 4.8989372 ], [ -52.5556633, 4.8997897 ], [ -52.548000599999988, 4.910872 ], [ -52.5408317, 4.915451 ], [ -52.5348461, 4.9291346 ], [ -52.5256492, 4.9298175 ], [ -52.5117482, 4.9503547 ], [ -52.498088, 4.9551451 ], [ -52.4942403, 4.953387799999988 ], [ -52.491737, 4.9472383 ], [ -52.481178, 4.9495255 ], [ -52.4719225, 4.9546814 ], [ -52.4672992, 4.9629582 ], [ -52.4610525, 4.9536713 ], [ -52.4456061, 4.9449506 ], [ -52.452970799999989, 4.9393644 ], [ -52.455413799999988, 4.932502799999989 ], [ -52.467996799999987, 4.9230092 ], [ -52.4628525, 4.9146998 ], [ -52.4698263, 4.9071449 ], [ -52.465259, 4.9034252 ], [ -52.4705757, 4.9008008 ], [ -52.4702522, 4.89512 ], [ -52.431846199999988, 4.8894725 ], [ -52.4279088, 4.8933508 ], [ -52.424336, 4.9081597 ], [ -52.4159125, 4.9136043 ], [ -52.4099147, 4.9117679 ], [ -52.3965094, 4.9004527 ], [ -52.374767, 4.903135 ], [ -52.3674835, 4.906932 ], [ -52.3584055, 4.9096315 ], [ -52.3554215, 4.9112455 ], [ -52.350182, 4.915203 ], [ -52.3475055, 4.918068 ], [ -52.3462695, 4.9246745 ], [ -52.357397399999989, 4.9182452 ] ] ] } }
]
}
