{
"type": "FeatureCollection",
"name": "mailly_champagne",
"crs": { "type": "name", "properties": { "name": "urn:ogc:def:crs:OGC:1.3:CRS84" } },
"features": [
{ "type": "Feature", "properties": { "name": "Mailly-Champagne", "feature_type": "entity", "metric_roundness": 35.52, "metric_rectangularity": 72.76, "metric_mobile_fit": 91.93, "metric_aspect_ratio": 0.482, "metric_area_km2": 23.93 }, "geometry": { "type": "Polygon", "coordinates": [ [ [ 4.124939, 49.132584299999984 ], [ 4.1297334, 49.135054399999987 ], [ 4.131698, 49.146704 ], [ 4.1244739, 49.1492446 ], [ 4.1258396, 49.1615137 ], [ 4.1214842, 49.1646327 ], [ 4.1223435, 49.170505 ], [ 4.123715, 49.173672499999988 ], [ 4.1149625, 49.1764595 ], [ 4.0955655, 49.179465 ], [ 4.0928665, 49.1683099 ], [ 4.0967143, 49.1652195 ], [ 4.0961472, 49.156700099999988 ], [ 4.1061594, 49.1389274 ], [ 4.1040395, 49.134359 ], [ 4.1089289, 49.131161399999989 ], [ 4.1148924, 49.131742599999988 ], [ 4.1155757, 49.1267484 ], [ 4.1238925, 49.128345 ], [ 4.124939, 49.132584299999984 ] ] ] } },
{ "type": "Feature", "properties": { "name": "Mailly-Champagne", "feature_type": "circle", "metric_roundness": 35.52, "metric_rectangularity": 72.76, "metric_mobile_fit": 91.93, "metric_aspect_ratio": 0.482, "metric_area_km2": 23.93 }, "geometry": { "type": "Polygon", "coordinates": [ [ [ 4.149690797678149, 49.153522122473959 ], [ 4.149633779580334, 49.152097985591958 ], [ 4.149462881569534, 49.150677711397215 ], [ 4.149178572065316, 49.149265193264981 ], [ 4.148781630340269, 49.147864303640624 ], [ 4.148273144384071, 49.146478883416542 ], [ 4.147654507921384, 49.145112731391841 ], [ 4.146927416591751, 49.143769593844127 ], [ 4.146093863301966, 49.142453154242098 ], [ 4.145156132763658, 49.141167023127217 ], [ 4.14411679523105, 49.139914728192593 ], [ 4.142978699456077, 49.13869970458645 ], [ 4.141744964880149, 49.13752528546712 ], [ 4.140418973083984, 49.136394692835708 ], [ 4.139004358518926, 49.135311028671914 ], [ 4.13750499854517, 49.134277266397781 ], [ 4.135925002804183, 49.133296242692893 ], [ 4.134268701954468, 49.132370649684155 ], [ 4.132540635801527, 49.131503027531636 ], [ 4.130745540854567, 49.130695757431404 ], [ 4.128888337344063, 49.129951055054839 ], [ 4.126974115735745, 49.129270964442746 ], [ 4.125008122777984, 49.128657352371384 ], [ 4.122995747120825, 49.128111903206268 ], [ 4.120942504546064, 49.12763611425806 ], [ 4.11885402284888, 49.127231291653629 ], [ 4.116736026412436, 49.126898546733891 ], [ 4.114594320517744, 49.126638792988537 ], [ 4.112434775431795, 49.12645274353622 ], [ 4.110263310317558, 49.126340909157321 ], [ 4.108085877009978, 49.126303596884838 ], [ 4.105908443702397, 49.126340909157321 ], [ 4.103736978588161, 49.12645274353622 ], [ 4.101577433502211, 49.126638792988537 ], [ 4.09943572760752, 49.126898546733891 ], [ 4.097317731171076, 49.127231291653629 ], [ 4.095229249473891, 49.12763611425806 ], [ 4.09317600689913, 49.128111903206268 ], [ 4.091163631241971, 49.128657352371384 ], [ 4.08919763828421, 49.129270964442746 ], [ 4.087283416675892, 49.129951055054839 ], [ 4.085426213165388, 49.130695757431404 ], [ 4.083631118218428, 49.131503027531636 ], [ 4.081903052065487, 49.132370649684155 ], [ 4.080246751215772, 49.133296242692893 ], [ 4.078666755474786, 49.134277266397781 ], [ 4.077167395501029, 49.135311028671914 ], [ 4.075752780935971, 49.136394692835708 ], [ 4.074426789139806, 49.13752528546712 ], [ 4.073193054563879, 49.13869970458645 ], [ 4.072054958788906, 49.139914728192593 ], [ 4.071015621256298, 49.141167023127217 ], [ 4.070077890717989, 49.142453154242098 ], [ 4.069244337428204, 49.143769593844127 ], [ 4.068517246098571, 49.145112731391841 ], [ 4.067898609635883, 49.146478883416542 ], [ 4.067390123679686, 49.147864303640624 ], [ 4.066993181954639, 49.149265193264981 ], [ 4.066708872450421, 49.150677711397215 ], [ 4.066537974439621, 49.152097985591958 ], [ 4.066480956341807, 49.153522122473959 ], [ 4.066537974439621, 49.154946218415155 ], [ 4.066708872450421, 49.156366370236029 ], [ 4.066993181954639, 49.157778685902095 ], [ 4.067390123679686, 49.15917929518622 ], [ 4.067898609635883, 49.1605643602675 ], [ 4.068517246098571, 49.161930086237838 ], [ 4.069244337428204, 49.163272731487574 ], [ 4.070077890717989, 49.164588617941725 ], [ 4.071015621256298, 49.165874141119232 ], [ 4.072054958788906, 49.167125779987686 ], [ 4.073193054563879, 49.168340106586854 ], [ 4.074426789139806, 49.169513795394955 ], [ 4.075752780935971, 49.170643632412343 ], [ 4.077167395501029, 49.17172652393797 ], [ 4.078666755474785, 49.172759505014987 ], [ 4.080246751215772, 49.173739747522752 ], [ 4.081903052065487, 49.174664567893338 ], [ 4.083631118218428, 49.175531434431853 ], [ 4.085426213165388, 49.1763379742209 ], [ 4.087283416675892, 49.177081979590533 ], [ 4.08919763828421, 49.177761414136512 ], [ 4.091163631241971, 49.178374418270558 ], [ 4.09317600689913, 49.178919314287846 ], [ 4.095229249473891, 49.179394610938118 ], [ 4.097317731171076, 49.179799007488242 ], [ 4.09943572760752, 49.180131397265214 ], [ 4.101577433502211, 49.180390870670387 ], [ 4.103736978588161, 49.180576717656557 ], [ 4.105908443702397, 49.180688429661593 ], [ 4.108085877009978, 49.180725700993271 ], [ 4.110263310317558, 49.180688429661593 ], [ 4.112434775431795, 49.180576717656557 ], [ 4.114594320517744, 49.180390870670387 ], [ 4.116736026412436, 49.180131397265214 ], [ 4.11885402284888, 49.179799007488242 ], [ 4.120942504546064, 49.179394610938118 ], [ 4.122995747120825, 49.178919314287846 ], [ 4.125008122777984, 49.178374418270558 ], [ 4.126974115735745, 49.177761414136512 ], [ 4.128888337344063, 49.177081979590533 ], [ 4.130745540854567, 49.1763379742209 ], [ 4.132540635801527, 49.175531434431853 ], [ 4.134268701954468, 49.174664567893338 ], [ 4.135925002804183, 49.173739747522752 ], [ 4.13750499854517, 49.172759505014987 ], [ 4.139004358518926, 49.17172652393797 ], [ 4.140418973083984, 49.170643632412343 ], [ 4.141744964880149, 49.169513795394955 ], [ 4.142978699456077, 49.168340106586854 ], [ 4.14411679523105, 49.167125779987686 ], [ 4.145156132763658, 49.165874141119232 ], [ 4.146093863301966, 49.164588617941725 ], [ 4.146927416591751, 49.163272731487574 ], [ 4.147654507921384, 49.161930086237838 ], [ 4.148273144384071, 49.1605643602675 ], [ 4.148781630340269, 49.15917929518622 ], [ 4.149178572065316, 49.157778685902095 ], [ 4.149462881569534, 49.156366370236029 ], [ 4.149633779580334, 49.154946218415155 ], [ 4.149690797678149, 49.153522122473959 ] ] ] } },
{ "type": "Feature", "properties": { "name": "Mailly-Champagne", "feature_type": "mrr", "metric_roundness": 35.52, "metric_rectangularity": 72.76, "metric_mobile_fit": 91.93, "metric_aspect_ratio": 0.482, "metric_area_km2": 23.93 }, "geometry": { "type": "Polygon", "coordinates": [ [ [ 4.121045017225458, 49.182689049921549 ], [ 4.136806732627195, 49.129437743222979 ], [ 4.105391569842201, 49.125458321797986 ], [ 4.089629854440463, 49.178713904206106 ], [ 4.121045017225458, 49.182689049921549 ] ] ] } }
]
}
