{
"type": "FeatureCollection",
"name": "marcilly_la_campagne",
"crs": { "type": "name", "properties": { "name": "urn:ogc:def:crs:OGC:1.3:CRS84" } },
"features": [
{ "type": "Feature", "properties": { "name": "Marcilly-la-Campagne", "feature_type": "entity", "metric_roundness": 61.31, "metric_rectangularity": 61.14, "metric_mobile_fit": 49.41, "metric_aspect_ratio": 1.068, "metric_area_km2": 44.9 }, "geometry": { "type": "Polygon", "coordinates": [ [ [ 1.2084256, 48.815159299999983 ], [ 1.219528, 48.810976 ], [ 1.2176734, 48.818484499999983 ], [ 1.2220563, 48.823813699999988 ], [ 1.2212672, 48.827244299999983 ], [ 1.2285078, 48.834986399999984 ], [ 1.2225725, 48.842213 ], [ 1.2084256, 48.844648299999982 ], [ 1.1882895, 48.853634 ], [ 1.1811859, 48.850717 ], [ 1.1814447, 48.841728599999975 ], [ 1.1694397, 48.8339813 ], [ 1.1436545, 48.834626 ], [ 1.1477449, 48.8301525 ], [ 1.1467535, 48.818873 ], [ 1.173937, 48.8060529 ], [ 1.174397, 48.801348499999989 ], [ 1.2084256, 48.815159299999983 ] ] ] } },
{ "type": "Feature", "properties": { "name": "Marcilly-la-Campagne", "feature_type": "circle", "metric_roundness": 61.31, "metric_rectangularity": 61.14, "metric_mobile_fit": 49.41, "metric_aspect_ratio": 1.068, "metric_area_km2": 44.9 }, "geometry": { "type": "Polygon", "coordinates": [ [ [ 1.229521600150876, 48.828848805115548 ], [ 1.229462146554347, 48.827354127438547 ], [ 1.229283948722937, 48.825863502168154 ], [ 1.228987495084514, 48.824381015551715 ], [ 1.228573598197895, 48.822910731887369 ], [ 1.228043392525677, 48.82145668237419 ], [ 1.227398331324754, 48.820022854049178 ], [ 1.226640182663038, 48.818613178841723 ], [ 1.225771024573315, 48.817231522775536 ], [ 1.224793239357493, 48.815881675348052 ], [ 1.223709507056884, 48.814567339116557 ], [ 1.222522798106394, 48.813292119519978 ], [ 1.22123636519277, 48.81205951496441 ], [ 1.21985373433921, 48.810872907200149 ], [ 1.218378695240776, 48.809735552016676 ], [ 1.21681529087711, 48.808650570281777 ], [ 1.215167806430901, 48.80762093934959 ], [ 1.213440757542501, 48.806649484861587 ], [ 1.211638877932868, 48.805738872963367 ], [ 1.209767106428764, 48.804891602959131 ], [ 1.207830573425777, 48.804110000424146 ], [ 1.20583458682626, 48.803396210794773 ], [ 1.203784617490746, 48.802752193453735 ], [ 1.201686284242689, 48.802179716327529 ], [ 1.199545338467671, 48.801680351010745 ], [ 1.197367648349244, 48.801255468431407 ], [ 1.195159182784654, 48.800906235069156 ], [ 1.192925995024505, 48.800633609737183 ], [ 1.190674206081221, 48.800438340936729 ], [ 1.188409987951776, 48.800320964791794 ], [ 1.186139546700677, 48.80028180356971 ], [ 1.183869105449578, 48.800320964791794 ], [ 1.181604887320132, 48.800438340936729 ], [ 1.179353098376848, 48.800633609737183 ], [ 1.177119910616699, 48.800906235069156 ], [ 1.17491144505211, 48.801255468431407 ], [ 1.172733754933683, 48.801680351010745 ], [ 1.170592809158664, 48.802179716327529 ], [ 1.168494475910608, 48.802752193453735 ], [ 1.166444506575093, 48.803396210794773 ], [ 1.164448519975577, 48.804110000424146 ], [ 1.16251198697259, 48.804891602959131 ], [ 1.160640215468486, 48.805738872963367 ], [ 1.158838335858853, 48.806649484861587 ], [ 1.157111286970453, 48.80762093934959 ], [ 1.155463802524244, 48.808650570281777 ], [ 1.153900398160578, 48.809735552016676 ], [ 1.152425359062144, 48.810872907200149 ], [ 1.151042728208583, 48.81205951496441 ], [ 1.149756295294959, 48.813292119519978 ], [ 1.14856958634447, 48.814567339116557 ], [ 1.147485854043861, 48.815881675348052 ], [ 1.146508068828039, 48.817231522775536 ], [ 1.145638910738316, 48.818613178841723 ], [ 1.1448807620766, 48.820022854049178 ], [ 1.144235700875676, 48.82145668237419 ], [ 1.143705495203459, 48.822910731887369 ], [ 1.14329159831684, 48.824381015551715 ], [ 1.142995144678417, 48.825863502168154 ], [ 1.142816946847006, 48.827354127438547 ], [ 1.142757493250478, 48.828848805115548 ], [ 1.142816946847006, 48.830343438208708 ], [ 1.142995144678417, 48.831833930216057 ], [ 1.14329159831684, 48.83331619635031 ], [ 1.143705495203459, 48.834786174728968 ], [ 1.144235700875676, 48.836239837497764 ], [ 1.1448807620766, 48.837673201856909 ], [ 1.145638910738315, 48.839082340960339 ], [ 1.146508068828039, 48.840463394658016 ], [ 1.147485854043861, 48.841812580052171 ], [ 1.14856958634447, 48.843126201838899 ], [ 1.149756295294959, 48.84440066240689 ], [ 1.151042728208583, 48.845632471666107 ], [ 1.152425359062144, 48.846818256579709 ], [ 1.153900398160578, 48.847954770373534 ], [ 1.155463802524244, 48.849038901398217 ], [ 1.157111286970453, 48.850067681620196 ], [ 1.158838335858853, 48.851038294718563 ], [ 1.160640215468486, 48.851948083766153 ], [ 1.16251198697259, 48.852794558474088 ], [ 1.164448519975577, 48.853575401980535 ], [ 1.166444506575093, 48.854288477165198 ], [ 1.168494475910608, 48.854931832472971 ], [ 1.170592809158664, 48.855503707230731 ], [ 1.172733754933683, 48.856002536443555 ], [ 1.17491144505211, 48.856426955057088 ], [ 1.177119910616699, 48.856775801674999 ], [ 1.179353098376848, 48.857048121721334 ], [ 1.181604887320132, 48.857243170039638 ], [ 1.183869105449578, 48.857360412921551 ], [ 1.186139546700677, 48.857399529559807 ], [ 1.188409987951776, 48.857360412921551 ], [ 1.190674206081221, 48.857243170039638 ], [ 1.192925995024505, 48.857048121721334 ], [ 1.195159182784654, 48.856775801674999 ], [ 1.197367648349244, 48.856426955057088 ], [ 1.199545338467671, 48.856002536443555 ], [ 1.201686284242689, 48.855503707230731 ], [ 1.203784617490746, 48.854931832472971 ], [ 1.20583458682626, 48.854288477165198 ], [ 1.207830573425777, 48.853575401980535 ], [ 1.209767106428764, 48.852794558474088 ], [ 1.211638877932868, 48.851948083766153 ], [ 1.213440757542501, 48.851038294718563 ], [ 1.215167806430901, 48.850067681620196 ], [ 1.21681529087711, 48.849038901398217 ], [ 1.218378695240776, 48.847954770373534 ], [ 1.21985373433921, 48.846818256579709 ], [ 1.22123636519277, 48.845632471666107 ], [ 1.222522798106394, 48.84440066240689 ], [ 1.223709507056884, 48.843126201838899 ], [ 1.224793239357493, 48.841812580052171 ], [ 1.225771024573315, 48.840463394658016 ], [ 1.226640182663038, 48.839082340960339 ], [ 1.227398331324754, 48.837673201856909 ], [ 1.228043392525677, 48.836239837497764 ], [ 1.228573598197895, 48.834786174728976 ], [ 1.228987495084514, 48.83331619635031 ], [ 1.229283948722937, 48.831833930216057 ], [ 1.229462146554347, 48.830343438208708 ], [ 1.229521600150876, 48.828848805115548 ] ] ] } },
{ "type": "Feature", "properties": { "name": "Marcilly-la-Campagne", "feature_type": "mrr", "metric_roundness": 61.31, "metric_rectangularity": 61.14, "metric_mobile_fit": 49.41, "metric_aspect_ratio": 1.068, "metric_area_km2": 44.9 }, "geometry": { "type": "Polygon", "coordinates": [ [ [ 1.134886427186748, 48.830866081409589 ], [ 1.204331634567072, 48.860637794404767 ], [ 1.243365945119899, 48.821201569499166 ], [ 1.173920737739576, 48.791406411442608 ], [ 1.134886427186748, 48.830866081409589 ] ] ] } }
]
}
