{
"type": "FeatureCollection",
"name": "margarita",
"crs": { "type": "name", "properties": { "name": "urn:ogc:def:crs:OGC:1.3:CRS84" } },
"features": [
{ "type": "Feature", "properties": { "name": "Margarita", "feature_type": "entity", "metric_roundness": 53.26, "metric_rectangularity": 73.03, "metric_mobile_fit": 56.17, "metric_aspect_ratio": 1.001, "metric_area_km2": 22.15 }, "geometry": { "type": "Polygon", "coordinates": [ [ [ 7.6777686, 44.3835713 ], [ 7.681238, 44.3758225 ], [ 7.6830165, 44.3751635 ], [ 7.6881108, 44.3892807 ], [ 7.6912645, 44.391423 ], [ 7.6907798, 44.398313599999987 ], [ 7.705556, 44.410644499999989 ], [ 7.6776891, 44.4169698 ], [ 7.6614733, 44.4142571 ], [ 7.6476375, 44.397051 ], [ 7.647002, 44.390539499999974 ], [ 7.6777686, 44.3835713 ] ] ] } },
{ "type": "Feature", "properties": { "name": "Margarita", "feature_type": "circle", "metric_roundness": 53.26, "metric_rectangularity": 73.03, "metric_mobile_fit": 56.17, "metric_aspect_ratio": 1.001, "metric_area_km2": 22.15 }, "geometry": { "type": "Polygon", "coordinates": [ [ [ 7.710555436009505, 44.398232217379636 ], [ 7.710510637427068, 44.397009855793236 ], [ 7.71037636446956, 44.395790819184384 ], [ 7.710152985169822, 44.394578449161237 ], [ 7.709841111794989, 44.393376069264527 ], [ 7.709441599168303, 44.392186975852191 ], [ 7.708955542326105, 44.391014429056526 ], [ 7.708384273516413, 44.389861643838373 ], [ 7.707729358547325, 44.388731781163173 ], [ 7.706992592495252, 44.387627939323139 ], [ 7.706175994784727, 44.386553145429602 ], [ 7.705281803653313, 44.385510347098744 ], [ 7.704312470016752, 44.384502404354031 ], [ 7.70327065075116, 44.383532081767548 ], [ 7.702159201410729, 44.382602040861933 ], [ 7.700981168400845, 44.381714832794131 ], [ 7.699739780628105, 44.380872891341234 ], [ 7.698438440650104, 44.380078526207626 ], [ 7.697080715349271, 44.379333916672451 ], [ 7.695670326156277, 44.378641105594504 ], [ 7.694211138849868, 44.378001993791869 ], [ 7.692707152961021, 44.377418334811274 ], [ 7.691162490810518, 44.376891730102237 ], [ 7.689581386209946, 44.376423624609181 ], [ 7.687968172857115, 44.376015302793867 ], [ 7.686327272457689, 44.375667885099269 ], [ 7.684663182605607, 44.375382324864667 ], [ 7.682980464455483, 44.375159405700686 ], [ 7.681283730220803, 44.374999739331464 ], [ 7.679577630532167, 44.374903763910154 ], [ 7.67786684169023, 44.374871742812218 ], [ 7.676156052848293, 44.374903763910154 ], [ 7.674449953159655, 44.374999739331464 ], [ 7.672753218924977, 44.375159405700686 ], [ 7.671070500774853, 44.375382324864667 ], [ 7.669406410922772, 44.375667885099269 ], [ 7.667765510523344, 44.376015302793867 ], [ 7.666152297170512, 44.376423624609181 ], [ 7.664571192569941, 44.376891730102237 ], [ 7.663026530419438, 44.377418334811274 ], [ 7.661522544530593, 44.378001993791869 ], [ 7.660063357224182, 44.378641105594504 ], [ 7.658652968031188, 44.379333916672451 ], [ 7.657295242730354, 44.380078526207626 ], [ 7.655993902752354, 44.380872891341234 ], [ 7.654752514979615, 44.381714832794131 ], [ 7.65357448196973, 44.382602040861933 ], [ 7.652463032629299, 44.383532081767548 ], [ 7.651421213363706, 44.384502404354031 ], [ 7.650451879727146, 44.385510347098744 ], [ 7.649557688595735, 44.386553145429602 ], [ 7.648741090885208, 44.387627939323139 ], [ 7.648004324833135, 44.388731781163173 ], [ 7.647349409864047, 44.389861643838373 ], [ 7.646778141054354, 44.391014429056526 ], [ 7.646292084212156, 44.392186975852191 ], [ 7.64589257158547, 44.393376069264527 ], [ 7.645580698210637, 44.394578449161237 ], [ 7.6453573189109, 44.395790819184384 ], [ 7.645223045953391, 44.397009855793236 ], [ 7.645178247370954, 44.398232217379636 ], [ 7.645223045953391, 44.399454553430559 ], [ 7.6453573189109, 44.400673513712675 ], [ 7.645580698210637, 44.40188575745411 ], [ 7.64589257158547, 44.403087962497722 ], [ 7.646292084212156, 44.404276834401259 ], [ 7.646778141054354, 44.405449115459348 ], [ 7.647349409864047, 44.406601593622618 ], [ 7.648004324833135, 44.407731111289799 ], [ 7.648741090885208, 44.408834573948624 ], [ 7.649557688595735, 44.409908958642198 ], [ 7.650451879727146, 44.410951322237587 ], [ 7.651421213363706, 44.411958809474378 ], [ 7.652463032629299, 44.412928660771144 ], [ 7.65357448196973, 44.413858219768791 ], [ 7.654752514979615, 44.414744940590239 ], [ 7.655993902752354, 44.415586394796797 ], [ 7.657295242730354, 44.41638027802243 ], [ 7.658652968031188, 44.41712441626791 ], [ 7.660063357224182, 44.417816771837956 ], [ 7.661522544530593, 44.418455448905142 ], [ 7.663026530419438, 44.419038698685789 ], [ 7.664571192569941, 44.419564924213653 ], [ 7.666152297170512, 44.420032684698711 ], [ 7.667765510523344, 44.420440699459171 ], [ 7.669406410922772, 44.420787851416222 ], [ 7.671070500774853, 44.421073190142053 ], [ 7.672753218924977, 44.421295934452949 ], [ 7.674449953159655, 44.42145547454048 ], [ 7.676156052848293, 44.421551373635069 ], [ 7.67786684169023, 44.421583369197506 ], [ 7.679577630532167, 44.421551373635069 ], [ 7.681283730220803, 44.42145547454048 ], [ 7.682980464455483, 44.421295934452949 ], [ 7.684663182605607, 44.421073190142053 ], [ 7.686327272457689, 44.420787851416222 ], [ 7.687968172857115, 44.420440699459171 ], [ 7.689581386209946, 44.420032684698711 ], [ 7.691162490810518, 44.419564924213653 ], [ 7.692707152961021, 44.419038698685789 ], [ 7.694211138849868, 44.418455448905142 ], [ 7.695670326156277, 44.417816771837956 ], [ 7.697080715349271, 44.41712441626791 ], [ 7.698438440650104, 44.41638027802243 ], [ 7.699739780628105, 44.415586394796797 ], [ 7.700981168400845, 44.414744940590239 ], [ 7.702159201410729, 44.413858219768791 ], [ 7.70327065075116, 44.412928660771144 ], [ 7.704312470016752, 44.411958809474378 ], [ 7.705281803653313, 44.410951322237587 ], [ 7.706175994784727, 44.409908958642198 ], [ 7.706992592495252, 44.408834573948624 ], [ 7.707729358547325, 44.407731111289799 ], [ 7.708384273516413, 44.406601593622618 ], [ 7.708955542326105, 44.405449115459348 ], [ 7.709441599168303, 44.404276834401259 ], [ 7.709841111794989, 44.403087962497722 ], [ 7.710152985169822, 44.40188575745411 ], [ 7.71037636446956, 44.400673513712675 ], [ 7.710510637427068, 44.399454553430559 ], [ 7.710555436009505, 44.398232217379636 ] ] ] } },
{ "type": "Feature", "properties": { "name": "Margarita", "feature_type": "mrr", "metric_roundness": 53.26, "metric_rectangularity": 73.03, "metric_mobile_fit": 56.17, "metric_aspect_ratio": 1.001, "metric_area_km2": 22.15 }, "geometry": { "type": "Polygon", "coordinates": [ [ [ 7.705556, 44.410644499999989 ], [ 7.6830165, 44.3751635 ], [ 7.642154569830059, 44.388419919744251 ], [ 7.664694069822753, 44.423892884201599 ], [ 7.705556, 44.410644499999989 ] ] ] } }
]
}
