{
"type": "FeatureCollection",
"name": "marines_los",
"crs": { "type": "name", "properties": { "name": "urn:ogc:def:crs:OGC:1.3:CRS84" } },
"features": [
{ "type": "Feature", "properties": { "name": "Marines, Los", "metric_roundness": 41.34, "metric_rectangularity": 54.69, "metric_mobile_fit": 46.54, "metric_aspect_ratio": 1.097, "metric_area_km2": 15.98 }, "geometry": { "type": "Polygon", "coordinates": [ [ [ -6.645764, 37.9230995 ], [ -6.6404875, 37.9122705 ], [ -6.6396506, 37.9013883 ], [ -6.6426834, 37.8924127 ], [ -6.6479585, 37.889053499999982 ], [ -6.647328, 37.88636 ], [ -6.640604, 37.886036 ], [ -6.6333115, 37.887066 ], [ -6.6315505, 37.889183 ], [ -6.6255395, 37.8924485 ], [ -6.614795, 37.894012499999988 ], [ -6.608367, 37.8930055 ], [ -6.6067585, 37.89217 ], [ -6.598211, 37.891502499999987 ], [ -6.5964251, 37.9035118 ], [ -6.6003895, 37.9076683 ], [ -6.5982127, 37.913829499999984 ], [ -6.6075505, 37.915623 ], [ -6.6113809, 37.910389 ], [ -6.6163924, 37.910165799999987 ], [ -6.6409012, 37.9189718 ], [ -6.64427, 37.922786499999987 ], [ -6.645764, 37.9230995 ] ] ] } }
]
}
