{
"type": "FeatureCollection",
"name": "marigny_les_reullee",
"crs": { "type": "name", "properties": { "name": "urn:ogc:def:crs:OGC:1.3:CRS84" } },
"features": [
{ "type": "Feature", "properties": { "name": "Marigny-lès-Reullée", "feature_type": "entity", "metric_roundness": 52.84, "metric_rectangularity": 63.51, "metric_mobile_fit": 81.57, "metric_aspect_ratio": 0.747, "metric_area_km2": 21.2 }, "geometry": { "type": "Polygon", "coordinates": [ [ [ 4.9747305, 47.02045 ], [ 4.97053, 47.024732 ], [ 4.9625365, 47.0281555 ], [ 4.9618965, 47.02718 ], [ 4.9596973, 47.0275161 ], [ 4.9560165, 47.0280785 ], [ 4.9384638, 47.016033199999988 ], [ 4.9406658, 47.0100955 ], [ 4.9330788, 47.0044511 ], [ 4.9362885, 46.9998585 ], [ 4.9451927, 46.993991099999981 ], [ 4.9596973, 46.993036 ], [ 4.9606315, 46.993184499999984 ], [ 4.961314, 46.9930285 ], [ 4.9615605, 46.9922745 ], [ 4.9628475, 46.992774 ], [ 4.966198, 46.991347 ], [ 4.972083, 46.990627 ], [ 4.97709, 46.9867765 ], [ 4.9782575, 46.987785 ], [ 4.978396, 46.989267 ], [ 4.975013, 46.992720499999983 ], [ 4.9749775, 46.994656499999984 ], [ 4.9752935, 46.997079 ], [ 4.977461, 46.9996845 ], [ 4.9779625, 47.0018785 ], [ 4.9730555, 47.006447 ], [ 4.9755415, 47.00882 ], [ 4.9738805, 47.009848 ], [ 4.9722925, 47.00966 ], [ 4.9734865, 47.0112075 ], [ 4.972479, 47.0134805 ], [ 4.974456, 47.016226 ], [ 4.973942, 47.016463 ], [ 4.975597, 47.0179995 ], [ 4.978073, 47.018842499999984 ], [ 4.9747305, 47.02045 ] ] ] } },
{ "type": "Feature", "properties": { "name": "Marigny-lès-Reullée", "feature_type": "circle", "metric_roundness": 52.84, "metric_rectangularity": 63.51, "metric_mobile_fit": 81.57, "metric_aspect_ratio": 0.747, "metric_area_km2": 21.2 }, "geometry": { "type": "Polygon", "coordinates": [ [ [ 4.997069831569009, 47.007053608673175 ], [ 4.997025826860538, 47.005907668532458 ], [ 4.996893933348972, 47.004764844851444 ], [ 4.996674512545257, 47.003628270332193 ], [ 4.996368165866566, 47.00250106074575 ], [ 4.99597573298785, 47.001386306386657 ], [ 4.995498289540352, 47.000287063595032 ], [ 4.994937144163376, 46.99920634636976 ], [ 4.994293834917395, 46.998147118095851 ], [ 4.993570125068335, 46.99711228340869 ], [ 4.992767998254592, 46.996104680217677 ], [ 4.991889653050002, 46.995127071911291 ], [ 4.99093749693772, 46.994182139765115 ], [ 4.989914139711469, 46.993272475573804 ], [ 4.988822386322268, 46.992400574527416 ], [ 4.987665229190274, 46.991568828351852 ], [ 4.986445840002751, 46.99077951873241 ], [ 4.985167561020705, 46.99003481103879 ], [ 4.983833895917972, 46.98933674836875 ], [ 4.982448500177897, 46.988687245927338 ], [ 4.981015171073906, 46.988088085756964 ], [ 4.979537837261445, 46.98754091183325 ], [ 4.978020548009804, 46.987047225540103 ], [ 4.976467462103355, 46.986608381536918 ], [ 4.974882836442617, 46.986225584028965 ], [ 4.973271014376378, 46.985899883451928 ], [ 4.971636413796887, 46.985632173579361 ], [ 4.969983515030711, 46.9854231890614 ], [ 4.968316848558477, 46.985273503401594 ], [ 4.966640982597138, 46.985183527377337 ], [ 4.964960510578804, 46.985153507908493 ], [ 4.963280038560468, 46.985183527377337 ], [ 4.961604172599129, 46.985273503401594 ], [ 4.959937506126895, 46.9854231890614 ], [ 4.958284607360719, 46.985632173579361 ], [ 4.956650006781228, 46.985899883451928 ], [ 4.955038184714989, 46.986225584028965 ], [ 4.953453559054251, 46.986608381536918 ], [ 4.951900473147803, 46.987047225540103 ], [ 4.950383183896162, 46.98754091183325 ], [ 4.948905850083699, 46.988088085756964 ], [ 4.947472520979709, 46.988687245927338 ], [ 4.946087125239634, 46.98933674836875 ], [ 4.944753460136901, 46.99003481103879 ], [ 4.943475181154855, 46.99077951873241 ], [ 4.942255791967332, 46.991568828351852 ], [ 4.941098634835338, 46.992400574527416 ], [ 4.940006881446138, 46.993272475573804 ], [ 4.938983524219886, 46.994182139765115 ], [ 4.938031368107604, 46.995127071911291 ], [ 4.937153022903015, 46.996104680217677 ], [ 4.936350896089271, 46.99711228340869 ], [ 4.935627186240212, 46.998147118095851 ], [ 4.93498387699423, 46.99920634636976 ], [ 4.934422731617254, 47.000287063595032 ], [ 4.933945288169757, 47.001386306386657 ], [ 4.93355285529104, 47.00250106074575 ], [ 4.933246508612349, 47.003628270332193 ], [ 4.933027087808633, 47.004764844851444 ], [ 4.932895194297068, 47.005907668532458 ], [ 4.932851189588597, 47.007053608673175 ], [ 4.932895194297068, 47.00819952423042 ], [ 4.933027087808633, 47.009342274430352 ], [ 4.933246508612349, 47.010478727376004 ], [ 4.93355285529104, 47.011605768628286 ], [ 4.933945288169757, 47.012720309736991 ], [ 4.934422731617254, 47.013819296698394 ], [ 4.93498387699423, 47.014899718316556 ], [ 4.935627186240212, 47.015958614445196 ], [ 4.936350896089271, 47.016993084087972 ], [ 4.937153022903015, 47.018000293335007 ], [ 4.938031368107604, 47.018977483113936 ], [ 4.938983524219886, 47.019921976734658 ], [ 4.940006881446138, 47.020831187207101 ], [ 4.941098634835338, 47.02170262431224 ], [ 4.942255791967332, 47.022533901407222 ], [ 4.943475181154855, 47.02332274194606 ], [ 4.944753460136901, 47.024066985698447 ], [ 4.946087125239634, 47.024764594649625 ], [ 4.947472520979709, 47.025413658565604 ], [ 4.948905850083699, 47.026012400208536 ], [ 4.950383183896162, 47.026559180188293 ], [ 4.951900473147803, 47.027052501437076 ], [ 4.953453559054251, 47.027491013295013 ], [ 4.955038184714989, 47.027873515195878 ], [ 4.956650006781228, 47.028198959942721 ], [ 4.958284607360719, 47.028466456564921 ], [ 4.959937506126895, 47.028675272748728 ], [ 4.961604172599129, 47.028824836834943 ], [ 4.963280038560468, 47.028914739378131 ], [ 4.964960510578804, 47.028944734263504 ], [ 4.966640982597138, 47.028914739378131 ], [ 4.968316848558477, 47.028824836834943 ], [ 4.969983515030711, 47.028675272748728 ], [ 4.971636413796887, 47.028466456564921 ], [ 4.973271014376378, 47.028198959942721 ], [ 4.974882836442617, 47.027873515195878 ], [ 4.976467462103355, 47.027491013295013 ], [ 4.978020548009804, 47.027052501437076 ], [ 4.979537837261445, 47.026559180188293 ], [ 4.981015171073906, 47.026012400208536 ], [ 4.982448500177897, 47.025413658565604 ], [ 4.983833895917972, 47.024764594649625 ], [ 4.985167561020705, 47.024066985698447 ], [ 4.986445840002751, 47.02332274194606 ], [ 4.987665229190274, 47.022533901407222 ], [ 4.988822386322268, 47.02170262431224 ], [ 4.989914139711469, 47.020831187207101 ], [ 4.99093749693772, 47.019921976734658 ], [ 4.991889653050002, 47.018977483113936 ], [ 4.992767998254592, 47.018000293335007 ], [ 4.993570125068335, 47.016993084087972 ], [ 4.994293834917395, 47.015958614445196 ], [ 4.994937144163376, 47.014899718316556 ], [ 4.995498289540352, 47.013819296698394 ], [ 4.99597573298785, 47.012720309736991 ], [ 4.996368165866566, 47.011605768628286 ], [ 4.996674512545257, 47.010478727376004 ], [ 4.996893933348972, 47.009342274430352 ], [ 4.997025826860538, 47.00819952423042 ], [ 4.997069831569009, 47.007053608673175 ] ] ] } },
{ "type": "Feature", "properties": { "name": "Marigny-lès-Reullée", "feature_type": "mrr", "metric_roundness": 52.84, "metric_rectangularity": 63.51, "metric_mobile_fit": 81.57, "metric_aspect_ratio": 0.747, "metric_area_km2": 21.2 }, "geometry": { "type": "Polygon", "coordinates": [ [ [ 4.977700193723713, 46.986638475662737 ], [ 4.929474202062624, 46.997545985599643 ], [ 4.946160603727648, 47.031856688828064 ], [ 4.994386595388736, 47.020956184117374 ], [ 4.977700193723713, 46.986638475662737 ] ] ] } }
]
}
