{
"type": "FeatureCollection",
"name": "markt_erlbach_m",
"crs": { "type": "name", "properties": { "name": "urn:ogc:def:crs:OGC:1.3:CRS84" } },
"features": [
{ "type": "Feature", "properties": { "name": "Markt Erlbach, M", "metric_roundness": 33.78, "metric_rectangularity": 50.19, "metric_mobile_fit": -27.2, "metric_aspect_ratio": 1.835, "metric_area_km2": 144.44 }, "geometry": { "type": "Polygon", "coordinates": [ [ [ 10.5321145, 49.489570099999987 ], [ 10.5389278, 49.4876647 ], [ 10.5512272, 49.4777371 ], [ 10.5614733, 49.478042899999984 ], [ 10.5599272, 49.473475699999987 ], [ 10.5640469, 49.4719011 ], [ 10.5864965, 49.474414899999985 ], [ 10.5913302, 49.480643199999982 ], [ 10.5916673, 49.4869659 ], [ 10.6005168, 49.487587899999987 ], [ 10.6089001, 49.484699299999988 ], [ 10.6062213, 49.4782112 ], [ 10.6073161, 49.471653 ], [ 10.6154395, 49.469483 ], [ 10.634344, 49.4690394 ], [ 10.6344892, 49.472726 ], [ 10.6416882, 49.476652099999988 ], [ 10.6557785, 49.468757099999983 ], [ 10.676257, 49.4733115 ], [ 10.679933, 49.4773802 ], [ 10.6917, 49.4781625 ], [ 10.6835123, 49.4834545 ], [ 10.6845525, 49.490643199999987 ], [ 10.6818, 49.4946022 ], [ 10.6968476, 49.4987216 ], [ 10.7027675, 49.4960282 ], [ 10.7113095, 49.504779 ], [ 10.7117746, 49.5109619 ], [ 10.7076398, 49.514629199999987 ], [ 10.6705505, 49.5191674 ], [ 10.6666513, 49.5243292 ], [ 10.6693037, 49.529581099999987 ], [ 10.6624311, 49.528990399999984 ], [ 10.6560581, 49.540412 ], [ 10.64661, 49.54235 ], [ 10.6389855, 49.5356337 ], [ 10.6011825, 49.5293555 ], [ 10.5899979, 49.5324095 ], [ 10.5892182, 49.5206525 ], [ 10.583666, 49.518197 ], [ 10.577459, 49.5124226 ], [ 10.5796131, 49.5073356 ], [ 10.5652788, 49.503899 ], [ 10.564924, 49.495207499999985 ], [ 10.5472102, 49.495938499999987 ], [ 10.5227003, 49.503715 ], [ 10.5130702, 49.502376399999989 ], [ 10.5148484, 49.4960637 ], [ 10.503867, 49.493408 ], [ 10.5261657, 49.489150599999988 ], [ 10.5327637, 49.4843931 ], [ 10.5321145, 49.489570099999987 ] ] ] } }
]
}
