{
"type": "FeatureCollection",
"name": "markt_wald_m",
"crs": { "type": "name", "properties": { "name": "urn:ogc:def:crs:OGC:1.3:CRS84" } },
"features": [
{ "type": "Feature", "properties": { "name": "Markt Wald, M", "metric_roundness": 50.15, "metric_rectangularity": 59.89, "metric_mobile_fit": 43.41, "metric_aspect_ratio": 1.128, "metric_area_km2": 69.15 }, "geometry": { "type": "Polygon", "coordinates": [ [ [ 10.5600399, 48.14021229999998 ], [ 10.5759956, 48.1235016 ], [ 10.589684, 48.125480899999985 ], [ 10.5993663, 48.123101299999981 ], [ 10.6054291, 48.118541799999988 ], [ 10.611261, 48.120519099999989 ], [ 10.6136945, 48.111924 ], [ 10.617839, 48.1174286 ], [ 10.6275136, 48.119712099999987 ], [ 10.6239474, 48.124884199999983 ], [ 10.6321161, 48.1291713 ], [ 10.6261131, 48.1430377 ], [ 10.6462594, 48.1464317 ], [ 10.6477961, 48.154354 ], [ 10.644506, 48.1657765 ], [ 10.6413973, 48.168646 ], [ 10.6275385, 48.1656115 ], [ 10.6257447, 48.159431499999982 ], [ 10.6206312, 48.158098699999989 ], [ 10.5993663, 48.1661546 ], [ 10.5699058, 48.1674617 ], [ 10.5652135, 48.174312099999987 ], [ 10.5439215, 48.1730575 ], [ 10.542294, 48.163828099999989 ], [ 10.5447091, 48.152602699999989 ], [ 10.5495785, 48.145322 ], [ 10.5600399, 48.14021229999998 ] ] ] } }
]
}
