{
"type": "FeatureCollection",
"name": "marmont_pachas",
"crs": { "type": "name", "properties": { "name": "urn:ogc:def:crs:OGC:1.3:CRS84" } },
"features": [
{ "type": "Feature", "properties": { "name": "Marmont-Pachas", "metric_roundness": 54.93, "metric_rectangularity": 64.99, "metric_mobile_fit": 79.49, "metric_aspect_ratio": 0.768, "metric_area_km2": 15.71 }, "geometry": { "type": "Polygon", "coordinates": [ [ [ 0.606276, 44.087089499999983 ], [ 0.6063731, 44.0955977 ], [ 0.6007666, 44.098797399999988 ], [ 0.601236, 44.1133515 ], [ 0.600811, 44.1138305 ], [ 0.5807432, 44.105621899999988 ], [ 0.5738173, 44.0975495 ], [ 0.5717554, 44.089817499999981 ], [ 0.5666785, 44.086975 ], [ 0.58511, 44.076691 ], [ 0.601227, 44.0780065 ], [ 0.606276, 44.087089499999983 ] ] ] } }
]
}
