{
"type": "FeatureCollection",
"name": "marzagao",
"crs": { "type": "name", "properties": { "name": "urn:ogc:def:crs:OGC:1.3:CRS84" } },
"features": [
{ "type": "Feature", "properties": { "name": "Marzagão", "feature_type": "entity", "metric_roundness": 34.73, "metric_rectangularity": 61.29, "metric_mobile_fit": 88.32, "metric_aspect_ratio": 0.446, "metric_area_km2": 28.65 }, "geometry": { "type": "Polygon", "coordinates": [ [ [ -7.3377869, 41.222047599999989 ], [ -7.3400406, 41.2125248 ], [ -7.3366102, 41.1824412 ], [ -7.3289235, 41.174507499999983 ], [ -7.319207, 41.1915694 ], [ -7.299695, 41.2141245 ], [ -7.2993325, 41.2254855 ], [ -7.3139173, 41.2323117 ], [ -7.3190985, 41.24153 ], [ -7.325929, 41.2432825 ], [ -7.3324045, 41.2437395 ], [ -7.3368115, 41.239614 ], [ -7.3394555, 41.231116 ], [ -7.340346, 41.227427 ], [ -7.3377869, 41.222047599999989 ] ] ] } },
{ "type": "Feature", "properties": { "name": "Marzagão", "feature_type": "circle", "metric_roundness": 34.73, "metric_rectangularity": 61.29, "metric_mobile_fit": 88.32, "metric_aspect_ratio": 0.446, "metric_area_km2": 28.65 }, "geometry": { "type": "Polygon", "coordinates": [ [ [ -7.284618140328538, 41.209132657229247 ], [ -7.284681244578913, 41.207319674998367 ], [ -7.284870384365676, 41.205511611996499 ], [ -7.285185041269817, 41.203713424615849 ], [ -7.285624352838633, 41.201930042583903 ], [ -7.286187114949652, 41.20016635544021 ], [ -7.286871785111043, 41.198427199118953 ], [ -7.287676486689486, 41.196717342674411 ], [ -7.288599014053887, 41.195041475185768 ], [ -7.289636838620865, 41.193404192877495 ], [ -7.290787115785419, 41.191809986490838 ], [ -7.2920466927178, 41.190263228941454 ], [ -7.293412117005182, 41.188768163297333 ], [ -7.294879646114508, 41.187328891110319 ], [ -7.296445257650495, 41.185949361133751 ], [ -7.298104660380744, 41.184633358457475 ], [ -7.299853305997719, 41.183384494090497 ], [ -7.301686401585329, 41.182206195020328 ], [ -7.303598922755986, 41.181101694776757 ], [ -7.305585627422096, 41.180074024526256 ], [ -7.307641070164268, 41.179126004722072 ], [ -7.309759617156815, 41.178260237333276 ], [ -7.311935461609689, 41.177479098674389 ], [ -7.314162639684487, 41.176784732855921 ], [ -7.316435046840915, 41.176179045873944 ], [ -7.318746454568908, 41.175663700355287 ], [ -7.321090527460548, 41.175240110973299 ], [ -7.323460840574977, 41.17490944054677 ], [ -7.325850897048704, 41.174672596833105 ], [ -7.328254145903066, 41.174530230024793 ], [ -7.330664, 41.174482730956022 ], [ -7.333073854096933, 41.174530230024793 ], [ -7.335477102951296, 41.174672596833105 ], [ -7.337867159425023, 41.17490944054677 ], [ -7.340237472539451, 41.175240110973299 ], [ -7.342581545431091, 41.175663700355287 ], [ -7.344892953159085, 41.176179045873944 ], [ -7.347165360315512, 41.176784732855921 ], [ -7.34939253839031, 41.177479098674389 ], [ -7.351568382843184, 41.178260237333276 ], [ -7.353686929835731, 41.179126004722072 ], [ -7.355742372577903, 41.180074024526256 ], [ -7.357729077244013, 41.181101694776757 ], [ -7.359641598414671, 41.182206195020328 ], [ -7.361474694002279, 41.183384494090497 ], [ -7.363223339619255, 41.184633358457475 ], [ -7.364882742349504, 41.185949361133751 ], [ -7.366448353885491, 41.187328891110319 ], [ -7.367915882994817, 41.188768163297333 ], [ -7.3692813072822, 41.190263228941454 ], [ -7.37054088421458, 41.191809986490838 ], [ -7.371691161379134, 41.193404192877495 ], [ -7.372728985946112, 41.195041475185768 ], [ -7.373651513310513, 41.196717342674411 ], [ -7.374456214888956, 41.198427199118953 ], [ -7.375140885050348, 41.20016635544021 ], [ -7.375703647161366, 41.201930042583903 ], [ -7.376142958730182, 41.203713424615849 ], [ -7.376457615634323, 41.205511611996499 ], [ -7.376646755421087, 41.207319674998367 ], [ -7.376709859671461, 41.209132657229247 ], [ -7.376646755421087, 41.210945589224089 ], [ -7.376457615634323, 41.212753502068232 ], [ -7.376142958730182, 41.214551441014621 ], [ -7.375703647161366, 41.216334479057664 ], [ -7.375140885050348, 41.218097730426656 ], [ -7.374456214888956, 41.219836363961832 ], [ -7.373651513310513, 41.221545616336677 ], [ -7.372728985946112, 41.223220805090314 ], [ -7.371691161379134, 41.22485734143465 ], [ -7.37054088421458, 41.226450742801369 ], [ -7.3692813072822, 41.227996645094784 ], [ -7.367915882994817, 41.229490814617272 ], [ -7.366448353885491, 41.230929159635089 ], [ -7.364882742349504, 41.232307741553157 ], [ -7.363223339619255, 41.23362278566875 ], [ -7.361474694002279, 41.234870691475052 ], [ -7.359641598414671, 41.23604804248675 ], [ -7.357729077244013, 41.237151615561181 ], [ -7.355742372577903, 41.238178389690127 ], [ -7.353686929835731, 41.239125554238449 ], [ -7.351568382843184, 41.239990516607428 ], [ -7.34939253839031, 41.240770909302491 ], [ -7.347165360315512, 41.241464596386074 ], [ -7.344892953159085, 41.242069679298481 ], [ -7.342581545431091, 41.242584502031164 ], [ -7.340237472539451, 41.243007655638543 ], [ -7.337867159425023, 41.243337982076277 ], [ -7.335477102951296, 41.243574577355737 ], [ -7.333073854096933, 41.243716794006367 ], [ -7.330664, 41.243764242839099 ], [ -7.328254145903066, 41.243716794006367 ], [ -7.325850897048704, 41.243574577355737 ], [ -7.323460840574977, 41.243337982076277 ], [ -7.321090527460548, 41.243007655638543 ], [ -7.318746454568908, 41.242584502031164 ], [ -7.316435046840915, 41.242069679298481 ], [ -7.314162639684487, 41.241464596386074 ], [ -7.311935461609689, 41.240770909302491 ], [ -7.309759617156815, 41.239990516607428 ], [ -7.307641070164268, 41.239125554238449 ], [ -7.305585627422096, 41.238178389690127 ], [ -7.303598922755986, 41.237151615561181 ], [ -7.301686401585329, 41.23604804248675 ], [ -7.299853305997719, 41.234870691475052 ], [ -7.298104660380744, 41.23362278566875 ], [ -7.296445257650495, 41.232307741553157 ], [ -7.294879646114508, 41.230929159635089 ], [ -7.293412117005182, 41.229490814617272 ], [ -7.2920466927178, 41.227996645094784 ], [ -7.290787115785419, 41.226450742801369 ], [ -7.289636838620865, 41.22485734143465 ], [ -7.288599014053887, 41.223220805090314 ], [ -7.287676486689486, 41.221545616336677 ], [ -7.286871785111043, 41.219836363961832 ], [ -7.286187114949652, 41.218097730426656 ], [ -7.285624352838633, 41.216334479057664 ], [ -7.285185041269817, 41.214551441014621 ], [ -7.284870384365676, 41.212753502068232 ], [ -7.284681244578913, 41.210945589224089 ], [ -7.284618140328538, 41.209132657229247 ] ] ] } },
{ "type": "Feature", "properties": { "name": "Marzagão", "feature_type": "mrr", "metric_roundness": 34.73, "metric_rectangularity": 61.29, "metric_mobile_fit": 88.32, "metric_aspect_ratio": 0.446, "metric_area_km2": 28.65 }, "geometry": { "type": "Polygon", "coordinates": [ [ [ -7.339259347950912, 41.174387571088864 ], [ -7.340678416947427, 41.243643597225422 ], [ -7.29971444319688, 41.244118398101008 ], [ -7.298295374200364, 41.174862874815858 ], [ -7.339259347950912, 41.174387571088864 ] ] ] } }
]
}
