{
"type": "FeatureCollection",
"name": "massamagrell",
"crs": { "type": "name", "properties": { "name": "urn:ogc:def:crs:OGC:1.3:CRS84" } },
"features": [
{ "type": "Feature", "properties": { "name": "Massamagrell", "feature_type": "entity", "metric_roundness": 13.55, "metric_rectangularity": 51.32, "metric_mobile_fit": 11.2, "metric_aspect_ratio": 1.451, "metric_area_km2": 10.46 }, "geometry": { "type": "Polygon", "coordinates": [ [ [ -0.3120278, 39.568871799999982 ], [ -0.314958, 39.5725346 ], [ -0.3249557, 39.573670499999984 ], [ -0.3374217, 39.5818482 ], [ -0.3367595, 39.5843655 ], [ -0.3541335, 39.592724 ], [ -0.3615185, 39.5966485 ], [ -0.3489623, 39.575064699999984 ], [ -0.328478, 39.563694 ], [ -0.3202, 39.561352 ], [ -0.3128357, 39.5655482 ], [ -0.289378, 39.556656 ], [ -0.2862565, 39.559933 ], [ -0.3120278, 39.568871799999982 ] ] ] } },
{ "type": "Feature", "properties": { "name": "Massamagrell", "feature_type": "circle", "metric_roundness": 13.55, "metric_rectangularity": 51.32, "metric_mobile_fit": 11.2, "metric_aspect_ratio": 1.451, "metric_area_km2": 10.46 }, "geometry": { "type": "Polygon", "coordinates": [ [ [ -0.279352299976019, 39.578293181081577 ], [ -0.27941333391985, 39.576496688745294 ], [ -0.279596268461546, 39.574705074099612 ], [ -0.279900602190242, 39.572923248407974 ], [ -0.280325500948343, 39.57115609647709 ], [ -0.280869800117888, 39.569408463257687 ], [ -0.281532007812685, 39.567685140550452 ], [ -0.282310308967474, 39.565990853853883 ], [ -0.283202570312888, 39.564330249390125 ], [ -0.284206346222599, 39.562707881344913 ], [ -0.285318885416611, 39.56112819935646 ], [ -0.286537138502325, 39.559595536288214 ], [ -0.287857766332712, 39.558114096319201 ], [ -0.289277149158685, 39.556687943385015 ], [ -0.290791396550578, 39.555320990001427 ], [ -0.292396358061544, 39.5540169865018 ], [ -0.294087634603641, 39.552779510718189 ], [ -0.295860590505426, 39.551611958134714 ], [ -0.297710366218009, 39.55051753254083 ], [ -0.299631891634738, 39.549499237210419 ], [ -0.30161989998801, 39.5485598666314 ], [ -0.303668942285112, 39.547701998808805 ], [ -0.305773402243537, 39.546927988163027 ], [ -0.307927511684816, 39.546239959042971 ], [ -0.310125366344702, 39.54563979987217 ], [ -0.312360942056344, 39.545129157944551 ], [ -0.314628111262107, 39.544709434884076 ], [ -0.316920659808789, 39.544381782781194 ], [ -0.319232303980176, 39.544147101016904 ], [ -0.321556707720274, 39.544006033783226 ], [ -0.3238875, 39.543958968307194 ], [ -0.326218292279726, 39.544006033783226 ], [ -0.328542696019824, 39.544147101016904 ], [ -0.330854340191211, 39.544381782781194 ], [ -0.333146888737893, 39.544709434884076 ], [ -0.335414057943656, 39.545129157944551 ], [ -0.337649633655297, 39.54563979987217 ], [ -0.339847488315184, 39.546239959042971 ], [ -0.342001597756463, 39.546927988163027 ], [ -0.344106057714888, 39.547701998808805 ], [ -0.34615510001199, 39.5485598666314 ], [ -0.348143108365262, 39.549499237210419 ], [ -0.350064633781991, 39.55051753254083 ], [ -0.351914409494574, 39.551611958134714 ], [ -0.353687365396359, 39.552779510718189 ], [ -0.355378641938456, 39.5540169865018 ], [ -0.356983603449422, 39.55532099000142 ], [ -0.358497850841315, 39.556687943385015 ], [ -0.359917233667288, 39.558114096319201 ], [ -0.361237861497675, 39.559595536288214 ], [ -0.362456114583388, 39.56112819935646 ], [ -0.363568653777401, 39.562707881344913 ], [ -0.364572429687112, 39.564330249390125 ], [ -0.365464691032526, 39.565990853853883 ], [ -0.366242992187315, 39.567685140550452 ], [ -0.366905199882112, 39.569408463257687 ], [ -0.367449499051657, 39.57115609647709 ], [ -0.367874397809758, 39.572923248407974 ], [ -0.368178731538454, 39.574705074099612 ], [ -0.36836166608015, 39.576496688745294 ], [ -0.36842270002398, 39.578293181081577 ], [ -0.36836166608015, 39.580089626856022 ], [ -0.368178731538454, 39.581881102326328 ], [ -0.367874397809758, 39.583662697753894 ], [ -0.367449499051657, 39.585429530854825 ], [ -0.366905199882112, 39.587176760171566 ], [ -0.366242992187315, 39.588899598328666 ], [ -0.365464691032526, 39.590593325136496 ], [ -0.364572429687112, 39.592253300507124 ], [ -0.363568653777401, 39.593874977147308 ], [ -0.362456114583388, 39.595453912994039 ], [ -0.361237861497675, 39.596985783358718 ], [ -0.359917233667288, 39.598466392747376 ], [ -0.358497850841315, 39.599891686324412 ], [ -0.356983603449422, 39.601257760989377 ], [ -0.355378641938456, 39.6025608760363 ], [ -0.353687365396359, 39.603797463367229 ], [ -0.351914409494574, 39.604964137232123 ], [ -0.350064633781991, 39.60605770346892 ], [ -0.348143108365262, 39.607075168219048 ], [ -0.34615510001199, 39.608013746094606 ], [ -0.344106057714888, 39.608870867775565 ], [ -0.342001597756463, 39.609644187016428 ], [ -0.339847488315184, 39.610331587043476 ], [ -0.337649633655297, 39.610931186325629 ], [ -0.335414057943656, 39.611441343703241 ], [ -0.333146888737893, 39.61186066286114 ], [ -0.330854340191211, 39.612187996134146 ], [ -0.328542696019824, 39.61242244763443 ], [ -0.326218292279726, 39.612563375692766 ], [ -0.3238875, 39.612610394606975 ], [ -0.321556707720274, 39.612563375692766 ], [ -0.319232303980176, 39.61242244763443 ], [ -0.316920659808789, 39.612187996134146 ], [ -0.314628111262107, 39.61186066286114 ], [ -0.312360942056344, 39.611441343703241 ], [ -0.310125366344702, 39.610931186325629 ], [ -0.307927511684816, 39.610331587043476 ], [ -0.305773402243537, 39.609644187016428 ], [ -0.303668942285112, 39.608870867775565 ], [ -0.30161989998801, 39.608013746094606 ], [ -0.299631891634738, 39.607075168219048 ], [ -0.297710366218009, 39.60605770346892 ], [ -0.295860590505426, 39.604964137232123 ], [ -0.294087634603641, 39.603797463367229 ], [ -0.292396358061544, 39.6025608760363 ], [ -0.290791396550578, 39.601257760989384 ], [ -0.289277149158685, 39.599891686324412 ], [ -0.287857766332712, 39.598466392747376 ], [ -0.286537138502325, 39.596985783358718 ], [ -0.285318885416611, 39.595453912994039 ], [ -0.284206346222599, 39.593874977147308 ], [ -0.283202570312888, 39.592253300507124 ], [ -0.282310308967474, 39.590593325136496 ], [ -0.281532007812685, 39.588899598328666 ], [ -0.280869800117888, 39.587176760171566 ], [ -0.280325500948343, 39.585429530854825 ], [ -0.279900602190242, 39.583662697753894 ], [ -0.279596268461546, 39.581881102326328 ], [ -0.27941333391985, 39.580089626856022 ], [ -0.279352299976019, 39.578293181081577 ] ] ] } },
{ "type": "Feature", "properties": { "name": "Massamagrell", "feature_type": "mrr", "metric_roundness": 13.55, "metric_rectangularity": 51.32, "metric_mobile_fit": 11.2, "metric_aspect_ratio": 1.451, "metric_area_km2": 10.46 }, "geometry": { "type": "Polygon", "coordinates": [ [ [ -0.3615185, 39.5966485 ], [ -0.2862565, 39.559933 ], [ -0.296128207097395, 39.54790749205808 ], [ -0.371390207101858, 39.584629359621182 ], [ -0.3615185, 39.5966485 ] ] ] } }
]
}
