{
"type": "FeatureCollection",
"name": "mata_de_los_olmos_la",
"crs": { "type": "name", "properties": { "name": "urn:ogc:def:crs:OGC:1.3:CRS84" } },
"features": [
{ "type": "Feature", "properties": { "name": "Mata de los Olmos, La", "metric_roundness": 40.67, "metric_rectangularity": 53.13, "metric_mobile_fit": 81.36, "metric_aspect_ratio": 0.749, "metric_area_km2": 42.61 }, "geometry": { "type": "Polygon", "coordinates": [ [ [ -0.4856645, 40.859478 ], [ -0.4923777, 40.860126399999977 ], [ -0.5005782, 40.8675063 ], [ -0.502587, 40.8763515 ], [ -0.5146417, 40.8963386 ], [ -0.509921, 40.915325 ], [ -0.5149155, 40.9163705 ], [ -0.517734, 40.9185295 ], [ -0.5196595, 40.9171945 ], [ -0.5220965, 40.91177 ], [ -0.5348465, 40.899307499999985 ], [ -0.536569, 40.895092 ], [ -0.5421775, 40.885006 ], [ -0.5434995, 40.8810465 ], [ -0.5498405, 40.872551 ], [ -0.5593905, 40.866169 ], [ -0.5598825, 40.863102 ], [ -0.558309, 40.857834 ], [ -0.5587955, 40.854267 ], [ -0.5564148, 40.847704899999989 ], [ -0.5465785, 40.843605 ], [ -0.5262666, 40.8526848 ], [ -0.5140987, 40.8499336 ], [ -0.487296, 40.8546335 ], [ -0.4856645, 40.859478 ] ] ] } }
]
}
