{
"type": "FeatureCollection",
"name": "matejovce_nad_hornadom",
"crs": { "type": "name", "properties": { "name": "urn:ogc:def:crs:OGC:1.3:CRS84" } },
"features": [
{ "type": "Feature", "properties": { "name": "Matejovce nad Hornádom", "feature_type": "entity", "metric_roundness": 50.6, "metric_rectangularity": 79.04, "metric_mobile_fit": 93.49, "metric_aspect_ratio": 0.628, "metric_area_km2": 8.1 }, "geometry": { "type": "Polygon", "coordinates": [ [ [ 20.689047, 48.8961845 ], [ 20.6889286, 48.9023292 ], [ 20.680471, 48.9217065 ], [ 20.667814, 48.9182365 ], [ 20.6664795, 48.9178 ], [ 20.6638588, 48.914848099999979 ], [ 20.6680968, 48.9101057 ], [ 20.6684095, 48.899659 ], [ 20.68255, 48.8953275 ], [ 20.689047, 48.8961845 ] ] ] } },
{ "type": "Feature", "properties": { "name": "Matejovce nad Hornádom", "feature_type": "circle", "metric_roundness": 50.6, "metric_rectangularity": 79.04, "metric_mobile_fit": 93.49, "metric_aspect_ratio": 0.628, "metric_area_km2": 8.1 }, "geometry": { "type": "Polygon", "coordinates": [ [ [ 20.701116820578296, 48.908376870013207 ], [ 20.70108901885563, 48.907679043564855 ], [ 20.701005689890227, 48.906983120104869 ], [ 20.700867062080984, 48.906291007230678 ], [ 20.700673515397099, 48.90560460217354 ], [ 20.700425580336567, 48.90492578659606 ], [ 20.70012393647216, 48.904256421431768 ], [ 20.699769410588754, 48.903598341780636 ], [ 20.699362974417134, 48.902953351874565 ], [ 20.698905741970609, 48.902323220126895 ], [ 20.698398966491531, 48.901709674279374 ], [ 20.697844037016257, 48.901114396659999 ], [ 20.697242474567908, 48.900539019564853 ], [ 20.696595927987342, 48.899985120776655 ], [ 20.695906169413796, 48.899454219232304 ], [ 20.695175089427575, 48.898947770851514 ], [ 20.694404691868108, 48.898467164537934 ], [ 20.693597088341548, 48.898013718363934 ], [ 20.692754492433032, 48.897588675949457 ], [ 20.691879213639382, 48.897193203045035 ], [ 20.690973651038917, 48.896828384328543 ], [ 20.690040286715789, 48.896495220424249 ], [ 20.689081678956729, 48.896194625152788 ], [ 20.688100455238974, 48.895927423019344 ], [ 20.687099305028525, 48.895694346947295 ], [ 20.686080972408522, 48.895496036263317 ], [ 20.685048248557901, 48.895333034939824 ], [ 20.684003964100945, 48.895205790099375 ], [ 20.682950981348768, 48.895114650785381 ], [ 20.68189218645389, 48.89505986700231 ], [ 20.680830481499534, 48.895041589028402 ], [ 20.679768776545181, 48.89505986700231 ], [ 20.678709981650304, 48.895114650785381 ], [ 20.677656998898122, 48.895205790099375 ], [ 20.676612714441166, 48.895333034939824 ], [ 20.675579990590549, 48.895496036263317 ], [ 20.674561657970546, 48.895694346947295 ], [ 20.673560507760097, 48.895927423019344 ], [ 20.672579284042339, 48.896194625152788 ], [ 20.671620676283283, 48.896495220424249 ], [ 20.670687311960155, 48.896828384328543 ], [ 20.669781749359689, 48.897193203045035 ], [ 20.668906470566039, 48.897588675949457 ], [ 20.66806387465752, 48.898013718363934 ], [ 20.667256271130963, 48.898467164537934 ], [ 20.666485873571492, 48.898947770851514 ], [ 20.665754793585272, 48.899454219232304 ], [ 20.665065035011729, 48.899985120776655 ], [ 20.664418488431163, 48.900539019564853 ], [ 20.663816925982815, 48.901114396659999 ], [ 20.663261996507543, 48.901709674279374 ], [ 20.662755221028462, 48.902323220126895 ], [ 20.662297988581933, 48.902953351874565 ], [ 20.661891552410317, 48.903598341780636 ], [ 20.661537026526908, 48.904256421431768 ], [ 20.661235382662504, 48.90492578659606 ], [ 20.660987447601968, 48.90560460217354 ], [ 20.660793900918087, 48.906291007230678 ], [ 20.660655273108844, 48.906983120104869 ], [ 20.660571944143438, 48.907679043564855 ], [ 20.660544142420775, 48.908376870013207 ], [ 20.660571944143438, 48.909074686716146 ], [ 20.660655273108844, 48.909770581046644 ], [ 20.660793900918087, 48.910462645726383 ], [ 20.660987447601968, 48.911148984052197 ], [ 20.661235382662504, 48.911827715092578 ], [ 20.661537026526908, 48.912496978840188 ], [ 20.661891552410317, 48.913154941306217 ], [ 20.662297988581933, 48.913799799542659 ], [ 20.662755221028462, 48.914429786578765 ], [ 20.663261996507543, 48.915043176258301 ], [ 20.663816925982815, 48.915638287964271 ], [ 20.664418488431163, 48.91621349121835 ], [ 20.665065035011729, 48.916767210142496 ], [ 20.665754793585272, 48.917297927770413 ], [ 20.666485873571492, 48.917804190197423 ], [ 20.667256271130963, 48.918284610557215 ], [ 20.66806387465752, 48.918737872814781 ], [ 20.668906470566032, 48.919162735365212 ], [ 20.669781749359689, 48.919558034428576 ], [ 20.670687311960155, 48.919922687231661 ], [ 20.671620676283283, 48.920255694967963 ], [ 20.672579284042339, 48.920556145527875 ], [ 20.673560507760097, 48.920823215991689 ], [ 20.674561657970546, 48.921056174878636 ], [ 20.675579990590549, 48.921254384145939 ], [ 20.676612714441166, 48.921417300932333 ], [ 20.677656998898122, 48.921544479041451 ], [ 20.678709981650304, 48.921635570161023 ], [ 20.679768776545181, 48.921690324814584 ], [ 20.680830481499534, 48.921708593043071 ], [ 20.68189218645389, 48.921690324814584 ], [ 20.682950981348768, 48.921635570161023 ], [ 20.684003964100945, 48.921544479041451 ], [ 20.685048248557901, 48.921417300932333 ], [ 20.686080972408522, 48.921254384145939 ], [ 20.687099305028525, 48.921056174878636 ], [ 20.688100455238974, 48.920823215991689 ], [ 20.689081678956729, 48.920556145527875 ], [ 20.690040286715789, 48.920255694967963 ], [ 20.690973651038917, 48.919922687231661 ], [ 20.691879213639382, 48.919558034428576 ], [ 20.692754492433032, 48.919162735365212 ], [ 20.693597088341548, 48.918737872814781 ], [ 20.694404691868108, 48.918284610557215 ], [ 20.695175089427575, 48.917804190197423 ], [ 20.695906169413796, 48.917297927770413 ], [ 20.696595927987342, 48.916767210142496 ], [ 20.697242474567908, 48.91621349121835 ], [ 20.697844037016257, 48.915638287964271 ], [ 20.698398966491531, 48.915043176258301 ], [ 20.698905741970609, 48.914429786578765 ], [ 20.699362974417134, 48.913799799542659 ], [ 20.699769410588754, 48.913154941306217 ], [ 20.70012393647216, 48.912496978840188 ], [ 20.700425580336567, 48.911827715092578 ], [ 20.700673515397099, 48.911148984052197 ], [ 20.700867062080984, 48.910462645726383 ], [ 20.701005689890227, 48.909770581046644 ], [ 20.70108901885563, 48.909074686716146 ], [ 20.701116820578296, 48.908376870013207 ] ] ] } },
{ "type": "Feature", "properties": { "name": "Matejovce nad Hornádom", "feature_type": "mrr", "metric_roundness": 50.6, "metric_rectangularity": 79.04, "metric_mobile_fit": 93.49, "metric_aspect_ratio": 0.628, "metric_area_km2": 8.1 }, "geometry": { "type": "Polygon", "coordinates": [ [ [ 20.680471, 48.9217065 ], [ 20.691415020621147, 48.896631076374739 ], [ 20.671379369006377, 48.892852525499286 ], [ 20.660435335639516, 48.91792984546565 ], [ 20.680471, 48.9217065 ] ] ] } }
]
}
