{
"type": "FeatureCollection",
"name": "matramindszent",
"crs": { "type": "name", "properties": { "name": "urn:ogc:def:crs:OGC:1.3:CRS84" } },
"features": [
{ "type": "Feature", "properties": { "name": "Mátramindszent", "feature_type": "entity", "metric_roundness": 42.78, "metric_rectangularity": 71.52, "metric_mobile_fit": 93.77, "metric_aspect_ratio": 0.5, "metric_area_km2": 37.15 }, "geometry": { "type": "Polygon", "coordinates": [ [ [ 19.9655137, 47.948813399999985 ], [ 19.9686606, 47.9526702 ], [ 19.967785, 47.95874 ], [ 19.964262, 47.968663 ], [ 19.968144, 47.9734525 ], [ 19.9604614, 47.980691 ], [ 19.9639119, 47.9868959 ], [ 19.9609678, 48.000627099999981 ], [ 19.954344, 48.006664 ], [ 19.9366615, 48.0056625 ], [ 19.9344525, 48.005081 ], [ 19.9350965, 47.9916748 ], [ 19.9218801, 47.9722084 ], [ 19.9330236, 47.955034 ], [ 19.9332346, 47.9505797 ], [ 19.940908, 47.9440505 ], [ 19.9655137, 47.948813399999985 ] ] ] } },
{ "type": "Feature", "properties": { "name": "Mátramindszent", "feature_type": "circle", "metric_roundness": 42.78, "metric_rectangularity": 71.52, "metric_mobile_fit": 93.77, "metric_aspect_ratio": 0.5, "metric_area_km2": 37.15 }, "geometry": { "type": "Polygon", "coordinates": [ [ [ 19.994870950279246, 47.975366740965185 ], [ 19.99480620271687, 47.973711425788466 ], [ 19.994612137498301, 47.972060594867798 ], [ 19.994289286542813, 47.970418773667191 ], [ 19.993838534762435, 47.968790463382092 ], [ 19.993261117636468, 47.967180128590115 ], [ 19.992558617825122, 47.965592184997561 ], [ 19.991732960831538, 47.96403098731561 ], [ 19.990786409724155, 47.962500817299478 ], [ 19.989721558933766, 47.961005871983716 ], [ 19.988541327142364, 47.95955025214618 ], [ 19.987248949283252, 47.958137951032619 ], [ 19.985847967674314, 47.956772843373194 ], [ 19.984342222308754, 47.955458674721434 ], [ 19.982735840329958, 47.954199051145388 ], [ 19.981033224719276, 47.952997429299515 ], [ 19.979239042227746, 47.951857106905145 ], [ 19.977358210584864, 47.95078121366614 ], [ 19.975395885019431, 47.949772702644957 ], [ 19.973357444129423, 47.94883434212349 ], [ 19.971248475139625, 47.947968707971292 ], [ 19.969074758587446, 47.947178176542643 ], [ 19.966842252478862, 47.946464918122544 ], [ 19.964557075957945, 47.945830890939789 ], [ 19.962225492534685, 47.945277835764131 ], [ 19.959853892917188, 47.944807271102682 ], [ 19.957448777495156, 47.94442048900909 ], [ 19.955016738522787, 47.944118551517214 ], [ 19.952564442049848, 47.943902287709456 ], [ 19.95009860965051, 47.943772291427962 ], [ 19.947626, 47.943728919635113 ], [ 19.945153390349486, 47.943772291427962 ], [ 19.942687557950148, 47.943902287709456 ], [ 19.940235261477213, 47.944118551517214 ], [ 19.93780322250484, 47.94442048900909 ], [ 19.935398107082811, 47.944807271102682 ], [ 19.933026507465311, 47.945277835764131 ], [ 19.930694924042051, 47.945830890939789 ], [ 19.928409747521133, 47.946464918122544 ], [ 19.92617724141255, 47.947178176542643 ], [ 19.924003524860371, 47.947968707971292 ], [ 19.921894555870573, 47.94883434212349 ], [ 19.919856114980565, 47.949772702644957 ], [ 19.917893789415132, 47.95078121366614 ], [ 19.916012957772249, 47.951857106905145 ], [ 19.91421877528072, 47.952997429299515 ], [ 19.912516159670037, 47.954199051145388 ], [ 19.910909777691245, 47.955458674721434 ], [ 19.909404032325686, 47.956772843373194 ], [ 19.908003050716747, 47.958137951032619 ], [ 19.906710672857631, 47.95955025214618 ], [ 19.905530441066229, 47.961005871983716 ], [ 19.904465590275841, 47.962500817299478 ], [ 19.903519039168458, 47.96403098731561 ], [ 19.902693382174874, 47.965592184997561 ], [ 19.901990882363528, 47.967180128590115 ], [ 19.90141346523756, 47.968790463382092 ], [ 19.900962713457183, 47.970418773667191 ], [ 19.900639862501695, 47.972060594867798 ], [ 19.900445797283126, 47.973711425788466 ], [ 19.90038104972075, 47.975366740965185 ], [ 19.900445797283126, 47.977022003076442 ], [ 19.900639862501695, 47.978672675382128 ], [ 19.900962713457183, 47.980314234156047 ], [ 19.90141346523756, 47.981942181077969 ], [ 19.901990882363528, 47.983552055551343 ], [ 19.902693382174874, 47.985139446913223 ], [ 19.903519039168458, 47.986700006502794 ], [ 19.904465590275841, 47.98822945955591 ], [ 19.905530441066229, 47.989723616893222 ], [ 19.906710672857631, 47.991178386370116 ], [ 19.908003050716747, 47.9925897840576 ], [ 19.909404032325686, 47.993953945123621 ], [ 19.910909777691245, 47.995267134385713 ], [ 19.912516159670037, 47.996525756506266 ], [ 19.91421877528072, 47.997726365802947 ], [ 19.916012957772249, 47.99886567564814 ], [ 19.917893789415132, 47.999940567431679 ], [ 19.919856114980565, 48.000948099063244 ], [ 19.921894555870573, 48.001885512991372 ], [ 19.924003524860371, 48.002750243717571 ], [ 19.92617724141255, 48.00353992478567 ], [ 19.928409747521133, 48.004252395227411 ], [ 19.930694924042051, 48.004885705447244 ], [ 19.933026507465311, 48.005438122530613 ], [ 19.935398107082811, 48.005908134961473 ], [ 19.93780322250484, 48.006294456736548 ], [ 19.940235261477213, 48.00659603086531 ], [ 19.942687557950148, 48.00681203224643 ], [ 19.945153390349486, 48.006941869912971 ], [ 19.947626, 48.006985188640378 ], [ 19.95009860965051, 48.006941869912971 ], [ 19.952564442049848, 48.00681203224643 ], [ 19.955016738522787, 48.00659603086531 ], [ 19.957448777495156, 48.006294456736548 ], [ 19.959853892917188, 48.005908134961473 ], [ 19.962225492534685, 48.005438122530613 ], [ 19.964557075957945, 48.004885705447244 ], [ 19.966842252478862, 48.004252395227411 ], [ 19.969074758587446, 48.00353992478567 ], [ 19.971248475139625, 48.002750243717571 ], [ 19.973357444129423, 48.001885512991372 ], [ 19.975395885019431, 48.000948099063244 ], [ 19.977358210584864, 47.999940567431679 ], [ 19.979239042227746, 47.99886567564814 ], [ 19.981033224719276, 47.997726365802947 ], [ 19.982735840329958, 47.996525756506266 ], [ 19.984342222308754, 47.995267134385713 ], [ 19.985847967674314, 47.993953945123621 ], [ 19.987248949283252, 47.9925897840576 ], [ 19.988541327142364, 47.991178386370116 ], [ 19.989721558933766, 47.989723616893222 ], [ 19.990786409724155, 47.98822945955591 ], [ 19.991732960831538, 47.986700006502794 ], [ 19.992558617825122, 47.985139446913223 ], [ 19.993261117636468, 47.983552055551343 ], [ 19.993838534762435, 47.981942181077969 ], [ 19.994289286542813, 47.980314234156047 ], [ 19.994612137498301, 47.978672675382128 ], [ 19.99480620271687, 47.977022003076442 ], [ 19.994870950279246, 47.975366740965185 ] ] ] } },
{ "type": "Feature", "properties": { "name": "Mátramindszent", "feature_type": "mrr", "metric_roundness": 42.78, "metric_rectangularity": 71.52, "metric_mobile_fit": 93.77, "metric_aspect_ratio": 0.5, "metric_area_km2": 37.15 }, "geometry": { "type": "Polygon", "coordinates": [ [ [ 19.958941623528187, 48.00829713462241 ], [ 19.974844005565579, 47.94806818768587 ], [ 19.929663082073048, 47.942719138609107 ], [ 19.91376070003566, 48.002954321713233 ], [ 19.958941623528187, 48.00829713462241 ] ] ] } }
]
}
