{
"type": "FeatureCollection",
"name": "matraterenye",
"crs": { "type": "name", "properties": { "name": "urn:ogc:def:crs:OGC:1.3:CRS84" } },
"features": [
{ "type": "Feature", "properties": { "name": "Mátraterenye", "feature_type": "entity", "metric_roundness": 36.18, "metric_rectangularity": 48.32, "metric_mobile_fit": 56.28, "metric_aspect_ratio": 1.0, "metric_area_km2": 62.38 }, "geometry": { "type": "Polygon", "coordinates": [ [ [ 19.97509, 47.9739504 ], [ 19.9853681, 47.979859899999987 ], [ 19.9766041, 47.991023199999979 ], [ 19.9813519, 47.997841099999988 ], [ 19.9901493, 47.9997328 ], [ 19.995876, 48.0060102 ], [ 20.031604, 48.007387 ], [ 20.0275608, 48.01415919999998 ], [ 20.0160037, 48.018293 ], [ 20.013054, 48.027133 ], [ 19.9923095, 48.020935299999984 ], [ 19.9652905, 48.025719799999983 ], [ 19.9550682, 48.03404459999998 ], [ 19.9608504, 48.041689899999987 ], [ 19.9306415, 48.0553005 ], [ 19.9285835, 48.0524038 ], [ 19.9303566, 48.0421578 ], [ 19.9167455, 48.0405996 ], [ 19.9120545, 48.036449 ], [ 19.9166123, 48.0334768 ], [ 19.909287, 48.02895 ], [ 19.9143567, 48.027991 ], [ 19.9222149, 48.017862299999983 ], [ 19.9334069, 48.013395299999985 ], [ 19.9366615, 48.0056625 ], [ 19.954344, 48.006664 ], [ 19.9609678, 48.000627099999981 ], [ 19.9639119, 47.9868959 ], [ 19.9604614, 47.980691 ], [ 19.968144, 47.9734525 ], [ 19.97509, 47.9739504 ] ] ] } },
{ "type": "Feature", "properties": { "name": "Mátraterenye", "feature_type": "circle", "metric_roundness": 36.18, "metric_rectangularity": 48.32, "metric_mobile_fit": 56.28, "metric_aspect_ratio": 1.0, "metric_area_km2": 62.38 }, "geometry": { "type": "Polygon", "coordinates": [ [ [ 20.03351933916769, 48.017992520919819 ], [ 20.033428108378118, 48.015662054942958 ], [ 20.033154666066643, 48.01333787170632 ], [ 20.032699761719634, 48.011026342927067 ], [ 20.032064642198296, 48.008733806483846 ], [ 20.031251048321089, 48.006466549021717 ], [ 20.030261210092263, 48.004230788688474 ], [ 20.029097840589621, 48.002032658049956 ], [ 20.027764128528091, 47.999878187231872 ], [ 20.026263729519734, 47.997773287334624 ], [ 20.024600756053935, 47.995723734167342 ], [ 20.022779766225376, 47.993735152346389 ], [ 20.020805751240609, 47.991812999802754 ], [ 20.018684121737483, 47.98996255274151 ], [ 20.016420692955002, 47.988188891095518 ], [ 20.014021668794125, 47.986496884514217 ], [ 20.011493624813323, 47.984891178926773 ], [ 20.008843490205422, 47.983376183717397 ], [ 20.006078528805183, 47.981956059549077 ], [ 20.003206319179604, 47.98063470687007 ], [ 20.000234733855631, 47.979415755135413 ], [ 19.997171917742083, 47.978302552774359 ], [ 19.994026265805033, 47.977298157931763 ], [ 19.990806400057785, 47.976405330009982 ], [ 19.98752114592855, 47.975626522035093 ], [ 19.984179508070532, 47.974963873869278 ], [ 19.980790645680838, 47.974419206288566 ], [ 19.977363847395704, 47.973994015942857 ], [ 19.973908505831048, 47.973689471212616 ], [ 19.970434091837923, 47.973506408973883 ], [ 19.966950128543569, 47.973445332281067 ], [ 19.963466165249223, 47.973506408973883 ], [ 19.959991751256094, 47.973689471212616 ], [ 19.956536409691434, 47.973994015942857 ], [ 19.953109611406305, 47.974419206288566 ], [ 19.949720749016606, 47.974963873869278 ], [ 19.946379111158592, 47.975626522035093 ], [ 19.943093857029357, 47.976405330009982 ], [ 19.939873991282109, 47.977298157931763 ], [ 19.936728339345063, 47.978302552774359 ], [ 19.933665523231515, 47.979415755135413 ], [ 19.930693937907538, 47.98063470687007 ], [ 19.927821728281963, 47.981956059549077 ], [ 19.925056766881724, 47.983376183717397 ], [ 19.92240663227382, 47.984891178926773 ], [ 19.91987858829302, 47.986496884514217 ], [ 19.91747956413214, 47.988188891095518 ], [ 19.915216135349656, 47.98996255274151 ], [ 19.913094505846537, 47.991812999802754 ], [ 19.911120490861762, 47.993735152346389 ], [ 19.90929950103321, 47.995723734167342 ], [ 19.907636527567412, 47.997773287334624 ], [ 19.906136128559051, 47.999878187231872 ], [ 19.904802416497521, 48.002032658049956 ], [ 19.903639046994879, 48.004230788688474 ], [ 19.902649208766057, 48.006466549021717 ], [ 19.901835614888849, 48.008733806483846 ], [ 19.901200495367508, 48.011026342927067 ], [ 19.900745591020499, 48.01333787170632 ], [ 19.900472148709028, 48.015662054942958 ], [ 19.900380917919449, 48.017992520919819 ], [ 19.900472148709028, 48.020322881559899 ], [ 19.900745591020499, 48.022646749940236 ], [ 19.901200495367508, 48.024957757793317 ], [ 19.901835614888849, 48.027249572947888 ], [ 19.902649208766057, 48.02951591666146 ], [ 19.903639046994879, 48.031750580797507 ], [ 19.904802416497521, 48.033947444800305 ], [ 19.906136128559051, 48.036100492421703 ], [ 19.907636527567412, 48.038203828154153 ], [ 19.90929950103321, 48.040251693325843 ], [ 19.911120490861762, 48.042238481814444 ], [ 19.913094505846537, 48.044158755337101 ], [ 19.915216135349656, 48.046007258275694 ], [ 19.91747956413214, 48.04777893199757 ], [ 19.91987858829302, 48.049468928633409 ], [ 19.92240663227382, 48.051072624275449 ], [ 19.925056766881724, 48.052585631560831 ], [ 19.927821728281963, 48.054003811606684 ], [ 19.930693937907538, 48.055323285264969 ], [ 19.933665523231515, 48.056540443667579 ], [ 19.936728339345063, 48.057651958033389 ], [ 19.939873991282109, 48.058654788711564 ], [ 19.943093857029357, 48.05954619343705 ], [ 19.946379111158592, 48.060323734776588 ], [ 19.949720749016606, 48.060985286745527 ], [ 19.953109611406305, 48.061529040578009 ], [ 19.956536409691434, 48.061953509635316 ], [ 19.959991751256094, 48.062257533439585 ], [ 19.963466165249219, 48.062440280822138 ], [ 19.966950128543569, 48.062501252178194 ], [ 19.970434091837923, 48.062440280822138 ], [ 19.973908505831048, 48.062257533439585 ], [ 19.977363847395704, 48.061953509635316 ], [ 19.980790645680838, 48.061529040578009 ], [ 19.984179508070532, 48.060985286745527 ], [ 19.98752114592855, 48.060323734776588 ], [ 19.990806400057785, 48.05954619343705 ], [ 19.994026265805033, 48.058654788711564 ], [ 19.997171917742083, 48.057651958033389 ], [ 20.000234733855631, 48.056540443667579 ], [ 20.003206319179604, 48.055323285264969 ], [ 20.006078528805183, 48.054003811606684 ], [ 20.008843490205422, 48.052585631560831 ], [ 20.011493624813323, 48.051072624275449 ], [ 20.014021668794125, 48.049468928633409 ], [ 20.016420692955002, 48.04777893199757 ], [ 20.018684121737483, 48.046007258275694 ], [ 20.020805751240609, 48.044158755337101 ], [ 20.022779766225376, 48.042238481814444 ], [ 20.024600756053935, 48.040251693325843 ], [ 20.026263729519734, 48.038203828154153 ], [ 20.027764128528091, 48.036100492421703 ], [ 20.029097840589621, 48.033947444800305 ], [ 20.030261210092263, 48.031750580797507 ], [ 20.031251048321089, 48.02951591666146 ], [ 20.032064642198296, 48.027249572947888 ], [ 20.032699761719634, 48.024957757793317 ], [ 20.033154666066643, 48.022646749940236 ], [ 20.033428108378118, 48.020322881559899 ], [ 20.03351933916769, 48.017992520919819 ] ] ] } },
{ "type": "Feature", "properties": { "name": "Mátraterenye", "feature_type": "mrr", "metric_roundness": 36.18, "metric_rectangularity": 48.32, "metric_mobile_fit": 56.28, "metric_aspect_ratio": 1.0, "metric_area_km2": 62.38 }, "geometry": { "type": "Polygon", "coordinates": [ [ [ 19.963285969210201, 48.071617004418478 ], [ 20.037556805236473, 48.005217620784926 ], [ 19.970278875292436, 47.971541446592255 ], [ 19.896008039266157, 48.037984193093138 ], [ 19.963285969210201, 48.071617004418478 ] ] ] } }
]
}
