{
"type": "FeatureCollection",
"name": "mayorga",
"crs": { "type": "name", "properties": { "name": "urn:ogc:def:crs:OGC:1.3:CRS84" } },
"features": [
{ "type": "Feature", "properties": { "name": "Mayorga", "metric_roundness": 54.03, "metric_rectangularity": 67.47, "metric_mobile_fit": 40.68, "metric_aspect_ratio": 1.156, "metric_area_km2": 239.83 }, "geometry": { "type": "Polygon", "coordinates": [ [ [ -5.3530585, 42.2200219 ], [ -5.3609515, 42.224532199999985 ], [ -5.3736543, 42.222598399999988 ], [ -5.3812198, 42.2246728 ], [ -5.3889985, 42.217922 ], [ -5.3884931, 42.206298699999984 ], [ -5.3812245, 42.1978399 ], [ -5.3870568, 42.1883434 ], [ -5.388612, 42.174142499999988 ], [ -5.3804716, 42.1630709 ], [ -5.381167, 42.150665499999988 ], [ -5.3724551, 42.1309492 ], [ -5.3751112, 42.1248145 ], [ -5.3738025, 42.118180499999987 ], [ -5.3776105, 42.112877 ], [ -5.3724678, 42.108605499999989 ], [ -5.3640371, 42.1086175 ], [ -5.3587454, 42.1138323 ], [ -5.3449133, 42.115970599999983 ], [ -5.3371305, 42.120529 ], [ -5.335659, 42.135547 ], [ -5.3247923, 42.1386531 ], [ -5.329971, 42.1442614 ], [ -5.337338, 42.145869 ], [ -5.3399226, 42.150176799999983 ], [ -5.3326483, 42.1547604 ], [ -5.3275464, 42.1623695 ], [ -5.3163547, 42.161426299999988 ], [ -5.2978703, 42.1535364 ], [ -5.2969979, 42.1458339 ], [ -5.2835582, 42.1320489 ], [ -5.288804, 42.125202 ], [ -5.2810014, 42.1301234 ], [ -5.2740107, 42.1304062 ], [ -5.2638934, 42.127012799999989 ], [ -5.256153, 42.1190755 ], [ -5.253333, 42.1183775 ], [ -5.2387825, 42.119751 ], [ -5.236391, 42.121219 ], [ -5.230568, 42.123524 ], [ -5.2260345, 42.124275 ], [ -5.220096, 42.122257499999989 ], [ -5.2186735, 42.124832 ], [ -5.2158435, 42.1265715 ], [ -5.215967, 42.129425 ], [ -5.2139899, 42.1361111 ], [ -5.2012415, 42.1492765 ], [ -5.2096706, 42.160868799999982 ], [ -5.2199799, 42.1680747 ], [ -5.2177189, 42.1820194 ], [ -5.208783, 42.1897275 ], [ -5.2213994, 42.1951815 ], [ -5.2340565, 42.21893 ], [ -5.2416158, 42.21489 ], [ -5.2646486, 42.211048 ], [ -5.2769841, 42.2173051 ], [ -5.2885381, 42.229018899999978 ], [ -5.3003863, 42.2228524 ], [ -5.3006253, 42.2143331 ], [ -5.3104639, 42.2001394 ], [ -5.3209679, 42.2067563 ], [ -5.3318731, 42.208800599999982 ], [ -5.3368242, 42.216173899999987 ], [ -5.3457655, 42.219734 ], [ -5.3530585, 42.2200219 ] ] ] } }
]
}
