{
"type": "FeatureCollection",
"name": "mazze",
"crs": { "type": "name", "properties": { "name": "urn:ogc:def:crs:OGC:1.3:CRS84" } },
"features": [
{ "type": "Feature", "properties": { "name": "Mazzè", "metric_roundness": 41.69, "metric_rectangularity": 59.9, "metric_mobile_fit": 92.79, "metric_aspect_ratio": 0.635, "metric_area_km2": 55.03 }, "geometry": { "type": "Polygon", "coordinates": [ [ [ 7.9413813, 45.312492 ], [ 7.9326135, 45.322805399999986 ], [ 7.921477, 45.327110499999989 ], [ 7.909309, 45.316698 ], [ 7.9172983, 45.3063023 ], [ 7.917448, 45.2514055 ], [ 7.9259295, 45.247538499999983 ], [ 7.9584313, 45.261798399999982 ], [ 7.966667, 45.258678599999989 ], [ 7.9785725, 45.258679399999984 ], [ 7.979985, 45.2615145 ], [ 7.9784419, 45.2643298 ], [ 7.981087, 45.2689971 ], [ 7.9728253, 45.274288 ], [ 7.9712721, 45.282224499999984 ], [ 7.9591088, 45.279818299999988 ], [ 7.9548398, 45.281549 ], [ 7.9561639, 45.2876341 ], [ 7.9699223, 45.293397599999984 ], [ 7.972084, 45.296349099999979 ], [ 7.96788, 45.2998757 ], [ 7.9451854, 45.3062545 ], [ 7.9451765, 45.308442899999989 ], [ 7.9520625, 45.3134705 ], [ 7.9413813, 45.312492 ] ] ] } }
]
}
