{
"type": "FeatureCollection",
"name": "asasp_arros",
"crs": { "type": "name", "properties": { "name": "urn:ogc:def:crs:OGC:1.3:CRS84" } },
"features": [
{ "type": "Feature", "properties": { "name": "Asasp-Arros", "metric_roundness": 33.82, "metric_rectangularity": 42.15, "metric_mobile_fit": 83.45, "metric_aspect_ratio": 0.728, "metric_area_km2": 45.21 }, "geometry": { "type": "Polygon", "coordinates": [ [ [ -0.6231548, 43.1097396 ], [ -0.6118287, 43.1150196 ], [ -0.601635, 43.126789 ], [ -0.5974126, 43.1352642 ], [ -0.5990131, 43.1429763 ], [ -0.5918885, 43.147753 ], [ -0.6082535, 43.150343 ], [ -0.6135282, 43.1485613 ], [ -0.6170885, 43.1398489 ], [ -0.622849, 43.14501 ], [ -0.6338702, 43.1401484 ], [ -0.6388049, 43.142367 ], [ -0.66587, 43.1413915 ], [ -0.6722852, 43.131605499999985 ], [ -0.665813, 43.127218 ], [ -0.665693, 43.11802 ], [ -0.661733, 43.117636 ], [ -0.6595125, 43.118588499999987 ], [ -0.6569915, 43.11731 ], [ -0.652318, 43.116173 ], [ -0.649829, 43.1166925 ], [ -0.6455035, 43.116353499999988 ], [ -0.6420825, 43.114282 ], [ -0.6398475, 43.11376 ], [ -0.636219, 43.108853 ], [ -0.6324235, 43.109272499999989 ], [ -0.630679, 43.111119 ], [ -0.6258625, 43.100751 ], [ -0.633952, 43.091573 ], [ -0.6359955, 43.0881445 ], [ -0.636399, 43.085023 ], [ -0.6348745, 43.0816395 ], [ -0.6361775, 43.0793105 ], [ -0.6359645, 43.072565 ], [ -0.6369545, 43.070145499999988 ], [ -0.6345415, 43.0697185 ], [ -0.6255605, 43.0708115 ], [ -0.6139855, 43.0703495 ], [ -0.606372, 43.0715835 ], [ -0.6182935, 43.0967165 ], [ -0.6231548, 43.1097396 ] ] ] } }
]
}
