{
"type": "FeatureCollection",
"name": "asbach_baumenheim",
"crs": { "type": "name", "properties": { "name": "urn:ogc:def:crs:OGC:1.3:CRS84" } },
"features": [
{ "type": "Feature", "properties": { "name": "Asbach-Bäumenheim", "metric_roundness": 52.44, "metric_rectangularity": 61.17, "metric_mobile_fit": 54.32, "metric_aspect_ratio": 1.019, "metric_area_km2": 27.08 }, "geometry": { "type": "Polygon", "coordinates": [ [ [ 10.8540402, 48.702607799999981 ], [ 10.8477874, 48.702400499999989 ], [ 10.8417508, 48.7082756 ], [ 10.8223215, 48.70682 ], [ 10.8167061, 48.7048433 ], [ 10.8151753, 48.698026899999988 ], [ 10.8102194, 48.6949645 ], [ 10.8077738, 48.6890563 ], [ 10.7919823, 48.688874 ], [ 10.79246, 48.6815983 ], [ 10.7902675, 48.679638 ], [ 10.7989827, 48.673801399999981 ], [ 10.8090915, 48.6724429 ], [ 10.8108164, 48.666971799999978 ], [ 10.8329035, 48.6670525 ], [ 10.8318489, 48.672442899999986 ], [ 10.8350406, 48.674506499999985 ], [ 10.8329626, 48.680210199999983 ], [ 10.8372478, 48.6864026 ], [ 10.8441195, 48.6929119 ], [ 10.853158, 48.69495 ], [ 10.8540402, 48.702607799999981 ] ] ] } }
]
}
