{
"type": "FeatureCollection",
"name": "asfeld",
"crs": { "type": "name", "properties": { "name": "urn:ogc:def:crs:OGC:1.3:CRS84" } },
"features": [
{ "type": "Feature", "properties": { "name": "Asfeld", "metric_roundness": 39.58, "metric_rectangularity": 60.62, "metric_mobile_fit": 51.99, "metric_aspect_ratio": 1.043, "metric_area_km2": 51.42 }, "geometry": { "type": "Polygon", "coordinates": [ [ [ 4.1417825, 49.445095 ], [ 4.1694065, 49.446097 ], [ 4.174869, 49.4501025 ], [ 4.1449848, 49.473365199999989 ], [ 4.141365, 49.484455 ], [ 4.140256, 49.486268499999987 ], [ 4.1343118, 49.48355489999998 ], [ 4.1280476, 49.485599199999989 ], [ 4.1297383, 49.4967873 ], [ 4.1192465, 49.508674 ], [ 4.0816357, 49.485438699999989 ], [ 4.0755405, 49.485647 ], [ 4.072196, 49.482586 ], [ 4.0725785, 49.479616 ], [ 4.083884, 49.4775565 ], [ 4.0819985, 49.474798499999977 ], [ 4.0950995, 49.470906499999984 ], [ 4.1290532, 49.4522927 ], [ 4.135898, 49.444688499999984 ], [ 4.1417825, 49.445095 ] ] ] } }
]
}
