{
"type": "FeatureCollection",
"name": "pedroucos",
"crs": { "type": "name", "properties": { "name": "urn:ogc:def:crs:OGC:1.3:CRS84" } },
"features": [
{ "type": "Feature", "properties": { "name": "Pedrouços", "feature_type": "entity", "metric_roundness": 51.79, "metric_rectangularity": 61.36, "metric_mobile_fit": 69.78, "metric_aspect_ratio": 0.865, "metric_area_km2": 4.52 }, "geometry": { "type": "Polygon", "coordinates": [ [ [ -8.5908861, 41.1802884 ], [ -8.584111, 41.181333 ], [ -8.5794258, 41.1922943 ], [ -8.57403, 41.197059 ], [ -8.5787905, 41.1969827 ], [ -8.5867319, 41.1942419 ], [ -8.5874841, 41.1965301 ], [ -8.5917072, 41.200602199999985 ], [ -8.5958173, 41.200075 ], [ -8.597371, 41.198237 ], [ -8.596883, 41.183752499999983 ], [ -8.5908861, 41.1802884 ] ] ] } },
{ "type": "Feature", "properties": { "name": "Pedrouços", "feature_type": "circle", "metric_roundness": 51.79, "metric_rectangularity": 61.36, "metric_mobile_fit": 69.78, "metric_aspect_ratio": 0.865, "metric_area_km2": 4.52 }, "geometry": { "type": "Polygon", "coordinates": [ [ [ -8.571776025400883, 41.191114762890294 ], [ -8.571796540801181, 41.190525199604373 ], [ -8.571858030770784, 41.189937246983142 ], [ -8.571960326769965, 41.189352516629079 ], [ -8.572103148412493, 41.188772611355304 ], [ -8.572286104234179, 41.188199120791197 ], [ -8.572508692765833, 41.187633617023714 ], [ -8.57277030390776, 41.187077650286334 ], [ -8.573070220602004, 41.186532744707485 ], [ -8.573407620797752, 41.186000394130119 ], [ -8.573781579704525, 41.18548205801401 ], [ -8.574191072326947, 41.184979157431876 ], [ -8.574634976274206, 41.184493071170557 ], [ -8.575112074836438, 41.184025131947692 ], [ -8.575621060319648, 41.183576622754657 ], [ -8.576160537630003, 41.183148773335539 ], [ -8.576729028097695, 41.182742756811955 ], [ -8.577324973529869, 41.182359686463087 ], [ -8.577946740481515, 41.18200061266969 ], [ -8.578592624732641, 41.181666520030547 ], [ -8.579260855959408, 41.181358324659342 ], [ -8.579949602586472, 41.181076871669454 ], [ -8.580656976807202, 41.180822932853395 ], [ -8.58138103975803, 41.180597204563639 ], [ -8.582119806832733, 41.180400305800354 ], [ -8.582871253122111, 41.180232776511588 ], [ -8.583633318964118, 41.180095076110419 ], [ -8.584403915589254, 41.179987582213244 ], [ -8.585180930845729, 41.17991058960267 ], [ -8.58596223498874, 41.179864309417937 ], [ -8.586745686517933, 41.179848868575 ], [ -8.587529138047126, 41.179864309417937 ], [ -8.588310442190135, 41.17991058960267 ], [ -8.589087457446611, 41.179987582213244 ], [ -8.589858054071748, 41.180095076110419 ], [ -8.590620119913755, 41.180232776511588 ], [ -8.591371566203135, 41.180400305800354 ], [ -8.592110333277837, 41.180597204563639 ], [ -8.592834396228664, 41.180822932853395 ], [ -8.593541770449393, 41.181076871669454 ], [ -8.594230517076458, 41.181358324659342 ], [ -8.594898748303224, 41.181666520030547 ], [ -8.595544632554352, 41.18200061266969 ], [ -8.596166399505996, 41.182359686463087 ], [ -8.59676234493817, 41.182742756811955 ], [ -8.597330835405863, 41.183148773335539 ], [ -8.597870312716218, 41.183576622754657 ], [ -8.598379298199427, 41.184025131947692 ], [ -8.598856396761661, 41.184493071170557 ], [ -8.599300300708919, 41.184979157431876 ], [ -8.599709793331341, 41.18548205801401 ], [ -8.600083752238113, 41.186000394130119 ], [ -8.600421152433864, 41.186532744707485 ], [ -8.600721069128106, 41.187077650286334 ], [ -8.600982680270032, 41.187633617023714 ], [ -8.601205268801685, 41.188199120791197 ], [ -8.601388224623372, 41.188772611355304 ], [ -8.601531046265903, 41.189352516629079 ], [ -8.601633342265082, 41.189937246983142 ], [ -8.601694832234687, 41.190525199604373 ], [ -8.601715347634983, 41.191114762890294 ], [ -8.601694832234687, 41.191704320867103 ], [ -8.601633342265082, 41.192292257619172 ], [ -8.601531046265903, 41.192876961717886 ], [ -8.601388224623372, 41.193456830637786 ], [ -8.601205268801685, 41.194030275147782 ], [ -8.600982680270032, 41.194595723665515 ], [ -8.600721069128106, 41.195151626562819 ], [ -8.600421152433864, 41.195696460410723 ], [ -8.600083752238113, 41.196228732152164 ], [ -8.599709793331341, 41.196746983191119 ], [ -8.599300300708919, 41.197249793386966 ], [ -8.598856396761661, 41.197735784943205 ], [ -8.598379298199427, 41.198203626179769 ], [ -8.597870312716218, 41.198652035178853 ], [ -8.597330835405863, 41.19907978329411 ], [ -8.59676234493817, 41.199485698513833 ], [ -8.596166399505996, 41.199868668668756 ], [ -8.595544632554352, 41.200227644475859 ], [ -8.594898748303224, 41.200561642409916 ], [ -8.594230517076458, 41.20086974739484 ], [ -8.593541770449393, 41.201151115307582 ], [ -8.592834396228664, 41.201404975287701 ], [ -8.592110333277837, 41.201630631846527 ], [ -8.591371566203135, 41.201827466769728 ], [ -8.590620119913755, 41.201994940808738 ], [ -8.589858054071748, 41.202132595155803 ], [ -8.589087457446611, 41.202240052699104 ], [ -8.588310442190135, 41.202317019054327 ], [ -8.587529138047126, 41.202363283369905 ], [ -8.586745686517933, 41.202378718903738 ], [ -8.58596223498874, 41.202363283369905 ], [ -8.585180930845729, 41.202317019054327 ], [ -8.584403915589254, 41.202240052699104 ], [ -8.583633318964118, 41.202132595155803 ], [ -8.582871253122111, 41.201994940808738 ], [ -8.582119806832733, 41.201827466769728 ], [ -8.58138103975803, 41.201630631846527 ], [ -8.580656976807202, 41.201404975287701 ], [ -8.579949602586472, 41.201151115307582 ], [ -8.579260855959408, 41.20086974739484 ], [ -8.578592624732641, 41.200561642409916 ], [ -8.577946740481515, 41.200227644475859 ], [ -8.577324973529869, 41.199868668668756 ], [ -8.576729028097695, 41.199485698513833 ], [ -8.576160537630003, 41.19907978329411 ], [ -8.575621060319648, 41.198652035178853 ], [ -8.575112074836438, 41.198203626179769 ], [ -8.574634976274206, 41.197735784943205 ], [ -8.574191072326947, 41.197249793386966 ], [ -8.573781579704525, 41.196746983191119 ], [ -8.573407620797752, 41.196228732152164 ], [ -8.573070220602004, 41.195696460410723 ], [ -8.57277030390776, 41.195151626562819 ], [ -8.572508692765833, 41.194595723665515 ], [ -8.572286104234179, 41.194030275147782 ], [ -8.572103148412493, 41.193456830637786 ], [ -8.571960326769965, 41.192876961717886 ], [ -8.571858030770784, 41.192292257619172 ], [ -8.571796540801181, 41.191704320867103 ], [ -8.571776025400883, 41.191114762890294 ] ] ] } },
{ "type": "Feature", "properties": { "name": "Pedrouços", "feature_type": "mrr", "metric_roundness": 51.79, "metric_rectangularity": 61.36, "metric_mobile_fit": 69.78, "metric_aspect_ratio": 0.865, "metric_area_km2": 4.52 }, "geometry": { "type": "Polygon", "coordinates": [ [ [ -8.596213804922597, 41.201505467014073 ], [ -8.57403, 41.197059 ], [ -8.580690071141422, 41.178244105960175 ], [ -8.602873884681847, 41.182691854250379 ], [ -8.596213804922597, 41.201505467014073 ] ] ] } }
]
}
