{
"type": "FeatureCollection",
"name": "perpignan",
"crs": { "type": "name", "properties": { "name": "urn:ogc:def:crs:OGC:1.3:CRS84" } },
"features": [
{ "type": "Feature", "properties": { "name": "Perpignan", "feature_type": "entity", "metric_roundness": 51.6, "metric_rectangularity": 59.61, "metric_mobile_fit": 40.39, "metric_aspect_ratio": 1.159, "metric_area_km2": 126.76 }, "geometry": { "type": "Polygon", "coordinates": [ [ [ 2.9719229, 42.7133023 ], [ 2.9585714, 42.7176225 ], [ 2.95805, 42.722637 ], [ 2.9491931, 42.7233076 ], [ 2.9462004, 42.7194274 ], [ 2.9290465, 42.7143574 ], [ 2.9245595, 42.730506 ], [ 2.9125651, 42.728797199999988 ], [ 2.8949277, 42.737046 ], [ 2.8963867, 42.7461336 ], [ 2.8906115, 42.748809 ], [ 2.866398, 42.741977 ], [ 2.8555811, 42.7365486 ], [ 2.8525315, 42.731093499999979 ], [ 2.8616647, 42.721531899999988 ], [ 2.8665979, 42.7102473 ], [ 2.873322, 42.7074362 ], [ 2.8722343, 42.7002807 ], [ 2.842761, 42.6945885 ], [ 2.8402305, 42.694177499999981 ], [ 2.8377005, 42.6945635 ], [ 2.8308255, 42.691287499999987 ], [ 2.826442, 42.6907455 ], [ 2.8269745, 42.689616 ], [ 2.8398878, 42.68324519999998 ], [ 2.8407103, 42.6752783 ], [ 2.8481779, 42.668949699999985 ], [ 2.8442245, 42.6642535 ], [ 2.8493955, 42.6628815 ], [ 2.8529895, 42.663314 ], [ 2.8551815, 42.6621805 ], [ 2.853667, 42.6608415 ], [ 2.8586225, 42.659236 ], [ 2.859839, 42.6577935 ], [ 2.8601225, 42.6555385 ], [ 2.8647975, 42.6532695 ], [ 2.8671675, 42.6528985 ], [ 2.8719895, 42.6533685 ], [ 2.8748775, 42.655204 ], [ 2.878503, 42.652572499999984 ], [ 2.881128, 42.652334499999981 ], [ 2.8860445, 42.649974 ], [ 2.8900782, 42.651803 ], [ 2.8868337, 42.6550752 ], [ 2.8892533, 42.6572962 ], [ 2.8992736, 42.6569409 ], [ 2.9070462, 42.650700199999974 ], [ 2.9297065, 42.653743 ], [ 2.9260932, 42.6576475 ], [ 2.929839, 42.665276499999976 ], [ 2.9298115, 42.6690443 ], [ 2.9190491, 42.6802432 ], [ 2.9194662, 42.692008899999983 ], [ 2.9311072, 42.6942456 ], [ 2.9615225, 42.6864335 ], [ 2.9748053, 42.6901343 ], [ 2.9737891, 42.6974989 ], [ 2.9772854, 42.7081204 ], [ 2.9822515, 42.713674499999989 ], [ 2.9719229, 42.7133023 ] ] ] } },
{ "type": "Feature", "properties": { "name": "Perpignan", "feature_type": "circle", "metric_roundness": 51.6, "metric_rectangularity": 59.61, "metric_mobile_fit": 40.39, "metric_aspect_ratio": 1.159, "metric_area_km2": 126.76 }, "geometry": { "type": "Polygon", "coordinates": [ [ [ 2.983798120580683, 42.702211058488921 ], [ 2.9836892352386, 42.699155197099806 ], [ 2.983362877659507, 42.696107561831987 ], [ 2.982819942366843, 42.693076507889764 ], [ 2.982061917508507, 42.690070346237704 ], [ 2.981090880777945, 42.687097320787352 ], [ 2.979909493719339, 42.684165585754897 ], [ 2.9785209944325, 42.681283183252269 ], [ 2.976929188697461, 42.678458021173803 ], [ 2.975138439543096, 42.675697851439857 ], [ 2.973153655288363, 42.673010248657874 ], [ 2.970980276088943, 42.67040258926037 ], [ 2.968624259026154, 42.667882031178216 ], [ 2.966092061778998, 42.665455494105977 ], [ 2.963390624924121, 42.66312964041478 ], [ 2.960527352912166, 42.660910856766343 ], [ 2.957510093772694, 42.658805236479807 ], [ 2.95434711760328, 42.656818562701247 ], [ 2.951047093901749, 42.654956292423378 ], [ 2.947619067803684, 42.653223541400578 ], [ 2.944072435290341, 42.651625070002041 ], [ 2.940416917434916, 42.650165270043296 ], [ 2.936662533757758, 42.648848152633242 ], [ 2.932819574763563, 42.647677337071642 ], [ 2.928898573735812, 42.646656040828347 ], [ 2.924910277865779, 42.645787070633013 ], [ 2.920865618795218, 42.645072814700683 ], [ 2.916775682653502, 42.644515236115474 ], [ 2.912651679671308, 42.644115867391172 ], [ 2.908504913454152, 42.643875806224386 ], [ 2.90434675, 42.643795712452409 ], [ 2.900188586545847, 42.643875806224386 ], [ 2.896041820328692, 42.644115867391172 ], [ 2.891917817346497, 42.644515236115474 ], [ 2.887827881204782, 42.645072814700683 ], [ 2.883783222134221, 42.645787070633013 ], [ 2.879794926264187, 42.646656040828347 ], [ 2.875873925236437, 42.647677337071642 ], [ 2.872030966242242, 42.648848152633242 ], [ 2.868276582565084, 42.650165270043296 ], [ 2.864621064709659, 42.651625070002041 ], [ 2.861074432196316, 42.653223541400578 ], [ 2.85764640609825, 42.654956292423378 ], [ 2.854346382396719, 42.656818562701247 ], [ 2.851183406227305, 42.658805236479807 ], [ 2.848166147087834, 42.660910856766343 ], [ 2.845302875075879, 42.66312964041478 ], [ 2.842601438221001, 42.665455494105977 ], [ 2.840069240973846, 42.667882031178216 ], [ 2.837713223911056, 42.67040258926037 ], [ 2.835539844711637, 42.673010248657874 ], [ 2.833555060456904, 42.675697851439857 ], [ 2.831764311302539, 42.678458021173803 ], [ 2.830172505567499, 42.681283183252269 ], [ 2.828784006280661, 42.684165585754897 ], [ 2.827602619222055, 42.687097320787352 ], [ 2.826631582491493, 42.690070346237704 ], [ 2.825873557633157, 42.693076507889764 ], [ 2.825330622340493, 42.696107561831987 ], [ 2.8250042647614, 42.699155197099806 ], [ 2.824895379419317, 42.702211058488921 ], [ 2.8250042647614, 42.705266769476573 ], [ 2.825330622340493, 42.708313955187897 ], [ 2.825873557633157, 42.711344265343996 ], [ 2.826631582491493, 42.714349397129403 ], [ 2.827602619222055, 42.717321117916015 ], [ 2.828784006280661, 42.720251287781828 ], [ 2.830172505567499, 42.723131881763209 ], [ 2.831764311302539, 42.7259550117804 ], [ 2.833555060456904, 42.728712948176721 ], [ 2.835539844711637, 42.731398140813681 ], [ 2.837713223911056, 42.734003239664823 ], [ 2.840069240973846, 42.736521114853176 ], [ 2.842601438221001, 42.738944876078527 ], [ 2.845302875075879, 42.741267891382513 ], [ 2.848166147087834, 42.7434838052014 ], [ 2.851183406227305, 42.745586555658498 ], [ 2.854346382396719, 42.747570391050168 ], [ 2.85764640609825, 42.749429885481661 ], [ 2.861074432196316, 42.751159953611356 ], [ 2.864621064709659, 42.752755864464355 ], [ 2.868276582565084, 42.75421325427903 ], [ 2.872030966242241, 42.75552813835246 ], [ 2.875873925236437, 42.756696921853809 ], [ 2.879794926264187, 42.757716409576872 ], [ 2.883783222134221, 42.75858381460651 ], [ 2.887827881204782, 42.759296765875924 ], [ 2.891917817346497, 42.759853314595169 ], [ 2.896041820328692, 42.760251939533866 ], [ 2.900188586545847, 42.760491551144476 ], [ 2.90434675, 42.760571494515112 ], [ 2.908504913454152, 42.760491551144476 ], [ 2.912651679671308, 42.760251939533866 ], [ 2.916775682653502, 42.759853314595169 ], [ 2.920865618795218, 42.759296765875924 ], [ 2.924910277865779, 42.75858381460651 ], [ 2.928898573735812, 42.757716409576872 ], [ 2.932819574763563, 42.756696921853809 ], [ 2.936662533757758, 42.75552813835246 ], [ 2.940416917434916, 42.75421325427903 ], [ 2.944072435290341, 42.752755864464355 ], [ 2.947619067803684, 42.751159953611356 ], [ 2.951047093901749, 42.749429885481661 ], [ 2.95434711760328, 42.747570391050168 ], [ 2.957510093772694, 42.745586555658498 ], [ 2.960527352912166, 42.7434838052014 ], [ 2.963390624924121, 42.741267891382513 ], [ 2.966092061778998, 42.738944876078527 ], [ 2.968624259026154, 42.736521114853176 ], [ 2.970980276088943, 42.734003239664823 ], [ 2.973153655288363, 42.731398140813681 ], [ 2.975138439543096, 42.728712948176721 ], [ 2.976929188697461, 42.7259550117804 ], [ 2.9785209944325, 42.723131881763209 ], [ 2.979909493719339, 42.720251287781828 ], [ 2.981090880777945, 42.717321117916015 ], [ 2.982061917508507, 42.714349397129403 ], [ 2.982819942366843, 42.711344265343996 ], [ 2.983362877659507, 42.708313955187897 ], [ 2.9836892352386, 42.705266769476573 ], [ 2.983798120580683, 42.702211058488921 ] ] ] } },
{ "type": "Feature", "properties": { "name": "Perpignan", "feature_type": "mrr", "metric_roundness": 51.6, "metric_rectangularity": 59.61, "metric_mobile_fit": 40.39, "metric_aspect_ratio": 1.159, "metric_area_km2": 126.76 }, "geometry": { "type": "Polygon", "coordinates": [ [ [ 2.869929240331937, 42.756735763884933 ], [ 2.989539162531441, 42.710879578569411 ], [ 2.930685068418112, 42.62797152774246 ], [ 2.811075146218608, 42.673888945358911 ], [ 2.869929240331937, 42.756735763884933 ] ] ] } }
]
}
