{
"type": "FeatureCollection",
"name": "kaiser_wilhelm_koog",
"crs": { "type": "name", "properties": { "name": "urn:ogc:def:crs:OGC:1.3:CRS84" } },
"features": [
{ "type": "Feature", "properties": { "name": "Kaiser-Wilhelm-Koog", "metric_roundness": 45.96, "metric_rectangularity": 82.5, "metric_mobile_fit": 52.75, "metric_aspect_ratio": 1.035, "metric_area_km2": 41.67 }, "geometry": { "type": "Polygon", "coordinates": [ [ [ 8.9734375, 53.9208065 ], [ 8.938923, 53.9578705 ], [ 8.9281069, 53.952679699999983 ], [ 8.9133059, 53.9557163 ], [ 8.8929085, 53.9521485 ], [ 8.9138374, 53.926355199999989 ], [ 8.9416745, 53.912065 ], [ 8.9734375, 53.9208065 ] ] ] } }
]
}
