{
"type": "FeatureCollection",
"name": "kakolewnica",
"crs": { "type": "name", "properties": { "name": "urn:ogc:def:crs:OGC:1.3:CRS84" } },
"features": [
{ "type": "Feature", "properties": { "name": "Kąkolewnica", "metric_roundness": 53.71, "metric_rectangularity": 66.69, "metric_mobile_fit": 60.64, "metric_aspect_ratio": 0.956, "metric_area_km2": 385.21 }, "geometry": { "type": "Polygon", "coordinates": [ [ [ 22.566519, 51.9279971 ], [ 22.571353, 51.897749199999986 ], [ 22.5665555, 51.892564199999988 ], [ 22.5769215, 51.8853046 ], [ 22.5787821, 51.8811946 ], [ 22.5752875, 51.8804505 ], [ 22.58011, 51.8760165 ], [ 22.6012414, 51.8738928 ], [ 22.603284499999987, 51.868844499999987 ], [ 22.6073984, 51.867418799999982 ], [ 22.6251163, 51.8657388 ], [ 22.6329827, 51.871495099999983 ], [ 22.6365734, 51.864603499999987 ], [ 22.6419574, 51.8628894 ], [ 22.7020759, 51.8624291 ], [ 22.700137, 51.859246 ], [ 22.6690965, 51.858823699999981 ], [ 22.6680791, 51.8374671 ], [ 22.6814806, 51.825442099999989 ], [ 22.7004839, 51.8268318 ], [ 22.71791, 51.8327216 ], [ 22.729843, 51.829304499999978 ], [ 22.7307681, 51.838556099999984 ], [ 22.7341889, 51.8405269 ], [ 22.7399579, 51.85340859999998 ], [ 22.7383161, 51.860076 ], [ 22.7480037, 51.8633251 ], [ 22.755594, 51.872395599999976 ], [ 22.7644334, 51.9000093 ], [ 22.7785975, 51.9036681 ], [ 22.7790335, 51.9189515 ], [ 22.7737718, 51.920175 ], [ 22.7717451, 51.925424599999985 ], [ 22.7629648, 51.926573399999981 ], [ 22.770284, 51.937398399999985 ], [ 22.7395733, 51.941851199999988 ], [ 22.732311, 51.9473644 ], [ 22.7236241, 51.9410203 ], [ 22.7056544, 51.947817399999984 ], [ 22.7012846, 51.9455745 ], [ 22.6999875, 51.940820699999982 ], [ 22.6876395, 51.9358208 ], [ 22.6721856, 51.942273 ], [ 22.6536869, 51.9399284 ], [ 22.6417424, 51.9495078 ], [ 22.633532, 51.9693355 ], [ 22.6305724, 51.9680509 ], [ 22.6216971, 51.973341899999987 ], [ 22.6132659, 51.9702771 ], [ 22.5919964, 51.972174 ], [ 22.5767621, 51.967687899999987 ], [ 22.5699161, 51.9614368 ], [ 22.5688519, 51.953563299999985 ], [ 22.5616955, 51.948180799999982 ], [ 22.5625228, 51.9410312 ], [ 22.549859, 51.934133 ], [ 22.566519, 51.9279971 ] ] ] } }
]
}
