{
"type": "FeatureCollection",
"name": "kaltenborn",
"crs": { "type": "name", "properties": { "name": "urn:ogc:def:crs:OGC:1.3:CRS84" } },
"features": [
{ "type": "Feature", "properties": { "name": "Kaltenborn", "feature_type": "entity", "metric_roundness": 54.77, "metric_rectangularity": 63.07, "metric_mobile_fit": 84.77, "metric_aspect_ratio": 0.715, "metric_area_km2": 54.47 }, "geometry": { "type": "Polygon", "coordinates": [ [ [ 6.9735765, 50.417672 ], [ 6.9886361, 50.405419 ], [ 6.9890208, 50.39647 ], [ 6.9919565, 50.393012499999976 ], [ 7.0122494, 50.391593199999974 ], [ 7.0126905, 50.388752 ], [ 7.019054, 50.379694 ], [ 7.0362273, 50.384647699999981 ], [ 7.0457305, 50.394109499999985 ], [ 7.0389504, 50.4004318 ], [ 7.0404455, 50.404066 ], [ 7.0238573, 50.415492 ], [ 7.0254054, 50.4192989 ], [ 7.0320768, 50.4208442 ], [ 7.0424393, 50.4305002 ], [ 7.0415968, 50.4358662 ], [ 7.036035, 50.4416925 ], [ 7.0248302, 50.4440221 ], [ 7.0156354, 50.4399011 ], [ 6.9919772, 50.437991 ], [ 6.9813596, 50.430366699999972 ], [ 6.974601, 50.418676 ], [ 6.9735765, 50.417672 ] ] ] } },
{ "type": "Feature", "properties": { "name": "Kaltenborn", "feature_type": "circle", "metric_roundness": 54.77, "metric_rectangularity": 63.07, "metric_mobile_fit": 84.77, "metric_aspect_ratio": 0.715, "metric_area_km2": 54.47 }, "geometry": { "type": "Polygon", "coordinates": [ [ [ 7.072137393045746, 50.411882117924129 ], [ 7.07206810791388, 50.410195955431661 ], [ 7.071860442424013, 50.408514354833038 ], [ 7.071514965772816, 50.406841926014714 ], [ 7.071032624887778, 50.405183254206122 ], [ 7.070414741831737, 50.403542887398636 ], [ 7.069663010179203, 50.401925323861278 ], [ 7.068779490374381, 50.400334999787866 ], [ 7.067766604083643, 50.398776277109683 ], [ 7.06662712755791, 50.397253431507202 ], [ 7.065364184023132, 50.395770640654291 ], [ 7.063981235119754, 50.3943319727274 ], [ 7.06248207141459, 50.392941375211684 ], [ 7.060870802011152, 50.391602664035275 ], [ 7.059151843286877, 50.390319513061876 ], [ 7.057329906788143, 50.389095443971115 ], [ 7.055409986316255, 50.38793381655492 ], [ 7.053397344239772, 50.386837819457 ], [ 7.051297497070729, 50.385810461381446 ], [ 7.049116200344258, 50.384854562795113 ], [ 7.046859432843067, 50.38397274814708 ], [ 7.044533380210009, 50.383167438626991 ], [ 7.04214441799367, 50.382440845482783 ], [ 7.039699094173431, 50.381794963916477 ], [ 7.037204111211911, 50.381231567575391 ], [ 7.034666307683981, 50.380752203654204 ], [ 7.032092639532714, 50.380358188621649 ], [ 7.029490161003617, 50.380050604584127 ], [ 7.026866005309441, 50.379830296296241 ], [ 7.024227365078544, 50.379697868826895 ], [ 7.021581472640388, 50.379653685887483 ], [ 7.018935580202232, 50.379697868826895 ], [ 7.016296939971334, 50.379830296296241 ], [ 7.01367278427716, 50.380050604584127 ], [ 7.011070305748062, 50.380358188621649 ], [ 7.008496637596794, 50.380752203654204 ], [ 7.005958834068864, 50.381231567575391 ], [ 7.003463851107345, 50.381794963916477 ], [ 7.001018527287106, 50.382440845482783 ], [ 6.998629565070766, 50.383167438626991 ], [ 6.996303512437709, 50.38397274814708 ], [ 6.994046744936517, 50.384854562795113 ], [ 6.991865448210046, 50.385810461381446 ], [ 6.989765601041003, 50.386837819457 ], [ 6.987752958964522, 50.38793381655492 ], [ 6.985833038492632, 50.389095443971115 ], [ 6.984011101993899, 50.390319513061876 ], [ 6.982292143269624, 50.391602664035275 ], [ 6.980680873866186, 50.392941375211684 ], [ 6.979181710161023, 50.3943319727274 ], [ 6.977798761257644, 50.395770640654291 ], [ 6.976535817722866, 50.397253431507202 ], [ 6.975396341197133, 50.398776277109683 ], [ 6.974383454906396, 50.400334999787866 ], [ 6.973499935101574, 50.401925323861278 ], [ 6.972748203449038, 50.403542887398636 ], [ 6.972130320392998, 50.405183254206122 ], [ 6.97164797950796, 50.406841926014714 ], [ 6.971302502856764, 50.408514354833038 ], [ 6.971094837366896, 50.410195955431661 ], [ 6.97102555223503, 50.411882117924129 ], [ 6.971094837366896, 50.413568220410433 ], [ 6.971302502856764, 50.41524964164801 ], [ 6.97164797950796, 50.416921773715529 ], [ 6.972130320392998, 50.418580034634807 ], [ 6.972748203449038, 50.420219880916264 ], [ 6.973499935101574, 50.421836819993892 ], [ 6.974383454906396, 50.423426422515561 ], [ 6.975396341197133, 50.424984334455473 ], [ 6.976535817722866, 50.426506289015769 ], [ 6.977798761257644, 50.427988118285036 ], [ 6.979181710161023, 50.429425764622124 ], [ 6.980680873866186, 50.430815291734639 ], [ 6.982292143269624, 50.432152895422014 ], [ 6.984011101993899, 50.433434913954429 ], [ 6.985833038492632, 50.434657838059522 ], [ 6.987752958964522, 50.43581832049005 ], [ 6.989765601041003, 50.43691318514702 ], [ 6.991865448210046, 50.437939435733604 ], [ 6.994046744936517, 50.438894263916808 ], [ 6.996303512437709, 50.43977505697513 ], [ 6.998629565070766, 50.440579404911659 ], [ 7.001018527287106, 50.441305107013804 ], [ 7.003463851107345, 50.441950177841939 ], [ 7.005958834068864, 50.442512852631381 ], [ 7.008496637596794, 50.442991592092923 ], [ 7.011070305748062, 50.443385086599541 ], [ 7.01367278427716, 50.44369225974782 ], [ 7.016296939971334, 50.443912271284951 ], [ 7.018935580202232, 50.444044519393294 ], [ 7.021581472640388, 50.444088642326555 ], [ 7.024227365078544, 50.444044519393294 ], [ 7.026866005309441, 50.443912271284951 ], [ 7.029490161003617, 50.44369225974782 ], [ 7.032092639532714, 50.443385086599541 ], [ 7.034666307683981, 50.442991592092923 ], [ 7.037204111211911, 50.442512852631381 ], [ 7.039699094173431, 50.441950177841939 ], [ 7.04214441799367, 50.441305107013804 ], [ 7.044533380210009, 50.440579404911659 ], [ 7.046859432843067, 50.43977505697513 ], [ 7.049116200344258, 50.438894263916808 ], [ 7.051297497070729, 50.437939435733604 ], [ 7.053397344239772, 50.43691318514702 ], [ 7.055409986316255, 50.43581832049005 ], [ 7.057329906788143, 50.434657838059522 ], [ 7.059151843286877, 50.433434913954429 ], [ 7.060870802011152, 50.432152895422014 ], [ 7.06248207141459, 50.430815291734639 ], [ 7.063981235119754, 50.429425764622124 ], [ 7.065364184023132, 50.427988118285036 ], [ 7.06662712755791, 50.426506289015769 ], [ 7.067766604083643, 50.424984334455473 ], [ 7.068779490374381, 50.423426422515561 ], [ 7.069663010179203, 50.421836819993892 ], [ 7.070414741831737, 50.420219880916264 ], [ 7.071032624887778, 50.418580034634807 ], [ 7.071514965772816, 50.416921773715529 ], [ 7.071860442424013, 50.41524964164801 ], [ 7.07206810791388, 50.413568220410433 ], [ 7.072137393045746, 50.411882117924129 ] ] ] } },
{ "type": "Feature", "properties": { "name": "Kaltenborn", "feature_type": "mrr", "metric_roundness": 54.77, "metric_rectangularity": 63.07, "metric_mobile_fit": 84.77, "metric_aspect_ratio": 0.715, "metric_area_km2": 54.47 }, "geometry": { "type": "Polygon", "coordinates": [ [ [ 7.070864958800471, 50.394637481193136 ], [ 7.003674631570323, 50.375257325212267 ], [ 6.964724887301981, 50.430138575251469 ], [ 7.031915214532128, 50.449496299578037 ], [ 7.070864958800471, 50.394637481193136 ] ] ] } }
]
}
