{
"type": "FeatureCollection",
"name": "kamionka_wielka",
"crs": { "type": "name", "properties": { "name": "urn:ogc:def:crs:OGC:1.3:CRS84" } },
"features": [
{ "type": "Feature", "properties": { "name": "Kamionka Wielka", "metric_roundness": 44.11, "metric_rectangularity": 64.72, "metric_mobile_fit": 19.12, "metric_aspect_ratio": 1.371, "metric_area_km2": 153.7 }, "geometry": { "type": "Polygon", "coordinates": [ [ [ 20.8554714, 49.5490256 ], [ 20.8680999, 49.545934199999984 ], [ 20.8802143, 49.548298 ], [ 20.887071, 49.542145 ], [ 20.9065173, 49.539606199999987 ], [ 20.9191635, 49.542962 ], [ 20.9105958, 49.55270729999998 ], [ 20.914319, 49.561334499999987 ], [ 20.9141322, 49.5742835 ], [ 20.8617805, 49.5943846 ], [ 20.8550895, 49.6003119 ], [ 20.8425955, 49.5956932 ], [ 20.8357521, 49.6095392 ], [ 20.8233584, 49.613114499999973 ], [ 20.8248496, 49.621677299999988 ], [ 20.8124395, 49.6222565 ], [ 20.8049853, 49.6152885 ], [ 20.7879334, 49.6194069 ], [ 20.777087, 49.616881899999981 ], [ 20.760602, 49.6065735 ], [ 20.764873, 49.598501499999983 ], [ 20.7689418, 49.5910755 ], [ 20.745113, 49.59116 ], [ 20.7443636, 49.586441199999989 ], [ 20.7498441, 49.5795226 ], [ 20.7476025, 49.576584 ], [ 20.7720621, 49.562823399999978 ], [ 20.8159817, 49.554939799999978 ], [ 20.821749, 49.548103 ], [ 20.8554714, 49.5490256 ] ] ] } }
]
}
