{
"type": "FeatureCollection",
"name": "kaperich",
"crs": { "type": "name", "properties": { "name": "urn:ogc:def:crs:OGC:1.3:CRS84" } },
"features": [
{ "type": "Feature", "properties": { "name": "Kaperich", "metric_roundness": 35.33, "metric_rectangularity": 71.54, "metric_mobile_fit": 88.58, "metric_aspect_ratio": 0.448, "metric_area_km2": 6.46 }, "geometry": { "type": "Polygon", "coordinates": [ [ [ 7.0173147, 50.2497132 ], [ 7.017884, 50.2460855 ], [ 7.0238216, 50.2341483 ], [ 7.0231605, 50.2256005 ], [ 7.0332468, 50.226038199999977 ], [ 7.0365585, 50.236446 ], [ 7.0357752, 50.243136299999989 ], [ 7.024562, 50.253053 ], [ 7.0173147, 50.2497132 ] ] ] } }
]
}
