{
"type": "FeatureCollection",
"name": "kaposujlak",
"crs": { "type": "name", "properties": { "name": "urn:ogc:def:crs:OGC:1.3:CRS84" } },
"features": [
{ "type": "Feature", "properties": { "name": "Kaposújlak", "metric_roundness": 42.16, "metric_rectangularity": 78.98, "metric_mobile_fit": 92.06, "metric_aspect_ratio": 0.642, "metric_area_km2": 19.03 }, "geometry": { "type": "Polygon", "coordinates": [ [ [ 17.7297416, 46.3849385 ], [ 17.724864, 46.377787899999987 ], [ 17.7156225, 46.3858225 ], [ 17.7138534, 46.3824006 ], [ 17.7169349, 46.3714022 ], [ 17.7232305, 46.3612511 ], [ 17.724346, 46.342510499999975 ], [ 17.754315, 46.347388 ], [ 17.7419945, 46.3777722 ], [ 17.7418085, 46.386007499999984 ], [ 17.7297416, 46.3849385 ] ] ] } }
]
}
