{
"type": "FeatureCollection",
"name": "karmoy",
"crs": { "type": "name", "properties": { "name": "urn:ogc:def:crs:OGC:1.3:CRS84" } },
"features": [
{ "type": "Feature", "properties": { "name": "Karmøy", "metric_roundness": 24.73, "metric_rectangularity": 70.06, "metric_mobile_fit": 73.33, "metric_aspect_ratio": 0.296, "metric_area_km2": 693.01 }, "geometry": { "type": "Polygon", "coordinates": [ [ [ 5.3009054, 59.157127 ], [ 5.3115372, 59.1721698 ], [ 5.3156013, 59.1964098 ], [ 5.3258676, 59.227768599999969 ], [ 5.3286241, 59.2624597 ], [ 5.3225042, 59.279075499999969 ], [ 5.3123096, 59.290801 ], [ 5.3040244, 59.2947575 ], [ 5.2989552, 59.305099 ], [ 5.3047173, 59.3081902 ], [ 5.316985, 59.308788899999982 ], [ 5.3212702, 59.3146281 ], [ 5.3178484, 59.318980699999983 ], [ 5.3038363, 59.3238801 ], [ 5.2834614, 59.3379829 ], [ 5.2856273, 59.340575099999981 ], [ 5.2995921, 59.338121799999982 ], [ 5.3041514, 59.340640699999966 ], [ 5.2975692, 59.346268699999982 ], [ 5.2957351, 59.3536015 ], [ 5.2842757, 59.360997499999982 ], [ 5.2850903, 59.365758199999988 ], [ 5.291277, 59.372338899999988 ], [ 5.2887649, 59.379017399999981 ], [ 5.2665143, 59.3981776 ], [ 5.2319854, 59.413531 ], [ 5.2305945, 59.40426309999998 ], [ 5.2222898, 59.3971501 ], [ 5.2200502, 59.388070599999985 ], [ 5.2269564, 59.3730036 ], [ 5.2350543, 59.366406799999965 ], [ 5.2358192, 59.362652899999979 ], [ 5.2310768, 59.3600511 ], [ 5.217827, 59.360654 ], [ 5.2112492, 59.350130899999982 ], [ 5.1923146, 59.3519125 ], [ 5.1910129, 59.3445969 ], [ 5.2026494, 59.3215295 ], [ 5.2138445, 59.315320399999983 ], [ 5.2278233, 59.299669599999987 ], [ 5.1976312, 59.298325599999984 ], [ 5.204993, 59.2935976 ], [ 5.2062899, 59.286466 ], [ 5.1838694, 59.27970029999998 ], [ 5.1880768, 59.270937899999986 ], [ 5.1803414, 59.257761099999989 ], [ 5.1906158, 59.2459738 ], [ 5.1841683, 59.23562339999998 ], [ 5.1743357, 59.227437699999982 ], [ 5.175601, 59.2167244 ], [ 5.1709241, 59.2031755 ], [ 5.17747, 59.195528099999983 ], [ 5.1783003, 59.179583299999983 ], [ 5.1931337, 59.1672432 ], [ 5.1944818, 59.1507046 ], [ 5.1976733, 59.14634 ], [ 5.2100113, 59.1452384 ], [ 5.2260029, 59.1496771 ], [ 5.2428401, 59.14250029999998 ], [ 5.2624403, 59.144287499999976 ], [ 5.2721137, 59.142053599999983 ], [ 5.280507, 59.147687799999979 ], [ 5.2950846, 59.1412116 ], [ 5.3009054, 59.157127 ] ] ] } }
]
}
