{
"type": "FeatureCollection",
"name": "karvia",
"crs": { "type": "name", "properties": { "name": "urn:ogc:def:crs:OGC:1.3:CRS84" } },
"features": [
{ "type": "Feature", "properties": { "name": "Karvia", "feature_type": "entity", "metric_roundness": 50.89, "metric_rectangularity": 65.58, "metric_mobile_fit": 83.4, "metric_aspect_ratio": 0.729, "metric_area_km2": 2372.43 }, "geometry": { "type": "Polygon", "coordinates": [ [ [ 22.5916193, 62.310143 ], [ 22.536263, 62.2236607 ], [ 22.5277428, 62.2191852 ], [ 22.5285532, 62.2153992 ], [ 22.5255209, 62.211440599999982 ], [ 22.5036799, 62.2129654 ], [ 22.4506359, 62.1982824 ], [ 22.3736775, 62.1424545 ], [ 22.3893693, 62.1310369 ], [ 22.4024749, 62.1143131 ], [ 22.4096541, 62.1243314 ], [ 22.4339724, 62.1069725 ], [ 22.4318069, 62.101021399999986 ], [ 22.419845, 62.0912979 ], [ 22.4163854, 62.0845966 ], [ 22.4215981, 62.054064499999988 ], [ 22.4197669, 62.0431901 ], [ 22.4237545, 62.0354463 ], [ 22.3965282, 62.0294329 ], [ 22.3895564, 62.0249022 ], [ 22.3971378, 62.0198743 ], [ 22.4226996, 62.0188284 ], [ 22.4341405, 62.0113575 ], [ 22.436309, 62.007313 ], [ 22.438123, 62.0073865 ], [ 22.5108045, 62.011728 ], [ 22.5072715, 62.000057 ], [ 22.5225845, 61.998111499999986 ], [ 22.520742, 62.001516 ], [ 22.5392845, 62.000759 ], [ 22.5640385, 62.010737 ], [ 22.571591, 62.017775 ], [ 22.5839117, 62.0255763 ], [ 22.6033408, 62.0372487 ], [ 22.6637436, 62.0496297 ], [ 22.6673323, 62.048901899999983 ], [ 22.6637788, 62.04323729999998 ], [ 22.6699594, 62.041854299999983 ], [ 22.6843989, 62.053138799999985 ], [ 22.6983246, 62.0511748 ], [ 22.7791874, 62.0611379 ], [ 22.7647926, 62.1396376 ], [ 22.7703561, 62.153000499999983 ], [ 22.816742, 62.16502689999998 ], [ 22.8243231, 62.1616582 ], [ 22.8307424, 62.1622187 ], [ 22.8603689, 62.1726984 ], [ 22.8424457, 62.187135 ], [ 22.8473676, 62.195762 ], [ 22.8539127, 62.1988053 ], [ 22.8454617, 62.2079139 ], [ 22.8481602, 62.2103296 ], [ 22.8412035, 62.223663 ], [ 22.841504, 62.236902 ], [ 22.8252393, 62.23859719999998 ], [ 22.8332185, 62.2567673 ], [ 22.8274515, 62.263446099999982 ], [ 22.831244, 62.27089 ], [ 22.745566, 62.2733165 ], [ 22.634243, 62.3008785 ], [ 22.5916193, 62.310143 ] ] ] } },
{ "type": "Feature", "properties": { "name": "Karvia", "feature_type": "circle", "metric_roundness": 50.89, "metric_rectangularity": 65.58, "metric_mobile_fit": 83.4, "metric_aspect_ratio": 0.729, "metric_area_km2": 2372.43 }, "geometry": { "type": "Polygon", "coordinates": [ [ [ 22.950574777770264, 62.148983644777985 ], [ 22.950100423911802, 62.140519676563208 ], [ 22.948678662507366, 62.132076551045138 ], [ 22.946313390506148, 62.123677438827222 ], [ 22.943011090954293, 62.115345408908837 ], [ 22.938780815225329, 62.107103364938965 ], [ 22.933634158210989, 62.098973981719986 ], [ 22.927585226540401, 62.090979642142763 ], [ 22.920650599914833, 62.083142374736553 ], [ 22.912849285663832, 62.075483792016101 ], [ 22.90420266664751, 62.068025029809235 ], [ 22.894734442647565, 62.060786687746912 ], [ 22.884470565407845, 62.053788771095775 ], [ 22.87343916750245, 62.047050634111713 ], [ 22.861670485226234, 62.040590925089148 ], [ 22.8491967757193, 62.034427533278027 ], [ 22.836052228552365, 62.028577537835211 ], [ 22.822272872015539, 62.02305715897257 ], [ 22.807896474367318, 62.017881711458152 ], [ 22.792962440314344, 62.013065560620262 ], [ 22.777511703005914, 62.008622080997249 ], [ 22.761586611839025, 62.004563617768348 ], [ 22.745230816381628, 62.000901451092169 ], [ 22.728489146732176, 61.997645763470793 ], [ 22.711407490643502, 61.994805610247944 ], [ 22.694032667747603, 61.992388893339673 ], [ 22.676412301226321, 61.990402338285591 ], [ 22.658594687279532, 61.988851474697746 ], [ 22.640628662748554, 61.987740620173234 ], [ 22.622563471257845, 61.987072867724827 ], [ 22.60444862824157, 61.986850076772306 ], [ 22.5863337852253, 61.987072867724827 ], [ 22.568268593734587, 61.987740620173234 ], [ 22.550302569203616, 61.988851474697746 ], [ 22.532484955256823, 61.990402338285591 ], [ 22.514864588735545, 61.992388893339673 ], [ 22.497489765839642, 61.994805610247944 ], [ 22.480408109750968, 61.997645763470793 ], [ 22.46366644010152, 62.000901451092169 ], [ 22.447310644644119, 62.004563617768348 ], [ 22.431385553477227, 62.008622080997249 ], [ 22.4159348161688, 62.013065560620262 ], [ 22.401000782115826, 62.017881711458152 ], [ 22.386624384467602, 62.02305715897257 ], [ 22.372845027930783, 62.028577537835211 ], [ 22.359700480763845, 62.034427533278027 ], [ 22.347226771256913, 62.040590925089148 ], [ 22.335458088980698, 62.047050634111713 ], [ 22.324426691075299, 62.053788771095775 ], [ 22.31416281383558, 62.060786687746912 ], [ 22.304694589835631, 62.068025029809235 ], [ 22.296047970819313, 62.075483792016101 ], [ 22.288246656568312, 62.083142374736553 ], [ 22.281312029942743, 62.090979642142763 ], [ 22.275263098272159, 62.098973981719986 ], [ 22.270116441257816, 62.107103364938965 ], [ 22.265886165528851, 62.115345408908837 ], [ 22.262583865976996, 62.123677438827222 ], [ 22.260218593975775, 62.132076551045138 ], [ 22.258796832571342, 62.140519676563208 ], [ 22.258322478712881, 62.148983644777985 ], [ 22.258796832571342, 62.157445247297744 ], [ 22.260218593975775, 62.165881301649883 ], [ 22.262583865976996, 62.174268714704318 ], [ 22.265886165528851, 62.18258454564053 ], [ 22.270116441257816, 62.190806068289426 ], [ 22.275263098272159, 62.198910832685094 ], [ 22.281312029942743, 62.20687672566627 ], [ 22.288246656568312, 62.214682030371229 ], [ 22.296047970819313, 62.222305484475996 ], [ 22.304694589835631, 62.229726337029867 ], [ 22.31416281383558, 62.236924403748617 ], [ 22.324426691075299, 62.243880120631232 ], [ 22.335458088980698, 62.250574595771845 ], [ 22.347226771256913, 62.25698965924461 ], [ 22.359700480763845, 62.263107910945813 ], [ 22.372845027930783, 62.268912766283172 ], [ 22.386624384467602, 62.274388499609138 ], [ 22.401000782115826, 62.279520285301331 ], [ 22.4159348161688, 62.284294236399155 ], [ 22.431385553477227, 62.288697440712951 ], [ 22.447310644644116, 62.292717994327674 ], [ 22.46366644010152, 62.29634503242972 ], [ 22.480408109750968, 62.299568757392358 ], [ 22.497489765839642, 62.302380464060725 ], [ 22.514864588735545, 62.304772562184496 ], [ 22.532484955256823, 62.306738595951977 ], [ 22.550302569203616, 62.308273260586084 ], [ 22.568268593734587, 62.309372415968362 ], [ 22.5863337852253, 62.310033097263954 ], [ 22.60444862824157, 62.310253522525912 ], [ 22.622563471257845, 62.310033097263954 ], [ 22.640628662748554, 62.309372415968362 ], [ 22.658594687279532, 62.308273260586084 ], [ 22.676412301226321, 62.306738595951977 ], [ 22.694032667747603, 62.304772562184496 ], [ 22.711407490643502, 62.302380464060725 ], [ 22.728489146732176, 62.299568757392358 ], [ 22.745230816381628, 62.29634503242972 ], [ 22.761586611839025, 62.292717994327674 ], [ 22.777511703005914, 62.288697440712951 ], [ 22.792962440314344, 62.284294236399155 ], [ 22.807896474367318, 62.279520285301331 ], [ 22.822272872015539, 62.274388499609138 ], [ 22.836052228552365, 62.268912766283172 ], [ 22.8491967757193, 62.263107910945813 ], [ 22.861670485226234, 62.25698965924461 ], [ 22.87343916750245, 62.250574595771845 ], [ 22.884470565407845, 62.243880120631232 ], [ 22.894734442647565, 62.236924403748617 ], [ 22.90420266664751, 62.229726337029867 ], [ 22.912849285663832, 62.222305484475996 ], [ 22.920650599914829, 62.214682030371229 ], [ 22.927585226540401, 62.20687672566627 ], [ 22.933634158210989, 62.198910832685094 ], [ 22.938780815225329, 62.190806068289426 ], [ 22.943011090954293, 62.18258454564053 ], [ 22.946313390506148, 62.174268714704318 ], [ 22.948678662507366, 62.165881301649883 ], [ 22.950100423911802, 62.157445247297744 ], [ 22.950574777770264, 62.148983644777985 ] ] ] } },
{ "type": "Feature", "properties": { "name": "Karvia", "feature_type": "mrr", "metric_roundness": 50.89, "metric_rectangularity": 65.58, "metric_mobile_fit": 83.4, "metric_aspect_ratio": 0.729, "metric_area_km2": 2372.43 }, "geometry": { "type": "Polygon", "coordinates": [ [ [ 22.510518378864209, 62.323416582303722 ], [ 22.925722577150783, 62.255399364315345 ], [ 22.705360704718132, 61.962792817832394 ], [ 22.290156506431565, 62.03146972949601 ], [ 22.510518378864209, 62.323416582303722 ] ] ] } }
]
}
