{
"type": "FeatureCollection",
"name": "kaunertal",
"crs": { "type": "name", "properties": { "name": "urn:ogc:def:crs:OGC:1.3:CRS84" } },
"features": [
{ "type": "Feature", "properties": { "name": "Kaunertal", "metric_roundness": 32.19, "metric_rectangularity": 68.11, "metric_mobile_fit": 87.36, "metric_aspect_ratio": 0.436, "metric_area_km2": 416.4 }, "geometry": { "type": "Polygon", "coordinates": [ [ [ 10.7890075, 46.8873996 ], [ 10.7759386, 46.8915144 ], [ 10.7742588, 46.9084875 ], [ 10.785039, 46.915926399999989 ], [ 10.7910436, 46.928497299999989 ], [ 10.7920285, 46.9374751 ], [ 10.7834914, 46.9465594 ], [ 10.7843529, 46.9548973 ], [ 10.7910641, 46.960319299999981 ], [ 10.7976609, 46.978623399999982 ], [ 10.7949165, 46.9912878 ], [ 10.7924772, 46.996344399999984 ], [ 10.7957509, 47.009436299999983 ], [ 10.8117605, 47.0150933 ], [ 10.8145086, 47.0229756 ], [ 10.8211016, 47.026482499999986 ], [ 10.8174997, 47.0327662 ], [ 10.8026629, 47.042030499999989 ], [ 10.8004938, 47.058578199999985 ], [ 10.7926025, 47.065555499999988 ], [ 10.7553459, 47.0652998 ], [ 10.7471326, 47.0663146 ], [ 10.7404244, 47.071037599999983 ], [ 10.7345735, 47.0690375 ], [ 10.748513, 47.057814199999981 ], [ 10.7334051, 47.05431 ], [ 10.7196575, 47.0460785 ], [ 10.706724, 47.016293 ], [ 10.7105471, 47.010712699999985 ], [ 10.7069204, 46.999145 ], [ 10.7096561, 46.9912878 ], [ 10.704496, 46.988975 ], [ 10.6909017, 46.979637 ], [ 10.6833275, 46.961720299999989 ], [ 10.682589, 46.9509745 ], [ 10.6868463, 46.943440599999988 ], [ 10.677182, 46.9315528 ], [ 10.6785028, 46.925224199999988 ], [ 10.6653352, 46.919196899999989 ], [ 10.6623989, 46.9118091 ], [ 10.6725503, 46.9014549 ], [ 10.6631895, 46.888699499999987 ], [ 10.6630937, 46.8829492 ], [ 10.6673685, 46.875490499999984 ], [ 10.6719247, 46.871138699999989 ], [ 10.6913647, 46.866352399999982 ], [ 10.6958949, 46.861948899999987 ], [ 10.69362, 46.8546028 ], [ 10.6954573, 46.8518608 ], [ 10.7061718, 46.847139299999988 ], [ 10.7152723, 46.846727099999981 ], [ 10.7230651, 46.8381834 ], [ 10.7544093, 46.832609 ], [ 10.7638465, 46.8226285 ], [ 10.7718976, 46.824096299999987 ], [ 10.7827566, 46.833084399999983 ], [ 10.7832611, 46.8379711 ], [ 10.7768022, 46.848496499999982 ], [ 10.7915113, 46.8576238 ], [ 10.79421, 46.8816525 ], [ 10.7890075, 46.8873996 ] ] ] } }
]
}
