{
"type": "FeatureCollection",
"name": "kazar",
"crs": { "type": "name", "properties": { "name": "urn:ogc:def:crs:OGC:1.3:CRS84" } },
"features": [
{ "type": "Feature", "properties": { "name": "Kazár", "metric_roundness": 42.84, "metric_rectangularity": 51.56, "metric_mobile_fit": 67.56, "metric_aspect_ratio": 0.887, "metric_area_km2": 69.22 }, "geometry": { "type": "Polygon", "coordinates": [ [ [ 19.909287, 48.02895 ], [ 19.9166123, 48.0334768 ], [ 19.9120545, 48.036449 ], [ 19.8959051, 48.046382 ], [ 19.8866568, 48.048110499999986 ], [ 19.8737379, 48.0673177 ], [ 19.8841624, 48.0753099 ], [ 19.9014691, 48.0820042 ], [ 19.911539, 48.0937815 ], [ 19.8966121, 48.095291 ], [ 19.894409, 48.103816499999986 ], [ 19.8696132, 48.0944522 ], [ 19.8373216, 48.100400599999986 ], [ 19.8355287, 48.096659499999987 ], [ 19.8426037, 48.082353599999983 ], [ 19.8211988, 48.0751255 ], [ 19.817252, 48.069932 ], [ 19.8261068, 48.0560925 ], [ 19.838681, 48.0485083 ], [ 19.8558749, 48.044013399999976 ], [ 19.857865, 48.039739 ], [ 19.8755075, 48.034046499999981 ], [ 19.909287, 48.02895 ] ] ] } }
]
}
