{
"type": "FeatureCollection",
"name": "jolanda_di_savoia",
"crs": { "type": "name", "properties": { "name": "urn:ogc:def:crs:OGC:1.3:CRS84" } },
"features": [
{ "type": "Feature", "properties": { "name": "Jolanda di Savoia", "feature_type": "entity", "metric_roundness": 41.33, "metric_rectangularity": 58.55, "metric_mobile_fit": 67.38, "metric_aspect_ratio": 0.889, "metric_area_km2": 215.73 }, "geometry": { "type": "Polygon", "coordinates": [ [ [ 12.0745425, 44.9366045 ], [ 12.055376, 44.9377225 ], [ 12.0527505, 44.938405 ], [ 12.0347395, 44.945115 ], [ 12.015572, 44.952496499999981 ], [ 12.0126035, 44.953647 ], [ 12.010098, 44.946245 ], [ 12.00716, 44.946486 ], [ 11.9978045, 44.9468405 ], [ 11.9937374, 44.9394747 ], [ 11.9991451, 44.925306399999982 ], [ 11.9840773, 44.9218834 ], [ 11.9663015, 44.905068 ], [ 11.941633, 44.9007688 ], [ 11.948053, 44.8887065 ], [ 11.9093482, 44.8874965 ], [ 11.9096389, 44.8641009 ], [ 11.904067, 44.860232 ], [ 11.8989648, 44.8539046 ], [ 11.8997787, 44.8500006 ], [ 11.8929997, 44.8435482 ], [ 11.8937541, 44.8392913 ], [ 11.9128379, 44.8358838 ], [ 11.9107051, 44.8288476 ], [ 11.922327, 44.8236237 ], [ 11.9192731, 44.8163552 ], [ 11.9283584, 44.8094205 ], [ 11.9442146, 44.811901 ], [ 11.9547355, 44.808807 ], [ 11.9684301, 44.821773 ], [ 11.990035, 44.8196843 ], [ 12.0102964, 44.8306394 ], [ 12.0254415, 44.834073 ], [ 12.0064493, 44.8663141 ], [ 12.0419986, 44.867989799999989 ], [ 12.0310552, 44.8862617 ], [ 12.0332311, 44.9073761 ], [ 12.0525329, 44.9098298 ], [ 12.0540293, 44.9274268 ], [ 12.0746545, 44.9280225 ], [ 12.0745425, 44.9366045 ] ] ] } },
{ "type": "Feature", "properties": { "name": "Jolanda di Savoia", "feature_type": "circle", "metric_roundness": 41.33, "metric_rectangularity": 58.55, "metric_mobile_fit": 67.38, "metric_aspect_ratio": 0.889, "metric_area_km2": 215.73 }, "geometry": { "type": "Polygon", "coordinates": [ [ [ 12.11384893631225, 44.875022251876388 ], [ 12.113690209953115, 44.870726614090835 ], [ 12.11321446593362, 44.866442431036042 ], [ 12.112423008235064, 44.862181449296848 ], [ 12.111318006187973, 44.857955354441437 ], [ 12.109902488526162, 44.853775738920611 ], [ 12.108180335085141, 44.849654070194852 ], [ 12.106156266167794, 44.845601659177696 ], [ 12.103835829606327, 44.841629629083066 ], [ 12.101225385556063, 44.837748884763847 ], [ 12.0983320890627, 44.833970082627467 ], [ 12.09516387045081, 44.830303601213167 ], [ 12.091729413587391, 44.826759512513831 ], [ 12.088038132079976, 44.823347554123842 ], [ 12.084100143474604, 44.820077102291442 ], [ 12.079926241524314, 44.816957145952919 ], [ 12.075527866604224, 44.813996261822133 ], [ 12.070917074354268, 44.811202590607053 ], [ 12.066106502635508, 44.808583814421311 ], [ 12.061109336890647, 44.806147135455731 ], [ 12.055939274003642, 44.803899255971366 ], [ 12.050610484757499, 44.801846359671572 ], [ 12.045137574993145, 44.79999409450734 ], [ 12.039535545575825, 44.798347556965396 ], [ 12.033819751278779, 44.79691127788481 ], [ 12.028005858696879, 44.795689209843374 ], [ 12.022109803305568, 44.794684716150286 ], [ 12.016147745782845, 44.793900561477457 ], [ 12.010136027713965, 44.793338904156542 ], [ 12.004091126800285, 44.793001290164312 ], [ 11.99802961169503, 44.792888648813857 ], [ 11.991968096589778, 44.793001290164312 ], [ 11.985923195676094, 44.793338904156542 ], [ 11.979911477607216, 44.793900561477457 ], [ 11.973949420084494, 44.794684716150286 ], [ 11.968053364693182, 44.795689209843374 ], [ 11.96223947211128, 44.79691127788481 ], [ 11.956523677814234, 44.798347556965396 ], [ 11.950921648396914, 44.79999409450734 ], [ 11.945448738632562, 44.801846359671572 ], [ 11.940119949386419, 44.803899255971366 ], [ 11.934949886499414, 44.806147135455731 ], [ 11.929952720754553, 44.808583814421311 ], [ 11.925142149035793, 44.811202590607053 ], [ 11.920531356785837, 44.813996261822133 ], [ 11.916132981865747, 44.816957145952919 ], [ 11.911959079915457, 44.820077102291442 ], [ 11.908021091310085, 44.823347554123842 ], [ 11.904329809802668, 44.826759512513831 ], [ 11.900895352939251, 44.830303601213167 ], [ 11.89772713432736, 44.833970082627467 ], [ 11.894833837833996, 44.837748884763847 ], [ 11.892223393783734, 44.841629629083066 ], [ 11.889902957222267, 44.845601659177696 ], [ 11.887878888304918, 44.849654070194852 ], [ 11.886156734863899, 44.853775738920611 ], [ 11.884741217202086, 44.857955354441437 ], [ 11.883636215154999, 44.862181449296848 ], [ 11.882844757456439, 44.866442431036042 ], [ 11.882369013436946, 44.870726614090835 ], [ 11.882210287077811, 44.875022251876388 ], [ 11.882369013436946, 44.879317569030853 ], [ 11.882844757456439, 44.883600793705313 ], [ 11.883636215154999, 44.887860189815143 ], [ 11.884741217202086, 44.89208408916469 ], [ 11.886156734863899, 44.896260923357623 ], [ 11.887878888304918, 44.900379255406328 ], [ 11.889902957222267, 44.904427810954658 ], [ 11.892223393783734, 44.908395509030072 ], [ 11.894833837833996, 44.912271492242276 ], [ 11.89772713432736, 44.916045156347593 ], [ 11.900895352939251, 44.919706179100196 ], [ 11.904329809802668, 44.923244548313463 ], [ 11.908021091310085, 44.92665058905699 ], [ 11.911959079915457, 44.929914989917492 ], [ 11.916132981865747, 44.933028828254471 ], [ 11.920531356785837, 44.935983594384133 ], [ 11.925142149035793, 44.93877121462863 ], [ 11.929952720754553, 44.941384073169992 ], [ 11.934949886499414, 44.943815032652317 ], [ 11.940119949386419, 44.946057453478367 ], [ 11.945448738632562, 44.948105211750935 ], [ 11.950921648396914, 44.949952715812252 ], [ 11.956523677814234, 44.951594921339186 ], [ 11.96223947211128, 44.953027344955039 ], [ 11.968053364693182, 44.954246076323251 ], [ 11.973949420084494, 44.955247788691842 ], [ 11.979911477607216, 44.956029747861614 ], [ 11.985923195676094, 44.956589819555269 ], [ 11.991968096589778, 44.956926475168451 ], [ 11.99802961169503, 44.957038795888259 ], [ 12.004091126800285, 44.956926475168451 ], [ 12.010136027713965, 44.956589819555269 ], [ 12.016147745782845, 44.956029747861614 ], [ 12.022109803305568, 44.955247788691842 ], [ 12.028005858696879, 44.954246076323251 ], [ 12.033819751278779, 44.953027344955039 ], [ 12.039535545575825, 44.951594921339186 ], [ 12.045137574993145, 44.949952715812252 ], [ 12.050610484757499, 44.948105211750935 ], [ 12.055939274003642, 44.946057453478367 ], [ 12.061109336890647, 44.943815032652317 ], [ 12.066106502635508, 44.941384073169992 ], [ 12.070917074354268, 44.93877121462863 ], [ 12.075527866604224, 44.935983594384133 ], [ 12.079926241524314, 44.933028828254471 ], [ 12.084100143474604, 44.929914989917492 ], [ 12.088038132079976, 44.92665058905699 ], [ 12.091729413587391, 44.923244548313463 ], [ 12.09516387045081, 44.919706179100196 ], [ 12.0983320890627, 44.916045156347593 ], [ 12.101225385556063, 44.912271492242276 ], [ 12.103835829606327, 44.908395509030072 ], [ 12.106156266167794, 44.904427810954658 ], [ 12.108180335085141, 44.900379255406328 ], [ 12.109902488526162, 44.896260923357623 ], [ 12.111318006187973, 44.89208408916469 ], [ 12.112423008235064, 44.887860189815143 ], [ 12.11321446593362, 44.883600793705313 ], [ 12.113690209953115, 44.879317569030853 ], [ 12.11384893631225, 44.875022251876388 ] ] ] } },
{ "type": "Feature", "properties": { "name": "Jolanda di Savoia", "feature_type": "mrr", "metric_roundness": 41.33, "metric_rectangularity": 58.55, "metric_mobile_fit": 67.38, "metric_aspect_ratio": 0.889, "metric_area_km2": 215.73 }, "geometry": { "type": "Polygon", "coordinates": [ [ [ 12.078950831208527, 44.936217080428513 ], [ 12.002348018661189, 44.789933775803107 ], [ 11.875724411196288, 44.823278768391184 ], [ 11.952327223743623, 44.969477427794679 ], [ 12.078950831208527, 44.936217080428513 ] ] ] } }
]
}
