{
"type": "FeatureCollection",
"name": "jou_sous_monjou",
"crs": { "type": "name", "properties": { "name": "urn:ogc:def:crs:OGC:1.3:CRS84" } },
"features": [
{ "type": "Feature", "properties": { "name": "Jou-sous-Monjou", "metric_roundness": 43.55, "metric_rectangularity": 63.93, "metric_mobile_fit": 64.87, "metric_aspect_ratio": 0.914, "metric_area_km2": 12.4 }, "geometry": { "type": "Polygon", "coordinates": [ [ [ 2.6765044, 44.9487273 ], [ 2.681587, 44.956432 ], [ 2.6743452, 44.9513981 ], [ 2.6695922, 44.955060399999986 ], [ 2.6612288, 44.953392899999983 ], [ 2.6567246, 44.946931799999987 ], [ 2.645674, 44.947399 ], [ 2.6402218, 44.9426543 ], [ 2.6437975, 44.940209 ], [ 2.6507603, 44.9374421 ], [ 2.6483119, 44.9268584 ], [ 2.651953, 44.924391 ], [ 2.6802505, 44.934794 ], [ 2.6765044, 44.9487273 ] ] ] } }
]
}
