{
"type": "FeatureCollection",
"name": "jovencan",
"crs": { "type": "name", "properties": { "name": "urn:ogc:def:crs:OGC:1.3:CRS84" } },
"features": [
{ "type": "Feature", "properties": { "name": "Jovençan", "feature_type": "entity", "metric_roundness": 23.93, "metric_rectangularity": 57.17, "metric_mobile_fit": 83.63, "metric_aspect_ratio": 0.399, "metric_area_km2": 14.11 }, "geometry": { "type": "Polygon", "coordinates": [ [ [ 7.2632173, 45.7032775 ], [ 7.2681734, 45.7008143 ], [ 7.2658492, 45.694062299999985 ], [ 7.2754497, 45.683131399999986 ], [ 7.2786195, 45.669167 ], [ 7.2854322, 45.679643899999988 ], [ 7.2862061, 45.697281299999979 ], [ 7.2897115, 45.7036261 ], [ 7.2806201, 45.709902199999981 ], [ 7.2779105, 45.7235395 ], [ 7.2654376, 45.7191577 ], [ 7.2586695, 45.7125535 ], [ 7.2632173, 45.7032775 ] ] ] } },
{ "type": "Feature", "properties": { "name": "Jovençan", "feature_type": "circle", "metric_roundness": 23.93, "metric_rectangularity": 57.17, "metric_mobile_fit": 83.63, "metric_aspect_ratio": 0.399, "metric_area_km2": 14.11 }, "geometry": { "type": "Polygon", "coordinates": [ [ [ 7.317189703118848, 45.69635985851108 ], [ 7.317136358166034, 45.694936963010399 ], [ 7.316976469522404, 45.693517931510925 ], [ 7.316710475431615, 45.692106653923851 ], [ 7.316339104964977, 45.690706999198369 ], [ 7.315863376023129, 45.689322804709093 ], [ 7.315284592546035, 45.687957865726922 ], [ 7.314604340938971, 45.68661592500235 ], [ 7.31382448572431, 45.68530066248988 ], [ 7.312947164430988, 45.684015685241924 ], [ 7.311974781735689, 45.682764517500132 ], [ 7.310910002871791, 45.681550591011472 ], [ 7.309755746324146, 45.680377235595941 ], [ 7.308515175829725, 45.679247669992058 ], [ 7.307191691706014, 45.678164993005417 ], [ 7.30578892153101, 45.677132174984997 ], [ 7.304310710200252, 45.676152049650952 ], [ 7.302761109388252, 45.675227306296421 ], [ 7.301144366443121, 45.674360482385289 ], [ 7.299464912744895, 45.673553956566494 ], [ 7.297727351559423, 45.672809942124097 ], [ 7.295936445421138, 45.672130480881926 ], [ 7.294097103079281, 45.671517437579205 ], [ 7.29221436604336, 45.670972494733391 ], [ 7.290293394764722, 45.670497148004301 ], [ 7.288339454492118, 45.670092702072594 ], [ 7.286357900840017, 45.669760267044111 ], [ 7.284354165109246, 45.669500755390274 ], [ 7.282333739400162, 45.669314879432825 ], [ 7.280302161559197, 45.669203149380309 ], [ 7.278265, 45.669165871921599 ], [ 7.276227838440802, 45.669203149380309 ], [ 7.274196260599836, 45.669314879432825 ], [ 7.272175834890751, 45.669500755390274 ], [ 7.27017209915998, 45.669760267044111 ], [ 7.268190545507879, 45.670092702072594 ], [ 7.266236605235274, 45.670497148004301 ], [ 7.264315633956636, 45.670972494733391 ], [ 7.262432896920717, 45.671517437579205 ], [ 7.260593554578858, 45.672130480881926 ], [ 7.258802648440573, 45.672809942124097 ], [ 7.257065087255101, 45.673553956566494 ], [ 7.255385633556875, 45.674360482385289 ], [ 7.253768890611745, 45.675227306296421 ], [ 7.252219289799744, 45.676152049650952 ], [ 7.250741078468987, 45.677132174984997 ], [ 7.249338308293982, 45.678164993005417 ], [ 7.248014824170274, 45.679247669992058 ], [ 7.246774253675849, 45.680377235595941 ], [ 7.245619997128206, 45.681550591011472 ], [ 7.244555218264307, 45.682764517500132 ], [ 7.243582835569009, 45.684015685241924 ], [ 7.242705514275687, 45.68530066248988 ], [ 7.241925659061027, 45.68661592500235 ], [ 7.241245407453962, 45.687957865726922 ], [ 7.240666623976867, 45.689322804709093 ], [ 7.24019089503502, 45.690706999198369 ], [ 7.239819524568384, 45.692106653923851 ], [ 7.239553530477593, 45.693517931510925 ], [ 7.239393641833962, 45.694936963010399 ], [ 7.239340296881149, 45.69635985851108 ], [ 7.239393641833962, 45.697782717806653 ], [ 7.239553530477593, 45.699201641087441 ], [ 7.239819524568384, 45.700612739627914 ], [ 7.24019089503502, 45.702012146440559 ], [ 7.240666623976867, 45.703396026866976 ], [ 7.241245407453962, 45.704760589077161 ], [ 7.241925659061027, 45.706102094448639 ], [ 7.242705514275687, 45.707416867796724 ], [ 7.243582835569009, 45.708701307428385 ], [ 7.244555218264307, 45.70995189499223 ], [ 7.245619997128206, 45.711165205097814 ], [ 7.246774253675849, 45.712337914678372 ], [ 7.248014824170274, 45.713466812071296 ], [ 7.249338308293982, 45.714548805792056 ], [ 7.250741078468987, 45.715580932977659 ], [ 7.252219289799744, 45.716560367476895 ], [ 7.253768890611745, 45.717484427565566 ], [ 7.255385633556875, 45.71835058326576 ], [ 7.257065087255101, 45.719156463249639 ], [ 7.258802648440573, 45.719899861308988 ], [ 7.260593554578858, 45.720578742373249 ], [ 7.262432896920717, 45.721191248059739 ], [ 7.264315633956636, 45.721735701741217 ], [ 7.266236605235274, 45.722210613117262 ], [ 7.268190545507879, 45.72261468227704 ], [ 7.27017209915998, 45.722946803242678 ], [ 7.272175834890751, 45.723206066983735 ], [ 7.274196260599836, 45.723391763894611 ], [ 7.276227838440802, 45.723503385728442 ], [ 7.278265, 45.723540626982043 ], [ 7.280302161559197, 45.723503385728442 ], [ 7.282333739400162, 45.723391763894611 ], [ 7.284354165109246, 45.723206066983735 ], [ 7.286357900840017, 45.722946803242678 ], [ 7.288339454492118, 45.72261468227704 ], [ 7.290293394764722, 45.722210613117262 ], [ 7.29221436604336, 45.721735701741217 ], [ 7.294097103079281, 45.721191248059739 ], [ 7.295936445421138, 45.720578742373249 ], [ 7.297727351559423, 45.719899861308988 ], [ 7.299464912744895, 45.719156463249639 ], [ 7.301144366443121, 45.71835058326576 ], [ 7.302761109388252, 45.717484427565566 ], [ 7.304310710200252, 45.716560367476895 ], [ 7.30578892153101, 45.715580932977659 ], [ 7.307191691706014, 45.714548805792056 ], [ 7.308515175829723, 45.713466812071296 ], [ 7.309755746324146, 45.712337914678372 ], [ 7.310910002871791, 45.711165205097814 ], [ 7.311974781735689, 45.70995189499223 ], [ 7.312947164430988, 45.708701307428385 ], [ 7.31382448572431, 45.707416867796724 ], [ 7.314604340938971, 45.706102094448639 ], [ 7.315284592546035, 45.704760589077161 ], [ 7.315863376023129, 45.703396026866976 ], [ 7.316339104964977, 45.702012146440559 ], [ 7.316710475431615, 45.700612739627914 ], [ 7.316976469522404, 45.699201641087441 ], [ 7.317136358166034, 45.697782717806653 ], [ 7.317189703118848, 45.69635985851108 ] ] ] } },
{ "type": "Feature", "properties": { "name": "Jovençan", "feature_type": "mrr", "metric_roundness": 23.93, "metric_rectangularity": 57.17, "metric_mobile_fit": 83.63, "metric_aspect_ratio": 0.399, "metric_area_km2": 14.11 }, "geometry": { "type": "Polygon", "coordinates": [ [ [ 7.2786195, 45.669167 ], [ 7.253815802503997, 45.717510908841611 ], [ 7.279311008774872, 45.723889894716123 ], [ 7.304114712026091, 45.675551505844801 ], [ 7.2786195, 45.669167 ] ] ] } }
]
}
