{
"type": "FeatureCollection",
"name": "swiatniki_gorne",
"crs": { "type": "name", "properties": { "name": "urn:ogc:def:crs:OGC:1.3:CRS84" } },
"features": [
{ "type": "Feature", "properties": { "name": "Świątniki Górne", "feature_type": "entity", "metric_roundness": 40.84, "metric_rectangularity": 46.84, "metric_mobile_fit": 69.66, "metric_aspect_ratio": 0.866, "metric_area_km2": 49.3 }, "geometry": { "type": "Polygon", "coordinates": [ [ [ 19.9556376, 49.968527099999974 ], [ 19.942394, 49.974028 ], [ 19.9295137, 49.9575025 ], [ 19.9441693, 49.949562399999984 ], [ 19.9437577, 49.9427915 ], [ 19.9339126, 49.9375346 ], [ 19.9328601, 49.9273793 ], [ 19.9268283, 49.920218699999978 ], [ 19.9204487, 49.9204923 ], [ 19.9138558, 49.9168368 ], [ 19.929959, 49.905328499999989 ], [ 19.9335549, 49.9149705 ], [ 19.9432162, 49.923068099999988 ], [ 19.9582223, 49.9214134 ], [ 19.9814962, 49.9314341 ], [ 20.001309, 49.931138499999989 ], [ 20.0010032, 49.9352818 ], [ 20.0062886, 49.940804499999985 ], [ 20.0041007, 49.9488807 ], [ 19.9994706, 49.950836799999983 ], [ 19.9906984, 49.9479963 ], [ 19.9830834, 49.9495551 ], [ 19.9814398, 49.959486 ], [ 19.9691378, 49.9607888 ], [ 19.963435, 49.968627499999982 ], [ 19.9556376, 49.968527099999974 ] ] ] } },
{ "type": "Feature", "properties": { "name": "Świątniki Górne", "feature_type": "circle", "metric_roundness": 40.84, "metric_rectangularity": 46.84, "metric_mobile_fit": 69.66, "metric_aspect_ratio": 0.866, "metric_area_km2": 49.3 }, "geometry": { "type": "Polygon", "coordinates": [ [ [ 20.006441635875134, 49.938598324407295 ], [ 20.006365303502914, 49.936722159935435 ], [ 20.006136515607963, 49.934851065145267 ], [ 20.005755899282011, 49.932990169473705 ], [ 20.005224497767944, 49.931144574989659 ], [ 20.004543767600378, 49.929319342393406 ], [ 20.003715574613381, 49.927519477123042 ], [ 20.002742188826367, 49.92574991560641 ], [ 20.001626278222123, 49.924015511696552 ], [ 20.000370901434039, 49.922321023328053 ], [ 19.99897949936264, 49.920671099431488 ], [ 19.997455885744287, 49.919070267142196 ], [ 19.995804236698, 49.917522919339071 ], [ 19.994029079279009, 49.916033302547937 ], [ 19.992135279070414, 49.91460550524355 ], [ 19.99012802684695, 49.913243446582626 ], [ 19.988012824347436, 49.911950865599685 ], [ 19.985795469194901, 49.910731310895819 ], [ 19.983482039005683, 49.909588130849549 ], [ 19.981078874731136, 49.908524464377017 ], [ 19.978592563277495, 49.907543232267784 ], [ 19.976029919451626, 49.906647129120444 ], [ 19.973397967282128, 49.905838615900969 ], [ 19.970703920766962, 49.905119913144638 ], [ 19.967955164100356, 49.904492994820842 ], [ 19.96515923143328, 49.903959582878223 ], [ 19.962323786222818, 49.903521142485218 ], [ 19.95945660022721, 49.903178877980082 ], [ 19.956565532203975, 49.902933729541253 ], [ 19.953658506369603, 49.902786370587854 ], [ 19.950743490679852, 49.902737205917695 ], [ 19.9478284749901, 49.902786370587854 ], [ 19.944921449155732, 49.902933729541253 ], [ 19.942030381132493, 49.903178877980082 ], [ 19.939163195136889, 49.903521142485218 ], [ 19.936327749926427, 49.903959582878223 ], [ 19.933531817259347, 49.904492994820842 ], [ 19.930783060592741, 49.905119913144638 ], [ 19.928089014077575, 49.905838615900969 ], [ 19.92545706190808, 49.906647129120444 ], [ 19.922894418082212, 49.907543232267784 ], [ 19.920408106628567, 49.908524464377017 ], [ 19.91800494235402, 49.909588130849549 ], [ 19.915691512164805, 49.910731310895819 ], [ 19.913474157012267, 49.911950865599685 ], [ 19.911358954512753, 49.913243446582626 ], [ 19.909351702289289, 49.91460550524355 ], [ 19.907457902080697, 49.916033302547937 ], [ 19.905682744661704, 49.917522919339071 ], [ 19.904031095615419, 49.919070267142196 ], [ 19.902507481997066, 49.920671099431488 ], [ 19.901116079925668, 49.922321023328053 ], [ 19.899860703137584, 49.924015511696552 ], [ 19.898744792533339, 49.92574991560641 ], [ 19.897771406746326, 49.927519477123042 ], [ 19.896943213759329, 49.929319342393406 ], [ 19.896262483591762, 49.931144574989659 ], [ 19.895731082077695, 49.932990169473705 ], [ 19.89535046575174, 49.934851065145267 ], [ 19.895121677856793, 49.936722159935435 ], [ 19.895045345484572, 49.938598324407295 ], [ 19.895121677856793, 49.940474415825221 ], [ 19.89535046575174, 49.942345292253911 ], [ 19.895731082077695, 49.944205826648918 ], [ 19.896262483591762, 49.946050920899509 ], [ 19.896943213759329, 49.947875519786109 ], [ 19.897771406746326, 49.949674624813682 ], [ 19.898744792533339, 49.951443307883736 ], [ 19.899860703137584, 49.953176724767687 ], [ 19.901116079925668, 49.954870128345021 ], [ 19.902507481997066, 49.956518881570361 ], [ 19.904031095615419, 49.958118470134487 ], [ 19.905682744661704, 49.959664514785047 ], [ 19.907457902080697, 49.961152783273789 ], [ 19.909351702289289, 49.962579201898265 ], [ 19.911358954512753, 49.96393986660685 ], [ 19.913474157012267, 49.965231053637488 ], [ 19.915691512164805, 49.966449229661492 ], [ 19.91800494235402, 49.967591061405457 ], [ 19.920408106628567, 49.968653424725517 ], [ 19.922894418082212, 49.96963341310974 ], [ 19.92545706190808, 49.97052834558599 ], [ 19.928089014077575, 49.971335774014463 ], [ 19.930783060592741, 49.972053489745058 ], [ 19.933531817259347, 49.972679529622418 ], [ 19.936327749926427, 49.973212181322396 ], [ 19.939163195136889, 49.973649988005882 ], [ 19.942030381132493, 49.973991752277684 ], [ 19.944921449155732, 49.974236539440021 ], [ 19.9478284749901, 49.974383680032005 ], [ 19.950743490679852, 49.974432771648218 ], [ 19.953658506369603, 49.974383680032005 ], [ 19.956565532203975, 49.974236539440021 ], [ 19.95945660022721, 49.973991752277684 ], [ 19.962323786222818, 49.973649988005882 ], [ 19.96515923143328, 49.973212181322396 ], [ 19.967955164100356, 49.972679529622418 ], [ 19.970703920766962, 49.972053489745058 ], [ 19.973397967282128, 49.971335774014463 ], [ 19.976029919451626, 49.97052834558599 ], [ 19.978592563277495, 49.96963341310974 ], [ 19.981078874731136, 49.968653424725517 ], [ 19.983482039005683, 49.967591061405457 ], [ 19.985795469194901, 49.966449229661492 ], [ 19.988012824347436, 49.965231053637488 ], [ 19.99012802684695, 49.96393986660685 ], [ 19.992135279070414, 49.962579201898265 ], [ 19.994029079279009, 49.961152783273789 ], [ 19.995804236698, 49.959664514785047 ], [ 19.997455885744287, 49.958118470134487 ], [ 19.99897949936264, 49.956518881570361 ], [ 20.000370901434039, 49.954870128345021 ], [ 20.001626278222123, 49.953176724767687 ], [ 20.002742188826367, 49.951443307883736 ], [ 20.003715574613381, 49.949674624813682 ], [ 20.004543767600378, 49.947875519786109 ], [ 20.005224497767944, 49.946050920899509 ], [ 20.005755899282011, 49.944205826648918 ], [ 20.006136515607963, 49.942345292253911 ], [ 20.006365303502914, 49.940474415825221 ], [ 20.006441635875134, 49.938598324407295 ] ] ] } },
{ "type": "Feature", "properties": { "name": "Świątniki Górne", "feature_type": "mrr", "metric_roundness": 40.84, "metric_rectangularity": 46.84, "metric_mobile_fit": 69.66, "metric_aspect_ratio": 0.866, "metric_area_km2": 49.3 }, "geometry": { "type": "Polygon", "coordinates": [ [ [ 19.940126978940636, 49.974609830592904 ], [ 20.016162253042481, 49.955091568489046 ], [ 19.977708387448757, 49.893054517069331 ], [ 19.901673113346916, 49.912597917102396 ], [ 19.940126978940636, 49.974609830592904 ] ] ] } }
]
}
