{
"type": "FeatureCollection",
"name": "swieradow_zdroj",
"crs": { "type": "name", "properties": { "name": "urn:ogc:def:crs:OGC:1.3:CRS84" } },
"features": [
{ "type": "Feature", "properties": { "name": "Świeradów-Zdrój", "feature_type": "entity", "metric_roundness": 34.95, "metric_rectangularity": 49.27, "metric_mobile_fit": 18.09, "metric_aspect_ratio": 1.382, "metric_area_km2": 51.21 }, "geometry": { "type": "Polygon", "coordinates": [ [ [ 15.2676974, 50.9205355 ], [ 15.277251, 50.894201 ], [ 15.301018, 50.9102369 ], [ 15.317463, 50.912077599999989 ], [ 15.3237751, 50.905633499999979 ], [ 15.3326701, 50.9038367 ], [ 15.3435085, 50.8946336 ], [ 15.3727785, 50.8930546 ], [ 15.3757676, 50.9001987 ], [ 15.3672733, 50.899321399999984 ], [ 15.3507204, 50.9040305 ], [ 15.3481704, 50.908777399999984 ], [ 15.3497756, 50.9205597 ], [ 15.3452787, 50.9210985 ], [ 15.3423042, 50.9272305 ], [ 15.3308994, 50.929922499999982 ], [ 15.337721, 50.941852 ], [ 15.3190198, 50.9423679 ], [ 15.3163281, 50.937358 ], [ 15.3089399, 50.9390712 ], [ 15.2944579, 50.929793499999988 ], [ 15.2711915, 50.9364565 ], [ 15.2676974, 50.9205355 ] ] ] } },
{ "type": "Feature", "properties": { "name": "Świeradów-Zdrój", "feature_type": "circle", "metric_roundness": 34.95, "metric_rectangularity": 49.27, "metric_mobile_fit": 18.09, "metric_aspect_ratio": 1.382, "metric_area_km2": 51.21 }, "geometry": { "type": "Polygon", "coordinates": [ [ [ 15.383342255755014, 50.914760609585812 ], [ 15.383258167768448, 50.912735987357998 ], [ 15.38300613428807, 50.910716826763668 ], [ 15.382586846120137, 50.908708663261784 ], [ 15.382001452504374, 50.906717002876853 ], [ 15.38125155796399, 50.904747307087746 ], [ 15.380339217907792, 50.902804977831025 ], [ 15.379266932996464, 50.90089534266027 ], [ 15.378037642288406, 50.899023640102371 ], [ 15.376654715184012, 50.897195005251483 ], [ 15.37512194219034, 50.895414455640513 ], [ 15.373443524531629, 50.893686877429559 ], [ 15.371624062634016, 50.892017011949804 ], [ 15.36966854351609, 50.89040944264034 ], [ 15.367582327119827, 50.88886858241456 ], [ 15.365371131619364, 50.887398661491545 ], [ 15.363041017747864, 50.886003715726446 ], [ 15.360598372185487, 50.884687575472881 ], [ 15.358049890053932, 50.883453855008526 ], [ 15.355402556565577, 50.882305942553778 ], [ 15.352663627877506, 50.88124699091172 ], [ 15.349840611202861, 50.880279908755796 ], [ 15.346941244234136, 50.879407352589723 ], [ 15.343973473934648, 50.878631719402769 ], [ 15.340945434756504, 50.877955140040832 ], [ 15.337865426344621, 50.877379473312303 ], [ 15.33474189078796, 50.876906300845611 ], [ 15.331583389480368, 50.876536922712745 ], [ 15.328398579654388, 50.876272353831475 ], [ 15.325196190652377, 50.876113321156332 ], [ 15.321985, 50.876060261666531 ], [ 15.318773809347611, 50.876113321156332 ], [ 15.3155714203456, 50.876272353831475 ], [ 15.312386610519621, 50.876536922712745 ], [ 15.309228109212032, 50.876906300845611 ], [ 15.306104573655368, 50.877379473312303 ], [ 15.303024565243485, 50.877955140040832 ], [ 15.299996526065341, 50.878631719402769 ], [ 15.297028755765856, 50.879407352589723 ], [ 15.294129388797128, 50.880279908755796 ], [ 15.291306372122486, 50.88124699091172 ], [ 15.288567443434411, 50.882305942553778 ], [ 15.285920109946057, 50.883453855008526 ], [ 15.283371627814503, 50.884687575472881 ], [ 15.280928982252123, 50.886003715726446 ], [ 15.278598868380625, 50.887398661491545 ], [ 15.27638767288016, 50.88886858241456 ], [ 15.274301456483903, 50.89040944264034 ], [ 15.272345937365973, 50.892017011949804 ], [ 15.270526475468358, 50.893686877429559 ], [ 15.268848057809649, 50.895414455640513 ], [ 15.267315284815979, 50.897195005251483 ], [ 15.265932357711582, 50.899023640102371 ], [ 15.264703067003529, 50.90089534266027 ], [ 15.263630782092195, 50.902804977831025 ], [ 15.262718442035997, 50.904747307087746 ], [ 15.261968547495613, 50.906717002876853 ], [ 15.26138315387985, 50.908708663261784 ], [ 15.260963865711918, 50.910716826763668 ], [ 15.260711832231541, 50.912735987357998 ], [ 15.260627744244976, 50.914760609585812 ], [ 15.260711832231541, 50.916785143737819 ], [ 15.260963865711918, 50.91880404106972 ], [ 15.26138315387985, 50.92081176900691 ], [ 15.261968547495613, 50.922802826297016 ], [ 15.262718442035997, 50.924771758068815 ], [ 15.263630782092195, 50.926713170756464 ], [ 15.264703067003529, 50.928621746848521 ], [ 15.265932357711582, 50.93049225942157 ], [ 15.267315284815979, 50.932319586419212 ], [ 15.268848057809649, 50.934098724637643 ], [ 15.270526475468358, 50.935824803380271 ], [ 15.272345937365973, 50.937493097744415 ], [ 15.274301456483903, 50.939099041504463 ], [ 15.27638767288016, 50.940638239556876 ], [ 15.278598868380625, 50.942106479893681 ], [ 15.280928982252123, 50.943499745072593 ], [ 15.283371627814503, 50.944814223152854 ], [ 15.285920109946057, 50.946046318067907 ], [ 15.288567443434411, 50.947192659407186 ], [ 15.291306372122486, 50.948250111581096 ], [ 15.294129388797128, 50.949215782344687 ], [ 15.297028755765856, 50.95008703065772 ], [ 15.299996526065341, 50.950861473860051 ], [ 15.303024565243485, 50.951536994143517 ], [ 15.306104573655368, 50.952111744303174 ], [ 15.309228109212032, 50.952584152752735 ], [ 15.312386610519621, 50.952952927790925 ], [ 15.3155714203456, 50.953217061107615 ], [ 15.318773809347611, 50.953375830520393 ], [ 15.321985, 50.953428801934415 ], [ 15.325196190652377, 50.953375830520393 ], [ 15.328398579654388, 50.953217061107615 ], [ 15.331583389480368, 50.952952927790925 ], [ 15.33474189078796, 50.952584152752735 ], [ 15.337865426344621, 50.952111744303174 ], [ 15.340945434756504, 50.951536994143517 ], [ 15.343973473934648, 50.950861473860051 ], [ 15.346941244234136, 50.95008703065772 ], [ 15.349840611202861, 50.949215782344687 ], [ 15.352663627877506, 50.948250111581096 ], [ 15.355402556565577, 50.947192659407186 ], [ 15.358049890053932, 50.946046318067907 ], [ 15.360598372185487, 50.944814223152854 ], [ 15.363041017747864, 50.943499745072593 ], [ 15.365371131619364, 50.942106479893681 ], [ 15.367582327119827, 50.940638239556876 ], [ 15.36966854351609, 50.939099041504463 ], [ 15.371624062634016, 50.937493097744415 ], [ 15.373443524531629, 50.935824803380271 ], [ 15.37512194219034, 50.934098724637643 ], [ 15.376654715184012, 50.932319586419212 ], [ 15.378037642288406, 50.93049225942157 ], [ 15.379266932996464, 50.928621746848521 ], [ 15.380339217907792, 50.926713170756464 ], [ 15.38125155796399, 50.924771758068815 ], [ 15.382001452504374, 50.922802826297016 ], [ 15.382586846120137, 50.92081176900691 ], [ 15.38300613428807, 50.91880404106972 ], [ 15.383258167768448, 50.916785143737819 ], [ 15.383342255755014, 50.914760609585812 ] ] ] } },
{ "type": "Feature", "properties": { "name": "Świeradów-Zdrój", "feature_type": "mrr", "metric_roundness": 34.95, "metric_rectangularity": 49.27, "metric_mobile_fit": 18.09, "metric_aspect_ratio": 1.382, "metric_area_km2": 51.21 }, "geometry": { "type": "Polygon", "coordinates": [ [ [ 15.375551098962152, 50.893021330082661 ], [ 15.26690658371845, 50.894325142579071 ], [ 15.26837480660666, 50.942975040491838 ], [ 15.37701932185036, 50.941672590424382 ], [ 15.375551098962152, 50.893021330082661 ] ] ] } }
]
}
