{
"type": "FeatureCollection",
"name": "lubberstedt",
"crs": { "type": "name", "properties": { "name": "urn:ogc:def:crs:OGC:1.3:CRS84" } },
"features": [
{ "type": "Feature", "properties": { "name": "Lübberstedt", "metric_roundness": 51.28, "metric_rectangularity": 71.61, "metric_mobile_fit": 17.32, "metric_aspect_ratio": 1.389, "metric_area_km2": 34.19 }, "geometry": { "type": "Polygon", "coordinates": [ [ [ 8.8070719, 53.3178645 ], [ 8.8136651, 53.3250102 ], [ 8.8441435, 53.34045 ], [ 8.8225648, 53.3499816 ], [ 8.812632, 53.350529 ], [ 8.7927497, 53.3516784 ], [ 8.783179, 53.3474566 ], [ 8.7850182, 53.3360478 ], [ 8.763894, 53.3341445 ], [ 8.7627215, 53.331511499999984 ], [ 8.76742, 53.3258335 ], [ 8.7693335, 53.3249165 ], [ 8.776647, 53.3217324 ], [ 8.7783896, 53.316682 ], [ 8.791047, 53.3171475 ], [ 8.8070719, 53.3178645 ] ] ] } }
]
}
