{
"type": "FeatureCollection",
"name": "lubne",
"crs": { "type": "name", "properties": { "name": "urn:ogc:def:crs:OGC:1.3:CRS84" } },
"features": [
{ "type": "Feature", "properties": { "name": "Lubné", "metric_roundness": 56.12, "metric_rectangularity": 61.26, "metric_mobile_fit": 72.71, "metric_aspect_ratio": 0.835, "metric_area_km2": 7.08 }, "geometry": { "type": "Polygon", "coordinates": [ [ [ 16.281533, 49.343636499999988 ], [ 16.2808738, 49.347885799999979 ], [ 16.2912015, 49.357544499999982 ], [ 16.289029, 49.3614865 ], [ 16.2808858, 49.3620984 ], [ 16.275449, 49.3662575 ], [ 16.271462, 49.365944 ], [ 16.267133, 49.365123 ], [ 16.2659615, 49.363756 ], [ 16.2615075, 49.360588 ], [ 16.264801, 49.3545561 ], [ 16.2734576, 49.3490788 ], [ 16.2757505, 49.343104499999988 ], [ 16.281533, 49.343636499999988 ] ] ] } }
]
}
