{
"type": "FeatureCollection",
"name": "lugy",
"crs": { "type": "name", "properties": { "name": "urn:ogc:def:crs:OGC:1.3:CRS84" } },
"features": [
{ "type": "Feature", "properties": { "name": "Lugy", "metric_roundness": 52.1, "metric_rectangularity": 75.17, "metric_mobile_fit": 32.42, "metric_aspect_ratio": 1.238, "metric_area_km2": 7.78 }, "geometry": { "type": "Polygon", "coordinates": [ [ [ 2.154457, 50.524885 ], [ 2.1679527, 50.514253599999989 ], [ 2.175597, 50.517303899999987 ], [ 2.1791115, 50.511049499999977 ], [ 2.1895153, 50.516441199999981 ], [ 2.1933875, 50.522353 ], [ 2.1642845, 50.5310385 ], [ 2.154457, 50.524885 ] ] ] } }
]
}
