{
"type": "FeatureCollection",
"name": "lutter",
"crs": { "type": "name", "properties": { "name": "urn:ogc:def:crs:OGC:1.3:CRS84" } },
"features": [
{ "type": "Feature", "properties": { "name": "Lutter", "metric_roundness": 63.18, "metric_rectangularity": 68.44, "metric_mobile_fit": 66.6, "metric_aspect_ratio": 0.896, "metric_area_km2": 25.28 }, "geometry": { "type": "Polygon", "coordinates": [ [ [ 10.1188513, 51.314402199999989 ], [ 10.1281896, 51.322949799999982 ], [ 10.1269347, 51.330610799999981 ], [ 10.1171573, 51.3350134 ], [ 10.116547, 51.344119299999974 ], [ 10.1131165, 51.346347 ], [ 10.1067821, 51.3429078 ], [ 10.0927283, 51.343673699999982 ], [ 10.078915, 51.326958 ], [ 10.07452, 51.322380499999987 ], [ 10.075858, 51.3189665 ], [ 10.07437, 51.316874 ], [ 10.080235, 51.3145105 ], [ 10.0809275, 51.3141175 ], [ 10.090579, 51.308834 ], [ 10.1078555, 51.314337 ], [ 10.1188513, 51.314402199999989 ] ] ] } }
]
}
