{
"type": "FeatureCollection",
"name": "luzein",
"crs": { "type": "name", "properties": { "name": "urn:ogc:def:crs:OGC:1.3:CRS84" } },
"features": [
{ "type": "Feature", "properties": { "name": "Luzein", "feature_type": "entity", "metric_roundness": 44.73, "metric_rectangularity": 58.22, "metric_mobile_fit": 45.71, "metric_aspect_ratio": 1.105, "metric_area_km2": 180.93 }, "geometry": { "type": "Polygon", "coordinates": [ [ [ 9.7739851, 46.9232984 ], [ 9.7992614, 46.940827399999989 ], [ 9.8204381, 46.9382495 ], [ 9.8352735, 46.932598500000012 ], [ 9.838649, 46.930521 ], [ 9.8451405, 46.929683 ], [ 9.8479475, 46.931343 ], [ 9.850163, 46.936507 ], [ 9.8549825, 46.933237499999976 ], [ 9.864923, 46.932838 ], [ 9.8721735, 46.9310645 ], [ 9.8761485, 46.934635499999985 ], [ 9.8794323, 46.9397291 ], [ 9.8757857, 46.949099 ], [ 9.8781328, 46.955693399999987 ], [ 9.8722758, 46.9634372 ], [ 9.8766141, 46.9739898 ], [ 9.8909266, 46.98904659999998 ], [ 9.8887985, 47.000733499999988 ], [ 9.8730652, 47.0074299 ], [ 9.8720121, 47.012492599999987 ], [ 9.8792328, 47.0172828 ], [ 9.8754225, 47.0209585 ], [ 9.8609085, 47.022617 ], [ 9.8524082, 47.0166165 ], [ 9.8307265, 47.014332 ], [ 9.8250844, 47.007095699999986 ], [ 9.8166004, 47.0028097 ], [ 9.8196381, 46.993288199999988 ], [ 9.8162283, 46.989282399999979 ], [ 9.7890662, 46.9879195 ], [ 9.7727441, 46.982614699999985 ], [ 9.7665102, 46.9832135 ], [ 9.7560212, 46.9663911 ], [ 9.7316652, 46.958312099999986 ], [ 9.7213436, 46.947790899999987 ], [ 9.7058845, 46.950379499999983 ], [ 9.713179, 46.937503799999988 ], [ 9.729777, 46.925618 ], [ 9.7513676, 46.9217298 ], [ 9.7610859, 46.910103099999986 ], [ 9.7689025, 46.908375 ], [ 9.7739851, 46.9232984 ] ] ] } },
{ "type": "Feature", "properties": { "name": "Luzein", "feature_type": "circle", "metric_roundness": 44.73, "metric_rectangularity": 58.22, "metric_mobile_fit": 45.71, "metric_aspect_ratio": 1.105, "metric_area_km2": 180.93 }, "geometry": { "type": "Polygon", "coordinates": [ [ [ 9.901393011341865, 46.974595610218024 ], [ 9.901253289646297, 46.970954779356994 ], [ 9.900834507527053, 46.967323680915975 ], [ 9.900137812836814, 46.963712270524525 ], [ 9.899165115167293, 46.960130451840442 ], [ 9.897919080615198, 46.95658804934947 ], [ 9.896403124474618, 46.95309478136069 ], [ 9.894621401875966, 46.949660233272631 ], [ 9.892578796397041, 46.946293831184285 ], [ 9.890280906677477, 46.943004815924674 ], [ 9.887734031073272, 46.939802217573792 ], [ 9.884945150393426, 46.936694830546081 ], [ 9.881921908766031, 46.933691189306813 ], [ 9.878672592686243, 46.930799544789814 ], [ 9.875206108303582, 46.928027841583244 ], [ 9.871531957010783, 46.925383695948113 ], [ 9.86766020940116, 46.922874374732132 ], [ 9.863601477665783, 46.920506775238827 ], [ 9.859366886506225, 46.918287406109769 ], [ 9.854968042642506, 46.916222369274131 ], [ 9.850417002999899, 46.914317343017899 ], [ 9.845726241661726, 46.912577566220989 ], [ 9.840908615678764, 46.91100782380795 ], [ 9.835977329828964, 46.909612433453958 ], [ 9.830945900424064, 46.908395233584699 ], [ 9.825828118262343, 46.907359572704742 ], [ 9.82063801082897, 46.906508300085363 ], [ 9.815389803847657, 46.905843757838767 ], [ 9.810097882288943, 46.905367774401704 ], [ 9.804776750941983, 46.905081659447454 ], [ 9.799440994657934, 46.904986200240927 ], [ 9.794105238373884, 46.905081659447454 ], [ 9.788784107026922, 46.905367774401704 ], [ 9.78349218546821, 46.905843757838767 ], [ 9.778243978486897, 46.906508300085363 ], [ 9.773053871053524, 46.907359572704742 ], [ 9.767936088891801, 46.908395233584699 ], [ 9.762904659486905, 46.909612433453958 ], [ 9.757973373637103, 46.91100782380795 ], [ 9.753155747654141, 46.912577566220989 ], [ 9.748464986315968, 46.914317343017899 ], [ 9.743913946673361, 46.916222369274131 ], [ 9.739515102809642, 46.918287406109769 ], [ 9.735280511650084, 46.920506775238827 ], [ 9.731221779914705, 46.922874374732132 ], [ 9.727350032305083, 46.925383695948113 ], [ 9.723675881012284, 46.928027841583244 ], [ 9.720209396629624, 46.930799544789814 ], [ 9.716960080549834, 46.933691189306813 ], [ 9.713936838922439, 46.936694830546081 ], [ 9.711147958242593, 46.939802217573792 ], [ 9.70860108263839, 46.943004815924674 ], [ 9.706303192918824, 46.946293831184285 ], [ 9.704260587439899, 46.949660233272631 ], [ 9.702478864841249, 46.95309478136069 ], [ 9.700962908700669, 46.95658804934947 ], [ 9.699716874148574, 46.960130451840442 ], [ 9.698744176479053, 46.963712270524525 ], [ 9.698047481788814, 46.967323680915975 ], [ 9.69762869966957, 46.970954779356994 ], [ 9.697488977974, 46.974595610218024 ], [ 9.69762869966957, 46.978236193218805 ], [ 9.698047481788814, 46.98186655079467 ], [ 9.698744176479053, 46.985476735433167 ], [ 9.699716874148574, 46.989056856906103 ], [ 9.700962908700669, 46.99259710932278 ], [ 9.702478864841249, 46.996087797930791 ], [ 9.704260587439899, 46.999519365591873 ], [ 9.706303192918824, 47.00288241886129 ], [ 9.70860108263839, 47.006167753600373 ], [ 9.711147958242593, 47.009366380053734 ], [ 9.713936838922439, 47.012469547323903 ], [ 9.716960080549834, 47.015468767178191 ], [ 9.720209396629624, 47.01835583712441 ], [ 9.723675881012284, 47.021122862694369 ], [ 9.727350032305083, 47.023762278876241 ], [ 9.731221779914705, 47.026266870639212 ], [ 9.735280511650084, 47.028629792496581 ], [ 9.739515102809642, 47.030844587055981 ], [ 9.743913946673361, 47.032905202508132 ], [ 9.748464986315968, 47.034806009008648 ], [ 9.753155747654141, 47.036541813910077 ], [ 9.757973373637103, 47.038107875804762 ], [ 9.762904659486905, 47.039499917342063 ], [ 9.767936088891801, 47.040714136786548 ], [ 9.773053871053524, 47.041747218287782 ], [ 9.778243978486897, 47.042596340834663 ], [ 9.78349218546821, 47.043259185871612 ], [ 9.788784107026922, 47.043733943556845 ], [ 9.794105238373884, 47.044019317646644 ], [ 9.799440994657934, 47.044114528993148 ], [ 9.804776750941983, 47.044019317646644 ], [ 9.810097882288943, 47.043733943556845 ], [ 9.815389803847657, 47.043259185871612 ], [ 9.82063801082897, 47.042596340834663 ], [ 9.825828118262343, 47.041747218287782 ], [ 9.830945900424064, 47.040714136786548 ], [ 9.835977329828964, 47.039499917342063 ], [ 9.840908615678764, 47.038107875804762 ], [ 9.845726241661726, 47.036541813910077 ], [ 9.850417002999899, 47.034806009008648 ], [ 9.854968042642506, 47.032905202508132 ], [ 9.859366886506225, 47.030844587055981 ], [ 9.863601477665783, 47.028629792496581 ], [ 9.86766020940116, 47.026266870639212 ], [ 9.871531957010783, 47.023762278876241 ], [ 9.875206108303582, 47.021122862694369 ], [ 9.878672592686243, 47.01835583712441 ], [ 9.881921908766031, 47.015468767178191 ], [ 9.884945150393426, 47.012469547323903 ], [ 9.887734031073272, 47.009366380053734 ], [ 9.890280906677477, 47.006167753600373 ], [ 9.892578796397041, 47.00288241886129 ], [ 9.894621401875966, 46.999519365591873 ], [ 9.896403124474618, 46.996087797930791 ], [ 9.897919080615198, 46.99259710932278 ], [ 9.899165115167293, 46.989056856906103 ], [ 9.900137812836814, 46.985476735433167 ], [ 9.900834507527053, 46.98186655079467 ], [ 9.901253289646297, 46.978236193218805 ], [ 9.901393011341865, 46.974595610218024 ] ] ] } },
{ "type": "Feature", "properties": { "name": "Luzein", "feature_type": "mrr", "metric_roundness": 44.73, "metric_rectangularity": 58.22, "metric_mobile_fit": 45.71, "metric_aspect_ratio": 1.105, "metric_area_km2": 180.93 }, "geometry": { "type": "Polygon", "coordinates": [ [ [ 9.699448492011362, 46.950696801290235 ], [ 9.865016992013668, 47.030941366726104 ], [ 9.936539657104717, 46.962286019256453 ], [ 9.770971157102407, 46.881938354703465 ], [ 9.699448492011362, 46.950696801290235 ] ] ] } }
]
}
