{
"type": "FeatureCollection",
"name": "luzech",
"crs": { "type": "name", "properties": { "name": "urn:ogc:def:crs:OGC:1.3:CRS84" } },
"features": [
{ "type": "Feature", "properties": { "name": "Luzech", "metric_roundness": 46.75, "metric_rectangularity": 57.75, "metric_mobile_fit": 71.5, "metric_aspect_ratio": 0.848, "metric_area_km2": 43.37 }, "geometry": { "type": "Polygon", "coordinates": [ [ [ 1.3069114, 44.4806829 ], [ 1.3054493, 44.4846603 ], [ 1.308375, 44.4936025 ], [ 1.3023574, 44.498427099999986 ], [ 1.3062187, 44.5103572 ], [ 1.2957645, 44.513738 ], [ 1.2852061, 44.5091853 ], [ 1.281342, 44.5005802 ], [ 1.2644484, 44.498234099999983 ], [ 1.250443, 44.509419 ], [ 1.2453725, 44.5104785 ], [ 1.2345199, 44.5096618 ], [ 1.2398192, 44.5017232 ], [ 1.2369915, 44.4968314 ], [ 1.238808, 44.4880985 ], [ 1.2441827, 44.4841185 ], [ 1.2445309, 44.4803182 ], [ 1.2533136, 44.4845918 ], [ 1.2596244, 44.4812113 ], [ 1.2672297, 44.472434 ], [ 1.2620449, 44.463936 ], [ 1.2733595, 44.451565 ], [ 1.281965, 44.452898599999983 ], [ 1.2941624, 44.4627726 ], [ 1.2958709, 44.471365899999988 ], [ 1.3021985, 44.476267 ], [ 1.3069114, 44.4806829 ] ] ] } }
]
}
