{
"type": "FeatureCollection",
"name": "kukucinov",
"crs": { "type": "name", "properties": { "name": "urn:ogc:def:crs:OGC:1.3:CRS84" } },
"features": [
{ "type": "Feature", "properties": { "name": "Kukučínov", "metric_roundness": 39.73, "metric_rectangularity": 64.46, "metric_mobile_fit": 19.82, "metric_aspect_ratio": 1.364, "metric_area_km2": 25.43 }, "geometry": { "type": "Polygon", "coordinates": [ [ [ 18.6896322, 48.075853699999989 ], [ 18.7021893, 48.0816667 ], [ 18.7067867, 48.0882182 ], [ 18.7302079, 48.0900561 ], [ 18.7417305, 48.0947345 ], [ 18.7267988, 48.105214399999987 ], [ 18.711102, 48.1004697 ], [ 18.6892582, 48.1035125 ], [ 18.6806695, 48.097649499999982 ], [ 18.665112, 48.089918 ], [ 18.6645331, 48.0781033 ], [ 18.673024, 48.073971499999985 ], [ 18.6723817, 48.070551899999984 ], [ 18.684064, 48.067417 ], [ 18.6896322, 48.075853699999989 ] ] ] } }
]
}
