{
"type": "FeatureCollection",
"name": "altenmarkt_bei_sankt_gallen",
"crs": { "type": "name", "properties": { "name": "urn:ogc:def:crs:OGC:1.3:CRS84" } },
"features": [
{ "type": "Feature", "properties": { "name": "Altenmarkt bei Sankt Gallen", "feature_type": "entity", "metric_roundness": 55.84, "metric_rectangularity": 66.34, "metric_mobile_fit": 30.41, "metric_aspect_ratio": 1.258, "metric_area_km2": 95.14 }, "geometry": { "type": "Polygon", "coordinates": [ [ [ 14.671561711846449, 47.744576182346719 ], [ 14.671597614301852, 47.744592978747939 ], [ 14.671975412217854, 47.744729149117383 ], [ 14.672193063026182, 47.744807728947499 ], [ 14.672318577779194, 47.744928951561981 ], [ 14.672317512156342, 47.745068904521034 ], [ 14.672228851041504, 47.745096696131917 ], [ 14.672189317887332, 47.745109078421613 ], [ 14.672076133320248, 47.745182713090415 ], [ 14.672080411133729, 47.745231604761216 ], [ 14.672089335822823, 47.745333388024967 ], [ 14.672086386667559, 47.745425240298054 ], [ 14.672084586395762, 47.745481131265755 ], [ 14.672180447964942, 47.745569054347214 ], [ 14.67239772232849, 47.745711048755716 ], [ 14.672541128391222, 47.74581967252319 ], [ 14.672667857017379, 47.745922497254483 ], [ 14.672757372712161, 47.746003223096722 ], [ 14.672754561361041, 47.746014845521735 ], [ 14.67284544812283, 47.746134571696103 ], [ 14.672867109404358, 47.746183423103759 ], [ 14.672989629869718, 47.746296401455503 ], [ 14.67314397969395, 47.746397761581825 ], [ 14.673258053506924, 47.746406836326834 ], [ 14.673335336830085, 47.746412973714349 ], [ 14.673491952171007, 47.746435968386344 ], [ 14.673780367137974, 47.746564813757075 ], [ 14.674209152949002, 47.746816316745964 ], [ 14.674281888300241, 47.746906397013333 ], [ 14.674273714055117, 47.746921150319821 ], [ 14.67432656522961, 47.746944821152745 ], [ 14.674413811777796, 47.747408384089013 ], [ 14.674317996606165, 47.747730646803539 ], [ 14.674233861737353, 47.748034956900568 ], [ 14.674609973376416, 47.748196774484384 ], [ 14.675064702691776, 47.748359834533495 ], [ 14.675351831181834, 47.748500910667474 ], [ 14.675999523749324, 47.7488630988381 ], [ 14.676214707134854, 47.748992324097237 ], [ 14.677120411555947, 47.749342679032324 ], [ 14.677674375623566, 47.749826167996474 ], [ 14.677889345446445, 47.750047597609935 ], [ 14.677917232892995, 47.750130325750582 ], [ 14.677929674642339, 47.750317712725625 ], [ 14.677922287869633, 47.750497232775118 ], [ 14.677936318693522, 47.750550041577497 ], [ 14.678029677837383, 47.750632770143177 ], [ 14.6781415989613, 47.750685965645317 ], [ 14.678178218489577, 47.750714854297016 ], [ 14.678496208783159, 47.750701323629315 ], [ 14.678670154788577, 47.75073354814505 ], [ 14.6787211162542, 47.750760298482035 ], [ 14.679254989047623, 47.750956602049222 ], [ 14.679622529638694, 47.751240339869319 ], [ 14.67993263110885, 47.751479846933286 ], [ 14.680077063648188, 47.751591355960443 ], [ 14.680140634299425, 47.751640372847717 ], [ 14.680147036080132, 47.751650645959131 ], [ 14.680512675606785, 47.752207679685384 ], [ 14.680279514516783, 47.752532183610114 ], [ 14.680243514067939, 47.752834135471467 ], [ 14.681023502012827, 47.752879090744678 ], [ 14.681219868622968, 47.753017435293877 ], [ 14.681247844667118, 47.753477187678257 ], [ 14.68145534589261, 47.75395472496529 ], [ 14.681687699429286, 47.753935808289434 ], [ 14.682241957251227, 47.753940116320436 ], [ 14.682448146494743, 47.754148709992258 ], [ 14.682519351153752, 47.754727002369442 ], [ 14.68258449378971, 47.754893786420055 ], [ 14.682725632182766, 47.755254941817356 ], [ 14.68290601261439, 47.755398959773302 ], [ 14.683406356681919, 47.755490457095767 ], [ 14.683637544472854, 47.755736638237209 ], [ 14.68372130112609, 47.7560869473892 ], [ 14.683753396688116, 47.756395030559695 ], [ 14.683703738482983, 47.756958452207606 ], [ 14.683761382086425, 47.757325804093 ], [ 14.683991883715901, 47.757544997874994 ], [ 14.683988432309954, 47.758032112583557 ], [ 14.684300215689312, 47.758282746275086 ], [ 14.684752721620512, 47.759244568012747 ], [ 14.684803329286133, 47.759364730502867 ], [ 14.684863886167873, 47.759508441577886 ], [ 14.684918172008853, 47.759647007228175 ], [ 14.685458864665843, 47.759940212835033 ], [ 14.685629718228382, 47.760138147870641 ], [ 14.685712382536256, 47.760326500138625 ], [ 14.68587944716454, 47.760594665474954 ], [ 14.686251386391756, 47.760688198460464 ], [ 14.686480217115395, 47.760697118386233 ], [ 14.687191516970413, 47.7608626965268 ], [ 14.687504081845207, 47.760966821370019 ], [ 14.687730754844461, 47.76105737815039 ], [ 14.688152375801785, 47.761528696547202 ], [ 14.688677495635652, 47.761796245581905 ], [ 14.689012340068839, 47.761966781173136 ], [ 14.68945042994935, 47.762341530062464 ], [ 14.689714157236512, 47.762682427521518 ], [ 14.689677096577702, 47.76283340428779 ], [ 14.689753713808695, 47.76299366048579 ], [ 14.689986670543947, 47.763120221848951 ], [ 14.690537161584684, 47.763351290921335 ], [ 14.690623446797192, 47.763647575895455 ], [ 14.690654456720614, 47.763752399850873 ], [ 14.690709250092645, 47.763765611522338 ], [ 14.690813200739028, 47.763790841449584 ], [ 14.691104364684763, 47.763861285587602 ], [ 14.691377030147649, 47.763969739642832 ], [ 14.691535976288893, 47.764149720062399 ], [ 14.691637892343698, 47.764364026091251 ], [ 14.691697788246101, 47.76458935543215 ], [ 14.691960383335326, 47.764741568308665 ], [ 14.69215368662978, 47.764913314240076 ], [ 14.692136542716296, 47.765111567515184 ], [ 14.692118166397364, 47.765324052515773 ], [ 14.692194888869089, 47.765606231894154 ], [ 14.692364305257792, 47.765829369173808 ], [ 14.692795898897707, 47.765833455200372 ], [ 14.693083771034329, 47.765874239149234 ], [ 14.693335141810367, 47.765963863774637 ], [ 14.693779773759111, 47.766264283948892 ], [ 14.694168395716126, 47.76650462599342 ], [ 14.694594724800933, 47.766465126108045 ], [ 14.694766150121724, 47.766323537845999 ], [ 14.694895959814279, 47.766100827174398 ], [ 14.694855379902449, 47.765910634180649 ], [ 14.694955659555831, 47.765814967541814 ], [ 14.695299703174186, 47.765757541188876 ], [ 14.695399295363424, 47.765707323366598 ], [ 14.695742245763254, 47.765428372005289 ], [ 14.695961888017445, 47.765462847032417 ], [ 14.696271030429857, 47.765428596082856 ], [ 14.696404031090809, 47.765487760632183 ], [ 14.696561810058112, 47.765452870179352 ], [ 14.696745640480703, 47.765372859965211 ], [ 14.696911618293937, 47.76532995354264 ], [ 14.697106787819612, 47.765326653498633 ], [ 14.697178023049872, 47.765325360287001 ], [ 14.697358856082312, 47.765340405984581 ], [ 14.69773623839181, 47.76537948860603 ], [ 14.698477468076909, 47.76540427100236 ], [ 14.698686744702147, 47.765297051370112 ], [ 14.698752956490308, 47.765292487369805 ], [ 14.699349839178895, 47.7653042177675 ], [ 14.699438898763173, 47.765229016177102 ], [ 14.699485642777924, 47.765015383411217 ], [ 14.699458798746939, 47.764932827897006 ], [ 14.699505876841542, 47.764854794715099 ], [ 14.699548326998926, 47.764773307078549 ], [ 14.699585686770101, 47.764737140974376 ], [ 14.699695668978064, 47.764635236176893 ], [ 14.699853349378555, 47.76456605899952 ], [ 14.700069461602773, 47.764337459287098 ], [ 14.700133900059861, 47.764183184652829 ], [ 14.700118598397033, 47.763995752700225 ], [ 14.69996341338573, 47.763700201622335 ], [ 14.69993959592518, 47.763682487669051 ], [ 14.699868274709718, 47.763629254241877 ], [ 14.700041290741218, 47.763416552703752 ], [ 14.700435084576801, 47.763251441297406 ], [ 14.70059240092078, 47.763066279869911 ], [ 14.700966369724824, 47.762428363651765 ], [ 14.701078040872464, 47.76217679634707 ], [ 14.701674282551295, 47.76201719509784 ], [ 14.701881143485187, 47.761940862053358 ], [ 14.702008031676829, 47.761888784322693 ], [ 14.702397765329946, 47.76177833360979 ], [ 14.702682602251944, 47.761718888906415 ], [ 14.702801859075217, 47.76168633724015 ], [ 14.70300608294659, 47.761550105067357 ], [ 14.703124932153186, 47.761501990912961 ], [ 14.703441167008783, 47.761372614377379 ], [ 14.703456218186862, 47.761366406524672 ], [ 14.703958090581548, 47.761354587314621 ], [ 14.704420321230494, 47.761388409038531 ], [ 14.704767022357771, 47.761474714532532 ], [ 14.705066977297639, 47.761523872921899 ], [ 14.705345487993252, 47.761569506674469 ], [ 14.705572531087451, 47.761606664617567 ], [ 14.70595342596037, 47.761653236822468 ], [ 14.7063246636475, 47.761672478162509 ], [ 14.706656514811785, 47.761635048866175 ], [ 14.707045721605768, 47.761667751030799 ], [ 14.707241214308976, 47.761677297322386 ], [ 14.708185281329571, 47.761825393198897 ], [ 14.708550089785309, 47.761935136754381 ], [ 14.708682730316815, 47.76186858568844 ], [ 14.708997775126777, 47.761856905394197 ], [ 14.709371534460553, 47.761860269874298 ], [ 14.709605721168126, 47.761783146491183 ], [ 14.709854113978427, 47.761677868234592 ], [ 14.710016365003121, 47.761742786498587 ], [ 14.710057023980696, 47.761842631348415 ], [ 14.710122902537663, 47.761906811549956 ], [ 14.710248081510482, 47.761891548020436 ], [ 14.710381000282519, 47.76184073862823 ], [ 14.710454636192136, 47.761753294952918 ], [ 14.710801013841147, 47.761603561506732 ], [ 14.710947171713777, 47.761609642210374 ], [ 14.711176398248721, 47.761445561560969 ], [ 14.711869426657596, 47.761486400806255 ], [ 14.712126896493372, 47.761401704990824 ], [ 14.712269081081002, 47.761201141067161 ], [ 14.712859622301702, 47.760988909653292 ], [ 14.712927773431526, 47.760733981970155 ], [ 14.713205398433331, 47.760497691139172 ], [ 14.713263649561842, 47.760414119147157 ], [ 14.71337143311837, 47.76031114730548 ], [ 14.713508476093688, 47.760093006662785 ], [ 14.713642367119741, 47.760054059482009 ], [ 14.713830287374343, 47.759999257547939 ], [ 14.714379217537903, 47.759550861730084 ], [ 14.714577158371625, 47.75948649019724 ], [ 14.714706012528803, 47.759322435931082 ], [ 14.714891406210969, 47.759268112425055 ], [ 14.715155021220747, 47.759057809738856 ], [ 14.715209074550582, 47.759002451686939 ], [ 14.715395406122239, 47.758811791964021 ], [ 14.715472733716481, 47.758621989978423 ], [ 14.71557349501056, 47.758556623077908 ], [ 14.71559383305436, 47.75854351146414 ], [ 14.715622809523481, 47.758523997378369 ], [ 14.715659785871194, 47.758499168271918 ], [ 14.71588838729792, 47.758489406033526 ], [ 14.715874201180096, 47.758406971959396 ], [ 14.716299847469724, 47.758091961078485 ], [ 14.716348562362601, 47.757976018028792 ], [ 14.716448787694036, 47.757814644931344 ], [ 14.716655850274075, 47.757580632229882 ], [ 14.716704901563549, 47.757507786808382 ], [ 14.716728995226811, 47.757465115459432 ], [ 14.71677239263469, 47.757299475464983 ], [ 14.717190075138973, 47.757067431030386 ], [ 14.717580683429562, 47.756972394592722 ], [ 14.717689312953423, 47.756790943078151 ], [ 14.718242653229822, 47.756501744669116 ], [ 14.718893647564359, 47.756161428257556 ], [ 14.720321829009622, 47.756054706401279 ], [ 14.720642250679518, 47.756030781339966 ], [ 14.721742494835871, 47.755981801034295 ], [ 14.721870111961287, 47.755958486758992 ], [ 14.723202571918987, 47.755714668815578 ], [ 14.725155213235952, 47.754385164005036 ], [ 14.725368191694011, 47.754240146731057 ], [ 14.726827199785774, 47.753498948673048 ], [ 14.727027151723677, 47.753496529349327 ], [ 14.728564345710842, 47.752861982569222 ], [ 14.730114172123224, 47.752522407003859 ], [ 14.731053104922017, 47.75231665220749 ], [ 14.733176344969692, 47.750987185473015 ], [ 14.734874307423718, 47.749923896259162 ], [ 14.735125341502973, 47.749766699261428 ], [ 14.735668083382539, 47.749426792871652 ], [ 14.735632885100852, 47.749328059572157 ], [ 14.733655044797159, 47.747711635096678 ], [ 14.733242440241494, 47.747374353916101 ], [ 14.733243948606917, 47.747271034460205 ], [ 14.733259551483995, 47.746297222600518 ], [ 14.733269803684301, 47.745647416487913 ], [ 14.733273718248073, 47.745644129491374 ], [ 14.733700967491611, 47.745287008974636 ], [ 14.73430529453664, 47.7447819591669 ], [ 14.734357622725481, 47.744738220388491 ], [ 14.734937141393837, 47.744253805171866 ], [ 14.735429484937242, 47.743842345255764 ], [ 14.735989150768795, 47.74337454315296 ], [ 14.736651110299659, 47.742821356821821 ], [ 14.737459711382025, 47.74214535029153 ], [ 14.737646300018957, 47.742049131896778 ], [ 14.737857229285394, 47.741940288529108 ], [ 14.737873151274494, 47.741932085769577 ], [ 14.738160531914378, 47.741783886231374 ], [ 14.739578332151289, 47.741052738969721 ], [ 14.739949519382883, 47.740861308894075 ], [ 14.74021386477372, 47.740725083338155 ], [ 14.74024320488528, 47.740709877525141 ], [ 14.741023199271956, 47.74030765518841 ], [ 14.742696302575981, 47.739444759865179 ], [ 14.744653537877676, 47.738435282597528 ], [ 14.746112861169177, 47.737682486861488 ], [ 14.746379671752333, 47.737544866648726 ], [ 14.746485317174457, 47.737490389525938 ], [ 14.747488472229907, 47.736972902700089 ], [ 14.748212272122428, 47.736854950016763 ], [ 14.753128190966988, 47.736054046789654 ], [ 14.754502033142399, 47.735830133747179 ], [ 14.754576270111254, 47.735818059358017 ], [ 14.754581184333446, 47.735817278823724 ], [ 14.754625805039611, 47.735809979205264 ], [ 14.754665380609593, 47.735803551707782 ], [ 14.754831249250197, 47.735776488386811 ], [ 14.75485130125927, 47.735773181357743 ], [ 14.755130450958957, 47.735727711930458 ], [ 14.756381528934059, 47.734996790821143 ], [ 14.756646234531292, 47.734842075231548 ], [ 14.757881252205815, 47.734120514096098 ], [ 14.758417077449822, 47.733807306354613 ], [ 14.759978482959847, 47.731990170200945 ], [ 14.760379904735682, 47.731523034993259 ], [ 14.7603917965909, 47.731509119965644 ], [ 14.760396192736724, 47.731504026343217 ], [ 14.760428511836192, 47.731466372157918 ], [ 14.760874009687216, 47.730947937446814 ], [ 14.760890941934276, 47.730928110870821 ], [ 14.761131656690736, 47.730647973520043 ], [ 14.761260805059939, 47.730497717335687 ], [ 14.761307212273769, 47.730443600943765 ], [ 14.761548698043413, 47.730162553224552 ], [ 14.761590454350241, 47.730113983460924 ], [ 14.76196379060074, 47.729679315078506 ], [ 14.762795382539188, 47.728711466606015 ], [ 14.762803786184248, 47.728701733907698 ], [ 14.763058181049676, 47.72840558496852 ], [ 14.764254891795071, 47.727012691717817 ], [ 14.76404055842838, 47.72692429120395 ], [ 14.76391484424459, 47.726872402642627 ], [ 14.762740417768351, 47.726388296458339 ], [ 14.761334958623429, 47.725808691480573 ], [ 14.754653130899248, 47.72305336340964 ], [ 14.754706240713894, 47.722543215129534 ], [ 14.754747173298746, 47.722149567159228 ], [ 14.754764832451743, 47.721979548224347 ], [ 14.754951021629545, 47.720190964831048 ], [ 14.75507337823114, 47.719013894466819 ], [ 14.755174715134901, 47.718040358583757 ], [ 14.755467229032398, 47.715227602538953 ], [ 14.755677095016273, 47.713536985284193 ], [ 14.755900615122895, 47.711735876648845 ], [ 14.755728693050338, 47.711168487789813 ], [ 14.755537574982043, 47.710537176691993 ], [ 14.755368437068618, 47.709978751306949 ], [ 14.755345009168316, 47.70990147387176 ], [ 14.755161530924356, 47.709295893320977 ], [ 14.755086259228442, 47.709047205331693 ], [ 14.754998246749347, 47.70875638180604 ], [ 14.754065969784936, 47.70567790500494 ], [ 14.753843347360279, 47.705589678678756 ], [ 14.753120228844221, 47.705302912711147 ], [ 14.751339014750805, 47.704596538857729 ], [ 14.750228507466561, 47.704156064885176 ], [ 14.74842877470237, 47.703442226091894 ], [ 14.745425155925215, 47.70225092345401 ], [ 14.745220346568127, 47.702169660912851 ], [ 14.742625589242961, 47.700502828552821 ], [ 14.742466891111082, 47.700400929817036 ], [ 14.742355935556708, 47.700329580947482 ], [ 14.742334099645962, 47.70031563075645 ], [ 14.742290140212033, 47.700277025697382 ], [ 14.74221600651833, 47.700211794676505 ], [ 14.742188293642254, 47.700187478188454 ], [ 14.741818190293531, 47.699862395199141 ], [ 14.741599911430333, 47.699834922156086 ], [ 14.741281923555697, 47.699713015075609 ], [ 14.740980967466946, 47.699500554070617 ], [ 14.741198217962502, 47.699345821716584 ], [ 14.740529681574897, 47.698782416989324 ], [ 14.739830200165132, 47.698192841272601 ], [ 14.739712920540446, 47.698094121878533 ], [ 14.737544350902665, 47.696266203896521 ], [ 14.736937411486844, 47.6962831484894 ], [ 14.728616958434051, 47.696515013926728 ], [ 14.723315462853185, 47.696662421481506 ], [ 14.720312052385424, 47.697331797824994 ], [ 14.71921103172355, 47.697577225152429 ], [ 14.71367618511753, 47.698409347954581 ], [ 14.71333749641469, 47.698460292557932 ], [ 14.712045666680563, 47.698654578440433 ], [ 14.712020307942415, 47.698658391694586 ], [ 14.7107009822197, 47.69885668118318 ], [ 14.70720140506066, 47.699601207907641 ], [ 14.704717034133397, 47.700008509046171 ], [ 14.703733678617095, 47.700196144136157 ], [ 14.7023928614091, 47.700452003207928 ], [ 14.701797385523523, 47.700215680556269 ], [ 14.700992237582355, 47.699887274270949 ], [ 14.700177609742084, 47.699547637094597 ], [ 14.696806842121417, 47.699634692888772 ], [ 14.695391082209834, 47.699602690223486 ], [ 14.695047917863477, 47.699600273280758 ], [ 14.692053157340071, 47.70010872204081 ], [ 14.691383006973016, 47.699812668853177 ], [ 14.690745360314468, 47.699530985697201 ], [ 14.689842424001437, 47.69911889130519 ], [ 14.687548221520391, 47.700870363469328 ], [ 14.687482073287859, 47.700920722965016 ], [ 14.687102854939125, 47.701102003169005 ], [ 14.686129640982447, 47.701566966858231 ], [ 14.684849641825563, 47.702231960015951 ], [ 14.684817940947953, 47.702248439419122 ], [ 14.684792948261762, 47.702261420648881 ], [ 14.68477217245146, 47.702277681736042 ], [ 14.684761853490741, 47.702285901451916 ], [ 14.684700178358916, 47.702334137121504 ], [ 14.68469038082886, 47.702341900788973 ], [ 14.684648174352802, 47.702374880528517 ], [ 14.684493361205947, 47.702497096522521 ], [ 14.684271130729734, 47.70267238427045 ], [ 14.68438810631635, 47.70273714871918 ], [ 14.684687278113168, 47.702961113880932 ], [ 14.685174549178404, 47.703324862560549 ], [ 14.685555530049211, 47.703634878428801 ], [ 14.685763696892899, 47.704025479965125 ], [ 14.6858553254892, 47.704409712405194 ], [ 14.685992245048265, 47.704746081031892 ], [ 14.686251527405403, 47.705309119072759 ], [ 14.686244897029464, 47.705382803532757 ], [ 14.686189361877764, 47.706004882466843 ], [ 14.685828770854338, 47.706480904599758 ], [ 14.685588137113008, 47.706640933723705 ], [ 14.685037957264315, 47.706553095067825 ], [ 14.684543518590296, 47.706362378096024 ], [ 14.683818372388901, 47.706023554609963 ], [ 14.68336498778643, 47.705619989933432 ], [ 14.683171445622602, 47.70541898786184 ], [ 14.683065568384269, 47.705309100266682 ], [ 14.682532052480227, 47.704961542137312 ], [ 14.682002923115414, 47.704779049771489 ], [ 14.681488494473504, 47.704722269579896 ], [ 14.680958281291545, 47.704948579794404 ], [ 14.680314686671929, 47.705302101531196 ], [ 14.68015196641873, 47.70545454837228 ], [ 14.679643230638295, 47.705931114629735 ], [ 14.679334667328472, 47.70633811967965 ], [ 14.67906535234887, 47.706742235271683 ], [ 14.678929377191622, 47.707080003052383 ], [ 14.678877877858802, 47.70720829156371 ], [ 14.678808105541263, 47.707544025256169 ], [ 14.67881458827754, 47.70779662257393 ], [ 14.678953566735078, 47.708017256284911 ], [ 14.679141468762007, 47.708315603152663 ], [ 14.679415406152586, 47.708667563237192 ], [ 14.679622747383609, 47.709073751879409 ], [ 14.679764221482296, 47.709495108138491 ], [ 14.67984402167167, 47.709856177186566 ], [ 14.67981897642956, 47.709955541815788 ], [ 14.679724021977725, 47.710333322744575 ], [ 14.679660293548496, 47.710442318181471 ], [ 14.679465365972238, 47.710737853881518 ], [ 14.679062846878711, 47.711292898980332 ], [ 14.67903838917297, 47.711311361587072 ], [ 14.678763866128154, 47.711518833257522 ], [ 14.678426884848525, 47.711723974831408 ], [ 14.678098975601847, 47.711861881905392 ], [ 14.677409602321241, 47.71210839061844 ], [ 14.676826250414242, 47.71218970815714 ], [ 14.676097191920302, 47.712183369577389 ], [ 14.674979884707319, 47.712114425768434 ], [ 14.674297803315568, 47.712219287177767 ], [ 14.673375781403326, 47.71244607621724 ], [ 14.672829605407896, 47.712683421078978 ], [ 14.671946406534328, 47.713125795916547 ], [ 14.671535749831531, 47.713480785629798 ], [ 14.671066633379521, 47.714141855651654 ], [ 14.671004663853523, 47.714555777888577 ], [ 14.670927876379908, 47.715068313644942 ], [ 14.670815132179394, 47.715436304551311 ], [ 14.670790515932628, 47.71551667546116 ], [ 14.670733627106475, 47.715905163135275 ], [ 14.670815393975191, 47.716298338343442 ], [ 14.670839543048617, 47.716392989731723 ], [ 14.670888271192053, 47.716583457270971 ], [ 14.671100970359721, 47.717038998464176 ], [ 14.671267910008726, 47.717488232490687 ], [ 14.671286354233176, 47.71796006857678 ], [ 14.671356918041587, 47.718107360195447 ], [ 14.671363432783341, 47.718362566028347 ], [ 14.671249123528673, 47.718653729806846 ], [ 14.671150474126943, 47.718847979794553 ], [ 14.671055819539882, 47.719005470226392 ], [ 14.671035418095443, 47.719052498445144 ], [ 14.670914767035532, 47.71933041804057 ], [ 14.670827866497151, 47.719530560012053 ], [ 14.670546776513834, 47.719697864764456 ], [ 14.670298549553255, 47.719914637599551 ], [ 14.669958768176876, 47.720185922889328 ], [ 14.669781853596197, 47.720229189308853 ], [ 14.669477629345664, 47.720247748354836 ], [ 14.669382367008488, 47.720256142753705 ], [ 14.668957801453761, 47.720293193948663 ], [ 14.668128464843859, 47.720338267573617 ], [ 14.666726851389747, 47.720317169986266 ], [ 14.665535307338171, 47.720166748499395 ], [ 14.664763034343027, 47.719854535737731 ], [ 14.664061867493089, 47.719133603971798 ], [ 14.663737372940739, 47.718799919786292 ], [ 14.6632405775006, 47.717892335965722 ], [ 14.662533165934329, 47.717312380277761 ], [ 14.662194236878772, 47.71703437790935 ], [ 14.661488582483846, 47.7167333422422 ], [ 14.660575024552038, 47.716672974323359 ], [ 14.659567486097652, 47.716708253998128 ], [ 14.65827698273324, 47.716958961802078 ], [ 14.656616956624354, 47.717192668144691 ], [ 14.655819248756046, 47.717221363016762 ], [ 14.654988422919926, 47.71713705454323 ], [ 14.654490679273055, 47.717021022604634 ], [ 14.654193210512334, 47.716910248855001 ], [ 14.653659114681309, 47.716711306644569 ], [ 14.652528788347603, 47.716127503190542 ], [ 14.651644879463239, 47.714779883677657 ], [ 14.650806763127264, 47.713501829727356 ], [ 14.649520100368006, 47.712666665938841 ], [ 14.648697676546663, 47.712398472358423 ], [ 14.647599525102214, 47.71241668729489 ], [ 14.645763133834201, 47.712924359631415 ], [ 14.644597911436557, 47.713246551702035 ], [ 14.643077242652051, 47.713633695582629 ], [ 14.637449276454181, 47.713284947085462 ], [ 14.637449273544824, 47.713284830141347 ], [ 14.637321577362329, 47.712970969852563 ], [ 14.637321077379484, 47.712970165676275 ], [ 14.637294548743677, 47.712927427688008 ], [ 14.637197823614148, 47.712941517023012 ], [ 14.637174655301695, 47.712944892894278 ], [ 14.637068579320099, 47.712934675841538 ], [ 14.636950434531036, 47.713228870751657 ], [ 14.636270932317755, 47.713204891825988 ], [ 14.635404192496946, 47.713270310273572 ], [ 14.634478823111133, 47.713552072619514 ], [ 14.634111103445679, 47.713836884118237 ], [ 14.634025859287627, 47.713899485417784 ], [ 14.633810952117292, 47.71407764941749 ], [ 14.633521630625708, 47.714588508283953 ], [ 14.633500848488135, 47.7149870045304 ], [ 14.633412819163917, 47.715227711661662 ], [ 14.633322130397454, 47.715517129132678 ], [ 14.633111415756773, 47.715810961447083 ], [ 14.63296138130084, 47.715976333396199 ], [ 14.632916365681295, 47.716150507383333 ], [ 14.632951381448816, 47.716293633630542 ], [ 14.632912045683502, 47.716761445385671 ], [ 14.632928989286869, 47.717003846082264 ], [ 14.63283865254351, 47.717130211277791 ], [ 14.63303083769112, 47.717750448040128 ], [ 14.633195624152146, 47.718453957434392 ], [ 14.633218057331936, 47.718761713050696 ], [ 14.633229380299404, 47.719487111318756 ], [ 14.633212850188098, 47.719573320935702 ], [ 14.633151758622766, 47.71969080767407 ], [ 14.633116509681246, 47.719909412422069 ], [ 14.633135859757925, 47.720377820869267 ], [ 14.633178810624008, 47.720781625531686 ], [ 14.633252593775492, 47.721154308067469 ], [ 14.633268527441002, 47.721334362295565 ], [ 14.633277778897686, 47.721804144376378 ], [ 14.633273985892259, 47.722016814913296 ], [ 14.633420915857169, 47.722489001199101 ], [ 14.633783216592278, 47.722934459145151 ], [ 14.633939661825126, 47.723161066125499 ], [ 14.634040639554371, 47.723366434030481 ], [ 14.634262408848722, 47.723726465699521 ], [ 14.634447959564074, 47.723970379543715 ], [ 14.634563940318611, 47.724097742912605 ], [ 14.634877324053129, 47.72435541794303 ], [ 14.635066796850587, 47.72443488920868 ], [ 14.635258621007324, 47.724576781137721 ], [ 14.635990653367314, 47.725071859305721 ], [ 14.636417175421338, 47.725261303202991 ], [ 14.637092110186041, 47.725476006764033 ], [ 14.637588853338336, 47.725555592750581 ], [ 14.637749587709688, 47.725562409790577 ], [ 14.638542967404168, 47.725627652160739 ], [ 14.63890980103141, 47.725626101776548 ], [ 14.639983425948436, 47.72530303189378 ], [ 14.640370422061599, 47.725291889821023 ], [ 14.640621129700035, 47.725452000648659 ], [ 14.64086117816322, 47.725542945745147 ], [ 14.641197467265933, 47.725594644520321 ], [ 14.641850640501458, 47.72573263291828 ], [ 14.64195923775763, 47.725771710456776 ], [ 14.642391863024026, 47.725852004707242 ], [ 14.643260567759578, 47.726123947035148 ], [ 14.643463521446606, 47.726160419736566 ], [ 14.643703327848499, 47.726188014265851 ], [ 14.643735293316229, 47.72619169959696 ], [ 14.643844275670565, 47.726203416404253 ], [ 14.644162127788666, 47.726237500006128 ], [ 14.644858647273946, 47.726396303699062 ], [ 14.645171439512485, 47.726531852157194 ], [ 14.645477257268199, 47.726671078566845 ], [ 14.645619281510701, 47.726756022550497 ], [ 14.645753374896961, 47.72704081733842 ], [ 14.645797715629591, 47.727219106508258 ], [ 14.645744410009472, 47.727513596176827 ], [ 14.645365313181591, 47.728021997762085 ], [ 14.645078694899077, 47.728346410459309 ], [ 14.644984928062211, 47.72845257804159 ], [ 14.644736790732958, 47.728721392284903 ], [ 14.64461761354244, 47.728936727424774 ], [ 14.644367579932648, 47.729385796649289 ], [ 14.644184531848719, 47.729767065833563 ], [ 14.644103446792005, 47.730129807241234 ], [ 14.644189774871586, 47.730483173934644 ], [ 14.644327873653156, 47.730906676968772 ], [ 14.644460603380896, 47.731435340070611 ], [ 14.64457605521773, 47.731678506587059 ], [ 14.644822551787527, 47.732041656107519 ], [ 14.645083537954871, 47.732408059338582 ], [ 14.64517698937445, 47.732624661249076 ], [ 14.645289375859781, 47.732841047311105 ], [ 14.645449543531589, 47.733149210352842 ], [ 14.645569789970418, 47.733370455577024 ], [ 14.645875141004092, 47.733830202686185 ], [ 14.64611705508972, 47.734355729377633 ], [ 14.646308801008926, 47.734630237787279 ], [ 14.646418924353744, 47.734787890257387 ], [ 14.646842922428529, 47.735233774127089 ], [ 14.647132272064756, 47.73554388034411 ], [ 14.647462125897484, 47.735921190078002 ], [ 14.64769402689782, 47.736142238467551 ], [ 14.648012202101283, 47.736495024889223 ], [ 14.648262645223934, 47.736737186190744 ], [ 14.648317031065776, 47.736836715116986 ], [ 14.648510155637375, 47.737032469878081 ], [ 14.648750265036373, 47.73729850344327 ], [ 14.648984746807274, 47.737558122113477 ], [ 14.649142420382852, 47.737770837608416 ], [ 14.649266102944354, 47.738064115385704 ], [ 14.649373726448523, 47.738259676098266 ], [ 14.64945665988169, 47.738454709089005 ], [ 14.649496559897623, 47.738842975470568 ], [ 14.649457478377444, 47.73909267244504 ], [ 14.649873019787851, 47.739098719836328 ], [ 14.649889192015962, 47.739099974638478 ], [ 14.649883498447821, 47.739133513059755 ], [ 14.649880578201808, 47.739150013163965 ], [ 14.649989351585591, 47.739173514480591 ], [ 14.650006653985431, 47.739177275840653 ], [ 14.650118720722794, 47.739204428641102 ], [ 14.650254599550212, 47.739228969462673 ], [ 14.650388227277396, 47.739254165748235 ], [ 14.650492539356746, 47.739280597049166 ], [ 14.650690211762393, 47.73940718999156 ], [ 14.650941188335793, 47.739584642394867 ], [ 14.651202653489541, 47.739813084029329 ], [ 14.651741450951768, 47.739771103284738 ], [ 14.652071070432108, 47.73972332748621 ], [ 14.652261512639086, 47.739647270959154 ], [ 14.652447696731375, 47.739587549648505 ], [ 14.652673524860418, 47.739592430849989 ], [ 14.652860567444666, 47.739614492752295 ], [ 14.653381480349713, 47.739836986682192 ], [ 14.653544645150147, 47.739906651805811 ], [ 14.653710515794305, 47.740004270108678 ], [ 14.653756642351944, 47.74004018392332 ], [ 14.653849643660077, 47.740109933329705 ], [ 14.653984253494487, 47.740184514396674 ], [ 14.653989243451157, 47.740202543568635 ], [ 14.654148274180248, 47.740303928969112 ], [ 14.654278304009642, 47.740387290499136 ], [ 14.6545705561321, 47.740449894376688 ], [ 14.654790696596041, 47.740525292728158 ], [ 14.654908843513107, 47.740565868460891 ], [ 14.655274595735635, 47.740669018749024 ], [ 14.655396925459707, 47.740703517165656 ], [ 14.655645865905294, 47.74073492391048 ], [ 14.656066400211662, 47.740692472392588 ], [ 14.656548119882682, 47.740517294437566 ], [ 14.657258888501543, 47.740399994137931 ], [ 14.657331336567747, 47.740364616981594 ], [ 14.657412948971674, 47.74024953617063 ], [ 14.657535383744147, 47.740024801467847 ], [ 14.657534215486137, 47.740022385384115 ], [ 14.657588112891252, 47.739957671239679 ], [ 14.657677380076027, 47.739858384036928 ], [ 14.657847302582276, 47.73970966861868 ], [ 14.658081314769095, 47.739647768281941 ], [ 14.658331208813886, 47.739702769551123 ], [ 14.658469478715173, 47.739759927765611 ], [ 14.659032604752506, 47.739903626094637 ], [ 14.659536764502663, 47.739983240656706 ], [ 14.659852383093366, 47.739988585317086 ], [ 14.660166790177634, 47.739930811539843 ], [ 14.660396934570239, 47.739863210183813 ], [ 14.660458167211424, 47.739822804298058 ], [ 14.660505255580199, 47.7397917125992 ], [ 14.66069982532953, 47.739766884291789 ], [ 14.660810721375304, 47.73978493405621 ], [ 14.661088905869102, 47.739830200083979 ], [ 14.661473753415049, 47.739936457939315 ], [ 14.661644410521312, 47.740014438638156 ], [ 14.66183889972533, 47.740064807518017 ], [ 14.661927689891272, 47.74009588874258 ], [ 14.662098707182134, 47.740182763869235 ], [ 14.662132682171869, 47.740192179870348 ], [ 14.662323237491004, 47.740203640016077 ], [ 14.662412078933377, 47.740218316512546 ], [ 14.662447899385018, 47.740224228806561 ], [ 14.662738722358894, 47.740251168585786 ], [ 14.662843499242122, 47.740333957320622 ], [ 14.662946056199557, 47.740517965662896 ], [ 14.663076239720452, 47.740692998589211 ], [ 14.663129340216235, 47.740724841975208 ], [ 14.663224612432527, 47.740742664955356 ], [ 14.663230898511864, 47.740743834110503 ], [ 14.663705466772255, 47.740770709785188 ], [ 14.663963916323926, 47.740798650408088 ], [ 14.664164165034396, 47.74103459131711 ], [ 14.664368623688247, 47.741275495235158 ], [ 14.664654379252607, 47.741411952280252 ], [ 14.66480847811691, 47.741409639651089 ], [ 14.664865378363311, 47.74140878374152 ], [ 14.66517439820035, 47.741411310794305 ], [ 14.665444483867752, 47.741440283321317 ], [ 14.665670674750917, 47.741599103674439 ], [ 14.665744831742421, 47.741642615900098 ], [ 14.665798937925196, 47.74166983934709 ], [ 14.665993399351535, 47.741788462209314 ], [ 14.666234879801026, 47.741877485216342 ], [ 14.666417942114556, 47.741918710563048 ], [ 14.666604344623412, 47.741861051373242 ], [ 14.666607820822048, 47.741854541395611 ], [ 14.666617465218581, 47.741852423122168 ], [ 14.66679686198839, 47.741734421600732 ], [ 14.666833528039898, 47.741698022063332 ], [ 14.666930064784427, 47.741697794907466 ], [ 14.66720753525863, 47.741746356937306 ], [ 14.667402288679064, 47.741780435673981 ], [ 14.667461140816421, 47.741790731679231 ], [ 14.667462839562297, 47.741795625033269 ], [ 14.667502056731458, 47.741805464639363 ], [ 14.667933059656205, 47.741960305762966 ], [ 14.667963513874071, 47.741971245579862 ], [ 14.668428497927483, 47.742196264177345 ], [ 14.668477795999626, 47.742481260561995 ], [ 14.668477876090853, 47.742650867344132 ], [ 14.668477912731845, 47.742715645203297 ], [ 14.668534827544011, 47.742810573524778 ], [ 14.668695002900522, 47.742924028546305 ], [ 14.669213314650161, 47.743101202908335 ], [ 14.669404068954917, 47.743226692787779 ], [ 14.669485475856742, 47.743286441330874 ], [ 14.669592550258358, 47.743365022219805 ], [ 14.669629188811875, 47.743391906699792 ], [ 14.669777575721586, 47.743620431490861 ], [ 14.66987218439918, 47.743690383519386 ], [ 14.670078837935, 47.74375182730347 ], [ 14.670331982621082, 47.743741069008692 ], [ 14.670454730159955, 47.743735846541774 ], [ 14.670456777375177, 47.743735039924168 ], [ 14.670569168070354, 47.743778249118741 ], [ 14.67065676737584, 47.743840615414832 ], [ 14.670710079131711, 47.743860044352012 ], [ 14.670847720775951, 47.743885350473803 ], [ 14.670861449634186, 47.743890625949014 ], [ 14.670953769750497, 47.743969098023101 ], [ 14.671125494982082, 47.74429418904846 ], [ 14.671252560355109, 47.744401051595879 ], [ 14.671295109267403, 47.744434156655949 ], [ 14.671367631115375, 47.74448538681991 ], [ 14.671561711846449, 47.744576182346719 ] ] ] } },
{ "type": "Feature", "properties": { "name": "Altenmarkt bei Sankt Gallen", "feature_type": "circle", "metric_roundness": 55.84, "metric_rectangularity": 66.34, "metric_mobile_fit": 30.41, "metric_aspect_ratio": 1.258, "metric_area_km2": 95.14 }, "geometry": { "type": "Polygon", "coordinates": [ [ [ 14.76465825200772, 47.722105397629896 ], [ 14.764567570663266, 47.719775704470585 ], [ 14.764295775181166, 47.717452293085501 ], [ 14.763843610533943, 47.715141533062067 ], [ 14.763212316073465, 47.712849760148437 ], [ 14.762403622133972, 47.710583258864425 ], [ 14.761419745289336, 47.708348245244032 ], [ 14.760263382277598, 47.706150849757044 ], [ 14.758937702609401, 47.703997100457094 ], [ 14.757446339880563, 47.701892906402755 ], [ 14.755793381812664, 47.699844041397945 ], [ 14.753983359048874, 47.69785612809671 ], [ 14.752021232735773, 47.695934622516752 ], [ 14.749912380925197, 47.694084799005054 ], [ 14.747662583833376, 47.69231173569765 ], [ 14.745278007997763, 47.690620300514254 ], [ 14.742765189374966, 47.68901513772709 ], [ 14.740131015426169, 47.687500655141875 ], [ 14.737382706239066, 47.686081011926767 ], [ 14.734527794738105, 47.684760107123935 ], [ 14.731574106037272, 47.683541568876002 ], [ 14.728529735991982, 47.682428744397839 ], [ 14.725403029008923, 47.681424690722331 ], [ 14.722202555174597, 47.680532166246053 ], [ 14.718937086765321, 47.679753623099067 ], [ 14.71561557420303, 47.679091200360439 ], [ 14.712247121522779, 47.678546718138804 ], [ 14.708840961419224, 47.678121672534722 ], [ 14.705406429940449, 47.67781723149934 ], [ 14.701952940898511, 47.677634231600926 ], [ 14.698489960066823, 47.677573175708808 ], [ 14.695026979235132, 47.677634231600926 ], [ 14.691573490193194, 47.67781723149934 ], [ 14.688138958714422, 47.678121672534722 ], [ 14.684732798610865, 47.678546718138804 ], [ 14.681364345930614, 47.679091200360439 ], [ 14.678042833368323, 47.679753623099067 ], [ 14.674777364959047, 47.680532166246053 ], [ 14.671576891124724, 47.681424690722331 ], [ 14.668450184141662, 47.682428744397839 ], [ 14.665405814096372, 47.683541568876002 ], [ 14.662452125395539, 47.684760107123935 ], [ 14.65959721389458, 47.686081011926767 ], [ 14.656848904707477, 47.687500655141875 ], [ 14.654214730758678, 47.68901513772709 ], [ 14.651701912135881, 47.690620300514254 ], [ 14.649317336300266, 47.69231173569765 ], [ 14.647067539208447, 47.694084799005054 ], [ 14.644958687397871, 47.695934622516752 ], [ 14.64299656108477, 47.69785612809671 ], [ 14.641186538320978, 47.699844041397945 ], [ 14.639533580253081, 47.701892906402755 ], [ 14.638042217524246, 47.703997100457094 ], [ 14.636716537856049, 47.706150849757044 ], [ 14.635560174844311, 47.708348245244032 ], [ 14.634576297999672, 47.710583258864425 ], [ 14.633767604060179, 47.712849760148437 ], [ 14.633136309599701, 47.715141533062067 ], [ 14.632684144952478, 47.717452293085501 ], [ 14.632412349470377, 47.719775704470585 ], [ 14.632321668125924, 47.722105397629896 ], [ 14.632412349470377, 47.724434986609289 ], [ 14.632684144952478, 47.726758086596028 ], [ 14.633136309599701, 47.729068331414418 ], [ 14.633767604060179, 47.731359390961032 ], [ 14.634576297999672, 47.733624988531844 ], [ 14.635560174844311, 47.735858917994122 ], [ 14.636716537856049, 47.738055060756359 ], [ 14.638042217524246, 47.74020740249005 ], [ 14.639533580253081, 47.742310049558206 ], [ 14.641186538320978, 47.744357245106016 ], [ 14.64299656108477, 47.74634338477037 ], [ 14.644958687397871, 47.748263031965912 ], [ 14.647067539208447, 47.750110932706491 ], [ 14.649317336300266, 47.751882029922378 ], [ 14.651701912135881, 47.753571477234772 ], [ 14.654214730758678, 47.75517465215097 ], [ 14.656848904707477, 47.756687168644795 ], [ 14.65959721389458, 47.758104889088976 ], [ 14.662452125395539, 47.759423935507634 ], [ 14.665405814096372, 47.760640700118998 ], [ 14.668450184141662, 47.76175185514051 ], [ 14.671576891124724, 47.762754361830211 ], [ 14.674777364959047, 47.7636454787406 ], [ 14.678042833368323, 47.764422769163211 ], [ 14.681364345930614, 47.765084107744073 ], [ 14.684732798610865, 47.765627686252813 ], [ 14.688138958714422, 47.766052018490115 ], [ 14.691573490193194, 47.766355944320665 ], [ 14.695026979235132, 47.766538632820833 ], [ 14.698489960066823, 47.766599584533068 ], [ 14.701952940898511, 47.766538632820833 ], [ 14.705406429940449, 47.766355944320665 ], [ 14.708840961419224, 47.766052018490115 ], [ 14.712247121522779, 47.765627686252813 ], [ 14.71561557420303, 47.765084107744073 ], [ 14.718937086765321, 47.764422769163211 ], [ 14.722202555174597, 47.7636454787406 ], [ 14.725403029008923, 47.762754361830211 ], [ 14.728529735991982, 47.76175185514051 ], [ 14.731574106037272, 47.760640700118998 ], [ 14.734527794738105, 47.759423935507634 ], [ 14.737382706239066, 47.758104889088976 ], [ 14.740131015426169, 47.756687168644795 ], [ 14.742765189374966, 47.75517465215097 ], [ 14.745278007997763, 47.753571477234772 ], [ 14.747662583833376, 47.751882029922378 ], [ 14.749912380925197, 47.750110932706491 ], [ 14.752021232735773, 47.748263031965912 ], [ 14.753983359048874, 47.74634338477037 ], [ 14.755793381812664, 47.744357245106016 ], [ 14.757446339880563, 47.742310049558206 ], [ 14.758937702609401, 47.74020740249005 ], [ 14.760263382277598, 47.738055060756359 ], [ 14.761419745289336, 47.735858917994122 ], [ 14.762403622133972, 47.733624988531844 ], [ 14.763212316073465, 47.731359390961032 ], [ 14.763843610533943, 47.729068331414418 ], [ 14.764295775181166, 47.726758086596028 ], [ 14.764567570663266, 47.724434986609289 ], [ 14.76465825200772, 47.722105397629896 ] ] ] } },
{ "type": "Feature", "properties": { "name": "Altenmarkt bei Sankt Gallen", "feature_type": "mrr", "metric_roundness": 55.84, "metric_rectangularity": 66.34, "metric_mobile_fit": 30.41, "metric_aspect_ratio": 1.258, "metric_area_km2": 95.14 }, "geometry": { "type": "Polygon", "coordinates": [ [ [ 14.742450448755832, 47.685439589660042 ], [ 14.629072554336624, 47.714915992435436 ], [ 14.663384053911493, 47.774642209433495 ], [ 14.776761948330705, 47.745199600716028 ], [ 14.742450448755832, 47.685439589660042 ] ] ] } }
]
}
