{
"type": "FeatureCollection",
"name": "scheuern",
"crs": { "type": "name", "properties": { "name": "urn:ogc:def:crs:OGC:1.3:CRS84" } },
"features": [
{ "type": "Feature", "properties": { "name": "Scheuern", "metric_roundness": 61.67, "metric_rectangularity": 65.94, "metric_mobile_fit": 69.56, "metric_aspect_ratio": 0.867, "metric_area_km2": 15.99 }, "geometry": { "type": "Polygon", "coordinates": [ [ [ 6.3213105, 50.0123941 ], [ 6.3205426, 50.0162071 ], [ 6.3283474, 50.0216388 ], [ 6.3354396, 50.021948 ], [ 6.3372785, 50.025492 ], [ 6.3343426, 50.032109099999985 ], [ 6.3245605, 50.0352998 ], [ 6.323683, 50.037845499999989 ], [ 6.3001785, 50.0384515 ], [ 6.299392, 50.035809 ], [ 6.297787, 50.033397499999978 ], [ 6.298338, 50.031291 ], [ 6.295057, 50.0282235 ], [ 6.3053892, 50.009848499999983 ], [ 6.3098417, 50.010479299999979 ], [ 6.3130096, 50.007159099999988 ], [ 6.3180155, 50.008575 ], [ 6.3213105, 50.0123941 ] ] ] } }
]
}
