{
"type": "FeatureCollection",
"name": "schirnding_m",
"crs": { "type": "name", "properties": { "name": "urn:ogc:def:crs:OGC:1.3:CRS84" } },
"features": [
{ "type": "Feature", "properties": { "name": "Schirnding, M", "metric_roundness": 42.8, "metric_rectangularity": 54.63, "metric_mobile_fit": 54.83, "metric_aspect_ratio": 1.014, "metric_area_km2": 41.23 }, "geometry": { "type": "Polygon", "coordinates": [ [ [ 12.18789, 50.0755623 ], [ 12.2115683, 50.0785585 ], [ 12.2180813, 50.0764456 ], [ 12.2342678, 50.059495399999982 ], [ 12.2270994, 50.052595 ], [ 12.2323182, 50.048363799999983 ], [ 12.2306654, 50.044715499999988 ], [ 12.244192, 50.038054 ], [ 12.2569834, 50.0493917 ], [ 12.260799, 50.058156499999981 ], [ 12.2611161, 50.0639557 ], [ 12.27226, 50.0763187 ], [ 12.246428, 50.092224 ], [ 12.2458219, 50.096730699999988 ], [ 12.240564, 50.09628 ], [ 12.2336, 50.0941485 ], [ 12.2272472, 50.0900204 ], [ 12.2016758, 50.087956 ], [ 12.179549, 50.0801065 ], [ 12.18789, 50.0755623 ] ] ] } }
]
}
