{
"type": "FeatureCollection",
"name": "schiefling_am_worthersee",
"crs": { "type": "name", "properties": { "name": "urn:ogc:def:crs:OGC:1.3:CRS84" } },
"features": [
{ "type": "Feature", "properties": { "name": "Schiefling am Wörthersee", "metric_roundness": 63.35, "metric_rectangularity": 60.76, "metric_mobile_fit": 64.02, "metric_aspect_ratio": 0.922, "metric_area_km2": 60.67 }, "geometry": { "type": "Polygon", "coordinates": [ [ [ 14.1360382, 46.6158386 ], [ 14.1304636, 46.6168688 ], [ 14.1147353, 46.6138238 ], [ 14.1051262, 46.6180611 ], [ 14.101152, 46.625192 ], [ 14.097792, 46.6244 ], [ 14.093013, 46.6232735 ], [ 14.090715, 46.622732 ], [ 14.077109, 46.6178485 ], [ 14.070002, 46.616165 ], [ 14.0762978, 46.612518799999989 ], [ 14.0761343, 46.605612099999988 ], [ 14.0793208, 46.6006091 ], [ 14.0603089, 46.598118699999986 ], [ 14.0500142, 46.5924886 ], [ 14.0914115, 46.55906 ], [ 14.1032328, 46.5644579 ], [ 14.1286165, 46.567186 ], [ 14.1282413, 46.576634699999985 ], [ 14.1324409, 46.583561099999983 ], [ 14.1243989, 46.591946199999981 ], [ 14.1309869, 46.596649299999989 ], [ 14.1290399, 46.602137 ], [ 14.1387685, 46.611374 ], [ 14.1360382, 46.6158386 ] ] ] } }
]
}
