{
"type": "FeatureCollection",
"name": "schondra_m",
"crs": { "type": "name", "properties": { "name": "urn:ogc:def:crs:OGC:1.3:CRS84" } },
"features": [
{ "type": "Feature", "properties": { "name": "Schondra, M", "feature_type": "entity", "metric_roundness": 36.07, "metric_rectangularity": 42.41, "metric_mobile_fit": 63.47, "metric_aspect_ratio": 0.928, "metric_area_km2": 70.08 }, "geometry": { "type": "Polygon", "coordinates": [ [ [ 9.8690375, 50.2294847 ], [ 9.8762074, 50.224125699999988 ], [ 9.8888555, 50.2280479 ], [ 9.8994983, 50.220573799999976 ], [ 9.898967, 50.228155 ], [ 9.8762492, 50.2432427 ], [ 9.8782024, 50.248738699999983 ], [ 9.8802937, 50.2468528 ], [ 9.8934398, 50.248537499999983 ], [ 9.890961, 50.262718 ], [ 9.8960344, 50.266337 ], [ 9.8893268, 50.2685406 ], [ 9.8876246, 50.2743324 ], [ 9.8797458, 50.280548799999984 ], [ 9.8737144, 50.291899099999981 ], [ 9.8658155, 50.293435 ], [ 9.8549198, 50.297671399999984 ], [ 9.8458136, 50.2891562 ], [ 9.8395766, 50.287661799999988 ], [ 9.8342981, 50.27768829999998 ], [ 9.8298536, 50.274788699999988 ], [ 9.8311572, 50.268687 ], [ 9.8266948, 50.2638314 ], [ 9.8270938, 50.254597299999986 ], [ 9.8210963, 50.2511185 ], [ 9.8096409, 50.249917899999986 ], [ 9.806069, 50.245283 ], [ 9.791507, 50.239914099999986 ], [ 9.787616, 50.233554499999983 ], [ 9.7893665, 50.2291025 ], [ 9.8024915, 50.239659 ], [ 9.8207406, 50.2381521 ], [ 9.8341276, 50.240250599999989 ], [ 9.8350529, 50.2289472 ], [ 9.8402669, 50.231288 ], [ 9.8447441, 50.2270235 ], [ 9.8466365, 50.2341899 ], [ 9.839611, 50.234375899999989 ], [ 9.8397238, 50.236755699999975 ], [ 9.8548289, 50.237275499999981 ], [ 9.8625872, 50.244044399999986 ], [ 9.8711805, 50.2469382 ], [ 9.8764648, 50.232072099999989 ], [ 9.8613544, 50.2298836 ], [ 9.847868, 50.222198 ], [ 9.8690375, 50.2294847 ] ] ] } },
{ "type": "Feature", "properties": { "name": "Schondra, M", "feature_type": "circle", "metric_roundness": 36.07, "metric_rectangularity": 42.41, "metric_mobile_fit": 63.47, "metric_aspect_ratio": 0.928, "metric_area_km2": 70.08 }, "geometry": { "type": "Polygon", "coordinates": [ [ [ 9.920354989660822, 50.252634912709119 ], [ 9.920258149793186, 50.250270233638012 ], [ 9.919967895621616, 50.247911919119296 ], [ 9.919485022712626, 50.245566434568183 ], [ 9.918810854587294, 50.243240211176939 ], [ 9.917947239093593, 50.240939628261309 ], [ 9.916896543341558, 50.238670995739163 ], [ 9.915661647215213, 50.23644053678963 ], [ 9.914245935479006, 50.234254370740928 ], [ 9.912653288500399, 50.23211849623415 ], [ 9.910888071614057, 50.230038774710174 ], [ 9.908955123156771, 50.228020914265336 ], [ 9.906859741205897, 50.226070453921388 ], [ 9.904607669057722, 50.224192748353467 ], [ 9.902205079485459, 50.222392953119126 ], [ 9.899658557820125, 50.220676010429756 ], [ 9.8969750839006, 50.219046635504732 ], [ 9.894162012942369, 50.21750930354645 ], [ 9.891227055377396, 50.216068237373271 ], [ 9.88817825572036, 50.214727395745527 ], [ 9.8850239705192, 50.213490462417127 ], [ 9.881772845450405, 50.212360835944509 ], [ 9.878433791621799, 50.211341620281452 ], [ 9.875015961147836, 50.2104356161867 ], [ 9.871528722064273, 50.209645313468748 ], [ 9.867981632651047, 50.208972884090144 ], [ 9.864384415233678, 50.208420176150689 ], [ 9.86074692953507, 50.207988708766948 ], [ 9.857079145650687, 50.207679667862607 ], [ 9.853391116721207, 50.207493902881772 ], [ 9.849692951377579, 50.207431924434566 ], [ 9.84599478603395, 50.207493902881772 ], [ 9.842306757104469, 50.207679667862607 ], [ 9.838638973220087, 50.207988708766948 ], [ 9.835001487521481, 50.208420176150689 ], [ 9.831404270104111, 50.208972884090144 ], [ 9.827857180690883, 50.209645313468748 ], [ 9.824369941607319, 50.2104356161867 ], [ 9.820952111133357, 50.211341620281452 ], [ 9.817613057304753, 50.212360835944509 ], [ 9.814361932235956, 50.213490462417127 ], [ 9.811207647034797, 50.214727395745527 ], [ 9.80815884737776, 50.216068237373271 ], [ 9.805223889812789, 50.21750930354645 ], [ 9.802410818854559, 50.219046635504732 ], [ 9.799727344935031, 50.220676010429756 ], [ 9.797180823269699, 50.222392953119126 ], [ 9.794778233697436, 50.224192748353467 ], [ 9.79252616154926, 50.226070453921388 ], [ 9.790430779598386, 50.228020914265336 ], [ 9.788497831141099, 50.230038774710174 ], [ 9.786732614254758, 50.23211849623415 ], [ 9.785139967276152, 50.234254370740928 ], [ 9.783724255539944, 50.23644053678963 ], [ 9.782489359413599, 50.238670995739163 ], [ 9.781438663661564, 50.240939628261309 ], [ 9.780575048167863, 50.243240211176939 ], [ 9.779900880042529, 50.245566434568183 ], [ 9.77941800713354, 50.247911919119296 ], [ 9.779127752961971, 50.250270233638012 ], [ 9.779030913094333, 50.252634912709119 ], [ 9.779127752961971, 50.254999474431386 ], [ 9.77941800713354, 50.257357438189345 ], [ 9.779900880042529, 50.259702342410741 ], [ 9.780575048167863, 50.262027762261567 ], [ 9.781438663661564, 50.264327327229807 ], [ 9.782489359413599, 50.266594738550467 ], [ 9.783724255539944, 50.26882378642415 ], [ 9.785139967276152, 50.271008366982691 ], [ 9.786732614254758, 50.273142498955941 ], [ 9.788497831141099, 50.275220339994632 ], [ 9.790430779598386, 50.277236202605394 ], [ 9.79252616154926, 50.2791845696552 ], [ 9.794778233697436, 50.281060109403441 ], [ 9.797180823269699, 50.282857690021785 ], [ 9.799727344935031, 50.284572393562598 ], [ 9.802410818854556, 50.286199529339129 ], [ 9.805223889812789, 50.28773464668155 ], [ 9.80815884737776, 50.28917354703524 ], [ 9.811207647034797, 50.290512295369119 ], [ 9.814361932235956, 50.291747230863784 ], [ 9.817613057304753, 50.292874976851493 ], [ 9.820952111133357, 50.293892449981435 ], [ 9.824369941607319, 50.294796868586431 ], [ 9.827857180690883, 50.295585760228931 ], [ 9.831404270104111, 50.296256968406411 ], [ 9.835001487521481, 50.296808658398817 ], [ 9.838638973220087, 50.297239322242419 ], [ 9.842306757104469, 50.297547782817269 ], [ 9.84599478603395, 50.297733197037452 ], [ 9.849692951377579, 50.297795058135883 ], [ 9.853391116721207, 50.297733197037452 ], [ 9.857079145650687, 50.297547782817269 ], [ 9.86074692953507, 50.297239322242419 ], [ 9.864384415233678, 50.296808658398817 ], [ 9.867981632651047, 50.296256968406411 ], [ 9.871528722064273, 50.295585760228931 ], [ 9.875015961147836, 50.294796868586431 ], [ 9.878433791621799, 50.293892449981435 ], [ 9.881772845450405, 50.292874976851493 ], [ 9.8850239705192, 50.291747230863784 ], [ 9.88817825572036, 50.290512295369119 ], [ 9.891227055377396, 50.28917354703524 ], [ 9.894162012942369, 50.28773464668155 ], [ 9.896975083900598, 50.286199529339129 ], [ 9.899658557820125, 50.284572393562598 ], [ 9.902205079485459, 50.282857690021785 ], [ 9.904607669057722, 50.281060109403441 ], [ 9.906859741205897, 50.2791845696552 ], [ 9.908955123156771, 50.277236202605394 ], [ 9.910888071614057, 50.275220339994632 ], [ 9.912653288500399, 50.273142498955941 ], [ 9.914245935479006, 50.271008366982691 ], [ 9.915661647215213, 50.26882378642415 ], [ 9.916896543341558, 50.266594738550467 ], [ 9.917947239093593, 50.264327327229807 ], [ 9.918810854587294, 50.262027762261567 ], [ 9.919485022712626, 50.259702342410741 ], [ 9.919967895621616, 50.257357438189345 ], [ 9.920258149793186, 50.254999474431386 ], [ 9.920354989660822, 50.252634912709119 ] ] ] } },
{ "type": "Feature", "properties": { "name": "Schondra, M", "feature_type": "mrr", "metric_roundness": 36.07, "metric_rectangularity": 42.41, "metric_mobile_fit": 63.47, "metric_aspect_ratio": 0.928, "metric_area_km2": 70.08 }, "geometry": { "type": "Polygon", "coordinates": [ [ [ 9.8994983, 50.220573799999976 ], [ 9.786890598969133, 50.224116174615816 ], [ 9.792698050174815, 50.299625618677254 ], [ 9.905305751248813, 50.296088857264408 ], [ 9.8994983, 50.220573799999976 ] ] ] } }
]
}
