{
"type": "FeatureCollection",
"name": "beaujeu_saint_vallier_pierrejux_et_quitteur",
"crs": { "type": "name", "properties": { "name": "urn:ogc:def:crs:OGC:1.3:CRS84" } },
"features": [
{ "type": "Feature", "properties": { "name": "Beaujeu-Saint-Vallier-Pierrejux-et-Quitteur", "feature_type": "entity", "metric_roundness": 53.58, "metric_rectangularity": 69.03, "metric_mobile_fit": 73.78, "metric_aspect_ratio": 0.825, "metric_area_km2": 77.27 }, "geometry": { "type": "Polygon", "coordinates": [ [ [ 5.71363, 47.5171527 ], [ 5.710351, 47.5215715 ], [ 5.6998267, 47.5181993 ], [ 5.6956321, 47.521003199999988 ], [ 5.6916462, 47.5297293 ], [ 5.6824316, 47.534977799999979 ], [ 5.6605375, 47.534758 ], [ 5.6530487, 47.527317199999985 ], [ 5.6575203, 47.519620499999981 ], [ 5.655509, 47.505283 ], [ 5.651927, 47.500029 ], [ 5.6526875, 47.497306 ], [ 5.656799, 47.495073499999982 ], [ 5.6615495, 47.491381 ], [ 5.667257, 47.4891915 ], [ 5.668718, 47.487078499999988 ], [ 5.669558, 47.484579 ], [ 5.6691475, 47.4801345 ], [ 5.6646887, 47.4748202 ], [ 5.6671415, 47.471414 ], [ 5.6763557, 47.4697781 ], [ 5.6833513, 47.4617512 ], [ 5.7053351, 47.465198599999987 ], [ 5.7047425, 47.4581735 ], [ 5.712766, 47.469553499999989 ], [ 5.721816, 47.473026 ], [ 5.7271865, 47.4781355 ], [ 5.7266312, 47.4825352 ], [ 5.7456725, 47.49722 ], [ 5.741863, 47.499987499999989 ], [ 5.744709, 47.501885 ], [ 5.71363, 47.5171527 ] ] ] } },
{ "type": "Feature", "properties": { "name": "Beaujeu-Saint-Vallier-Pierrejux-et-Quitteur", "feature_type": "circle", "metric_roundness": 53.58, "metric_rectangularity": 69.03, "metric_mobile_fit": 73.78, "metric_aspect_ratio": 0.825, "metric_area_km2": 77.27 }, "geometry": { "type": "Polygon", "coordinates": [ [ [ 5.745673033909571, 47.497047740866854 ], [ 5.745589603833826, 47.494895100683422 ], [ 5.745339542282633, 47.492748272850996 ], [ 5.744923534657319, 47.490613142758356 ], [ 5.744342721205869, 47.48849556444079 ], [ 5.743598693897583, 47.486401344514924 ], [ 5.742693492059597, 47.484336226236024 ], [ 5.741629596787226, 47.482305873721664 ], [ 5.740409924143464, 47.480315856385474 ], [ 5.739037817166247, 47.478371633624029 ], [ 5.737517036705428, 47.476478539799331 ], [ 5.735851751114541, 47.474641769558758 ], [ 5.734046524825636, 47.472866363533214 ], [ 5.732106305838494, 47.471157194453575 ], [ 5.730036412158496, 47.469518953723892 ], [ 5.727842517220339, 47.467956138489441 ], [ 5.725530634337555, 47.46647303923524 ], [ 5.723107100220427, 47.465073727950447 ], [ 5.720578557607516, 47.463762046891475 ], [ 5.717951937058364, 47.462541597975694 ], [ 5.715234437957323, 47.461415732835505 ], [ 5.712433508780537, 47.460387543560898 ], [ 5.70955682668019, 47.45945985415662 ], [ 5.706612276441963, 47.458635212738074 ], [ 5.703607928873388, 47.457915884488202 ], [ 5.700552018682318, 47.457303845395039 ], [ 5.697452921906175, 47.456800776787944 ], [ 5.694319132953805, 47.456408060687799 ], [ 5.691159241322901, 47.4561267759846 ], [ 5.687981908056781, 47.455957695453009 ], [ 5.684795842005074, 47.455901283614665 ], [ 5.681609775953366, 47.455957695453009 ], [ 5.678432442687247, 47.4561267759846 ], [ 5.675272551056342, 47.456408060687799 ], [ 5.672138762103973, 47.456800776787944 ], [ 5.669039665327829, 47.457303845395039 ], [ 5.665983755136758, 47.457915884488202 ], [ 5.662979407568184, 47.458635212738074 ], [ 5.660034857329958, 47.45945985415662 ], [ 5.65715817522961, 47.460387543560898 ], [ 5.654357246052825, 47.461415732835505 ], [ 5.651639746951783, 47.462541597975694 ], [ 5.649013126402632, 47.463762046891475 ], [ 5.64648458378972, 47.465073727950447 ], [ 5.644061049672593, 47.46647303923524 ], [ 5.641749166789809, 47.467956138489441 ], [ 5.639555271851652, 47.469518953723892 ], [ 5.637485378171653, 47.471157194453575 ], [ 5.635545159184511, 47.472866363533214 ], [ 5.633739932895605, 47.474641769558758 ], [ 5.632074647304719, 47.476478539799331 ], [ 5.6305538668439, 47.478371633624029 ], [ 5.629181759866684, 47.480315856385474 ], [ 5.627962087222921, 47.482305873721664 ], [ 5.626898191950551, 47.484336226236024 ], [ 5.625992990112564, 47.486401344514924 ], [ 5.625248962804278, 47.48849556444079 ], [ 5.624668149352829, 47.490613142758356 ], [ 5.624252141727515, 47.492748272850996 ], [ 5.624002080176321, 47.494895100683422 ], [ 5.623918650100576, 47.497047740866854 ], [ 5.624002080176321, 47.49920029280225 ], [ 5.624252141727515, 47.501346856857431 ], [ 5.624668149352829, 47.503481550533614 ], [ 5.625248962804278, 47.505598524576975 ], [ 5.625992990112564, 47.507691978991446 ], [ 5.626898191950551, 47.509756178908887 ], [ 5.627962087222921, 47.511785470273466 ], [ 5.629181759866684, 47.513774295297765 ], [ 5.6305538668439, 47.5157172076484 ], [ 5.632074647304719, 47.517608887320527 ], [ 5.633739932895605, 47.519444155160514 ], [ 5.635545159184511, 47.521217986998082 ], [ 5.637485378171653, 47.522925527349507 ], [ 5.639555271851652, 47.524562102655381 ], [ 5.641749166789809, 47.526123234017213 ], [ 5.644061049672593, 47.527604649398825 ], [ 5.64648458378972, 47.529002295259907 ], [ 5.649013126402632, 47.530312347590787 ], [ 5.651639746951783, 47.53153122231879 ], [ 5.654357246052825, 47.532655585058613 ], [ 5.65715817522961, 47.533682360180897 ], [ 5.660034857329958, 47.534608739174644 ], [ 5.662979407568184, 47.535432188281561 ], [ 5.665983755136758, 47.536150455381936 ], [ 5.669039665327829, 47.536761576113889 ], [ 5.672138762103973, 47.537263879209817 ], [ 5.675272551056342, 47.53765599103594 ], [ 5.678432442687247, 47.537936839322818 ], [ 5.681609775953366, 47.538105656077235 ], [ 5.684795842005074, 47.538161979667578 ], [ 5.687981908056781, 47.538105656077235 ], [ 5.691159241322901, 47.537936839322818 ], [ 5.694319132953805, 47.53765599103594 ], [ 5.697452921906175, 47.537263879209817 ], [ 5.700552018682318, 47.536761576113889 ], [ 5.703607928873388, 47.536150455381936 ], [ 5.706612276441963, 47.535432188281568 ], [ 5.70955682668019, 47.534608739174644 ], [ 5.712433508780537, 47.533682360180897 ], [ 5.715234437957323, 47.532655585058613 ], [ 5.717951937058364, 47.53153122231879 ], [ 5.720578557607516, 47.530312347590787 ], [ 5.723107100220427, 47.529002295259907 ], [ 5.725530634337555, 47.527604649398825 ], [ 5.727842517220339, 47.526123234017213 ], [ 5.730036412158496, 47.524562102655381 ], [ 5.732106305838494, 47.522925527349507 ], [ 5.734046524825636, 47.521217986998082 ], [ 5.735851751114541, 47.519444155160514 ], [ 5.737517036705428, 47.517608887320527 ], [ 5.739037817166247, 47.5157172076484 ], [ 5.740409924143464, 47.513774295297765 ], [ 5.741629596787226, 47.511785470273466 ], [ 5.742693492059597, 47.509756178908887 ], [ 5.743598693897583, 47.507691978991446 ], [ 5.744342721205869, 47.505598524576975 ], [ 5.744923534657319, 47.503481550533614 ], [ 5.745339542282633, 47.501346856857431 ], [ 5.745589603833826, 47.49920029280225 ], [ 5.745673033909571, 47.497047740866854 ] ] ] } },
{ "type": "Feature", "properties": { "name": "Beaujeu-Saint-Vallier-Pierrejux-et-Quitteur", "feature_type": "mrr", "metric_roundness": 53.58, "metric_rectangularity": 69.03, "metric_mobile_fit": 73.78, "metric_aspect_ratio": 0.825, "metric_area_km2": 77.27 }, "geometry": { "type": "Polygon", "coordinates": [ [ [ 5.752312830307996, 47.499545221420497 ], [ 5.699251974654246, 47.453396318397999 ], [ 5.616770772147346, 47.496720986607556 ], [ 5.669831627801096, 47.542831842384423 ], [ 5.752312830307996, 47.499545221420497 ] ] ] } }
]
}
