{
"type": "FeatureCollection",
"name": "beire_le_chatel",
"crs": { "type": "name", "properties": { "name": "urn:ogc:def:crs:OGC:1.3:CRS84" } },
"features": [
{ "type": "Feature", "properties": { "name": "Beire-le-Châtel", "feature_type": "entity", "metric_roundness": 30.57, "metric_rectangularity": 40.62, "metric_mobile_fit": 93.92, "metric_aspect_ratio": 0.623, "metric_area_km2": 42.3 }, "geometry": { "type": "Polygon", "coordinates": [ [ [ 5.2321225, 47.3892185 ], [ 5.236747, 47.395044 ], [ 5.2372555, 47.397101 ], [ 5.2465055, 47.397769 ], [ 5.247543, 47.399768 ], [ 5.251385, 47.403361499999981 ], [ 5.2519865, 47.408298 ], [ 5.248963, 47.4099935 ], [ 5.2376505, 47.4165335 ], [ 5.2288285, 47.418915 ], [ 5.221192, 47.42239 ], [ 5.215582, 47.4314865 ], [ 5.215982, 47.4352115 ], [ 5.215492, 47.437204 ], [ 5.216254, 47.440245 ], [ 5.221189, 47.449304 ], [ 5.2253235, 47.450910499999985 ], [ 5.2253129, 47.450919 ], [ 5.2253102, 47.450935599999987 ], [ 5.2252422, 47.4511323 ], [ 5.2252327, 47.451397799999988 ], [ 5.2253015, 47.4516544 ], [ 5.2254424, 47.4518796 ], [ 5.2256431, 47.4520536 ], [ 5.225886, 47.4521611 ], [ 5.2261498, 47.4521927 ], [ 5.2264126, 47.4521461 ], [ 5.228145, 47.45156 ], [ 5.2312485, 47.454948 ], [ 5.2319295, 47.457721 ], [ 5.235383, 47.458985 ], [ 5.237336, 47.460736499999989 ], [ 5.2379545, 47.4623415 ], [ 5.2353245, 47.467672499999985 ], [ 5.231934, 47.4675775 ], [ 5.228545, 47.466267 ], [ 5.22668, 47.463703 ], [ 5.2194175, 47.4582585 ], [ 5.218594, 47.4565235 ], [ 5.2152385, 47.4521515 ], [ 5.2142195, 47.449252 ], [ 5.211941, 47.446383 ], [ 5.2104555, 47.440975 ], [ 5.208554, 47.441382 ], [ 5.206802, 47.4371945 ], [ 5.2019225, 47.4352455 ], [ 5.197242, 47.434551 ], [ 5.193627, 47.432705 ], [ 5.1886985, 47.4321035 ], [ 5.18584, 47.4297015 ], [ 5.1840155, 47.430332 ], [ 5.181364, 47.429091 ], [ 5.1813415, 47.427427499999986 ], [ 5.182488, 47.426544 ], [ 5.1815975, 47.426026 ], [ 5.181029, 47.424059 ], [ 5.1793885, 47.421894 ], [ 5.179529, 47.420811 ], [ 5.180879, 47.420013 ], [ 5.181514, 47.418242 ], [ 5.180262, 47.417147 ], [ 5.179241, 47.411682 ], [ 5.1778265, 47.410006499999987 ], [ 5.17995, 47.406309 ], [ 5.181589, 47.404739 ], [ 5.185041, 47.4035735 ], [ 5.190623, 47.4038415 ], [ 5.199195, 47.400524 ], [ 5.209869, 47.399314 ], [ 5.213843, 47.398045 ], [ 5.2274385, 47.387175 ], [ 5.2321225, 47.3892185 ] ] ] } },
{ "type": "Feature", "properties": { "name": "Beire-le-Châtel", "feature_type": "circle", "metric_roundness": 30.57, "metric_rectangularity": 40.62, "metric_mobile_fit": 93.92, "metric_aspect_ratio": 0.623, "metric_area_km2": 42.3 }, "geometry": { "type": "Polygon", "coordinates": [ [ [ 5.290347678401121, 47.427468800025949 ], [ 5.290265960689783, 47.425357550318445 ], [ 5.290021031538332, 47.423252003066501 ], [ 5.28961356228055, 47.421157930467999 ], [ 5.289044669761348, 47.419081073950025 ], [ 5.288315913275579, 47.417027128413309 ], [ 5.287429290294115, 47.415001726596685 ], [ 5.28638723098892, 47.413010423605236 ], [ 5.285192591572117, 47.41105868164437 ], [ 5.283848646467308, 47.40915185500252 ], [ 5.282359079334609, 47.407295175323945 ], [ 5.280727972973994, 47.405493737212545 ], [ 5.278959798134618, 47.403752484206841 ], [ 5.277059401260813, 47.402076195165186 ], [ 5.275031991208316, 47.400469471099314 ], [ 5.272883124967156, 47.39893672249287 ], [ 5.270618692430332, 47.397482157140722 ], [ 5.268244900250033, 47.396109768542885 ], [ 5.265768254825623, 47.394823324885991 ], [ 5.263195544470061, 47.393626358642933 ], [ 5.260533820803603, 47.392522156820256 ], [ 5.257790379425807, 47.391513751880787 ], [ 5.254972739918794, 47.390603913366881 ], [ 5.252088625236602, 47.38979514024826 ], [ 5.2491459405371, 47.389089654015912 ], [ 5.24615275151451, 47.388489392541594 ], [ 5.243117262291884, 47.387996004720506 ], [ 5.240047792934191, 47.387610845912036 ], [ 5.236952756643584, 47.387334974191745 ], [ 5.2338406366994, 47.38716914742524 ], [ 5.230719963206085, 47.387113821171972 ], [ 5.227599289712771, 47.38716914742524 ], [ 5.224487169768586, 47.387334974191745 ], [ 5.221392133477979, 47.387610845912036 ], [ 5.218322664120286, 47.387996004720506 ], [ 5.215287174897662, 47.388489392541594 ], [ 5.21229398587507, 47.389089654015912 ], [ 5.209351301175569, 47.38979514024826 ], [ 5.206467186493375, 47.390603913366881 ], [ 5.203649546986364, 47.391513751880787 ], [ 5.200906105608567, 47.392522156820256 ], [ 5.198244381942111, 47.393626358642933 ], [ 5.195671671586547, 47.394823324885991 ], [ 5.193195026162137, 47.396109768542885 ], [ 5.190821233981838, 47.397482157140722 ], [ 5.188556801445015, 47.39893672249287 ], [ 5.186407935203855, 47.400469471099314 ], [ 5.184380525151356, 47.402076195165186 ], [ 5.182480128277552, 47.403752484206841 ], [ 5.180711953438176, 47.405493737212545 ], [ 5.179080847077561, 47.407295175323945 ], [ 5.177591279944862, 47.40915185500252 ], [ 5.176247334840053, 47.41105868164437 ], [ 5.17505269542325, 47.413010423605236 ], [ 5.174010636118055, 47.415001726596685 ], [ 5.17312401313659, 47.417027128413309 ], [ 5.172395256650821, 47.419081073950025 ], [ 5.17182636413162, 47.421157930467999 ], [ 5.171418894873837, 47.423252003066501 ], [ 5.171173965722388, 47.425357550318445 ], [ 5.17109224801105, 47.427468800025949 ], [ 5.171173965722388, 47.42957996505303 ], [ 5.171418894873837, 47.431685259191461 ], [ 5.17182636413162, 47.433778913016532 ], [ 5.172395256650821, 47.435855189689313 ], [ 5.17312401313659, 47.437908400662025 ], [ 5.174010636118055, 47.439932921243823 ], [ 5.17505269542325, 47.441923205984651 ], [ 5.176247334840053, 47.443873803835274 ], [ 5.177591279944862, 47.445779373042356 ], [ 5.179080847077561, 47.447634695738365 ], [ 5.180711953438176, 47.449434692186806 ], [ 5.182480128277552, 47.451174434644308 ], [ 5.184380525151356, 47.452849160802401 ], [ 5.186407935203855, 47.454454286772645 ], [ 5.188556801445015, 47.455985419580458 ], [ 5.190821233981838, 47.45743836913401 ], [ 5.193195026162137, 47.458809159636289 ], [ 5.195671671586547, 47.46009404040975 ], [ 5.198244381942109, 47.46128949610479 ], [ 5.200906105608567, 47.4623922562647 ], [ 5.203649546986364, 47.463399304221838 ], [ 5.206467186493375, 47.464307885301231 ], [ 5.209351301175569, 47.465115514309851 ], [ 5.21229398587507, 47.465819982291848 ], [ 5.215287174897662, 47.466419362531553 ], [ 5.218322664120286, 47.466912015788836 ], [ 5.221392133477979, 47.467296594752305 ], [ 5.224487169768586, 47.467572047699285 ], [ 5.227599289712771, 47.467737621352356 ], [ 5.230719963206085, 47.467792862925222 ], [ 5.2338406366994, 47.467737621352356 ], [ 5.236952756643584, 47.467572047699285 ], [ 5.240047792934191, 47.467296594752305 ], [ 5.243117262291884, 47.466912015788836 ], [ 5.24615275151451, 47.466419362531553 ], [ 5.2491459405371, 47.465819982291848 ], [ 5.252088625236602, 47.465115514309851 ], [ 5.254972739918794, 47.464307885301231 ], [ 5.257790379425807, 47.463399304221838 ], [ 5.260533820803603, 47.4623922562647 ], [ 5.26319554447006, 47.46128949610479 ], [ 5.265768254825623, 47.46009404040975 ], [ 5.268244900250033, 47.458809159636289 ], [ 5.270618692430332, 47.45743836913401 ], [ 5.272883124967155, 47.455985419580458 ], [ 5.275031991208316, 47.454454286772645 ], [ 5.277059401260813, 47.452849160802401 ], [ 5.278959798134618, 47.451174434644308 ], [ 5.280727972973994, 47.449434692186806 ], [ 5.282359079334609, 47.447634695738365 ], [ 5.283848646467308, 47.445779373042356 ], [ 5.285192591572117, 47.443873803835274 ], [ 5.28638723098892, 47.441923205984651 ], [ 5.287429290294115, 47.439932921243823 ], [ 5.288315913275579, 47.437908400662025 ], [ 5.289044669761348, 47.435855189689313 ], [ 5.28961356228055, 47.433778913016532 ], [ 5.290021031538332, 47.431685259191461 ], [ 5.290265960689783, 47.42957996505303 ], [ 5.290347678401121, 47.427468800025949 ] ] ] } },
{ "type": "Feature", "properties": { "name": "Beire-le-Châtel", "feature_type": "mrr", "metric_roundness": 30.57, "metric_rectangularity": 40.62, "metric_mobile_fit": 93.92, "metric_aspect_ratio": 0.623, "metric_area_km2": 42.3 }, "geometry": { "type": "Polygon", "coordinates": [ [ [ 5.163673283188527, 47.415144946453317 ], [ 5.232448149609475, 47.469341307039876 ], [ 5.292834127844107, 47.434295355641666 ], [ 5.224059261423158, 47.380062882708984 ], [ 5.163673283188527, 47.415144946453317 ] ] ] } }
]
}
