{
"type": "FeatureCollection",
"name": "bellino",
"crs": { "type": "name", "properties": { "name": "urn:ogc:def:crs:OGC:1.3:CRS84" } },
"features": [
{ "type": "Feature", "properties": { "name": "Bellino", "feature_type": "entity", "metric_roundness": 63.36, "metric_rectangularity": 70.23, "metric_mobile_fit": 40.51, "metric_aspect_ratio": 1.157, "metric_area_km2": 123.4 }, "geometry": { "type": "Polygon", "coordinates": [ [ [ 7.0225954, 44.5551592 ], [ 7.0266375, 44.5591757 ], [ 7.0540715, 44.567449 ], [ 7.0445435, 44.5853055 ], [ 7.0462025, 44.599232 ], [ 7.0275016, 44.6049253 ], [ 7.0086418, 44.604761599999982 ], [ 6.9895358, 44.6000417 ], [ 6.9741248, 44.608043 ], [ 6.968085, 44.619618499999987 ], [ 6.9575327, 44.621257 ], [ 6.9499406, 44.6188684 ], [ 6.9491414, 44.6094844 ], [ 6.9382386, 44.603353399999989 ], [ 6.9335301, 44.5953981 ], [ 6.9323603, 44.573837399999988 ], [ 6.9139456, 44.5687319 ], [ 6.915925, 44.562103 ], [ 6.9262711, 44.5510887 ], [ 6.9358395, 44.5471845 ], [ 6.9500564, 44.5507099 ], [ 6.9872635, 44.5350187 ], [ 7.000251, 44.5381645 ], [ 7.0129041, 44.547045 ], [ 7.02186, 44.5493885 ], [ 7.0225954, 44.5551592 ] ] ] } },
{ "type": "Feature", "properties": { "name": "Bellino", "feature_type": "circle", "metric_roundness": 63.36, "metric_rectangularity": 70.23, "metric_mobile_fit": 40.51, "metric_aspect_ratio": 1.157, "metric_area_km2": 123.4 }, "geometry": { "type": "Polygon", "coordinates": [ [ [ 7.054881284283475, 44.575052585825638 ], [ 7.054784327788578, 44.572415032991138 ], [ 7.0544937240549, 44.569784590373331 ], [ 7.054010269607074, 44.567168469301492 ], [ 7.053335289560139, 44.564573842811789 ], [ 7.052470633987485, 44.562007825959839 ], [ 7.051418672849935, 44.559477456282067 ], [ 7.050182289499847, 44.556989674459452 ], [ 7.048764872778044, 44.554551305237695 ], [ 7.047170307725235, 44.552169038656317 ], [ 7.045402964933394, 44.549849411638917 ], [ 7.043467688566269, 44.547598789996044 ], [ 7.041369783081858, 44.545423350890644 ], [ 7.039114998693276, 44.54332906581525 ], [ 7.0367095156078, 44.541321684128498 ], [ 7.034159927087366, 44.539406717197181 ], [ 7.031473221376887, 44.537589423188379 ], [ 7.028656762549967, 44.535874792554424 ], [ 7.02571827032448, 44.534267534251782 ], [ 7.022665798903363, 44.532772062732462 ], [ 7.019507714898608, 44.531392485744981 ], [ 7.016252674398955, 44.530132592979264 ], [ 7.012909599244161, 44.528995845587758 ], [ 7.009487652570847, 44.527985366612327 ], [ 7.00599621369699, 44.527103932344346 ], [ 7.002444852413859, 44.526353964642276 ], [ 6.998843302755875, 44.525737524228852 ], [ 6.995201436320309, 44.525256304986684 ], [ 6.991529235209923, 44.524911629268829 ], [ 6.987836764672705, 44.5247044442374 ], [ 6.98413414551374, 44.524635319240879 ], [ 6.980431526354773, 44.5247044442374 ], [ 6.976739055817554, 44.524911629268829 ], [ 6.973066854707168, 44.525256304986684 ], [ 6.969424988271604, 44.525737524228852 ], [ 6.96582343861362, 44.526353964642276 ], [ 6.962272077330488, 44.527103932344346 ], [ 6.958780638456631, 44.527985366612327 ], [ 6.955358691783318, 44.528995845587758 ], [ 6.952015616628523, 44.530132592979264 ], [ 6.94876057612887, 44.531392485744981 ], [ 6.945602492124116, 44.532772062732462 ], [ 6.942550020702999, 44.534267534251782 ], [ 6.939611528477512, 44.535874792554424 ], [ 6.936795069650591, 44.537589423188379 ], [ 6.934108363940112, 44.539406717197181 ], [ 6.931558775419678, 44.541321684128498 ], [ 6.929153292334203, 44.54332906581525 ], [ 6.926898507945619, 44.545423350890644 ], [ 6.92480060246121, 44.547598789996044 ], [ 6.922865326094084, 44.549849411638917 ], [ 6.921097983302244, 44.552169038656317 ], [ 6.919503418249435, 44.554551305237695 ], [ 6.918086001527631, 44.556989674459452 ], [ 6.916849618177543, 44.559477456282067 ], [ 6.915797657039993, 44.562007825959839 ], [ 6.91493300146734, 44.564573842811789 ], [ 6.914258021420403, 44.567168469301492 ], [ 6.913774566972578, 44.569784590373331 ], [ 6.9134839632389, 44.572415032991138 ], [ 6.913387006744003, 44.575052585825638 ], [ 6.9134839632389, 44.577690019036318 ], [ 6.913774566972578, 44.580320104093268 ], [ 6.914258021420403, 44.582935633584761 ], [ 6.91493300146734, 44.585529440956094 ], [ 6.915797657039993, 44.588094420126069 ], [ 6.916849618177543, 44.590623544927382 ], [ 6.918086001527631, 44.593109888318132 ], [ 6.919503418249435, 44.595546641312403 ], [ 6.921097983302244, 44.597927131578444 ], [ 6.922865326094084, 44.600244841654309 ], [ 6.92480060246121, 44.602493426731897 ], [ 6.926898507945619, 44.604666731961288 ], [ 6.929153292334203, 44.606758809229163 ], [ 6.931558775419678, 44.608763933366056 ], [ 6.934108363940112, 44.610676617739415 ], [ 6.936795069650591, 44.612491629190323 ], [ 6.939611528477512, 44.614204002274612 ], [ 6.942550020702999, 44.615809052770025 ], [ 6.945602492124116, 44.617302390413741 ], [ 6.94876057612887, 44.618679930836407 ], [ 6.952015616628523, 44.619937906661136 ], [ 6.955358691783318, 44.62107287773788 ], [ 6.958780638456631, 44.622081740486422 ], [ 6.962272077330488, 44.622961736323127 ], [ 6.96582343861362, 44.623710459149258 ], [ 6.969424988271604, 44.624325861881204 ], [ 6.973066854707168, 44.624806262005393 ], [ 6.976739055817554, 44.625150346143194 ], [ 6.980431526354773, 44.625357173613949 ], [ 6.98413414551374, 44.625426178986714 ], [ 6.987836764672705, 44.625357173613949 ], [ 6.991529235209923, 44.625150346143194 ], [ 6.995201436320309, 44.624806262005393 ], [ 6.998843302755875, 44.624325861881204 ], [ 7.002444852413859, 44.623710459149258 ], [ 7.00599621369699, 44.622961736323127 ], [ 7.009487652570846, 44.622081740486422 ], [ 7.012909599244161, 44.62107287773788 ], [ 7.016252674398955, 44.619937906661136 ], [ 7.019507714898608, 44.618679930836407 ], [ 7.022665798903363, 44.617302390413741 ], [ 7.02571827032448, 44.615809052770025 ], [ 7.028656762549967, 44.614204002274612 ], [ 7.031473221376887, 44.612491629190323 ], [ 7.034159927087366, 44.610676617739415 ], [ 7.0367095156078, 44.608763933366056 ], [ 7.039114998693276, 44.606758809229163 ], [ 7.041369783081858, 44.604666731961288 ], [ 7.043467688566269, 44.602493426731897 ], [ 7.045402964933394, 44.600244841654309 ], [ 7.047170307725235, 44.597927131578444 ], [ 7.048764872778044, 44.595546641312403 ], [ 7.050182289499847, 44.593109888318132 ], [ 7.051418672849935, 44.590623544927382 ], [ 7.052470633987485, 44.588094420126069 ], [ 7.053335289560139, 44.585529440956094 ], [ 7.054010269607074, 44.582935633584761 ], [ 7.0544937240549, 44.580320104093268 ], [ 7.054784327788578, 44.577690019036318 ], [ 7.054881284283475, 44.575052585825638 ] ] ] } },
{ "type": "Feature", "properties": { "name": "Bellino", "feature_type": "mrr", "metric_roundness": 63.36, "metric_rectangularity": 70.23, "metric_mobile_fit": 40.51, "metric_aspect_ratio": 1.157, "metric_area_km2": 123.4 }, "geometry": { "type": "Polygon", "coordinates": [ [ [ 6.941926077955785, 44.626086189644241 ], [ 7.067521583960434, 44.595026614560183 ], [ 7.032524919237714, 44.523243346460163 ], [ 6.906929413233065, 44.554341274613989 ], [ 6.941926077955785, 44.626086189644241 ] ] ] } }
]
}
