{
"type": "FeatureCollection",
"name": "belm",
"crs": { "type": "name", "properties": { "name": "urn:ogc:def:crs:OGC:1.3:CRS84" } },
"features": [
{ "type": "Feature", "properties": { "name": "Belm", "feature_type": "entity", "metric_roundness": 44.7, "metric_rectangularity": 60.35, "metric_mobile_fit": 85.73, "metric_aspect_ratio": 0.705, "metric_area_km2": 123.6 }, "geometry": { "type": "Polygon", "coordinates": [ [ [ 8.1899036, 52.284159699999982 ], [ 8.206538, 52.2940678 ], [ 8.1991926, 52.3004239 ], [ 8.2009945, 52.314999 ], [ 8.1668467, 52.322430399999988 ], [ 8.1706263, 52.3371862 ], [ 8.1751463, 52.3394376 ], [ 8.1727008, 52.3512261 ], [ 8.1662583, 52.3565031 ], [ 8.149422, 52.35928029999998 ], [ 8.1349997, 52.3651275 ], [ 8.1392102, 52.3699476 ], [ 8.1295604, 52.3720923 ], [ 8.1266675, 52.378176499999988 ], [ 8.1213508, 52.378286499999987 ], [ 8.1179307, 52.3718266 ], [ 8.109121, 52.371808099999988 ], [ 8.1028137, 52.365677599999984 ], [ 8.096013, 52.3645125 ], [ 8.0957861, 52.337216499999982 ], [ 8.1000821, 52.326657099999984 ], [ 8.0979855, 52.320465 ], [ 8.098482, 52.307140299999986 ], [ 8.1191023, 52.291283599999986 ], [ 8.1472208, 52.2984596 ], [ 8.1514598, 52.298071699999987 ], [ 8.1545557, 52.2941072 ], [ 8.165294, 52.296393099999982 ], [ 8.1737901, 52.286828399999983 ], [ 8.1794347, 52.2874521 ], [ 8.1802805, 52.2823055 ], [ 8.1899036, 52.284159699999982 ] ] ] } },
{ "type": "Feature", "properties": { "name": "Belm", "feature_type": "circle", "metric_roundness": 44.7, "metric_rectangularity": 60.35, "metric_mobile_fit": 85.73, "metric_aspect_ratio": 0.705, "metric_area_km2": 123.6 }, "geometry": { "type": "Polygon", "coordinates": [ [ [ 8.239925195568542, 52.331248137268268 ], [ 8.239809668095356, 52.328552014385011 ], [ 8.239463402328571, 52.325863117733249 ], [ 8.23888734735859, 52.323188819405409 ], [ 8.238083082112039, 52.320536452801669 ], [ 8.237052811024055, 52.317913292492996 ], [ 8.235799357996081, 52.315326534231623 ], [ 8.234326158655739, 52.312783275163845 ], [ 8.232637250940018, 52.310290494300361 ], [ 8.230737264027573, 52.307855033298374 ], [ 8.228631405650464, 52.305483577609309 ], [ 8.22632544782013, 52.303182638044539 ], [ 8.223825711006695, 52.300958532811308 ], [ 8.22113904681501, 52.29881737006896 ], [ 8.218272819204879, 52.296765031055052 ], [ 8.21523488430695, 52.294807153828692 ], [ 8.212033568889614, 52.292949117677402 ], [ 8.208677647535911, 52.291196028231724 ], [ 8.205176318593004, 52.289552703329818 ], [ 8.20153917896015, 52.28802365967249 ], [ 8.197776197784272, 52.286613100306617 ], [ 8.193897689135204, 52.285324902972881 ], [ 8.189914283735567, 52.284162609351164 ], [ 8.185836899822677, 52.283129415234392 ], [ 8.181676713222423, 52.282228161659269 ], [ 8.177445126717105, 52.281461327019095 ], [ 8.173153738791202, 52.280831020181708 ], [ 8.168814311840727, 52.280338974632151 ], [ 8.164438739933322, 52.279986543657138 ], [ 8.160039016207442, 52.279774696585029 ], [ 8.1556272, 52.27970401609246 ], [ 8.151215383792556, 52.279774696585029 ], [ 8.146815660066675, 52.279986543657138 ], [ 8.142440088159269, 52.280338974632151 ], [ 8.138100661208794, 52.280831020181708 ], [ 8.133809273282891, 52.281461327019095 ], [ 8.129577686777575, 52.282228161659269 ], [ 8.125417500177321, 52.283129415234392 ], [ 8.121340116264431, 52.284162609351164 ], [ 8.117356710864794, 52.285324902972881 ], [ 8.113478202215726, 52.286613100306617 ], [ 8.109715221039846, 52.28802365967249 ], [ 8.106078081406993, 52.289552703329818 ], [ 8.102576752464085, 52.291196028231724 ], [ 8.099220831110383, 52.292949117677402 ], [ 8.096019515693047, 52.294807153828692 ], [ 8.09298158079512, 52.296765031055052 ], [ 8.090115353184986, 52.29881737006896 ], [ 8.087428688993302, 52.300958532811308 ], [ 8.084928952179867, 52.303182638044539 ], [ 8.082622994349531, 52.305483577609309 ], [ 8.080517135972425, 52.307855033298374 ], [ 8.07861714905998, 52.310290494300361 ], [ 8.076928241344257, 52.312783275163845 ], [ 8.075455042003915, 52.315326534231623 ], [ 8.07420158897594, 52.317913292492996 ], [ 8.073171317887958, 52.320536452801669 ], [ 8.072367052641408, 52.323188819405409 ], [ 8.071790997671425, 52.325863117733249 ], [ 8.07144473190464, 52.328552014385011 ], [ 8.071329204431455, 52.331248137268268 ], [ 8.07144473190464, 52.33394409582661 ], [ 8.071790997671425, 52.336632501304038 ], [ 8.072367052641408, 52.33930598698953 ], [ 8.073171317887958, 52.34195722838642 ], [ 8.07420158897594, 52.344578963251699 ], [ 8.075455042003915, 52.347164011450623 ], [ 8.076928241344257, 52.349705294572722 ], [ 8.07861714905998, 52.352195855256184 ], [ 8.080517135972425, 52.354628876168547 ], [ 8.082622994349531, 52.356997698592551 ], [ 8.084928952179867, 52.35929584056742 ], [ 8.087428688993302, 52.361517014536915 ], [ 8.090115353184986, 52.36365514445724 ], [ 8.09298158079512, 52.365704382319059 ], [ 8.096019515693047, 52.367659124040159 ], [ 8.099220831110383, 52.369514024686268 ], [ 8.102576752464085, 52.371264012980092 ], [ 8.106078081406993, 52.372904305060317 ], [ 8.109715221039846, 52.374430417454377 ], [ 8.113478202215726, 52.375838179230925 ], [ 8.117356710864794, 52.377123743300238 ], [ 8.121340116264431, 52.378283596833029 ], [ 8.125417500177321, 52.379314570770461 ], [ 8.129577686777575, 52.380213848400594 ], [ 8.133809273282891, 52.380978972978959 ], [ 8.138100661208794, 52.381607854373541 ], [ 8.142440088159269, 52.382098774716681 ], [ 8.146815660066675, 52.38245039304973 ], [ 8.151215383792556, 52.382661748947712 ], [ 8.1556272, 52.38273226511545 ], [ 8.160039016207442, 52.382661748947712 ], [ 8.164438739933322, 52.38245039304973 ], [ 8.168814311840727, 52.382098774716681 ], [ 8.173153738791202, 52.381607854373541 ], [ 8.177445126717105, 52.380978972978959 ], [ 8.181676713222423, 52.380213848400594 ], [ 8.185836899822677, 52.379314570770461 ], [ 8.189914283735567, 52.378283596833029 ], [ 8.193897689135204, 52.377123743300238 ], [ 8.197776197784272, 52.375838179230925 ], [ 8.20153917896015, 52.374430417454377 ], [ 8.205176318593004, 52.372904305060317 ], [ 8.208677647535911, 52.371264012980092 ], [ 8.212033568889614, 52.369514024686268 ], [ 8.21523488430695, 52.367659124040159 ], [ 8.218272819204879, 52.365704382319059 ], [ 8.22113904681501, 52.36365514445724 ], [ 8.223825711006695, 52.361517014536915 ], [ 8.22632544782013, 52.35929584056742 ], [ 8.228631405650464, 52.356997698592551 ], [ 8.230737264027573, 52.354628876168547 ], [ 8.232637250940018, 52.352195855256184 ], [ 8.234326158655739, 52.349705294572722 ], [ 8.235799357996081, 52.347164011450623 ], [ 8.237052811024055, 52.344578963251699 ], [ 8.238083082112039, 52.34195722838642 ], [ 8.238887347358588, 52.33930598698953 ], [ 8.239463402328571, 52.336632501304038 ], [ 8.239809668095356, 52.33394409582661 ], [ 8.239925195568542, 52.331248137268268 ] ] ] } },
{ "type": "Feature", "properties": { "name": "Belm", "feature_type": "mrr", "metric_roundness": 44.7, "metric_rectangularity": 60.35, "metric_mobile_fit": 85.73, "metric_aspect_ratio": 0.705, "metric_area_km2": 123.6 }, "geometry": { "type": "Polygon", "coordinates": [ [ [ 8.145948626275096, 52.385452141363928 ], [ 8.218539639712304, 52.292519381591191 ], [ 8.130048074561243, 52.266681054646163 ], [ 8.057457061124035, 52.359668048653027 ], [ 8.145948626275096, 52.385452141363928 ] ] ] } }
]
}
