{
"type": "FeatureCollection",
"name": "beltiug",
"crs": { "type": "name", "properties": { "name": "urn:ogc:def:crs:OGC:1.3:CRS84" } },
"features": [
{ "type": "Feature", "properties": { "name": "Beltiug", "feature_type": "entity", "metric_roundness": 45.77, "metric_rectangularity": 60.88, "metric_mobile_fit": 34.65, "metric_aspect_ratio": 1.216, "metric_area_km2": 257.66 }, "geometry": { "type": "Polygon", "coordinates": [ [ [ 22.9203817, 47.5134192 ], [ 22.934288, 47.5146371 ], [ 22.9383266, 47.5187764 ], [ 22.9372722, 47.5247902 ], [ 22.9397668, 47.5267111 ], [ 22.9593383, 47.5272492 ], [ 22.9556508, 47.532490899999985 ], [ 22.9372334, 47.543942699999974 ], [ 22.9383415, 47.5477886 ], [ 22.9329474, 47.5530999 ], [ 22.933478, 47.558348199999983 ], [ 22.9282067, 47.56049 ], [ 22.9287011, 47.5674829 ], [ 22.9231296, 47.573477 ], [ 22.9284403, 47.579714699999982 ], [ 22.9235015, 47.587908499999983 ], [ 22.9102981, 47.5978071 ], [ 22.8814894, 47.605332 ], [ 22.8737052, 47.5988757 ], [ 22.8692405, 47.58718159999998 ], [ 22.859614, 47.585555499999984 ], [ 22.8583619, 47.591127599999986 ], [ 22.8285328, 47.597472199999984 ], [ 22.8291798, 47.6055345 ], [ 22.8250646, 47.606282799999988 ], [ 22.8256993, 47.612037099999988 ], [ 22.8201311, 47.616628899999988 ], [ 22.8105267, 47.6170587 ], [ 22.8120955, 47.626562199999981 ], [ 22.8096803, 47.628304799999988 ], [ 22.8025014, 47.628749899999988 ], [ 22.7986645, 47.6223199 ], [ 22.789772, 47.6228803 ], [ 22.7863811, 47.617158499999974 ], [ 22.7783483, 47.6136653 ], [ 22.769941, 47.6183415 ], [ 22.7640685, 47.6178305 ], [ 22.7684423, 47.6130621 ], [ 22.7672561, 47.610080199999985 ], [ 22.7455503, 47.601500199999982 ], [ 22.7395203, 47.5930074 ], [ 22.743334, 47.5871978 ], [ 22.7613896, 47.5833685 ], [ 22.7495435, 47.571378 ], [ 22.7545388, 47.5654865 ], [ 22.7638113, 47.5663686 ], [ 22.7717552, 47.5618967 ], [ 22.7757358, 47.5561848 ], [ 22.7961947, 47.5566875 ], [ 22.804399, 47.5535515 ], [ 22.8081508, 47.547432799999989 ], [ 22.8047256, 47.5305001 ], [ 22.8163375, 47.518426 ], [ 22.8324147, 47.519575599999975 ], [ 22.8702153, 47.5153662 ], [ 22.8838182, 47.509697299999985 ], [ 22.9019451, 47.512269899999986 ], [ 22.913795, 47.506776 ], [ 22.9203817, 47.5134192 ] ] ] } },
{ "type": "Feature", "properties": { "name": "Beltiug", "feature_type": "circle", "metric_roundness": 45.77, "metric_rectangularity": 60.88, "metric_mobile_fit": 34.65, "metric_aspect_ratio": 1.216, "metric_area_km2": 257.66 }, "geometry": { "type": "Polygon", "coordinates": [ [ [ 22.971108155989679, 47.56227647726039 ], [ 22.970943324086861, 47.558028730185804 ], [ 22.970449280171188, 47.553792282907423 ], [ 22.969627378382693, 47.54957875145675 ], [ 22.968479871497056, 47.545399691822297 ], [ 22.967009904750878, 47.541266568198878 ], [ 22.965221507220846, 47.537190721458991 ], [ 22.963119580780269, 47.533183337933934 ], [ 22.96070988666342, 47.529255418591596 ], [ 22.957999029674383, 47.525417748697279 ], [ 22.95499444008373, 47.521680868042701 ], [ 22.951704353262684, 47.518055041826926 ], [ 22.948137787110532, 47.514550232271951 ], [ 22.944304517337184, 47.511176071052944 ], [ 22.940215050668645, 47.507941832622045 ], [ 22.935880596048801, 47.504856408501659 ], [ 22.931313033916471, 47.501928282620774 ], [ 22.926524883641981, 47.49916550776539 ], [ 22.92152926921241, 47.496575683210473 ], [ 22.916339883259674, 47.494165933598325 ], [ 22.910970949529947, 47.491942889124275 ], [ 22.905437183897405, 47.489912667087147 ], [ 22.899753754028993, 47.488080854858246 ], [ 22.89393623781093, 47.486452494318257 ], [ 22.8880005806508, 47.485032067807516 ], [ 22.881963051772299, 47.483823485630793 ], [ 22.875840199622417, 47.482830075152876 ], [ 22.8696488065133, 47.482054571517118 ], [ 22.863405842623106, 47.48149911001417 ], [ 22.857128419481914, 47.481165220123003 ], [ 22.850833743070215, 47.481053821242078 ], [ 22.844539066658516, 47.481165220123003 ], [ 22.838261643517328, 47.48149911001417 ], [ 22.832018679627129, 47.482054571517118 ], [ 22.825827286518017, 47.482830075152876 ], [ 22.819704434368134, 47.483823485630793 ], [ 22.813666905489633, 47.485032067807516 ], [ 22.8077312483295, 47.486452494318257 ], [ 22.801913732111437, 47.488080854858246 ], [ 22.796230302243028, 47.489912667087147 ], [ 22.790696536610483, 47.491942889124275 ], [ 22.785327602880763, 47.494165933598325 ], [ 22.78013821692802, 47.496575683210473 ], [ 22.775142602498448, 47.49916550776539 ], [ 22.770354452223959, 47.501928282620774 ], [ 22.765786890091629, 47.504856408501659 ], [ 22.761452435471785, 47.507941832622045 ], [ 22.75736296880325, 47.511176071052944 ], [ 22.753529699029901, 47.514550232271951 ], [ 22.749963132877749, 47.518055041826926 ], [ 22.746673046056699, 47.521680868042701 ], [ 22.74366845646605, 47.525417748697279 ], [ 22.74095759947701, 47.529255418591596 ], [ 22.738547905360164, 47.533183337933934 ], [ 22.736445978919587, 47.537190721458991 ], [ 22.734657581389552, 47.541266568198878 ], [ 22.733187614643377, 47.545399691822297 ], [ 22.732040107757737, 47.54957875145675 ], [ 22.731218205969245, 47.553792282907423 ], [ 22.730724162053573, 47.558028730185804 ], [ 22.730559330150751, 47.56227647726039 ], [ 22.730724162053573, 47.566523879941592 ], [ 22.731218205969245, 47.570759297813119 ], [ 22.732040107757737, 47.574971126121852 ], [ 22.733187614643377, 47.579147827539309 ], [ 22.734657581389552, 47.583277963707836 ], [ 22.736445978919587, 47.58735022648618 ], [ 22.738547905360164, 47.591353468809736 ], [ 22.74095759947701, 47.59527673508255 ], [ 22.74366845646605, 47.599109291019374 ], [ 22.746673046056699, 47.602840652858177 ], [ 22.749963132877749, 47.606460615865231 ], [ 22.753529699029901, 47.609959282057154 ], [ 22.75736296880325, 47.613327087066786 ], [ 22.761452435471785, 47.61655482608198 ], [ 22.765786890091629, 47.619633678789327 ], [ 22.770354452223959, 47.622555233257593 ], [ 22.775142602498448, 47.625311508698559 ], [ 22.78013821692802, 47.627894977046196 ], [ 22.785327602880759, 47.630298583298085 ], [ 22.790696536610483, 47.632515764566797 ], [ 22.796230302243028, 47.634540467791965 ], [ 22.801913732111437, 47.636367166067473 ], [ 22.8077312483295, 47.637990873542115 ], [ 22.813666905489633, 47.639407158855427 ], [ 22.819704434368134, 47.640612157074429 ], [ 22.825827286518017, 47.641602580100852 ], [ 22.832018679627129, 47.642375725522399 ], [ 22.838261643517328, 47.642929483885503 ], [ 22.844539066658516, 47.643262344371102 ], [ 22.850833743070215, 47.64337339885909 ], [ 22.857128419481914, 47.643262344371102 ], [ 22.863405842623106, 47.642929483885503 ], [ 22.8696488065133, 47.642375725522399 ], [ 22.875840199622413, 47.641602580100852 ], [ 22.881963051772299, 47.640612157074429 ], [ 22.8880005806508, 47.639407158855427 ], [ 22.89393623781093, 47.637990873542115 ], [ 22.899753754028993, 47.636367166067473 ], [ 22.905437183897405, 47.634540467791965 ], [ 22.910970949529947, 47.632515764566797 ], [ 22.916339883259671, 47.630298583298085 ], [ 22.92152926921241, 47.627894977046196 ], [ 22.926524883641981, 47.625311508698559 ], [ 22.931313033916471, 47.622555233257593 ], [ 22.935880596048801, 47.619633678789327 ], [ 22.940215050668645, 47.61655482608198 ], [ 22.944304517337184, 47.613327087066786 ], [ 22.948137787110532, 47.609959282057154 ], [ 22.951704353262684, 47.606460615865231 ], [ 22.95499444008373, 47.602840652858177 ], [ 22.957999029674383, 47.599109291019374 ], [ 22.96070988666342, 47.59527673508255 ], [ 22.963119580780269, 47.591353468809736 ], [ 22.965221507220846, 47.58735022648618 ], [ 22.967009904750878, 47.583277963707836 ], [ 22.968479871497056, 47.579147827539309 ], [ 22.969627378382693, 47.574971126121852 ], [ 22.970449280171188, 47.570759297813119 ], [ 22.970943324086861, 47.566523879941592 ], [ 22.971108155989679, 47.56227647726039 ] ] ] } },
{ "type": "Feature", "properties": { "name": "Beltiug", "feature_type": "mrr", "metric_roundness": 45.77, "metric_rectangularity": 60.88, "metric_mobile_fit": 34.65, "metric_aspect_ratio": 1.216, "metric_area_km2": 257.66 }, "geometry": { "type": "Polygon", "coordinates": [ [ [ 22.87277646028425, 47.475410090115801 ], [ 22.720205023763292, 47.591613846031656 ], [ 22.831317765569093, 47.657999045054751 ], [ 22.983889202090051, 47.541942635208869 ], [ 22.87277646028425, 47.475410090115801 ] ] ] } }
]
}
