{
"type": "FeatureCollection",
"name": "beniel",
"crs": { "type": "name", "properties": { "name": "urn:ogc:def:crs:OGC:1.3:CRS84" } },
"features": [
{ "type": "Feature", "properties": { "name": "Beniel", "feature_type": "entity", "metric_roundness": 43.3, "metric_rectangularity": 82.74, "metric_mobile_fit": 75.22, "metric_aspect_ratio": 0.81, "metric_area_km2": 16.45 }, "geometry": { "type": "Polygon", "coordinates": [ [ [ -0.998565, 38.0514185 ], [ -1.0126964, 38.0453544 ], [ -1.0136731, 38.034526 ], [ -1.0013125, 38.0243287 ], [ -0.9924221, 38.006205 ], [ -0.9888741, 38.005034 ], [ -0.9659585, 38.012684 ], [ -0.998565, 38.0514185 ] ] ] } },
{ "type": "Feature", "properties": { "name": "Beniel", "feature_type": "circle", "metric_roundness": 43.3, "metric_rectangularity": 82.74, "metric_mobile_fit": 75.22, "metric_aspect_ratio": 0.81, "metric_area_km2": 16.45 }, "geometry": { "type": "Polygon", "coordinates": [ [ [ -0.958083773615719, 38.029021021207676 ], [ -0.958126591988343, 38.027732990245205 ], [ -0.958254929744032, 38.026448467133655 ], [ -0.958468435117918, 38.025170972939868 ], [ -0.958766522906612, 38.023904009646898 ], [ -0.959148376072205, 38.022651050550216 ], [ -0.959612947981712, 38.021415530730735 ], [ -0.960158965275822, 38.020200837630576 ], [ -0.960784931359085, 38.019010301757753 ], [ -0.961489130501976, 38.017847187545243 ], [ -0.962269632543593, 38.016714684389576 ], [ -0.963124298182092, 38.015615897893845 ], [ -0.964050784838365, 38.014553841339087 ], [ -0.965046553076887, 38.013531427407734 ], [ -0.966108873566131, 38.012551460182024 ], [ -0.967234834559477, 38.011616627439366 ], [ -0.968421349876106, 38.010729493266112 ], [ -0.96966516736001, 38.009892491010085 ], [ -0.970962877793921, 38.009107916591567 ], [ -0.972310924243744, 38.00837792219108 ], [ -0.973705611807859, 38.007704510331607 ], [ -0.9751431177446, 38.007089528371637 ], [ -0.976619501950111, 38.006534663424361 ], [ -0.978130717757908, 38.006041437717052 ], [ -0.979672623030506, 38.00561120440365 ], [ -0.981240991512728, 38.005245143842089 ], [ -0.982831524415581, 38.00494426034674 ], [ -0.984439862198935, 38.004709379425094 ], [ -0.986061596520719, 38.004541145506273 ], [ -0.987692282319883, 38.00444002016765 ], [ -0.98932745, 38.004406280864757 ], [ -0.990962617680117, 38.00444002016765 ], [ -0.992593303479281, 38.004541145506273 ], [ -0.994215037801065, 38.004709379425094 ], [ -0.995823375584419, 38.00494426034674 ], [ -0.997413908487272, 38.005245143842089 ], [ -0.998982276969494, 38.00561120440365 ], [ -1.000524182242092, 38.006041437717052 ], [ -1.002035398049889, 38.006534663424361 ], [ -1.0035117822554, 38.007089528371637 ], [ -1.004949288192141, 38.007704510331607 ], [ -1.006343975756256, 38.00837792219108 ], [ -1.007692022206079, 38.009107916591567 ], [ -1.00898973263999, 38.009892491010085 ], [ -1.010233550123894, 38.010729493266112 ], [ -1.011420065440523, 38.011616627439366 ], [ -1.012546026433869, 38.012551460182024 ], [ -1.013608346923113, 38.013531427407734 ], [ -1.014604115161635, 38.014553841339087 ], [ -1.015530601817908, 38.015615897893845 ], [ -1.016385267456407, 38.016714684389576 ], [ -1.017165769498025, 38.017847187545243 ], [ -1.017869968640915, 38.019010301757753 ], [ -1.018495934724178, 38.020200837630576 ], [ -1.019041952018288, 38.021415530730735 ], [ -1.019506523927795, 38.022651050550216 ], [ -1.019888377093388, 38.023904009646898 ], [ -1.020186464882082, 38.025170972939868 ], [ -1.020399970255968, 38.026448467133655 ], [ -1.020528308011657, 38.027732990245205 ], [ -1.020571126384281, 38.029021021207676 ], [ -1.020528308011657, 38.030309029524467 ], [ -1.020399970255968, 38.031593484947059 ], [ -1.020186464882082, 38.032870867150237 ], [ -1.019888377093388, 38.034137675377949 ], [ -1.019506523927795, 38.03539043803363 ], [ -1.019041952018288, 38.036625722188631 ], [ -1.018495934724178, 38.037840142982823 ], [ -1.017869968640915, 38.039030372891624 ], [ -1.017165769498025, 38.040193150834263 ], [ -1.016385267456407, 38.041325291098445 ], [ -1.015530601817908, 38.042423692057028 ], [ -1.014604115161635, 38.043485344652971 ], [ -1.013608346923113, 38.044507340629707 ], [ -1.012546026433869, 38.045486880484184 ], [ -1.011420065440523, 38.04642128112139 ], [ -1.010233550123894, 38.047307983189199 ], [ -1.00898973263999, 38.048144558074021 ], [ -1.007692022206079, 38.048928714537922 ], [ -1.006343975756257, 38.049658304979616 ], [ -1.004949288192141, 38.050331331301962 ], [ -1.0035117822554, 38.050945950370483 ], [ -1.002035398049889, 38.051500479047924 ], [ -1.000524182242092, 38.05199339879124 ], [ -0.998982276969494, 38.052423359798688 ], [ -0.997413908487272, 38.052789184695797 ], [ -0.995823375584419, 38.053089871750181 ], [ -0.994215037801065, 38.053324597606561 ], [ -0.992593303479281, 38.053492719534795 ], [ -0.990962617680117, 38.053593777184474 ], [ -0.98932745, 38.053627493841681 ], [ -0.987692282319884, 38.053593777184474 ], [ -0.986061596520719, 38.053492719534795 ], [ -0.984439862198935, 38.053324597606561 ], [ -0.982831524415581, 38.053089871750181 ], [ -0.981240991512728, 38.052789184695797 ], [ -0.979672623030506, 38.052423359798688 ], [ -0.978130717757908, 38.05199339879124 ], [ -0.976619501950111, 38.051500479047924 ], [ -0.9751431177446, 38.050945950370483 ], [ -0.97370561180786, 38.050331331301962 ], [ -0.972310924243744, 38.049658304979616 ], [ -0.970962877793921, 38.048928714537922 ], [ -0.96966516736001, 38.048144558074021 ], [ -0.968421349876106, 38.047307983189199 ], [ -0.967234834559477, 38.04642128112139 ], [ -0.966108873566131, 38.045486880484184 ], [ -0.965046553076887, 38.044507340629707 ], [ -0.964050784838365, 38.043485344652971 ], [ -0.963124298182092, 38.042423692057028 ], [ -0.962269632543593, 38.041325291098445 ], [ -0.961489130501976, 38.040193150834263 ], [ -0.960784931359085, 38.039030372891624 ], [ -0.960158965275822, 38.037840142982823 ], [ -0.959612947981712, 38.036625722188631 ], [ -0.959148376072205, 38.03539043803363 ], [ -0.958766522906612, 38.034137675377949 ], [ -0.958468435117918, 38.032870867150237 ], [ -0.958254929744032, 38.031593484947059 ], [ -0.958126591988343, 38.030309029524467 ], [ -0.958083773615719, 38.029021021207676 ] ] ] } },
{ "type": "Feature", "properties": { "name": "Beniel", "feature_type": "mrr", "metric_roundness": 43.3, "metric_rectangularity": 82.74, "metric_mobile_fit": 75.22, "metric_aspect_ratio": 0.81, "metric_area_km2": 16.45 }, "geometry": { "type": "Polygon", "coordinates": [ [ [ -0.989171556321552, 38.001872059733046 ], [ -1.019443005714678, 38.042213600118181 ], [ -0.996229953453223, 38.053019586973441 ], [ -0.9659585, 38.012684 ], [ -0.989171556321552, 38.001872059733046 ] ] ] } }
]
}
