{
"type": "FeatureCollection",
"name": "benndorf",
"crs": { "type": "name", "properties": { "name": "urn:ogc:def:crs:OGC:1.3:CRS84" } },
"features": [
{ "type": "Feature", "properties": { "name": "Benndorf", "metric_roundness": 49.72, "metric_rectangularity": 76.53, "metric_mobile_fit": -1.68, "metric_aspect_ratio": 1.579, "metric_area_km2": 14.64 }, "geometry": { "type": "Polygon", "coordinates": [ [ [ 11.4508285, 51.562932 ], [ 11.460358, 51.56236 ], [ 11.4662285, 51.5607555 ], [ 11.4939497, 51.5663235 ], [ 11.4973015, 51.5744605 ], [ 11.4938289, 51.576693 ], [ 11.4618595, 51.578606 ], [ 11.4490875, 51.5812169 ], [ 11.4460342, 51.5795408 ], [ 11.44531, 51.576652399999986 ], [ 11.4506379, 51.569451699999981 ], [ 11.4457372, 51.5665965 ], [ 11.446325, 51.56295 ], [ 11.4508285, 51.562932 ] ] ] } }
]
}
