{
"type": "FeatureCollection",
"name": "beriain",
"crs": { "type": "name", "properties": { "name": "urn:ogc:def:crs:OGC:1.3:CRS84" } },
"features": [
{ "type": "Feature", "properties": { "name": "Beriáin", "metric_roundness": 67.77, "metric_rectangularity": 71.48, "metric_mobile_fit": 65.09, "metric_aspect_ratio": 0.912, "metric_area_km2": 9.47 }, "geometry": { "type": "Polygon", "coordinates": [ [ [ -1.639826, 42.720497 ], [ -1.633707, 42.7199745 ], [ -1.6289924, 42.7351176 ], [ -1.6314316, 42.7415954 ], [ -1.6364135, 42.7446595 ], [ -1.6489869, 42.7419687 ], [ -1.6618879, 42.7333508 ], [ -1.6518433, 42.7252324 ], [ -1.6516007, 42.7191557 ], [ -1.6465465, 42.7181545 ], [ -1.639826, 42.720497 ] ] ] } }
]
}
