{
"type": "FeatureCollection",
"name": "bernsdorf",
"crs": { "type": "name", "properties": { "name": "urn:ogc:def:crs:OGC:1.3:CRS84" } },
"features": [
{ "type": "Feature", "properties": { "name": "Bernsdorf", "metric_roundness": 54.19, "metric_rectangularity": 66.04, "metric_mobile_fit": 84.08, "metric_aspect_ratio": 0.722, "metric_area_km2": 37.81 }, "geometry": { "type": "Polygon", "coordinates": [ [ [ 12.6474679, 50.7756937 ], [ 12.6496845, 50.7537355 ], [ 12.6629772, 50.751518499999982 ], [ 12.6859305, 50.7547495 ], [ 12.6829428, 50.779437599999987 ], [ 12.69572, 50.7818305 ], [ 12.683851, 50.789129499999987 ], [ 12.6816204, 50.794273599999983 ], [ 12.6870541, 50.795260799999987 ], [ 12.6874184, 50.7977681 ], [ 12.680043, 50.8002602 ], [ 12.6701385, 50.7983244 ], [ 12.670111, 50.803286 ], [ 12.6611617, 50.7994929 ], [ 12.6560236, 50.803960099999983 ], [ 12.6531547, 50.7965846 ], [ 12.6478232, 50.802540199999989 ], [ 12.635866, 50.777323 ], [ 12.6474679, 50.7756937 ] ] ] } }
]
}
