{
"type": "FeatureCollection",
"name": "bernesq",
"crs": { "type": "name", "properties": { "name": "urn:ogc:def:crs:OGC:1.3:CRS84" } },
"features": [
{ "type": "Feature", "properties": { "name": "Bernesq", "feature_type": "entity", "metric_roundness": 49.0, "metric_rectangularity": 53.97, "metric_mobile_fit": 38.54, "metric_aspect_ratio": 1.177, "metric_area_km2": 14.19 }, "geometry": { "type": "Polygon", "coordinates": [ [ [ -0.9459216, 49.263533 ], [ -0.9356066, 49.2610006 ], [ -0.9285572, 49.2689993 ], [ -0.9061385, 49.269516 ], [ -0.904954, 49.2797175 ], [ -0.9114608, 49.283556499999989 ], [ -0.9214274, 49.280913299999987 ], [ -0.9355805, 49.2825845 ], [ -0.9400205, 49.287775499999981 ], [ -0.943694, 49.2786621 ], [ -0.9551271, 49.27771509999998 ], [ -0.9553745, 49.272528 ], [ -0.9508664, 49.2722048 ], [ -0.9534604, 49.2640598 ], [ -0.9495735, 49.259828 ], [ -0.9459216, 49.263533 ] ] ] } },
{ "type": "Feature", "properties": { "name": "Bernesq", "feature_type": "circle", "metric_roundness": 49.0, "metric_rectangularity": 53.97, "metric_mobile_fit": 38.54, "metric_aspect_ratio": 1.177, "metric_area_km2": 14.19 }, "geometry": { "type": "Polygon", "coordinates": [ [ [ -0.902111603206815, 49.271807119352218 ], [ -0.902148990999879, 49.270875523537022 ], [ -0.902261051901731, 49.269946463640984 ], [ -0.902447478761227, 49.269022486368627 ], [ -0.902707760595303, 49.268106124634677 ], [ -0.903041183989545, 49.267199890617732 ], [ -0.903446835053606, 49.266306268869016 ], [ -0.903923601926113, 49.265427709495583 ], [ -0.904470177822211, 49.264566621436522 ], [ -0.90508506461536, 49.263725365850625 ], [ -0.905766576943599, 49.262906249634021 ], [ -0.906512846829009, 49.26211151908533 ], [ -0.907321828797707, 49.261343353736002 ], [ -0.908191305486347, 49.260603860362934 ], [ -0.909118893719763, 49.259895067199807 ], [ -0.910102051043082, 49.25921891836321 ], [ -0.911138082690421, 49.258577268509036 ], [ -0.912224148971047, 49.257971877733844 ], [ -0.913357273052777, 49.25740440673551 ], [ -0.914534349121265, 49.256876412246392 ], [ -0.915752150892824, 49.25638934275181 ], [ -0.917007340457449, 49.255944534505737 ], [ -0.918296477427788, 49.255543207854743 ], [ -0.919616028369014, 49.255186463880413 ], [ -0.920962376483716, 49.254875281369614 ], [ -0.922331831525297, 49.254610514120998 ], [ -0.923720639912677, 49.254392888595234 ], [ -0.925124995018601, 49.254223001915705 ], [ -0.926541047603339, 49.254101320224827 ], [ -0.927964916365185, 49.254028177401075 ], [ -0.929392698578834, 49.254003774139854 ], [ -0.930820480792484, 49.254028177401075 ], [ -0.93224434955433, 49.254101320224827 ], [ -0.933660402139067, 49.254223001915705 ], [ -0.935064757244991, 49.254392888595234 ], [ -0.936453565632371, 49.254610514120998 ], [ -0.937823020673952, 49.254875281369614 ], [ -0.939169368788654, 49.255186463880413 ], [ -0.94048891972988, 49.255543207854743 ], [ -0.941778056700219, 49.255944534505737 ], [ -0.943033246264844, 49.25638934275181 ], [ -0.944251048036404, 49.256876412246392 ], [ -0.945428124104892, 49.25740440673551 ], [ -0.946561248186621, 49.257971877733844 ], [ -0.947647314467247, 49.258577268509036 ], [ -0.948683346114586, 49.25921891836321 ], [ -0.949666503437905, 49.259895067199807 ], [ -0.950594091671321, 49.260603860362934 ], [ -0.951463568359962, 49.261343353736002 ], [ -0.952272550328659, 49.26211151908533 ], [ -0.953018820214069, 49.262906249634021 ], [ -0.953700332542308, 49.263725365850625 ], [ -0.954315219335457, 49.264566621436522 ], [ -0.954861795231555, 49.265427709495583 ], [ -0.955338562104063, 49.266306268869016 ], [ -0.955744213168123, 49.267199890617732 ], [ -0.956077636562365, 49.268106124634677 ], [ -0.956337918396442, 49.269022486368627 ], [ -0.956524345255937, 49.269946463640984 ], [ -0.956636406157789, 49.270875523537022 ], [ -0.956673793950853, 49.271807119352218 ], [ -0.956636406157789, 49.272738697575022 ], [ -0.956524345255937, 49.27366770488662 ], [ -0.956337918396442, 49.274591595158618 ], [ -0.956077636562365, 49.275507836429455 ], [ -0.955744213168123, 49.276413917840387 ], [ -0.955338562104063, 49.277307356512182 ], [ -0.954861795231555, 49.278185704343578 ], [ -0.954315219335457, 49.279046554713219 ], [ -0.953700332542308, 49.279887549066466 ], [ -0.953018820214069, 49.280706383369314 ], [ -0.952272550328659, 49.281500814411864 ], [ -0.951463568359962, 49.282268665944095 ], [ -0.950594091671321, 49.283007834627369 ], [ -0.949666503437905, 49.283716295785375 ], [ -0.948683346114586, 49.284392108939045 ], [ -0.947647314467247, 49.285033423110285 ], [ -0.946561248186621, 49.285638481880362 ], [ -0.945428124104892, 49.28620562818891 ], [ -0.944251048036404, 49.286733308860946 ], [ -0.943033246264844, 49.28722007884938 ], [ -0.941778056700219, 49.28766460518171 ], [ -0.94048891972988, 49.288065670600062 ], [ -0.939169368788654, 49.288422176884971 ], [ -0.937823020673952, 49.288733147853755 ], [ -0.936453565632371, 49.288997732025457 ], [ -0.935064757244991, 49.289215204945215 ], [ -0.933660402139067, 49.289384971161667 ], [ -0.93224434955433, 49.289506565852172 ], [ -0.930820480792484, 49.289579656091483 ], [ -0.929392698578834, 49.289604041760306 ], [ -0.927964916365185, 49.289579656091483 ], [ -0.926541047603339, 49.289506565852172 ], [ -0.925124995018601, 49.289384971161667 ], [ -0.923720639912677, 49.289215204945215 ], [ -0.922331831525297, 49.288997732025457 ], [ -0.920962376483716, 49.288733147853755 ], [ -0.919616028369014, 49.288422176884971 ], [ -0.918296477427788, 49.288065670600062 ], [ -0.917007340457449, 49.28766460518171 ], [ -0.915752150892824, 49.28722007884938 ], [ -0.914534349121265, 49.286733308860946 ], [ -0.913357273052777, 49.28620562818891 ], [ -0.912224148971047, 49.285638481880362 ], [ -0.911138082690421, 49.285033423110285 ], [ -0.910102051043082, 49.284392108939045 ], [ -0.909118893719763, 49.283716295785375 ], [ -0.908191305486347, 49.283007834627369 ], [ -0.907321828797707, 49.282268665944095 ], [ -0.906512846829009, 49.281500814411864 ], [ -0.905766576943599, 49.280706383369314 ], [ -0.90508506461536, 49.279887549066466 ], [ -0.904470177822211, 49.279046554713219 ], [ -0.903923601926113, 49.278185704343578 ], [ -0.903446835053606, 49.277307356512182 ], [ -0.903041183989545, 49.276413917840387 ], [ -0.902707760595303, 49.275507836429455 ], [ -0.902447478761227, 49.274591595158618 ], [ -0.902261051901731, 49.27366770488662 ], [ -0.902148990999879, 49.272738697575022 ], [ -0.902111603206815, 49.271807119352218 ] ] ] } },
{ "type": "Feature", "properties": { "name": "Bernesq", "feature_type": "mrr", "metric_roundness": 49.0, "metric_rectangularity": 53.97, "metric_mobile_fit": 38.54, "metric_aspect_ratio": 1.177, "metric_area_km2": 14.19 }, "geometry": { "type": "Polygon", "coordinates": [ [ [ -0.901822912060036, 49.263836816052738 ], [ -0.952817131473408, 49.259555675053662 ], [ -0.958082353968951, 49.286259923316102 ], [ -0.907088134555579, 49.290538747286725 ], [ -0.901822912060036, 49.263836816052738 ] ] ] } }
]
}
