{
"type": "FeatureCollection",
"name": "berrwiller",
"crs": { "type": "name", "properties": { "name": "urn:ogc:def:crs:OGC:1.3:CRS84" } },
"features": [
{ "type": "Feature", "properties": { "name": "Berrwiller", "metric_roundness": 62.52, "metric_rectangularity": 71.66, "metric_mobile_fit": 35.38, "metric_aspect_ratio": 1.209, "metric_area_km2": 16.68 }, "geometry": { "type": "Polygon", "coordinates": [ [ [ 7.2235885, 47.829416 ], [ 7.2266135, 47.830508499999986 ], [ 7.233924, 47.834150199999982 ], [ 7.2334461, 47.8396182 ], [ 7.2412643, 47.8467409 ], [ 7.2319785, 47.8567575 ], [ 7.2268485, 47.857412499999988 ], [ 7.2242485, 47.856345 ], [ 7.222009, 47.857536 ], [ 7.214699, 47.858113 ], [ 7.2093115, 47.85631 ], [ 7.2042525, 47.8558905 ], [ 7.1921315, 47.852927 ], [ 7.189584, 47.849969 ], [ 7.2049385, 47.837959299999987 ], [ 7.223163, 47.829683 ], [ 7.2235885, 47.829416 ] ] ] } }
]
}
