{
"type": "FeatureCollection",
"name": "beugnatre",
"crs": { "type": "name", "properties": { "name": "urn:ogc:def:crs:OGC:1.3:CRS84" } },
"features": [
{ "type": "Feature", "properties": { "name": "Beugnâtre", "metric_roundness": 35.24, "metric_rectangularity": 73.66, "metric_mobile_fit": 99.56, "metric_aspect_ratio": 0.558, "metric_area_km2": 9.43 }, "geometry": { "type": "Polygon", "coordinates": [ [ [ 2.8801505, 50.115996499999987 ], [ 2.8794682, 50.1188674 ], [ 2.8900405, 50.124272499999989 ], [ 2.8822275, 50.1418167 ], [ 2.872953, 50.148171 ], [ 2.860869, 50.142703499999989 ], [ 2.8672037, 50.138317 ], [ 2.8681748, 50.126715 ], [ 2.877274, 50.1146625 ], [ 2.8801505, 50.115996499999987 ] ] ] } }
]
}
