{
"type": "FeatureCollection",
"name": "aniche",
"crs": { "type": "name", "properties": { "name": "urn:ogc:def:crs:OGC:1.3:CRS84" } },
"features": [
{ "type": "Feature", "properties": { "name": "Aniche", "feature_type": "entity", "metric_roundness": 64.26, "metric_rectangularity": 73.05, "metric_mobile_fit": 64.3, "metric_aspect_ratio": 0.919, "metric_area_km2": 16.18 }, "geometry": { "type": "Polygon", "coordinates": [ [ [ 3.2366179, 50.3366634 ], [ 3.2425105, 50.3171805 ], [ 3.2466924, 50.31445979999998 ], [ 3.2635629, 50.3185975 ], [ 3.2670569, 50.325635199999986 ], [ 3.274124, 50.325792 ], [ 3.2739779, 50.3330251 ], [ 3.280888, 50.334026 ], [ 3.2627089, 50.3451959 ], [ 3.2568985, 50.3449965 ], [ 3.243886, 50.340981 ], [ 3.2366179, 50.3366634 ] ] ] } },
{ "type": "Feature", "properties": { "name": "Aniche", "feature_type": "circle", "metric_roundness": 64.26, "metric_rectangularity": 73.05, "metric_mobile_fit": 64.3, "metric_aspect_ratio": 0.919, "metric_area_km2": 16.18 }, "geometry": { "type": "Polygon", "coordinates": [ [ [ 3.281917487666854, 50.329453024775589 ], [ 3.281882622971321, 50.328603069881588 ], [ 3.28177812444643, 50.327755429514404 ], [ 3.281604278515374, 50.326912427183935 ], [ 3.281361561677766, 50.32607637380972 ], [ 3.281050639203586, 50.325249561383494 ], [ 3.280672363309725, 50.324434256682274 ], [ 3.280227770824115, 50.323632695049376 ], [ 3.279718080343854, 50.322847074260409 ], [ 3.279144688895121, 50.322079548491047 ], [ 3.278509168104021, 50.321332222403335 ], [ 3.277813259888868, 50.320607145366843 ], [ 3.277058871685708, 50.319906305830486 ], [ 3.276248071220169, 50.319231625860702 ], [ 3.275383080839968, 50.31858495586097 ], [ 3.274466271423613, 50.317968069487378 ], [ 3.273500155881989, 50.317382658774221 ], [ 3.272487382270639, 50.316830329483224 ], [ 3.271430726531636, 50.316312596689166 ], [ 3.270333084884914, 50.315830880614278 ], [ 3.26919746588993, 50.315386502722873 ], [ 3.268026982199414, 50.314980682087111 ], [ 3.266824842027801, 50.314614532033929 ], [ 3.265594340357743, 50.314289057082561 ], [ 3.264338849908785, 50.314005150181039 ], [ 3.26306181189298, 50.313763590249415 ], [ 3.261766726582765, 50.3135650400366 ], [ 3.260457143716953, 50.313410044296695 ], [ 3.259136652771153, 50.313299028289919 ], [ 3.25780887311926, 50.313232296612242 ], [ 3.256477444113007, 50.313210032357283 ], [ 3.255146015106754, 50.313232296612242 ], [ 3.253818235454862, 50.313299028289919 ], [ 3.252497744509061, 50.313410044296695 ], [ 3.251188161643249, 50.3135650400366 ], [ 3.249893076333034, 50.313763590249415 ], [ 3.24861603831723, 50.314005150181039 ], [ 3.247360547868272, 50.314289057082561 ], [ 3.246130046198214, 50.314614532033929 ], [ 3.244927906026601, 50.314980682087111 ], [ 3.243757422336084, 50.315386502722873 ], [ 3.2426218033411, 50.315830880614278 ], [ 3.241524161694378, 50.316312596689166 ], [ 3.240467505955376, 50.316830329483224 ], [ 3.239454732344026, 50.317382658774221 ], [ 3.238488616802401, 50.317968069487378 ], [ 3.237571807386047, 50.31858495586097 ], [ 3.236706817005846, 50.319231625860702 ], [ 3.235896016540306, 50.319906305830486 ], [ 3.235141628337147, 50.320607145366843 ], [ 3.234445720121994, 50.321332222403335 ], [ 3.233810199330894, 50.322079548491047 ], [ 3.233236807882161, 50.322847074260409 ], [ 3.232727117401899, 50.323632695049376 ], [ 3.232282524916289, 50.324434256682274 ], [ 3.231904249022429, 50.325249561383494 ], [ 3.231593326548249, 50.32607637380972 ], [ 3.231350609710641, 50.326912427183935 ], [ 3.231176763779585, 50.327755429514404 ], [ 3.231072265254693, 50.328603069881588 ], [ 3.231037400559161, 50.329453024775589 ], [ 3.231072265254693, 50.330302964466746 ], [ 3.231176763779585, 50.331150559392 ], [ 3.231350609710641, 50.331993486539297 ], [ 3.231593326548249, 50.332829435812826 ], [ 3.231904249022428, 50.333656116361432 ], [ 3.232282524916289, 50.334471262852929 ], [ 3.232727117401899, 50.335272641677399 ], [ 3.233236807882161, 50.336058057062132 ], [ 3.233810199330894, 50.336825357081899 ], [ 3.234445720121994, 50.337572439548019 ], [ 3.235141628337147, 50.338297257760075 ], [ 3.235896016540306, 50.338997826104894 ], [ 3.236706817005846, 50.339672225487284 ], [ 3.237571807386047, 50.340318608577924 ], [ 3.238488616802401, 50.340935204864167 ], [ 3.239454732344026, 50.341520325489959 ], [ 3.240467505955376, 50.342072367871872 ], [ 3.241524161694378, 50.342589820078537 ], [ 3.2426218033411, 50.343071264961907 ], [ 3.243757422336084, 50.343515384028883 ], [ 3.244927906026601, 50.343920961043061 ], [ 3.246130046198214, 50.344286885346641 ], [ 3.247360547868272, 50.344612154893788 ], [ 3.24861603831723, 50.34489587898689 ], [ 3.249893076333034, 50.345137280708819 ], [ 3.251188161643249, 50.345335699043986 ], [ 3.252497744509061, 50.34549059068322 ], [ 3.253818235454861, 50.345601531506844 ], [ 3.255146015106754, 50.345668217742563 ], [ 3.256477444113007, 50.345690466794693 ], [ 3.25780887311926, 50.345668217742563 ], [ 3.259136652771152, 50.345601531506844 ], [ 3.260457143716953, 50.34549059068322 ], [ 3.261766726582765, 50.345335699043986 ], [ 3.26306181189298, 50.345137280708819 ], [ 3.264338849908785, 50.34489587898689 ], [ 3.265594340357743, 50.344612154893788 ], [ 3.266824842027801, 50.344286885346641 ], [ 3.268026982199414, 50.343920961043061 ], [ 3.26919746588993, 50.343515384028883 ], [ 3.270333084884914, 50.343071264961907 ], [ 3.271430726531636, 50.342589820078537 ], [ 3.272487382270639, 50.342072367871872 ], [ 3.273500155881989, 50.341520325489959 ], [ 3.274466271423613, 50.340935204864167 ], [ 3.275383080839968, 50.340318608577924 ], [ 3.276248071220169, 50.339672225487284 ], [ 3.277058871685708, 50.338997826104894 ], [ 3.277813259888868, 50.338297257760075 ], [ 3.278509168104021, 50.337572439548019 ], [ 3.279144688895121, 50.336825357081899 ], [ 3.279718080343854, 50.336058057062132 ], [ 3.280227770824115, 50.335272641677399 ], [ 3.280672363309725, 50.334471262852929 ], [ 3.281050639203586, 50.333656116361432 ], [ 3.281361561677766, 50.332829435812826 ], [ 3.281604278515374, 50.331993486539297 ], [ 3.28177812444643, 50.331150559392 ], [ 3.281882622971321, 50.330302964466746 ], [ 3.281917487666854, 50.329453024775589 ] ] ] } },
{ "type": "Feature", "properties": { "name": "Aniche", "feature_type": "mrr", "metric_roundness": 64.26, "metric_rectangularity": 73.05, "metric_mobile_fit": 64.3, "metric_aspect_ratio": 0.919, "metric_area_km2": 16.18 }, "geometry": { "type": "Polygon", "coordinates": [ [ [ 3.25584768159302, 50.349410999385988 ], [ 3.283971142071684, 50.332131344971337 ], [ 3.252210452633142, 50.311067391968521 ], [ 3.224086992154478, 50.328354706668364 ], [ 3.25584768159302, 50.349410999385988 ] ] ] } }
]
}
