{
"type": "FeatureCollection",
"name": "antheuil",
"crs": { "type": "name", "properties": { "name": "urn:ogc:def:crs:OGC:1.3:CRS84" } },
"features": [
{ "type": "Feature", "properties": { "name": "Antheuil", "feature_type": "entity", "metric_roundness": 51.78, "metric_rectangularity": 73.94, "metric_mobile_fit": 91.56, "metric_aspect_ratio": 0.647, "metric_area_km2": 21.23 }, "geometry": { "type": "Polygon", "coordinates": [ [ [ 4.7638873, 47.1624167 ], [ 4.7639435, 47.1955345 ], [ 4.7409255, 47.197015 ], [ 4.7370489, 47.1880484 ], [ 4.7270568, 47.1845776 ], [ 4.7338359, 47.1784904 ], [ 4.7316944, 47.1727901 ], [ 4.7345461, 47.1671396 ], [ 4.731697, 47.160548 ], [ 4.7386095, 47.158738499999984 ], [ 4.7469775, 47.158455 ], [ 4.7638143, 47.1557178 ], [ 4.7663575, 47.158157499999987 ], [ 4.7638873, 47.1624167 ] ] ] } },
{ "type": "Feature", "properties": { "name": "Antheuil", "feature_type": "circle", "metric_roundness": 51.78, "metric_rectangularity": 73.94, "metric_mobile_fit": 91.56, "metric_aspect_ratio": 0.647, "metric_area_km2": 21.23 }, "geometry": { "type": "Polygon", "coordinates": [ [ [ 4.784831235539995, 47.176370414704259 ], [ 4.784786748407817, 47.175215588699281 ], [ 4.78465340894742, 47.174063902980599 ], [ 4.784431582632999, 47.172918514547028 ], [ 4.78412187747506, 47.171782563338716 ], [ 4.783725142353917, 47.170659163625302 ], [ 4.783242464692956, 47.169551395462136 ], [ 4.782675167478097, 47.168462296238282 ], [ 4.782024805631575, 47.167394852339434 ], [ 4.781293161750003, 47.166351990948904 ], [ 4.780482241218405, 47.16533657200911 ], [ 4.779594266713594, 47.164351380365943 ], [ 4.778631672111963, 47.163399118117532 ], [ 4.777597095818407, 47.162482397188711 ], [ 4.776493373534632, 47.161603732151853 ], [ 4.775323530486701, 47.160765533313665 ], [ 4.774090773133095, 47.159970100087385 ], [ 4.772798480376029, 47.159219614668714 ], [ 4.771450194300126, 47.158516136032944 ], [ 4.770049610463801, 47.157861594270159 ], [ 4.768600567769997, 47.157257785274147 ], [ 4.767107037944014, 47.156706365799764 ], [ 4.765573114647294, 47.156208848902679 ], [ 4.764003002256969, 47.155766599774061 ], [ 4.762401004341966, 47.155380831981915 ], [ 4.760771511867214, 47.155052604129502 ], [ 4.759118991158322, 47.154782816940141 ], [ 4.75744797165969, 47.154572210776735 ], [ 4.755763033519611, 47.154421363602523 ], [ 4.754068795036408, 47.154330689389369 ], [ 4.7523699, 47.154300436977351 ], [ 4.750671004963591, 47.154330689389369 ], [ 4.748976766480387, 47.154421363602523 ], [ 4.747291828340308, 47.154572210776735 ], [ 4.745620808841676, 47.154782816940141 ], [ 4.743968288132785, 47.155052604129502 ], [ 4.742338795658033, 47.155380831981915 ], [ 4.740736797743029, 47.155766599774061 ], [ 4.739166685352704, 47.156208848902679 ], [ 4.737632762055983, 47.156706365799764 ], [ 4.736139232230002, 47.157257785274147 ], [ 4.734690189536197, 47.157861594270159 ], [ 4.733289605699872, 47.158516136032944 ], [ 4.73194131962397, 47.159219614668714 ], [ 4.730649026866904, 47.159970100087385 ], [ 4.729416269513297, 47.160765533313665 ], [ 4.728246426465367, 47.161603732151853 ], [ 4.727142704181592, 47.162482397188711 ], [ 4.726108127888036, 47.163399118117532 ], [ 4.725145533286404, 47.164351380365943 ], [ 4.724257558781593, 47.16533657200911 ], [ 4.723446638249996, 47.166351990948904 ], [ 4.722714994368424, 47.167394852339434 ], [ 4.722064632521902, 47.168462296238282 ], [ 4.721497335307043, 47.169551395462136 ], [ 4.721014657646082, 47.170659163625302 ], [ 4.720617922524938, 47.171782563338716 ], [ 4.720308217366999, 47.172918514547028 ], [ 4.720086391052578, 47.174063902980599 ], [ 4.719953051592181, 47.175215588699281 ], [ 4.719908564460003, 47.176370414704259 ], [ 4.719953051592181, 47.177525215594656 ], [ 4.720086391052578, 47.178676826244732 ], [ 4.720308217366999, 47.179822090478176 ], [ 4.720617922524938, 47.18095786971557 ], [ 4.721014657646082, 47.18208105157143 ], [ 4.721497335307043, 47.183188558377303 ], [ 4.722064632521902, 47.18427735560762 ], [ 4.722714994368424, 47.185344460185377 ], [ 4.723446638249996, 47.186386948644945 ], [ 4.724257558781593, 47.187401965129808 ], [ 4.725145533286404, 47.188386729203465 ], [ 4.726108127888036, 47.189338543452337 ], [ 4.727142704181592, 47.190254800859947 ], [ 4.728246426465367, 47.191132991932342 ], [ 4.729416269513297, 47.191970711555712 ], [ 4.730649026866904, 47.192765665567173 ], [ 4.73194131962397, 47.193515677021409 ], [ 4.733289605699872, 47.194218692135976 ], [ 4.734690189536197, 47.194872785899221 ], [ 4.736139232230002, 47.195476167325744 ], [ 4.737632762055983, 47.196027184345226 ], [ 4.739166685352704, 47.196524328311369 ], [ 4.740736797743029, 47.196966238118918 ], [ 4.742338795658033, 47.197351703917541 ], [ 4.743968288132785, 47.197679670412697 ], [ 4.745620808841676, 47.197949239744517 ], [ 4.747291828340308, 47.198159673937035 ], [ 4.748976766480387, 47.198310396911104 ], [ 4.750671004963591, 47.198400996055668 ], [ 4.7523699, 47.198431223353104 ], [ 4.754068795036408, 47.198400996055668 ], [ 4.755763033519611, 47.198310396911104 ], [ 4.75744797165969, 47.198159673937035 ], [ 4.759118991158322, 47.197949239744517 ], [ 4.760771511867214, 47.197679670412697 ], [ 4.762401004341965, 47.197351703917541 ], [ 4.764003002256969, 47.196966238118918 ], [ 4.765573114647294, 47.196524328311369 ], [ 4.767107037944014, 47.196027184345226 ], [ 4.768600567769997, 47.195476167325744 ], [ 4.770049610463801, 47.194872785899221 ], [ 4.771450194300126, 47.194218692135976 ], [ 4.772798480376029, 47.193515677021409 ], [ 4.774090773133095, 47.192765665567173 ], [ 4.775323530486701, 47.191970711555712 ], [ 4.776493373534632, 47.191132991932342 ], [ 4.777597095818407, 47.190254800859947 ], [ 4.778631672111963, 47.189338543452337 ], [ 4.779594266713594, 47.188386729203465 ], [ 4.780482241218405, 47.187401965129808 ], [ 4.781293161750003, 47.186386948644945 ], [ 4.782024805631575, 47.185344460185377 ], [ 4.782675167478097, 47.18427735560762 ], [ 4.783242464692956, 47.183188558377303 ], [ 4.783725142353917, 47.18208105157143 ], [ 4.78412187747506, 47.18095786971557 ], [ 4.784431582632999, 47.179822090478176 ], [ 4.78465340894742, 47.178676826244732 ], [ 4.784786748407817, 47.177525215594656 ], [ 4.784831235539995, 47.176370414704259 ] ] ] } },
{ "type": "Feature", "properties": { "name": "Antheuil", "feature_type": "mrr", "metric_roundness": 51.78, "metric_rectangularity": 73.94, "metric_mobile_fit": 91.56, "metric_aspect_ratio": 0.647, "metric_area_km2": 21.23 }, "geometry": { "type": "Polygon", "coordinates": [ [ [ 4.763803754815824, 47.197697449284007 ], [ 4.766509815662857, 47.155798268777282 ], [ 4.728987602715876, 47.154678107143894 ], [ 4.726281541868842, 47.196578171176128 ], [ 4.763803754815824, 47.197697449284007 ] ] ] } }
]
}
