{
"type": "FeatureCollection",
"name": "gramesti",
"crs": { "type": "name", "properties": { "name": "urn:ogc:def:crs:OGC:1.3:CRS84" } },
"features": [
{ "type": "Feature", "properties": { "name": "Grămeşti", "feature_type": "entity", "metric_roundness": 56.75, "metric_rectangularity": 64.59, "metric_mobile_fit": 55.67, "metric_aspect_ratio": 1.006, "metric_area_km2": 75.69 }, "geometry": { "type": "Polygon", "coordinates": [ [ [ 26.1232776, 47.8823176 ], [ 26.121917, 47.874346399999986 ], [ 26.126364, 47.869614 ], [ 26.1456039, 47.885016899999982 ], [ 26.1590232, 47.878001499999989 ], [ 26.1705102, 47.8845217 ], [ 26.1804787, 47.8813574 ], [ 26.1857305, 47.884409 ], [ 26.1896405, 47.8872735 ], [ 26.195382, 47.8912955 ], [ 26.1842271, 47.89404649999998 ], [ 26.1834586, 47.899439199999982 ], [ 26.1904196, 47.908082799999981 ], [ 26.1859258, 47.9104373 ], [ 26.1826232, 47.918832299999984 ], [ 26.1697802, 47.9201857 ], [ 26.166288, 47.9236705 ], [ 26.1620174, 47.927872099999988 ], [ 26.1479386, 47.924974299999988 ], [ 26.1447382, 47.9305751 ], [ 26.1282391, 47.9322859 ], [ 26.1250319, 47.935055099999985 ], [ 26.1253955, 47.940212 ], [ 26.1219, 47.943012599999982 ], [ 26.1166589, 47.9422121 ], [ 26.1161006, 47.932097299999988 ], [ 26.1080816, 47.9274333 ], [ 26.0991899, 47.9305998 ], [ 26.0872885, 47.920525 ], [ 26.0852492, 47.917498799999983 ], [ 26.1006238, 47.9022565 ], [ 26.110846, 47.8989672 ], [ 26.1128475, 47.8891225 ], [ 26.1232776, 47.8823176 ] ] ] } },
{ "type": "Feature", "properties": { "name": "Grămeşti", "feature_type": "circle", "metric_roundness": 56.75, "metric_rectangularity": 64.59, "metric_mobile_fit": 55.67, "metric_aspect_ratio": 1.006, "metric_area_km2": 75.69 }, "geometry": { "type": "Polygon", "coordinates": [ [ [ 26.200077577764642, 47.906697474975367 ], [ 26.199997343929301, 47.904643508427917 ], [ 26.199756862338628, 47.90259509048861 ], [ 26.199356792135973, 47.90055783672878 ], [ 26.198798229885931, 47.898537332774495 ], [ 26.198082706568812, 47.896539118978659 ], [ 26.197212183384288, 47.894568675210117 ], [ 26.19618904637591, 47.892631405801993 ], [ 26.195016099891088, 47.890732624700547 ], [ 26.193696558894608, 47.888877540855979 ], [ 26.192234040156634, 47.887071243895463 ], [ 26.190632552339352, 47.885318690118361 ], [ 26.188896485009561, 47.883624688852642 ], [ 26.187030596607134, 47.881993889210307 ], [ 26.185040001402491, 47.880430767279151 ], [ 26.182930155478719, 47.878939613786294 ], [ 26.180706841776843, 47.877524522268509 ], [ 26.178376154245178, 47.876189377781998 ], [ 26.175944481136248, 47.874937846183798 ], [ 26.17341848749702, 47.873773364014639 ], [ 26.170805096900473, 47.872699129011934 ], [ 26.168111472468585, 47.871718091279568 ], [ 26.165344997238687, 47.870832945139377 ], [ 26.162513253927099, 47.87004612168743 ], [ 26.159624004145396, 47.869359782076025 ], [ 26.156685167126398, 47.868775811540651 ], [ 26.153704798018104, 47.868295814188485 ], [ 26.150691065805077, 47.867921108563486 ], [ 26.147652230917831, 47.867652724000521 ], [ 26.144596622591568, 47.867491397778934 ], [ 26.141532616036308, 47.867437573083549 ], [ 26.138468609481045, 47.867491397778934 ], [ 26.135413001154777, 47.867652724000521 ], [ 26.132374166267535, 47.867921108563486 ], [ 26.129360434054508, 47.868295814188485 ], [ 26.126380064946215, 47.868775811540651 ], [ 26.12344122792722, 47.869359782076025 ], [ 26.120551978145517, 47.87004612168743 ], [ 26.117720234833921, 47.870832945139377 ], [ 26.114953759604028, 47.871718091279568 ], [ 26.112260135172139, 47.872699129011934 ], [ 26.109646744575592, 47.873773364014639 ], [ 26.107120750936364, 47.874937846183798 ], [ 26.10468907782743, 47.876189377781998 ], [ 26.102358390295773, 47.877524522268509 ], [ 26.100135076593894, 47.878939613786294 ], [ 26.098025230670125, 47.880430767279151 ], [ 26.096034635465479, 47.881993889210307 ], [ 26.094168747063051, 47.883624688852642 ], [ 26.09243267973326, 47.885318690118361 ], [ 26.090831191915978, 47.887071243895448 ], [ 26.089368673178004, 47.888877540855979 ], [ 26.088049132181524, 47.890732624700547 ], [ 26.086876185696703, 47.892631405801993 ], [ 26.085853048688325, 47.894568675210117 ], [ 26.084982525503804, 47.896539118978659 ], [ 26.084267002186685, 47.898537332774495 ], [ 26.08370843993664, 47.90055783672878 ], [ 26.083308369733981, 47.90259509048861 ], [ 26.083067888143315, 47.904643508427917 ], [ 26.082987654307971, 47.906697474975367 ], [ 26.083067888143315, 47.90875136001722 ], [ 26.083308369733981, 47.910799534332718 ], [ 26.08370843993664, 47.912836385019745 ], [ 26.084267002186685, 47.914856330868368 ], [ 26.084982525503804, 47.91685383764041 ], [ 26.085853048688325, 47.918823433213319 ], [ 26.086876185696703, 47.920759722547011 ], [ 26.088049132181524, 47.922657402433096 ], [ 26.089368673178004, 47.924511275986561 ], [ 26.090831191915978, 47.926316266840409 ], [ 26.09243267973326, 47.928067433005268 ], [ 26.094168747063051, 47.92975998035616 ], [ 26.096034635465479, 47.931389275710437 ], [ 26.098025230670125, 47.932950859461648 ], [ 26.100135076593894, 47.934440457735271 ], [ 26.102358390295773, 47.935853994033849 ], [ 26.10468907782743, 47.937187600340479 ], [ 26.107120750936364, 47.938437627650757 ], [ 26.109646744575592, 47.939600655905224 ], [ 26.112260135172139, 47.940673503295869 ], [ 26.114953759604028, 47.941653234921773 ], [ 26.117720234833921, 47.942537170771082 ], [ 26.120551978145517, 47.943322893007917 ], [ 26.12344122792722, 47.944008252545103 ], [ 26.126380064946215, 47.944591374885064 ], [ 26.129360434054508, 47.94507066521362 ], [ 26.132374166267535, 47.945444812733115 ], [ 26.135413001154777, 47.945712794223383 ], [ 26.138468609481045, 47.945873876821238 ], [ 26.141532616036308, 47.945927620011055 ], [ 26.144596622591568, 47.945873876821238 ], [ 26.147652230917831, 47.945712794223383 ], [ 26.150691065805077, 47.945444812733115 ], [ 26.153704798018104, 47.94507066521362 ], [ 26.156685167126398, 47.944591374885064 ], [ 26.159624004145396, 47.944008252545103 ], [ 26.162513253927099, 47.943322893007917 ], [ 26.165344997238687, 47.942537170771082 ], [ 26.168111472468585, 47.941653234921773 ], [ 26.170805096900473, 47.940673503295869 ], [ 26.17341848749702, 47.939600655905224 ], [ 26.175944481136248, 47.938437627650757 ], [ 26.178376154245178, 47.937187600340479 ], [ 26.180706841776843, 47.935853994033849 ], [ 26.182930155478719, 47.934440457735271 ], [ 26.185040001402491, 47.932950859461648 ], [ 26.187030596607134, 47.931389275710437 ], [ 26.188896485009561, 47.92975998035616 ], [ 26.190632552339352, 47.928067433005268 ], [ 26.192234040156634, 47.926316266840423 ], [ 26.193696558894608, 47.924511275986561 ], [ 26.195016099891085, 47.922657402433096 ], [ 26.19618904637591, 47.920759722547011 ], [ 26.197212183384288, 47.918823433213319 ], [ 26.198082706568812, 47.91685383764041 ], [ 26.198798229885931, 47.914856330868368 ], [ 26.199356792135973, 47.912836385019745 ], [ 26.199756862338628, 47.910799534332718 ], [ 26.199997343929301, 47.90875136001722 ], [ 26.200077577764642, 47.906697474975367 ] ] ] } },
{ "type": "Feature", "properties": { "name": "Grămeşti", "feature_type": "mrr", "metric_roundness": 56.75, "metric_rectangularity": 64.59, "metric_mobile_fit": 55.67, "metric_aspect_ratio": 1.006, "metric_area_km2": 75.69 }, "geometry": { "type": "Polygon", "coordinates": [ [ [ 26.131771396495253, 47.86274316820807 ], [ 26.07708199877781, 47.927105470601454 ], [ 26.151450557829296, 47.955488531700091 ], [ 26.206139955546746, 47.891161539223539 ], [ 26.131771396495253, 47.86274316820807 ] ] ] } }
]
}
