{
"type": "FeatureCollection",
"name": "gray_la_ville",
"crs": { "type": "name", "properties": { "name": "urn:ogc:def:crs:OGC:1.3:CRS84" } },
"features": [
{ "type": "Feature", "properties": { "name": "Gray-la-Ville", "metric_roundness": 50.22, "metric_rectangularity": 68.62, "metric_mobile_fit": 20.15, "metric_aspect_ratio": 1.361, "metric_area_km2": 8.5 }, "geometry": { "type": "Polygon", "coordinates": [ [ [ 5.5606353, 47.4372373 ], [ 5.5893785, 47.429736 ], [ 5.5872659, 47.4440703 ], [ 5.5733825, 47.448144 ], [ 5.565119, 47.4475645 ], [ 5.562129, 47.448593 ], [ 5.553641, 47.4442825 ], [ 5.551941, 47.4414045 ], [ 5.5521625, 47.438472499999989 ], [ 5.551433, 47.4362875 ], [ 5.553613, 47.431725499999985 ], [ 5.5606353, 47.4372373 ] ] ] } }
]
}
