{
"type": "FeatureCollection",
"name": "gresy_sur_isere",
"crs": { "type": "name", "properties": { "name": "urn:ogc:def:crs:OGC:1.3:CRS84" } },
"features": [
{ "type": "Feature", "properties": { "name": "Grésy-sur-Isère", "metric_roundness": 43.4, "metric_rectangularity": 70.8, "metric_mobile_fit": 73.6, "metric_aspect_ratio": 0.826, "metric_area_km2": 18.18 }, "geometry": { "type": "Polygon", "coordinates": [ [ [ 6.236404, 45.6210685 ], [ 6.236012, 45.618244499999989 ], [ 6.2321235, 45.617704 ], [ 6.225275, 45.61524 ], [ 6.219944, 45.611552 ], [ 6.2319674, 45.6024758 ], [ 6.240501, 45.5855705 ], [ 6.2584375, 45.5814079 ], [ 6.270227, 45.584169 ], [ 6.2583314, 45.6013437 ], [ 6.2574928, 45.610422 ], [ 6.239627, 45.623973 ], [ 6.236404, 45.6210685 ] ] ] } }
]
}
