{
"type": "FeatureCollection",
"name": "gross_plasten",
"crs": { "type": "name", "properties": { "name": "urn:ogc:def:crs:OGC:1.3:CRS84" } },
"features": [
{ "type": "Feature", "properties": { "name": "Groß Plasten", "metric_roundness": 43.79, "metric_rectangularity": 66.01, "metric_mobile_fit": 92.52, "metric_aspect_ratio": 0.637, "metric_area_km2": 97.22 }, "geometry": { "type": "Polygon", "coordinates": [ [ [ 12.8245781, 53.5512067 ], [ 12.8219681, 53.545796799999977 ], [ 12.825872, 53.539602 ], [ 12.8179247, 53.534329099999979 ], [ 12.8174992, 53.530439199999989 ], [ 12.8364598, 53.528976199999981 ], [ 12.8501537, 53.5189396 ], [ 12.859871, 53.518315499999986 ], [ 12.8640433, 53.5243422 ], [ 12.8838265, 53.5342884 ], [ 12.8845612, 53.5383211 ], [ 12.8751643, 53.5427959 ], [ 12.8749698, 53.546575299999986 ], [ 12.8903083, 53.5670217 ], [ 12.9061668, 53.5800617 ], [ 12.9098515, 53.590610499999983 ], [ 12.9060691, 53.596184099999988 ], [ 12.906343, 53.6012135 ], [ 12.8767315, 53.6000793 ], [ 12.8550131, 53.597247 ], [ 12.8496276, 53.6033194 ], [ 12.84101, 53.604385 ], [ 12.8278634, 53.5974127 ], [ 12.8343158, 53.5922337 ], [ 12.832955, 53.5889955 ], [ 12.8447417, 53.5725358 ], [ 12.8208285, 53.557580499999986 ], [ 12.8245781, 53.5512067 ] ] ] } }
]
}
