{
"type": "FeatureCollection",
"name": "gross_ippener",
"crs": { "type": "name", "properties": { "name": "urn:ogc:def:crs:OGC:1.3:CRS84" } },
"features": [
{ "type": "Feature", "properties": { "name": "Groß Ippener", "feature_type": "entity", "metric_roundness": 42.22, "metric_rectangularity": 60.55, "metric_mobile_fit": 99.67, "metric_aspect_ratio": 0.559, "metric_area_km2": 77.75 }, "geometry": { "type": "Polygon", "coordinates": [ [ [ 8.6434731, 53.006128199999985 ], [ 8.6263592, 53.0177734 ], [ 8.6132739, 53.0084741 ], [ 8.6204881, 52.999768499999988 ], [ 8.598228, 52.9890965 ], [ 8.5837812, 52.9723742 ], [ 8.5842338, 52.9594389 ], [ 8.6014733, 52.943627899999989 ], [ 8.603169, 52.938722499999983 ], [ 8.612019, 52.935379499999989 ], [ 8.6119598, 52.9397845 ], [ 8.6194553, 52.9426431 ], [ 8.6288855, 52.9391635 ], [ 8.6362721, 52.9391362 ], [ 8.646058, 52.944047199999986 ], [ 8.6513431, 52.9532768 ], [ 8.6596502, 52.956129299999986 ], [ 8.6602942, 52.961051699999985 ], [ 8.6547745, 52.9631585 ], [ 8.6443104, 52.975653199999982 ], [ 8.6476552, 52.9812376 ], [ 8.6432423, 52.9876977 ], [ 8.6565546, 53.002886499999988 ], [ 8.657161, 53.0089945 ], [ 8.6434731, 53.006128199999985 ] ] ] } },
{ "type": "Feature", "properties": { "name": "Groß Ippener", "feature_type": "circle", "metric_roundness": 42.22, "metric_rectangularity": 60.55, "metric_mobile_fit": 99.67, "metric_aspect_ratio": 0.559, "metric_area_km2": 77.75 }, "geometry": { "type": "Polygon", "coordinates": [ [ [ 8.687981205231413, 52.976596087849281 ], [ 8.687886928042035, 52.9744281441548 ], [ 8.687604354881119, 52.972266034327973 ], [ 8.687134260262061, 52.970115685894612 ], [ 8.686477932681536, 52.967982995017429 ], [ 8.685637171087819, 52.965873810310967 ], [ 8.684614279949999, 52.963793916777405 ], [ 8.683412062941583, 52.961749019907948 ], [ 8.68203381525583, 52.959744729993496 ], [ 8.680483314573843, 52.957786546688432 ], [ 8.678764810710216, 52.955879843870342 ], [ 8.676883013964591, 52.954029854837941 ], [ 8.674843082211042, 52.952241657888479 ], [ 8.672650606760717, 52.950520162315193 ], [ 8.670311597036422, 52.94887009486397 ], [ 8.667832464101231, 52.947295986687209 ], [ 8.665220003086198, 52.945802160831981 ], [ 8.662481374565376, 52.944392720297301 ], [ 8.659624084929177, 52.943071536694738 ], [ 8.65665596580989, 52.941842239544123 ], [ 8.653585152615708, 52.940708206234937 ], [ 8.650420062232145, 52.939672552681735 ], [ 8.647169369951943, 52.938738124700215 ], [ 8.643841985696685, 52.937907490128644 ], [ 8.640447029595338, 52.937182931716727 ], [ 8.636993806986588, 52.936566440802686 ], [ 8.633491782913577, 52.936059711796119 ], [ 8.629950556180868, 52.935664137482867 ], [ 8.626379833044785, 52.935380805164918 ], [ 8.622789400609252, 52.935210493646665 ], [ 8.6191891, 52.935153671076037 ], [ 8.61558879939075, 52.935210493646665 ], [ 8.611998366955214, 52.935380805164918 ], [ 8.608427643819132, 52.935664137482867 ], [ 8.604886417086425, 52.936059711796119 ], [ 8.601384393013413, 52.936566440802686 ], [ 8.597931170404664, 52.937182931716727 ], [ 8.594536214303313, 52.937907490128644 ], [ 8.591208830048057, 52.938738124700215 ], [ 8.587958137767854, 52.939672552681735 ], [ 8.584793047384293, 52.940708206234937 ], [ 8.58172223419011, 52.941842239544123 ], [ 8.578754115070822, 52.943071536694738 ], [ 8.575896825434624, 52.944392720297301 ], [ 8.573158196913802, 52.945802160831981 ], [ 8.570545735898769, 52.947295986687209 ], [ 8.568066602963578, 52.94887009486397 ], [ 8.565727593239282, 52.950520162315193 ], [ 8.563535117788955, 52.952241657888479 ], [ 8.561495186035408, 52.954029854837941 ], [ 8.559613389289781, 52.955879843870342 ], [ 8.557894885426157, 52.957786546688432 ], [ 8.55634438474417, 52.959744729993496 ], [ 8.554966137058416, 52.961749019907948 ], [ 8.553763920050001, 52.963793916777405 ], [ 8.552741028912182, 52.965873810310967 ], [ 8.551900267318464, 52.967982995017429 ], [ 8.551243939737939, 52.970115685894612 ], [ 8.550773845118879, 52.972266034327973 ], [ 8.550491271957966, 52.9744281441548 ], [ 8.550396994768585, 52.976596087849281 ], [ 8.550491271957966, 52.978763922784033 ], [ 8.550773845118879, 52.980925707523269 ], [ 8.551243939737939, 52.983075518102915 ], [ 8.551900267318464, 52.985207464253072 ], [ 8.552741028912182, 52.987315705518618 ], [ 8.553763920050001, 52.989394467233886 ], [ 8.554966137058416, 52.991438056308127 ], [ 8.55634438474417, 52.993440876778926 ], [ 8.557894885426157, 52.995397445091434 ], [ 8.559613389289781, 52.997302405062264 ], [ 8.561495186035408, 52.999150542487719 ], [ 8.563535117788955, 53.00093679935712 ], [ 8.565727593239282, 53.002656287633172 ], [ 8.568066602963578, 53.004304302562367 ], [ 8.570545735898769, 53.00587633548016 ], [ 8.573158196913802, 53.00736808607644 ], [ 8.575896825434624, 53.008775474089184 ], [ 8.578754115070822, 53.010094650394656 ], [ 8.58172223419011, 53.011322007465402 ], [ 8.584793047384293, 53.012454189167876 ], [ 8.587958137767854, 53.013488099874095 ], [ 8.591208830048057, 53.014420912863343 ], [ 8.594536214303313, 53.01525007799156 ], [ 8.597931170404664, 53.015973328608538 ], [ 8.601384393013413, 53.016588687704562 ], [ 8.604886417086425, 53.01709447327044 ], [ 8.608427643819132, 53.017489302856866 ], [ 8.611998366955214, 53.017772097321235 ], [ 8.61558879939075, 53.017942083751997 ], [ 8.6191891, 53.017998797562925 ], [ 8.622789400609252, 53.017942083751997 ], [ 8.626379833044785, 53.017772097321235 ], [ 8.629950556180868, 53.017489302856866 ], [ 8.633491782913577, 53.01709447327044 ], [ 8.636993806986588, 53.016588687704562 ], [ 8.640447029595338, 53.015973328608538 ], [ 8.643841985696685, 53.01525007799156 ], [ 8.647169369951943, 53.014420912863343 ], [ 8.650420062232145, 53.013488099874095 ], [ 8.653585152615708, 53.012454189167876 ], [ 8.65665596580989, 53.011322007465402 ], [ 8.659624084929177, 53.010094650394656 ], [ 8.662481374565376, 53.008775474089184 ], [ 8.665220003086198, 53.00736808607644 ], [ 8.667832464101231, 53.00587633548016 ], [ 8.670311597036422, 53.004304302562367 ], [ 8.672650606760717, 53.002656287633172 ], [ 8.674843082211042, 53.00093679935712 ], [ 8.676883013964591, 52.999150542487719 ], [ 8.678764810710216, 52.997302405062264 ], [ 8.680483314573843, 52.995397445091434 ], [ 8.68203381525583, 52.993440876778926 ], [ 8.683412062941583, 52.991438056308127 ], [ 8.684614279949999, 52.989394467233886 ], [ 8.685637171087819, 52.987315705518618 ], [ 8.686477932681536, 52.985207464253072 ], [ 8.687134260262061, 52.983075518102915 ], [ 8.687604354881119, 52.980925707523269 ], [ 8.687886928042035, 52.978763922784033 ], [ 8.687981205231413, 52.976596087849281 ] ] ] } },
{ "type": "Feature", "properties": { "name": "Groß Ippener", "feature_type": "mrr", "metric_roundness": 42.22, "metric_rectangularity": 60.55, "metric_mobile_fit": 99.67, "metric_aspect_ratio": 0.559, "metric_area_km2": 77.75 }, "geometry": { "type": "Polygon", "coordinates": [ [ [ 8.656540178882285, 53.018487720161005 ], [ 8.661893321946046, 52.936562165858021 ], [ 8.5858452996954, 52.93475883391406 ], [ 8.580492156631635, 53.016687803974612 ], [ 8.656540178882285, 53.018487720161005 ] ] ] } }
]
}
