{
"type": "FeatureCollection",
"name": "grosssteinbach",
"crs": { "type": "name", "properties": { "name": "urn:ogc:def:crs:OGC:1.3:CRS84" } },
"features": [
{ "type": "Feature", "properties": { "name": "Großsteinbach", "feature_type": "entity", "metric_roundness": 49.76, "metric_rectangularity": 67.6, "metric_mobile_fit": 43.04, "metric_aspect_ratio": 1.132, "metric_area_km2": 46.19 }, "geometry": { "type": "Polygon", "coordinates": [ [ [ 15.926952, 47.128319499999989 ], [ 15.928913, 47.129573499999985 ], [ 15.932899, 47.132123 ], [ 15.936848, 47.1339325 ], [ 15.9435275, 47.1369925 ], [ 15.9480205, 47.1420725 ], [ 15.9563665, 47.148982 ], [ 15.9448503, 47.1534088 ], [ 15.9213681, 47.1533921 ], [ 15.9148042, 47.1590719 ], [ 15.9143533, 47.166983699999982 ], [ 15.9066538, 47.169481899999987 ], [ 15.8982751, 47.176502 ], [ 15.8967365, 47.181063 ], [ 15.8607035, 47.1624245 ], [ 15.8722599, 47.1553128 ], [ 15.8716802, 47.147373 ], [ 15.888926, 47.131029 ], [ 15.9019467, 47.1325 ], [ 15.91606, 47.127502299999989 ], [ 15.9195695, 47.123598 ], [ 15.926952, 47.128319499999989 ] ] ] } },
{ "type": "Feature", "properties": { "name": "Großsteinbach", "feature_type": "circle", "metric_roundness": 49.76, "metric_rectangularity": 67.6, "metric_mobile_fit": 43.04, "metric_aspect_ratio": 1.132, "metric_area_km2": 46.19 }, "geometry": { "type": "Polygon", "coordinates": [ [ [ 15.957377064096832, 47.155703675067834 ], [ 15.957310127745474, 47.153965411900195 ], [ 15.95710950215928, 47.152231856564612 ], [ 15.95677573723904, 47.150507761313641 ], [ 15.956309747811204, 47.148797852927309 ], [ 15.955712811120398, 47.147106819744707 ], [ 15.954986563328598, 47.145439298796077 ], [ 15.954132995030523, 47.143799863070825 ], [ 15.95315444579755, 47.142193008956646 ], [ 15.952053597765104, 47.140623143884476 ], [ 15.950833468281123, 47.139094574213452 ], [ 15.949497401635718, 47.137611493389528 ], [ 15.948049059894688, 47.136177970410444 ], [ 15.946492412862074, 47.134797938629404 ], [ 15.944831727199196, 47.133475184928315 ], [ 15.943071554730016, 47.13221333929102 ], [ 15.941216719964931, 47.131015864805448 ], [ 15.939272306877101, 47.129886048122707 ], [ 15.937243644967642, 47.128826990399752 ], [ 15.935136294657839, 47.127841598751061 ], [ 15.932956032048414, 47.126932578233195 ], [ 15.930708833087628, 47.126102424384747 ], [ 15.928400857191637, 47.125353416342705 ], [ 15.926038430361942, 47.124687610554467 ], [ 15.923628027846272, 47.124106835103234 ], [ 15.921176256390376, 47.123612684662866 ], [ 15.918689836129401, 47.123206516096111 ], [ 15.916175582168448, 47.122889444708967 ], [ 15.913640385902864, 47.122662341171498 ], [ 15.911091196129385, 47.122525829113819 ], [ 15.908535, 47.122480283404194 ], [ 15.905978803870612, 47.122525829113819 ], [ 15.903429614097137, 47.122662341171498 ], [ 15.90089441783155, 47.122889444708967 ], [ 15.8983801638706, 47.123206516096111 ], [ 15.895893743609621, 47.123612684662866 ], [ 15.893441972153726, 47.124106835103234 ], [ 15.891031569638059, 47.124687610554467 ], [ 15.888669142808361, 47.125353416342705 ], [ 15.886361166912367, 47.126102424384747 ], [ 15.884113967951583, 47.126932578233195 ], [ 15.881933705342158, 47.127841598751061 ], [ 15.879826355032359, 47.128826990399752 ], [ 15.877797693122899, 47.129886048122707 ], [ 15.875853280035066, 47.131015864805448 ], [ 15.873998445269983, 47.13221333929102 ], [ 15.872238272800802, 47.133475184928315 ], [ 15.870577587137923, 47.134797938629404 ], [ 15.869020940105313, 47.136177970410444 ], [ 15.867572598364282, 47.137611493389528 ], [ 15.866236531718876, 47.139094574213452 ], [ 15.865016402234897, 47.140623143884476 ], [ 15.863915554202448, 47.142193008956646 ], [ 15.862937004969474, 47.143799863070825 ], [ 15.8620834366714, 47.145439298796077 ], [ 15.861357188879602, 47.147106819744707 ], [ 15.860760252188793, 47.148797852927309 ], [ 15.860294262760958, 47.150507761313641 ], [ 15.859960497840717, 47.152231856564612 ], [ 15.859759872254527, 47.153965411900195 ], [ 15.859692935903166, 47.155703675067834 ], [ 15.859759872254527, 47.157441881375711 ], [ 15.859960497840717, 47.159175266754993 ], [ 15.860294262760958, 47.160899080815192 ], [ 15.860760252188793, 47.162608599857073 ], [ 15.861357188879602, 47.164299139807277 ], [ 15.8620834366714, 47.165966069039506 ], [ 15.862937004969474, 47.167604821047362 ], [ 15.863915554202448, 47.169210906934083 ], [ 15.865016402234897, 47.170779927685594 ], [ 15.866236531718876, 47.172307586193313 ], [ 15.867572598364282, 47.173789698994192 ], [ 15.869020940105313, 47.175222207696343 ], [ 15.870577587137923, 47.176601190059195 ], [ 15.872238272800802, 47.177922870698509 ], [ 15.873998445269983, 47.179183631387119 ], [ 15.875853280035066, 47.180380020924005 ], [ 15.877797693122899, 47.181508764545001 ], [ 15.879826355032359, 47.182566772849839 ], [ 15.881933705342158, 47.183551150221675 ], [ 15.884113967951583, 47.184459202716589 ], [ 15.886361166912367, 47.185288445401838 ], [ 15.888669142808361, 47.186036609123342 ], [ 15.891031569638059, 47.186701646684241 ], [ 15.893441972153726, 47.187281738418172 ], [ 15.895893743609621, 47.187775297142252 ], [ 15.8983801638706, 47.188180972476715 ], [ 15.90089441783155, 47.188497654519473 ], [ 15.903429614097137, 47.188724476866234 ], [ 15.905978803870612, 47.188860818967633 ], [ 15.908535, 47.188906307817511 ], [ 15.911091196129385, 47.188860818967633 ], [ 15.913640385902864, 47.188724476866234 ], [ 15.916175582168448, 47.188497654519473 ], [ 15.918689836129401, 47.188180972476715 ], [ 15.921176256390376, 47.187775297142252 ], [ 15.923628027846272, 47.187281738418172 ], [ 15.926038430361942, 47.186701646684241 ], [ 15.928400857191637, 47.186036609123342 ], [ 15.930708833087628, 47.185288445401838 ], [ 15.932956032048414, 47.184459202716589 ], [ 15.935136294657839, 47.183551150221675 ], [ 15.937243644967642, 47.182566772849839 ], [ 15.939272306877101, 47.181508764545001 ], [ 15.941216719964931, 47.180380020924005 ], [ 15.943071554730016, 47.179183631387119 ], [ 15.944831727199196, 47.177922870698509 ], [ 15.946492412862074, 47.176601190059195 ], [ 15.948049059894688, 47.175222207696343 ], [ 15.949497401635714, 47.173789698994192 ], [ 15.950833468281123, 47.172307586193313 ], [ 15.952053597765104, 47.170779927685594 ], [ 15.95315444579755, 47.169210906934083 ], [ 15.954132995030523, 47.167604821047362 ], [ 15.954986563328598, 47.165966069039506 ], [ 15.955712811120398, 47.164299139807277 ], [ 15.956309747811204, 47.162608599857073 ], [ 15.95677573723904, 47.160899080815192 ], [ 15.95710950215928, 47.159175266754993 ], [ 15.957310127745474, 47.157441881375711 ], [ 15.957377064096832, 47.155703675067834 ] ] ] } },
{ "type": "Feature", "properties": { "name": "Großsteinbach", "feature_type": "mrr", "metric_roundness": 49.76, "metric_rectangularity": 67.6, "metric_mobile_fit": 43.04, "metric_aspect_ratio": 1.132, "metric_area_km2": 46.19 }, "geometry": { "type": "Polygon", "coordinates": [ [ [ 15.887919858575518, 47.185804721862041 ], [ 15.957048794115037, 47.148614816936245 ], [ 15.918237125629505, 47.115247158943554 ], [ 15.849108190089986, 47.152460411600501 ], [ 15.887919858575518, 47.185804721862041 ] ] ] } }
]
}
