{
"type": "FeatureCollection",
"name": "grossdietwil",
"crs": { "type": "name", "properties": { "name": "urn:ogc:def:crs:OGC:1.3:CRS84" } },
"features": [
{ "type": "Feature", "properties": { "name": "Grossdietwil", "feature_type": "entity", "metric_roundness": 40.65, "metric_rectangularity": 59.53, "metric_mobile_fit": 75.52, "metric_aspect_ratio": 0.807, "metric_area_km2": 14.74 }, "geometry": { "type": "Polygon", "coordinates": [ [ [ 7.8925666, 47.1513685 ], [ 7.9014616, 47.1654777 ], [ 7.917011, 47.1709 ], [ 7.9165097, 47.1797755 ], [ 7.913395, 47.182617499999985 ], [ 7.8803475, 47.176362499999982 ], [ 7.881147, 47.171625 ], [ 7.8763825, 47.1658085 ], [ 7.8749965, 47.162387 ], [ 7.875504, 47.1599745 ], [ 7.8755875, 47.157248499999987 ], [ 7.8768465, 47.154797 ], [ 7.8771215, 47.152961 ], [ 7.878362, 47.151454 ], [ 7.8798185, 47.14902 ], [ 7.881465, 47.1472325 ], [ 7.8925666, 47.1513685 ] ] ] } },
{ "type": "Feature", "properties": { "name": "Grossdietwil", "feature_type": "circle", "metric_roundness": 40.65, "metric_rectangularity": 59.53, "metric_mobile_fit": 75.52, "metric_aspect_ratio": 0.807, "metric_area_km2": 14.74 }, "geometry": { "type": "Polygon", "coordinates": [ [ [ 7.927959590451949, 47.164927946298782 ], [ 7.927917750709278, 47.163841609643015 ], [ 7.92779234616109, 47.162758228436587 ], [ 7.927583720532535, 47.161680772424781 ], [ 7.92729244565196, 47.160612195290845 ], [ 7.926919319883566, 47.159555426555215 ], [ 7.926465365939148, 47.158513363539051 ], [ 7.925931828074916, 47.157488863414237 ], [ 7.925320168681067, 47.156484735361623 ], [ 7.924632064273486, 47.15550373285928 ], [ 7.923869400898523, 47.15454854612188 ], [ 7.923034268963478, 47.153621794712151 ], [ 7.922128957506933, 47.152726020344836 ], [ 7.921155947924667, 47.151863679902981 ], [ 7.920117907168309, 47.151037138686 ], [ 7.919017680435422, 47.150248663908037 ], [ 7.917858283371, 47.14950041846491 ], [ 7.916642893801811, 47.148794454986572 ], [ 7.915374843026184, 47.14813271019203 ], [ 7.914057606683152, 47.147516999561979 ], [ 7.912694795225973, 47.14694901234428 ], [ 7.911290144026123, 47.146430306906041 ], [ 7.909847503134904, 47.145962306445142 ], [ 7.908370826730722, 47.145546295073395 ], [ 7.906864162280959, 47.145183414281995 ], [ 7.905331639448143, 47.144874659799299 ], [ 7.903777458770837, 47.144620878849551 ], [ 7.902205880150246, 47.144422767820302 ], [ 7.900621211174132, 47.144280870344978 ], [ 7.899027795310007, 47.144195575806016 ], [ 7.89743, 47.144167118262551 ], [ 7.895832204689989, 47.144195575806016 ], [ 7.894238788825865, 47.144280870344978 ], [ 7.892654119849749, 47.144422767820302 ], [ 7.891082541229159, 47.144620878849551 ], [ 7.889528360551854, 47.144874659799299 ], [ 7.887995837719038, 47.145183414281995 ], [ 7.886489173269275, 47.145546295073395 ], [ 7.885012496865092, 47.145962306445142 ], [ 7.883569855973872, 47.146430306906041 ], [ 7.882165204774022, 47.14694901234428 ], [ 7.880802393316844, 47.147516999561972 ], [ 7.879485156973812, 47.14813271019203 ], [ 7.878217106198184, 47.148794454986572 ], [ 7.877001716628997, 47.14950041846491 ], [ 7.875842319564575, 47.150248663908037 ], [ 7.874742092831687, 47.151037138686 ], [ 7.873704052075329, 47.151863679902981 ], [ 7.872731042493062, 47.152726020344836 ], [ 7.87182573103652, 47.153621794712151 ], [ 7.870990599101475, 47.15454854612188 ], [ 7.870227935726509, 47.15550373285928 ], [ 7.869539831318929, 47.156484735361623 ], [ 7.868928171925082, 47.157488863414237 ], [ 7.868394634060848, 47.158513363539051 ], [ 7.867940680116432, 47.159555426555215 ], [ 7.867567554348037, 47.160612195290845 ], [ 7.86727627946746, 47.161680772424781 ], [ 7.867067653838907, 47.162758228436587 ], [ 7.866942249290718, 47.163841609643015 ], [ 7.866900409548047, 47.164927946298782 ], [ 7.866942249290718, 47.166014260739445 ], [ 7.867067653838907, 47.167097575543949 ], [ 7.86727627946746, 47.168174921694529 ], [ 7.867567554348037, 47.169243346711596 ], [ 7.867940680116432, 47.170299922741336 ], [ 7.868394634060848, 47.17134175457393 ], [ 7.868928171925082, 47.172365987570373 ], [ 7.869539831318929, 47.173369815476534 ], [ 7.870227935726509, 47.174350488102817 ], [ 7.870990599101473, 47.175305318848736 ], [ 7.87182573103652, 47.176231692051886 ], [ 7.872731042493062, 47.177127070141225 ], [ 7.873704052075329, 47.177989000575401 ], [ 7.874742092831687, 47.178815122547164 ], [ 7.875842319564575, 47.17960317343568 ], [ 7.877001716628997, 47.180350994989368 ], [ 7.878217106198184, 47.181056539222489 ], [ 7.879485156973812, 47.181717874009379 ], [ 7.880802393316844, 47.182333188361461 ], [ 7.882165204774022, 47.182900797372582 ], [ 7.883569855973872, 47.183419146819361 ], [ 7.885012496865092, 47.183886817404215 ], [ 7.886489173269275, 47.184302528629537 ], [ 7.887995837719038, 47.18466514229258 ], [ 7.889528360551854, 47.18497366559172 ], [ 7.891082541229159, 47.185227253835592 ], [ 7.892654119849749, 47.185425212747987 ], [ 7.894238788825865, 47.185567000362084 ], [ 7.895832204689989, 47.185652228499137 ], [ 7.89743, 47.185680663827497 ], [ 7.899027795310007, 47.185652228499137 ], [ 7.900621211174132, 47.185567000362084 ], [ 7.902205880150246, 47.185425212747987 ], [ 7.903777458770837, 47.185227253835592 ], [ 7.905331639448143, 47.18497366559172 ], [ 7.906864162280959, 47.18466514229258 ], [ 7.908370826730722, 47.184302528629537 ], [ 7.909847503134904, 47.183886817404215 ], [ 7.911290144026123, 47.183419146819361 ], [ 7.912694795225973, 47.182900797372582 ], [ 7.914057606683152, 47.182333188361469 ], [ 7.915374843026184, 47.181717874009379 ], [ 7.916642893801811, 47.181056539222489 ], [ 7.917858283371, 47.180350994989368 ], [ 7.919017680435422, 47.17960317343568 ], [ 7.920117907168309, 47.178815122547164 ], [ 7.921155947924667, 47.177989000575401 ], [ 7.922128957506933, 47.177127070141225 ], [ 7.923034268963478, 47.176231692051886 ], [ 7.923869400898522, 47.175305318848736 ], [ 7.924632064273486, 47.174350488102817 ], [ 7.925320168681067, 47.173369815476534 ], [ 7.925931828074916, 47.172365987570373 ], [ 7.926465365939148, 47.17134175457393 ], [ 7.926919319883566, 47.170299922741336 ], [ 7.92729244565196, 47.169243346711596 ], [ 7.927583720532535, 47.168174921694529 ], [ 7.92779234616109, 47.167097575543949 ], [ 7.927917750709278, 47.166014260739445 ], [ 7.927959590451949, 47.164927946298782 ] ] ] } },
{ "type": "Feature", "properties": { "name": "Grossdietwil", "feature_type": "mrr", "metric_roundness": 40.65, "metric_rectangularity": 59.53, "metric_mobile_fit": 75.52, "metric_aspect_ratio": 0.807, "metric_area_km2": 14.74 }, "geometry": { "type": "Polygon", "coordinates": [ [ [ 7.924000359585352, 47.176483293870653 ], [ 7.884902292612431, 47.145243100953103 ], [ 7.859671492798599, 47.159844172608416 ], [ 7.89876955977152, 47.191075781546836 ], [ 7.924000359585352, 47.176483293870653 ] ] ] } }
]
}
