{
"type": "FeatureCollection",
"name": "grosuplje",
"crs": { "type": "name", "properties": { "name": "urn:ogc:def:crs:OGC:1.3:CRS84" } },
"features": [
{ "type": "Feature", "properties": { "name": "Grosuplje", "metric_roundness": 59.22, "metric_rectangularity": 69.09, "metric_mobile_fit": 73.86, "metric_aspect_ratio": 0.824, "metric_area_km2": 277.5 }, "geometry": { "type": "Polygon", "coordinates": [ [ [ 14.6462066, 45.8764754 ], [ 14.6523648, 45.8754347 ], [ 14.6561559, 45.877875199999977 ], [ 14.6610081, 45.882601799999975 ], [ 14.6590229, 45.8875922 ], [ 14.6636358, 45.8917377 ], [ 14.6719328, 45.892489299999987 ], [ 14.6824319, 45.885170099999989 ], [ 14.7025867, 45.882937899999988 ], [ 14.7081561, 45.877875199999977 ], [ 14.7242041, 45.8737302 ], [ 14.7312038, 45.8748308 ], [ 14.735179, 45.877875199999977 ], [ 14.7512285, 45.884484 ], [ 14.7440938, 45.895954599999989 ], [ 14.7456835, 45.905248499999985 ], [ 14.7510013, 45.9056039 ], [ 14.7522673, 45.908466 ], [ 14.7372928, 45.9249324 ], [ 14.7309232, 45.9408339 ], [ 14.7344353, 45.9464427 ], [ 14.7175028, 45.953239 ], [ 14.7116197, 45.9512668 ], [ 14.7059314, 45.957383399999983 ], [ 14.7127836, 45.9675077 ], [ 14.7248927, 45.976522599999988 ], [ 14.7276935, 45.9862119 ], [ 14.7354589, 45.9915112 ], [ 14.742022, 45.9918019 ], [ 14.7406955, 45.997474 ], [ 14.7204762, 46.002132399999986 ], [ 14.7131099, 46.011981499999983 ], [ 14.705175, 46.014683 ], [ 14.6934226, 46.0088881 ], [ 14.6840749, 46.0103103 ], [ 14.6763959, 46.005374 ], [ 14.6817831, 45.9979687 ], [ 14.6701556, 45.9941077 ], [ 14.6661547, 45.987955399999983 ], [ 14.6436724, 45.9888565 ], [ 14.6329195, 45.9947981 ], [ 14.6314226, 45.9873722 ], [ 14.6255382, 45.987392499999984 ], [ 14.6195781, 45.9897573 ], [ 14.6146565, 45.996376 ], [ 14.6132187, 45.991014799999981 ], [ 14.6039152, 45.991104299999982 ], [ 14.5974223, 45.9866582 ], [ 14.5852509, 45.982435099999989 ], [ 14.5913689, 45.966405099999989 ], [ 14.5949726, 45.965074699999981 ], [ 14.5942741, 45.937523799999987 ], [ 14.5899346, 45.9291629 ], [ 14.5974223, 45.912634 ], [ 14.5992738, 45.9120808 ], [ 14.6024495, 45.908608 ], [ 14.6249754, 45.895739499999983 ], [ 14.6257735, 45.8885201 ], [ 14.6320993, 45.877875199999977 ], [ 14.6402825, 45.875128499999988 ], [ 14.6462066, 45.8764754 ] ] ] } }
]
}
