{
"type": "FeatureCollection",
"name": "grumento_nova",
"crs": { "type": "name", "properties": { "name": "urn:ogc:def:crs:OGC:1.3:CRS84" } },
"features": [
{ "type": "Feature", "properties": { "name": "Grumento Nova", "feature_type": "entity", "metric_roundness": 44.49, "metric_rectangularity": 73.61, "metric_mobile_fit": -4.17, "metric_aspect_ratio": 1.604, "metric_area_km2": 114.4 }, "geometry": { "type": "Polygon", "coordinates": [ [ [ 15.9151599, 40.2600778 ], [ 15.9296935, 40.2686332 ], [ 15.942388, 40.262159499999989 ], [ 15.9566645, 40.280425 ], [ 15.9527648, 40.2870266 ], [ 15.9527608, 40.2940438 ], [ 15.9604165, 40.307068 ], [ 15.9552507, 40.3107726 ], [ 15.9422004, 40.3119022 ], [ 15.8870581, 40.3116732 ], [ 15.8473743, 40.3288254 ], [ 15.843125, 40.3326306 ], [ 15.8400865, 40.3353515 ], [ 15.823539, 40.322864 ], [ 15.8076336, 40.3107613 ], [ 15.8106737, 40.299269 ], [ 15.8031368, 40.2889836 ], [ 15.8020915, 40.278904499999982 ], [ 15.810879, 40.2798665 ], [ 15.8188233, 40.2759267 ], [ 15.8359227, 40.2819715 ], [ 15.843125, 40.2785976 ], [ 15.8661851, 40.2739003 ], [ 15.8828175, 40.2624855 ], [ 15.9151599, 40.2600778 ] ] ] } },
{ "type": "Feature", "properties": { "name": "Grumento Nova", "feature_type": "circle", "metric_roundness": 44.49, "metric_rectangularity": 73.61, "metric_mobile_fit": -4.17, "metric_aspect_ratio": 1.604, "metric_area_km2": 114.4 }, "geometry": { "type": "Polygon", "coordinates": [ [ [ 15.96254079044159, 40.292987717169552 ], [ 15.962429389720377, 40.289742742212546 ], [ 15.962095492898374, 40.286506506337986 ], [ 15.96154001516356, 40.283287881759335 ], [ 15.960764479041794, 40.28009569367066 ], [ 15.959771010223681, 40.276938696022576 ], [ 15.958562331738193, 40.273825547480307 ], [ 15.957141756489049, 40.270764787629894 ], [ 15.955513178174259, 40.267764813498829 ], [ 15.953681060613791, 40.264833856456043 ], [ 15.95165042551452, 40.261979959555447 ], [ 15.949426838706108, 40.259210955386408 ], [ 15.947016394885441, 40.2565344444928 ], [ 15.944425700911479, 40.253957774421018 ], [ 15.941661857696333, 40.251488019455813 ], [ 15.93873244074214, 40.249131961100801 ], [ 15.935645479377147, 40.246896069358492 ], [ 15.932409434747886, 40.244786484862757 ], [ 15.929033176627755, 40.242809001914019 ], [ 15.925525959105574, 40.240969052465175 ], [ 15.921897395220794, 40.239271691103696 ], [ 15.9181574306148, 40.23772158107225 ], [ 15.914316316270618, 40.236322981367906 ], [ 15.910384580415672, 40.235079734956066 ], [ 15.906372999664645, 40.233995258133241 ], [ 15.902292569481538, 40.23307253106848 ], [ 15.898154474041858, 40.232314089550677 ], [ 15.893970055577565, 40.231722017965261 ], [ 15.889750783288816, 40.231297943520246 ], [ 15.885508221907678, 40.231043031738167 ], [ 15.881254, 40.230957983226865 ], [ 15.876999778092317, 40.231043031738167 ], [ 15.872757216711181, 40.231297943520246 ], [ 15.868537944422432, 40.231722017965261 ], [ 15.864353525958139, 40.232314089550677 ], [ 15.860215430518457, 40.23307253106848 ], [ 15.856135000335351, 40.233995258133241 ], [ 15.852123419584325, 40.235079734956066 ], [ 15.848191683729381, 40.236322981367906 ], [ 15.844350569385195, 40.23772158107225 ], [ 15.840610604779201, 40.239271691103696 ], [ 15.836982040894421, 40.240969052465175 ], [ 15.833474823372242, 40.242809001914019 ], [ 15.83009856525211, 40.244786484862757 ], [ 15.82686252062285, 40.246896069358492 ], [ 15.823775559257857, 40.249131961100801 ], [ 15.820846142303663, 40.251488019455813 ], [ 15.818082299088518, 40.253957774421018 ], [ 15.815491605114556, 40.2565344444928 ], [ 15.813081161293889, 40.259210955386408 ], [ 15.810857574485476, 40.261979959555447 ], [ 15.808826939386206, 40.264833856456043 ], [ 15.806994821825738, 40.267764813498829 ], [ 15.805366243510948, 40.270764787629894 ], [ 15.803945668261804, 40.273825547480307 ], [ 15.802736989776315, 40.276938696022576 ], [ 15.801743520958203, 40.28009569367066 ], [ 15.800967984836436, 40.283287881759335 ], [ 15.800412507101624, 40.286506506337986 ], [ 15.80007861027962, 40.289742742212546 ], [ 15.799967209558405, 40.292987717169552 ], [ 15.80007861027962, 40.29623253631528 ], [ 15.800412507101624, 40.299468306463105 ], [ 15.800967984836436, 40.302686160502169 ], [ 15.801743520958203, 40.305877281680615 ], [ 15.802736989776315, 40.309032927737107 ], [ 15.803945668261804, 40.312144454814799 ], [ 15.805366243510948, 40.315203341092747 ], [ 15.806994821825738, 40.318201210070725 ], [ 15.808826939386206, 40.321129853444354 ], [ 15.810857574485476, 40.323981253508748 ], [ 15.813081161293889, 40.326747605030434 ], [ 15.815491605114556, 40.329421336528526 ], [ 15.818082299088518, 40.331995130908254 ], [ 15.820846142303663, 40.334461945391581 ], [ 15.823775559257857, 40.336815030691447 ], [ 15.82686252062285, 40.339047949378724 ], [ 15.83009856525211, 40.341154593392965 ], [ 15.833474823372242, 40.343129200650282 ], [ 15.836982040894421, 40.344966370704427 ], [ 15.840610604779201, 40.346661079419569 ], [ 15.844350569385195, 40.348208692615948 ], [ 15.848191683729381, 40.349604978652351 ], [ 15.852123419584325, 40.350846119912347 ], [ 15.856135000335351, 40.351928723163923 ], [ 15.860215430518457, 40.35284982876523 ], [ 15.864353525958139, 40.353606918692456 ], [ 15.868537944422432, 40.354197923368467 ], [ 15.872757216711181, 40.354621227274514 ], [ 15.876999778092317, 40.354875673330234 ], [ 15.881254, 40.354960566030392 ], [ 15.885508221907678, 40.354875673330234 ], [ 15.889750783288816, 40.354621227274514 ], [ 15.893970055577565, 40.354197923368467 ], [ 15.898154474041858, 40.353606918692456 ], [ 15.902292569481538, 40.35284982876523 ], [ 15.906372999664645, 40.351928723163923 ], [ 15.910384580415672, 40.350846119912347 ], [ 15.914316316270618, 40.349604978652351 ], [ 15.9181574306148, 40.348208692615948 ], [ 15.921897395220794, 40.346661079419569 ], [ 15.925525959105574, 40.344966370704427 ], [ 15.929033176627755, 40.343129200650282 ], [ 15.932409434747886, 40.341154593392965 ], [ 15.935645479377147, 40.339047949378724 ], [ 15.93873244074214, 40.336815030691447 ], [ 15.941661857696333, 40.334461945391581 ], [ 15.944425700911479, 40.331995130908254 ], [ 15.947016394885441, 40.329421336528526 ], [ 15.949426838706108, 40.326747605030434 ], [ 15.95165042551452, 40.323981253508748 ], [ 15.953681060613791, 40.321129853444354 ], [ 15.955513178174259, 40.318201210070725 ], [ 15.957141756489049, 40.315203341092747 ], [ 15.958562331738193, 40.312144454814799 ], [ 15.959771010223681, 40.309032927737107 ], [ 15.960764479041794, 40.305877281680615 ], [ 15.96154001516356, 40.302686160502169 ], [ 15.962095492898374, 40.299468306463105 ], [ 15.962429389720377, 40.29623253631528 ], [ 15.96254079044159, 40.292987717169552 ] ] ] } },
{ "type": "Feature", "properties": { "name": "Grumento Nova", "feature_type": "mrr", "metric_roundness": 44.49, "metric_rectangularity": 73.61, "metric_mobile_fit": -4.17, "metric_aspect_ratio": 1.604, "metric_area_km2": 114.4 }, "geometry": { "type": "Polygon", "coordinates": [ [ [ 15.945913385394849, 40.249649545072778 ], [ 15.796870799694149, 40.279966210942554 ], [ 15.817813991708869, 40.339877059304847 ], [ 15.966856577409571, 40.309587266441802 ], [ 15.945913385394849, 40.249649545072778 ] ] ] } }
]
}
