{
"type": "FeatureCollection",
"name": "gruta",
"crs": { "type": "name", "properties": { "name": "urn:ogc:def:crs:OGC:1.3:CRS84" } },
"features": [
{ "type": "Feature", "properties": { "name": "Gruta", "metric_roundness": 56.79, "metric_rectangularity": 58.37, "metric_mobile_fit": 41.1, "metric_aspect_ratio": 1.152, "metric_area_km2": 346.62 }, "geometry": { "type": "Polygon", "coordinates": [ [ [ 18.8732222, 53.391462 ], [ 18.8987988, 53.4056801 ], [ 18.9029157, 53.4169684 ], [ 18.9271648, 53.4304237 ], [ 18.9525054, 53.4257135 ], [ 18.9496284, 53.4161065 ], [ 18.9519367, 53.406317199999989 ], [ 18.9674828, 53.4113137 ], [ 18.9912449, 53.410183 ], [ 18.9914341, 53.4065262 ], [ 18.9864287, 53.400876399999987 ], [ 18.9892267, 53.390999699999988 ], [ 19.014342, 53.38909 ], [ 19.0143908, 53.4010393 ], [ 19.0341005, 53.401587 ], [ 19.0244966, 53.4166644 ], [ 19.0170795, 53.4382653 ], [ 19.0288987, 53.446149299999988 ], [ 19.044001, 53.4422387 ], [ 19.070915, 53.463388 ], [ 19.0561279, 53.475209 ], [ 19.044693, 53.4757715 ], [ 19.0376474, 53.4830495 ], [ 19.0406453, 53.4887881 ], [ 19.0271072, 53.4880472 ], [ 19.0085, 53.494584799999977 ], [ 19.0004316, 53.492983699999989 ], [ 18.975036, 53.5053835 ], [ 18.959429, 53.511553 ], [ 18.9558768, 53.510845499999981 ], [ 18.9546941, 53.507073899999988 ], [ 18.9511587, 53.5074467 ], [ 18.9435757, 53.5146158 ], [ 18.9290089, 53.510422499999983 ], [ 18.9222989, 53.504523199999987 ], [ 18.8771505, 53.497492 ], [ 18.8879182, 53.4888919 ], [ 18.8849922, 53.483828599999981 ], [ 18.8756513, 53.4807881 ], [ 18.8814885, 53.465445699999989 ], [ 18.871252, 53.461791699999985 ], [ 18.8584907, 53.4641155 ], [ 18.8522438, 53.462526499999989 ], [ 18.8482319, 53.4605792 ], [ 18.8461983, 53.454926299999975 ], [ 18.8281784, 53.4468182 ], [ 18.8491601, 53.4328847 ], [ 18.8805454, 53.4306791 ], [ 18.8775274, 53.421276 ], [ 18.8637985, 53.4199109 ], [ 18.8513934, 53.4143857 ], [ 18.844912, 53.4053337 ], [ 18.845874, 53.400479 ], [ 18.8732222, 53.391462 ] ] ] } }
]
}
