{
"type": "FeatureCollection",
"name": "fuldabruck",
"crs": { "type": "name", "properties": { "name": "urn:ogc:def:crs:OGC:1.3:CRS84" } },
"features": [
{ "type": "Feature", "properties": { "name": "Fuldabrück", "feature_type": "entity", "metric_roundness": 34.89, "metric_rectangularity": 56.91, "metric_mobile_fit": 92.09, "metric_aspect_ratio": 0.483, "metric_area_km2": 42.68 }, "geometry": { "type": "Polygon", "coordinates": [ [ [ 9.5037813, 51.2341981 ], [ 9.5011461, 51.241047 ], [ 9.5135483, 51.2505987 ], [ 9.5151175, 51.256025 ], [ 9.5162815, 51.2722535 ], [ 9.4991191, 51.276238599999978 ], [ 9.4975159, 51.282132 ], [ 9.4915781, 51.2831262 ], [ 9.4904791, 51.271621 ], [ 9.482835, 51.261941 ], [ 9.4621621, 51.244924799999986 ], [ 9.4774333, 51.2317032 ], [ 9.4738345, 51.225069 ], [ 9.4723171, 51.219654899999973 ], [ 9.4785443, 51.219091399999982 ], [ 9.4853073, 51.213046699999985 ], [ 9.5096733, 51.216117799999978 ], [ 9.5161525, 51.222274 ], [ 9.5037813, 51.2341981 ] ] ] } },
{ "type": "Feature", "properties": { "name": "Fuldabrück", "feature_type": "circle", "metric_roundness": 34.89, "metric_rectangularity": 56.91, "metric_mobile_fit": 92.09, "metric_aspect_ratio": 0.483, "metric_area_km2": 42.68 }, "geometry": { "type": "Polygon", "coordinates": [ [ [ 9.544509009313581, 51.248099799002944 ], [ 9.544432172385228, 51.246263049257216 ], [ 9.544201872204846, 51.244431260858498 ], [ 9.543818740009225, 51.242609455511115 ], [ 9.543283825937079, 51.240802628146078 ], [ 9.5425985961507, 51.239015733214025 ], [ 9.541764928817303, 51.23725367108279 ], [ 9.540785108961099, 51.235521274577266 ], [ 9.539661822200209, 51.233823295698599 ], [ 9.538398147385564, 51.232164392559632 ], [ 9.536997548161997, 51.230549116572718 ], [ 9.535463863474625, 51.228981899925586 ], [ 9.533801297046571, 51.227467043380159 ], [ 9.532014405856847, 51.226008704428253 ], [ 9.530108087650003, 51.22461088583723 ], [ 9.528087567511735, 51.22327742461782 ], [ 9.5259583835473, 51.222011981444801 ], [ 9.523726371701946, 51.220818030560331 ], [ 9.521397649764991, 51.219698850188244 ], [ 9.518978600601402, 51.218657513486399 ], [ 9.516475854656791, 51.217696880062398 ], [ 9.513896271783825, 51.216819588076653 ], [ 9.511246922439854, 51.216028046955174 ], [ 9.50853506830728, 51.215324430732565 ], [ 9.505768142389776, 51.21471067204407 ], [ 9.502953728638962, 51.214188456783788 ], [ 9.500099541167296, 51.213759219443979 ], [ 9.497213403104249, 51.21342413914887 ], [ 9.494303225153638, 51.213184136394077 ], [ 9.491376983910939, 51.213039870501028 ], [ 9.4884427, 51.212991737793409 ], [ 9.485508416089059, 51.213039870501028 ], [ 9.48258217484636, 51.213184136394077 ], [ 9.47967199689575, 51.21342413914887 ], [ 9.476785858832701, 51.213759219443979 ], [ 9.473931671361036, 51.214188456783788 ], [ 9.471117257610221, 51.21471067204407 ], [ 9.468350331692719, 51.215324430732565 ], [ 9.465638477560143, 51.216028046955174 ], [ 9.462989128216172, 51.216819588076653 ], [ 9.460409545343206, 51.217696880062398 ], [ 9.457906799398595, 51.218657513486399 ], [ 9.455487750235008, 51.219698850188244 ], [ 9.453159028298053, 51.220818030560331 ], [ 9.450927016452699, 51.222011981444801 ], [ 9.448797832488264, 51.22327742461782 ], [ 9.446777312349996, 51.22461088583723 ], [ 9.444870994143152, 51.226008704428253 ], [ 9.443084102953428, 51.227467043380159 ], [ 9.441421536525372, 51.228981899925586 ], [ 9.439887851838, 51.230549116572718 ], [ 9.438487252614433, 51.232164392559632 ], [ 9.43722357779979, 51.233823295698599 ], [ 9.436100291038899, 51.235521274577266 ], [ 9.435120471182696, 51.23725367108279 ], [ 9.434286803849298, 51.239015733214025 ], [ 9.433601574062919, 51.240802628146078 ], [ 9.433066659990772, 51.242609455511115 ], [ 9.432683527795151, 51.244431260858498 ], [ 9.43245322761477, 51.246263049257216 ], [ 9.432376390686418, 51.248099799002944 ], [ 9.43245322761477, 51.249936475392019 ], [ 9.432683527795151, 51.251768044524461 ], [ 9.433066659990772, 51.25358948709831 ], [ 9.433601574062919, 51.255395812157154 ], [ 9.434286803849298, 51.257182070753743 ], [ 9.435120471182696, 51.258943369492059 ], [ 9.436100291038899, 51.260674883911108 ], [ 9.43722357779979, 51.262371871674056 ], [ 9.438487252614433, 51.264029685526957 ], [ 9.439887851838, 51.265643785991891 ], [ 9.441421536525372, 51.267209753760419 ], [ 9.443084102953428, 51.26872330175356 ], [ 9.444870994143152, 51.270180286816299 ], [ 9.446777312349996, 51.27157672101476 ], [ 9.448797832488264, 51.272908782505894 ], [ 9.450927016452699, 51.274172825950657 ], [ 9.453159028298053, 51.275365392442609 ], [ 9.455487750235008, 51.276483218925598 ], [ 9.457906799398595, 51.277523247075258 ], [ 9.460409545343206, 51.278482631620768 ], [ 9.462989128216172, 51.279358748084682 ], [ 9.465638477560143, 51.280149199920245 ], [ 9.468350331692719, 51.280851825027298 ], [ 9.471117257610221, 51.28146470162946 ], [ 9.473931671361036, 51.281986153496952 ], [ 9.476785858832701, 51.282414754501417 ], [ 9.47967199689575, 51.28274933249044 ], [ 9.48258217484636, 51.282988972471763 ], [ 9.485508416089059, 51.283133019098592 ], [ 9.4884427, 51.283181078449573 ], [ 9.491376983910939, 51.283133019098592 ], [ 9.494303225153638, 51.282988972471763 ], [ 9.497213403104249, 51.28274933249044 ], [ 9.500099541167296, 51.282414754501417 ], [ 9.502953728638962, 51.281986153496952 ], [ 9.505768142389776, 51.28146470162946 ], [ 9.50853506830728, 51.280851825027298 ], [ 9.511246922439854, 51.280149199920245 ], [ 9.513896271783825, 51.279358748084682 ], [ 9.516475854656791, 51.278482631620768 ], [ 9.518978600601402, 51.277523247075258 ], [ 9.521397649764991, 51.276483218925598 ], [ 9.523726371701946, 51.275365392442609 ], [ 9.5259583835473, 51.274172825950657 ], [ 9.528087567511735, 51.272908782505894 ], [ 9.530108087650003, 51.27157672101476 ], [ 9.532014405856847, 51.270180286816299 ], [ 9.533801297046571, 51.26872330175356 ], [ 9.535463863474625, 51.267209753760419 ], [ 9.536997548161997, 51.265643785991891 ], [ 9.538398147385564, 51.264029685526957 ], [ 9.539661822200209, 51.262371871674056 ], [ 9.540785108961099, 51.260674883911108 ], [ 9.541764928817303, 51.258943369492059 ], [ 9.5425985961507, 51.257182070753743 ], [ 9.543283825937079, 51.255395812157154 ], [ 9.543818740009225, 51.25358948709831 ], [ 9.544201872204846, 51.251768044524461 ], [ 9.544432172385228, 51.249936475392019 ], [ 9.544509009313581, 51.248099799002944 ] ] ] } },
{ "type": "Feature", "properties": { "name": "Fuldabrück", "feature_type": "mrr", "metric_roundness": 34.89, "metric_rectangularity": 56.91, "metric_mobile_fit": 92.09, "metric_aspect_ratio": 0.483, "metric_area_km2": 42.68 }, "geometry": { "type": "Polygon", "coordinates": [ [ [ 9.516309515515951, 51.283101208786427 ], [ 9.516128617093395, 51.213015507202826 ], [ 9.46207991251242, 51.213070208814102 ], [ 9.462260810934973, 51.28315582709574 ], [ 9.516309515515951, 51.283101208786427 ] ] ] } }
]
}
