{
"type": "FeatureCollection",
"name": "furstenfeld",
"crs": { "type": "name", "properties": { "name": "urn:ogc:def:crs:OGC:1.3:CRS84" } },
"features": [
{ "type": "Feature", "properties": { "name": "Fürstenfeld", "feature_type": "entity", "metric_roundness": 45.64, "metric_rectangularity": 55.24, "metric_mobile_fit": 78.52, "metric_aspect_ratio": 0.777, "metric_area_km2": 107.95 }, "geometry": { "type": "Polygon", "coordinates": [ [ [ 16.0884058, 47.072882 ], [ 16.0886005, 47.088415 ], [ 16.080748, 47.085966299999981 ], [ 16.0774288, 47.0864474 ], [ 16.07014, 47.087503799999986 ], [ 16.0664641, 47.093654899999983 ], [ 16.0554333, 47.100183499999986 ], [ 16.0227285, 47.0821635 ], [ 16.0222603, 47.0682632 ], [ 16.0258735, 47.061543 ], [ 16.0383579, 47.061894099999989 ], [ 16.0425395, 47.057825099999988 ], [ 16.0289903, 47.055478 ], [ 16.030248, 47.044454199999983 ], [ 16.0350705, 47.0347825 ], [ 16.0291473, 47.019892399999989 ], [ 16.0156784, 47.019291299999978 ], [ 16.021043, 47.0093155 ], [ 16.0528931, 46.9992112 ], [ 16.0621838, 47.0028764 ], [ 16.06464, 47.0007 ], [ 16.0752353, 47.013714199999988 ], [ 16.0774288, 47.0144283 ], [ 16.0891294, 47.0182371 ], [ 16.0852192, 47.0232075 ], [ 16.0897908, 47.033233 ], [ 16.0950844, 47.0362593 ], [ 16.1131965, 47.0324492 ], [ 16.1308655, 47.0124745 ], [ 16.1232211, 47.026422099999984 ], [ 16.1156305, 47.033784699999984 ], [ 16.1192699, 47.045138 ], [ 16.1110396, 47.049525099999983 ], [ 16.106217, 47.0596935 ], [ 16.0972215, 47.060967 ], [ 16.0884058, 47.072882 ] ] ] } },
{ "type": "Feature", "properties": { "name": "Fürstenfeld", "feature_type": "circle", "metric_roundness": 45.64, "metric_rectangularity": 55.24, "metric_mobile_fit": 78.52, "metric_aspect_ratio": 0.777, "metric_area_km2": 107.95 }, "geometry": { "type": "Polygon", "coordinates": [ [ [ 16.151586781429149, 47.048552283710833 ], [ 16.151479935645391, 47.045771999542801 ], [ 16.15115969115098, 47.042999191619082 ], [ 16.150626925713812, 47.040241461791751 ], [ 16.149883099606924, 47.037506371749416 ], [ 16.148930251605968, 47.03480142225893 ], [ 16.147770993401089, 47.032134032561686 ], [ 16.14640850243844, 47.029511519981448 ], [ 16.14484651321105, 47.026941079800167 ], [ 16.143089307022816, 47.024429765457853 ], [ 16.141141700253755, 47.021984469131468 ], [ 16.139009031158647, 47.019611902747101 ], [ 16.136697145235249, 47.017318579478555 ], [ 16.134212379202168, 47.015110795784139 ], [ 16.131561543630394, 47.012994614032166 ], [ 16.128751904275969, 47.010975845764058 ], [ 16.125791162165068, 47.009060035642236 ], [ 16.122687432486021, 47.007252446128092 ], [ 16.119449222346137, 47.005558042933501 ], [ 16.116085407454328, 47.003981481287056 ], [ 16.112605207793393, 47.002527093054006 ], [ 16.109018162348697, 47.001198874746571 ], [ 16.105334102962477, 47.000000476458709 ], [ 16.101563127385425, 46.998935191756928 ], [ 16.09771557159949, 46.998005948556013 ], [ 16.093801981487637, 46.997215301005589 ], [ 16.08983308392833, 46.996565422411059 ], [ 16.085819757393907, 46.996058099208724 ], [ 16.081773002133435, 46.995694726012758 ], [ 16.077703910021796, 46.995476301747999 ], [ 16.073623634157634, 46.995403426879641 ], [ 16.069543358293469, 46.995476301747999 ], [ 16.065474266181834, 46.995694726012758 ], [ 16.061427510921362, 46.996058099208724 ], [ 16.057414184386939, 46.996565422411059 ], [ 16.053445286827635, 46.997215301005589 ], [ 16.049531696715778, 46.998005948556013 ], [ 16.045684140929843, 46.998935191756928 ], [ 16.041913165352792, 47.000000476458709 ], [ 16.038229105966572, 47.001198874746571 ], [ 16.034642060521875, 47.002527093054006 ], [ 16.031161860860941, 47.003981481287056 ], [ 16.027798045969128, 47.005558042933501 ], [ 16.024559835829248, 47.007252446128092 ], [ 16.0214561061502, 47.009060035642236 ], [ 16.0184953640393, 47.010975845764058 ], [ 16.015685724684875, 47.012994614032166 ], [ 16.013034889113101, 47.015110795784139 ], [ 16.010550123080019, 47.017318579478555 ], [ 16.008238237156622, 47.019611902747101 ], [ 16.006105568061514, 47.021984469131468 ], [ 16.004157961292453, 47.024429765457853 ], [ 16.002400755104219, 47.026941079800167 ], [ 16.000838765876825, 47.029511519981448 ], [ 15.999476274914178, 47.032134032561686 ], [ 15.998317016709297, 47.03480142225893 ], [ 15.997364168708344, 47.037506371749416 ], [ 15.996620342601457, 47.040241461791751 ], [ 15.996087577164291, 47.042999191619082 ], [ 15.995767332669878, 47.045771999542801 ], [ 15.99566048688612, 47.048552283710833 ], [ 15.995767332669878, 47.05133242296327 ], [ 15.996087577164291, 47.054104797727931 ], [ 15.996620342601457, 47.056861810898546 ], [ 15.997364168708344, 47.059595908638322 ], [ 15.998317016709297, 47.06229960105231 ], [ 15.999476274914178, 47.064965482671909 ], [ 16.000838765876825, 47.067586252696188 ], [ 16.002400755104219, 47.070154734935031 ], [ 16.004157961292453, 47.072663897400041 ], [ 16.006105568061514, 47.075106871490703 ], [ 16.008238237156622, 47.077476970723815 ], [ 16.010550123080019, 47.07976770895624 ], [ 16.013034889113101, 47.081972818051874 ], [ 16.015685724684875, 47.084086264945846 ], [ 16.0184953640393, 47.086102268060436 ], [ 16.0214561061502, 47.088015313028805 ], [ 16.024559835829248, 47.08982016768519 ], [ 16.027798045969128, 47.091511896281368 ], [ 16.031161860860941, 47.09308587289221 ], [ 16.034642060521875, 47.094537793974631 ], [ 16.038229105966572, 47.095863690047032 ], [ 16.041913165352792, 47.097059936458329 ], [ 16.045684140929843, 47.098123263218426 ], [ 16.049531696715778, 47.099050763864135 ], [ 16.053445286827635, 47.09983990333761 ], [ 16.057414184386939, 47.100488524856267 ], [ 16.061427510921362, 47.100994855756561 ], [ 16.065474266181834, 47.101357512296175 ], [ 16.069543358293469, 47.101575503402124 ], [ 16.073623634157634, 47.101648233354965 ], [ 16.077703910021796, 47.101575503402124 ], [ 16.081773002133435, 47.101357512296175 ], [ 16.085819757393907, 47.100994855756561 ], [ 16.08983308392833, 47.100488524856267 ], [ 16.093801981487637, 47.09983990333761 ], [ 16.09771557159949, 47.099050763864135 ], [ 16.101563127385425, 47.098123263218426 ], [ 16.105334102962477, 47.097059936458329 ], [ 16.109018162348697, 47.095863690047032 ], [ 16.112605207793393, 47.094537793974631 ], [ 16.116085407454328, 47.09308587289221 ], [ 16.119449222346137, 47.091511896281368 ], [ 16.122687432486021, 47.08982016768519 ], [ 16.125791162165068, 47.088015313028805 ], [ 16.128751904275969, 47.086102268060436 ], [ 16.131561543630394, 47.084086264945846 ], [ 16.134212379202168, 47.081972818051874 ], [ 16.136697145235249, 47.07976770895624 ], [ 16.139009031158647, 47.077476970723815 ], [ 16.141141700253755, 47.075106871490703 ], [ 16.143089307022816, 47.072663897400041 ], [ 16.14484651321105, 47.070154734935031 ], [ 16.14640850243844, 47.067586252696188 ], [ 16.147770993401089, 47.064965482671909 ], [ 16.148930251605968, 47.06229960105231 ], [ 16.149883099606924, 47.059595908638322 ], [ 16.150626925713812, 47.056861810898546 ], [ 16.15115969115098, 47.054104797727931 ], [ 16.151479935645391, 47.05133242296327 ], [ 16.151586781429149, 47.048552283710833 ] ] ] } },
{ "type": "Feature", "properties": { "name": "Fürstenfeld", "feature_type": "mrr", "metric_roundness": 45.64, "metric_rectangularity": 55.24, "metric_mobile_fit": 78.52, "metric_aspect_ratio": 0.777, "metric_area_km2": 107.95 }, "geometry": { "type": "Polygon", "coordinates": [ [ [ 16.131706708947672, 47.01262404917653 ], [ 16.025451201661131, 46.993731246302232 ], [ 15.989219816350875, 47.088430486366462 ], [ 16.095475323637416, 47.10728977957487 ], [ 16.131706708947672, 47.01262404917653 ] ] ] } }
]
}
