{
"type": "FeatureCollection",
"name": "pocapaglia",
"crs": { "type": "name", "properties": { "name": "urn:ogc:def:crs:OGC:1.3:CRS84" } },
"features": [
{ "type": "Feature", "properties": { "name": "Pocapaglia", "feature_type": "entity", "metric_roundness": 28.3, "metric_rectangularity": 64.16, "metric_mobile_fit": 79.15, "metric_aspect_ratio": 0.771, "metric_area_km2": 33.88 }, "geometry": { "type": "Polygon", "coordinates": [ [ [ 7.9067915, 44.708891 ], [ 7.909453, 44.7181202 ], [ 7.8919778, 44.729061 ], [ 7.8853433, 44.7375792 ], [ 7.8660284, 44.748806 ], [ 7.8625983, 44.753761 ], [ 7.8430045, 44.7568055 ], [ 7.850154, 44.7514111 ], [ 7.8478477, 44.737505 ], [ 7.8430345, 44.7340475 ], [ 7.8606878, 44.724284599999983 ], [ 7.8692781, 44.7103612 ], [ 7.8825388, 44.69827309999998 ], [ 7.910741, 44.694385 ], [ 7.9104161, 44.6976851 ], [ 7.9041149, 44.702019 ], [ 7.9049415, 44.705572 ], [ 7.9067915, 44.708891 ] ] ] } },
{ "type": "Feature", "properties": { "name": "Pocapaglia", "feature_type": "circle", "metric_roundness": 28.3, "metric_rectangularity": 64.16, "metric_mobile_fit": 79.15, "metric_aspect_ratio": 0.771, "metric_area_km2": 33.88 }, "geometry": { "type": "Polygon", "coordinates": [ [ [ 7.932341075639497, 44.725603669416301 ], [ 7.932265058226986, 44.723541103087861 ], [ 7.932037214347897, 44.721484116873455 ], [ 7.931658168506466, 44.719438349732265 ], [ 7.931128959640995, 44.717409410463738 ], [ 7.930451038276202, 44.715402862317823 ], [ 7.929626262547425, 44.713424207723911 ], [ 7.928656893107608, 44.711478873180255 ], [ 7.927545586931004, 44.709572194345981 ], [ 7.926295390030597, 44.707709401376519 ], [ 7.924909729109192, 44.705895604543443 ], [ 7.923392402167059, 44.704135780178433 ], [ 7.921747568091877, 44.702434756980438 ], [ 7.919979735259515, 44.700797202724225 ], [ 7.918093749176887, 44.699227611407288 ], [ 7.916094779200751, 44.697730290870993 ], [ 7.913988304368866, 44.696309350930733 ], [ 7.911780098382328, 44.694968692047922 ], [ 7.909476213780253, 44.693711994576056 ], [ 7.907082965350194, 44.692542708610624 ], [ 7.904606912819747, 44.691464044471545 ], [ 7.902054842876791, 44.690478963844903 ], [ 7.899433750567643, 44.689590171608785 ], [ 7.896750820124137, 44.688800108366394 ], [ 7.894013405272127, 44.688110943707393 ], [ 7.891229009075449, 44.687524570216446 ], [ 7.888405263370537, 44.687042598246045 ], [ 7.885549907848091, 44.686666351468148 ], [ 7.882670768839124, 44.686396863217432 ], [ 7.879775737863536, 44.686234873636266 ], [ 7.87687275, 44.686180827629748 ], [ 7.873969762136459, 44.686234873636266 ], [ 7.871074731160871, 44.686396863217432 ], [ 7.868195592151905, 44.686666351468148 ], [ 7.865340236629459, 44.687042598246045 ], [ 7.862516490924548, 44.687524570216446 ], [ 7.859732094727869, 44.688110943707393 ], [ 7.856994679875859, 44.688800108366394 ], [ 7.854311749432353, 44.689590171608785 ], [ 7.851690657123205, 44.690478963844903 ], [ 7.849138587180247, 44.691464044471545 ], [ 7.8466625346498, 44.692542708610624 ], [ 7.844269286219744, 44.693711994576056 ], [ 7.841965401617669, 44.694968692047922 ], [ 7.839757195631129, 44.696309350930733 ], [ 7.837650720799243, 44.697730290870993 ], [ 7.835651750823109, 44.699227611407288 ], [ 7.83376576474048, 44.700797202724225 ], [ 7.83199793190812, 44.702434756980438 ], [ 7.830353097832937, 44.704135780178433 ], [ 7.828835770890804, 44.705895604543443 ], [ 7.8274501099694, 44.707709401376519 ], [ 7.826199913068993, 44.709572194345981 ], [ 7.825088606892389, 44.711478873180255 ], [ 7.824119237452569, 44.713424207723911 ], [ 7.823294461723793, 44.715402862317823 ], [ 7.822616540358999, 44.717409410463738 ], [ 7.82208733149353, 44.719438349732265 ], [ 7.821708285652098, 44.721484116873455 ], [ 7.82148044177301, 44.723541103087861 ], [ 7.821404424360499, 44.725603669416301 ], [ 7.82148044177301, 44.727666162205722 ], [ 7.821708285652098, 44.729722928608759 ], [ 7.82208733149353, 44.731768332074516 ], [ 7.822616540358999, 44.733796767788078 ], [ 7.823294461723793, 44.73580267801654 ], [ 7.824119237452569, 44.737780567319675 ], [ 7.825088606892389, 44.739725017583908 ], [ 7.826199913068993, 44.741630702838492 ], [ 7.8274501099694, 44.743492403813846 ], [ 7.828835770890804, 44.745305022202515 ], [ 7.830353097832937, 44.747063594584127 ], [ 7.83199793190812, 44.748763305976695 ], [ 7.83376576474048, 44.750399502977899 ], [ 7.835651750823109, 44.751967706460611 ], [ 7.837650720799243, 44.753463623788853 ], [ 7.839757195631129, 44.754883160521082 ], [ 7.841965401617668, 44.756222431569732 ], [ 7.844269286219744, 44.757477771786697 ], [ 7.8466625346498, 44.758645745946858 ], [ 7.849138587180247, 44.759723158102709 ], [ 7.851690657123205, 44.760707060285156 ], [ 7.854311749432353, 44.761594760527394 ], [ 7.856994679875859, 44.762383830190302 ], [ 7.859732094727867, 44.763072110570107 ], [ 7.862516490924548, 44.763657718770467 ], [ 7.865340236629459, 44.764139052823602 ], [ 7.868195592151905, 44.764514796046676 ], [ 7.871074731160871, 44.764783920622079 ], [ 7.873969762136459, 44.764945690391933 ], [ 7.87687275, 44.764999662859459 ], [ 7.879775737863536, 44.764945690391933 ], [ 7.882670768839124, 44.764783920622079 ], [ 7.885549907848091, 44.764514796046676 ], [ 7.888405263370537, 44.764139052823602 ], [ 7.891229009075449, 44.763657718770467 ], [ 7.894013405272127, 44.763072110570107 ], [ 7.896750820124137, 44.762383830190302 ], [ 7.899433750567643, 44.761594760527394 ], [ 7.902054842876791, 44.760707060285156 ], [ 7.904606912819747, 44.759723158102709 ], [ 7.907082965350194, 44.758645745946858 ], [ 7.909476213780253, 44.757477771786697 ], [ 7.911780098382327, 44.756222431569732 ], [ 7.913988304368866, 44.754883160521082 ], [ 7.916094779200751, 44.753463623788853 ], [ 7.918093749176887, 44.751967706460611 ], [ 7.919979735259515, 44.750399502977899 ], [ 7.921747568091877, 44.748763305976695 ], [ 7.923392402167059, 44.747063594584127 ], [ 7.924909729109192, 44.745305022202515 ], [ 7.926295390030597, 44.743492403813846 ], [ 7.927545586931004, 44.741630702838492 ], [ 7.928656893107608, 44.739725017583908 ], [ 7.929626262547425, 44.737780567319675 ], [ 7.930451038276202, 44.73580267801654 ], [ 7.931128959640995, 44.733796767788078 ], [ 7.931658168506466, 44.731768332074516 ], [ 7.932037214347897, 44.729722928608759 ], [ 7.932265058226986, 44.727666162205722 ], [ 7.932341075639497, 44.725603669416301 ] ] ] } },
{ "type": "Feature", "properties": { "name": "Pocapaglia", "feature_type": "mrr", "metric_roundness": 28.3, "metric_rectangularity": 64.16, "metric_mobile_fit": 79.15, "metric_aspect_ratio": 0.771, "metric_area_km2": 33.88 }, "geometry": { "type": "Polygon", "coordinates": [ [ [ 7.895942691936503, 44.686129752333031 ], [ 7.82746144474895, 44.748144113951419 ], [ 7.857681436047076, 44.764983046933764 ], [ 7.926162683234629, 44.702986744300894 ], [ 7.895942691936503, 44.686129752333031 ] ] ] } }
]
}
