{
"type": "FeatureCollection",
"name": "podenzano",
"crs": { "type": "name", "properties": { "name": "urn:ogc:def:crs:OGC:1.3:CRS84" } },
"features": [
{ "type": "Feature", "properties": { "name": "Podenzano", "metric_roundness": 60.78, "metric_rectangularity": 69.52, "metric_mobile_fit": 54.21, "metric_aspect_ratio": 1.02, "metric_area_km2": 89.01 }, "geometry": { "type": "Polygon", "coordinates": [ [ [ 9.6725632, 45.001848699999989 ], [ 9.6708051, 44.9946627 ], [ 9.6628266, 44.9898291 ], [ 9.6679486, 44.98432589999998 ], [ 9.6643544, 44.967574 ], [ 9.6520187, 44.964273399999989 ], [ 9.6476385, 44.958896 ], [ 9.658544, 44.944664 ], [ 9.6692028, 44.947175399999985 ], [ 9.6946427, 44.9287917 ], [ 9.7081016, 44.9355627 ], [ 9.715432, 44.934272 ], [ 9.721237, 44.9402061 ], [ 9.7329324, 44.962772099999988 ], [ 9.7499016, 44.9692736 ], [ 9.753782, 44.9779505 ], [ 9.7600485, 44.992429 ], [ 9.7328473, 44.995784099999987 ], [ 9.725872, 45.0053106 ], [ 9.699425, 44.996974399999985 ], [ 9.6982991, 45.0003485 ], [ 9.6896806, 45.0012559 ], [ 9.6865553, 45.0055701 ], [ 9.6730439, 45.0067338 ], [ 9.6698245, 45.004444499999984 ], [ 9.6725632, 45.001848699999989 ] ] ] } }
]
}
