{
"type": "FeatureCollection",
"name": "podhradni_lhota",
"crs": { "type": "name", "properties": { "name": "urn:ogc:def:crs:OGC:1.3:CRS84" } },
"features": [
{ "type": "Feature", "properties": { "name": "Podhradní Lhota", "metric_roundness": 66.54, "metric_rectangularity": 71.65, "metric_mobile_fit": 61.67, "metric_aspect_ratio": 0.946, "metric_area_km2": 8.02 }, "geometry": { "type": "Polygon", "coordinates": [ [ [ 17.8011842, 49.4208207 ], [ 17.8079025, 49.425795199999968 ], [ 17.798245, 49.4341895 ], [ 17.7891211, 49.4281446 ], [ 17.7757815, 49.4283435 ], [ 17.778897, 49.418299499999982 ], [ 17.7822472, 49.414184899999988 ], [ 17.7913012, 49.4120984 ], [ 17.806288, 49.4181105 ], [ 17.8011842, 49.4208207 ] ] ] } }
]
}
