{
"type": "FeatureCollection",
"name": "pohronsky_ruskov",
"crs": { "type": "name", "properties": { "name": "urn:ogc:def:crs:OGC:1.3:CRS84" } },
"features": [
{ "type": "Feature", "properties": { "name": "Pohronský Ruskov", "feature_type": "entity", "metric_roundness": 37.18, "metric_rectangularity": 64.56, "metric_mobile_fit": -44.61, "metric_aspect_ratio": 2.009, "metric_area_km2": 20.5 }, "geometry": { "type": "Polygon", "coordinates": [ [ [ 18.6302435, 47.987495 ], [ 18.6235848, 47.9793794 ], [ 18.6096185, 47.9770945 ], [ 18.6076916, 47.973019 ], [ 18.6103125, 47.971332 ], [ 18.6473314, 47.962403699999982 ], [ 18.6639026, 47.970940499999983 ], [ 18.682975, 47.9724335 ], [ 18.679414, 47.982347499999982 ], [ 18.6302435, 47.987495 ] ] ] } },
{ "type": "Feature", "properties": { "name": "Pohronský Ruskov", "feature_type": "circle", "metric_roundness": 37.18, "metric_rectangularity": 64.56, "metric_mobile_fit": -44.61, "metric_aspect_ratio": 2.009, "metric_area_km2": 20.5 }, "geometry": { "type": "Polygon", "coordinates": [ [ [ 18.682977539797921, 47.972726250829822 ], [ 18.682925949675589, 47.971407251347102 ], [ 18.682771320713528, 47.970091833598396 ], [ 18.682514076738972, 47.968783603465823 ], [ 18.682154922839786, 47.967486147401445 ], [ 18.681694843431831, 47.966203022589617 ], [ 18.681135099560791, 47.964937747186589 ], [ 18.680477225445703, 47.963693790664315 ], [ 18.679723024273802, 47.962474564285117 ], [ 18.678874563258059, 47.961283411733433 ], [ 18.677934167971152, 47.96012359993049 ], [ 18.676904415971194, 47.958998310057446 ], [ 18.675788129736844, 47.957910628811618 ], [ 18.674588368931069, 47.95686353992032 ], [ 18.673308422014852, 47.955859915935577 ], [ 18.671951797233721, 47.954902510332715 ], [ 18.670522213001899, 47.953993949934613 ], [ 18.669023587710402, 47.953136727682875 ], [ 18.667460028986977, 47.952333195775893 ], [ 18.665835822437412, 47.951585559193006 ], [ 18.664155419898957, 47.950895869622876 ], [ 18.662423427238174, 47.950266019812815 ], [ 18.660644591726545, 47.949697738355162 ], [ 18.65882378902857, 47.949192584924965 ], [ 18.65696600983788, 47.948751945982558 ], [ 18.655076346198104, 47.948377030952827 ], [ 18.653159977545933, 47.948068868892079 ], [ 18.651222156514631, 47.947828305651633 ], [ 18.649268194536955, 47.947656001546306 ], [ 18.647303447286859, 47.947552429534092 ], [ 18.6453333, 47.947517873912368 ], [ 18.643363152713135, 47.947552429534092 ], [ 18.64139840546304, 47.947656001546306 ], [ 18.639444443485363, 47.947828305651633 ], [ 18.637506622454062, 47.948068868892079 ], [ 18.635590253801887, 47.948377030952827 ], [ 18.633700590162114, 47.948751945982558 ], [ 18.631842810971424, 47.949192584924965 ], [ 18.630022008273446, 47.949697738355162 ], [ 18.62824317276182, 47.950266019812815 ], [ 18.626511180101033, 47.950895869622876 ], [ 18.624830777562579, 47.951585559193006 ], [ 18.623206571013014, 47.952333195775893 ], [ 18.621643012289592, 47.953136727682875 ], [ 18.620144386998092, 47.953993949934613 ], [ 18.618714802766274, 47.954902510332715 ], [ 18.617358177985139, 47.955859915935577 ], [ 18.616078231068922, 47.95686353992032 ], [ 18.61487847026315, 47.957910628811618 ], [ 18.613762184028797, 47.958998310057446 ], [ 18.612732432028839, 47.96012359993049 ], [ 18.611792036741932, 47.961283411733433 ], [ 18.610943575726193, 47.962474564285117 ], [ 18.610189374554288, 47.963693790664315 ], [ 18.609531500439203, 47.964937747186589 ], [ 18.608971756568163, 47.966203022589617 ], [ 18.608511677160209, 47.967486147401445 ], [ 18.608152523261019, 47.968783603465823 ], [ 18.607895279286467, 47.970091833598396 ], [ 18.607740650324406, 47.971407251347102 ], [ 18.607689060202073, 47.972726250829822 ], [ 18.607740650324406, 47.974045216622443 ], [ 18.607895279286467, 47.975360533669935 ], [ 18.608152523261019, 47.976668597193523 ], [ 18.608511677160209, 47.977965822566517 ], [ 18.608971756568163, 47.979248655132082 ], [ 18.609531500439203, 47.980513579935874 ], [ 18.610189374554288, 47.98175713134718 ], [ 18.610943575726193, 47.982975902542165 ], [ 18.611792036741932, 47.984166554823467 ], [ 18.612732432028839, 47.98532582675093 ], [ 18.613762184028797, 47.98645054305841 ], [ 18.61487847026315, 47.987537623332678 ], [ 18.616078231068922, 47.988584090430777 ], [ 18.617358177985139, 47.989587078613191 ], [ 18.618714802766274, 47.990543841370588 ], [ 18.620144386998092, 47.991451758923226 ], [ 18.621643012289592, 47.992308345372649 ], [ 18.623206571013014, 47.993111255486468 ], [ 18.624830777562579, 47.993858291097808 ], [ 18.626511180101033, 47.994547407102402 ], [ 18.62824317276182, 47.995176717037026 ], [ 18.630022008273446, 47.99574449822434 ], [ 18.631842810971424, 47.996249196470352 ], [ 18.633700590162114, 47.996689430301828 ], [ 18.635590253801887, 47.997063994732358 ], [ 18.637506622454062, 47.997371864546878 ], [ 18.639444443485363, 47.997612197095975 ], [ 18.64139840546304, 47.997784334592325 ], [ 18.643363152713135, 47.997887805903353 ], [ 18.6453333, 47.997922327834971 ], [ 18.647303447286859, 47.997887805903353 ], [ 18.649268194536955, 47.997784334592325 ], [ 18.651222156514631, 47.997612197095975 ], [ 18.653159977545933, 47.997371864546878 ], [ 18.655076346198104, 47.997063994732358 ], [ 18.65696600983788, 47.996689430301828 ], [ 18.65882378902857, 47.996249196470352 ], [ 18.660644591726545, 47.99574449822434 ], [ 18.662423427238174, 47.995176717037026 ], [ 18.664155419898957, 47.994547407102402 ], [ 18.665835822437412, 47.993858291097808 ], [ 18.667460028986977, 47.993111255486468 ], [ 18.669023587710402, 47.992308345372649 ], [ 18.670522213001899, 47.991451758923226 ], [ 18.671951797233721, 47.990543841370588 ], [ 18.673308422014852, 47.989587078613191 ], [ 18.674588368931069, 47.988584090430777 ], [ 18.675788129736844, 47.987537623332678 ], [ 18.676904415971194, 47.98645054305841 ], [ 18.677934167971152, 47.98532582675093 ], [ 18.678874563258059, 47.984166554823467 ], [ 18.679723024273802, 47.982975902542165 ], [ 18.680477225445703, 47.98175713134718 ], [ 18.681135099560791, 47.980513579935874 ], [ 18.681694843431831, 47.979248655132082 ], [ 18.682154922839786, 47.977965822566517 ], [ 18.682514076738972, 47.976668597193523 ], [ 18.682771320713528, 47.975360533669935 ], [ 18.682925949675589, 47.974045216622443 ], [ 18.682977539797921, 47.972726250829822 ] ] ] } },
{ "type": "Feature", "properties": { "name": "Pohronský Ruskov", "feature_type": "mrr", "metric_roundness": 37.18, "metric_rectangularity": 64.56, "metric_mobile_fit": -44.61, "metric_aspect_ratio": 2.009, "metric_area_km2": 20.5 }, "geometry": { "type": "Polygon", "coordinates": [ [ [ 18.611531749696614, 47.98945373702302 ], [ 18.685150995384522, 47.981746878617002 ], [ 18.679836883784077, 47.958999209499787 ], [ 18.606217638096176, 47.96670946356916 ], [ 18.611531749696614, 47.98945373702302 ] ] ] } }
]
}
