{
"type": "FeatureCollection",
"name": "pohronsky_bukovec",
"crs": { "type": "name", "properties": { "name": "urn:ogc:def:crs:OGC:1.3:CRS84" } },
"features": [
{ "type": "Feature", "properties": { "name": "Pohronský Bukovec", "metric_roundness": 21.32, "metric_rectangularity": 55.24, "metric_mobile_fit": 78.28, "metric_aspect_ratio": 0.345, "metric_area_km2": 33.19 }, "geometry": { "type": "Polygon", "coordinates": [ [ [ 19.3922015, 48.8106898 ], [ 19.3849958, 48.817186899999989 ], [ 19.3824698, 48.8310319 ], [ 19.4011694, 48.848711799999975 ], [ 19.403015, 48.8535135 ], [ 19.3981147, 48.864333599999988 ], [ 19.3863029, 48.875154699999982 ], [ 19.3840391, 48.8814814 ], [ 19.363555, 48.885362 ], [ 19.3605868, 48.8778508 ], [ 19.3630581, 48.8643059 ], [ 19.3682351, 48.857338 ], [ 19.3666044, 48.8361839 ], [ 19.3685544, 48.825667499999987 ], [ 19.3836084, 48.809598 ], [ 19.3936595, 48.804507 ], [ 19.3922015, 48.8106898 ] ] ] } }
]
}
