{
"type": "FeatureCollection",
"name": "polentinos",
"crs": { "type": "name", "properties": { "name": "urn:ogc:def:crs:OGC:1.3:CRS84" } },
"features": [
{ "type": "Feature", "properties": { "name": "Polentinos", "metric_roundness": 42.29, "metric_rectangularity": 63.06, "metric_mobile_fit": 24.02, "metric_aspect_ratio": 1.322, "metric_area_km2": 27.6 }, "geometry": { "type": "Polygon", "coordinates": [ [ [ -4.5818075, 42.957073 ], [ -4.58437, 42.95275849999998 ], [ -4.5813945, 42.9491195 ], [ -4.5785155, 42.948643 ], [ -4.571783, 42.939884 ], [ -4.5615465, 42.931122 ], [ -4.562224, 42.924846499999987 ], [ -4.559069, 42.9256095 ], [ -4.5561265, 42.9255525 ], [ -4.5493905, 42.926201 ], [ -4.5457275, 42.925754499999982 ], [ -4.5407625, 42.926101499999987 ], [ -4.538386, 42.9242135 ], [ -4.5320575, 42.924488 ], [ -4.530449, 42.9258235 ], [ -4.5271635, 42.9267615 ], [ -4.522065, 42.9262085 ], [ -4.5137155, 42.927578 ], [ -4.515155, 42.930755499999989 ], [ -4.5169995, 42.933037 ], [ -4.515141, 42.935680499999989 ], [ -4.5132015, 42.936573 ], [ -4.514343, 42.9406435 ], [ -4.516527, 42.9442595 ], [ -4.5200415, 42.948101 ], [ -4.5289005, 42.952080099999989 ], [ -4.5566656, 42.953631699999988 ], [ -4.5693435, 42.961243199999977 ], [ -4.5791915, 42.963611499999985 ], [ -4.5818075, 42.957073 ] ] ] } }
]
}
