{
"type": "FeatureCollection",
"name": "pont",
"crs": { "type": "name", "properties": { "name": "urn:ogc:def:crs:OGC:1.3:CRS84" } },
"features": [
{ "type": "Feature", "properties": { "name": "Pont", "feature_type": "entity", "metric_roundness": 52.64, "metric_rectangularity": 60.75, "metric_mobile_fit": 58.08, "metric_aspect_ratio": 0.982, "metric_area_km2": 7.68 }, "geometry": { "type": "Polygon", "coordinates": [ [ [ 5.3238929, 47.169486699999986 ], [ 5.3393195, 47.1754355 ], [ 5.3401283, 47.178985499999975 ], [ 5.333258, 47.1921575 ], [ 5.3272554, 47.1931563 ], [ 5.3281842, 47.1877409 ], [ 5.3251316, 47.184201099999981 ], [ 5.3081113, 47.178784899999989 ], [ 5.3059395, 47.175555899999985 ], [ 5.3094815, 47.1714145 ], [ 5.3238929, 47.169486699999986 ] ] ] } },
{ "type": "Feature", "properties": { "name": "Pont", "feature_type": "circle", "metric_roundness": 52.64, "metric_rectangularity": 60.75, "metric_mobile_fit": 58.08, "metric_aspect_ratio": 0.982, "metric_area_km2": 7.68 }, "geometry": { "type": "Polygon", "coordinates": [ [ [ 5.341434035405102, 47.181416286547794 ], [ 5.341407497492356, 47.180727466578759 ], [ 5.341327956492691, 47.180040525717232 ], [ 5.341195630422459, 47.179357346930054 ], [ 5.341010881978221, 47.178679802944323 ], [ 5.340774217542621, 47.178009751112349 ], [ 5.340486285796426, 47.177349028318083 ], [ 5.340147875940538, 47.176699445938759 ], [ 5.339759915532849, 47.176062784875938 ], [ 5.339323467945873, 47.175440790669327 ], [ 5.338839729452105, 47.174835168706899 ], [ 5.338310025945135, 47.17424757954462 ], [ 5.337735809305454, 47.173679634348503 ], [ 5.337118653420959, 47.173132890471699 ], [ 5.336460249873032, 47.172608847178687 ], [ 5.335762403300031, 47.172108941528499 ], [ 5.335027026450909, 47.171634544428251 ], [ 5.334256134942492, 47.171186956867878 ], [ 5.33345184173482, 47.170767406346556 ], [ 5.33261635133967, 47.170377043500665 ], [ 5.331751953778141, 47.17001693894246 ], [ 5.330861018303866, 47.169688080318494 ], [ 5.329945986909052, 47.169391369595665 ], [ 5.329009367631149, 47.169127620582564 ], [ 5.328053727678493, 47.168897556692905 ], [ 5.32708168639377, 47.168701808957231 ], [ 5.326095908074574, 47.168540914288521 ], [ 5.325099094670761, 47.168415314006324 ], [ 5.324093978378577, 47.168325352623668 ], [ 5.32308331415192, 47.168271276899972 ], [ 5.322069872151181, 47.168253235162801 ], [ 5.321056430150442, 47.168271276899972 ], [ 5.320045765923785, 47.168325352623668 ], [ 5.319040649631601, 47.168415314006324 ], [ 5.318043836227788, 47.168540914288521 ], [ 5.317058057908592, 47.168701808957231 ], [ 5.316086016623869, 47.168897556692905 ], [ 5.315130376671213, 47.169127620582564 ], [ 5.31419375739331, 47.169391369595665 ], [ 5.313278725998495, 47.169688080318494 ], [ 5.31238779052422, 47.17001693894246 ], [ 5.311523392962692, 47.170377043500665 ], [ 5.310687902567542, 47.170767406346556 ], [ 5.30988360935987, 47.171186956867878 ], [ 5.309112717851452, 47.171634544428251 ], [ 5.30837734100233, 47.172108941528499 ], [ 5.30767949442933, 47.172608847178687 ], [ 5.307021090881403, 47.173132890471699 ], [ 5.306403934996908, 47.173679634348503 ], [ 5.305829718357227, 47.17424757954462 ], [ 5.305300014850257, 47.174835168706899 ], [ 5.304816276356489, 47.175440790669327 ], [ 5.304379828769512, 47.176062784875938 ], [ 5.303991868361824, 47.176699445938759 ], [ 5.303653458505936, 47.177349028318083 ], [ 5.303365526759741, 47.178009751112349 ], [ 5.30312886232414, 47.178679802944323 ], [ 5.302944113879903, 47.179357346930054 ], [ 5.30281178780967, 47.180040525717232 ], [ 5.302732246810006, 47.180727466578759 ], [ 5.30270570889726, 47.181416286547794 ], [ 5.302732246810006, 47.182105097579949 ], [ 5.30281178780967, 47.182792011728822 ], [ 5.302944113879903, 47.183475146320212 ], [ 5.30312886232414, 47.184152629111225 ], [ 5.303365526759741, 47.184822603420024 ], [ 5.303653458505936, 47.185483233212047 ], [ 5.303991868361824, 47.186132708128973 ], [ 5.304379828769512, 47.18676924844663 ], [ 5.304816276356489, 47.187391109948237 ], [ 5.305300014850257, 47.18799658869974 ], [ 5.305829718357227, 47.188584025714242 ], [ 5.306403934996908, 47.189151811492685 ], [ 5.307021090881403, 47.189698390428539 ], [ 5.30767949442933, 47.190222265064442 ], [ 5.30837734100233, 47.190722000189204 ], [ 5.309112717851452, 47.191196226764042 ], [ 5.30988360935987, 47.191643645667305 ], [ 5.310687902567542, 47.19206303124767 ], [ 5.311523392962692, 47.192453234675895 ], [ 5.31238779052422, 47.192813187086323 ], [ 5.313278725998495, 47.193141902499377 ], [ 5.31419375739331, 47.193438480517202 ], [ 5.315130376671213, 47.193702108785139 ], [ 5.316086016623869, 47.193932065212408 ], [ 5.317058057908592, 47.194127719945818 ], [ 5.318043836227788, 47.194288537091367 ], [ 5.319040649631601, 47.194414076178852 ], [ 5.320045765923785, 47.194503993365728 ], [ 5.321056430150442, 47.194558042376755 ], [ 5.322069872151181, 47.194576075177075 ], [ 5.323083314151919, 47.194558042376755 ], [ 5.324093978378577, 47.194503993365728 ], [ 5.325099094670761, 47.194414076178852 ], [ 5.326095908074574, 47.194288537091367 ], [ 5.32708168639377, 47.194127719945818 ], [ 5.328053727678493, 47.193932065212408 ], [ 5.329009367631149, 47.193702108785139 ], [ 5.329945986909052, 47.193438480517202 ], [ 5.330861018303866, 47.193141902499377 ], [ 5.331751953778141, 47.192813187086323 ], [ 5.33261635133967, 47.192453234675895 ], [ 5.33345184173482, 47.19206303124767 ], [ 5.334256134942492, 47.191643645667305 ], [ 5.335027026450909, 47.191196226764042 ], [ 5.335762403300031, 47.190722000189204 ], [ 5.336460249873032, 47.190222265064442 ], [ 5.337118653420959, 47.189698390428539 ], [ 5.337735809305454, 47.189151811492685 ], [ 5.338310025945135, 47.188584025714242 ], [ 5.338839729452105, 47.18799658869974 ], [ 5.339323467945873, 47.187391109948237 ], [ 5.339759915532849, 47.18676924844663 ], [ 5.340147875940538, 47.186132708128973 ], [ 5.340486285796426, 47.185483233212047 ], [ 5.340774217542621, 47.184822603420024 ], [ 5.341010881978221, 47.184152629111225 ], [ 5.341195630422459, 47.183475146320212 ], [ 5.341327956492691, 47.182792011728822 ], [ 5.341407497492356, 47.182105097579949 ], [ 5.341434035405102, 47.181416286547794 ] ] ] } },
{ "type": "Feature", "properties": { "name": "Pont", "feature_type": "mrr", "metric_roundness": 52.64, "metric_rectangularity": 60.75, "metric_mobile_fit": 58.08, "metric_aspect_ratio": 0.982, "metric_area_km2": 7.68 }, "geometry": { "type": "Polygon", "coordinates": [ [ [ 5.303333869812768, 47.175197885592098 ], [ 5.329227867507574, 47.194636792589876 ], [ 5.348830559903262, 47.182576341903861 ], [ 5.322936562208455, 47.163133018135547 ], [ 5.303333869812768, 47.175197885592098 ] ] ] } }
]
}
