{
"type": "FeatureCollection",
"name": "popice",
"crs": { "type": "name", "properties": { "name": "urn:ogc:def:crs:OGC:1.3:CRS84" } },
"features": [
{ "type": "Feature", "properties": { "name": "Popice", "metric_roundness": 58.49, "metric_rectangularity": 70.12, "metric_mobile_fit": 26.57, "metric_aspect_ratio": 1.297, "metric_area_km2": 23.61 }, "geometry": { "type": "Polygon", "coordinates": [ [ [ 16.698846, 48.91704 ], [ 16.7003475, 48.919036499999976 ], [ 16.7058715, 48.929260499999984 ], [ 16.7021295, 48.930740499999978 ], [ 16.68559, 48.9456185 ], [ 16.6641638, 48.937682899999977 ], [ 16.6522095, 48.944116 ], [ 16.646042, 48.917497 ], [ 16.6561405, 48.917294 ], [ 16.6681415, 48.915475 ], [ 16.669969, 48.917584 ], [ 16.6722105, 48.920171499999988 ], [ 16.678157, 48.915984 ], [ 16.6819705, 48.917371 ], [ 16.686056, 48.918291499999988 ], [ 16.690757, 48.917066499999983 ], [ 16.69637, 48.9153075 ], [ 16.698846, 48.91704 ] ] ] } }
]
}
