{
"type": "FeatureCollection",
"name": "poraj",
"crs": { "type": "name", "properties": { "name": "urn:ogc:def:crs:OGC:1.3:CRS84" } },
"features": [
{ "type": "Feature", "properties": { "name": "Poraj", "metric_roundness": 47.14, "metric_rectangularity": 54.57, "metric_mobile_fit": 66.86, "metric_aspect_ratio": 0.894, "metric_area_km2": 141.01 }, "geometry": { "type": "Polygon", "coordinates": [ [ [ 19.2795074, 50.611632899999989 ], [ 19.2886795, 50.6036709 ], [ 19.2892459, 50.6104096 ], [ 19.3052566, 50.6108767 ], [ 19.303048, 50.621946499999986 ], [ 19.2935259, 50.628538499999983 ], [ 19.2923636, 50.633845099999988 ], [ 19.2677643, 50.6337499 ], [ 19.260609, 50.6424796 ], [ 19.2512293, 50.645863299999988 ], [ 19.2531425, 50.6480363 ], [ 19.2626797, 50.647461499999977 ], [ 19.2699457, 50.6518556 ], [ 19.2760791, 50.6583602 ], [ 19.2694572, 50.659895299999988 ], [ 19.2786085, 50.667584 ], [ 19.2781231, 50.6802874 ], [ 19.2894745, 50.6826235 ], [ 19.2802528, 50.6937543 ], [ 19.25139, 50.699129 ], [ 19.2441072, 50.7039802 ], [ 19.236831, 50.702324699999984 ], [ 19.2363901, 50.691516299999982 ], [ 19.2229935, 50.687257 ], [ 19.2079626, 50.6874128 ], [ 19.1981185, 50.691788699999982 ], [ 19.1924383, 50.684995 ], [ 19.1852271, 50.688619299999985 ], [ 19.1789033, 50.6879679 ], [ 19.1802112, 50.682512499999987 ], [ 19.1698922, 50.6761346 ], [ 19.1638204, 50.666389 ], [ 19.1751894, 50.658679899999989 ], [ 19.1776776, 50.6504561 ], [ 19.175112, 50.6475805 ], [ 19.1844218, 50.642644499999982 ], [ 19.1791432, 50.637483299999978 ], [ 19.1869186, 50.6286407 ], [ 19.2301196, 50.6315254 ], [ 19.238517, 50.6245134 ], [ 19.2588361, 50.6175921 ], [ 19.2683865, 50.6095075 ], [ 19.2795074, 50.611632899999989 ] ] ] } }
]
}
