{
"type": "FeatureCollection",
"name": "porrogszentpal",
"crs": { "type": "name", "properties": { "name": "urn:ogc:def:crs:OGC:1.3:CRS84" } },
"features": [
{ "type": "Feature", "properties": { "name": "Porrogszentpál", "feature_type": "entity", "metric_roundness": 36.86, "metric_rectangularity": 68.85, "metric_mobile_fit": 99.08, "metric_aspect_ratio": 0.553, "metric_area_km2": 7.42 }, "geometry": { "type": "Polygon", "coordinates": [ [ [ 17.0127812, 46.305174099999981 ], [ 17.007807, 46.306584 ], [ 17.0090924, 46.2999597 ], [ 17.0015385, 46.289034 ], [ 17.0002085, 46.2793225 ], [ 17.0023445, 46.279989 ], [ 17.004975, 46.280139 ], [ 17.006832, 46.2809455 ], [ 17.0130262, 46.282563299999978 ], [ 17.018191, 46.280247 ], [ 17.0228759, 46.292429 ], [ 17.0199865, 46.307628 ], [ 17.0127812, 46.305174099999981 ] ] ] } },
{ "type": "Feature", "properties": { "name": "Porrogszentpál", "feature_type": "circle", "metric_roundness": 36.86, "metric_rectangularity": 68.85, "metric_mobile_fit": 99.08, "metric_aspect_ratio": 0.553, "metric_area_km2": 7.42 }, "geometry": { "type": "Polygon", "coordinates": [ [ [ 17.032842367439248, 46.293477078708449 ], [ 17.032811196388909, 46.292654565834233 ], [ 17.032717768675582, 46.291834295108387 ], [ 17.032562340378128, 46.291018514987606 ], [ 17.032345337514709, 46.2902094617194 ], [ 17.032067354875092, 46.28940935320999 ], [ 17.031729154390366, 46.288620382941339 ], [ 17.031331663044558, 46.287844713954144 ], [ 17.03087597033381, 46.2870844729133 ], [ 17.03036332528017, 46.286341744272264 ], [ 17.029795133008101, 46.285618564552031 ], [ 17.029172950893116, 46.284916916751108 ], [ 17.028498484293156, 46.284238724901186 ], [ 17.027773581874285, 46.283585848784135 ], [ 17.027000230543646, 46.282960078824516 ], [ 17.026180550003481, 46.282363131171898 ], [ 17.025316786941175, 46.281796642986528 ], [ 17.024411308871244, 46.28126216794135 ], [ 17.023466597646134, 46.280761171952939 ], [ 17.022485242653655, 46.280295029152995 ], [ 17.021469933719622, 46.279865018111671 ], [ 17.020423453735251, 46.279472318323215 ], [ 17.019348671029441, 46.279118006963614 ], [ 17.018248531506877, 46.278803055929146 ], [ 17.01712605057353, 46.278528329164274 ], [ 17.015984304871605, 46.278294580286158 ], [ 17.014826423846714, 46.278102450512257 ], [ 17.013655581170266, 46.277952466897098 ], [ 17.012474986040647, 46.277845040882816 ], [ 17.011287874387047, 46.277780467167588 ], [ 17.0100975, 46.277758922895146 ], [ 17.008907125612943, 46.277780467167588 ], [ 17.007720013959343, 46.277845040882816 ], [ 17.006539418829725, 46.277952466897098 ], [ 17.005368576153277, 46.278102450512257 ], [ 17.004210695128386, 46.278294580286158 ], [ 17.00306894942646, 46.278528329164274 ], [ 17.001946468493113, 46.278803055929146 ], [ 17.00084632897055, 46.279118006963614 ], [ 16.999771546264739, 46.279472318323215 ], [ 16.998725066280368, 46.279865018111671 ], [ 16.997709757346335, 46.280295029152995 ], [ 16.996728402353856, 46.280761171952939 ], [ 16.995783691128747, 46.28126216794135 ], [ 16.994878213058815, 46.281796642986528 ], [ 16.994014449996509, 46.282363131171898 ], [ 16.993194769456345, 46.282960078824516 ], [ 16.992421418125705, 46.283585848784135 ], [ 16.991696515706835, 46.284238724901186 ], [ 16.991022049106874, 46.284916916751108 ], [ 16.99039986699189, 46.285618564552031 ], [ 16.98983167471982, 46.286341744272264 ], [ 16.989319029666181, 46.2870844729133 ], [ 16.988863336955436, 46.287844713954144 ], [ 16.988465845609625, 46.288620382941339 ], [ 16.988127645124898, 46.28940935320999 ], [ 16.987849662485281, 46.2902094617194 ], [ 16.987632659621863, 46.291018514987606 ], [ 16.987477231324409, 46.291834295108387 ], [ 16.987383803611081, 46.292654565834233 ], [ 16.987352632560743, 46.293477078708449 ], [ 16.987383803611081, 46.29429957922968 ], [ 16.987477231324409, 46.295119813031931 ], [ 16.987632659621863, 46.295935532063041 ], [ 16.987849662485281, 46.296744500744822 ], [ 16.988127645124898, 46.297544502097786 ], [ 16.988465845609625, 46.298333343814008 ], [ 16.988863336955436, 46.299108864261243 ], [ 16.989319029666181, 46.299868938402 ], [ 16.98983167471982, 46.300611483611462 ], [ 16.99039986699189, 46.301334465378297 ], [ 16.991022049106874, 46.302035902872866 ], [ 16.991696515706835, 46.302713874367605 ], [ 16.992421418125705, 46.303366522494926 ], [ 16.993194769456345, 46.303992059328159 ], [ 16.994014449996509, 46.304588771271895 ], [ 16.994878213058815, 46.305155023748405 ], [ 16.995783691128747, 46.305689265667183 ], [ 16.996728402353856, 46.306190033665857 ], [ 16.997709757346335, 46.306655956110632 ], [ 16.998725066280368, 46.307085756845595 ], [ 16.999771546264739, 46.307478258680682 ], [ 17.00084632897055, 46.307832386608695 ], [ 17.001946468493113, 46.308147170743105 ], [ 17.00306894942646, 46.308421748968009 ], [ 17.004210695128386, 46.308655369293696 ], [ 17.005368576153277, 46.308847391911172 ], [ 17.006539418829725, 46.308997290939892 ], [ 17.007720013959343, 46.309104655864509 ], [ 17.008907125612943, 46.309169192656157 ], [ 17.0100975, 46.309190724575615 ], [ 17.011287874387047, 46.309169192656157 ], [ 17.012474986040647, 46.309104655864509 ], [ 17.013655581170266, 46.308997290939892 ], [ 17.014826423846714, 46.308847391911172 ], [ 17.015984304871605, 46.308655369293696 ], [ 17.01712605057353, 46.308421748968009 ], [ 17.018248531506877, 46.308147170743105 ], [ 17.019348671029441, 46.307832386608695 ], [ 17.020423453735251, 46.307478258680682 ], [ 17.021469933719622, 46.307085756845595 ], [ 17.022485242653655, 46.306655956110632 ], [ 17.023466597646134, 46.306190033665857 ], [ 17.024411308871244, 46.305689265667183 ], [ 17.025316786941175, 46.305155023748405 ], [ 17.026180550003481, 46.304588771271895 ], [ 17.027000230543646, 46.303992059328159 ], [ 17.027773581874285, 46.303366522494926 ], [ 17.028498484293156, 46.302713874367605 ], [ 17.029172950893116, 46.302035902872866 ], [ 17.029795133008101, 46.301334465378297 ], [ 17.03036332528017, 46.300611483611462 ], [ 17.03087597033381, 46.299868938402 ], [ 17.031331663044558, 46.299108864261243 ], [ 17.031729154390366, 46.298333343814008 ], [ 17.032067354875092, 46.297544502097786 ], [ 17.032345337514709, 46.296744500744822 ], [ 17.032562340378128, 46.295935532063041 ], [ 17.032717768675582, 46.295119813031931 ], [ 17.032811196388909, 46.29429957922968 ], [ 17.032842367439248, 46.293477078708449 ] ] ] } },
{ "type": "Feature", "properties": { "name": "Porrogszentpál", "feature_type": "mrr", "metric_roundness": 36.86, "metric_rectangularity": 68.85, "metric_mobile_fit": 99.08, "metric_aspect_ratio": 0.553, "metric_area_km2": 7.42 }, "geometry": { "type": "Polygon", "coordinates": [ [ [ 16.998193337816847, 46.279666201108775 ], [ 17.008857700808971, 46.309525106581859 ], [ 17.02782738287155, 46.306291334024195 ], [ 17.017163019879426, 46.276430664952137 ], [ 16.998193337816847, 46.279666201108775 ] ] ] } }
]
}
