{
"type": "FeatureCollection",
"name": "port_sainte_marie",
"crs": { "type": "name", "properties": { "name": "urn:ogc:def:crs:OGC:1.3:CRS84" } },
"features": [
{ "type": "Feature", "properties": { "name": "Port-Sainte-Marie", "feature_type": "entity", "metric_roundness": 52.7, "metric_rectangularity": 68.84, "metric_mobile_fit": 45.58, "metric_aspect_ratio": 1.107, "metric_area_km2": 37.4 }, "geometry": { "type": "Polygon", "coordinates": [ [ [ 0.4006405, 44.2486825 ], [ 0.4048105, 44.247308 ], [ 0.4107425, 44.2647122 ], [ 0.404112, 44.2714182 ], [ 0.403874, 44.283981 ], [ 0.401012, 44.289291 ], [ 0.3941339, 44.284185199999989 ], [ 0.3961983, 44.2783521 ], [ 0.3944302, 44.275737799999987 ], [ 0.3748025, 44.282096 ], [ 0.372885, 44.2761476 ], [ 0.3580584, 44.2664132 ], [ 0.3457351, 44.2704642 ], [ 0.335255, 44.2692095 ], [ 0.337458, 44.250477499999988 ], [ 0.339456, 44.247041499999987 ], [ 0.343435, 44.244236 ], [ 0.346931, 44.2426715 ], [ 0.351664, 44.24149 ], [ 0.3578285, 44.2405675 ], [ 0.366353, 44.240443 ], [ 0.373116, 44.242048499999989 ], [ 0.3807695, 44.245415 ], [ 0.389011, 44.24808 ], [ 0.4006405, 44.2486825 ] ] ] } },
{ "type": "Feature", "properties": { "name": "Port-Sainte-Marie", "feature_type": "circle", "metric_roundness": 52.7, "metric_rectangularity": 68.84, "metric_mobile_fit": 45.58, "metric_aspect_ratio": 1.107, "metric_area_km2": 37.4 }, "geometry": { "type": "Polygon", "coordinates": [ [ [ 0.414683972366842, 44.266868058807589 ], [ 0.414625443570854, 44.265267472197245 ], [ 0.414450017606253, 44.263671229280476 ], [ 0.414158175303415, 44.262083705783319 ], [ 0.413750716581804, 44.260509253882731 ], [ 0.413228758257456, 44.258952190267784 ], [ 0.412593730981856, 44.257416784294598 ], [ 0.411847375320626, 44.255907246267242 ], [ 0.410991736982756, 44.254427715877185 ], [ 0.410029161213454, 44.252982250833156 ], [ 0.408962286365998, 44.251574815712658 ], [ 0.407794036670185, 44.250209271066296 ], [ 0.406527614217228, 44.248889362804775 ], [ 0.405166490183043, 44.247618711898284 ], [ 0.403714395313997, 44.246400804416638 ], [ 0.402175309701192, 44.245238981938044 ], [ 0.400553451871312, 44.244136432352988 ], [ 0.398853267223936, 44.243096181089136 ], [ 0.397079415847002, 44.242121082781303 ], [ 0.395236759743836, 44.241213813410127 ], [ 0.393330349506736, 44.240376862931249 ], [ 0.391365410473649, 44.239612528415456 ], [ 0.389347328405883, 44.238922907719193 ], [ 0.38728163472611, 44.238309893703104 ], [ 0.385173991357123, 44.237775169014661 ], [ 0.383030175202895, 44.237320201449648 ], [ 0.38085606231449, 44.236946239905471 ], [ 0.378657611784214, 44.236654310937617 ], [ 0.376440849412159, 44.236445215928889 ], [ 0.374211851189901, 44.236319528879456 ], [ 0.371976726646631, 44.236277594823861 ], [ 0.369741602103362, 44.236319528879456 ], [ 0.367512603881104, 44.236445215928889 ], [ 0.365295841509049, 44.236654310937617 ], [ 0.363097390978773, 44.236946239905471 ], [ 0.360923278090368, 44.237320201449648 ], [ 0.35877946193614, 44.237775169014661 ], [ 0.356671818567152, 44.238309893703104 ], [ 0.35460612488738, 44.238922907719193 ], [ 0.352588042819613, 44.239612528415456 ], [ 0.350623103786526, 44.240376862931249 ], [ 0.348716693549426, 44.241213813410127 ], [ 0.346874037446261, 44.242121082781303 ], [ 0.345100186069327, 44.243096181089136 ], [ 0.34340000142195, 44.244136432352988 ], [ 0.341778143592071, 44.245238981938044 ], [ 0.340239057979266, 44.246400804416638 ], [ 0.338786963110219, 44.247618711898284 ], [ 0.337425839076035, 44.248889362804775 ], [ 0.336159416623078, 44.250209271066296 ], [ 0.334991166927265, 44.251574815712658 ], [ 0.333924292079808, 44.252982250833156 ], [ 0.332961716310507, 44.254427715877185 ], [ 0.332106077972637, 44.255907246267242 ], [ 0.331359722311407, 44.257416784294598 ], [ 0.330724695035807, 44.258952190267784 ], [ 0.330202736711459, 44.260509253882731 ], [ 0.329795277989848, 44.262083705783319 ], [ 0.329503435687009, 44.263671229280476 ], [ 0.329328009722408, 44.265267472197245 ], [ 0.329269480926421, 44.266868058807589 ], [ 0.329328009722408, 44.268468601835792 ], [ 0.329503435687009, 44.270064714483617 ], [ 0.329795277989848, 44.271652022452287 ], [ 0.330202736711459, 44.27322617592624 ], [ 0.330724695035807, 44.274782861486003 ], [ 0.331359722311407, 44.276317813917515 ], [ 0.332106077972637, 44.277826827885818 ], [ 0.332961716310507, 44.27930576944113 ], [ 0.333924292079808, 44.280750587326132 ], [ 0.334991166927265, 44.282157324053721 ], [ 0.336159416623078, 44.283522126725046 ], [ 0.337425839076035, 44.284841257558611 ], [ 0.338786963110219, 44.286111104101927 ], [ 0.340239057979265, 44.28732818909792 ], [ 0.341778143592071, 44.288489179979734 ], [ 0.34340000142195, 44.289590897968004 ], [ 0.345100186069327, 44.290630326746232 ], [ 0.346874037446261, 44.291604620690933 ], [ 0.348716693549426, 44.292511112634209 ], [ 0.350623103786526, 44.293347321138107 ], [ 0.352588042819613, 44.294110957261069 ], [ 0.35460612488738, 44.294799930798369 ], [ 0.356671818567152, 44.295412355979806 ], [ 0.35877946193614, 44.295946556609266 ], [ 0.360923278090368, 44.296401070632697 ], [ 0.363097390978773, 44.296774654121741 ], [ 0.365295841509049, 44.297066284663011 ], [ 0.367512603881104, 44.297275164143301 ], [ 0.369741602103362, 44.297400720923818 ], [ 0.371976726646631, 44.29744261139728 ], [ 0.374211851189901, 44.297400720923818 ], [ 0.376440849412159, 44.297275164143301 ], [ 0.378657611784214, 44.297066284663011 ], [ 0.38085606231449, 44.296774654121741 ], [ 0.383030175202895, 44.296401070632697 ], [ 0.385173991357123, 44.295946556609266 ], [ 0.38728163472611, 44.295412355979806 ], [ 0.389347328405883, 44.294799930798369 ], [ 0.391365410473649, 44.294110957261069 ], [ 0.393330349506736, 44.293347321138107 ], [ 0.395236759743836, 44.292511112634209 ], [ 0.397079415847002, 44.291604620690933 ], [ 0.398853267223936, 44.290630326746232 ], [ 0.400553451871312, 44.289590897968004 ], [ 0.402175309701192, 44.288489179979734 ], [ 0.403714395313997, 44.28732818909792 ], [ 0.405166490183043, 44.286111104101927 ], [ 0.406527614217228, 44.284841257558611 ], [ 0.407794036670185, 44.283522126725046 ], [ 0.408962286365998, 44.282157324053721 ], [ 0.410029161213454, 44.280750587326132 ], [ 0.410991736982756, 44.27930576944113 ], [ 0.411847375320626, 44.277826827885818 ], [ 0.412593730981856, 44.276317813917515 ], [ 0.413228758257456, 44.274782861486003 ], [ 0.413750716581804, 44.27322617592624 ], [ 0.414158175303415, 44.271652022452287 ], [ 0.414450017606253, 44.270064714483617 ], [ 0.414625443570854, 44.268468601835792 ], [ 0.414683972366842, 44.266868058807589 ] ] ] } },
{ "type": "Feature", "properties": { "name": "Port-Sainte-Marie", "feature_type": "mrr", "metric_roundness": 52.7, "metric_rectangularity": 68.84, "metric_mobile_fit": 45.58, "metric_aspect_ratio": 1.107, "metric_area_km2": 37.4 }, "geometry": { "type": "Polygon", "coordinates": [ [ [ 0.401921562678139, 44.289457173297784 ], [ 0.416202346166419, 44.249390696213403 ], [ 0.342637254400676, 44.235939975187208 ], [ 0.328356470912397, 44.276015617162521 ], [ 0.401921562678139, 44.289457173297784 ] ] ] } }
]
}
