{
"type": "FeatureCollection",
"name": "pouilly_les_nonains",
"crs": { "type": "name", "properties": { "name": "urn:ogc:def:crs:OGC:1.3:CRS84" } },
"features": [
{ "type": "Feature", "properties": { "name": "Pouilly-les-Nonains", "metric_roundness": 42.16, "metric_rectangularity": 56.29, "metric_mobile_fit": 76.73, "metric_aspect_ratio": 0.795, "metric_area_km2": 22.09 }, "geometry": { "type": "Polygon", "coordinates": [ [ [ 3.9913768, 46.032655099999985 ], [ 3.9890367, 46.037679 ], [ 3.9924937, 46.053117399999977 ], [ 4.004661, 46.055467 ], [ 4.000335, 46.057735 ], [ 3.986442, 46.062123499999984 ], [ 3.9648195, 46.065271499999987 ], [ 3.9566775, 46.0642865 ], [ 3.9541205, 46.0644765 ], [ 3.9562585, 46.055586 ], [ 3.9551775, 46.051822 ], [ 3.9561315, 46.049108499999988 ], [ 3.968417, 46.049382 ], [ 3.9667825, 46.0422065 ], [ 3.966781, 46.0378415 ], [ 3.96932, 46.0211575 ], [ 3.983048, 46.024468 ], [ 4.003398, 46.0267335 ], [ 4.004038, 46.030773499999988 ], [ 3.9913768, 46.032655099999985 ] ] ] } }
]
}
