{
"type": "FeatureCollection",
"name": "pourcheres",
"crs": { "type": "name", "properties": { "name": "urn:ogc:def:crs:OGC:1.3:CRS84" } },
"features": [
{ "type": "Feature", "properties": { "name": "Pourchères", "feature_type": "entity", "metric_roundness": 53.74, "metric_rectangularity": 60.42, "metric_mobile_fit": 34.94, "metric_aspect_ratio": 1.213, "metric_area_km2": 15.81 }, "geometry": { "type": "Polygon", "coordinates": [ [ [ 4.4994803, 44.7541471 ], [ 4.4857532, 44.745387299999983 ], [ 4.4791145, 44.730471 ], [ 4.4929695, 44.7306436 ], [ 4.5006165, 44.727529 ], [ 4.5255521, 44.727337 ], [ 4.5262505, 44.734177099999989 ], [ 4.529609, 44.736775499999986 ], [ 4.530989, 44.7413815 ], [ 4.5110935, 44.742902 ], [ 4.512509, 44.7577095 ], [ 4.4994803, 44.7541471 ] ] ] } },
{ "type": "Feature", "properties": { "name": "Pourchères", "feature_type": "circle", "metric_roundness": 53.74, "metric_rectangularity": 60.42, "metric_mobile_fit": 34.94, "metric_aspect_ratio": 1.213, "metric_area_km2": 15.81 }, "geometry": { "type": "Polygon", "coordinates": [ [ [ 4.531209883223602, 44.739206175891219 ], [ 4.531172196877043, 44.738183888913717 ], [ 4.531059241133022, 44.737164385953704 ], [ 4.530871325595382, 44.736150461619836 ], [ 4.53060896532755, 44.735144895375413 ], [ 4.530272879440785, 44.734150443916 ], [ 4.529863989123139, 44.733169833607917 ], [ 4.529383415114552, 44.7322057530085 ], [ 4.528832474634977, 44.7312608454884 ], [ 4.528212677773974, 44.730337701976545 ], [ 4.527525723351657, 44.729438853847569 ], [ 4.526773494262349, 44.728566765971436 ], [ 4.525958052313695, 44.727723829944374 ], [ 4.525081632575397, 44.726912357519787 ], [ 4.524146637253038, 44.726134574257429 ], [ 4.523155629103806, 44.725392613408275 ], [ 4.522111324412153, 44.724688510052069 ], [ 4.521016585544652, 44.724024195503794 ], [ 4.519874413104443, 44.723401492004577 ], [ 4.518687937706793, 44.722822107711643 ], [ 4.517460411398297, 44.722287632001439 ], [ 4.516195198743243, 44.721799531098675 ], [ 4.514895767601573, 44.721359144043738 ], [ 4.513565679623723, 44.720967679009341 ], [ 4.512208580488391, 44.720626209977041 ], [ 4.510828189909972, 44.720335673782451 ], [ 4.509428291443093, 44.720096867537677 ], [ 4.508012722112148, 44.719910446438085 ], [ 4.506585361894275, 44.719776921959294 ], [ 4.505150123084618, 44.719696660449785 ], [ 4.503710939572993, 44.719669882122695 ], [ 4.502271756061369, 44.719696660449785 ], [ 4.500836517251711, 44.719776921959294 ], [ 4.499409157033839, 44.719910446438085 ], [ 4.497993587702893, 44.720096867537677 ], [ 4.496593689236015, 44.720335673782451 ], [ 4.495213298657595, 44.720626209977041 ], [ 4.493856199522264, 44.720967679009341 ], [ 4.492526111544414, 44.721359144043738 ], [ 4.491226680402744, 44.721799531098675 ], [ 4.489961467747689, 44.722287632001439 ], [ 4.488733941439192, 44.722822107711643 ], [ 4.487547466041543, 44.723401492004577 ], [ 4.486405293601335, 44.724024195503794 ], [ 4.485310554733833, 44.724688510052069 ], [ 4.484266250042181, 44.725392613408275 ], [ 4.483275241892948, 44.726134574257429 ], [ 4.482340246570589, 44.726912357519787 ], [ 4.481463826832291, 44.727723829944374 ], [ 4.480648384883638, 44.728566765971436 ], [ 4.479896155794329, 44.729438853847569 ], [ 4.479209201372012, 44.730337701976545 ], [ 4.478589404511009, 44.7312608454884 ], [ 4.478038464031435, 44.7322057530085 ], [ 4.477557890022848, 44.733169833607917 ], [ 4.477148999705202, 44.734150443916 ], [ 4.476812913818436, 44.735144895375413 ], [ 4.476550553550604, 44.736150461619836 ], [ 4.476362638012964, 44.737164385953704 ], [ 4.476249682268944, 44.738183888913717 ], [ 4.476211995922384, 44.739206175891219 ], [ 4.476249682268944, 44.740228444794411 ], [ 4.476362638012964, 44.741247893729522 ], [ 4.476550553550604, 44.7422617286798 ], [ 4.476812913818436, 44.74326717116125 ], [ 4.477148999705202, 44.744261465834292 ], [ 4.477557890022848, 44.745241888050373 ], [ 4.478038464031435, 44.746205751312942 ], [ 4.478589404511009, 44.747150414632536 ], [ 4.479209201372012, 44.748073289755744 ], [ 4.479896155794329, 44.748971848248438 ], [ 4.480648384883638, 44.749843628413984 ], [ 4.481463826832291, 44.750686242027491 ], [ 4.482340246570589, 44.751497380867995 ], [ 4.483275241892948, 44.752274823030547 ], [ 4.484266250042181, 44.753016439001335 ], [ 4.485310554733833, 44.753720197479176 ], [ 4.486405293601335, 44.754384170927644 ], [ 4.487547466041543, 44.755006540842778 ], [ 4.488733941439192, 44.755585602722171 ], [ 4.489961467747689, 44.756119770721803 ], [ 4.491226680402744, 44.756607581988298 ], [ 4.492526111544414, 44.757047700654596 ], [ 4.493856199522264, 44.7574389214885 ], [ 4.495213298657595, 44.75778017318396 ], [ 4.496593689236015, 44.758070521286569 ], [ 4.497993587702893, 44.758309170744973 ], [ 4.499409157033839, 44.758495468081605 ], [ 4.500836517251711, 44.75862890317682 ], [ 4.502271756061369, 44.758709110661421 ], [ 4.503710939572993, 44.758735870914215 ], [ 4.505150123084618, 44.758709110661421 ], [ 4.506585361894275, 44.75862890317682 ], [ 4.508012722112148, 44.758495468081605 ], [ 4.509428291443093, 44.758309170744973 ], [ 4.510828189909972, 44.758070521286569 ], [ 4.512208580488391, 44.75778017318396 ], [ 4.513565679623723, 44.7574389214885 ], [ 4.514895767601573, 44.757047700654596 ], [ 4.516195198743243, 44.756607581988298 ], [ 4.517460411398297, 44.756119770721803 ], [ 4.518687937706793, 44.755585602722171 ], [ 4.519874413104443, 44.755006540842778 ], [ 4.521016585544652, 44.754384170927644 ], [ 4.522111324412153, 44.753720197479176 ], [ 4.523155629103806, 44.753016439001335 ], [ 4.524146637253038, 44.752274823030547 ], [ 4.525081632575397, 44.751497380867995 ], [ 4.525958052313695, 44.750686242027491 ], [ 4.526773494262349, 44.749843628413984 ], [ 4.527525723351657, 44.748971848248438 ], [ 4.528212677773974, 44.748073289755744 ], [ 4.528832474634977, 44.747150414632536 ], [ 4.529383415114552, 44.746205751312942 ], [ 4.529863989123139, 44.745241888050373 ], [ 4.530272879440785, 44.744261465834292 ], [ 4.53060896532755, 44.74326717116125 ], [ 4.530871325595382, 44.7422617286798 ], [ 4.531059241133022, 44.741247893729522 ], [ 4.531172196877043, 44.740228444794411 ], [ 4.531209883223602, 44.739206175891219 ] ] ] } },
{ "type": "Feature", "properties": { "name": "Pourchères", "feature_type": "mrr", "metric_roundness": 53.74, "metric_rectangularity": 60.42, "metric_mobile_fit": 34.94, "metric_aspect_ratio": 1.213, "metric_area_km2": 15.81 }, "geometry": { "type": "Polygon", "coordinates": [ [ [ 4.526281506836252, 44.724017204237526 ], [ 4.4791145, 44.730471 ], [ 4.487430552984359, 44.761139041503775 ], [ 4.534597557910346, 44.754688667452413 ], [ 4.526281506836252, 44.724017204237526 ] ] ] } }
]
}
