{
"type": "FeatureCollection",
"name": "pournoy_la_chetive",
"crs": { "type": "name", "properties": { "name": "urn:ogc:def:crs:OGC:1.3:CRS84" } },
"features": [
{ "type": "Feature", "properties": { "name": "Pournoy-la-Chétive", "metric_roundness": 43.82, "metric_rectangularity": 80.41, "metric_mobile_fit": 36.55, "metric_aspect_ratio": 1.197, "metric_area_km2": 5.84 }, "geometry": { "type": "Polygon", "coordinates": [ [ [ 6.1720575, 49.021498 ], [ 6.170234, 49.023098499999989 ], [ 6.1687702, 49.0258779 ], [ 6.15499, 49.0263062 ], [ 6.1394075, 49.01963 ], [ 6.1430645, 49.008418 ], [ 6.1720575, 49.021498 ] ] ] } }
]
}
