{
"type": "FeatureCollection",
"name": "pouy_loubrin",
"crs": { "type": "name", "properties": { "name": "urn:ogc:def:crs:OGC:1.3:CRS84" } },
"features": [
{ "type": "Feature", "properties": { "name": "Pouy-Loubrin", "feature_type": "entity", "metric_roundness": 43.57, "metric_rectangularity": 56.94, "metric_mobile_fit": 25.3, "metric_aspect_ratio": 1.309, "metric_area_km2": 18.49 }, "geometry": { "type": "Polygon", "coordinates": [ [ [ 0.5989626, 43.4845875 ], [ 0.5917085, 43.4802755 ], [ 0.5919053, 43.476367199999984 ], [ 0.6003149, 43.468837399999984 ], [ 0.5979951, 43.465758199999989 ], [ 0.5896166, 43.465706499999982 ], [ 0.5874845, 43.4557205 ], [ 0.6166355, 43.44978 ], [ 0.6170405, 43.453158 ], [ 0.6201615, 43.4540165 ], [ 0.6225935, 43.455628 ], [ 0.650287, 43.461764 ], [ 0.6358191, 43.465121099999983 ], [ 0.6134375, 43.481416 ], [ 0.5989626, 43.4845875 ] ] ] } },
{ "type": "Feature", "properties": { "name": "Pouy-Loubrin", "feature_type": "circle", "metric_roundness": 43.57, "metric_rectangularity": 56.94, "metric_mobile_fit": 25.3, "metric_aspect_ratio": 1.309, "metric_area_km2": 18.49 }, "geometry": { "type": "Polygon", "coordinates": [ [ [ 0.650681232659985, 43.465456457134209 ], [ 0.650635977410738, 43.464202114644671 ], [ 0.65050033570449, 43.462951184300557 ], [ 0.650274679325728, 43.461707095134599 ], [ 0.649959626782902, 43.460473257637503 ], [ 0.649556041613133, 43.459253054404179 ], [ 0.649065030015318, 43.458049830854328 ], [ 0.648487937818118, 43.456866886052687 ], [ 0.64782634679113, 43.455707463654285 ], [ 0.647082070309375, 43.454574742999831 ], [ 0.646257148382953, 43.453471830385432 ], [ 0.645353842065527, 43.452401750531116 ], [ 0.644374627256924, 43.451367438271483 ], [ 0.643322187916869, 43.450371730491646 ], [ 0.64219940870844, 43.449417358330528 ], [ 0.641009367091404, 43.448506939673464 ], [ 0.639755324887115, 43.447642971954657 ], [ 0.638440719338086, 43.446827825289482 ], [ 0.63706915368675, 43.446063735955846 ], [ 0.635644387299223, 43.44535280024261 ], [ 0.634170325361136, 43.444696968682159 ], [ 0.632651008173803, 43.444098040683272 ], [ 0.631090600080026, 43.443557659579128 ], [ 0.629493378049929, 43.443077308104222 ], [ 0.627863719958075, 43.442658304312971 ], [ 0.626206092584016, 43.44230179795111 ], [ 0.624525039369165, 43.442008767290353 ], [ 0.622825167963536, 43.44178001643472 ], [ 0.621111137596494, 43.441616173106418 ], [ 0.619387646306135, 43.441517686917329 ], [ 0.617659418062287, 43.441484828130768 ], [ 0.615931189818439, 43.441517686917329 ], [ 0.61420769852808, 43.441616173106418 ], [ 0.612493668161039, 43.44178001643472 ], [ 0.610793796755409, 43.442008767290353 ], [ 0.609112743540559, 43.44230179795111 ], [ 0.6074551161665, 43.442658304312971 ], [ 0.605825458074645, 43.443077308104222 ], [ 0.604228236044548, 43.443557659579128 ], [ 0.602667827950772, 43.444098040683272 ], [ 0.601148510763438, 43.444696968682159 ], [ 0.599674448825352, 43.44535280024261 ], [ 0.598249682437824, 43.446063735955846 ], [ 0.596878116786489, 43.446827825289482 ], [ 0.59556351123746, 43.447642971954657 ], [ 0.59430946903317, 43.448506939673464 ], [ 0.593119427416134, 43.449417358330528 ], [ 0.591996648207705, 43.450371730491646 ], [ 0.590944208867651, 43.451367438271483 ], [ 0.589964994059047, 43.452401750531116 ], [ 0.589061687741621, 43.453471830385432 ], [ 0.5882367658152, 43.454574742999831 ], [ 0.587492489333444, 43.455707463654285 ], [ 0.586830898306457, 43.456866886052687 ], [ 0.586253806109256, 43.458049830854328 ], [ 0.585762794511441, 43.459253054404179 ], [ 0.585359209341672, 43.460473257637503 ], [ 0.585044156798846, 43.461707095134599 ], [ 0.584818500420085, 43.462951184300557 ], [ 0.584682858713836, 43.464202114644671 ], [ 0.584637603464589, 43.465456457134209 ], [ 0.584682858713836, 43.466710773596617 ], [ 0.584818500420085, 43.467961626144515 ], [ 0.585044156798846, 43.469205586597504 ], [ 0.585359209341672, 43.470439245875106 ], [ 0.585762794511441, 43.471659223335017 ], [ 0.586253806109256, 43.472862176031128 ], [ 0.586830898306457, 43.474044807866285 ], [ 0.587492489333444, 43.475203878614344 ], [ 0.5882367658152, 43.476336212787366 ], [ 0.589061687741621, 43.477438708323618 ], [ 0.589964994059047, 43.478508345072655 ], [ 0.590944208867651, 43.479542193054641 ], [ 0.591996648207705, 43.480537420471194 ], [ 0.593119427416134, 43.48149130144634 ], [ 0.59430946903317, 43.482401223476273 ], [ 0.59556351123746, 43.483264694567971 ], [ 0.596878116786489, 43.484079350047182 ], [ 0.598249682437824, 43.484842959017556 ], [ 0.599674448825352, 43.485553430453166 ], [ 0.601148510763438, 43.486208818908359 ], [ 0.602667827950772, 43.486807329829119 ], [ 0.604228236044548, 43.487347324451861 ], [ 0.605825458074645, 43.487827324276452 ], [ 0.6074551161665, 43.488246015101247 ], [ 0.609112743540558, 43.488602250609397 ], [ 0.610793796755409, 43.488895055496762 ], [ 0.612493668161039, 43.489123628132923 ], [ 0.61420769852808, 43.48928734274827 ], [ 0.615931189818439, 43.489385751141157 ], [ 0.617659418062287, 43.489418583900587 ], [ 0.619387646306135, 43.489385751141157 ], [ 0.621111137596494, 43.48928734274827 ], [ 0.622825167963536, 43.489123628132923 ], [ 0.624525039369165, 43.488895055496762 ], [ 0.626206092584016, 43.488602250609397 ], [ 0.627863719958075, 43.488246015101247 ], [ 0.629493378049929, 43.487827324276452 ], [ 0.631090600080026, 43.487347324451861 ], [ 0.632651008173803, 43.486807329829119 ], [ 0.634170325361136, 43.486208818908359 ], [ 0.635644387299223, 43.485553430453166 ], [ 0.63706915368675, 43.484842959017556 ], [ 0.638440719338086, 43.484079350047182 ], [ 0.639755324887115, 43.483264694567971 ], [ 0.641009367091404, 43.482401223476273 ], [ 0.64219940870844, 43.48149130144634 ], [ 0.643322187916869, 43.480537420471194 ], [ 0.644374627256924, 43.479542193054641 ], [ 0.645353842065527, 43.478508345072655 ], [ 0.646257148382953, 43.477438708323618 ], [ 0.647082070309375, 43.476336212787366 ], [ 0.64782634679113, 43.475203878614344 ], [ 0.648487937818118, 43.474044807866285 ], [ 0.649065030015318, 43.472862176031128 ], [ 0.649556041613133, 43.471659223335017 ], [ 0.649959626782902, 43.470439245875106 ], [ 0.650274679325728, 43.469205586597504 ], [ 0.65050033570449, 43.467961626144515 ], [ 0.650635977410738, 43.466710773596617 ], [ 0.650681232659985, 43.465456457134209 ] ] ] } },
{ "type": "Feature", "properties": { "name": "Pouy-Loubrin", "feature_type": "mrr", "metric_roundness": 43.57, "metric_rectangularity": 56.94, "metric_mobile_fit": 25.3, "metric_aspect_ratio": 1.309, "metric_area_km2": 18.49 }, "geometry": { "type": "Polygon", "coordinates": [ [ [ 0.643533068370968, 43.444298195261695 ], [ 0.582596080482125, 43.456716623423915 ], [ 0.593784759117305, 43.485642095085858 ], [ 0.654721747006148, 43.473229608249675 ], [ 0.643533068370968, 43.444298195261695 ] ] ] } }
]
}
