{
"type": "FeatureCollection",
"name": "pouzilhac",
"crs": { "type": "name", "properties": { "name": "urn:ogc:def:crs:OGC:1.3:CRS84" } },
"features": [
{ "type": "Feature", "properties": { "name": "Pouzilhac", "metric_roundness": 53.8, "metric_rectangularity": 60.47, "metric_mobile_fit": 31.99, "metric_aspect_ratio": 1.243, "metric_area_km2": 31.11 }, "geometry": { "type": "Polygon", "coordinates": [ [ [ 4.5865155, 44.053171 ], [ 4.584602, 44.055234 ], [ 4.5853105, 44.057693 ], [ 4.585261, 44.061157 ], [ 4.5781762, 44.0625014 ], [ 4.5722257, 44.0575709 ], [ 4.559251, 44.060098 ], [ 4.558358, 44.0496536 ], [ 4.5474011, 44.0296152 ], [ 4.5610018, 44.0289779 ], [ 4.567062, 44.020553 ], [ 4.5911711, 44.0239669 ], [ 4.6044282, 44.0224287 ], [ 4.6199145, 44.0290345 ], [ 4.6108833, 44.036152499999986 ], [ 4.6083595, 44.046476 ], [ 4.60533, 44.047439 ], [ 4.5865155, 44.053171 ] ] ] } }
]
}
