{
"type": "FeatureCollection",
"name": "plasselb",
"crs": { "type": "name", "properties": { "name": "urn:ogc:def:crs:OGC:1.3:CRS84" } },
"features": [
{ "type": "Feature", "properties": { "name": "Plasselb", "metric_roundness": 28.87, "metric_rectangularity": 44.05, "metric_mobile_fit": 88.29, "metric_aspect_ratio": 0.68, "metric_area_km2": 37.73 }, "geometry": { "type": "Polygon", "coordinates": [ [ [ 7.2455347, 46.7414882 ], [ 7.2386745, 46.736853 ], [ 7.240878, 46.735337 ], [ 7.2400855, 46.730334 ], [ 7.237418, 46.726533 ], [ 7.2305655, 46.722545 ], [ 7.2299515, 46.7190535 ], [ 7.2163555, 46.717345499999986 ], [ 7.193449, 46.7012055 ], [ 7.1960065, 46.6994925 ], [ 7.2046365, 46.699367 ], [ 7.2078075, 46.6977 ], [ 7.216746, 46.695667 ], [ 7.2250213, 46.704452199999984 ], [ 7.2374227, 46.7092555 ], [ 7.2502891, 46.689917899999976 ], [ 7.2462275, 46.682319 ], [ 7.2468103, 46.676675099999983 ], [ 7.254051, 46.671446 ], [ 7.2720849, 46.7066934 ], [ 7.2616848, 46.723716 ], [ 7.259641, 46.7339185 ], [ 7.26322, 46.7370707 ], [ 7.256254, 46.741287399999983 ], [ 7.251121, 46.750781499999988 ], [ 7.2455347, 46.7414882 ] ] ] } }
]
}
