{
"type": "FeatureCollection",
"name": "plavsko",
"crs": { "type": "name", "properties": { "name": "urn:ogc:def:crs:OGC:1.3:CRS84" } },
"features": [
{ "type": "Feature", "properties": { "name": "Plavsko", "metric_roundness": 55.27, "metric_rectangularity": 68.49, "metric_mobile_fit": 44.28, "metric_aspect_ratio": 1.12, "metric_area_km2": 25.66 }, "geometry": { "type": "Polygon", "coordinates": [ [ [ 14.8817671, 49.080953 ], [ 14.8913323, 49.073608399999976 ], [ 14.9336897, 49.067843 ], [ 14.9314258, 49.073610699999989 ], [ 14.934502, 49.0794755 ], [ 14.9293895, 49.0848419 ], [ 14.933218, 49.100382499999974 ], [ 14.9164805, 49.102662 ], [ 14.8956487, 49.097870699999987 ], [ 14.8908688, 49.0920344 ], [ 14.8760396, 49.0866233 ], [ 14.8749745, 49.0826305 ], [ 14.8817671, 49.080953 ] ] ] } }
]
}
