{
"type": "FeatureCollection",
"name": "pleidelsheim",
"crs": { "type": "name", "properties": { "name": "urn:ogc:def:crs:OGC:1.3:CRS84" } },
"features": [
{ "type": "Feature", "properties": { "name": "Pleidelsheim", "metric_roundness": 51.21, "metric_rectangularity": 64.64, "metric_mobile_fit": 59.7, "metric_aspect_ratio": 0.966, "metric_area_km2": 19.98 }, "geometry": { "type": "Polygon", "coordinates": [ [ [ 9.2025098, 48.9705762 ], [ 9.1968338, 48.961428599999984 ], [ 9.1886678, 48.9557887 ], [ 9.1849515, 48.945136499999983 ], [ 9.196714, 48.94260509999998 ], [ 9.221588, 48.950446499999977 ], [ 9.2357815, 48.952947 ], [ 9.231338, 48.9734415 ], [ 9.225374, 48.973167 ], [ 9.2252305, 48.9749825 ], [ 9.222199, 48.974381 ], [ 9.220409, 48.9759435 ], [ 9.216683, 48.975775 ], [ 9.214514, 48.9771715 ], [ 9.2025098, 48.9705762 ] ] ] } }
]
}
