{
"type": "FeatureCollection",
"name": "plourin_les_morlaix",
"crs": { "type": "name", "properties": { "name": "urn:ogc:def:crs:OGC:1.3:CRS84" } },
"features": [
{ "type": "Feature", "properties": { "name": "Plourin-lès-Morlaix", "feature_type": "entity", "metric_roundness": 44.82, "metric_rectangularity": 67.47, "metric_mobile_fit": 97.99, "metric_aspect_ratio": 0.583, "metric_area_km2": 95.88 }, "geometry": { "type": "Polygon", "coordinates": [ [ [ -3.807939, 48.4834575 ], [ -3.7998525, 48.489482 ], [ -3.7737686, 48.479613199999982 ], [ -3.7673804, 48.487652 ], [ -3.759803, 48.486850499999967 ], [ -3.757248, 48.490334499999989 ], [ -3.7567035, 48.508106699999985 ], [ -3.7694018, 48.524584 ], [ -3.7665413, 48.537857599999988 ], [ -3.7913853, 48.5552024 ], [ -3.799745, 48.565168 ], [ -3.8100769, 48.565048199999985 ], [ -3.8204483, 48.572823599999985 ], [ -3.8248438, 48.566923599999974 ], [ -3.8369135, 48.567794 ], [ -3.836669, 48.5542725 ], [ -3.8266469, 48.544109 ], [ -3.8304192, 48.5319896 ], [ -3.8386943, 48.5212661 ], [ -3.8375846, 48.511943099999975 ], [ -3.8325556, 48.5053545 ], [ -3.8260125, 48.486152 ], [ -3.807939, 48.4834575 ] ] ] } },
{ "type": "Feature", "properties": { "name": "Plourin-lès-Morlaix", "feature_type": "circle", "metric_roundness": 44.82, "metric_rectangularity": 67.47, "metric_mobile_fit": 97.99, "metric_aspect_ratio": 0.583, "metric_area_km2": 95.88 }, "geometry": { "type": "Polygon", "coordinates": [ [ [ -3.723692777844584, 48.526079705513503 ], [ -3.723794390598039, 48.523509709747742 ], [ -3.724098950344911, 48.520946628286225 ], [ -3.724605622308102, 48.518397487956825 ], [ -3.725313017734981, 48.515869278423779 ], [ -3.726219197703853, 48.513368933000464 ], [ -3.727321678438409, 48.510903309605546 ], [ -3.728617438115591, 48.508479171914992 ], [ -3.73010292514819, 48.506103170762273 ], [ -3.731774067919503, 48.503781825838317 ], [ -3.733626285943356, 48.50152150774224 ], [ -3.73565450241889, 48.499328420432775 ], [ -3.737853158145726, 48.497208584129694 ], [ -3.740216226761343, 48.495167818712787 ], [ -3.74273723125892, 48.49321172766534 ], [ -3.745409261740364, 48.491345682607033 ], [ -3.748224994355854, 48.489574808459913 ], [ -3.75117671137801, 48.487903969289334 ], [ -3.754256322355647, 48.486337754859868 ], [ -3.757455386289136, 48.484880467944315 ], [ -3.760765134766598, 48.483536112421724 ], [ -3.764176495997516, 48.482308382198319 ], [ -3.767680119677876, 48.481200650982821 ], [ -3.771266402618705, 48.480215962945231 ], [ -3.774925515067741, 48.479357024285839 ], [ -3.778647427652101, 48.478626195738322 ], [ -3.782421938868101, 48.478025486028592 ], [ -3.786238703042861, 48.477556546307888 ], [ -3.790087258691076, 48.477220665576155 ], [ -3.793957057189226, 48.477018767108774 ], [ -3.797837491688613, 48.476951405896919 ], [ -3.801717926187999, 48.477018767108774 ], [ -3.805587724686149, 48.477220665576155 ], [ -3.809436280334364, 48.477556546307888 ], [ -3.813253044509124, 48.478025486028592 ], [ -3.817027555725124, 48.478626195738322 ], [ -3.820749468309485, 48.479357024285839 ], [ -3.82440858075852, 48.480215962945231 ], [ -3.827994863699349, 48.481200650982821 ], [ -3.831498487379708, 48.482308382198319 ], [ -3.834909848610627, 48.483536112421724 ], [ -3.838219597088089, 48.484880467944315 ], [ -3.841418661021579, 48.486337754859868 ], [ -3.844498271999215, 48.487903969289334 ], [ -3.847449989021371, 48.489574808459913 ], [ -3.850265721636862, 48.491345682607033 ], [ -3.852937752118305, 48.49321172766534 ], [ -3.855458756615882, 48.495167818712787 ], [ -3.857821825231499, 48.497208584129694 ], [ -3.860020480958335, 48.499328420432775 ], [ -3.862048697433869, 48.50152150774224 ], [ -3.863900915457722, 48.503781825838317 ], [ -3.865572058229035, 48.506103170762273 ], [ -3.867057545261634, 48.508479171914992 ], [ -3.868353304938815, 48.510903309605546 ], [ -3.869455785673373, 48.513368933000464 ], [ -3.870361965642243, 48.515869278423779 ], [ -3.871069361069123, 48.518397487956825 ], [ -3.871576033032315, 48.520946628286225 ], [ -3.871880592779187, 48.523509709747742 ], [ -3.871982205532642, 48.526079705513503 ], [ -3.871880592779187, 48.528649570869511 ], [ -3.871576033032315, 48.531212262530573 ], [ -3.871069361069123, 48.53376075793954 ], [ -3.870361965642243, 48.536288074498088 ], [ -3.869455785673373, 48.538787288676431 ], [ -3.868353304938816, 48.541251554950094 ], [ -3.867057545261634, 48.543674124512002 ], [ -3.865572058229035, 48.546048363709453 ], [ -3.863900915457722, 48.548367772155878 ], [ -3.862048697433869, 48.550626000468618 ], [ -3.860020480958335, 48.552816867585051 ], [ -3.857821825231499, 48.554934377610316 ], [ -3.855458756615882, 48.556972736151813 ], [ -3.852937752118305, 48.558926366096493 ], [ -3.850265721636862, 48.560789922789027 ], [ -3.847449989021371, 48.562558308570438 ], [ -3.844498271999215, 48.564226686638428 ], [ -3.841418661021579, 48.565790494192768 ], [ -3.83821959708809, 48.567245454830882 ], [ -3.834909848610627, 48.568587590160902 ], [ -3.831498487379708, 48.569813230601483 ], [ -3.827994863699349, 48.570919025340004 ], [ -3.82440858075852, 48.571901951422895 ], [ -3.820749468309485, 48.572759321954202 ], [ -3.817027555725124, 48.573488793380974 ], [ -3.813253044509124, 48.574088371846194 ], [ -3.809436280334364, 48.574556418592771 ], [ -3.805587724686149, 48.574891654404368 ], [ -3.801717926187999, 48.575093163071458 ], [ -3.797837491688613, 48.575160393873624 ], [ -3.793957057189226, 48.575093163071458 ], [ -3.790087258691076, 48.574891654404368 ], [ -3.786238703042861, 48.574556418592771 ], [ -3.782421938868102, 48.574088371846194 ], [ -3.778647427652101, 48.573488793380974 ], [ -3.774925515067741, 48.572759321954202 ], [ -3.771266402618705, 48.571901951422895 ], [ -3.767680119677876, 48.570919025340004 ], [ -3.764176495997516, 48.569813230601483 ], [ -3.760765134766598, 48.568587590160902 ], [ -3.757455386289136, 48.567245454830882 ], [ -3.754256322355647, 48.565790494192768 ], [ -3.75117671137801, 48.564226686638428 ], [ -3.748224994355854, 48.562558308570438 ], [ -3.745409261740364, 48.560789922789027 ], [ -3.74273723125892, 48.558926366096493 ], [ -3.740216226761343, 48.556972736151813 ], [ -3.737853158145726, 48.554934377610316 ], [ -3.73565450241889, 48.552816867585051 ], [ -3.733626285943356, 48.550626000468618 ], [ -3.731774067919503, 48.548367772155878 ], [ -3.73010292514819, 48.546048363709453 ], [ -3.728617438115591, 48.543674124512002 ], [ -3.727321678438409, 48.541251554950094 ], [ -3.726219197703853, 48.538787288676431 ], [ -3.725313017734981, 48.536288074498088 ], [ -3.724605622308102, 48.53376075793954 ], [ -3.724098950344911, 48.531212262530573 ], [ -3.723794390598039, 48.528649570869511 ], [ -3.723692777844584, 48.526079705513503 ] ] ] } },
{ "type": "Feature", "properties": { "name": "Plourin-lès-Morlaix", "feature_type": "mrr", "metric_roundness": 44.82, "metric_rectangularity": 67.47, "metric_mobile_fit": 97.99, "metric_aspect_ratio": 0.583, "metric_area_km2": 95.88 }, "geometry": { "type": "Polygon", "coordinates": [ [ [ -3.780048773101016, 48.578677650973752 ], [ -3.748498974238093, 48.483281694013698 ], [ -3.824467903380816, 48.472252178470526 ], [ -3.856017702243739, 48.567668893304287 ], [ -3.780048773101016, 48.578677650973752 ] ] ] } }
]
}
