{
"type": "FeatureCollection",
"name": "gohrisch",
"crs": { "type": "name", "properties": { "name": "urn:ogc:def:crs:OGC:1.3:CRS84" } },
"features": [
{ "type": "Feature", "properties": { "name": "Gohrisch", "metric_roundness": 40.71, "metric_rectangularity": 63.36, "metric_mobile_fit": 99.59, "metric_aspect_ratio": 0.567, "metric_area_km2": 83.08 }, "geometry": { "type": "Polygon", "coordinates": [ [ [ 14.1479754, 50.849877899999989 ], [ 14.1420155, 50.8576002 ], [ 14.1406732, 50.8681738 ], [ 14.1463352, 50.876399899999981 ], [ 14.1534218, 50.8790573 ], [ 14.1546511, 50.883108899999982 ], [ 14.1620656, 50.8839701 ], [ 14.1633374, 50.894568299999989 ], [ 14.167559, 50.901361 ], [ 14.1658451, 50.902624599999989 ], [ 14.1614304, 50.903592300000014 ], [ 14.1599059, 50.9052858 ], [ 14.1608825, 50.909884299999987 ], [ 14.1248045, 50.918873 ], [ 14.1188981, 50.91379 ], [ 14.1180934, 50.920406899999982 ], [ 14.10485, 50.9236569 ], [ 14.1025027, 50.9172594 ], [ 14.0898674, 50.909229 ], [ 14.0895702, 50.9048071 ], [ 14.0988592, 50.8967479 ], [ 14.094437, 50.889490499999987 ], [ 14.0870425, 50.887552 ], [ 14.0997622, 50.8657326 ], [ 14.1052995, 50.862339299999988 ], [ 14.1045582, 50.849080199999982 ], [ 14.1185455, 50.843840799999981 ], [ 14.12965, 50.834078 ], [ 14.1328725, 50.833995 ], [ 14.1368465, 50.8360595 ], [ 14.140099, 50.838174 ], [ 14.144892, 50.840879 ], [ 14.149217, 50.8423285 ], [ 14.1479754, 50.849877899999989 ] ] ] } }
]
}
