{
"type": "FeatureCollection",
"name": "golenkamp",
"crs": { "type": "name", "properties": { "name": "urn:ogc:def:crs:OGC:1.3:CRS84" } },
"features": [
{ "type": "Feature", "properties": { "name": "Gölenkamp", "feature_type": "entity", "metric_roundness": 63.25, "metric_rectangularity": 70.14, "metric_mobile_fit": 70.49, "metric_aspect_ratio": 0.858, "metric_area_km2": 56.37 }, "geometry": { "type": "Polygon", "coordinates": [ [ [ 6.9503642, 52.5287454 ], [ 6.9527807, 52.532127499999987 ], [ 6.9429945, 52.5504885 ], [ 6.8883235, 52.553720499999983 ], [ 6.8946863, 52.5456072 ], [ 6.8781843, 52.5224228 ], [ 6.8764995, 52.5159455 ], [ 6.8834089, 52.5180178 ], [ 6.8932178, 52.516266 ], [ 6.9044694, 52.499603099999987 ], [ 6.917765, 52.501532 ], [ 6.951843, 52.51854 ], [ 6.9503642, 52.5287454 ] ] ] } },
{ "type": "Feature", "properties": { "name": "Gölenkamp", "feature_type": "circle", "metric_roundness": 63.25, "metric_rectangularity": 70.14, "metric_mobile_fit": 70.49, "metric_aspect_ratio": 0.858, "metric_area_km2": 56.37 }, "geometry": { "type": "Polygon", "coordinates": [ [ [ 6.959724997122185, 52.528378448061581 ], [ 6.959659408314033, 52.526854619658572 ], [ 6.959462821663939, 52.5253349153109 ], [ 6.959135776002249, 52.523823501070964 ], [ 6.958679167738387, 52.522324520693374 ], [ 6.958094248403866, 52.52084208426556 ], [ 6.957382621221925, 52.519380256925949 ], [ 6.956546236713205, 52.517943047701166 ], [ 6.955587387349509, 52.516534398492716 ], [ 6.954508701270292, 52.515158173243996 ], [ 6.95331313507912, 52.513818147317323 ], [ 6.952003965739823, 52.512517997110578 ], [ 6.950584781594555, 52.511261289942368 ], [ 6.949059472528415, 52.510051474233713 ], [ 6.94743221930753, 52.508891870013741 ], [ 6.945707482119869, 52.507785659775763 ], [ 6.94388998835018, 52.506735879709439 ], [ 6.941984719622552, 52.505745411333308 ], [ 6.939996898146134, 52.504816973551343 ], [ 6.937931972401421, 52.503953115155738 ], [ 6.935795602206348, 52.503156207796913 ], [ 6.933593643203122, 52.502428439440472 ], [ 6.931332130808316, 52.501771808329686 ], [ 6.929017263670207, 52.501188117470264 ], [ 6.926655386678717, 52.50067896965308 ], [ 6.924252973574507, 52.500245763028886 ], [ 6.921816609204906, 52.499889687247475 ], [ 6.919352971475302, 52.499611720172098 ], [ 6.916868813045466, 52.499412625178621 ], [ 6.914370942820981, 52.499292949046847 ], [ 6.911866207290511, 52.499253020449999 ], [ 6.90936147176004, 52.499292949046847 ], [ 6.906863601535556, 52.499412625178621 ], [ 6.90437944310572, 52.499611720172098 ], [ 6.901915805376115, 52.499889687247475 ], [ 6.899479441006514, 52.500245763028886 ], [ 6.897077027902304, 52.50067896965308 ], [ 6.894715150910814, 52.501188117470264 ], [ 6.892400283772704, 52.501771808329686 ], [ 6.8901387713779, 52.502428439440472 ], [ 6.887936812374674, 52.503156207796913 ], [ 6.885800442179601, 52.503953115155738 ], [ 6.883735516434887, 52.504816973551343 ], [ 6.881747694958469, 52.505745411333308 ], [ 6.879842426230842, 52.506735879709439 ], [ 6.878024932461152, 52.507785659775763 ], [ 6.876300195273491, 52.508891870013741 ], [ 6.874672942052607, 52.510051474233713 ], [ 6.873147632986467, 52.511261289942368 ], [ 6.871728448841199, 52.512517997110578 ], [ 6.870419279501901, 52.513818147317323 ], [ 6.869223713310729, 52.515158173243996 ], [ 6.868145027231512, 52.516534398492716 ], [ 6.867186177867817, 52.517943047701166 ], [ 6.866349793359096, 52.519380256925949 ], [ 6.865638166177155, 52.52084208426556 ], [ 6.865053246842636, 52.522324520693374 ], [ 6.864596638578773, 52.523823501070964 ], [ 6.864269592917083, 52.5253349153109 ], [ 6.864073006266989, 52.526854619658572 ], [ 6.864007417458836, 52.528378448061581 ], [ 6.864073006266989, 52.529902223595805 ], [ 6.864269592917083, 52.531421769916321 ], [ 6.864596638578773, 52.532932922702166 ], [ 6.865053246842636, 52.534431541063228 ], [ 6.865638166177155, 52.535913518878431 ], [ 6.866349793359096, 52.537374796033987 ], [ 6.867186177867817, 52.538811369531217 ], [ 6.868145027231512, 52.540219304433776 ], [ 6.869223713310729, 52.541594744624355 ], [ 6.870419279501901, 52.542933923341899 ], [ 6.871728448841199, 52.544233173470737 ], [ 6.873147632986467, 52.545488937553699 ], [ 6.874672942052607, 52.546697777502395 ], [ 6.876300195273491, 52.547856383978342 ], [ 6.878024932461152, 52.548961585419697 ], [ 6.879842426230842, 52.550010356689427 ], [ 6.881747694958469, 52.550999827321547 ], [ 6.883735516434887, 52.551927289343602 ], [ 6.885800442179601, 52.552790204654002 ], [ 6.887936812374674, 52.55358621193497 ], [ 6.8901387713779, 52.554313133082346 ], [ 6.892400283772704, 52.554968979135062 ], [ 6.894715150910814, 52.555551955688678 ], [ 6.897077027902304, 52.55606046777838 ], [ 6.899479441006514, 52.556493124218584 ], [ 6.901915805376115, 52.556848741387455 ], [ 6.90437944310572, 52.557126346446346 ], [ 6.906863601535556, 52.557325179985746 ], [ 6.90936147176004, 52.557444698090407 ], [ 6.911866207290511, 52.557484573818464 ], [ 6.914370942820981, 52.557444698090407 ], [ 6.916868813045466, 52.557325179985746 ], [ 6.919352971475302, 52.557126346446346 ], [ 6.921816609204906, 52.556848741387455 ], [ 6.924252973574507, 52.556493124218584 ], [ 6.926655386678717, 52.55606046777838 ], [ 6.929017263670207, 52.555551955688678 ], [ 6.931332130808316, 52.554968979135062 ], [ 6.933593643203122, 52.554313133082346 ], [ 6.935795602206348, 52.55358621193497 ], [ 6.937931972401421, 52.552790204654002 ], [ 6.939996898146134, 52.551927289343602 ], [ 6.941984719622552, 52.550999827321547 ], [ 6.94388998835018, 52.550010356689427 ], [ 6.945707482119869, 52.548961585419697 ], [ 6.94743221930753, 52.547856383978342 ], [ 6.949059472528415, 52.546697777502395 ], [ 6.950584781594555, 52.545488937553699 ], [ 6.952003965739823, 52.544233173470737 ], [ 6.95331313507912, 52.542933923341899 ], [ 6.954508701270292, 52.541594744624355 ], [ 6.955587387349509, 52.540219304433776 ], [ 6.956546236713205, 52.538811369531217 ], [ 6.957382621221925, 52.537374796033987 ], [ 6.958094248403866, 52.535913518878431 ], [ 6.958679167738387, 52.534431541063228 ], [ 6.959135776002249, 52.532932922702166 ], [ 6.959462821663939, 52.531421769916321 ], [ 6.959659408314033, 52.529902223595805 ], [ 6.959724997122185, 52.528378448061581 ] ] ] } },
{ "type": "Feature", "properties": { "name": "Gölenkamp", "feature_type": "mrr", "metric_roundness": 63.25, "metric_rectangularity": 70.14, "metric_mobile_fit": 70.49, "metric_aspect_ratio": 0.858, "metric_area_km2": 56.37 }, "geometry": { "type": "Polygon", "coordinates": [ [ [ 6.882591557942495, 52.554059341965242 ], [ 6.956818861898745, 52.549671202829209 ], [ 6.948402645135228, 52.497002702522387 ], [ 6.874175341178977, 52.501396106287388 ], [ 6.882591557942495, 52.554059341965242 ] ] ] } }
]
}
