{
"type": "FeatureCollection",
"name": "golfo_aranci",
"crs": { "type": "name", "properties": { "name": "urn:ogc:def:crs:OGC:1.3:CRS84" } },
"features": [
{ "type": "Feature", "properties": { "name": "Golfo Aranci", "feature_type": "entity", "metric_roundness": 22.67, "metric_rectangularity": 43.18, "metric_mobile_fit": -36.18, "metric_aspect_ratio": 1.924, "metric_area_km2": 65.44 }, "geometry": { "type": "Polygon", "coordinates": [ [ [ 9.59191, 40.9669025 ], [ 9.5841193, 40.976235699999982 ], [ 9.5845849, 40.9852357 ], [ 9.5900815, 40.9892685 ], [ 9.5970083, 40.989661499999983 ], [ 9.6007691, 40.995180499999989 ], [ 9.6124936, 41.0021158 ], [ 9.6189793, 41.001551799999987 ], [ 9.6339647, 40.9891813 ], [ 9.6483713, 40.9854888 ], [ 9.660668, 40.9927245 ], [ 9.6621754, 40.9965173 ], [ 9.653997, 41.0035421 ], [ 9.6304109, 41.0027323 ], [ 9.608121, 41.0173791 ], [ 9.5962572, 41.0208662 ], [ 9.5857923, 41.012391199999982 ], [ 9.5776044, 41.013776499999977 ], [ 9.576034, 41.004835 ], [ 9.5665333, 41.0085663 ], [ 9.5576365, 41.00333950000001 ], [ 9.5487235, 40.9980891 ], [ 9.5333506, 40.999554 ], [ 9.5244704, 40.986023499999988 ], [ 9.5011419, 40.9772054 ], [ 9.4939953, 40.968383 ], [ 9.5033802, 40.9659395 ], [ 9.5324615, 40.9693457 ], [ 9.5481624, 40.9662649 ], [ 9.5547523, 40.969236699999982 ], [ 9.580082, 40.9548955 ], [ 9.59191, 40.9669025 ] ] ] } },
{ "type": "Feature", "properties": { "name": "Golfo Aranci", "feature_type": "circle", "metric_roundness": 22.67, "metric_rectangularity": 43.18, "metric_mobile_fit": -36.18, "metric_aspect_ratio": 1.924, "metric_area_km2": 65.44 }, "geometry": { "type": "Polygon", "coordinates": [ [ [ 9.664215308658957, 40.982451650216717 ], [ 9.664097270544024, 40.979048657176023 ], [ 9.663743479733498, 40.97565481664828 ], [ 9.663154905943394, 40.972279433073119 ], [ 9.662333162413562, 40.968931761711616 ], [ 9.661280501485896, 40.96562098323929 ], [ 9.659999808430833, 40.962356178528246 ], [ 9.658494593539016, 40.959146303688549 ], [ 9.656768982499836, 40.956000165437892 ], [ 9.654827705093204, 40.952926396867952 ], [ 9.652676082225561, 40.949933433674786 ], [ 9.650320011345622, 40.947029490920031 ], [ 9.647765950279908, 40.944222540387152 ], [ 9.645020899532263, 40.941520288596934 ], [ 9.642092383095987, 40.938930155543481 ], [ 9.638988427831064, 40.936459254210732 ], [ 9.635717541463132, 40.934114370927134 ], [ 9.63228868926436, 40.931901946614097 ], [ 9.628711269480295, 40.929828058981187 ], [ 9.624995087569898, 40.927898405718388 ], [ 9.621150329329479, 40.926118288733491 ], [ 9.617187532974125, 40.92449259947891 ], [ 9.613117560253201, 40.923025805410234 ], [ 9.60895156667903, 40.921721937614599 ], [ 9.604700970950429, 40.920584579644505 ], [ 9.600377423654828, 40.919616857588906 ], [ 9.595992775334846, 40.91882143140981 ], [ 9.59155904400675, 40.918200487569344 ], [ 9.587088382219926, 40.917755732968352 ], [ 9.582593043747579, 40.917488390213791 ], [ 9.57808535, 40.917399194228608 ], [ 9.573577656252418, 40.917488390213791 ], [ 9.569082317780072, 40.917755732968352 ], [ 9.564611655993248, 40.918200487569344 ], [ 9.560177924665153, 40.91882143140981 ], [ 9.555793276345169, 40.919616857588906 ], [ 9.551469729049568, 40.920584579644505 ], [ 9.547219133320967, 40.921721937614599 ], [ 9.543053139746798, 40.923025805410234 ], [ 9.538983167025874, 40.92449259947891 ], [ 9.535020370670519, 40.926118288733491 ], [ 9.531175612430101, 40.927898405718388 ], [ 9.527459430519702, 40.929828058981187 ], [ 9.523882010735637, 40.931901946614097 ], [ 9.520453158536867, 40.934114370927134 ], [ 9.517182272168933, 40.936459254210732 ], [ 9.514078316904012, 40.938930155543481 ], [ 9.511149800467734, 40.941520288596934 ], [ 9.508404749720089, 40.944222540387152 ], [ 9.505850688654375, 40.947029490920031 ], [ 9.503494617774438, 40.949933433674786 ], [ 9.501342994906794, 40.952926396867952 ], [ 9.499401717500161, 40.956000165437892 ], [ 9.497676106460981, 40.959146303688549 ], [ 9.496170891569164, 40.962356178528246 ], [ 9.494890198514101, 40.96562098323929 ], [ 9.493837537586437, 40.968931761711616 ], [ 9.493015794056607, 40.972279433073119 ], [ 9.492427220266501, 40.97565481664828 ], [ 9.492073429455974, 40.979048657176023 ], [ 9.49195539134104, 40.982451650216717 ], [ 9.492073429455974, 40.985854467678855 ], [ 9.492427220266501, 40.989247783394596 ], [ 9.493015794056607, 40.992622298674284 ], [ 9.493837537586437, 40.995968767770059 ], [ 9.494890198514101, 40.999278023178711 ], [ 9.496170891569164, 41.002541000715148 ], [ 9.497676106460981, 41.005748764288235 ], [ 9.499401717500161, 41.008892530311805 ], [ 9.501342994906794, 41.011963691684805 ], [ 9.503494617774438, 41.014953841276181 ], [ 9.505850688654375, 41.01785479485077 ], [ 9.508404749720089, 41.020658613375183 ], [ 9.511149800467734, 41.02335762464358 ], [ 9.514078316904012, 41.025944444165724 ], [ 9.517182272168933, 41.028411995261436 ], [ 9.520453158536867, 41.030753528308153 ], [ 9.523882010735637, 41.03296263909035 ], [ 9.527459430519702, 41.035033286202228 ], [ 9.531175612430101, 41.036959807457563 ], [ 9.535020370670519, 41.038736935263529 ], [ 9.538983167025874, 41.040359810917721 ], [ 9.543053139746798, 41.041823997790935 ], [ 9.547219133320967, 41.043125493361011 ], [ 9.551469729049568, 41.044260740065994 ], [ 9.555793276345167, 41.045226634948385 ], [ 9.560177924665153, 41.046020538065044 ], [ 9.564611655993248, 41.046640279640805 ], [ 9.569082317780072, 41.047084165947084 ], [ 9.573577656252418, 41.047350983890112 ], [ 9.57808535, 41.047440004296895 ], [ 9.582593043747579, 41.047350983890112 ], [ 9.587088382219926, 41.047084165947084 ], [ 9.59155904400675, 41.046640279640805 ], [ 9.595992775334846, 41.046020538065044 ], [ 9.600377423654828, 41.045226634948385 ], [ 9.604700970950429, 41.044260740065994 ], [ 9.60895156667903, 41.043125493361011 ], [ 9.613117560253201, 41.041823997790935 ], [ 9.617187532974125, 41.040359810917721 ], [ 9.621150329329479, 41.038736935263529 ], [ 9.624995087569898, 41.036959807457563 ], [ 9.628711269480295, 41.035033286202228 ], [ 9.63228868926436, 41.03296263909035 ], [ 9.635717541463132, 41.030753528308153 ], [ 9.638988427831064, 41.028411995261436 ], [ 9.642092383095987, 41.025944444165724 ], [ 9.645020899532263, 41.02335762464358 ], [ 9.647765950279908, 41.020658613375183 ], [ 9.650320011345622, 41.01785479485077 ], [ 9.652676082225561, 41.014953841276181 ], [ 9.654827705093204, 41.011963691684805 ], [ 9.656768982499836, 41.008892530311805 ], [ 9.658494593539016, 41.005748764288235 ], [ 9.659999808430833, 41.002541000715148 ], [ 9.661280501485896, 40.999278023178711 ], [ 9.662333162413562, 40.995968767770059 ], [ 9.663154905943394, 40.992622298674284 ], [ 9.663743479733498, 40.989247783394596 ], [ 9.664097270544024, 40.985854467678855 ], [ 9.664215308658957, 40.982451650216717 ] ] ] } },
{ "type": "Feature", "properties": { "name": "Golfo Aranci", "feature_type": "mrr", "metric_roundness": 22.67, "metric_rectangularity": 43.18, "metric_mobile_fit": -36.18, "metric_aspect_ratio": 1.924, "metric_area_km2": 65.44 }, "geometry": { "type": "Polygon", "coordinates": [ [ [ 9.664992981107998, 40.992933091635471 ], [ 9.524248422397864, 40.929871767960854 ], [ 9.486121969873221, 40.978401810219772 ], [ 9.626866528583353, 41.041416764927455 ], [ 9.664992981107998, 40.992933091635471 ] ] ] } }
]
}
