{
"type": "FeatureCollection",
"name": "gond_pontouvre",
"crs": { "type": "name", "properties": { "name": "urn:ogc:def:crs:OGC:1.3:CRS84" } },
"features": [
{ "type": "Feature", "properties": { "name": "Gond-Pontouvre", "feature_type": "entity", "metric_roundness": 38.25, "metric_rectangularity": 56.98, "metric_mobile_fit": 68.29, "metric_aspect_ratio": 0.88, "metric_area_km2": 15.65 }, "geometry": { "type": "Polygon", "coordinates": [ [ [ 0.1838618, 45.6752166 ], [ 0.181479, 45.677960499999983 ], [ 0.177002, 45.6781715 ], [ 0.1767851, 45.6858047 ], [ 0.1689279, 45.693708799999989 ], [ 0.1628236, 45.694159 ], [ 0.1588502, 45.699347899999985 ], [ 0.144572, 45.7003755 ], [ 0.142865, 45.699712 ], [ 0.1407245, 45.697015 ], [ 0.1542461, 45.6902541 ], [ 0.1544905, 45.6739965 ], [ 0.15922, 45.6629055 ], [ 0.1698199, 45.6592814 ], [ 0.175847, 45.664195 ], [ 0.192463, 45.674481 ], [ 0.1838618, 45.6752166 ] ] ] } },
{ "type": "Feature", "properties": { "name": "Gond-Pontouvre", "feature_type": "circle", "metric_roundness": 38.25, "metric_rectangularity": 56.98, "metric_mobile_fit": 68.29, "metric_aspect_ratio": 0.88, "metric_area_km2": 15.65 }, "geometry": { "type": "Polygon", "coordinates": [ [ [ 0.193911382169706, 45.681175917371803 ], [ 0.193866951319267, 45.679990472763969 ], [ 0.193733780549824, 45.678808252364114 ], [ 0.193512234873198, 45.677632496864526 ], [ 0.193202921530691, 45.676466429439486 ], [ 0.192806688328673, 45.675313246905191 ], [ 0.19232462131481, 45.674176110949723 ], [ 0.191758041801278, 45.673058139457325 ], [ 0.191108502743142, 45.671962397950708 ], [ 0.190377784481811, 45.670891891175081 ], [ 0.189567889865248, 45.66984955484709 ], [ 0.188681038758301, 45.668838247591403 ], [ 0.187719661958212, 45.667860743087346 ], [ 0.186686394531963, 45.666919722447197 ], [ 0.185584068593749, 45.666017766847233 ], [ 0.184415705542345, 45.665157350432089 ], [ 0.183184507779663, 45.664340833511979 ], [ 0.181893849933191, 45.663570456071618 ], [ 0.180547269606373, 45.662848331609048 ], [ 0.179148457682287, 45.662176441321392 ], [ 0.177701248207184, 45.661556628653585 ], [ 0.176209607881643, 45.660990594225538 ], [ 0.174677625188112, 45.660479891151553 ], [ 0.173109499184669, 45.66002592076525 ], [ 0.17150952799569, 45.659629928761866 ], [ 0.16988209703099, 45.659293001768518 ], [ 0.168231666965723, 45.659016064352357 ], [ 0.166562761513977, 45.658799876474539 ], [ 0.164879955029592, 45.658645031397477 ], [ 0.163187859968172, 45.658551954050978 ], [ 0.161491114244662, 45.658520899861969 ], [ 0.159794368521152, 45.658551954050978 ], [ 0.158102273459732, 45.658645031397477 ], [ 0.156419466975347, 45.658799876474539 ], [ 0.154750561523601, 45.659016064352357 ], [ 0.153100131458334, 45.659293001768518 ], [ 0.151472700493634, 45.659629928761866 ], [ 0.149872729304655, 45.66002592076525 ], [ 0.148304603301212, 45.660479891151553 ], [ 0.146772620607681, 45.660990594225538 ], [ 0.14528098028214, 45.661556628653585 ], [ 0.143833770807037, 45.662176441321392 ], [ 0.14243495888295, 45.662848331609048 ], [ 0.141088378556133, 45.663570456071618 ], [ 0.139797720709661, 45.664340833511979 ], [ 0.138566522946979, 45.665157350432089 ], [ 0.137398159895575, 45.666017766847233 ], [ 0.136295833957361, 45.666919722447197 ], [ 0.135262566531112, 45.667860743087346 ], [ 0.134301189731023, 45.668838247591403 ], [ 0.133414338624076, 45.66984955484709 ], [ 0.132604444007513, 45.670891891175081 ], [ 0.131873725746182, 45.671962397950708 ], [ 0.131224186688046, 45.673058139457325 ], [ 0.130657607174514, 45.674176110949723 ], [ 0.130175540160651, 45.675313246905191 ], [ 0.129779306958633, 45.676466429439486 ], [ 0.129469993616125, 45.677632496864526 ], [ 0.1292484479395, 45.678808252364114 ], [ 0.129115277170057, 45.679990472763969 ], [ 0.129070846319618, 45.681175917371803 ], [ 0.129115277170057, 45.682361336863195 ], [ 0.1292484479395, 45.683543482188909 ], [ 0.129469993616125, 45.684719113479176 ], [ 0.129779306958633, 45.685885008920579 ], [ 0.130175540160651, 45.687037973581234 ], [ 0.130657607174514, 45.688174848160088 ], [ 0.131224186688046, 45.68929251763663 ], [ 0.131873725746182, 45.690387919797075 ], [ 0.132604444007513, 45.69145805361417 ], [ 0.133414338624076, 45.692499987457495 ], [ 0.134301189731023, 45.693510867112067 ], [ 0.135262566531112, 45.694487923583459 ], [ 0.136295833957361, 45.695428480668134 ], [ 0.137398159895575, 45.696329962268621 ], [ 0.138566522946979, 45.697189899433518 ], [ 0.139797720709661, 45.698005937103389 ], [ 0.141088378556133, 45.698775840544286 ], [ 0.14243495888295, 45.69949750145139 ], [ 0.143833770807037, 45.700168943706402 ], [ 0.14528098028214, 45.700788328773115 ], [ 0.146772620607681, 45.701353960716517 ], [ 0.148304603301212, 45.701864290831999 ], [ 0.149872729304655, 45.702317921872151 ], [ 0.151472700493634, 45.7027136118597 ], [ 0.153100131458334, 45.703050277476464 ], [ 0.154750561523601, 45.703326997018998 ], [ 0.156419466975347, 45.703543012913201 ], [ 0.158102273459731, 45.703697733780942 ], [ 0.159794368521152, 45.703790736053307 ], [ 0.161491114244662, 45.70382176512588 ], [ 0.163187859968172, 45.703790736053307 ], [ 0.164879955029592, 45.703697733780942 ], [ 0.166562761513977, 45.703543012913201 ], [ 0.168231666965723, 45.703326997018998 ], [ 0.16988209703099, 45.703050277476464 ], [ 0.17150952799569, 45.7027136118597 ], [ 0.173109499184669, 45.702317921872151 ], [ 0.174677625188112, 45.701864290831999 ], [ 0.176209607881643, 45.701353960716517 ], [ 0.177701248207184, 45.700788328773115 ], [ 0.179148457682287, 45.700168943706402 ], [ 0.180547269606373, 45.69949750145139 ], [ 0.181893849933191, 45.698775840544286 ], [ 0.183184507779663, 45.698005937103389 ], [ 0.184415705542345, 45.697189899433518 ], [ 0.185584068593749, 45.696329962268621 ], [ 0.186686394531963, 45.695428480668134 ], [ 0.187719661958212, 45.694487923583459 ], [ 0.188681038758301, 45.693510867112067 ], [ 0.189567889865248, 45.692499987457495 ], [ 0.190377784481811, 45.69145805361417 ], [ 0.191108502743142, 45.690387919797075 ], [ 0.191758041801278, 45.68929251763663 ], [ 0.19232462131481, 45.688174848160088 ], [ 0.192806688328673, 45.687037973581234 ], [ 0.193202921530691, 45.685885008920579 ], [ 0.193512234873198, 45.684719113479176 ], [ 0.193733780549824, 45.683543482188909 ], [ 0.193866951319267, 45.682361336863195 ], [ 0.193911382169706, 45.681175917371803 ] ] ] } },
{ "type": "Feature", "properties": { "name": "Gond-Pontouvre", "feature_type": "mrr", "metric_roundness": 38.25, "metric_rectangularity": 56.98, "metric_mobile_fit": 68.29, "metric_aspect_ratio": 0.88, "metric_area_km2": 15.65 }, "geometry": { "type": "Polygon", "coordinates": [ [ [ 0.15367427892315, 45.706167223953877 ], [ 0.193642359481707, 45.67351729755805 ], [ 0.166258370971017, 45.657152779633719 ], [ 0.12629029041246, 45.68981225451261 ], [ 0.15367427892315, 45.706167223953877 ] ] ] } }
]
}
