{
"type": "FeatureCollection",
"name": "gondar",
"crs": { "type": "name", "properties": { "name": "urn:ogc:def:crs:OGC:1.3:CRS84" } },
"features": [
{ "type": "Feature", "properties": { "name": "Gondar", "feature_type": "entity", "metric_roundness": 66.35, "metric_rectangularity": 71.71, "metric_mobile_fit": 74.0, "metric_aspect_ratio": 0.823, "metric_area_km2": 4.08 }, "geometry": { "type": "Polygon", "coordinates": [ [ [ -8.3667802, 41.4291394 ], [ -8.3783175, 41.4277475 ], [ -8.377878, 41.4234165 ], [ -8.3783905, 41.4125805 ], [ -8.3702615, 41.4114111 ], [ -8.3626015, 41.41592 ], [ -8.3589445, 41.418178 ], [ -8.3667802, 41.4291394 ] ] ] } },
{ "type": "Feature", "properties": { "name": "Gondar", "feature_type": "circle", "metric_roundness": 66.35, "metric_rectangularity": 71.71, "metric_mobile_fit": 74.0, "metric_aspect_ratio": 0.823, "metric_area_km2": 4.08 }, "geometry": { "type": "Polygon", "coordinates": [ [ [ -8.358618519230886, 41.420311035800722 ], [ -8.358635750416976, 41.41981759079664 ], [ -8.358687396745767, 41.419325494557199 ], [ -8.358773316658258, 41.418836095930011 ], [ -8.358893274653944, 41.418350736398871 ], [ -8.359046941936294, 41.417870746405967 ], [ -8.35923389731397, 41.417397441704125 ], [ -8.359453628355279, 41.416932119748886 ], [ -8.359705532792706, 41.416476056140588 ], [ -8.3599889201737, 41.416030501125952 ], [ -8.360303013753148, 41.415596676169002 ], [ -8.36064695262238, 41.415175770600555 ], [ -8.361019794068863, 41.414768938355735 ], [ -8.361420516160109, 41.414377294808141 ], [ -8.361848020544718, 41.414001913709747 ], [ -8.362301135462888, 41.413643824244708 ], [ -8.362778618958123, 41.413304008205188 ], [ -8.363279162281351, 41.412983397297197 ], [ -8.363801393478118, 41.412682870583573 ], [ -8.364343881149017, 41.412403252071378 ], [ -8.364905138373043, 41.412145308450242 ], [ -8.365483626783158, 41.41190974698786 ], [ -8.366077760782844, 41.411697213588624 ], [ -8.366685911892104, 41.411508291020482 ], [ -8.367306413211018, 41.411343497315123 ], [ -8.367937563988606, 41.411203284345824 ], [ -8.368577634284451, 41.411088036586847 ], [ -8.369224869710367, 41.410998070057872 ], [ -8.36987749623904, 41.410933631456345 ], [ -8.370533725066519, 41.410894897480176 ], [ -8.371191757515197, 41.410881974342509 ], [ -8.371849789963878, 41.410894897480176 ], [ -8.372506018791356, 41.410933631456345 ], [ -8.373158645320029, 41.410998070057872 ], [ -8.373805880745943, 41.411088036586847 ], [ -8.374445951041791, 41.411203284345824 ], [ -8.375077101819375, 41.411343497315123 ], [ -8.37569760313829, 41.411508291020482 ], [ -8.376305754247552, 41.411697213588624 ], [ -8.376899888247237, 41.41190974698786 ], [ -8.377478376657352, 41.412145308450242 ], [ -8.378039633881379, 41.412403252071378 ], [ -8.378582121552276, 41.412682870583573 ], [ -8.379104352749044, 41.412983397297197 ], [ -8.379604896072273, 41.413304008205188 ], [ -8.380082379567508, 41.413643824244708 ], [ -8.380535494485677, 41.414001913709747 ], [ -8.380962998870286, 41.414377294808141 ], [ -8.381363720961533, 41.414768938355735 ], [ -8.381736562408015, 41.415175770600555 ], [ -8.382080501277247, 41.415596676169002 ], [ -8.382394594856695, 41.416030501125952 ], [ -8.38267798223769, 41.416476056140588 ], [ -8.382929886675116, 41.416932119748886 ], [ -8.383149617716423, 41.417397441704125 ], [ -8.383336573094102, 41.417870746405967 ], [ -8.383490240376451, 41.418350736398871 ], [ -8.383610198372137, 41.418836095930011 ], [ -8.383696118284629, 41.419325494557199 ], [ -8.383747764613419, 41.41981759079664 ], [ -8.38376499579951, 41.420311035800722 ], [ -8.383747764613419, 41.420804477055562 ], [ -8.383696118284629, 41.421296562088386 ], [ -8.383610198372137, 41.421785942174331 ], [ -8.383490240376451, 41.422271276032767 ], [ -8.383336573094102, 41.422751233502765 ], [ -8.383149617716423, 41.423224499187839 ], [ -8.382929886675116, 41.423689776059923 ], [ -8.38267798223769, 41.424145789012613 ], [ -8.382394594856695, 41.424591288354193 ], [ -8.382080501277247, 41.425025053230598 ], [ -8.381736562408015, 41.425445894969251 ], [ -8.381363720961533, 41.425852660334392 ], [ -8.380962998870286, 41.426244234685143 ], [ -8.380535494485677, 41.42661954502767 ], [ -8.380082379567508, 41.426977562953049 ], [ -8.379604896072273, 41.427317307452903 ], [ -8.379104352749044, 41.427637847605034 ], [ -8.378582121552276, 41.427938305121813 ], [ -8.378039633881379, 41.428217856754323 ], [ -8.377478376657352, 41.428475736545678 ], [ -8.376899888247237, 41.428711237927502 ], [ -8.376305754247552, 41.428923715653681 ], [ -8.37569760313829, 41.429112587566216 ], [ -8.375077101819375, 41.42927733618842 ], [ -8.374445951041791, 41.429417510140958 ], [ -8.373805880745943, 41.42953272537703 ], [ -8.373158645320029, 41.4296226662333 ], [ -8.372506018791356, 41.429687086293583 ], [ -8.371849789963878, 41.429725809063129 ], [ -8.371191757515197, 41.429738728451561 ], [ -8.370533725066519, 41.429725809063129 ], [ -8.36987749623904, 41.429687086293583 ], [ -8.369224869710367, 41.4296226662333 ], [ -8.368577634284451, 41.42953272537703 ], [ -8.367937563988606, 41.429417510140958 ], [ -8.367306413211018, 41.42927733618842 ], [ -8.366685911892104, 41.429112587566216 ], [ -8.366077760782844, 41.428923715653681 ], [ -8.365483626783158, 41.428711237927502 ], [ -8.364905138373043, 41.428475736545678 ], [ -8.364343881149017, 41.428217856754323 ], [ -8.363801393478118, 41.427938305121813 ], [ -8.363279162281351, 41.427637847605034 ], [ -8.362778618958123, 41.427317307452903 ], [ -8.362301135462888, 41.426977562953049 ], [ -8.361848020544718, 41.42661954502767 ], [ -8.361420516160109, 41.426244234685143 ], [ -8.361019794068863, 41.425852660334392 ], [ -8.36064695262238, 41.425445894969251 ], [ -8.360303013753148, 41.425025053230598 ], [ -8.3599889201737, 41.424591288354193 ], [ -8.359705532792706, 41.424145789012613 ], [ -8.359453628355279, 41.423689776059923 ], [ -8.35923389731397, 41.423224499187839 ], [ -8.359046941936294, 41.422751233502765 ], [ -8.358893274653944, 41.422271276032767 ], [ -8.358773316658258, 41.421785942174331 ], [ -8.358687396745767, 41.421296562088386 ], [ -8.358635750416976, 41.420804477055562 ], [ -8.358618519230886, 41.420311035800722 ] ] ] } },
{ "type": "Feature", "properties": { "name": "Gondar", "feature_type": "mrr", "metric_roundness": 66.35, "metric_rectangularity": 71.71, "metric_mobile_fit": 74.0, "metric_aspect_ratio": 0.823, "metric_area_km2": 4.08 }, "geometry": { "type": "Polygon", "coordinates": [ [ [ -8.37839602264914, 41.411433120218867 ], [ -8.378310650521694, 41.429170603943319 ], [ -8.358891842717121, 41.429118054604636 ], [ -8.358977214844566, 41.411380556525721 ], [ -8.37839602264914, 41.411433120218867 ] ] ] } }
]
}
