{
"type": "FeatureCollection",
"name": "gorbanesti",
"crs": { "type": "name", "properties": { "name": "urn:ogc:def:crs:OGC:1.3:CRS84" } },
"features": [
{ "type": "Feature", "properties": { "name": "Gorbăneşti", "feature_type": "entity", "metric_roundness": 57.23, "metric_rectangularity": 64.82, "metric_mobile_fit": 70.83, "metric_aspect_ratio": 0.854, "metric_area_km2": 181.19 }, "geometry": { "type": "Polygon", "coordinates": [ [ [ 26.9502938, 47.7684369 ], [ 26.9441741, 47.775167 ], [ 26.9486688, 47.7880419 ], [ 26.9442748, 47.797236299999987 ], [ 26.9350315, 47.80613 ], [ 26.932406, 47.804392899999982 ], [ 26.9264775, 47.807097399999982 ], [ 26.931221, 47.8124043 ], [ 26.9270393, 47.8169726 ], [ 26.9191542, 47.8034653 ], [ 26.9094976, 47.800804799999987 ], [ 26.9022071, 47.809311199999989 ], [ 26.9017605, 47.8153862 ], [ 26.8953452, 47.8213332 ], [ 26.8692281, 47.820755399999989 ], [ 26.8607638, 47.830626099999989 ], [ 26.8352054, 47.8241936 ], [ 26.8281076, 47.8290575 ], [ 26.806466, 47.825151 ], [ 26.8087295, 47.822973499999982 ], [ 26.810369, 47.821634 ], [ 26.821322, 47.8113095 ], [ 26.8152949, 47.8063334 ], [ 26.816673, 47.8035147 ], [ 26.8196452, 47.80137209999998 ], [ 26.826212, 47.802918099999985 ], [ 26.8308685, 47.7984201 ], [ 26.8257316, 47.791873299999978 ], [ 26.835322, 47.783357099999982 ], [ 26.8313664, 47.7765809 ], [ 26.8447562, 47.759728899999985 ], [ 26.8422018, 47.7556124 ], [ 26.8464019, 47.7441786 ], [ 26.8387877, 47.741180199999981 ], [ 26.8392652, 47.7352791 ], [ 26.8286455, 47.732485499999981 ], [ 26.8353973, 47.7192313 ], [ 26.8391775, 47.718023 ], [ 26.8666662, 47.724358 ], [ 26.8748952, 47.717465 ], [ 26.8991242, 47.7229774 ], [ 26.9063331, 47.7268516 ], [ 26.9062728, 47.732406599999983 ], [ 26.9102672, 47.735248899999988 ], [ 26.9074892, 47.743101 ], [ 26.9094231, 47.7467469 ], [ 26.9319321, 47.751137899999989 ], [ 26.9318477, 47.7560497 ], [ 26.9432175, 47.7592065 ], [ 26.9502938, 47.7684369 ] ] ] } },
{ "type": "Feature", "properties": { "name": "Gorbăneşti", "feature_type": "circle", "metric_roundness": 57.23, "metric_rectangularity": 64.82, "metric_mobile_fit": 70.83, "metric_aspect_ratio": 0.854, "metric_area_km2": 181.19 }, "geometry": { "type": "Polygon", "coordinates": [ [ [ 26.951172158799402, 47.776876296152601 ], [ 26.951048542910367, 47.773703796628354 ], [ 26.950678034065831, 47.770539799937268 ], [ 26.950061647804777, 47.767392980748852 ], [ 26.949201073599095, 47.764271968205747 ], [ 26.948098670222883, 47.761185322228911 ], [ 26.946757459287152, 47.75814150999576 ], [ 26.945181116957858, 47.755148882656741 ], [ 26.943373963879758, 47.75221565235482 ], [ 26.941340953333821, 47.749349869611791 ], [ 26.93908765766064, 47.746559401144722 ], [ 26.936620252987026, 47.743851908174449 ], [ 26.933945502297689, 47.741234825287179 ], [ 26.931070736898352, 47.738715339908438 ], [ 26.928003836321146, 47.736300372447467 ], [ 26.924753206727377, 47.733996557168041 ], [ 26.921327757866816, 47.731810223840029 ], [ 26.917736878656683, 47.729747380223657 ], [ 26.913990411447298, 47.72781369543641 ], [ 26.910098625044871, 47.726014484249937 ], [ 26.90607218656541, 47.7243546923618 ], [ 26.901922132196916, 47.722838882684215 ], [ 26.897659836949948, 47.721471222689146 ], [ 26.893296983479512, 47.7202554728458 ], [ 26.888845530063701, 47.719194976184113 ], [ 26.884317677826921, 47.718292649013989 ], [ 26.879725837297425, 47.71755097282707 ], [ 26.875082594390925, 47.71697198740452 ], [ 26.87040067591348, 47.716557285150458 ], [ 26.86569291467821, 47.716308006667639 ], [ 26.860972214331415, 47.716224837588058 ], [ 26.856251513984624, 47.716308006667639 ], [ 26.851543752749354, 47.716557285150458 ], [ 26.846861834271909, 47.71697198740452 ], [ 26.842218591365409, 47.71755097282707 ], [ 26.837626750835913, 47.718292649013989 ], [ 26.833098898599133, 47.719194976184113 ], [ 26.828647445183325, 47.7202554728458 ], [ 26.824284591712885, 47.721471222689146 ], [ 26.820022296465915, 47.722838882684215 ], [ 26.815872242097424, 47.7243546923618 ], [ 26.811845803617963, 47.726014484249937 ], [ 26.807954017215536, 47.72781369543641 ], [ 26.804207550006147, 47.729747380223657 ], [ 26.800616670796018, 47.731810223840029 ], [ 26.797191221935453, 47.733996557168041 ], [ 26.793940592341684, 47.736300372447467 ], [ 26.790873691764482, 47.738715339908438 ], [ 26.787998926365141, 47.741234825287179 ], [ 26.785324175675807, 47.743851908174449 ], [ 26.782856771002194, 47.746559401144722 ], [ 26.780603475329016, 47.749349869611791 ], [ 26.778570464783073, 47.75221565235482 ], [ 26.776763311704972, 47.755148882656741 ], [ 26.775186969375678, 47.75814150999576 ], [ 26.773845758439951, 47.761185322228911 ], [ 26.772743355063735, 47.764271968205747 ], [ 26.771882780858057, 47.767392980748852 ], [ 26.771266394597006, 47.770539799937268 ], [ 26.770895885752463, 47.773703796628354 ], [ 26.770772269863436, 47.776876296152601 ], [ 26.770895885752463, 47.780048602116324 ], [ 26.771266394597006, 47.78321202024653 ], [ 26.771882780858057, 47.786357882212549 ], [ 26.772743355063735, 47.789477569359271 ], [ 26.773845758439951, 47.792562536287086 ], [ 26.775186969375678, 47.795604334214595 ], [ 26.776763311704972, 47.798594634060528 ], [ 26.778570464783073, 47.801525249182454 ], [ 26.780603475329016, 47.804388157711045 ], [ 26.782856771002194, 47.807175524419762 ], [ 26.785324175675807, 47.80987972207128 ], [ 26.787998926365141, 47.812493352183637 ], [ 26.790873691764482, 47.815009265160626 ], [ 26.793940592341684, 47.817420579733003 ], [ 26.797191221935453, 47.819720701658817 ], [ 26.800616670796018, 47.821903341633352 ], [ 26.804207550006147, 47.823962532361534 ], [ 26.807954017215536, 47.82589264474769 ], [ 26.811845803617963, 47.827688403160124 ], [ 26.815872242097424, 47.829344899730572 ], [ 26.820022296465915, 47.830857607650977 ], [ 26.824284591712885, 47.832222393432879 ], [ 26.828647445183325, 47.833435528097539 ], [ 26.833098898599133, 47.834493697267419 ], [ 26.837626750835913, 47.835394010133101 ], [ 26.842218591365409, 47.836134007272044 ], [ 26.846861834271909, 47.836711667299085 ], [ 26.851543752749354, 47.837125412331396 ], [ 26.856251513984624, 47.837374112253748 ], [ 26.860972214331415, 47.837457087772933 ], [ 26.86569291467821, 47.837374112253748 ], [ 26.87040067591348, 47.837125412331396 ], [ 26.875082594390925, 47.836711667299085 ], [ 26.879725837297425, 47.836134007272044 ], [ 26.884317677826921, 47.835394010133101 ], [ 26.888845530063701, 47.834493697267419 ], [ 26.893296983479512, 47.833435528097539 ], [ 26.897659836949948, 47.832222393432879 ], [ 26.901922132196916, 47.830857607650977 ], [ 26.90607218656541, 47.829344899730572 ], [ 26.910098625044871, 47.827688403160124 ], [ 26.913990411447298, 47.82589264474769 ], [ 26.917736878656683, 47.823962532361534 ], [ 26.921327757866816, 47.821903341633352 ], [ 26.924753206727377, 47.819720701658817 ], [ 26.928003836321146, 47.817420579733003 ], [ 26.931070736898352, 47.815009265160626 ], [ 26.933945502297689, 47.812493352183637 ], [ 26.936620252987026, 47.80987972207128 ], [ 26.93908765766064, 47.807175524419762 ], [ 26.941340953333821, 47.804388157711045 ], [ 26.943373963879758, 47.801525249182454 ], [ 26.945181116957858, 47.798594634060528 ], [ 26.946757459287152, 47.795604334214595 ], [ 26.948098670222883, 47.792562536287086 ], [ 26.949201073599095, 47.789477569359271 ], [ 26.950061647804777, 47.786357882212549 ], [ 26.950678034065831, 47.78321202024653 ], [ 26.951048542910367, 47.780048602116324 ], [ 26.951172158799402, 47.776876296152601 ] ] ] } },
{ "type": "Feature", "properties": { "name": "Gorbăneşti", "feature_type": "mrr", "metric_roundness": 57.23, "metric_rectangularity": 64.82, "metric_mobile_fit": 70.83, "metric_aspect_ratio": 0.854, "metric_area_km2": 181.19 }, "geometry": { "type": "Polygon", "coordinates": [ [ [ 26.833312675950577, 47.712965058267827 ], [ 26.8060994543848, 47.826680992687145 ], [ 26.936053513483998, 47.84071222553208 ], [ 26.963266735049775, 47.727027007734847 ], [ 26.833312675950577, 47.712965058267827 ] ] ] } }
]
}
