{
"type": "FeatureCollection",
"name": "gornji_mihaljevec",
"crs": { "type": "name", "properties": { "name": "urn:ogc:def:crs:OGC:1.3:CRS84" } },
"features": [
{ "type": "Feature", "properties": { "name": "Gornji Mihaljevec", "metric_roundness": 68.52, "metric_rectangularity": 76.34, "metric_mobile_fit": 66.42, "metric_aspect_ratio": 0.898, "metric_area_km2": 67.21 }, "geometry": { "type": "Polygon", "coordinates": [ [ [ 16.2748394, 46.415337699999981 ], [ 16.2835657, 46.414090699999981 ], [ 16.3004115, 46.403976499999985 ], [ 16.3140175, 46.404311899999989 ], [ 16.3221805, 46.409008699999987 ], [ 16.3505275, 46.411090499999986 ], [ 16.3544972, 46.4152981 ], [ 16.3547802, 46.4202294 ], [ 16.3466755, 46.427958499999981 ], [ 16.345295, 46.44230169999998 ], [ 16.3370464, 46.444053 ], [ 16.3357856, 46.450304599999988 ], [ 16.343217, 46.460879499999983 ], [ 16.3434358, 46.4644536 ], [ 16.333179, 46.4677852 ], [ 16.3043865, 46.4653224 ], [ 16.2925906, 46.4587615 ], [ 16.2839561, 46.461056799999987 ], [ 16.2811897, 46.448594899999989 ], [ 16.284018, 46.443621 ], [ 16.2768206, 46.4339453 ], [ 16.27161, 46.431331 ], [ 16.2748394, 46.415337699999981 ] ] ] } }
]
}
