{
"type": "FeatureCollection",
"name": "gorron",
"crs": { "type": "name", "properties": { "name": "urn:ogc:def:crs:OGC:1.3:CRS84" } },
"features": [
{ "type": "Feature", "properties": { "name": "Gorron", "metric_roundness": 41.05, "metric_rectangularity": 60.69, "metric_mobile_fit": 29.96, "metric_aspect_ratio": 1.263, "metric_area_km2": 33.59 }, "geometry": { "type": "Polygon", "coordinates": [ [ [ -0.8218037, 48.4007954 ], [ -0.8119125, 48.398776 ], [ -0.7940188, 48.4027488 ], [ -0.7927947, 48.4141443 ], [ -0.7818698, 48.416861399999981 ], [ -0.7823882, 48.4281529 ], [ -0.7648395, 48.429777499999986 ], [ -0.7559214, 48.43197379999998 ], [ -0.756488, 48.436933499999981 ], [ -0.7634504, 48.436868 ], [ -0.7739635, 48.442709 ], [ -0.8115085, 48.437395 ], [ -0.8207739, 48.4254703 ], [ -0.829928, 48.4291925 ], [ -0.8288438, 48.4175268 ], [ -0.839523, 48.411101 ], [ -0.8218037, 48.4007954 ] ] ] } }
]
}
