{
"type": "FeatureCollection",
"name": "gorsbach",
"crs": { "type": "name", "properties": { "name": "urn:ogc:def:crs:OGC:1.3:CRS84" } },
"features": [
{ "type": "Feature", "properties": { "name": "Görsbach", "metric_roundness": 36.43, "metric_rectangularity": 81.04, "metric_mobile_fit": -5.17, "metric_aspect_ratio": 1.614, "metric_area_km2": 20.91 }, "geometry": { "type": "Polygon", "coordinates": [ [ [ 10.9082673, 51.471362 ], [ 10.8975525, 51.4589335 ], [ 10.9203833, 51.4552476 ], [ 10.957401, 51.443275599999986 ], [ 10.968703, 51.442595499999989 ], [ 10.9720761, 51.4525524 ], [ 10.968544, 51.4552476 ], [ 10.968377, 51.4588381 ], [ 10.962994, 51.460387 ], [ 10.9082673, 51.471362 ] ] ] } }
]
}
