{
"type": "FeatureCollection",
"name": "gosheim",
"crs": { "type": "name", "properties": { "name": "urn:ogc:def:crs:OGC:1.3:CRS84" } },
"features": [
{ "type": "Feature", "properties": { "name": "Gosheim", "metric_roundness": 53.21, "metric_rectangularity": 64.18, "metric_mobile_fit": 61.99, "metric_aspect_ratio": 0.943, "metric_area_km2": 21.52 }, "geometry": { "type": "Polygon", "coordinates": [ [ [ 8.7441409, 48.137184 ], [ 8.74073, 48.1297705 ], [ 8.7505763, 48.1247119 ], [ 8.7650781, 48.127408499999987 ], [ 8.773868, 48.114785 ], [ 8.775807, 48.114636 ], [ 8.785493, 48.118744 ], [ 8.788356, 48.1213695 ], [ 8.789232, 48.123217 ], [ 8.7923295, 48.1264485 ], [ 8.7711745, 48.141792699999989 ], [ 8.772065, 48.150859499999974 ], [ 8.769975, 48.153731 ], [ 8.766929, 48.155005 ], [ 8.7615225, 48.1560075 ], [ 8.7568695, 48.155718 ], [ 8.7532465, 48.153295499999984 ], [ 8.7458031, 48.151145799999981 ], [ 8.7435316, 48.1442787 ], [ 8.733897, 48.140891499999974 ], [ 8.7441409, 48.137184 ] ] ] } }
]
}
