{
"type": "FeatureCollection",
"name": "gotor",
"crs": { "type": "name", "properties": { "name": "urn:ogc:def:crs:OGC:1.3:CRS84" } },
"features": [
{ "type": "Feature", "properties": { "name": "Gotor", "feature_type": "entity", "metric_roundness": 25.75, "metric_rectangularity": 60.41, "metric_mobile_fit": 91.84, "metric_aspect_ratio": 0.644, "metric_area_km2": 27.95 }, "geometry": { "type": "Polygon", "coordinates": [ [ [ -1.67718, 41.512963 ], [ -1.6706245, 41.521538 ], [ -1.6592934, 41.526382399999981 ], [ -1.6517328, 41.534537799999981 ], [ -1.6413866, 41.5399637 ], [ -1.627363, 41.567489499999979 ], [ -1.6316016, 41.5729402 ], [ -1.6317118, 41.5789146 ], [ -1.6393099, 41.5859424 ], [ -1.648073, 41.5889475 ], [ -1.6554495, 41.5668753 ], [ -1.6555529, 41.5539923 ], [ -1.692756, 41.523929499999987 ], [ -1.67718, 41.512963 ] ] ] } },
{ "type": "Feature", "properties": { "name": "Gotor", "feature_type": "circle", "metric_roundness": 25.75, "metric_rectangularity": 60.41, "metric_mobile_fit": 91.84, "metric_aspect_ratio": 0.644, "metric_area_km2": 27.95 }, "geometry": { "type": "Polygon", "coordinates": [ [ [ -1.609814698547455, 41.550966414110633 ], [ -1.609887075285894, 41.548897930217201 ], [ -1.610104007121602, 41.546835049982555 ], [ -1.610464899459496, 41.544783428431181 ], [ -1.610968763118763, 41.542748690260119 ], [ -1.611614217044136, 41.540736414407327 ], [ -1.612399492091271, 41.538752118739751 ], [ -1.613322435875848, 41.536801244903401 ], [ -1.614380518673105, 41.534889143377207 ], [ -1.615570840351642, 41.533021058771837 ], [ -1.616890138322476, 41.531202115414409 ], [ -1.618334796481573, 41.529437303258781 ], [ -1.619900855121336, 41.527731464160716 ], [ -1.621584021783887, 41.526089278555986 ], [ -1.623379683026402, 41.52451525257851 ], [ -1.625282917066228, 41.523013705654378 ], [ -1.627288507271155, 41.521588758606363 ], [ -1.629390956457838, 41.520244322302247 ], [ -1.631584501959196, 41.518984086878575 ], [ -1.633863131419481, 41.517811511570073 ], [ -1.636220599273728, 41.516729815173086 ], [ -1.638650443866414, 41.515741967170044 ], [ -1.641146005162406, 41.514850679539585 ], [ -1.643700443001658, 41.514058399275505 ], [ -1.646306755847608, 41.513367301635469 ], [ -1.648957799977908, 41.512779284138631 ], [ -1.65164630906487, 41.512295961328768 ], [ -1.65436491409196, 41.51191866031801 ], [ -1.657106163551769, 41.511648417123446 ], [ -1.659862543870068, 41.511485973807105 ], [ -1.6626265, 41.511431776427308 ], [ -1.665390456129932, 41.511485973807105 ], [ -1.668146836448231, 41.511648417123446 ], [ -1.67088808590804, 41.51191866031801 ], [ -1.67360669093513, 41.512295961328768 ], [ -1.676295200022091, 41.512779284138631 ], [ -1.678946244152392, 41.513367301635469 ], [ -1.681552556998342, 41.514058399275505 ], [ -1.684106994837594, 41.514850679539585 ], [ -1.686602556133586, 41.515741967170044 ], [ -1.689032400726272, 41.516729815173086 ], [ -1.691389868580519, 41.517811511570073 ], [ -1.693668498040804, 41.518984086878575 ], [ -1.695862043542162, 41.520244322302247 ], [ -1.697964492728845, 41.521588758606363 ], [ -1.699970082933772, 41.523013705654378 ], [ -1.701873316973598, 41.52451525257851 ], [ -1.703668978216112, 41.526089278555986 ], [ -1.705352144878664, 41.527731464160716 ], [ -1.706918203518426, 41.529437303258781 ], [ -1.708362861677523, 41.531202115414409 ], [ -1.709682159648358, 41.533021058771837 ], [ -1.710872481326895, 41.534889143377207 ], [ -1.711930564124152, 41.536801244903401 ], [ -1.712853507908729, 41.538752118739751 ], [ -1.713638782955863, 41.540736414407327 ], [ -1.714284236881237, 41.542748690260119 ], [ -1.714788100540504, 41.544783428431181 ], [ -1.715148992878398, 41.546835049982555 ], [ -1.715365924714106, 41.548897930217201 ], [ -1.715438301452545, 41.550966414110633 ], [ -1.715365924714106, 41.553034831819836 ], [ -1.715148992878398, 41.555097514226901 ], [ -1.714788100540504, 41.557148808474814 ], [ -1.714284236881237, 41.559183093452518 ], [ -1.713638782955863, 41.561194795187347 ], [ -1.712853507908729, 41.563178402102515 ], [ -1.711930564124152, 41.565128480098117 ], [ -1.710872481326895, 41.567039687414649 ], [ -1.709682159648358, 41.568906789238575 ], [ -1.708362861677523, 41.570724672010343 ], [ -1.706918203518426, 41.572488357396104 ], [ -1.705352144878664, 41.574193015885228 ], [ -1.703668978216112, 41.575833979976927 ], [ -1.701873316973598, 41.577406756920439 ], [ -1.699970082933772, 41.578907040974364 ], [ -1.697964492728845, 41.580330725152209 ], [ -1.695862043542162, 41.581673912422431 ], [ -1.693668498040804, 41.582932926333164 ], [ -1.691389868580519, 41.584104321032868 ], [ -1.689032400726272, 41.585184890660159 ], [ -1.686602556133586, 41.58617167807774 ], [ -1.684106994837594, 41.587061982926969 ], [ -1.681552556998342, 41.587853368981591 ], [ -1.678946244152392, 41.588543670781085 ], [ -1.676295200022092, 41.589130999525715 ], [ -1.67360669093513, 41.589613748217772 ], [ -1.67088808590804, 41.589990596035321 ], [ -1.668146836448231, 41.59026051192653 ], [ -1.665390456129932, 41.590422757415347 ], [ -1.6626265, 41.590476888610951 ], [ -1.659862543870068, 41.590422757415347 ], [ -1.657106163551769, 41.59026051192653 ], [ -1.65436491409196, 41.589990596035321 ], [ -1.65164630906487, 41.589613748217772 ], [ -1.648957799977908, 41.589130999525715 ], [ -1.646306755847608, 41.588543670781085 ], [ -1.643700443001658, 41.587853368981591 ], [ -1.641146005162406, 41.587061982926969 ], [ -1.638650443866414, 41.58617167807774 ], [ -1.636220599273728, 41.585184890660159 ], [ -1.633863131419481, 41.584104321032868 ], [ -1.631584501959196, 41.582932926333164 ], [ -1.629390956457838, 41.581673912422431 ], [ -1.627288507271155, 41.580330725152209 ], [ -1.625282917066228, 41.578907040974364 ], [ -1.623379683026402, 41.577406756920439 ], [ -1.621584021783887, 41.575833979976927 ], [ -1.619900855121336, 41.574193015885228 ], [ -1.618334796481573, 41.572488357396104 ], [ -1.616890138322476, 41.570724672010343 ], [ -1.615570840351642, 41.568906789238575 ], [ -1.614380518673105, 41.567039687414649 ], [ -1.613322435875848, 41.565128480098117 ], [ -1.612399492091271, 41.563178402102515 ], [ -1.611614217044136, 41.561194795187347 ], [ -1.610968763118763, 41.559183093452518 ], [ -1.610464899459496, 41.557148808474814 ], [ -1.610104007121602, 41.555097514226901 ], [ -1.609887075285894, 41.553034831819836 ], [ -1.609814698547455, 41.550966414110633 ] ] ] } },
{ "type": "Feature", "properties": { "name": "Gotor", "feature_type": "mrr", "metric_roundness": 25.75, "metric_rectangularity": 60.41, "metric_mobile_fit": 91.84, "metric_aspect_ratio": 0.644, "metric_area_km2": 27.95 }, "geometry": { "type": "Polygon", "coordinates": [ [ [ -1.695455048444798, 41.520000041139902 ], [ -1.647874235827674, 41.589236581636506 ], [ -1.615960223126383, 41.576960340388517 ], [ -1.663541035743507, 41.50771064458889 ], [ -1.695455048444798, 41.520000041139902 ] ] ] } }
]
}
