{
"type": "FeatureCollection",
"name": "gournay_sur_aronde",
"crs": { "type": "name", "properties": { "name": "urn:ogc:def:crs:OGC:1.3:CRS84" } },
"features": [
{ "type": "Feature", "properties": { "name": "Gournay-sur-Aronde", "feature_type": "entity", "metric_roundness": 49.86, "metric_rectangularity": 53.62, "metric_mobile_fit": 78.18, "metric_aspect_ratio": 0.781, "metric_area_km2": 35.41 }, "geometry": { "type": "Polygon", "coordinates": [ [ [ 2.7152123, 49.49754 ], [ 2.7043754, 49.4964343 ], [ 2.7060752, 49.501894 ], [ 2.6994117, 49.503193099999983 ], [ 2.7032964, 49.510934299999981 ], [ 2.7002052, 49.5143013 ], [ 2.7084865, 49.518989 ], [ 2.7036575, 49.528578 ], [ 2.696956, 49.529451499999986 ], [ 2.680064, 49.527729199999982 ], [ 2.6803283, 49.515652699999983 ], [ 2.6715195, 49.5139935 ], [ 2.664366, 49.5117136 ], [ 2.6632747, 49.5042391 ], [ 2.6689, 49.496859799999989 ], [ 2.660271, 49.4868905 ], [ 2.6613015, 49.4864385 ], [ 2.6696888, 49.488673299999988 ], [ 2.6872891, 49.483834799999983 ], [ 2.695399, 49.476488 ], [ 2.7054635, 49.4748405 ], [ 2.718509, 49.485781499999987 ], [ 2.7251356, 49.4856663 ], [ 2.725925, 49.4882595 ], [ 2.7152123, 49.49754 ] ] ] } },
{ "type": "Feature", "properties": { "name": "Gournay-sur-Aronde", "feature_type": "circle", "metric_roundness": 49.86, "metric_rectangularity": 53.62, "metric_mobile_fit": 78.18, "metric_aspect_ratio": 0.781, "metric_area_km2": 35.41 }, "geometry": { "type": "Polygon", "coordinates": [ [ [ 2.737723341599439, 49.501745960204218 ], [ 2.737664797636522, 49.50029401703523 ], [ 2.737489326212706, 49.498846010636591 ], [ 2.737197408282964, 49.497405910421797 ], [ 2.736789843974053, 49.495977664480264 ], [ 2.736267750391414, 49.494565188746307 ], [ 2.735632558557265, 49.493172356252543 ], [ 2.734886009488273, 49.491802986497376 ], [ 2.734030149423544, 49.490460834955876 ], [ 2.733067324216025, 49.489149582762927 ], [ 2.732000172902686, 49.487872826597332 ], [ 2.730831620471098, 49.486634068794771 ], [ 2.729564869842252, 49.485436707717064 ], [ 2.728203393091572, 49.484284028404488 ], [ 2.726750921932194, 49.483179193537133 ], [ 2.725211437486608, 49.482125234730432 ], [ 2.723589159374669, 49.481125044189099 ], [ 2.721888534147921, 49.480181366742819 ], [ 2.720114223101901, 49.479296792285844 ], [ 2.718271089499853, 49.478473748641676 ], [ 2.716364185242869, 49.477714494872785 ], [ 2.714398737022967, 49.477021115054072 ], [ 2.712380131997103, 49.476395512527588 ], [ 2.710313903021341, 49.475839404654451 ], [ 2.708205713485682, 49.475354318078949 ], [ 2.706061341791104, 49.474941584517879 ], [ 2.703886665511369, 49.474602337087113 ], [ 2.701687645283, 49.474337507175569 ], [ 2.69947030846759, 49.47414782187554 ], [ 2.697240732631225, 49.474033801976546 ], [ 2.695005028886298, 49.473995760528226 ], [ 2.692769325141371, 49.474033801976546 ], [ 2.690539749305007, 49.47414782187554 ], [ 2.688322412489597, 49.474337507175569 ], [ 2.686123392261227, 49.474602337087113 ], [ 2.683948715981492, 49.474941584517879 ], [ 2.681804344286914, 49.475354318078949 ], [ 2.679696154751255, 49.475839404654451 ], [ 2.677629925775493, 49.476395512527588 ], [ 2.675611320749629, 49.477021115054072 ], [ 2.673645872529728, 49.477714494872785 ], [ 2.671738968272743, 49.478473748641676 ], [ 2.669895834670696, 49.479296792285844 ], [ 2.668121523624675, 49.480181366742819 ], [ 2.666420898397927, 49.481125044189099 ], [ 2.664798620285989, 49.482125234730432 ], [ 2.663259135840403, 49.483179193537133 ], [ 2.661806664681025, 49.484284028404488 ], [ 2.660445187930343, 49.485436707717064 ], [ 2.659178437301498, 49.486634068794771 ], [ 2.65800988486991, 49.487872826597332 ], [ 2.656942733556571, 49.489149582762927 ], [ 2.655979908349052, 49.490460834955876 ], [ 2.655124048284323, 49.491802986497376 ], [ 2.654377499215331, 49.493172356252543 ], [ 2.653742307381183, 49.494565188746307 ], [ 2.653220213798543, 49.495977664480264 ], [ 2.652812649489632, 49.497405910421797 ], [ 2.652520731559891, 49.498846010636591 ], [ 2.652345260136074, 49.50029401703523 ], [ 2.652286716173157, 49.501745960204218 ], [ 2.652345260136074, 49.503197860291621 ], [ 2.652520731559891, 49.504645737917528 ], [ 2.652812649489632, 49.506085625079315 ], [ 2.653220213798543, 49.5075135760218 ], [ 2.653742307381183, 49.508925678042758 ], [ 2.654377499215331, 49.510318062204043 ], [ 2.655124048284323, 49.511686913919263 ], [ 2.655979908349052, 49.513028483389114 ], [ 2.656942733556571, 49.514339095856009 ], [ 2.65800988486991, 49.515615161650125 ], [ 2.659178437301498, 49.516853185999636 ], [ 2.660445187930343, 49.518049778578593 ], [ 2.661806664681025, 49.519201662766541 ], [ 2.663259135840403, 49.520305684594945 ], [ 2.664798620285989, 49.521358821356195 ], [ 2.666420898397927, 49.522358189852099 ], [ 2.668121523624675, 49.523301054259441 ], [ 2.669895834670696, 49.524184833591818 ], [ 2.671738968272743, 49.52500710873727 ], [ 2.673645872529728, 49.525765629053161 ], [ 2.675611320749629, 49.526458318500438 ], [ 2.677629925775493, 49.527083281300946 ], [ 2.679696154751255, 49.527638807102491 ], [ 2.681804344286914, 49.528123375638103 ], [ 2.683948715981492, 49.52853566086673 ], [ 2.686123392261227, 49.528874534584546 ], [ 2.688322412489597, 49.529139069497091 ], [ 2.690539749305007, 49.529328541744128 ], [ 2.692769325141371, 49.529442432870418 ], [ 2.695005028886298, 49.529480431237161 ], [ 2.697240732631225, 49.529442432870418 ], [ 2.69947030846759, 49.529328541744128 ], [ 2.701687645283, 49.529139069497091 ], [ 2.703886665511369, 49.528874534584546 ], [ 2.706061341791104, 49.52853566086673 ], [ 2.708205713485682, 49.528123375638103 ], [ 2.710313903021341, 49.527638807102491 ], [ 2.712380131997103, 49.527083281300946 ], [ 2.714398737022967, 49.526458318500438 ], [ 2.716364185242869, 49.525765629053161 ], [ 2.718271089499853, 49.52500710873727 ], [ 2.720114223101901, 49.524184833591818 ], [ 2.721888534147921, 49.523301054259441 ], [ 2.723589159374669, 49.522358189852099 ], [ 2.725211437486608, 49.521358821356195 ], [ 2.726750921932194, 49.520305684594945 ], [ 2.728203393091572, 49.519201662766541 ], [ 2.729564869842252, 49.518049778578593 ], [ 2.730831620471098, 49.516853185999636 ], [ 2.732000172902686, 49.515615161650125 ], [ 2.733067324216025, 49.514339095856009 ], [ 2.734030149423544, 49.513028483389114 ], [ 2.734886009488273, 49.511686913919263 ], [ 2.735632558557265, 49.510318062204043 ], [ 2.736267750391414, 49.508925678042758 ], [ 2.736789843974053, 49.5075135760218 ], [ 2.737197408282964, 49.506085625079315 ], [ 2.737489326212706, 49.504645737917528 ], [ 2.737664797636522, 49.503197860291621 ], [ 2.737723341599439, 49.501745960204218 ] ] ] } },
{ "type": "Feature", "properties": { "name": "Gournay-sur-Aronde", "feature_type": "mrr", "metric_roundness": 49.86, "metric_rectangularity": 53.62, "metric_mobile_fit": 78.18, "metric_aspect_ratio": 0.781, "metric_area_km2": 35.41 }, "geometry": { "type": "Polygon", "coordinates": [ [ [ 2.701384450448717, 49.532691800361313 ], [ 2.730156363021145, 49.480594240984225 ], [ 2.671314261325014, 49.466882193726704 ], [ 2.642542348752586, 49.518994345433498 ], [ 2.701384450448717, 49.532691800361313 ] ] ] } }
]
}
