{
"type": "FeatureCollection",
"name": "clans",
"crs": { "type": "name", "properties": { "name": "urn:ogc:def:crs:OGC:1.3:CRS84" } },
"features": [
{ "type": "Feature", "properties": { "name": "Clans", "feature_type": "entity", "metric_roundness": 51.4, "metric_rectangularity": 69.04, "metric_mobile_fit": 61.43, "metric_aspect_ratio": 0.948, "metric_area_km2": 73.18 }, "geometry": { "type": "Polygon", "coordinates": [ [ [ 7.233907, 44.0161355 ], [ 7.2305545, 44.022411499999983 ], [ 7.226231, 44.025263499999987 ], [ 7.2205585, 44.027671 ], [ 7.2185545, 44.0306345 ], [ 7.2158595, 44.031386 ], [ 7.213172, 44.032939 ], [ 7.210242, 44.0367635 ], [ 7.209676, 44.0390405 ], [ 7.207704, 44.0409305 ], [ 7.1974441, 44.041596299999988 ], [ 7.1804619, 44.036596799999984 ], [ 7.1742209, 44.0276303 ], [ 7.154511, 44.0213995 ], [ 7.1505611, 44.0114043 ], [ 7.13147, 44.013836499999989 ], [ 7.1364503, 44.0037215 ], [ 7.1355538, 43.9848472 ], [ 7.141889, 43.9721315 ], [ 7.14603, 43.971687 ], [ 7.147761, 43.968278 ], [ 7.149839, 43.96779 ], [ 7.150184, 43.965829 ], [ 7.151454, 43.96389 ], [ 7.1730522, 43.967685 ], [ 7.1834145, 43.9850566 ], [ 7.196362, 43.9891553 ], [ 7.2047091, 44.0015528 ], [ 7.2251105, 44.0040285 ], [ 7.233907, 44.0161355 ] ] ] } },
{ "type": "Feature", "properties": { "name": "Clans", "feature_type": "circle", "metric_roundness": 51.4, "metric_rectangularity": 69.04, "metric_mobile_fit": 61.43, "metric_aspect_ratio": 0.948, "metric_area_km2": 73.18 }, "geometry": { "type": "Polygon", "coordinates": [ [ [ 7.240066960427199, 44.00242275545326 ], [ 7.239984063779667, 44.000145594153174 ], [ 7.239735601051019, 43.997874587351014 ], [ 7.239322253260324, 43.995615960791923 ], [ 7.238745153365145, 43.993375906989982 ], [ 7.238005883156182, 43.991160568235514 ], [ 7.237106468921691, 43.988976019732554 ], [ 7.236049375893569, 43.986828252913007 ], [ 7.234837501490332, 43.984723158973601 ], [ 7.233474167375482, 43.982666512681234 ], [ 7.231963110353061, 43.980663956491597 ], [ 7.23030847212534, 43.978720985025198 ], [ 7.228514787940683, 43.976842929943913 ], [ 7.226586974162766, 43.97503494527033 ], [ 7.224530314795153, 43.973301993190788 ], [ 7.222350446998216, 43.971648830381746 ], [ 7.220053345638061, 43.97007999489783 ], [ 7.217645306909851, 43.968599793658328 ], [ 7.215132931080358, 43.967212290567119 ], [ 7.212523104397095, 43.965921295299616 ], [ 7.209822980213599, 43.964730352788088 ], [ 7.20703995938257, 43.963642733435094 ], [ 7.20418166997066, 43.962661424082597 ], [ 7.201255946350472, 43.961789119762187 ], [ 7.198270807727083, 43.961028216249773 ], [ 7.195234436157966, 43.960380803445844 ], [ 7.192155154126537, 43.959848659599828 ], [ 7.189041401730804, 43.959433246395186 ], [ 7.185901713549649, 43.959135704908824 ], [ 7.182744695250142, 43.958956852456666 ], [ 7.179579, 43.958897180333899 ], [ 7.176413304749858, 43.958956852456666 ], [ 7.173256286450349, 43.959135704908824 ], [ 7.170116598269196, 43.959433246395186 ], [ 7.167002845873464, 43.959848659599828 ], [ 7.163923563842032, 43.960380803445844 ], [ 7.160887192272916, 43.961028216249773 ], [ 7.157902053649527, 43.961789119762187 ], [ 7.154976330029339, 43.962661424082597 ], [ 7.152118040617429, 43.963642733435094 ], [ 7.149335019786401, 43.964730352788088 ], [ 7.146634895602903, 43.965921295299616 ], [ 7.144025068919642, 43.967212290567119 ], [ 7.141512693090148, 43.968599793658328 ], [ 7.139104654361938, 43.97007999489783 ], [ 7.136807553001784, 43.971648830381746 ], [ 7.134627685204845, 43.973301993190788 ], [ 7.132571025837233, 43.97503494527033 ], [ 7.130643212059316, 43.976842929943913 ], [ 7.128849527874659, 43.978720985025198 ], [ 7.127194889646938, 43.980663956491597 ], [ 7.125683832624517, 43.982666512681234 ], [ 7.124320498509666, 43.984723158973601 ], [ 7.123108624106429, 43.986828252913007 ], [ 7.122051531078308, 43.988976019732554 ], [ 7.121152116843818, 43.991160568235514 ], [ 7.120412846634855, 43.993375906989982 ], [ 7.119835746739676, 43.995615960791923 ], [ 7.119422398948981, 43.997874587351014 ], [ 7.119173936220332, 44.000145594153174 ], [ 7.119091039572801, 44.00242275545326 ], [ 7.119173936220332, 44.004699829351189 ], [ 7.119422398948981, 44.006970574904436 ], [ 7.119835746739676, 44.00922876923017 ], [ 7.120412846634855, 44.011468224549951 ], [ 7.121152116843818, 44.013682805130543 ], [ 7.122051531078308, 44.015866444074639 ], [ 7.123108624106429, 44.018013159915661 ], [ 7.124320498509666, 44.020117072971622 ], [ 7.125683832624517, 44.022172421413636 ], [ 7.127194889646938, 44.02417357700552 ], [ 7.128849527874659, 44.026115060472051 ], [ 7.130643212059316, 44.027991556454168 ], [ 7.132571025837233, 44.029797928011106 ], [ 7.134627685204845, 44.031529230630177 ], [ 7.136807553001784, 44.033180725706757 ], [ 7.139104654361938, 44.034747893458231 ], [ 7.141512693090148, 44.036226445237361 ], [ 7.144025068919642, 44.037612335212096 ], [ 7.146634895602903, 44.038901771380644 ], [ 7.149335019786401, 44.040091225892553 ], [ 7.152118040617429, 44.041177444648099 ], [ 7.154976330029339, 44.042157456150576 ], [ 7.157902053649527, 44.043028579587862 ], [ 7.160887192272916, 44.043788432122064 ], [ 7.163923563842032, 44.044434935367434 ], [ 7.167002845873462, 44.044966321039844 ], [ 7.170116598269196, 44.045381135762547 ], [ 7.173256286450349, 44.045678245015701 ], [ 7.176413304749858, 44.045856836219045 ], [ 7.179579, 44.045916420939676 ], [ 7.182744695250142, 44.045856836219045 ], [ 7.185901713549649, 44.045678245015701 ], [ 7.189041401730804, 44.045381135762547 ], [ 7.192155154126536, 44.044966321039844 ], [ 7.195234436157966, 44.044434935367434 ], [ 7.198270807727083, 44.043788432122064 ], [ 7.201255946350472, 44.043028579587862 ], [ 7.20418166997066, 44.042157456150576 ], [ 7.20703995938257, 44.041177444648099 ], [ 7.209822980213599, 44.040091225892553 ], [ 7.212523104397095, 44.038901771380644 ], [ 7.215132931080358, 44.037612335212096 ], [ 7.217645306909851, 44.036226445237361 ], [ 7.220053345638061, 44.034747893458231 ], [ 7.222350446998216, 44.033180725706757 ], [ 7.224530314795153, 44.031529230630177 ], [ 7.226586974162766, 44.029797928011106 ], [ 7.228514787940683, 44.027991556454168 ], [ 7.23030847212534, 44.026115060472051 ], [ 7.231963110353061, 44.02417357700552 ], [ 7.233474167375482, 44.022172421413636 ], [ 7.234837501490332, 44.020117072971622 ], [ 7.236049375893569, 44.018013159915661 ], [ 7.237106468921691, 44.015866444074639 ], [ 7.238005883156182, 44.013682805130543 ], [ 7.238745153365145, 44.011468224549951 ], [ 7.239322253260324, 44.00922876923017 ], [ 7.239735601051019, 44.006970574904436 ], [ 7.239984063779667, 44.004699829351189 ], [ 7.240066960427199, 44.00242275545326 ] ] ] } },
{ "type": "Feature", "properties": { "name": "Clans", "feature_type": "mrr", "metric_roundness": 51.4, "metric_rectangularity": 69.04, "metric_mobile_fit": 61.43, "metric_aspect_ratio": 0.948, "metric_area_km2": 73.18 }, "geometry": { "type": "Polygon", "coordinates": [ [ [ 7.192837822407939, 44.052975562640434 ], [ 7.242995767868824, 44.012326141827621 ], [ 7.158348219430406, 43.958295985025465 ], [ 7.10819027396952, 43.998982434646713 ], [ 7.192837822407939, 44.052975562640434 ] ] ] } }
]
}
