{
"type": "FeatureCollection",
"name": "turbigo",
"crs": { "type": "name", "properties": { "name": "urn:ogc:def:crs:OGC:1.3:CRS84" } },
"features": [
{ "type": "Feature", "properties": { "name": "Turbigo", "feature_type": "entity", "metric_roundness": 56.15, "metric_rectangularity": 70.86, "metric_mobile_fit": 63.82, "metric_aspect_ratio": 0.924, "metric_area_km2": 17.05 }, "geometry": { "type": "Polygon", "coordinates": [ [ [ 8.7444308, 45.5428977 ], [ 8.7358672, 45.5400285 ], [ 8.727483, 45.5410192 ], [ 8.7265365, 45.534498899999988 ], [ 8.719422, 45.5310565 ], [ 8.713687, 45.526173399999983 ], [ 8.7132145, 45.519934 ], [ 8.7228545, 45.5076445 ], [ 8.7381741, 45.513234299999986 ], [ 8.7402044, 45.5177664 ], [ 8.7535802, 45.524227199999984 ], [ 8.7597247, 45.532445599999981 ], [ 8.75357, 45.5403395 ], [ 8.7444308, 45.5428977 ] ] ] } },
{ "type": "Feature", "properties": { "name": "Turbigo", "feature_type": "circle", "metric_roundness": 56.15, "metric_rectangularity": 70.86, "metric_mobile_fit": 63.82, "metric_aspect_ratio": 0.924, "metric_area_km2": 17.05 }, "geometry": { "type": "Polygon", "coordinates": [ [ [ 8.766146095064347, 45.523994375166787 ], [ 8.766107812700517, 45.522970112169929 ], [ 8.765993070538318, 45.52194863803517 ], [ 8.765802183078046, 45.520932752781043 ], [ 8.76553567352896, 45.519925241257226 ], [ 8.76519427237521, 45.51892886550727 ], [ 8.764778915373626, 45.517946357192315 ], [ 8.76429074098888, 45.516980410096487 ], [ 8.763731087273028, 45.516033672734729 ], [ 8.763101488198, 45.515108741083267 ], [ 8.762403669451103, 45.51420815145292 ], [ 8.761639543705014, 45.513334373524735 ], [ 8.760811205375294, 45.512489803567405 ], [ 8.759920924879722, 45.511676757854879 ], [ 8.758971142415255, 45.51089746630268 ], [ 8.757964461269616, 45.510154066340405 ], [ 8.756903640685842, 45.509448597037292 ], [ 8.75579158829942, 45.508782993497306 ], [ 8.754631352168646, 45.508159081539084 ], [ 8.753426112420104, 45.507578572675705 ], [ 8.752179172532175, 45.507043059408012 ], [ 8.75089395028041, 45.506554010844773 ], [ 8.749573968369672, 45.506112768661616 ], [ 8.748222844778626, 45.505720543410156 ], [ 8.746844282843121, 45.505378411187465 ], [ 8.745442061105598, 45.505087310675322 ], [ 8.74402002295837, 45.504848040557107 ], [ 8.742582066109158, 45.504661257320095 ], [ 8.741132131897734, 45.504527473448661 ], [ 8.739674194492986, 45.504447056013916 ], [ 8.73821225, 45.504420225663424 ], [ 8.736750305507014, 45.504447056013916 ], [ 8.735292368102268, 45.504527473448661 ], [ 8.733842433890842, 45.504661257320095 ], [ 8.73240447704163, 45.504848040557107 ], [ 8.730982438894404, 45.505087310675322 ], [ 8.729580217156881, 45.505378411187465 ], [ 8.728201655221374, 45.505720543410156 ], [ 8.726850531630328, 45.506112768661616 ], [ 8.72553054971959, 45.506554010844773 ], [ 8.724245327467827, 45.507043059408012 ], [ 8.722998387579896, 45.507578572675705 ], [ 8.721793147831354, 45.508159081539084 ], [ 8.72063291170058, 45.508782993497306 ], [ 8.71952085931416, 45.509448597037292 ], [ 8.718460038730386, 45.510154066340405 ], [ 8.717453357584745, 45.51089746630268 ], [ 8.716503575120278, 45.511676757854879 ], [ 8.715613294624706, 45.512489803567405 ], [ 8.714784956294986, 45.513334373524735 ], [ 8.714020830548899, 45.51420815145292 ], [ 8.713323011802, 45.515108741083267 ], [ 8.712693412726974, 45.516033672734729 ], [ 8.712133759011122, 45.516980410096487 ], [ 8.711645584626375, 45.517946357192315 ], [ 8.711230227624791, 45.51892886550727 ], [ 8.71088882647104, 45.519925241257226 ], [ 8.710622316921954, 45.520932752781043 ], [ 8.710431429461682, 45.52194863803517 ], [ 8.710316687299485, 45.522970112169929 ], [ 8.710278404935655, 45.523994375166787 ], [ 8.710316687299485, 45.525018619515443 ], [ 8.710431429461682, 45.526040037909972 ], [ 8.710622316921954, 45.527055830942523 ], [ 8.71088882647104, 45.528063214773823 ], [ 8.711230227624791, 45.529059428759332 ], [ 8.711645584626375, 45.530041743010237 ], [ 8.712133759011122, 45.531007465868619 ], [ 8.712693412726974, 45.531953951276343 ], [ 8.713323011802, 45.532878606017626 ], [ 8.714020830548899, 45.533778896815555 ], [ 8.714784956294986, 45.534652357263127 ], [ 8.715613294624706, 45.535496594570056 ], [ 8.716503575120278, 45.536309296106985 ], [ 8.717453357584745, 45.537088235729222 ], [ 8.718460038730386, 45.537831279863006 ], [ 8.71952085931416, 45.53853639333763 ], [ 8.72063291170058, 45.53920164494766 ], [ 8.721793147831354, 45.539825212730285 ], [ 8.722998387579896, 45.540405388943277 ], [ 8.724245327467827, 45.540940584730379 ], [ 8.72553054971959, 45.541429334461199 ], [ 8.726850531630328, 45.541870299734192 ], [ 8.728201655221374, 45.542262273031639 ], [ 8.729580217156881, 45.542604181016898 ], [ 8.730982438894404, 45.542895087465013 ], [ 8.73240447704163, 45.543134195818787 ], [ 8.733842433890842, 45.543320851363283 ], [ 8.735292368102268, 45.543454543013148 ], [ 8.736750305507014, 45.543534904707663 ], [ 8.73821225, 45.543561716409968 ], [ 8.739674194492986, 45.543534904707663 ], [ 8.741132131897734, 45.543454543013148 ], [ 8.742582066109158, 45.543320851363283 ], [ 8.74402002295837, 45.543134195818787 ], [ 8.745442061105598, 45.542895087465013 ], [ 8.746844282843121, 45.542604181016898 ], [ 8.748222844778626, 45.542262273031639 ], [ 8.749573968369672, 45.541870299734192 ], [ 8.75089395028041, 45.541429334461199 ], [ 8.752179172532175, 45.540940584730379 ], [ 8.753426112420104, 45.540405388943277 ], [ 8.754631352168646, 45.539825212730285 ], [ 8.75579158829942, 45.53920164494766 ], [ 8.756903640685842, 45.53853639333763 ], [ 8.757964461269616, 45.537831279863006 ], [ 8.758971142415255, 45.537088235729222 ], [ 8.759920924879722, 45.536309296106985 ], [ 8.760811205375294, 45.535496594570056 ], [ 8.761639543705014, 45.534652357263127 ], [ 8.762403669451103, 45.533778896815555 ], [ 8.763101488198, 45.532878606017626 ], [ 8.763731087273028, 45.531953951276343 ], [ 8.76429074098888, 45.531007465868619 ], [ 8.764778915373626, 45.530041743010237 ], [ 8.76519427237521, 45.529059428759332 ], [ 8.76553567352896, 45.528063214773823 ], [ 8.765802183078046, 45.527055830942523 ], [ 8.765993070538318, 45.526040037909972 ], [ 8.766107812700517, 45.525018619515443 ], [ 8.766146095064347, 45.523994375166787 ] ] ] } },
{ "type": "Feature", "properties": { "name": "Turbigo", "feature_type": "mrr", "metric_roundness": 56.15, "metric_rectangularity": 70.86, "metric_mobile_fit": 63.82, "metric_aspect_ratio": 0.924, "metric_area_km2": 17.05 }, "geometry": { "type": "Polygon", "coordinates": [ [ [ 8.765073733862378, 45.532426932827043 ], [ 8.726666038785794, 45.505021425250568 ], [ 8.701396347852713, 45.522409584839188 ], [ 8.739804042929297, 45.549806624199803 ], [ 8.765073733862378, 45.532426932827043 ] ] ] } }
]
}
