{
"type": "FeatureCollection",
"name": "oberperfuss",
"crs": { "type": "name", "properties": { "name": "urn:ogc:def:crs:OGC:1.3:CRS84" } },
"features": [
{ "type": "Feature", "properties": { "name": "Oberperfuss", "feature_type": "entity", "metric_roundness": 27.25, "metric_rectangularity": 56.41, "metric_mobile_fit": -58.14, "metric_aspect_ratio": 2.144, "metric_area_km2": 33.11 }, "geometry": { "type": "Polygon", "coordinates": [ [ [ 11.24348796477253, 47.255013671512323 ], [ 11.24347704037417, 47.254982328302077 ], [ 11.243433075144178, 47.254857040555308 ], [ 11.243390334844753, 47.254750947163828 ], [ 11.243169605034252, 47.254100639015064 ], [ 11.243109579580414, 47.253963625791414 ], [ 11.24307901870236, 47.25389393900582 ], [ 11.242815676449508, 47.253278403078312 ], [ 11.242841432237356, 47.253255562520103 ], [ 11.242899247910932, 47.253204236280844 ], [ 11.243706060389306, 47.252487778526891 ], [ 11.243720992237174, 47.25247455057719 ], [ 11.24449718430726, 47.252362298159895 ], [ 11.244593344012282, 47.252354247278106 ], [ 11.244989257204079, 47.252321079151088 ], [ 11.245021242444825, 47.25231788409959 ], [ 11.245040485717373, 47.252315986020172 ], [ 11.245213418008271, 47.252298718436705 ], [ 11.245399708084253, 47.252194206159309 ], [ 11.245706716542239, 47.252022055022422 ], [ 11.245914615304574, 47.25193269873369 ], [ 11.246446459119188, 47.251704172092403 ], [ 11.246496483229905, 47.251682674646176 ], [ 11.24664687148773, 47.251640330185317 ], [ 11.246854475136674, 47.251581839945828 ], [ 11.246873858264225, 47.251569683088526 ], [ 11.246925642902964, 47.251537056526573 ], [ 11.246950987296588, 47.251521228269091 ], [ 11.247024579742646, 47.251465237990942 ], [ 11.24703334969708, 47.251457387523139 ], [ 11.247041159493405, 47.251450419591102 ], [ 11.24715492832374, 47.251357809996257 ], [ 11.247257495913241, 47.251274356469473 ], [ 11.247541293220335, 47.250926168643559 ], [ 11.247612976248346, 47.250838099892071 ], [ 11.247835771266942, 47.250548382379051 ], [ 11.247846598157894, 47.250478283196315 ], [ 11.247858954245721, 47.250399571092757 ], [ 11.247984364420274, 47.25042067486546 ], [ 11.248130789450848, 47.250445222817341 ], [ 11.248468022428428, 47.250501879723366 ], [ 11.248707159493842, 47.250521910143661 ], [ 11.248892275656829, 47.250537442945323 ], [ 11.248932676695244, 47.250542051313062 ], [ 11.248948071665465, 47.250543862672629 ], [ 11.249282701733405, 47.250582737828239 ], [ 11.249602325053068, 47.250650230847505 ], [ 11.249693437559499, 47.250669536310852 ], [ 11.249767199476381, 47.250689695016533 ], [ 11.249807349211649, 47.250700689119228 ], [ 11.249882939311442, 47.250721421182064 ], [ 11.250231205797636, 47.250816888097745 ], [ 11.250328997626186, 47.250810932448843 ], [ 11.250445211052819, 47.250803782812639 ], [ 11.250464161058281, 47.250802598550621 ], [ 11.250477145471898, 47.250801845451896 ], [ 11.250682844856964, 47.250751234409535 ], [ 11.250705666204921, 47.250732298992787 ], [ 11.250829898319642, 47.250628895743851 ], [ 11.250850945666484, 47.25061136806805 ], [ 11.250856824060888, 47.250606434844421 ], [ 11.25090250497845, 47.250587736541725 ], [ 11.250920642408184, 47.250580326760392 ], [ 11.250933946491012, 47.250574808970875 ], [ 11.250938427134328, 47.250575160763255 ], [ 11.251061118234675, 47.250584780370971 ], [ 11.251203338627574, 47.250649031566233 ], [ 11.251216975102366, 47.250655220969037 ], [ 11.251230582137445, 47.250658799574182 ], [ 11.251242882371013, 47.250661994298255 ], [ 11.25152302474581, 47.250735152144507 ], [ 11.251841260693304, 47.250683441723552 ], [ 11.251946366959643, 47.250666276994707 ], [ 11.252324215644217, 47.250722223073069 ], [ 11.252365088902888, 47.250728278971344 ], [ 11.252882530374029, 47.250626282896988 ], [ 11.252925161927466, 47.250617879223 ], [ 11.253374850638791, 47.250534447669146 ], [ 11.25351986650527, 47.250507477905018 ], [ 11.253370628652069, 47.250255163230989 ], [ 11.253364180493447, 47.250244334643227 ], [ 11.252917818051614, 47.249883542941731 ], [ 11.253540158448063, 47.249897137655033 ], [ 11.254376721101801, 47.249915532105625 ], [ 11.254388234530619, 47.249915201811561 ], [ 11.25441020463173, 47.24991452196754 ], [ 11.254368010415877, 47.249871449097455 ], [ 11.254117862204405, 47.249610276219599 ], [ 11.253770703933053, 47.249247875066047 ], [ 11.253406611361717, 47.248811986874436 ], [ 11.253125863286506, 47.24843504247788 ], [ 11.253148938743639, 47.248002790431912 ], [ 11.253156889191333, 47.247840919370901 ], [ 11.253164611964539, 47.247795785686591 ], [ 11.25323961734351, 47.247740537423709 ], [ 11.253258716990434, 47.247732154735395 ], [ 11.253313863575334, 47.247707957514784 ], [ 11.25334957685865, 47.247697267398969 ], [ 11.253861830116945, 47.247544857897751 ], [ 11.253903890843542, 47.247544184263575 ], [ 11.254427904411214, 47.247536450799061 ], [ 11.254769349021231, 47.247478854817814 ], [ 11.254830958253828, 47.247468455948528 ], [ 11.255576913949408, 47.247342707848063 ], [ 11.25605926842473, 47.247261391230779 ], [ 11.256856061928341, 47.247089665782646 ], [ 11.256850074632229, 47.247040142005439 ], [ 11.256863850556284, 47.247039402602113 ], [ 11.256875773725801, 47.247038719489922 ], [ 11.256971209615999, 47.246826505303467 ], [ 11.256960331902523, 47.246665821705925 ], [ 11.256939450647863, 47.246487224335489 ], [ 11.256865241772749, 47.246353921022738 ], [ 11.256862401475717, 47.246348828842663 ], [ 11.25683227215618, 47.246220648079976 ], [ 11.256819825445538, 47.24616731638298 ], [ 11.256630168082518, 47.245853604412382 ], [ 11.256553759506845, 47.245739342689177 ], [ 11.256472655652473, 47.245687461555733 ], [ 11.256379554137787, 47.245628071260079 ], [ 11.256394100833408, 47.245611054355798 ], [ 11.257057826501779, 47.245528714657993 ], [ 11.257630032931301, 47.245457757554547 ], [ 11.257787694633716, 47.245438213396199 ], [ 11.25786765344295, 47.245428326740125 ], [ 11.257937253265021, 47.245419691749433 ], [ 11.258020935049514, 47.245409242642801 ], [ 11.258068428338452, 47.245387964299873 ], [ 11.25810072100975, 47.245373430159184 ], [ 11.257960523914605, 47.245210574619897 ], [ 11.257810810981521, 47.245148805659284 ], [ 11.257410317874342, 47.244983644497843 ], [ 11.257249664310539, 47.244833557121105 ], [ 11.257226583306421, 47.244812075097677 ], [ 11.257166039521469, 47.244778570295153 ], [ 11.256397180534831, 47.244354047331946 ], [ 11.256276943421271, 47.244366440035009 ], [ 11.256195460975729, 47.244374767666365 ], [ 11.256164907173433, 47.244365210558449 ], [ 11.256138012801097, 47.244356710159792 ], [ 11.256090486270702, 47.244341803544664 ], [ 11.256088438640214, 47.24433672577198 ], [ 11.256061708585946, 47.24427017265149 ], [ 11.256159274118909, 47.244017133883226 ], [ 11.256146144152432, 47.243957669040547 ], [ 11.256127603047329, 47.243874433361135 ], [ 11.256090996362847, 47.243709320777931 ], [ 11.255938346532197, 47.24358448957878 ], [ 11.255691572261574, 47.243382696854276 ], [ 11.255323015901029, 47.243081296051727 ], [ 11.255206756029668, 47.24282085313147 ], [ 11.255240441196214, 47.242696804381325 ], [ 11.255268434005213, 47.242593173967578 ], [ 11.255300478580928, 47.242352713853876 ], [ 11.25532026952316, 47.242114640812119 ], [ 11.255231949958345, 47.241869738215861 ], [ 11.255188812438151, 47.24174987075731 ], [ 11.255090672217751, 47.24158678723493 ], [ 11.255052750429465, 47.241562964188581 ], [ 11.254885750987405, 47.24146046224088 ], [ 11.254837031684415, 47.241445713334599 ], [ 11.254833243952431, 47.241444564224537 ], [ 11.254725880923326, 47.241412005251767 ], [ 11.254460215660494, 47.24133146741449 ], [ 11.254280365386263, 47.241276885156154 ], [ 11.253959493782773, 47.241192009783681 ], [ 11.253383028731706, 47.24095539958472 ], [ 11.253319035683418, 47.240929120446474 ], [ 11.253303164341643, 47.240915959814913 ], [ 11.253117936388911, 47.240762897850139 ], [ 11.253023076629706, 47.240664498626366 ], [ 11.252952612876314, 47.240580945598957 ], [ 11.252878939218508, 47.240474831750355 ], [ 11.252857421841057, 47.240443926339175 ], [ 11.252843593023231, 47.240422522059831 ], [ 11.252784402936483, 47.240331253706437 ], [ 11.252715744039635, 47.24013459215567 ], [ 11.252546566512736, 47.239926376347924 ], [ 11.252442197993613, 47.239831223504673 ], [ 11.252216038473977, 47.23965716135698 ], [ 11.252039498001215, 47.239532068735016 ], [ 11.252002112117502, 47.239471170688226 ], [ 11.251984108919901, 47.239219897166166 ], [ 11.251943283955098, 47.239061636622388 ], [ 11.251799816502309, 47.238834986724726 ], [ 11.251686580798022, 47.238716719035104 ], [ 11.251459479904167, 47.238492863072068 ], [ 11.251387291230186, 47.238443210888377 ], [ 11.25108778432293, 47.238289499952046 ], [ 11.250732284921302, 47.238084361015218 ], [ 11.25033677594088, 47.237854908043133 ], [ 11.250089413353306, 47.237706196826316 ], [ 11.249907744345645, 47.237671376135474 ], [ 11.249820913085253, 47.237654668854304 ], [ 11.249670478269435, 47.237628789046489 ], [ 11.249383526342184, 47.237579353268742 ], [ 11.249268094845256, 47.237550601959356 ], [ 11.249211160897122, 47.23753651056942 ], [ 11.249179012379189, 47.237523952056577 ], [ 11.249076309359699, 47.237484091932068 ], [ 11.249000870742961, 47.237439869348442 ], [ 11.248986655556426, 47.23743168883248 ], [ 11.248970626918343, 47.237422575091102 ], [ 11.248936899120102, 47.237379654583734 ], [ 11.248917018072312, 47.237354268808119 ], [ 11.248893666636931, 47.23731297801725 ], [ 11.248858955537184, 47.237251407631653 ], [ 11.248829748627685, 47.237191017914284 ], [ 11.248793449049804, 47.237116097131818 ], [ 11.248717803437039, 47.236983211581268 ], [ 11.248633852377239, 47.236923621646149 ], [ 11.247809379982126, 47.236516472767697 ], [ 11.24746849122304, 47.23634696387478 ], [ 11.24708887036774, 47.236171075041248 ], [ 11.246841622764221, 47.236056742060349 ], [ 11.246748432146124, 47.235986900649891 ], [ 11.246729176480686, 47.235972507020605 ], [ 11.246607417165983, 47.235839586556502 ], [ 11.246463622241823, 47.235618683902196 ], [ 11.246454153299293, 47.235604109213874 ], [ 11.24643835347573, 47.235592569034345 ], [ 11.246370149405115, 47.235542626358935 ], [ 11.246354478129426, 47.235531178527935 ], [ 11.246176805458566, 47.235465641666622 ], [ 11.246062914194745, 47.235448256333072 ], [ 11.246017463356573, 47.235441304100831 ], [ 11.245725829543012, 47.235467380918479 ], [ 11.245514098186652, 47.235481327957778 ], [ 11.245474217408596, 47.235483928417615 ], [ 11.245353570083859, 47.235466958779767 ], [ 11.245158536471765, 47.235439536496287 ], [ 11.244887684354682, 47.235314055959734 ], [ 11.244844846694487, 47.235160526019385 ], [ 11.244875169225857, 47.235108785765355 ], [ 11.244907054358547, 47.235054283823636 ], [ 11.244957900381035, 47.235024971536056 ], [ 11.244994411136032, 47.235003947683097 ], [ 11.245040569717796, 47.234969509033199 ], [ 11.245109191928124, 47.234918379810878 ], [ 11.245203240231591, 47.234835762678166 ], [ 11.245205804880289, 47.234653540896929 ], [ 11.245133973636531, 47.234588409487223 ], [ 11.244955062638095, 47.234551020861566 ], [ 11.244944051592025, 47.234548749072808 ], [ 11.24492184775524, 47.234545462294484 ], [ 11.244810689457776, 47.234529205808947 ], [ 11.244558382845925, 47.234566800667714 ], [ 11.244239172205729, 47.234648804491464 ], [ 11.244212873134474, 47.23465552361872 ], [ 11.244206866704745, 47.234657033789141 ], [ 11.244109484648602, 47.234656690521767 ], [ 11.244076088694497, 47.234655718865419 ], [ 11.24405101226662, 47.234654899567815 ], [ 11.244011135790839, 47.234640667848794 ], [ 11.243979861391864, 47.234629473961441 ], [ 11.243842572030552, 47.234548741326677 ], [ 11.243781806203389, 47.234481201440488 ], [ 11.24371459272572, 47.234402922316562 ], [ 11.243686162374459, 47.234369908181471 ], [ 11.243666625613711, 47.234352628560487 ], [ 11.243628066144485, 47.234318438761527 ], [ 11.243249885145699, 47.234100078600697 ], [ 11.243033296551546, 47.23404975531075 ], [ 11.243025833397809, 47.234047998390295 ], [ 11.242936411198656, 47.234026827782571 ], [ 11.242851532209935, 47.234004390219269 ], [ 11.242663735742097, 47.233954503824648 ], [ 11.242402420936109, 47.233838822912368 ], [ 11.242045360538357, 47.233651358889901 ], [ 11.241838170965497, 47.233594004832433 ], [ 11.241833017335921, 47.233594000353392 ], [ 11.241476117186009, 47.233589796500738 ], [ 11.241271792818889, 47.233593700317392 ], [ 11.241214234424438, 47.233585533981824 ], [ 11.240758507589536, 47.233520649233 ], [ 11.240621880539569, 47.233450095782942 ], [ 11.240514820904291, 47.233206636485626 ], [ 11.240515844232572, 47.233093873473258 ], [ 11.240515261772689, 47.233088552232367 ], [ 11.240504830867039, 47.232991420733256 ], [ 11.240493136460797, 47.232946291489462 ], [ 11.240489234035838, 47.232934698689796 ], [ 11.240447664000751, 47.232809633025923 ], [ 11.240415981074351, 47.232718592281593 ], [ 11.240319730487476, 47.232556069503211 ], [ 11.240218989070511, 47.232490404375639 ], [ 11.240160503835828, 47.232452247338124 ], [ 11.240147362413975, 47.232447055681412 ], [ 11.240111193172691, 47.232432710553745 ], [ 11.240010626779886, 47.232392701131211 ], [ 11.239692079935258, 47.232304406460301 ], [ 11.23963522178728, 47.232288601346404 ], [ 11.239345489294045, 47.23230704569422 ], [ 11.239193269289501, 47.232316762659913 ], [ 11.239158333012179, 47.232314681144288 ], [ 11.238852329352385, 47.232296821747425 ], [ 11.238799687061908, 47.232288024348463 ], [ 11.238707525633478, 47.232272740665756 ], [ 11.238371303811061, 47.232210400467046 ], [ 11.238271405288879, 47.232156900321485 ], [ 11.238246284027065, 47.232120525154066 ], [ 11.238223996365226, 47.232082671862592 ], [ 11.238216922159243, 47.231997662986899 ], [ 11.238234195118419, 47.231915171503225 ], [ 11.238237732937993, 47.231849169516288 ], [ 11.238238238848721, 47.231839727811803 ], [ 11.238236531057595, 47.231819444310695 ], [ 11.238224447456762, 47.231670706718212 ], [ 11.238205753383458, 47.231588814769388 ], [ 11.238195742264043, 47.231544616254297 ], [ 11.238129124779357, 47.231491637213097 ], [ 11.238104630948969, 47.231482816434792 ], [ 11.238046656651193, 47.231461859460431 ], [ 11.237874377286305, 47.231417560504404 ], [ 11.237805307876304, 47.231399819949345 ], [ 11.237792987443711, 47.231390592666052 ], [ 11.237736264251557, 47.231348056231241 ], [ 11.237727791299186, 47.231341779927028 ], [ 11.237706510854094, 47.231305205155806 ], [ 11.237700942679455, 47.23129565186219 ], [ 11.23768349930676, 47.231265628263039 ], [ 11.237658663254047, 47.231215396723002 ], [ 11.237662855117279, 47.230889279260111 ], [ 11.237655907705618, 47.230814443725542 ], [ 11.237655632658768, 47.230811378348847 ], [ 11.237655150504017, 47.230806869014977 ], [ 11.237649853390581, 47.230750425739586 ], [ 11.237648361764174, 47.23070800385328 ], [ 11.237646644686251, 47.230657927015798 ], [ 11.23764513881896, 47.23061586490541 ], [ 11.237604401475817, 47.230443288294083 ], [ 11.237590376566201, 47.230403696459369 ], [ 11.237560631332489, 47.230320611223888 ], [ 11.237556672493163, 47.230307127069331 ], [ 11.23754105138203, 47.23025445451875 ], [ 11.23750746433819, 47.230191640831556 ], [ 11.237063615227097, 47.229707604465425 ], [ 11.236950374525659, 47.229584100443056 ], [ 11.236778116474806, 47.2294293583643 ], [ 11.236743537218556, 47.229398299557168 ], [ 11.236348111016888, 47.229043143765502 ], [ 11.236304476938304, 47.228983835363472 ], [ 11.236294964175846, 47.22894378623522 ], [ 11.236241242559801, 47.228705533332445 ], [ 11.23620132114667, 47.228529190677563 ], [ 11.236197394683733, 47.228511566619382 ], [ 11.236159068160372, 47.228391689272215 ], [ 11.236139624986912, 47.228368829393681 ], [ 11.235997606082801, 47.22820141057197 ], [ 11.235600874893798, 47.227796182559743 ], [ 11.235483488307883, 47.227684121904268 ], [ 11.235139867829382, 47.227355927071038 ], [ 11.235006313692296, 47.227118455093674 ], [ 11.234954227794663, 47.227025777069855 ], [ 11.234845238781007, 47.226831961415293 ], [ 11.234596722206554, 47.226681393288096 ], [ 11.234558409422339, 47.226634603377903 ], [ 11.234471445793744, 47.226528501958242 ], [ 11.234285812285128, 47.226371619425265 ], [ 11.234104583901368, 47.226250281450405 ], [ 11.233915346116046, 47.226227626364427 ], [ 11.233714362204733, 47.226278580673508 ], [ 11.233314834438577, 47.226379903107464 ], [ 11.232962334116692, 47.22635727372559 ], [ 11.232712718157547, 47.226324818843004 ], [ 11.23255175682397, 47.226324464600651 ], [ 11.232322382080284, 47.226315019108256 ], [ 11.232273768041244, 47.226520803928587 ], [ 11.232294074312563, 47.226734230982601 ], [ 11.232287037081344, 47.226738421819867 ], [ 11.232188476451487, 47.226798082879469 ], [ 11.232183480439867, 47.226800781147411 ], [ 11.232180102413288, 47.226802996165318 ], [ 11.231966811947952, 47.226927528733576 ], [ 11.23178113966642, 47.22699207424423 ], [ 11.231715930849594, 47.227014734342958 ], [ 11.231562677236374, 47.22716262278108 ], [ 11.231408337188986, 47.227253001785698 ], [ 11.231307710490869, 47.227295765219061 ], [ 11.231206604738688, 47.227417125247975 ], [ 11.230945191323414, 47.22773080667271 ], [ 11.230429872676854, 47.228014315981895 ], [ 11.229945478524487, 47.228160912390443 ], [ 11.22994514199274, 47.22816106820224 ], [ 11.229809012583829, 47.228221654677412 ], [ 11.229739296929063, 47.228256912951778 ], [ 11.229451811228241, 47.2284021070585 ], [ 11.22911874323975, 47.228570402197384 ], [ 11.229073759132678, 47.228585144033012 ], [ 11.22876329496675, 47.228686707848645 ], [ 11.228642665513181, 47.228663149756962 ], [ 11.228613111441307, 47.22864541255251 ], [ 11.228519935247094, 47.228589417300391 ], [ 11.228439273810999, 47.228541033717036 ], [ 11.228171230133086, 47.228380009976398 ], [ 11.228166858517417, 47.228380289332968 ], [ 11.228106034124064, 47.228384657337259 ], [ 11.227731079820417, 47.22848970858486 ], [ 11.227587274146815, 47.228487413901391 ], [ 11.227292623930246, 47.228433908682995 ], [ 11.227278941145599, 47.228439056638614 ], [ 11.227008193351423, 47.228541979104044 ], [ 11.226848806231088, 47.228602492681048 ], [ 11.226565851345208, 47.228709959214136 ], [ 11.225984106623546, 47.228930898377882 ], [ 11.225924408272052, 47.228966699491679 ], [ 11.225331503369219, 47.229321724025347 ], [ 11.22496044114766, 47.229471393221424 ], [ 11.224926095858423, 47.229471118423852 ], [ 11.224576972341854, 47.229468085025388 ], [ 11.224467003667502, 47.229545080687757 ], [ 11.224367309651166, 47.229765472033577 ], [ 11.224344775961718, 47.22979043821109 ], [ 11.224027795826547, 47.230141286518908 ], [ 11.223894637788813, 47.230203271239304 ], [ 11.223642143345957, 47.23024567681064 ], [ 11.223609552344765, 47.230251104699086 ], [ 11.223527071932924, 47.230264970864916 ], [ 11.22352013689825, 47.230269883151422 ], [ 11.223442623592138, 47.230324885673433 ], [ 11.223377089382513, 47.230480470840085 ], [ 11.223255224402418, 47.23076957886181 ], [ 11.222981543938356, 47.231167580566613 ], [ 11.22292563319877, 47.231211011098651 ], [ 11.222830361868152, 47.231217529356158 ], [ 11.222798291862066, 47.231219816315118 ], [ 11.222656172280988, 47.231191623870487 ], [ 11.221712731776284, 47.231004494204456 ], [ 11.221546989674227, 47.230935808600059 ], [ 11.221537496743837, 47.230935272814605 ], [ 11.221531169319986, 47.230934885642682 ], [ 11.221331186315, 47.230922902181547 ], [ 11.22115442390561, 47.230825748798793 ], [ 11.221053435969479, 47.230770232805988 ], [ 11.220827129165539, 47.230732468167581 ], [ 11.220535171106828, 47.230723910484457 ], [ 11.219799200508296, 47.230702445435149 ], [ 11.219740768546313, 47.230716304426885 ], [ 11.219668196096578, 47.230733501772868 ], [ 11.219180048554662, 47.230985214692879 ], [ 11.219021110405288, 47.231067148345367 ], [ 11.218907637905575, 47.231125711843092 ], [ 11.218835360143427, 47.231145434419325 ], [ 11.218622395405548, 47.231203683486143 ], [ 11.218457342230963, 47.231197203092457 ], [ 11.218449162558095, 47.231196871418653 ], [ 11.218042402259643, 47.231180868268581 ], [ 11.217928672006876, 47.231176418945033 ], [ 11.21748568267493, 47.231108076110289 ], [ 11.216956541815518, 47.230894206903493 ], [ 11.216640285467063, 47.230766284994267 ], [ 11.216306504430793, 47.23069330318792 ], [ 11.215845523813456, 47.230592576327517 ], [ 11.215652728542842, 47.230609069507331 ], [ 11.214712073414429, 47.230881345242949 ], [ 11.214263397045549, 47.231113608384369 ], [ 11.214161516426355, 47.23116635191608 ], [ 11.214118524768342, 47.231141070422282 ], [ 11.213808850759174, 47.231159079479866 ], [ 11.213278511318878, 47.23097217376003 ], [ 11.21265344762346, 47.230751820865933 ], [ 11.212360397052155, 47.230648531079588 ], [ 11.212350095298984, 47.230645099157677 ], [ 11.212283460442423, 47.23062288772428 ], [ 11.211731231378907, 47.230441688271576 ], [ 11.211182924123266, 47.23026163915948 ], [ 11.210594847589475, 47.230104609993006 ], [ 11.210297932748057, 47.230025365630354 ], [ 11.208346548384814, 47.229444106009268 ], [ 11.208328832721282, 47.229437745272435 ], [ 11.208321407483247, 47.229435086649374 ], [ 11.208237365791126, 47.229484466853762 ], [ 11.207389655697602, 47.22976156450904 ], [ 11.206766600689347, 47.229988748234213 ], [ 11.206579788416668, 47.230056913651083 ], [ 11.206147432561163, 47.23014210250588 ], [ 11.206080530534567, 47.230152916264316 ], [ 11.206028789838326, 47.230161312423149 ], [ 11.205739449122346, 47.230146914897112 ], [ 11.205011219670844, 47.23011064682693 ], [ 11.204868394551964, 47.23010357130282 ], [ 11.204808787175025, 47.230100568800211 ], [ 11.20416471894565, 47.229861001680732 ], [ 11.203957764613106, 47.229782699705048 ], [ 11.203371917652341, 47.229561046804292 ], [ 11.202769159528152, 47.229401812330202 ], [ 11.202367234766459, 47.229295652598893 ], [ 11.201992772067637, 47.2291966653518 ], [ 11.20195870927135, 47.22915984458681 ], [ 11.201798157368067, 47.228986004214427 ], [ 11.201046737494901, 47.228800939507856 ], [ 11.200785974928742, 47.228736657495212 ], [ 11.200152764536179, 47.22858917098484 ], [ 11.19981055722887, 47.227854133735391 ], [ 11.199771507818511, 47.22782306969102 ], [ 11.199068193894949, 47.227264806608773 ], [ 11.198952073656029, 47.227005292957898 ], [ 11.198891092172856, 47.226882457243732 ], [ 11.198746381803881, 47.226591444609532 ], [ 11.198559123755631, 47.226254630023526 ], [ 11.198417673650923, 47.2260466678607 ], [ 11.198151599596583, 47.225655900909572 ], [ 11.198117044869891, 47.225615019197718 ], [ 11.197994746159766, 47.225466282030517 ], [ 11.197855494037608, 47.225472495953369 ], [ 11.197329071483322, 47.225495762497317 ], [ 11.19729637635667, 47.225497220439181 ], [ 11.196932637501773, 47.225683391029698 ], [ 11.196896530810227, 47.225736631202288 ], [ 11.196687385323269, 47.225759086611774 ], [ 11.196300809168495, 47.225800630043004 ], [ 11.195497540116648, 47.225719868769673 ], [ 11.195451624411993, 47.225695335269798 ], [ 11.195340270584612, 47.225635641023501 ], [ 11.195180766395406, 47.225498804793787 ], [ 11.19514406652195, 47.225471833611337 ], [ 11.194953234566952, 47.225332069457259 ], [ 11.194864855328847, 47.225243371890464 ], [ 11.194845553487038, 47.225224017689492 ], [ 11.194805750749769, 47.22510706731078 ], [ 11.194790803634646, 47.225012635635778 ], [ 11.194671293931721, 47.224978260858229 ], [ 11.194580898820538, 47.224919858929653 ], [ 11.194525272277223, 47.224883891570805 ], [ 11.193463358627126, 47.2243607218482 ], [ 11.193320726823979, 47.224290447469926 ], [ 11.193140527472858, 47.224201645789897 ], [ 11.192812213262538, 47.223959295723034 ], [ 11.192660271608348, 47.223910178358764 ], [ 11.192455771036887, 47.223844052258521 ], [ 11.192299705120769, 47.223932843853319 ], [ 11.192125250034231, 47.224032001320147 ], [ 11.192087383755773, 47.224053523138487 ], [ 11.191965712954703, 47.224072661429581 ], [ 11.191757477371498, 47.224105386058632 ], [ 11.191240512210795, 47.224042121254236 ], [ 11.190826231137647, 47.224014267184657 ], [ 11.189445959938114, 47.223921361865095 ], [ 11.189220885756855, 47.223896788331963 ], [ 11.188998841106738, 47.223872451332085 ], [ 11.188495490269899, 47.223675493390722 ], [ 11.188481703256249, 47.223670103479925 ], [ 11.188456343335126, 47.223669896593933 ], [ 11.188401259347, 47.223669580752528 ], [ 11.187748833226285, 47.223665950022898 ], [ 11.186874087275154, 47.223661102080662 ], [ 11.185214512238625, 47.223688724091822 ], [ 11.183168900003619, 47.223546214432311 ], [ 11.183049661810427, 47.223537935665647 ], [ 11.18151258719484, 47.223425325319475 ], [ 11.180221386826995, 47.223290422734898 ], [ 11.180206519263269, 47.223288881896636 ], [ 11.18014309925463, 47.223282373921784 ], [ 11.179341957633657, 47.223199467574275 ], [ 11.178413718956586, 47.223103442830116 ], [ 11.177028617625231, 47.222961418870185 ], [ 11.175973776731292, 47.222853259162378 ], [ 11.175894133559028, 47.222846081880981 ], [ 11.175702725253929, 47.222828869171956 ], [ 11.174540716840493, 47.222675823107949 ], [ 11.174216545982459, 47.222658075052991 ], [ 11.174055184925582, 47.222649259398686 ], [ 11.173776360479263, 47.222634078835725 ], [ 11.173521986520026, 47.222728814747349 ], [ 11.173143067419952, 47.222887079701458 ], [ 11.172174991113094, 47.223291434200632 ], [ 11.17189226762658, 47.223361956317568 ], [ 11.171068389395801, 47.223567408245934 ], [ 11.170916080805394, 47.223605385873448 ], [ 11.170670596890329, 47.223666619782762 ], [ 11.17049990941703, 47.223759875593046 ], [ 11.170259082823561, 47.223891406092783 ], [ 11.169990949831837, 47.224037990187142 ], [ 11.169976183480527, 47.224014577085967 ], [ 11.1694673376178, 47.223203819605708 ], [ 11.169186302476636, 47.223035835967323 ], [ 11.168605773120238, 47.222786287489605 ], [ 11.167854638467306, 47.22246337754811 ], [ 11.166264212279506, 47.222093283732015 ], [ 11.165288711379306, 47.221826310841031 ], [ 11.164710025755056, 47.221667959019378 ], [ 11.164637249795417, 47.221648032692173 ], [ 11.164030725432342, 47.221653239713802 ], [ 11.16371827677151, 47.221655937289277 ], [ 11.163699247489893, 47.221656025335854 ], [ 11.163613478172003, 47.221656553907216 ], [ 11.163171946596925, 47.221659224454619 ], [ 11.162769541739383, 47.221767771950532 ], [ 11.162606280556265, 47.221811830888036 ], [ 11.16142192028142, 47.222063188616822 ], [ 11.161391501343767, 47.222073590782308 ], [ 11.160704904810245, 47.222307326035462 ], [ 11.160542323608441, 47.22228001548897 ], [ 11.16013750498348, 47.222212174292096 ], [ 11.159708745564021, 47.222125692917608 ], [ 11.159488077407127, 47.222081161595582 ], [ 11.158519072921855, 47.22216494114096 ], [ 11.157793509430174, 47.2222277031209 ], [ 11.156437106175638, 47.221990292095811 ], [ 11.155372286045809, 47.222334691622798 ], [ 11.150984849506825, 47.223753486676301 ], [ 11.151163690708422, 47.224123528857461 ], [ 11.151427144418985, 47.224668733172763 ], [ 11.151486685512626, 47.224791748888869 ], [ 11.151624616430723, 47.225077386128085 ], [ 11.151626959802009, 47.22519363683849 ], [ 11.151667070169156, 47.227169723889958 ], [ 11.151690166434957, 47.227224893134661 ], [ 11.152031089780403, 47.228042244149144 ], [ 11.152496606355552, 47.229158476477664 ], [ 11.152795827770188, 47.229875653766179 ], [ 11.153021829870593, 47.230070439829895 ], [ 11.153390120766185, 47.230387931109156 ], [ 11.153812908934837, 47.23075236864387 ], [ 11.154023003991464, 47.231186010977467 ], [ 11.154077588321188, 47.2315035366301 ], [ 11.154659522896788, 47.231565599848572 ], [ 11.154665178576341, 47.231566247943775 ], [ 11.154678466894463, 47.231567671904735 ], [ 11.15470924760243, 47.231664212754161 ], [ 11.154741800445125, 47.231788331155848 ], [ 11.155179483747778, 47.231984004883124 ], [ 11.155523872790367, 47.232137930347847 ], [ 11.157304598984069, 47.232982832732525 ], [ 11.158667145467868, 47.233611537059438 ], [ 11.159209657173465, 47.233861850122992 ], [ 11.161489225539418, 47.234913497136226 ], [ 11.161583515235403, 47.23495705777114 ], [ 11.161615123425156, 47.234972601493844 ], [ 11.161688961514853, 47.235008931783021 ], [ 11.162696011338795, 47.235504621235521 ], [ 11.163841153028701, 47.236220306224723 ], [ 11.164187911258667, 47.236436987752676 ], [ 11.164995493428979, 47.237125088635878 ], [ 11.165266611621561, 47.23735599099173 ], [ 11.165890304912269, 47.23770394620464 ], [ 11.16641868006452, 47.238052787729664 ], [ 11.166465905217288, 47.238084018677625 ], [ 11.166527284617201, 47.23810525710676 ], [ 11.167216011584195, 47.238343635513154 ], [ 11.167251978281557, 47.238356109946054 ], [ 11.168254068534941, 47.2387529110337 ], [ 11.16915693109225, 47.239152591339582 ], [ 11.169326871297397, 47.239224313799809 ], [ 11.169377024055525, 47.23924542770655 ], [ 11.169858344627821, 47.239527381492955 ], [ 11.171686749346602, 47.240918423712955 ], [ 11.172172760139427, 47.24113474763562 ], [ 11.173021479086538, 47.241512307621626 ], [ 11.173910575720679, 47.241907997504676 ], [ 11.174255472898894, 47.242049092014874 ], [ 11.174493640235026, 47.24214649066549 ], [ 11.175321245527785, 47.242485108500013 ], [ 11.17597790621495, 47.242753699463535 ], [ 11.176728129624491, 47.242912621041107 ], [ 11.177243656772188, 47.243021826956117 ], [ 11.177919904271645, 47.243111744075698 ], [ 11.178245653711418, 47.243116547372672 ], [ 11.178762487820313, 47.243112626838197 ], [ 11.179447503110016, 47.243107378485782 ], [ 11.179578227135359, 47.24311056633708 ], [ 11.179758200164814, 47.243115043692939 ], [ 11.180459473790236, 47.243132508943681 ], [ 11.181276683454637, 47.243152786816601 ], [ 11.182288923676817, 47.243177816089165 ], [ 11.183234874439712, 47.243201317127102 ], [ 11.183343787856993, 47.243201299288437 ], [ 11.18342930216591, 47.243201380499507 ], [ 11.183617499943479, 47.24319862582486 ], [ 11.183720260664996, 47.243197141533308 ], [ 11.184120299236548, 47.243159492266017 ], [ 11.184807864410983, 47.243094672426402 ], [ 11.185015874700365, 47.243062944934337 ], [ 11.185117487810009, 47.243047396053733 ], [ 11.188103570647318, 47.242597898712312 ], [ 11.188245011321257, 47.242591016895773 ], [ 11.188326107086311, 47.242589211161608 ], [ 11.188415004089334, 47.242593852799565 ], [ 11.188617334595991, 47.242604317193589 ], [ 11.188628798616774, 47.242601922375293 ], [ 11.18870572667619, 47.242585546262127 ], [ 11.189673794517303, 47.242379341856804 ], [ 11.189849313849905, 47.242297939231989 ], [ 11.190787393444166, 47.241862624471757 ], [ 11.19119836881821, 47.24167195751582 ], [ 11.191497519335352, 47.241602234763711 ], [ 11.191669645425186, 47.241562080724862 ], [ 11.191791851156347, 47.241517659009062 ], [ 11.191885883961286, 47.241503132046496 ], [ 11.192273324362779, 47.241443165413258 ], [ 11.192497933171735, 47.241327575826979 ], [ 11.19251318461186, 47.241319761033154 ], [ 11.192606337532551, 47.241297566054286 ], [ 11.192876984609665, 47.241233155635193 ], [ 11.192979812224092, 47.2412462460914 ], [ 11.193256108192472, 47.241352601292739 ], [ 11.195205466496825, 47.241801309437157 ], [ 11.195424977082917, 47.241844487625087 ], [ 11.195528700818176, 47.241864883412234 ], [ 11.195900548336551, 47.241758976871715 ], [ 11.196294058710627, 47.241646814120621 ], [ 11.196447690042385, 47.241603066126679 ], [ 11.196759770020783, 47.24142897942621 ], [ 11.196940418013435, 47.241328219879954 ], [ 11.197148378931791, 47.241212219586579 ], [ 11.198006580346311, 47.240733496297068 ], [ 11.198244792608982, 47.240696369563835 ], [ 11.198297594133686, 47.240688176601431 ], [ 11.199266441147994, 47.240722955206209 ], [ 11.200418470922893, 47.240764390712151 ], [ 11.200458858715916, 47.24076577583368 ], [ 11.201092763127749, 47.240788155999411 ], [ 11.20141910666206, 47.240699113452536 ], [ 11.201878020937459, 47.240577082643554 ], [ 11.202116120481818, 47.240555787642634 ], [ 11.20232729397782, 47.240536869552052 ], [ 11.203041693556722, 47.240368659962911 ], [ 11.203943961011122, 47.240248147731712 ], [ 11.20435442315639, 47.240259228410302 ], [ 11.204845421724045, 47.240272440235358 ], [ 11.20517882563378, 47.240326365427066 ], [ 11.205238048422439, 47.240335931107843 ], [ 11.205325371093428, 47.240350071356616 ], [ 11.205495423113939, 47.240377545898696 ], [ 11.205643368468573, 47.240366443482067 ], [ 11.2056938782163, 47.240362614895368 ], [ 11.206025832318618, 47.240337571399685 ], [ 11.206415598475285, 47.240337457490881 ], [ 11.206456968421039, 47.24033741863564 ], [ 11.207114379147948, 47.240337160942936 ], [ 11.207168068547766, 47.240356163593653 ], [ 11.20740458568903, 47.240439960256509 ], [ 11.208834227861281, 47.241187573979097 ], [ 11.210017422515808, 47.242224736362999 ], [ 11.210490990215733, 47.242639945042598 ], [ 11.21054525627207, 47.242687490018241 ], [ 11.211460813945042, 47.244068625930673 ], [ 11.211729336505394, 47.24457776657561 ], [ 11.21219663802693, 47.244912741850918 ], [ 11.212252437866949, 47.245080388044613 ], [ 11.212262820613178, 47.24511154456362 ], [ 11.212276924215319, 47.2451488009333 ], [ 11.212349371941549, 47.245339709139024 ], [ 11.212457637397661, 47.245662607921332 ], [ 11.212773102887935, 47.246310243795833 ], [ 11.21291557506324, 47.246699935210977 ], [ 11.213048413715573, 47.247062894389416 ], [ 11.213169847239948, 47.247344362289049 ], [ 11.213280767200358, 47.247601241939925 ], [ 11.213342740860929, 47.247753520405631 ], [ 11.213379602147453, 47.247862847488015 ], [ 11.213541109379509, 47.248533183075715 ], [ 11.213571596267252, 47.248659763604515 ], [ 11.21358225050262, 47.248703976476087 ], [ 11.213617160058153, 47.248746569695676 ], [ 11.213710812859626, 47.248860462004686 ], [ 11.213742945126022, 47.248903093601456 ], [ 11.213853473878395, 47.249133592316248 ], [ 11.213879821953338, 47.249188627835416 ], [ 11.213899685951016, 47.249197637759153 ], [ 11.213974084140393, 47.249231243215924 ], [ 11.21405073738984, 47.249307555291978 ], [ 11.21406019499808, 47.249335454053913 ], [ 11.214106399146333, 47.249383207429126 ], [ 11.214118964594757, 47.249396222227936 ], [ 11.214152434099693, 47.249415385895105 ], [ 11.214193263517924, 47.249438916709352 ], [ 11.214242950318525, 47.249452530866847 ], [ 11.214282294375385, 47.249486745264335 ], [ 11.214311063938254, 47.249511042187834 ], [ 11.214353520620779, 47.249526952302915 ], [ 11.214502251302527, 47.249582640033729 ], [ 11.214707187415216, 47.249786267568794 ], [ 11.214759598546248, 47.249840796646986 ], [ 11.214883045344379, 47.250085575631736 ], [ 11.214967103502222, 47.250280747782909 ], [ 11.215077061933165, 47.250449757672783 ], [ 11.215089081340846, 47.250453311162069 ], [ 11.215202757223302, 47.250486564751711 ], [ 11.215280890816079, 47.250483064488925 ], [ 11.215299298711894, 47.250482236031807 ], [ 11.215382198482633, 47.250478554135476 ], [ 11.215460199957585, 47.250475051298203 ], [ 11.215547281742404, 47.250498989972399 ], [ 11.216273875413574, 47.250698883246649 ], [ 11.216419020991136, 47.250728668987961 ], [ 11.216644543533921, 47.250774887165058 ], [ 11.216703949075754, 47.250803352119839 ], [ 11.216720162279767, 47.250811123683356 ], [ 11.216724695644483, 47.250813458020829 ], [ 11.216754230371645, 47.250828587463616 ], [ 11.21689126668905, 47.250922309296563 ], [ 11.217088064247314, 47.251121550847195 ], [ 11.217146087811161, 47.25116475156775 ], [ 11.21723364092615, 47.251229832221114 ], [ 11.217324003996493, 47.251247799679106 ], [ 11.217384249543583, 47.251394102897812 ], [ 11.217395775376096, 47.251472805314457 ], [ 11.217401463474173, 47.251505764426327 ], [ 11.217422177339875, 47.251625771763614 ], [ 11.217513172099867, 47.251730430371062 ], [ 11.217425968617322, 47.251768957917989 ], [ 11.217420451897052, 47.251771375905676 ], [ 11.217421190882316, 47.251961130626903 ], [ 11.217421633450016, 47.252032696759002 ], [ 11.217426768880516, 47.252039812757708 ], [ 11.217510877863393, 47.252154694819659 ], [ 11.217526419926212, 47.252175955308736 ], [ 11.217559392042881, 47.252220851543491 ], [ 11.21753812793683, 47.252398857036766 ], [ 11.217533464902129, 47.252399760689592 ], [ 11.217529469556768, 47.252400496701902 ], [ 11.217426197073307, 47.252420994368194 ], [ 11.21740620953773, 47.25242494423928 ], [ 11.217311202653407, 47.252443704854336 ], [ 11.21730446048873, 47.252648622543944 ], [ 11.217309514795682, 47.252664377999324 ], [ 11.217347969875947, 47.252783724191453 ], [ 11.21727696652858, 47.252810490707226 ], [ 11.217265825940263, 47.252814694615118 ], [ 11.217310765384907, 47.252861162975648 ], [ 11.217333743751235, 47.252884901634992 ], [ 11.217360409578133, 47.252981706743405 ], [ 11.217549469232257, 47.253060640514718 ], [ 11.2176674988697, 47.253233127614401 ], [ 11.217678851667282, 47.253259981033658 ], [ 11.217728344374622, 47.253377731497316 ], [ 11.218100850631348, 47.253490938459144 ], [ 11.218350186335933, 47.25353705433492 ], [ 11.218401313197466, 47.253551143323961 ], [ 11.218667393842653, 47.253624841831517 ], [ 11.218713850559153, 47.253640014265869 ], [ 11.218722722054853, 47.25364296896268 ], [ 11.218903470208467, 47.253645507999629 ], [ 11.219084015283586, 47.253646512819259 ], [ 11.219206010327762, 47.253647152761467 ], [ 11.219468191285692, 47.253689453684991 ], [ 11.219622006262506, 47.253714265182019 ], [ 11.219649284184657, 47.25372638169889 ], [ 11.219692933917115, 47.253745642191625 ], [ 11.219881294252453, 47.253819068424164 ], [ 11.219968994775911, 47.253797920089724 ], [ 11.220072180811405, 47.253773008009098 ], [ 11.220263077579748, 47.253756470705383 ], [ 11.220301806001636, 47.253753317388998 ], [ 11.220315334348074, 47.253752217733137 ], [ 11.220349953215576, 47.253749348347256 ], [ 11.220669695608292, 47.253886322505416 ], [ 11.220803702739703, 47.253943709290247 ], [ 11.220820608336121, 47.253944112249854 ], [ 11.220832758223539, 47.253944427172073 ], [ 11.220879219770726, 47.253942946976174 ], [ 11.220946989409732, 47.253940871076928 ], [ 11.221189468871049, 47.254042929876356 ], [ 11.22130330843107, 47.254082300861349 ], [ 11.221329346210496, 47.254102314878814 ], [ 11.221360616180993, 47.254146908393714 ], [ 11.221579697291046, 47.254215859737002 ], [ 11.221694216148626, 47.254221669228222 ], [ 11.221799451187396, 47.254214975483066 ], [ 11.221899916105308, 47.254208553424021 ], [ 11.221912198163631, 47.254208870675519 ], [ 11.22192051710973, 47.254209114601032 ], [ 11.221944156500792, 47.25420973198937 ], [ 11.22224234218452, 47.254254312759969 ], [ 11.222395278308284, 47.254261462286095 ], [ 11.222548874992997, 47.254268623824437 ], [ 11.222562231844313, 47.254268510836354 ], [ 11.222591327006107, 47.254268238892919 ], [ 11.222600812690445, 47.254272374769322 ], [ 11.222619662725574, 47.254280374246179 ], [ 11.22291316599148, 47.254356190043623 ], [ 11.222995730765604, 47.254377609047147 ], [ 11.223009169515713, 47.254378757657584 ], [ 11.223321124174264, 47.25440630831757 ], [ 11.223582440536406, 47.254470456040082 ], [ 11.223684295999277, 47.254495471515618 ], [ 11.223851180510193, 47.254494326000433 ], [ 11.223946625144441, 47.254491139696235 ], [ 11.224007915070146, 47.254489122217464 ], [ 11.224140823106115, 47.254511200853777 ], [ 11.224198083631222, 47.254520720055964 ], [ 11.224222511654586, 47.254524771914411 ], [ 11.224244748265196, 47.254524102761323 ], [ 11.224392870973903, 47.25451936935832 ], [ 11.224534144562616, 47.254563744519153 ], [ 11.224621882815679, 47.254591378587925 ], [ 11.224851610280416, 47.254635497556912 ], [ 11.224865123883498, 47.254638087485162 ], [ 11.22515838867629, 47.254673568656997 ], [ 11.225240561106386, 47.254724771972626 ], [ 11.225321520671374, 47.254769922172464 ], [ 11.225354369363208, 47.254788260851385 ], [ 11.225514336717964, 47.254801476677663 ], [ 11.225789206262407, 47.254824195104362 ], [ 11.225814441038473, 47.254831231835368 ], [ 11.225978142357032, 47.254876829437009 ], [ 11.22604744175344, 47.254896111031762 ], [ 11.226151647988837, 47.254925218110429 ], [ 11.226357393554927, 47.254957459955023 ], [ 11.226609257387151, 47.255000183828194 ], [ 11.227283039674209, 47.255114511032453 ], [ 11.227581935598703, 47.255151439959889 ], [ 11.227916585228506, 47.255200188909662 ], [ 11.22802108548534, 47.255268453854178 ], [ 11.228044538282692, 47.255283738092388 ], [ 11.228151904266076, 47.255296609861155 ], [ 11.228176375901818, 47.255299581550055 ], [ 11.228195287016085, 47.255279498213838 ], [ 11.228197775893221, 47.255276753826955 ], [ 11.22819997908131, 47.255274544227746 ], [ 11.228228654039297, 47.255268232443015 ], [ 11.228237987407089, 47.255266244376521 ], [ 11.228284813696341, 47.255268908317944 ], [ 11.228318975642855, 47.255270888594922 ], [ 11.228368733098232, 47.255199888708198 ], [ 11.228404760224663, 47.255148347653602 ], [ 11.228419840425424, 47.255124863267611 ], [ 11.228430569358567, 47.255127671435012 ], [ 11.228452812708809, 47.255133482273514 ], [ 11.228509460063448, 47.255148478560976 ], [ 11.228517179188371, 47.255150511131312 ], [ 11.228594306356355, 47.255169125441157 ], [ 11.228727477773944, 47.255201284598826 ], [ 11.228796353939309, 47.25521794641439 ], [ 11.229013364892234, 47.255232929307347 ], [ 11.229047905273745, 47.255235366392029 ], [ 11.229087987251155, 47.25523475531039 ], [ 11.229493603378469, 47.255211090267871 ], [ 11.229594932955916, 47.25520953787408 ], [ 11.22968041089459, 47.255191041424105 ], [ 11.229781891769768, 47.255169059485567 ], [ 11.229803254578451, 47.255157121945352 ], [ 11.22989369378978, 47.255106943415122 ], [ 11.229907611884258, 47.255099369115705 ], [ 11.229984082762929, 47.255058024023846 ], [ 11.230017017817365, 47.255037658813769 ], [ 11.230041496799309, 47.255037119866195 ], [ 11.230191287744098, 47.255033669800497 ], [ 11.230305749108373, 47.25503100864389 ], [ 11.230312761463052, 47.255030867838585 ], [ 11.230344695404366, 47.255032356405508 ], [ 11.230473091718656, 47.255038322755105 ], [ 11.230635796356623, 47.255045911203332 ], [ 11.230907763494658, 47.255058572704037 ], [ 11.230970117208953, 47.255069712466515 ], [ 11.230998998300302, 47.255074834999654 ], [ 11.231068310797754, 47.255087183015554 ], [ 11.231158715518387, 47.25514762455996 ], [ 11.231202634418532, 47.255176876562501 ], [ 11.231236042113087, 47.255290993917669 ], [ 11.231294907520951, 47.2553100800883 ], [ 11.231440441330664, 47.255357225305623 ], [ 11.231556214136823, 47.255341535660357 ], [ 11.231946581223363, 47.255292378408548 ], [ 11.232042244827326, 47.255280368419477 ], [ 11.232148937562783, 47.255266941246425 ], [ 11.232215901668525, 47.255258543138112 ], [ 11.232227955399729, 47.255264615676467 ], [ 11.232296400371057, 47.255298819266358 ], [ 11.2323195011598, 47.255303024957321 ], [ 11.232590166276719, 47.255351842250626 ], [ 11.23275091526841, 47.255385404394062 ], [ 11.232781074919055, 47.255391630116904 ], [ 11.232815358437227, 47.255400542009184 ], [ 11.232861160265141, 47.25541236617471 ], [ 11.23289355502444, 47.255422233383541 ], [ 11.232971673110846, 47.255445903466253 ], [ 11.233044564107107, 47.255468037144759 ], [ 11.233072910026962, 47.255476659664396 ], [ 11.233216603524319, 47.255520258341917 ], [ 11.233270160609575, 47.255536545506885 ], [ 11.233345012047193, 47.25555925512095 ], [ 11.233379888468834, 47.255569887929155 ], [ 11.233526745691147, 47.255540456762674 ], [ 11.233551182004339, 47.255534335688886 ], [ 11.23372182543639, 47.255491840509237 ], [ 11.233789789240255, 47.255474908973987 ], [ 11.233960710819142, 47.255435388871973 ], [ 11.233981651016627, 47.255384108674789 ], [ 11.234001998496359, 47.255334437740487 ], [ 11.234008757375273, 47.255334022016449 ], [ 11.23404996047422, 47.255331809645824 ], [ 11.234203915070712, 47.25532339036652 ], [ 11.234331633902714, 47.255316468547065 ], [ 11.234427650908543, 47.25532552526878 ], [ 11.23444609237473, 47.255327214578891 ], [ 11.234474541866101, 47.255329898031881 ], [ 11.234507543811739, 47.255337795738129 ], [ 11.234592806912415, 47.255357995728275 ], [ 11.234612462259692, 47.255355746921168 ], [ 11.234724417372513, 47.255342954181657 ], [ 11.2350553801536, 47.255304845208059 ], [ 11.235387606713591, 47.255368199082788 ], [ 11.235491664302264, 47.255367861722881 ], [ 11.235570732215898, 47.255367604974509 ], [ 11.23562031524145, 47.255367436271378 ], [ 11.235676510763295, 47.25536720907089 ], [ 11.235755567975874, 47.255367222025896 ], [ 11.235842690864985, 47.255367203149277 ], [ 11.235931494840816, 47.255354793810525 ], [ 11.235998629790254, 47.255345406528747 ], [ 11.236074588718418, 47.255293516934884 ], [ 11.236230865473297, 47.255186487355985 ], [ 11.236351493844086, 47.255134968375025 ], [ 11.23641672074846, 47.25510700386814 ], [ 11.236621592128232, 47.255151452287471 ], [ 11.236664337686813, 47.255153677774018 ], [ 11.236912224170002, 47.25516687261527 ], [ 11.236988742767721, 47.255170888506875 ], [ 11.236996982147645, 47.255153128002355 ], [ 11.237039635469305, 47.255060931870275 ], [ 11.237117271365138, 47.255063438043443 ], [ 11.237179325818881, 47.255065477950886 ], [ 11.237293942369201, 47.255088915343677 ], [ 11.237470717918345, 47.2551251053955 ], [ 11.237523568531467, 47.255135887005963 ], [ 11.237535372621066, 47.255138264006824 ], [ 11.237630703838049, 47.255141274811969 ], [ 11.237868117868567, 47.255148514664938 ], [ 11.237958535942202, 47.255148734703255 ], [ 11.238006651329622, 47.255148898057371 ], [ 11.238139683818632, 47.255161331542396 ], [ 11.238450664064715, 47.255173701166278 ], [ 11.23855269367305, 47.25517782426008 ], [ 11.23855675595231, 47.255168717879265 ], [ 11.23858700508905, 47.25509924589754 ], [ 11.238627147398274, 47.25509710241937 ], [ 11.238660670122085, 47.255095197463952 ], [ 11.238700944531983, 47.255093056384588 ], [ 11.23875420813274, 47.255090073582551 ], [ 11.238955485022236, 47.255091787412347 ], [ 11.23900980225587, 47.255092244179771 ], [ 11.239121442047555, 47.255084031842038 ], [ 11.239131649871542, 47.255083319069279 ], [ 11.239188934234477, 47.255052236949886 ], [ 11.239301474876543, 47.254991205535141 ], [ 11.239333085613824, 47.254974143745599 ], [ 11.239551018176153, 47.254975892116164 ], [ 11.239589343292828, 47.254976235220987 ], [ 11.239595687963437, 47.254976261614658 ], [ 11.239726526773444, 47.254977311840193 ], [ 11.239752034003645, 47.254977509749708 ], [ 11.23976366293391, 47.254977633074539 ], [ 11.239985192124538, 47.254988717547086 ], [ 11.240090746087809, 47.254997314370279 ], [ 11.240099575872765, 47.254998016382949 ], [ 11.240148083463295, 47.254994945698165 ], [ 11.240281816691882, 47.254986327378106 ], [ 11.240342060873393, 47.254960609522833 ], [ 11.240399484501644, 47.254936010029141 ], [ 11.24040930263391, 47.254931779636486 ], [ 11.240469411026639, 47.254906149235048 ], [ 11.240578996078016, 47.25488970696221 ], [ 11.240650981505755, 47.254877975668151 ], [ 11.240757160142918, 47.254860750688024 ], [ 11.241205680857279, 47.254835040590287 ], [ 11.24138855341257, 47.254874216608108 ], [ 11.241415414686875, 47.254880289564923 ], [ 11.241517229063215, 47.254903217989771 ], [ 11.241605157606879, 47.254922921507344 ], [ 11.2416772258017, 47.254939183942383 ], [ 11.241728591908814, 47.254950746467614 ], [ 11.241760826954646, 47.254957997941347 ], [ 11.241811012680056, 47.254955947409279 ], [ 11.242009777500801, 47.254947618802831 ], [ 11.242198008060521, 47.254888061627085 ], [ 11.242273115216896, 47.25486423528092 ], [ 11.24255370798828, 47.25484264354558 ], [ 11.242774249068304, 47.254918871125504 ], [ 11.242794466101332, 47.254925812141074 ], [ 11.243270481171166, 47.254970444676914 ], [ 11.24332579894171, 47.254975688199906 ], [ 11.243474378090255, 47.255026294011884 ], [ 11.243479318702738, 47.255021704012229 ], [ 11.243482060328651, 47.255019233962621 ], [ 11.24348796477253, 47.255013671512323 ] ] ] } },
{ "type": "Feature", "properties": { "name": "Oberperfuss", "feature_type": "circle", "metric_roundness": 27.25, "metric_rectangularity": 56.41, "metric_mobile_fit": -58.14, "metric_aspect_ratio": 2.144, "metric_area_km2": 33.11 }, "geometry": { "type": "Polygon", "coordinates": [ [ [ 11.260416872696204, 47.234564560988055 ], [ 11.26034029920125, 47.232578980082735 ], [ 11.260110788599018, 47.230598767426443 ], [ 11.25972896996211, 47.228629351557466 ], [ 11.259195889828876, 47.226676132018675 ], [ 11.258513009334903, 47.224744464541224 ], [ 11.257682200208164, 47.222839646341953 ], [ 11.25670573963872, 47.220966901575039 ], [ 11.25558630403712, 47.21913136697809 ], [ 11.254326961698542, 47.217338077752487 ], [ 11.252931164392797, 47.215591953717009 ], [ 11.251402737903277, 47.213897785773248 ], [ 11.249745871540753, 47.212260222720381 ], [ 11.247965106660757, 47.210683758456184 ], [ 11.246065324216048, 47.209172719599806 ], [ 11.244051731378249, 47.207731253571055 ], [ 11.241929847265368, 47.206363317159365 ], [ 11.23970548781427, 47.205072665614658 ], [ 11.237384749839595, 47.203862842290569 ], [ 11.23497399432282, 47.202737168869128 ], [ 11.232479828977246, 47.201698736194508 ], [ 11.22990909013672, 47.200750395741458 ], [ 11.22726882401771, 47.199894751742661 ], [ 11.224566267406129, 47.199134153996965 ], [ 11.221808827821796, 47.198470691379072 ], [ 11.219004063214944, 47.197906186068877 ], [ 11.216159661250405, 47.197442188516632 ], [ 11.213283418236252, 47.197079973158466 ], [ 11.210383217754657, 47.196820534894243 ], [ 11.207467009053554, 47.19666458633759 ], [ 11.204542785258289, 47.196612555846166 ], [ 11.201618561463025, 47.19666458633759 ], [ 11.19870235276192, 47.196820534894243 ], [ 11.195802152280327, 47.197079973158466 ], [ 11.192925909266172, 47.197442188516632 ], [ 11.190081507301635, 47.197906186068877 ], [ 11.187276742694781, 47.198470691379072 ], [ 11.18451930311045, 47.199134153996965 ], [ 11.181816746498869, 47.199894751742661 ], [ 11.179176480379859, 47.200750395741458 ], [ 11.176605741539332, 47.201698736194508 ], [ 11.174111576193759, 47.202737168869128 ], [ 11.171700820676984, 47.203862842290569 ], [ 11.169380082702308, 47.205072665614658 ], [ 11.167155723251209, 47.206363317159365 ], [ 11.16503383913833, 47.207731253571055 ], [ 11.163020246300531, 47.209172719599806 ], [ 11.16112046385582, 47.210683758456184 ], [ 11.159339698975824, 47.212260222720381 ], [ 11.1576828326133, 47.213897785773248 ], [ 11.156154406123783, 47.215591953717009 ], [ 11.154758608818037, 47.217338077752487 ], [ 11.153499266479455, 47.21913136697809 ], [ 11.152379830877859, 47.220966901575039 ], [ 11.151403370308415, 47.222839646341953 ], [ 11.150572561181674, 47.224744464541224 ], [ 11.149889680687702, 47.226676132018675 ], [ 11.149356600554469, 47.228629351557466 ], [ 11.148974781917561, 47.230598767426443 ], [ 11.148745271315329, 47.232578980082735 ], [ 11.148668697820373, 47.234564560988055 ], [ 11.148745271315329, 47.23655006749798 ], [ 11.148974781917561, 47.238530057783159 ], [ 11.149356600554469, 47.240499105741669 ], [ 11.149889680687702, 47.242451815861529 ], [ 11.150572561181674, 47.244382837992887 ], [ 11.151403370308415, 47.246286881989469 ], [ 11.152379830877859, 47.248158732179427 ], [ 11.153499266479455, 47.249993261626315 ], [ 11.154758608818037, 47.25178544614139 ], [ 11.156154406123783, 47.253530378009309 ], [ 11.1576828326133, 47.255223279390137 ], [ 11.159339698975824, 47.256859515361427 ], [ 11.16112046385582, 47.258434606565189 ], [ 11.163020246300531, 47.259944241425799 ], [ 11.16503383913833, 47.261384287905933 ], [ 11.167155723251209, 47.262750804769027 ], [ 11.169380082702308, 47.264040052318023 ], [ 11.171700820676984, 47.265248502581784 ], [ 11.174111576193759, 47.266372848921783 ], [ 11.176605741539332, 47.26741001503364 ], [ 11.179176480379859, 47.268357163319308 ], [ 11.181816746498869, 47.269211702607784 ], [ 11.18451930311045, 47.269971295203618 ], [ 11.187276742694781, 47.270633863244726 ], [ 11.190081507301635, 47.271197594352415 ], [ 11.192925909266172, 47.271660946558733 ], [ 11.195802152280327, 47.272022652498102 ], [ 11.19870235276192, 47.272281722851957 ], [ 11.201618561463025, 47.272437449037568 ], [ 11.204542785258289, 47.272489405133598 ], [ 11.207467009053554, 47.272437449037568 ], [ 11.210383217754657, 47.272281722851957 ], [ 11.213283418236252, 47.272022652498102 ], [ 11.216159661250405, 47.271660946558733 ], [ 11.219004063214944, 47.271197594352415 ], [ 11.221808827821796, 47.270633863244726 ], [ 11.224566267406129, 47.269971295203618 ], [ 11.22726882401771, 47.269211702607784 ], [ 11.22990909013672, 47.268357163319308 ], [ 11.232479828977246, 47.26741001503364 ], [ 11.23497399432282, 47.266372848921783 ], [ 11.237384749839595, 47.265248502581784 ], [ 11.23970548781427, 47.264040052318023 ], [ 11.241929847265368, 47.262750804769027 ], [ 11.244051731378249, 47.261384287905933 ], [ 11.246065324216048, 47.259944241425799 ], [ 11.247965106660757, 47.258434606565189 ], [ 11.249745871540753, 47.256859515361427 ], [ 11.251402737903277, 47.255223279390137 ], [ 11.252931164392797, 47.253530378009309 ], [ 11.254326961698542, 47.25178544614139 ], [ 11.25558630403712, 47.249993261626315 ], [ 11.25670573963872, 47.248158732179427 ], [ 11.257682200208164, 47.246286881989469 ], [ 11.258513009334903, 47.244382837992887 ], [ 11.259195889828876, 47.242451815861529 ], [ 11.25972896996211, 47.240499105741669 ], [ 11.260110788599018, 47.238530057783159 ], [ 11.26034029920125, 47.23655006749798 ], [ 11.260416872696204, 47.234564560988055 ] ] ] } },
{ "type": "Feature", "properties": { "name": "Oberperfuss", "feature_type": "mrr", "metric_roundness": 27.25, "metric_rectangularity": 56.41, "metric_mobile_fit": -58.14, "metric_aspect_ratio": 2.144, "metric_area_km2": 33.11 }, "geometry": { "type": "Polygon", "coordinates": [ [ [ 11.26059263797317, 47.227991008285557 ], [ 11.151411904869317, 47.220773731448297 ], [ 11.147229126456025, 47.249951499261492 ], [ 11.256409859559879, 47.257164802989685 ], [ 11.26059263797317, 47.227991008285557 ] ] ] } }
]
}
