{
"type": "FeatureCollection",
"name": "blancs_coteaux",
"crs": { "type": "name", "properties": { "name": "urn:ogc:def:crs:OGC:1.3:CRS84" } },
"features": [
{ "type": "Feature", "properties": { "name": "Blancs-Coteaux", "metric_roundness": 32.9, "metric_rectangularity": 39.74, "metric_mobile_fit": 17.71, "metric_aspect_ratio": 1.385, "metric_area_km2": 152.72 }, "geometry": { "type": "Polygon", "coordinates": [ [ [ 3.9056155, 48.927131499999987 ], [ 3.9048655, 48.924885 ], [ 3.897196, 48.9242755 ], [ 3.890447, 48.922116 ], [ 3.8699075, 48.93094 ], [ 3.867209, 48.927828 ], [ 3.8809595, 48.922338499999988 ], [ 3.8779935, 48.918916499999987 ], [ 3.879517, 48.917404499999975 ], [ 3.883433, 48.916096 ], [ 3.8849685, 48.914997 ], [ 3.891914, 48.907841 ], [ 3.894922, 48.910363499999988 ], [ 3.8990825, 48.910399 ], [ 3.9025375, 48.907423499999986 ], [ 3.9152507, 48.909369899999987 ], [ 3.9155999, 48.914476 ], [ 3.9261013, 48.9105936 ], [ 3.9539005, 48.913595099999981 ], [ 3.959339, 48.9024025 ], [ 3.9676965, 48.889369 ], [ 3.9776316, 48.887791199999988 ], [ 3.9827363, 48.877701199999983 ], [ 3.9870873, 48.8872839 ], [ 3.9855292, 48.8950913 ], [ 4.0085485, 48.8932788 ], [ 4.0188999, 48.8905816 ], [ 4.0353469, 48.873607299999982 ], [ 4.047394, 48.872776 ], [ 4.0692975, 48.882534 ], [ 4.045295, 48.906306199999989 ], [ 4.0462577, 48.910489399999989 ], [ 4.0433796, 48.9138235 ], [ 4.0333977, 48.921394899999981 ], [ 4.0210715, 48.926113 ], [ 3.9968471, 48.9306013 ], [ 3.994028, 48.9398078 ], [ 3.9885257, 48.943027699999988 ], [ 3.9891325, 48.946211399999989 ], [ 3.9952851, 48.946920599999977 ], [ 4.0054975, 48.942083599999982 ], [ 4.0145178, 48.9486535 ], [ 4.0444435, 48.954078199999984 ], [ 4.0468869, 48.951534099999982 ], [ 4.0411365, 48.9483165 ], [ 4.04871, 48.936048 ], [ 4.061533, 48.939629499999988 ], [ 4.070057, 48.941124 ], [ 4.0757185, 48.9431085 ], [ 4.0707145, 48.948530499999983 ], [ 4.0679135, 48.9541525 ], [ 4.0507214, 48.9716731 ], [ 4.0428195, 48.971097 ], [ 4.031891, 48.969088 ], [ 4.0205175, 48.968215 ], [ 4.009168, 48.965957 ], [ 4.0049345, 48.965926499999988 ], [ 3.985598, 48.96189 ], [ 3.9807525, 48.961912 ], [ 3.972065, 48.9541583 ], [ 3.9593782, 48.9538727 ], [ 3.939207, 48.959044 ], [ 3.9356863, 48.955729799999986 ], [ 3.9392799, 48.9474037 ], [ 3.935067, 48.9407985 ], [ 3.9496996, 48.936867 ], [ 3.9504868, 48.9261262 ], [ 3.9414075, 48.923233399999987 ], [ 3.91782, 48.928759 ], [ 3.9056155, 48.927131499999987 ] ] ] } }
]
}
