{
"type": "FeatureCollection",
"name": "praia_do_norte",
"crs": { "type": "name", "properties": { "name": "urn:ogc:def:crs:OGC:1.3:CRS84" } },
"features": [
{ "type": "Feature", "properties": { "name": "Praia do Norte", "feature_type": "entity", "metric_roundness": 53.44, "metric_rectangularity": 69.37, "metric_mobile_fit": 33.38, "metric_aspect_ratio": 1.229, "metric_area_km2": 22.82 }, "geometry": { "type": "Polygon", "coordinates": [ [ [ -28.7764322, 38.5990334 ], [ -28.7580404, 38.5858084 ], [ -28.726658, 38.583182499999985 ], [ -28.7229129, 38.59391 ], [ -28.7244099, 38.6034474 ], [ -28.7294633, 38.6143451 ], [ -28.740103, 38.621082499999986 ], [ -28.7554754, 38.610991099999978 ], [ -28.767462, 38.612875899999985 ], [ -28.7825, 38.611009 ], [ -28.7764322, 38.5990334 ] ] ] } },
{ "type": "Feature", "properties": { "name": "Praia do Norte", "feature_type": "circle", "metric_roundness": 53.44, "metric_rectangularity": 69.37, "metric_mobile_fit": 33.38, "metric_aspect_ratio": 1.229, "metric_area_km2": 22.82 }, "geometry": { "type": "Polygon", "coordinates": [ [ [ -28.72101456952651, 38.597637541250094 ], [ -28.721059964183457, 38.596282677485448 ], [ -28.72119602373068, 38.594931501840371 ], [ -28.721422375238433, 38.593587718107642 ], [ -28.721738398292953, 38.592255010024815 ], [ -28.722143226697025, 38.590937031171642 ], [ -28.722635750844134, 38.589637394947964 ], [ -28.723214620759823, 38.588359664659677 ], [ -28.723878249801881, 38.587107343739952 ], [ -28.72462481900925, 38.585883866132761 ], [ -28.725452282087605, 38.584692586865081 ], [ -28.726358371018186, 38.583536772833924 ], [ -28.727340602274204, 38.582419593833549 ], [ -28.728396283628058, 38.581344113847692 ], [ -28.729522521530544, 38.580313282630911 ], [ -28.73071622904185, 38.57932992760216 ], [ -28.73197413429267, 38.578396746073444 ], [ -28.733292789452133, 38.577516297834642 ], [ -28.734668580178113, 38.576690998115353 ], [ -28.73609773552386, 38.575923110943243 ], [ -28.737576338273911, 38.575214742917233 ], [ -28.739100335680909, 38.574567837412921 ], [ -28.740665550573883, 38.573984169236397 ], [ -28.742267692807612, 38.573465339741112 ], [ -28.743902371021605, 38.57301277242167 ], [ -28.745565104676491, 38.572627708996528 ], [ -28.747251336334905, 38.572311205990715 ], [ -28.748956444153073, 38.572064131828014 ], [ -28.750675754548993, 38.571887164440703 ], [ -28.752404555012372, 38.571780789403419 ], [ -28.754138107021316, 38.571745298596717 ], [ -28.755871659030255, 38.571780789403419 ], [ -28.757600459493634, 38.571887164440703 ], [ -28.759319769889554, 38.572064131828014 ], [ -28.761024877707722, 38.572311205990715 ], [ -28.762711109366133, 38.572627708996528 ], [ -28.764373843021023, 38.57301277242167 ], [ -28.766008521235015, 38.573465339741112 ], [ -28.767610663468744, 38.573984169236397 ], [ -28.769175878361718, 38.574567837412921 ], [ -28.770699875768717, 38.575214742917233 ], [ -28.772178478518768, 38.575923110943243 ], [ -28.773607633864515, 38.576690998115353 ], [ -28.774983424590495, 38.577516297834642 ], [ -28.776302079749961, 38.578396746073444 ], [ -28.777559985000778, 38.57932992760216 ], [ -28.778753692512076, 38.580313282630911 ], [ -28.779879930414566, 38.581344113847692 ], [ -28.780935611768427, 38.582419593833549 ], [ -28.781917843024441, 38.583536772833924 ], [ -28.782823931955015, 38.584692586865081 ], [ -28.783651395033377, 38.585883866132761 ], [ -28.784397964240746, 38.587107343739952 ], [ -28.785061593282805, 38.588359664659677 ], [ -28.785640463198487, 38.589637394947964 ], [ -28.786132987345596, 38.590937031171642 ], [ -28.786537815749668, 38.592255010024815 ], [ -28.786853838804195, 38.593587718107642 ], [ -28.787080190311947, 38.594931501840371 ], [ -28.787216249859171, 38.596282677485448 ], [ -28.787261644516111, 38.597637541250094 ], [ -28.787216249859171, 38.598992379441604 ], [ -28.787080190311947, 38.600343478647432 ], [ -28.786853838804195, 38.601687135912293 ], [ -28.786537815749668, 38.603019668884237 ], [ -28.786132987345596, 38.604337425902081 ], [ -28.785640463198487, 38.605636795996446 ], [ -28.785061593282805, 38.606914218777206 ], [ -28.784397964240746, 38.608166194180299 ], [ -28.783651395033377, 38.609389292047318 ], [ -28.782823931955015, 38.610580161511805 ], [ -28.781917843024441, 38.61173554016662 ], [ -28.780935611768427, 38.612852262987587 ], [ -28.779879930414566, 38.613927270988967 ], [ -28.778753692512076, 38.614957619587379 ], [ -28.777559985000778, 38.615940486651496 ], [ -28.776302079749961, 38.616873180215599 ], [ -28.774983424590495, 38.617753145836041 ], [ -28.773607633864515, 38.618577973570865 ], [ -28.772178478518768, 38.619345404563589 ], [ -28.770699875768717, 38.620053337213292 ], [ -28.769175878361718, 38.62069983291444 ], [ -28.767610663468744, 38.621283121350828 ], [ -28.766008521235015, 38.62180160532953 ], [ -28.764373843021023, 38.62225386514146 ], [ -28.762711109366133, 38.622638662437332 ], [ -28.761024877707722, 38.62295494360783 ], [ -28.759319769889554, 38.623201842659682 ], [ -28.757600459493634, 38.623378683579155 ], [ -28.755871659030255, 38.623484982177196 ], [ -28.754138107021316, 38.623520447410762 ], [ -28.752404555012372, 38.623484982177196 ], [ -28.750675754548993, 38.623378683579155 ], [ -28.748956444153073, 38.623201842659682 ], [ -28.747251336334905, 38.62295494360783 ], [ -28.745565104676491, 38.622638662437332 ], [ -28.743902371021605, 38.62225386514146 ], [ -28.742267692807612, 38.62180160532953 ], [ -28.740665550573883, 38.621283121350828 ], [ -28.739100335680909, 38.62069983291444 ], [ -28.737576338273911, 38.620053337213292 ], [ -28.73609773552386, 38.619345404563589 ], [ -28.734668580178113, 38.618577973570865 ], [ -28.733292789452133, 38.617753145836041 ], [ -28.73197413429267, 38.616873180215599 ], [ -28.73071622904185, 38.615940486651496 ], [ -28.729522521530544, 38.614957619587379 ], [ -28.728396283628058, 38.613927270988967 ], [ -28.727340602274204, 38.612852262987587 ], [ -28.726358371018186, 38.61173554016662 ], [ -28.725452282087605, 38.610580161511805 ], [ -28.72462481900925, 38.609389292047318 ], [ -28.723878249801881, 38.608166194180299 ], [ -28.723214620759823, 38.606914218777206 ], [ -28.722635750844134, 38.605636795996446 ], [ -28.722143226697025, 38.604337425902081 ], [ -28.721738398292953, 38.603019668884237 ], [ -28.721422375238433, 38.601687135912293 ], [ -28.72119602373068, 38.600343478647432 ], [ -28.721059964183457, 38.598992379441604 ], [ -28.72101456952651, 38.597637541250094 ] ] ] } },
{ "type": "Feature", "properties": { "name": "Praia do Norte", "feature_type": "mrr", "metric_roundness": 53.44, "metric_rectangularity": 69.37, "metric_mobile_fit": 33.38, "metric_aspect_ratio": 1.229, "metric_area_km2": 22.82 }, "geometry": { "type": "Polygon", "coordinates": [ [ [ -28.7825, 38.611009 ], [ -28.732020314034418, 38.623002783477432 ], [ -28.717383205535924, 38.585387163646445 ], [ -28.767862896331717, 38.573387094470704 ], [ -28.7825, 38.611009 ] ] ] } }
]
}
