{
"type": "FeatureCollection",
"name": "prazmo",
"crs": { "type": "name", "properties": { "name": "urn:ogc:def:crs:OGC:1.3:CRS84" } },
"features": [
{ "type": "Feature", "properties": { "name": "Pražmo", "feature_type": "entity", "metric_roundness": 48.75, "metric_rectangularity": 79.09, "metric_mobile_fit": 94.58, "metric_aspect_ratio": 0.617, "metric_area_km2": 8.01 }, "geometry": { "type": "Polygon", "coordinates": [ [ [ 18.5008154, 49.597472 ], [ 18.495665, 49.610843499999987 ], [ 18.4878285, 49.613765 ], [ 18.476035, 49.600827 ], [ 18.4755162, 49.59448 ], [ 18.490406, 49.587176499999984 ], [ 18.5008154, 49.597472 ] ] ] } },
{ "type": "Feature", "properties": { "name": "Pražmo", "feature_type": "circle", "metric_roundness": 48.75, "metric_rectangularity": 79.09, "metric_mobile_fit": 94.58, "metric_aspect_ratio": 0.617, "metric_area_km2": 8.01 }, "geometry": { "type": "Polygon", "coordinates": [ [ [ 18.509669916401734, 49.600472562252463 ], [ 18.509641749686725, 49.599775418099071 ], [ 18.509557326744723, 49.599080174843365 ], [ 18.509416878973134, 49.598388738221097 ], [ 18.509220791329536, 49.59770300361442 ], [ 18.50896960127654, 49.597024850854531 ], [ 18.508663997308609, 49.596356139066124 ], [ 18.508304817064985, 49.595698701567741 ], [ 18.507893045033747, 49.595054340842147 ], [ 18.507429809853409, 49.59442482359043 ], [ 18.506916381219408, 49.593811875883539 ], [ 18.506354166403931, 49.593217178424595 ], [ 18.505744706398719, 49.592642361934985 ], [ 18.50508967169128, 49.592089002677085 ], [ 18.504390857686207, 49.591558618125767 ], [ 18.503650179784128, 49.591052662800884 ], [ 18.502869668131684, 49.590572524272012 ], [ 18.502051462057054, 49.590119519346715 ], [ 18.501197804206221, 49.589694890452655 ], [ 18.500311034396024, 49.589299802223778 ], [ 18.499393583200867, 49.588935338299798 ], [ 18.498447965290701, 49.58860249834801 ], [ 18.497476772538498, 49.58830219531572 ], [ 18.496482666916073, 49.588035252920619 ], [ 18.495468373197852, 49.587802403386419 ], [ 18.494436671492405, 49.587604285429876 ], [ 18.493390389622395, 49.587441442504584 ], [ 18.492332395373701, 49.587314321306849 ], [ 18.491265588635024, 49.587223270547419 ], [ 18.490192893449471, 49.587168539992554 ], [ 18.48911725, 49.587150279777291 ], [ 18.488041606550517, 49.587168539992554 ], [ 18.486968911364972, 49.587223270547419 ], [ 18.485902104626287, 49.587314321306849 ], [ 18.484844110377598, 49.587441442504584 ], [ 18.483797828507587, 49.587604285429876 ], [ 18.48276612680214, 49.587802403386419 ], [ 18.481751833083916, 49.588035252920619 ], [ 18.480757727461498, 49.58830219531572 ], [ 18.479786534709291, 49.58860249834801 ], [ 18.478840916799129, 49.588935338299798 ], [ 18.477923465603968, 49.589299802223778 ], [ 18.477036695793768, 49.589694890452655 ], [ 18.476183037942938, 49.590119519346715 ], [ 18.475364831868312, 49.590572524272012 ], [ 18.474584320215861, 49.591052662800884 ], [ 18.473843642313781, 49.591558618125767 ], [ 18.473144828308715, 49.592089002677085 ], [ 18.47248979360127, 49.592642361934985 ], [ 18.471880333596058, 49.593217178424595 ], [ 18.471318118780587, 49.593811875883539 ], [ 18.470804690146583, 49.59442482359043 ], [ 18.470341454966245, 49.595054340842147 ], [ 18.46992968293501, 49.595698701567741 ], [ 18.469570502691386, 49.596356139066124 ], [ 18.469264898723456, 49.597024850854531 ], [ 18.469013708670456, 49.59770300361442 ], [ 18.468817621026862, 49.598388738221097 ], [ 18.468677173255273, 49.599080174843365 ], [ 18.468592750313263, 49.599775418099071 ], [ 18.468564583598258, 49.600472562252463 ], [ 18.468592750313263, 49.601169696438937 ], [ 18.468677173255273, 49.601864909903149 ], [ 18.468817621026862, 49.602556297235729 ], [ 18.469013708670456, 49.603241963594549 ], [ 18.469264898723456, 49.603920029896159 ], [ 18.469570502691386, 49.604588637963118 ], [ 18.46992968293501, 49.605245955613263 ], [ 18.470341454966245, 49.605890181676934 ], [ 18.470804690146583, 49.606519550928418 ], [ 18.471318118780587, 49.607132338918277 ], [ 18.471880333596058, 49.607726866693305 ], [ 18.47248979360127, 49.608301505391168 ], [ 18.473144828308715, 49.608854680697448 ], [ 18.473843642313781, 49.609384877152692 ], [ 18.474584320215861, 49.609890642297842 ], [ 18.475364831868312, 49.61037059064698 ], [ 18.476183037942938, 49.610823407476204 ], [ 18.477036695793768, 49.61124785241865 ], [ 18.477923465603968, 49.611642762855794 ], [ 18.478840916799129, 49.612007057095859 ], [ 18.479786534709291, 49.612339737330615 ], [ 18.480757727461498, 49.612639892362672 ], [ 18.481751833083916, 49.612906700095841 ], [ 18.48276612680214, 49.61313942978181 ], [ 18.483797828507587, 49.613337444016906 ], [ 18.484844110377598, 49.613500200483919 ], [ 18.485902104626287, 49.613627253433798 ], [ 18.486968911364972, 49.613718254903546 ], [ 18.488041606550517, 49.61377295566691 ], [ 18.48911725, 49.613791205915277 ], [ 18.490192893449471, 49.61377295566691 ], [ 18.491265588635024, 49.613718254903546 ], [ 18.492332395373701, 49.613627253433798 ], [ 18.493390389622395, 49.613500200483919 ], [ 18.494436671492405, 49.613337444016906 ], [ 18.495468373197852, 49.61313942978181 ], [ 18.496482666916073, 49.612906700095841 ], [ 18.497476772538498, 49.612639892362672 ], [ 18.498447965290701, 49.612339737330615 ], [ 18.499393583200867, 49.612007057095859 ], [ 18.500311034396024, 49.611642762855794 ], [ 18.501197804206221, 49.61124785241865 ], [ 18.502051462057054, 49.610823407476204 ], [ 18.502869668131684, 49.61037059064698 ], [ 18.503650179784128, 49.609890642297842 ], [ 18.504390857686207, 49.609384877152692 ], [ 18.50508967169128, 49.608854680697448 ], [ 18.505744706398719, 49.608301505391168 ], [ 18.506354166403931, 49.607726866693305 ], [ 18.506916381219408, 49.607132338918277 ], [ 18.507429809853409, 49.606519550928418 ], [ 18.507893045033747, 49.605890181676934 ], [ 18.508304817064985, 49.605245955613263 ], [ 18.508663997308609, 49.604588637963118 ], [ 18.50896960127654, 49.603920029896159 ], [ 18.509220791329536, 49.603241963594549 ], [ 18.509416878973134, 49.602556297235729 ], [ 18.509557326744723, 49.601864909903149 ], [ 18.509641749686725, 49.601169696438937 ], [ 18.509669916401734, 49.600472562252463 ] ] ] } },
{ "type": "Feature", "properties": { "name": "Pražmo", "feature_type": "mrr", "metric_roundness": 48.75, "metric_rectangularity": 79.09, "metric_mobile_fit": 94.58, "metric_aspect_ratio": 0.617, "metric_area_km2": 8.01 }, "geometry": { "type": "Polygon", "coordinates": [ [ [ 18.470530482652983, 49.594787122980499 ], [ 18.487881144953125, 49.613822747659505 ], [ 18.508518399332409, 49.605923508666457 ], [ 18.491167737032264, 49.586884799439197 ], [ 18.470530482652983, 49.594787122980499 ] ] ] } }
]
}
