{
"type": "FeatureCollection",
"name": "presentevillers",
"crs": { "type": "name", "properties": { "name": "urn:ogc:def:crs:OGC:1.3:CRS84" } },
"features": [
{ "type": "Feature", "properties": { "name": "Présentevillers", "feature_type": "entity", "metric_roundness": 42.83, "metric_rectangularity": 63.24, "metric_mobile_fit": 27.63, "metric_aspect_ratio": 1.286, "metric_area_km2": 8.27 }, "geometry": { "type": "Polygon", "coordinates": [ [ [ 6.7118755, 47.505023299999984 ], [ 6.7146162, 47.497816 ], [ 6.7132035, 47.493766 ], [ 6.717754, 47.4941355 ], [ 6.729289, 47.492978 ], [ 6.7371355, 47.49304 ], [ 6.740597, 47.493899499999984 ], [ 6.7430725, 47.49331 ], [ 6.748723, 47.49332 ], [ 6.745288, 47.4959735 ], [ 6.7337825, 47.5068639 ], [ 6.722241, 47.512298 ], [ 6.714199, 47.5123315 ], [ 6.7118755, 47.505023299999984 ] ] ] } },
{ "type": "Feature", "properties": { "name": "Présentevillers", "feature_type": "circle", "metric_roundness": 42.83, "metric_rectangularity": 63.24, "metric_mobile_fit": 27.63, "metric_aspect_ratio": 1.286, "metric_area_km2": 8.27 }, "geometry": { "type": "Polygon", "coordinates": [ [ [ 6.753486820023983, 47.502621040933747 ], [ 6.753456294463666, 47.501833522545894 ], [ 6.753364801451156, 47.501048150926167 ], [ 6.753212591762439, 47.500267078868603 ], [ 6.75300008259369, 47.49949244747738 ], [ 6.752727856417774, 47.498726380295544 ], [ 6.752396659387714, 47.497970977480904 ], [ 6.752007399291548, 47.497228310045038 ], [ 6.751561143064144, 47.496500414171273 ], [ 6.751059113862801, 47.49578928562719 ], [ 6.750502687714666, 47.49509687428727 ], [ 6.749893389745131, 47.494425078780488 ], [ 6.749232889997582, 47.493775741277773 ], [ 6.748522998855915, 47.493150642433683 ], [ 6.747765662082406, 47.492551496496326 ], [ 6.746962955484508, 47.491979946598875 ], [ 6.746117079225211, 47.491437560245799 ], [ 6.745230351792546, 47.49092582500635 ], [ 6.744305203644771, 47.490446144427061 ], [ 6.74334417054865, 47.489999834174661 ], [ 6.742349886629102, 47.489588118420194 ], [ 6.741325077149237, 47.489212126474087 ], [ 6.740272551040606, 47.488872889681758 ], [ 6.739195193204113, 47.488571338588294 ], [ 6.738095956602701, 47.488308300379899 ], [ 6.736977854167488, 47.488084496609567 ], [ 6.735843950539531, 47.487900541212888 ], [ 6.734697353669855, 47.487756938819771 ], [ 6.733541206300783, 47.487654083366678 ], [ 6.732378677351891, 47.487592257013262 ], [ 6.731212953234222, 47.4875716293663 ], [ 6.730047229116551, 47.487592257013262 ], [ 6.72888470016766, 47.487654083366678 ], [ 6.727728552798588, 47.487756938819771 ], [ 6.726581955928912, 47.487900541212888 ], [ 6.725448052300955, 47.488084496609567 ], [ 6.724329949865743, 47.488308300379899 ], [ 6.723230713264329, 47.488571338588294 ], [ 6.722153355427837, 47.488872889681758 ], [ 6.721100829319206, 47.489212126474087 ], [ 6.720076019839341, 47.489588118420194 ], [ 6.719081735919793, 47.489999834174661 ], [ 6.718120702823672, 47.490446144427061 ], [ 6.717195554675897, 47.49092582500635 ], [ 6.716308827243232, 47.491437560245799 ], [ 6.715462950983935, 47.491979946598875 ], [ 6.714660244386037, 47.492551496496326 ], [ 6.713902907612528, 47.493150642433683 ], [ 6.713193016470861, 47.493775741277773 ], [ 6.712532516723312, 47.494425078780488 ], [ 6.711923218753777, 47.49509687428727 ], [ 6.711366792605642, 47.49578928562719 ], [ 6.710864763404299, 47.496500414171273 ], [ 6.710418507176895, 47.497228310045038 ], [ 6.710029247080728, 47.497970977480904 ], [ 6.709698050050669, 47.498726380295544 ], [ 6.709425823874752, 47.49949244747738 ], [ 6.709213314706005, 47.500267078868603 ], [ 6.709061105017287, 47.501048150926167 ], [ 6.708969612004777, 47.501833522545894 ], [ 6.70893908644446, 47.502621040933747 ], [ 6.708969612004777, 47.503408547508073 ], [ 6.709061105017287, 47.50419388381664 ], [ 6.709213314706005, 47.504974897452286 ], [ 6.709425823874752, 47.50574944795094 ], [ 6.709698050050669, 47.506515412655801 ], [ 6.710029247080728, 47.507270692531833 ], [ 6.710418507176895, 47.508013217914403 ], [ 6.710864763404299, 47.508740954176552 ], [ 6.711366792605642, 47.509451907299415 ], [ 6.711923218753777, 47.510144129330477 ], [ 6.712532516723312, 47.510815723714884 ], [ 6.713193016470861, 47.511464850485233 ], [ 6.713902907612528, 47.512089731295788 ], [ 6.714660244386037, 47.512688654287274 ], [ 6.715462950983935, 47.513259978769156 ], [ 6.716308827243232, 47.513802139706648 ], [ 6.717195554675897, 47.514313652000226 ], [ 6.718120702823672, 47.514793114545995 ], [ 6.719081735919793, 47.515239214066014 ], [ 6.720076019839341, 47.515650728698105 ], [ 6.721100829319206, 47.516026531335378 ], [ 6.722153355427837, 47.516365592706499 ], [ 6.723230713264329, 47.516666984188355 ], [ 6.724329949865743, 47.51692988034344 ], [ 6.725448052300955, 47.517153561175178 ], [ 6.726581955928912, 47.517337414094889 ], [ 6.727728552798588, 47.517480935595422 ], [ 6.72888470016766, 47.517583732626612 ], [ 6.730047229116551, 47.517645523668875 ], [ 6.731212953234222, 47.517666139502303 ], [ 6.732378677351891, 47.517645523668875 ], [ 6.733541206300783, 47.517583732626612 ], [ 6.734697353669855, 47.517480935595422 ], [ 6.735843950539531, 47.517337414094889 ], [ 6.736977854167488, 47.517153561175178 ], [ 6.738095956602701, 47.51692988034344 ], [ 6.739195193204113, 47.516666984188355 ], [ 6.740272551040606, 47.516365592706499 ], [ 6.741325077149237, 47.516026531335378 ], [ 6.742349886629102, 47.515650728698105 ], [ 6.74334417054865, 47.515239214066014 ], [ 6.744305203644771, 47.514793114545995 ], [ 6.745230351792546, 47.514313652000226 ], [ 6.746117079225211, 47.513802139706648 ], [ 6.746962955484508, 47.513259978769156 ], [ 6.747765662082406, 47.512688654287274 ], [ 6.748522998855915, 47.512089731295788 ], [ 6.749232889997582, 47.511464850485233 ], [ 6.749893389745131, 47.510815723714884 ], [ 6.750502687714666, 47.510144129330477 ], [ 6.751059113862801, 47.509451907299415 ], [ 6.751561143064144, 47.508740954176552 ], [ 6.752007399291548, 47.508013217914403 ], [ 6.752396659387714, 47.507270692531833 ], [ 6.752727856417774, 47.506515412655801 ], [ 6.75300008259369, 47.50574944795094 ], [ 6.753212591762439, 47.504974897452286 ], [ 6.753364801451156, 47.50419388381664 ], [ 6.753456294463666, 47.503408547508073 ], [ 6.753486820023983, 47.502621040933747 ] ] ] } },
{ "type": "Feature", "properties": { "name": "Présentevillers", "feature_type": "mrr", "metric_roundness": 42.83, "metric_rectangularity": 63.24, "metric_mobile_fit": 27.63, "metric_aspect_ratio": 1.286, "metric_area_km2": 8.27 }, "geometry": { "type": "Polygon", "coordinates": [ [ [ 6.711942313627037, 47.512340900935065 ], [ 6.748895244025235, 47.512186968536575 ], [ 6.748719140610657, 47.492897031753827 ], [ 6.711766210212458, 47.493051020724735 ], [ 6.711942313627037, 47.512340900935065 ] ] ] } }
]
}
