{
"type": "FeatureCollection",
"name": "proleb",
"crs": { "type": "name", "properties": { "name": "urn:ogc:def:crs:OGC:1.3:CRS84" } },
"features": [
{ "type": "Feature", "properties": { "name": "Proleb", "feature_type": "entity", "metric_roundness": 68.99, "metric_rectangularity": 76.85, "metric_mobile_fit": 64.66, "metric_aspect_ratio": 0.916, "metric_area_km2": 52.44 }, "geometry": { "type": "Polygon", "coordinates": [ [ [ 15.133864, 47.393067 ], [ 15.1382574, 47.3928906 ], [ 15.1497985, 47.3998317 ], [ 15.1577723, 47.398779 ], [ 15.176533, 47.404684 ], [ 15.1673129, 47.423289199999985 ], [ 15.1503014, 47.4325142 ], [ 15.1530809, 47.440491799999982 ], [ 15.1599225, 47.443067 ], [ 15.1411268, 47.447940599999981 ], [ 15.133864, 47.4460504 ], [ 15.108421, 47.439429 ], [ 15.1097433, 47.43065859999998 ], [ 15.100488, 47.424607499999986 ], [ 15.1052269, 47.4141233 ], [ 15.1025476, 47.4068273 ], [ 15.1045904, 47.3993486 ], [ 15.1163197, 47.3917595 ], [ 15.126555, 47.3933605 ], [ 15.133864, 47.393067 ] ] ] } },
{ "type": "Feature", "properties": { "name": "Proleb", "feature_type": "circle", "metric_roundness": 68.99, "metric_rectangularity": 76.85, "metric_mobile_fit": 64.66, "metric_aspect_ratio": 0.916, "metric_area_km2": 52.44 }, "geometry": { "type": "Polygon", "coordinates": [ [ [ 15.18127914464533, 47.418168048418437 ], [ 15.181218572206689, 47.416602837245499 ], [ 15.181037020915605, 47.415041869870677 ], [ 15.180734988391556, 47.413489425368084 ], [ 15.180313302484688, 47.411949759825156 ], [ 15.179773119006766, 47.41042709466663 ], [ 15.17911591856315, 47.40892560506957 ], [ 15.178343502494585, 47.407449408501364 ], [ 15.17745798793981, 47.406002553412215 ], [ 15.17646180203268, 47.40458900811349 ], [ 15.175357675249517, 47.403212649872494 ], [ 15.174148633925087, 47.401877254254146 ], [ 15.172837991957625, 47.400586484738767 ], [ 15.171429341725657, 47.399343882645184 ], [ 15.169926544241561, 47.398152857386783 ], [ 15.168333718568773, 47.397016677087954 ], [ 15.166655230531756, 47.39593845958683 ], [ 15.16489568074954, 47.394921163849581 ], [ 15.163059892025784, 47.393967581820114 ], [ 15.161152896129765, 47.39308033072804 ], [ 15.159179920004689, 47.392261845876362 ], [ 15.157146371440971, 47.391514373929155 ], [ 15.155057824253873, 47.39083996671792 ], [ 15.152920003006066, 47.390240475584122 ], [ 15.150738767316986, 47.389717546273687 ], [ 15.148520095802043, 47.389272614397818 ], [ 15.146270069685643, 47.388906901472929 ], [ 15.143994856132975, 47.388621411550766 ], [ 15.141700691346234, 47.388416928448116 ], [ 15.139393863471643, 47.388294013584215 ], [ 15.13708069536405, 47.388253004431448 ], [ 15.134767527256459, 47.388294013584215 ], [ 15.132460699381864, 47.388416928448116 ], [ 15.130166534595126, 47.388621411550766 ], [ 15.127891321042455, 47.388906901472929 ], [ 15.125641294926055, 47.389272614397818 ], [ 15.123422623411113, 47.389717546273687 ], [ 15.121241387722035, 47.390240475584122 ], [ 15.119103566474228, 47.39083996671792 ], [ 15.11701501928713, 47.391514373929155 ], [ 15.114981470723409, 47.392261845876362 ], [ 15.113008494598333, 47.39308033072804 ], [ 15.111101498702318, 47.393967581820114 ], [ 15.109265709978558, 47.394921163849581 ], [ 15.107506160196346, 47.39593845958683 ], [ 15.105827672159327, 47.397016677087954 ], [ 15.104234846486541, 47.398152857386783 ], [ 15.102732049002441, 47.399343882645184 ], [ 15.101323398770477, 47.400586484738767 ], [ 15.100012756803011, 47.401877254254146 ], [ 15.098803715478583, 47.403212649872494 ], [ 15.097699588695422, 47.40458900811349 ], [ 15.096703402788288, 47.406002553412215 ], [ 15.095817888233517, 47.407449408501364 ], [ 15.095045472164948, 47.40892560506957 ], [ 15.094388271721336, 47.41042709466663 ], [ 15.09384808824341, 47.411949759825156 ], [ 15.093426402336545, 47.413489425368084 ], [ 15.093124369812493, 47.415041869870677 ], [ 15.092942818521413, 47.416602837245499 ], [ 15.092882246082771, 47.418168048418437 ], [ 15.092942818521413, 47.419733213063544 ], [ 15.093124369812493, 47.421294041364675 ], [ 15.093426402336545, 47.422846255771404 ], [ 15.09384808824341, 47.424385602717294 ], [ 15.094388271721336, 47.425907864268225 ], [ 15.095045472164948, 47.427408869669129 ], [ 15.095817888233517, 47.428884506757591 ], [ 15.096703402788288, 47.430330733213168 ], [ 15.097699588695422, 47.431743587611955 ], [ 15.098803715478583, 47.433119200256279 ], [ 15.100012756803011, 47.434453803750145 ], [ 15.101323398770477, 47.435743743291894 ], [ 15.102732049002441, 47.436985486656098 ], [ 15.104234846486541, 47.438175633837758 ], [ 15.105827672159327, 47.439310926332901 ], [ 15.107506160196346, 47.440388256030346 ], [ 15.109265709978558, 47.441404673690883 ], [ 15.111101498702318, 47.442357396991007 ], [ 15.113008494598333, 47.443243818109508 ], [ 15.114981470723409, 47.444061510836761 ], [ 15.11701501928713, 47.444808237187367 ], [ 15.119103566474228, 47.445481953498735 ], [ 15.121241387722035, 47.446080815999039 ], [ 15.123422623411113, 47.446603185829815 ], [ 15.125641294926055, 47.447047633509598 ], [ 15.127891321042455, 47.447412942826944 ], [ 15.130166534595126, 47.447698114152125 ], [ 15.132460699381864, 47.447902367158953 ], [ 15.134767527256459, 47.44802514294917 ], [ 15.13708069536405, 47.448066105574121 ], [ 15.139393863471643, 47.44802514294917 ], [ 15.141700691346234, 47.447902367158953 ], [ 15.143994856132975, 47.447698114152125 ], [ 15.146270069685643, 47.447412942826944 ], [ 15.148520095802043, 47.447047633509598 ], [ 15.150738767316986, 47.446603185829815 ], [ 15.152920003006066, 47.446080815999039 ], [ 15.155057824253873, 47.445481953498735 ], [ 15.157146371440971, 47.444808237187367 ], [ 15.159179920004689, 47.444061510836761 ], [ 15.161152896129765, 47.443243818109508 ], [ 15.163059892025784, 47.442357396991007 ], [ 15.16489568074954, 47.441404673690883 ], [ 15.166655230531756, 47.440388256030346 ], [ 15.168333718568773, 47.439310926332901 ], [ 15.169926544241557, 47.438175633837758 ], [ 15.171429341725657, 47.436985486656098 ], [ 15.172837991957625, 47.435743743291894 ], [ 15.174148633925087, 47.434453803750145 ], [ 15.175357675249517, 47.433119200256279 ], [ 15.17646180203268, 47.431743587611955 ], [ 15.17745798793981, 47.430330733213168 ], [ 15.178343502494585, 47.428884506757591 ], [ 15.17911591856315, 47.427408869669129 ], [ 15.179773119006766, 47.425907864268225 ], [ 15.180313302484688, 47.424385602717294 ], [ 15.180734988391556, 47.422846255771404 ], [ 15.181037020915605, 47.421294041364675 ], [ 15.181218572206689, 47.419733213063544 ], [ 15.18127914464533, 47.418168048418437 ] ] ] } },
{ "type": "Feature", "properties": { "name": "Proleb", "feature_type": "mrr", "metric_roundness": 68.99, "metric_rectangularity": 76.85, "metric_mobile_fit": 64.66, "metric_aspect_ratio": 0.916, "metric_area_km2": 52.44 }, "geometry": { "type": "Polygon", "coordinates": [ [ [ 15.156495081044545, 47.450983463914838 ], [ 15.178209318827989, 47.400808841923073 ], [ 15.109821364516185, 47.387254018356536 ], [ 15.088107126732741, 47.437441553173151 ], [ 15.156495081044545, 47.450983463914838 ] ] ] } }
]
}
