{
"type": "FeatureCollection",
"name": "kocin",
"crs": { "type": "name", "properties": { "name": "urn:ogc:def:crs:OGC:1.3:CRS84" } },
"features": [
{ "type": "Feature", "properties": { "name": "Kočín", "feature_type": "entity", "metric_roundness": 51.82, "metric_rectangularity": 76.96, "metric_mobile_fit": 11.34, "metric_aspect_ratio": 1.449, "metric_area_km2": 8.44 }, "geometry": { "type": "Polygon", "coordinates": [ [ [ 13.5013231, 49.9267883 ], [ 13.4972074, 49.9321749 ], [ 13.4827835, 49.938306499999982 ], [ 13.4756968, 49.934040699999976 ], [ 13.460924, 49.9310035 ], [ 13.4678549, 49.922325199999989 ], [ 13.4763685, 49.9203605 ], [ 13.495076, 49.923013 ], [ 13.5013231, 49.9267883 ] ] ] } },
{ "type": "Feature", "properties": { "name": "Kočín", "feature_type": "circle", "metric_roundness": 51.82, "metric_rectangularity": 76.96, "metric_mobile_fit": 11.34, "metric_aspect_ratio": 1.449, "metric_area_km2": 8.44 }, "geometry": { "type": "Polygon", "coordinates": [ [ [ 13.501586710114305, 49.92889594608036 ], [ 13.501558666064556, 49.928206524351701 ], [ 13.501474610782102, 49.927518982459262 ], [ 13.50133477465663, 49.926835205028624 ], [ 13.501139540969238, 49.926157066446464 ], [ 13.500889444841894, 49.925486425720848 ], [ 13.5005851717707, 49.924825121382717 ], [ 13.500227555746992, 49.92417496644282 ], [ 13.499817576971436, 49.923537743417697 ], [ 13.499356359167356, 49.922915199438641 ], [ 13.498845166500693, 49.922309041456892 ], [ 13.498285400115021, 49.921720931558461 ], [ 13.497678594291086, 49.921152482401318 ], [ 13.497026412241478, 49.920605252787666 ], [ 13.496330641551861, 49.920080743383451 ], [ 13.495593189281328, 49.919580392596956 ], [ 13.494816076735301, 49.919105572627849 ], [ 13.494001433925249, 49.918657585697602 ], [ 13.493151493730487, 49.918237660471718 ], [ 13.49226858577801, 49.917846948683717 ], [ 13.491355130057148, 49.917486521970048 ], [ 13.49041363028654, 49.917157368924912 ], [ 13.489446667051611, 49.916860392383114 ], [ 13.488456890731378, 49.916596406938197 ], [ 13.487447014233933, 49.916366136703274 ], [ 13.48641980556056, 49.916170213320157 ], [ 13.485378080218835, 49.916009174222772 ], [ 13.48432469350551, 49.915883461159503 ], [ 13.483262532680344, 49.91579341897851 ], [ 13.482194509052329, 49.915739294679476 ], [ 13.48112355, 49.915721236734434 ], [ 13.480052590947659, 49.915739294679476 ], [ 13.478984567319648, 49.91579341897851 ], [ 13.47792240649448, 49.915883461159503 ], [ 13.476869019781155, 49.916009174222772 ], [ 13.47582729443943, 49.916170213320157 ], [ 13.474800085766057, 49.916366136703274 ], [ 13.473790209268612, 49.916596406938197 ], [ 13.472800432948379, 49.916860392383114 ], [ 13.471833469713449, 49.917157368924912 ], [ 13.470891969942841, 49.917486521970048 ], [ 13.46997851422198, 49.917846948683717 ], [ 13.469095606269505, 49.918237660471718 ], [ 13.468245666074742, 49.918657585697602 ], [ 13.467431023264689, 49.919105572627849 ], [ 13.46665391071866, 49.919580392596956 ], [ 13.465916458448129, 49.920080743383451 ], [ 13.46522068775851, 49.920605252787666 ], [ 13.464568505708904, 49.921152482401318 ], [ 13.463961699884969, 49.921720931558461 ], [ 13.463401933499295, 49.922309041456892 ], [ 13.462890740832632, 49.922915199438641 ], [ 13.462429523028556, 49.923537743417697 ], [ 13.462019544252998, 49.92417496644282 ], [ 13.46166192822929, 49.924825121382717 ], [ 13.461357655158096, 49.925486425720848 ], [ 13.461107559030753, 49.926157066446464 ], [ 13.46091232534336, 49.926835205028624 ], [ 13.460772489217888, 49.927518982459262 ], [ 13.460688433935433, 49.928206524351701 ], [ 13.460660389885685, 49.92889594608036 ], [ 13.460688433935433, 49.929585357947737 ], [ 13.460772489217888, 49.930272870364384 ], [ 13.46091232534336, 49.930956599027645 ], [ 13.461107559030753, 49.931634670085174 ], [ 13.461357655158096, 49.932305225268706 ], [ 13.46166192822929, 49.932966426984507 ], [ 13.462019544252998, 49.933616463346205 ], [ 13.462429523028556, 49.934253553136394 ], [ 13.462890740832632, 49.934875950683562 ], [ 13.463401933499295, 49.935481950640792 ], [ 13.463961699884969, 49.936069892653407 ], [ 13.464568505708904, 49.936638165902863 ], [ 13.46522068775851, 49.937185213514226 ], [ 13.465916458448129, 49.937709536815603 ], [ 13.46665391071866, 49.938209699437692 ], [ 13.467431023264689, 49.938684331242385 ], [ 13.468245666074742, 49.939132132069787 ], [ 13.469095606269505, 49.939551875293375 ], [ 13.46997851422198, 49.939942411173689 ], [ 13.470891969942841, 49.940302670001572 ], [ 13.471833469713449, 49.940631665022181 ], [ 13.472800432948379, 49.940928495132091 ], [ 13.473790209268612, 49.941192347342067 ], [ 13.474800085766057, 49.94142249899879 ], [ 13.47582729443943, 49.941618319759584 ], [ 13.476869019781155, 49.941779273314893 ], [ 13.47792240649448, 49.941904918853524 ], [ 13.478984567319648, 49.941994912267148 ], [ 13.480052590947659, 49.942049007090382 ], [ 13.48112355, 49.942067055174157 ], [ 13.482194509052329, 49.942049007090382 ], [ 13.483262532680344, 49.941994912267148 ], [ 13.48432469350551, 49.941904918853524 ], [ 13.485378080218835, 49.941779273314893 ], [ 13.48641980556056, 49.941618319759584 ], [ 13.487447014233933, 49.94142249899879 ], [ 13.488456890731378, 49.941192347342067 ], [ 13.489446667051611, 49.940928495132091 ], [ 13.49041363028654, 49.940631665022181 ], [ 13.491355130057148, 49.940302670001572 ], [ 13.49226858577801, 49.939942411173689 ], [ 13.493151493730487, 49.939551875293375 ], [ 13.494001433925249, 49.939132132069787 ], [ 13.494816076735301, 49.938684331242385 ], [ 13.495593189281328, 49.938209699437692 ], [ 13.496330641551861, 49.937709536815603 ], [ 13.497026412241478, 49.937185213514226 ], [ 13.497678594291086, 49.936638165902863 ], [ 13.498285400115021, 49.936069892653407 ], [ 13.498845166500693, 49.935481950640792 ], [ 13.499356359167356, 49.934875950683562 ], [ 13.499817576971436, 49.934253553136394 ], [ 13.500227555746992, 49.933616463346205 ], [ 13.5005851717707, 49.932966426984507 ], [ 13.500889444841894, 49.932305225268706 ], [ 13.501139540969238, 49.931634670085174 ], [ 13.50133477465663, 49.930956599027645 ], [ 13.501474610782102, 49.930272870364384 ], [ 13.501558666064556, 49.929585357947737 ], [ 13.501586710114305, 49.92889594608036 ] ] ] } },
{ "type": "Feature", "properties": { "name": "Kočín", "feature_type": "mrr", "metric_roundness": 51.82, "metric_rectangularity": 76.96, "metric_mobile_fit": 11.34, "metric_aspect_ratio": 1.449, "metric_area_km2": 8.44 }, "geometry": { "type": "Polygon", "coordinates": [ [ [ 13.473111757519975, 49.915741981712415 ], [ 13.460880456429939, 49.931058042804018 ], [ 13.490317899395274, 49.940799631103921 ], [ 13.50254920048531, 49.925486665733899 ], [ 13.473111757519975, 49.915741981712415 ] ] ] } }
]
}
