{
"type": "FeatureCollection",
"name": "koinoteta_margaritiou",
"crs": { "type": "name", "properties": { "name": "urn:ogc:def:crs:OGC:1.3:CRS84" } },
"features": [
{ "type": "Feature", "properties": { "name": "Κοινότητα Μαργαριτίου", "metric_roundness": 37.21, "metric_rectangularity": 64.28, "metric_mobile_fit": 86.01, "metric_aspect_ratio": 0.702, "metric_area_km2": 57.35 }, "geometry": { "type": "Polygon", "coordinates": [ [ [ 20.4730324, 39.3316797 ], [ 20.4764742, 39.3369767 ], [ 20.4761091, 39.344168699999983 ], [ 20.4813045, 39.350499 ], [ 20.4660303, 39.3577601 ], [ 20.4536385, 39.3779113 ], [ 20.4481135, 39.380495 ], [ 20.4400859, 39.3818577 ], [ 20.4325471, 39.3951148 ], [ 20.411727, 39.411197 ], [ 20.3987055, 39.4045835 ], [ 20.4015046, 39.3906893 ], [ 20.4002325, 39.3812735 ], [ 20.4122695, 39.3740466 ], [ 20.4225222, 39.3596874 ], [ 20.4240791, 39.3516427 ], [ 20.4232037, 39.3453885 ], [ 20.4169075, 39.339885 ], [ 20.4426252, 39.3205305 ], [ 20.4566265, 39.320285 ], [ 20.4730324, 39.3316797 ] ] ] } }
]
}
