{
"type": "FeatureCollection",
"name": "koinoteta_delianon",
"crs": { "type": "name", "properties": { "name": "urn:ogc:def:crs:OGC:1.3:CRS84" } },
"features": [
{ "type": "Feature", "properties": { "name": "Κοινότητα Δελιανών", "metric_roundness": 43.63, "metric_rectangularity": 71.2, "metric_mobile_fit": 94.11, "metric_aspect_ratio": 0.504, "metric_area_km2": 10.32 }, "geometry": { "type": "Polygon", "coordinates": [ [ [ 23.72919, 35.4636215 ], [ 23.722934, 35.445455 ], [ 23.7281788, 35.4417343 ], [ 23.7303904, 35.431142799999982 ], [ 23.7284035, 35.4249475 ], [ 23.7333695, 35.42407 ], [ 23.737024, 35.424211 ], [ 23.7405095, 35.424901 ], [ 23.743928, 35.426487 ], [ 23.746698, 35.4291015 ], [ 23.747381, 35.441815 ], [ 23.7417146, 35.447211399999986 ], [ 23.7450655, 35.46148 ], [ 23.7416905, 35.4634415 ], [ 23.72919, 35.4636215 ] ] ] } }
]
}
