{
"type": "FeatureCollection",
"name": "koinoteta_nochion",
"crs": { "type": "name", "properties": { "name": "urn:ogc:def:crs:OGC:1.3:CRS84" } },
"features": [
{ "type": "Feature", "properties": { "name": "Κοινότητα Νοχιών", "feature_type": "entity", "metric_roundness": 32.73, "metric_rectangularity": 67.54, "metric_mobile_fit": -59.74, "metric_aspect_ratio": 2.16, "metric_area_km2": 8.43 }, "geometry": { "type": "Polygon", "coordinates": [ [ [ 23.716612, 35.5076715 ], [ 23.721048, 35.504992499999986 ], [ 23.737589, 35.4983955 ], [ 23.7445817, 35.4982368 ], [ 23.7556535, 35.5036385 ], [ 23.7625303, 35.5075905 ], [ 23.768044, 35.50674 ], [ 23.764788, 35.5161995 ], [ 23.755273, 35.5176206 ], [ 23.7359705, 35.5135675 ], [ 23.7285636, 35.5085343 ], [ 23.718029, 35.509193499999988 ], [ 23.716612, 35.5076715 ] ] ] } },
{ "type": "Feature", "properties": { "name": "Κοινότητα Νοχιών", "feature_type": "circle", "metric_roundness": 32.73, "metric_rectangularity": 67.54, "metric_mobile_fit": -59.74, "metric_aspect_ratio": 2.16, "metric_area_km2": 8.43 }, "geometry": { "type": "Polygon", "coordinates": [ [ [ 23.768050363916064, 35.507205751350625 ], [ 23.768015112310284, 35.506109876213017 ], [ 23.767909454115152, 35.505016989899936 ], [ 23.767733678932441, 35.50393008812059 ], [ 23.767488268549698, 35.50285215030118 ], [ 23.767173895619731, 35.501786131415159 ], [ 23.766791421816883, 35.500734953879174 ], [ 23.766341895475275, 35.499701499537196 ], [ 23.765826548715349, 35.498688601754502 ], [ 23.765246794066758, 35.4976990376435 ], [ 23.764604220596699, 35.496735520442904 ], [ 23.763900589554382, 35.495800692070731 ], [ 23.763137829543592, 35.494897115872369 ], [ 23.762318031236493, 35.494027269583107 ], [ 23.761443441643273, 35.493193538524828 ], [ 23.760516457953198, 35.492398209055565 ], [ 23.759539620964137, 35.491643462290142 ], [ 23.758515608118383, 35.490931368108932 ], [ 23.757447226163961, 35.490263879471705 ], [ 23.756337403461551, 35.489642827051995 ], [ 23.755189181958027, 35.489069914206873 ], [ 23.754005708848734, 35.488546712296255 ], [ 23.752790227951195, 35.488074656364368 ], [ 23.751546070814054, 35.487655041195708 ], [ 23.750276647585558, 35.487289017756041 ], [ 23.748985437666533, 35.486977590028658 ], [ 23.747675980173614, 35.486721612254421 ], [ 23.746351864238775, 35.48652178658336 ], [ 23.745016719171755, 35.486378661144272 ], [ 23.743674204512374, 35.486292628537747 ], [ 23.742328, 35.486263924756742 ], [ 23.74098179548762, 35.486292628537747 ], [ 23.739639280828239, 35.486378661144272 ], [ 23.738304135761219, 35.48652178658336 ], [ 23.736980019826376, 35.486721612254421 ], [ 23.735670562333461, 35.486977590028658 ], [ 23.734379352414432, 35.487289017756041 ], [ 23.73310992918594, 35.487655041195708 ], [ 23.731865772048803, 35.488074656364368 ], [ 23.73065029115126, 35.488546712296255 ], [ 23.729466818041967, 35.489069914206873 ], [ 23.728318596538447, 35.489642827051995 ], [ 23.727208773836029, 35.490263879471705 ], [ 23.726140391881611, 35.490931368108932 ], [ 23.72511637903586, 35.491643462290142 ], [ 23.724139542046796, 35.492398209055565 ], [ 23.723212558356725, 35.493193538524828 ], [ 23.722337968763497, 35.494027269583107 ], [ 23.721518170456402, 35.494897115872369 ], [ 23.720755410445612, 35.495800692070731 ], [ 23.720051779403295, 35.496735520442904 ], [ 23.719409205933232, 35.4976990376435 ], [ 23.718829451284641, 35.498688601754502 ], [ 23.718314104524719, 35.499701499537196 ], [ 23.717864578183107, 35.500734953879174 ], [ 23.717482104380263, 35.501786131415159 ], [ 23.717167731450292, 35.50285215030118 ], [ 23.716922321067553, 35.50393008812059 ], [ 23.716746545884838, 35.505016989899936 ], [ 23.716640887689707, 35.506109876213017 ], [ 23.71660563608393, 35.507205751350625 ], [ 23.716640887689707, 35.508301611533547 ], [ 23.716746545884838, 35.509394453146435 ], [ 23.716922321067553, 35.51048128096982 ], [ 23.717167731450292, 35.511559116387772 ], [ 23.717482104380263, 35.512625005548792 ], [ 23.717864578183107, 35.513676027457493 ], [ 23.718314104524719, 35.514709301975024 ], [ 23.718829451284641, 35.515721997706279 ], [ 23.719409205933232, 35.516711339752568 ], [ 23.720051779403295, 35.517674617308174 ], [ 23.720755410445612, 35.518609191080692 ], [ 23.721518170456402, 35.519512500514153 ], [ 23.722337968763497, 35.520382070796018 ], [ 23.723212558356725, 35.521215519628413 ], [ 23.724139542046796, 35.522010563745376 ], [ 23.72511637903586, 35.522765025158542 ], [ 23.726140391881611, 35.523476837113861 ], [ 23.727208773836029, 35.52414404974369 ], [ 23.728318596538447, 35.524764835398521 ], [ 23.729466818041967, 35.525337493643981 ], [ 23.73065029115126, 35.525860455909623 ], [ 23.731865772048803, 35.526332289776818 ], [ 23.73310992918594, 35.526751702894046 ], [ 23.734379352414432, 35.527117546509274 ], [ 23.735670562333461, 35.527428818609408 ], [ 23.736980019826376, 35.527684666658644 ], [ 23.738304135761219, 35.527884389928253 ], [ 23.739639280828239, 35.528027441411396 ], [ 23.74098179548762, 35.528113429317735 ], [ 23.742328, 35.528142118144054 ], [ 23.743674204512374, 35.528113429317735 ], [ 23.745016719171755, 35.528027441411396 ], [ 23.746351864238775, 35.527884389928253 ], [ 23.747675980173614, 35.527684666658644 ], [ 23.748985437666533, 35.527428818609408 ], [ 23.750276647585558, 35.527117546509274 ], [ 23.751546070814054, 35.526751702894046 ], [ 23.752790227951195, 35.526332289776818 ], [ 23.754005708848734, 35.525860455909623 ], [ 23.755189181958027, 35.525337493643981 ], [ 23.756337403461551, 35.524764835398521 ], [ 23.757447226163961, 35.52414404974369 ], [ 23.758515608118383, 35.523476837113861 ], [ 23.759539620964137, 35.522765025158542 ], [ 23.760516457953198, 35.522010563745376 ], [ 23.761443441643273, 35.521215519628413 ], [ 23.762318031236493, 35.520382070796018 ], [ 23.763137829543592, 35.519512500514153 ], [ 23.763900589554382, 35.518609191080692 ], [ 23.764604220596699, 35.517674617308174 ], [ 23.765246794066758, 35.516711339752568 ], [ 23.765826548715349, 35.515721997706279 ], [ 23.766341895475275, 35.514709301975024 ], [ 23.766791421816883, 35.513676027457493 ], [ 23.767173895619731, 35.512625005548792 ], [ 23.767488268549698, 35.511559116387772 ], [ 23.767733678932441, 35.51048128096982 ], [ 23.767909454115152, 35.509394453146435 ], [ 23.768015112310284, 35.508301611533547 ], [ 23.768050363916064, 35.507205751350625 ] ] ] } },
{ "type": "Feature", "properties": { "name": "Κοινότητα Νοχιών", "feature_type": "mrr", "metric_roundness": 32.73, "metric_rectangularity": 67.54, "metric_mobile_fit": -59.74, "metric_aspect_ratio": 2.16, "metric_area_km2": 8.43 }, "geometry": { "type": "Polygon", "coordinates": [ [ [ 23.763530472192031, 35.519852635789356 ], [ 23.769049722368305, 35.50381789710994 ], [ 23.721658625107604, 35.493007750158114 ], [ 23.716139374931331, 35.509044647217138 ], [ 23.763530472192031, 35.519852635789356 ] ] ] } }
]
}
