{
"type": "FeatureCollection",
"name": "koinoteta_demariou",
"crs": { "type": "name", "properties": { "name": "urn:ogc:def:crs:OGC:1.3:CRS84" } },
"features": [
{ "type": "Feature", "properties": { "name": "Κοινότητα Δημαρίου", "metric_roundness": 58.7, "metric_rectangularity": 68.17, "metric_mobile_fit": 81.1, "metric_aspect_ratio": 0.752, "metric_area_km2": 32.22 }, "geometry": { "type": "Polygon", "coordinates": [ [ [ 21.1643624, 39.165403599999983 ], [ 21.1613941, 39.1751395 ], [ 21.142753, 39.180565 ], [ 21.128162, 39.1714116 ], [ 21.1232105, 39.157003 ], [ 21.1212533, 39.146853 ], [ 21.1318948, 39.1362597 ], [ 21.127224, 39.124551499999988 ], [ 21.1460385, 39.123090499999989 ], [ 21.1558745, 39.126685 ], [ 21.1596141, 39.1391841 ], [ 21.1668326, 39.1492849 ], [ 21.1760918, 39.1552284 ], [ 21.176954, 39.161341 ], [ 21.1643624, 39.165403599999983 ] ] ] } }
]
}
