{
"type": "FeatureCollection",
"name": "koinoteta_panagioudas",
"crs": { "type": "name", "properties": { "name": "urn:ogc:def:crs:OGC:1.3:CRS84" } },
"features": [
{ "type": "Feature", "properties": { "name": "Κοινότητα Παναγιούδας", "metric_roundness": 46.0, "metric_rectangularity": 64.09, "metric_mobile_fit": 75.48, "metric_aspect_ratio": 0.808, "metric_area_km2": 1.38 }, "geometry": { "type": "Polygon", "coordinates": [ [ [ 26.5327095, 39.1538755 ], [ 26.5250705, 39.15141 ], [ 26.519974, 39.145463 ], [ 26.5253439, 39.1416481 ], [ 26.529641, 39.142589499999985 ], [ 26.5327095, 39.1538755 ] ] ] } }
]
}
