{
"type": "FeatureCollection",
"name": "koinoteta_mesochoriou",
"crs": { "type": "name", "properties": { "name": "urn:ogc:def:crs:OGC:1.3:CRS84" } },
"features": [
{ "type": "Feature", "properties": { "name": "Κοινότητα Μεσοχωρίου", "feature_type": "entity", "metric_roundness": 23.59, "metric_rectangularity": 59.99, "metric_mobile_fit": 99.81, "metric_aspect_ratio": 0.564, "metric_area_km2": 53.88 }, "geometry": { "type": "Polygon", "coordinates": [ [ [ 27.1174478, 35.666958799999982 ], [ 27.1185183, 35.6639327 ], [ 27.1247378, 35.6629591 ], [ 27.1201475, 35.644746499999989 ], [ 27.0960157, 35.6277719 ], [ 27.0894466, 35.626005 ], [ 27.084592, 35.6210401 ], [ 27.0861789, 35.614513499999987 ], [ 27.0667402, 35.6053499 ], [ 27.0625043, 35.5969517 ], [ 27.0672682, 35.5922311 ], [ 27.0669828, 35.5864871 ], [ 27.0776435, 35.581041699999986 ], [ 27.0749741, 35.5719565 ], [ 27.0868051, 35.5652332 ], [ 27.0907495, 35.559452 ], [ 27.0967285, 35.574036399999976 ], [ 27.110776, 35.587266499999984 ], [ 27.1171444, 35.6055494 ], [ 27.1251145, 35.613007 ], [ 27.1345313, 35.6274969 ], [ 27.1352378, 35.6382738 ], [ 27.1428095, 35.6641511 ], [ 27.1469795, 35.670206 ], [ 27.143031, 35.6732335 ], [ 27.140441, 35.6738035 ], [ 27.1375095, 35.6754125 ], [ 27.133146, 35.675985499999989 ], [ 27.130258, 35.6777285 ], [ 27.126717, 35.678665 ], [ 27.1236345, 35.681118 ], [ 27.1174478, 35.666958799999982 ] ] ] } },
{ "type": "Feature", "properties": { "name": "Κοινότητα Μεσοχωρίου", "feature_type": "circle", "metric_roundness": 23.59, "metric_rectangularity": 59.99, "metric_mobile_fit": 99.81, "metric_aspect_ratio": 0.564, "metric_area_km2": 53.88 }, "geometry": { "type": "Polygon", "coordinates": [ [ [ 27.183812121964507, 35.620308137758478 ], [ 27.183707116750252, 35.617048375142993 ], [ 27.18339238891949, 35.61379741499109 ], [ 27.182868801119319, 35.610564169594916 ], [ 27.182137788467514, 35.607357503759175 ], [ 27.181201354618935, 35.604186210473621 ], [ 27.180062066273674, 35.601058986771037 ], [ 27.17872304614189, 35.597984409837302 ], [ 27.177187964384697, 35.594970913439575 ], [ 27.17546102855448, 35.59202676473803 ], [ 27.173546972062322, 35.58916004154522 ], [ 27.171451041204019, 35.586378610096602 ], [ 27.169178980780362, 35.58369010339382 ], [ 27.166737018351057, 35.581101900181501 ], [ 27.164131847165368, 35.57862110461587 ], [ 27.161370607816441, 35.57625452668249 ], [ 27.158460868669401, 35.574008663417814 ], [ 27.155410605116991, 35.571889680987169 ], [ 27.152228177719586, 35.569903397669805 ], [ 27.148922309289482, 35.568055267798542 ], [ 27.145502060982249, 35.56635036669973 ], [ 27.141976807460768, 35.564793376675432 ], [ 27.138356211199898, 35.563388574068007 ], [ 27.134650196002333, 35.562139817443139 ], [ 27.130868919798111, 35.561050536925237 ], [ 27.127022746802492, 35.560123724714913 ], [ 27.1231222191083, 35.559361926815846 ], [ 27.119178027790831, 35.55876723599421 ], [ 27.115200983604325, 35.558341285990728 ], [ 27.111201987350462, 35.558085247001856 ], [ 27.107192, 35.557999822442866 ], [ 27.103182012649533, 35.558085247001856 ], [ 27.099183016395667, 35.558341285990728 ], [ 27.095205972209165, 35.55876723599421 ], [ 27.091261780891692, 35.559361926815846 ], [ 27.087361253197503, 35.560123724714913 ], [ 27.083515080201881, 35.561050536925237 ], [ 27.079733803997662, 35.562139817443139 ], [ 27.076027788800097, 35.563388574068007 ], [ 27.072407192539224, 35.564793376675432 ], [ 27.068881939017746, 35.56635036669973 ], [ 27.065461690710514, 35.568055267798542 ], [ 27.062155822280406, 35.569903397669805 ], [ 27.058973394883008, 35.571889680987169 ], [ 27.055923131330594, 35.574008663417814 ], [ 27.053013392183555, 35.57625452668249 ], [ 27.050252152834624, 35.57862110461587 ], [ 27.047646981648938, 35.581101900181501 ], [ 27.04520501921963, 35.58369010339382 ], [ 27.042932958795973, 35.586378610096602 ], [ 27.04083702793767, 35.58916004154522 ], [ 27.038922971445512, 35.59202676473803 ], [ 27.037196035615295, 35.594970913439575 ], [ 27.035660953858102, 35.597984409837302 ], [ 27.034321933726318, 35.601058986771037 ], [ 27.033182645381057, 35.604186210473621 ], [ 27.032246211532478, 35.607357503759175 ], [ 27.031515198880676, 35.610564169594916 ], [ 27.030991611080502, 35.61379741499109 ], [ 27.03067688324974, 35.617048375142993 ], [ 27.030571878035488, 35.620308137758478 ], [ 27.03067688324974, 35.623567767503886 ], [ 27.030991611080502, 35.626818330501337 ], [ 27.031515198880676, 35.630050918809992 ], [ 27.032246211532478, 35.633256674824338 ], [ 27.033182645381057, 35.636426815522825 ], [ 27.034321933726318, 35.639552656500683 ], [ 27.035660953858102, 35.642625635721451 ], [ 27.037196035615295, 35.645637336922874 ], [ 27.038922971445512, 35.64857951261336 ], [ 27.04083702793767, 35.651444106597076 ], [ 27.042932958795973, 35.65422327596665 ], [ 27.04520501921963, 35.656909412504262 ], [ 27.047646981648938, 35.659495163433313 ], [ 27.050252152834624, 35.661973451465343 ], [ 27.053013392183555, 35.664337494087832 ], [ 27.055923131330594, 35.666580822041723 ], [ 27.058973394883004, 35.668697296939115 ], [ 27.062155822280406, 35.670681127973779 ], [ 27.065461690710514, 35.672526887680611 ], [ 27.068881939017746, 35.674229526701289 ], [ 27.072407192539224, 35.67578438751751 ], [ 27.076027788800097, 35.677187217114962 ], [ 27.079733803997662, 35.678434178544656 ], [ 27.083515080201881, 35.6795218613507 ], [ 27.087361253197503, 35.680447290837314 ], [ 27.091261780891692, 35.681207936150209 ], [ 27.095205972209165, 35.681801717151203 ], [ 27.099183016395667, 35.682227010067727 ], [ 27.103182012649533, 35.682482651902475 ], [ 27.107192, 35.682567943591536 ], [ 27.111201987350462, 35.682482651902475 ], [ 27.115200983604325, 35.682227010067727 ], [ 27.119178027790831, 35.681801717151203 ], [ 27.1231222191083, 35.681207936150209 ], [ 27.127022746802492, 35.680447290837314 ], [ 27.130868919798111, 35.6795218613507 ], [ 27.134650196002333, 35.678434178544656 ], [ 27.138356211199898, 35.677187217114962 ], [ 27.141976807460768, 35.67578438751751 ], [ 27.145502060982249, 35.674229526701289 ], [ 27.148922309289482, 35.672526887680611 ], [ 27.152228177719586, 35.670681127973779 ], [ 27.155410605116987, 35.668697296939115 ], [ 27.158460868669401, 35.666580822041723 ], [ 27.161370607816441, 35.664337494087832 ], [ 27.164131847165368, 35.661973451465343 ], [ 27.166737018351057, 35.659495163433313 ], [ 27.169178980780362, 35.656909412504262 ], [ 27.171451041204019, 35.65422327596665 ], [ 27.173546972062322, 35.651444106597076 ], [ 27.17546102855448, 35.64857951261336 ], [ 27.177187964384697, 35.645637336922874 ], [ 27.17872304614189, 35.642625635721451 ], [ 27.180062066273674, 35.639552656500683 ], [ 27.181201354618935, 35.636426815522825 ], [ 27.182137788467514, 35.633256674824338 ], [ 27.182868801119319, 35.630050918809992 ], [ 27.18339238891949, 35.626818330501337 ], [ 27.183707116750252, 35.623567767503886 ], [ 27.183812121964507, 35.620308137758478 ] ] ] } },
{ "type": "Feature", "properties": { "name": "Κοινότητα Μεσοχωρίου", "feature_type": "mrr", "metric_roundness": 23.59, "metric_rectangularity": 59.99, "metric_mobile_fit": 99.81, "metric_aspect_ratio": 0.564, "metric_area_km2": 53.88 }, "geometry": { "type": "Polygon", "coordinates": [ [ [ 27.165135472825902, 35.662716839604663 ], [ 27.0907495, 35.559452 ], [ 27.048261594954266, 35.579691387452968 ], [ 27.122647567664753, 35.682930111551606 ], [ 27.165135472825902, 35.662716839604663 ] ] ] } }
]
}
