{
"type": "FeatureCollection",
"name": "koinoteta_melitaias",
"crs": { "type": "name", "properties": { "name": "urn:ogc:def:crs:OGC:1.3:CRS84" } },
"features": [
{ "type": "Feature", "properties": { "name": "Κοινότητα Μελιταίας", "metric_roundness": 43.86, "metric_rectangularity": 70.66, "metric_mobile_fit": 91.87, "metric_aspect_ratio": 0.644, "metric_area_km2": 37.66 }, "geometry": { "type": "Polygon", "coordinates": [ [ [ 22.4723745, 39.009648 ], [ 22.482878, 39.038307400000015 ], [ 22.4762562, 39.0442195 ], [ 22.4760535, 39.048718 ], [ 22.4556412, 39.0686605 ], [ 22.444204, 39.0709425 ], [ 22.4289576, 39.072896299999989 ], [ 22.4266172, 39.069685799999988 ], [ 22.426358, 39.0611345 ], [ 22.4327811, 39.033501699999988 ], [ 22.4478259, 39.0221637 ], [ 22.4522146, 39.0110231 ], [ 22.4624035, 39.0047075 ], [ 22.4723745, 39.009648 ] ] ] } }
]
}
