{
"type": "FeatureCollection",
"name": "koinoteta_askou",
"crs": { "type": "name", "properties": { "name": "urn:ogc:def:crs:OGC:1.3:CRS84" } },
"features": [
{ "type": "Feature", "properties": { "name": "Κοινότητα Ασκού", "feature_type": "entity", "metric_roundness": 45.18, "metric_rectangularity": 53.5, "metric_mobile_fit": 56.74, "metric_aspect_ratio": 0.995, "metric_area_km2": 123.1 }, "geometry": { "type": "Polygon", "coordinates": [ [ [ 23.4173829, 40.7788685 ], [ 23.4033306, 40.783465799999988 ], [ 23.3831027, 40.785390799999988 ], [ 23.3656263, 40.778765699999987 ], [ 23.3579621, 40.7926995 ], [ 23.3435891, 40.784328199999983 ], [ 23.336182, 40.7698634 ], [ 23.324501, 40.765671 ], [ 23.2969362, 40.747409 ], [ 23.2998109, 40.730144 ], [ 23.3199715, 40.7221535 ], [ 23.3566586, 40.729569 ], [ 23.3716333, 40.7225256 ], [ 23.3772374, 40.7162985 ], [ 23.3861742, 40.7157708 ], [ 23.388433, 40.7099905 ], [ 23.381946, 40.690842799999977 ], [ 23.402329, 40.6813435 ], [ 23.405128, 40.679902 ], [ 23.3985257, 40.6981645 ], [ 23.4093357, 40.7178855 ], [ 23.4146728, 40.723068399999988 ], [ 23.442333, 40.730837 ], [ 23.4265487, 40.7314535 ], [ 23.4268487, 40.7472957 ], [ 23.4203308, 40.7638357 ], [ 23.4247848, 40.768799699999988 ], [ 23.434928, 40.7660698 ], [ 23.4450675, 40.780374499999986 ], [ 23.4173829, 40.7788685 ] ] ] } },
{ "type": "Feature", "properties": { "name": "Κοινότητα Ασκού", "feature_type": "circle", "metric_roundness": 45.18, "metric_rectangularity": 53.5, "metric_mobile_fit": 56.74, "metric_aspect_ratio": 0.995, "metric_area_km2": 123.1 }, "geometry": { "type": "Polygon", "coordinates": [ [ [ 23.463779964282562, 40.740427363769648 ], [ 23.463665288735111, 40.737109212397741 ], [ 23.463321576410472, 40.733799991016795 ], [ 23.462749769400226, 40.730508772007553 ], [ 23.461951434987647, 40.727244579737409 ], [ 23.460928761351866, 40.724016365788302 ], [ 23.459684551570234, 40.720832984370055 ], [ 23.45822221593528, 40.71770316798689 ], [ 23.456545762607337, 40.714635503424681 ], [ 23.45465978662844, 40.711638408125545 ], [ 23.452569457327659, 40.708720107015601 ], [ 23.450280504152314, 40.705888609850362 ], [ 23.447799200963942, 40.703151689141158 ], [ 23.445132348842133, 40.700516858724455 ], [ 23.442287257443159, 40.697991353034098 ], [ 23.439271724964797, 40.695582107134726 ], [ 23.436094016771953, 40.69329573757274 ], [ 23.432762842741916, 40.691138524098726 ], [ 23.429287333391148, 40.689116392313039 ], [ 23.425677014849203, 40.687234897283567 ], [ 23.421941782748252, 40.685499208182307 ], [ 23.418091875099854, 40.683914093984207 ], [ 23.414137844233263, 40.682483910269021 ], [ 23.410090527872256, 40.681212587163643 ], [ 23.405961019429636, 40.680103618459356 ], [ 23.401760637601019, 40.679160051935028 ], [ 23.397500895341022, 40.678384480913898 ], [ 23.393193468307096, 40.677779037077904 ], [ 23.388850162857331, 40.677345384560418 ], [ 23.384482883690072, 40.677084715333933 ], [ 23.380103601213946, 40.676997745906171 ], [ 23.37572431873782, 40.677084715333933 ], [ 23.371357039570558, 40.677345384560418 ], [ 23.367013734120796, 40.677779037077904 ], [ 23.362706307086871, 40.678384480913898 ], [ 23.358446564826878, 40.679160051935028 ], [ 23.354246182998253, 40.680103618459356 ], [ 23.350116674555636, 40.681212587163643 ], [ 23.346069358194626, 40.682483910269021 ], [ 23.342115327328038, 40.683914093984207 ], [ 23.338265419679637, 40.685499208182307 ], [ 23.334530187578686, 40.687234897283567 ], [ 23.330919869036745, 40.689116392313039 ], [ 23.327444359685973, 40.691138524098726 ], [ 23.324113185655936, 40.69329573757274 ], [ 23.320935477463099, 40.695582107134726 ], [ 23.317919944984737, 40.697991353034098 ], [ 23.315074853585763, 40.700516858724455 ], [ 23.312408001463947, 40.703151689141158 ], [ 23.309926698275582, 40.705888609850362 ], [ 23.307637745100234, 40.708720107015601 ], [ 23.305547415799452, 40.711638408125545 ], [ 23.303661439820559, 40.714635503424681 ], [ 23.301984986492609, 40.71770316798689 ], [ 23.300522650857655, 40.720832984370055 ], [ 23.299278441076027, 40.724016365788302 ], [ 23.298255767440246, 40.727244579737409 ], [ 23.297457433027667, 40.730508772007553 ], [ 23.296885626017421, 40.733799991016795 ], [ 23.296541913692778, 40.737109212397741 ], [ 23.296427238145327, 40.740427363769648 ], [ 23.296541913692778, 40.74374534962751 ], [ 23.296885626017421, 40.747054076279746 ], [ 23.297457433027667, 40.750344476765967 ], [ 23.298255767440246, 40.753607535686719 ], [ 23.299278441076027, 40.756834313877256 ], [ 23.300522650857655, 40.760015972858263 ], [ 23.301984986492609, 40.763143798996921 ], [ 23.303661439820559, 40.766209227312928 ], [ 23.305547415799452, 40.769203864864942 ], [ 23.307637745100234, 40.772119513654467 ], [ 23.309926698275582, 40.774948192985399 ], [ 23.312408001463947, 40.777682161219204 ], [ 23.315074853585763, 40.780313936867358 ], [ 23.317919944984734, 40.782836318964733 ], [ 23.320935477463099, 40.785242406669418 ], [ 23.324113185655936, 40.787525618036852 ], [ 23.327444359685973, 40.789679707918303 ], [ 23.330919869036745, 40.791698784936131 ], [ 23.334530187578686, 40.793577327491121 ], [ 23.338265419679637, 40.795310198759189 ], [ 23.342115327328038, 40.796892660638122 ], [ 23.346069358194626, 40.798320386607536 ], [ 23.350116674555636, 40.799589473468075 ], [ 23.354246182998253, 40.800696451929198 ], [ 23.358446564826878, 40.801638296017536 ], [ 23.362706307086871, 40.802412431281219 ], [ 23.367013734120796, 40.803016741768722 ], [ 23.371357039570558, 40.803449575763871 ], [ 23.37572431873782, 40.803709750262094 ], [ 23.380103601213946, 40.803796554175953 ], [ 23.384482883690072, 40.803709750262094 ], [ 23.388850162857331, 40.803449575763871 ], [ 23.393193468307096, 40.803016741768722 ], [ 23.397500895341022, 40.802412431281219 ], [ 23.401760637601019, 40.801638296017536 ], [ 23.405961019429636, 40.800696451929198 ], [ 23.410090527872256, 40.799589473468075 ], [ 23.414137844233263, 40.798320386607536 ], [ 23.418091875099854, 40.796892660638122 ], [ 23.421941782748252, 40.795310198759189 ], [ 23.425677014849203, 40.793577327491121 ], [ 23.429287333391148, 40.791698784936131 ], [ 23.432762842741916, 40.789679707918303 ], [ 23.436094016771953, 40.787525618036852 ], [ 23.439271724964797, 40.785242406669418 ], [ 23.442287257443152, 40.782836318964733 ], [ 23.445132348842133, 40.780313936867358 ], [ 23.447799200963942, 40.777682161219204 ], [ 23.450280504152314, 40.774948192985399 ], [ 23.452569457327659, 40.772119513654467 ], [ 23.45465978662844, 40.769203864864942 ], [ 23.456545762607337, 40.766209227312928 ], [ 23.45822221593528, 40.763143798996921 ], [ 23.459684551570234, 40.760015972858263 ], [ 23.460928761351866, 40.756834313877256 ], [ 23.461951434987647, 40.753607535686719 ], [ 23.462749769400226, 40.750344476765967 ], [ 23.463321576410472, 40.747054076279746 ], [ 23.463665288735111, 40.74374534962751 ], [ 23.463779964282562, 40.740427363769648 ] ] ] } },
{ "type": "Feature", "properties": { "name": "Κοινότητα Ασκού", "feature_type": "mrr", "metric_roundness": 45.18, "metric_rectangularity": 53.5, "metric_mobile_fit": 56.74, "metric_aspect_ratio": 0.995, "metric_area_km2": 123.1 }, "geometry": { "type": "Polygon", "coordinates": [ [ [ 23.405128, 40.679902 ], [ 23.287190041396737, 40.73554442093544 ], [ 23.357820661594261, 40.82147937123063 ], [ 23.475758618143928, 40.765908843339474 ], [ 23.405128, 40.679902 ] ] ] } }
]
}
