{
"type": "FeatureCollection",
"name": "koinoteta_niphoraiikon",
"crs": { "type": "name", "properties": { "name": "urn:ogc:def:crs:OGC:1.3:CRS84" } },
"features": [
{ "type": "Feature", "properties": { "name": "Κοινότητα Νιφοραιίκων", "metric_roundness": 56.55, "metric_rectangularity": 69.91, "metric_mobile_fit": 76.64, "metric_aspect_ratio": 0.796, "metric_area_km2": 12.79 }, "geometry": { "type": "Polygon", "coordinates": [ [ [ 21.5270787, 38.1421152 ], [ 21.537548, 38.1550255 ], [ 21.5313621, 38.1552739 ], [ 21.51466, 38.162479499999989 ], [ 21.5025374, 38.147693899999986 ], [ 21.4994965, 38.1386015 ], [ 21.5179247, 38.124887099999988 ], [ 21.52912, 38.126606 ], [ 21.5270787, 38.1421152 ] ] ] } }
]
}
