{
"type": "FeatureCollection",
"name": "koinoteta_lagobouniou",
"crs": { "type": "name", "properties": { "name": "urn:ogc:def:crs:OGC:1.3:CRS84" } },
"features": [
{ "type": "Feature", "properties": { "name": "Κοινότητα Λαγοβουνίου", "metric_roundness": 37.41, "metric_rectangularity": 60.05, "metric_mobile_fit": 89.22, "metric_aspect_ratio": 0.67, "metric_area_km2": 9.88 }, "geometry": { "type": "Polygon", "coordinates": [ [ [ 22.072278, 37.958715 ], [ 22.0680037, 37.965721799999983 ], [ 22.0684302, 37.9716217 ], [ 22.0530815, 37.9846055 ], [ 22.0502465, 37.972710499999984 ], [ 22.047627, 37.9715575 ], [ 22.0446735, 37.9698825 ], [ 22.039634, 37.9657805 ], [ 22.0464451, 37.9642565 ], [ 22.051926, 37.9554745 ], [ 22.0567996, 37.949408599999984 ], [ 22.0715845, 37.9462125 ], [ 22.072278, 37.958715 ] ] ] } }
]
}
