{
"type": "FeatureCollection",
"name": "koinoteta_skoutarou",
"crs": { "type": "name", "properties": { "name": "urn:ogc:def:crs:OGC:1.3:CRS84" } },
"features": [
{ "type": "Feature", "properties": { "name": "Κοινότητα Σκουτάρου", "metric_roundness": 62.63, "metric_rectangularity": 70.47, "metric_mobile_fit": 83.85, "metric_aspect_ratio": 0.724, "metric_area_km2": 21.14 }, "geometry": { "type": "Polygon", "coordinates": [ [ [ 26.1159368, 39.2949126 ], [ 26.1284301, 39.2792621 ], [ 26.139699, 39.2762594 ], [ 26.1512085, 39.2769135 ], [ 26.157678, 39.2888349 ], [ 26.157563, 39.305574 ], [ 26.1491797, 39.311660199999984 ], [ 26.1523092, 39.3193141 ], [ 26.1496505, 39.3211475 ], [ 26.1332988, 39.3149908 ], [ 26.1280491, 39.3090602 ], [ 26.1156815, 39.3058565 ], [ 26.1159368, 39.2949126 ] ] ] } }
]
}
