{
"type": "FeatureCollection",
"name": "koinoteta_molykreiou",
"crs": { "type": "name", "properties": { "name": "urn:ogc:def:crs:OGC:1.3:CRS84" } },
"features": [
{ "type": "Feature", "properties": { "name": "Κοινότητα Μολυκρείου", "feature_type": "entity", "metric_roundness": 57.73, "metric_rectangularity": 68.8, "metric_mobile_fit": 68.05, "metric_aspect_ratio": 0.882, "metric_area_km2": 21.97 }, "geometry": { "type": "Polygon", "coordinates": [ [ [ 21.7560707, 38.3825672 ], [ 21.7515962, 38.3901629 ], [ 21.746391, 38.392165 ], [ 21.7344271, 38.3710352 ], [ 21.7338688, 38.3615877 ], [ 21.7371179, 38.353945 ], [ 21.735106, 38.3496435 ], [ 21.7423786, 38.3473253 ], [ 21.754543, 38.351325799999984 ], [ 21.774168, 38.3492355 ], [ 21.7843115, 38.369122499999982 ], [ 21.77773, 38.372601 ], [ 21.7745985, 38.3731605 ], [ 21.772979, 38.374159 ], [ 21.7560707, 38.3825672 ] ] ] } },
{ "type": "Feature", "properties": { "name": "Κοινότητα Μολυκρείου", "feature_type": "circle", "metric_roundness": 57.73, "metric_rectangularity": 68.8, "metric_mobile_fit": 68.05, "metric_aspect_ratio": 0.882, "metric_area_km2": 21.97 }, "geometry": { "type": "Polygon", "coordinates": [ [ [ 21.786235255967615, 38.368588642369367 ], [ 21.786192397395443, 38.367305400527869 ], [ 21.786063939151283, 38.366025653303382 ], [ 21.785850233330258, 38.364752908673672 ], [ 21.785551865685175, 38.363490655605716 ], [ 21.785169654021001, 38.362242354487655 ], [ 21.78470464595334, 38.361011427636981 ], [ 21.784158116036991, 38.359801249911449 ], [ 21.783531562272461, 38.358615139448041 ], [ 21.782826702000069, 38.357456348555964 ], [ 21.782045467192827, 38.356328054788413 ], [ 21.781189999161032, 38.355233352217894 ], [ 21.780262642683102, 38.354175242939228 ], [ 21.779265939578689, 38.353156628823569 ], [ 21.778202621741716, 38.35218030354627 ], [ 21.777075603652467, 38.351248944910765 ], [ 21.775887974389175, 38.350365107489559 ], [ 21.774642989161116, 38.349531215602781 ], [ 21.77334406038625, 38.348749556653772 ], [ 21.77199474833807, 38.348022274840119 ], [ 21.770598751387109, 38.34735136525768 ], [ 21.769159895863968, 38.346738668413963 ], [ 21.767682125571628, 38.346185865165879 ], [ 21.766169490975741, 38.345694472096312 ], [ 21.764626138102596, 38.34526583734209 ], [ 21.763056297175137, 38.344901136884893 ], [ 21.761464271018223, 38.34460137131579 ], [ 21.759854423264901, 38.344367363081965 ], [ 21.758231166395955, 38.344199754223553 ], [ 21.756598949645632, 38.344099004606925 ], [ 21.754962246806599, 38.344065390659061 ], [ 21.753325543967563, 38.344099004606925 ], [ 21.751693327217239, 38.344199754223553 ], [ 21.750070070348297, 38.344367363081965 ], [ 21.748460222594968, 38.34460137131579 ], [ 21.746868196438058, 38.344901136884893 ], [ 21.745298355510599, 38.34526583734209 ], [ 21.74375500263745, 38.345694472096312 ], [ 21.742242368041566, 38.346185865165879 ], [ 21.740764597749227, 38.346738668413963 ], [ 21.739325742226086, 38.34735136525768 ], [ 21.737929745275125, 38.348022274840119 ], [ 21.736580433226944, 38.348749556653772 ], [ 21.735281504452079, 38.349531215602781 ], [ 21.73403651922402, 38.350365107489559 ], [ 21.732848889960731, 38.351248944910765 ], [ 21.731721871871478, 38.35218030354627 ], [ 21.730658554034505, 38.353156628823569 ], [ 21.729661850930093, 38.354175242939228 ], [ 21.728734494452162, 38.355233352217894 ], [ 21.727879026420368, 38.356328054788413 ], [ 21.727097791613126, 38.357456348555964 ], [ 21.726392931340733, 38.358615139448041 ], [ 21.725766377576203, 38.359801249911449 ], [ 21.725219847659854, 38.361011427636981 ], [ 21.724754839592197, 38.362242354487655 ], [ 21.724372627928023, 38.363490655605716 ], [ 21.724074260282933, 38.364752908673672 ], [ 21.723860554461908, 38.366025653303382 ], [ 21.723732096217752, 38.367305400527869 ], [ 21.72368923764558, 38.368588642369367 ], [ 21.723732096217752, 38.369871861457462 ], [ 21.723860554461908, 38.371151540671057 ], [ 21.724074260282933, 38.372424172777521 ], [ 21.724372627928023, 38.373686270042676 ], [ 21.724754839592197, 38.374934373785429 ], [ 21.725219847659854, 38.376165063850742 ], [ 21.725766377576203, 38.377374967975157 ], [ 21.726392931340733, 38.378560771019316 ], [ 21.727097791613126, 38.379719224042148 ], [ 21.727879026420368, 38.380847153192256 ], [ 21.728734494452162, 38.381941468391915 ], [ 21.729661850930093, 38.382999171790452 ], [ 21.730658554034505, 38.384017365963622 ], [ 21.731721871871478, 38.384993261837032 ], [ 21.732848889960731, 38.385924186311897 ], [ 21.73403651922402, 38.386807589572463 ], [ 21.735281504452079, 38.387641052055358 ], [ 21.736580433226944, 38.388422291061886 ], [ 21.737929745275125, 38.389149166995438 ], [ 21.739325742226086, 38.389819689207037 ], [ 21.740764597749227, 38.390432021433341 ], [ 21.742242368041566, 38.390984486812201 ], [ 21.74375500263745, 38.391475572462546 ], [ 21.745298355510599, 38.391903933615687 ], [ 21.746868196438058, 38.392268397287552 ], [ 21.748460222594968, 38.392567965481355 ], [ 21.750070070348297, 38.392801817912435 ], [ 21.751693327217239, 38.392969314247587 ], [ 21.753325543967563, 38.393069995853331 ], [ 21.754962246806599, 38.393103587047797 ], [ 21.756598949645632, 38.393069995853331 ], [ 21.758231166395955, 38.392969314247587 ], [ 21.759854423264901, 38.392801817912435 ], [ 21.761464271018223, 38.392567965481355 ], [ 21.763056297175137, 38.392268397287552 ], [ 21.764626138102596, 38.391903933615687 ], [ 21.766169490975741, 38.391475572462546 ], [ 21.767682125571628, 38.390984486812201 ], [ 21.769159895863968, 38.390432021433341 ], [ 21.770598751387109, 38.389819689207037 ], [ 21.77199474833807, 38.389149166995438 ], [ 21.77334406038625, 38.388422291061886 ], [ 21.774642989161116, 38.387641052055358 ], [ 21.775887974389175, 38.386807589572463 ], [ 21.777075603652467, 38.385924186311897 ], [ 21.778202621741716, 38.384993261837032 ], [ 21.779265939578689, 38.384017365963622 ], [ 21.780262642683102, 38.382999171790452 ], [ 21.781189999161032, 38.381941468391915 ], [ 21.782045467192827, 38.380847153192256 ], [ 21.782826702000069, 38.379719224042148 ], [ 21.783531562272461, 38.378560771019316 ], [ 21.784158116036991, 38.377374967975157 ], [ 21.78470464595334, 38.376165063850742 ], [ 21.785169654021001, 38.374934373785429 ], [ 21.785551865685175, 38.373686270042676 ], [ 21.785850233330258, 38.372424172777521 ], [ 21.786063939151283, 38.371151540671057 ], [ 21.786192397395443, 38.369871861457462 ], [ 21.786235255967615, 38.368588642369367 ] ] ] } },
{ "type": "Feature", "properties": { "name": "Κοινότητα Μολυκρείου", "feature_type": "mrr", "metric_roundness": 57.73, "metric_rectangularity": 68.8, "metric_mobile_fit": 68.05, "metric_aspect_ratio": 0.882, "metric_area_km2": 21.97 }, "geometry": { "type": "Polygon", "coordinates": [ [ [ 21.768811314763486, 38.338899027227491 ], [ 21.72500709679964, 38.352862477464768 ], [ 21.745525832659371, 38.392440605692364 ], [ 21.789330050623217, 38.378484789639344 ], [ 21.768811314763486, 38.338899027227491 ] ] ] } }
]
}
