{
"type": "FeatureCollection",
"name": "koinoteta_peribolion_kissamou",
"crs": { "type": "name", "properties": { "name": "urn:ogc:def:crs:OGC:1.3:CRS84" } },
"features": [
{ "type": "Feature", "properties": { "name": "Κοινότητα Περιβολίων Κισσάμου", "metric_roundness": 54.88, "metric_rectangularity": 70.81, "metric_mobile_fit": 65.58, "metric_aspect_ratio": 0.907, "metric_area_km2": 6.54 }, "geometry": { "type": "Polygon", "coordinates": [ [ [ 23.6197675, 35.3435925 ], [ 23.6225105, 35.343926499999981 ], [ 23.6281925, 35.34383 ], [ 23.615674, 35.367707 ], [ 23.603388, 35.361811 ], [ 23.6054231, 35.359925499999989 ], [ 23.6005871, 35.3487907 ], [ 23.6030767, 35.3432001 ], [ 23.6180125, 35.3428755 ], [ 23.6197675, 35.3435925 ] ] ] } }
]
}
