{
"type": "FeatureCollection",
"name": "koinoteta_simiza",
"crs": { "type": "name", "properties": { "name": "urn:ogc:def:crs:OGC:1.3:CRS84" } },
"features": [
{ "type": "Feature", "properties": { "name": "Κοινότητα Σιμίζα", "feature_type": "entity", "metric_roundness": 46.18, "metric_rectangularity": 68.2, "metric_mobile_fit": 29.9, "metric_aspect_ratio": 1.263, "metric_area_km2": 10.76 }, "geometry": { "type": "Polygon", "coordinates": [ [ [ 21.4213131, 37.9232864 ], [ 21.40356, 37.931938499999987 ], [ 21.3956371, 37.9341272 ], [ 21.386964, 37.9305455 ], [ 21.378474, 37.9263 ], [ 21.3846229, 37.921684499999976 ], [ 21.3791927, 37.9153002 ], [ 21.4006882, 37.914423799999987 ], [ 21.41515, 37.909032 ], [ 21.418704, 37.9083535 ], [ 21.421125, 37.9073805 ], [ 21.4213131, 37.9232864 ] ] ] } },
{ "type": "Feature", "properties": { "name": "Κοινότητα Σιμίζα", "feature_type": "circle", "metric_roundness": 46.18, "metric_rectangularity": 68.2, "metric_mobile_fit": 29.9, "metric_aspect_ratio": 1.263, "metric_area_km2": 10.76 }, "geometry": { "type": "Polygon", "coordinates": [ [ [ 21.424265012069551, 37.916840858298549 ], [ 21.424231482935546, 37.915830718840517 ], [ 21.424130987434562, 37.914823334289473 ], [ 21.423963801017781, 37.913821465986878 ], [ 21.423730381931549, 37.912827860266027 ], [ 21.423431369961364, 37.911845240921423 ], [ 21.423067584678243, 37.910876301738767 ], [ 21.422640023192365, 37.909923699106074 ], [ 21.422149857420038, 37.908990044726217 ], [ 21.421598430871576, 37.908077898450856 ], [ 21.420987254968825, 37.907189761255687 ], [ 21.420318004902445, 37.906328068376183 ], [ 21.419592515040353, 37.905495182622694 ], [ 21.418812773899827, 37.904693387893623 ], [ 21.41798091869714, 37.903924882904207 ], [ 21.41709922948958, 37.903191775148521 ], [ 21.416170122925976, 37.902496075111131 ], [ 21.415196145622843, 37.901839690744701 ], [ 21.414179967184264, 37.901224422228388 ], [ 21.41312437288471, 37.900651957022006 ], [ 21.412032256034774, 37.900123865229212 ], [ 21.410906610050841, 37.899641595282901 ], [ 21.409750520250299, 37.899206469964462 ], [ 21.408567155394941, 37.898819682768156 ], [ 21.407359759005576, 37.898482294620564 ], [ 21.406131640471784, 37.898195230964234 ], [ 21.404886165981104, 37.89795927921358 ], [ 21.403626749292538, 37.897775086590173 ], [ 21.402356842379685, 37.897643158343307 ], [ 21.401079925969132, 37.897563856360868 ], [ 21.3997995, 37.897537398174386 ], [ 21.398519074030869, 37.897563856360868 ], [ 21.397242157620315, 37.897643158343307 ], [ 21.395972250707466, 37.897775086590173 ], [ 21.394712834018897, 37.89795927921358 ], [ 21.393467359528216, 37.898195230964234 ], [ 21.392239240994428, 37.898482294620564 ], [ 21.39103184460506, 37.898819682768156 ], [ 21.389848479749702, 37.899206469964462 ], [ 21.388692389949163, 37.899641595282901 ], [ 21.38756674396523, 37.900123865229212 ], [ 21.386474627115295, 37.900651957022006 ], [ 21.385419032815737, 37.901224422228388 ], [ 21.384402854377157, 37.901839690744701 ], [ 21.383428877074024, 37.902496075111131 ], [ 21.382499770510421, 37.903191775148521 ], [ 21.381618081302861, 37.903924882904207 ], [ 21.380786226100174, 37.904693387893623 ], [ 21.380006484959651, 37.905495182622694 ], [ 21.379280995097556, 37.906328068376183 ], [ 21.378611745031176, 37.907189761255687 ], [ 21.378000569128425, 37.908077898450856 ], [ 21.377449142579966, 37.908990044726217 ], [ 21.376958976807639, 37.909923699106074 ], [ 21.376531415321757, 37.910876301738767 ], [ 21.376167630038641, 37.911845240921423 ], [ 21.375868618068452, 37.912827860266027 ], [ 21.37563519898222, 37.913821465986878 ], [ 21.375468012565438, 37.914823334289473 ], [ 21.375367517064454, 37.915830718840517 ], [ 21.375333987930453, 37.916840858298549 ], [ 21.375367517064454, 37.917850983884421 ], [ 21.375468012565438, 37.918858326970962 ], [ 21.37563519898222, 37.919860126671011 ], [ 21.375868618068452, 37.920853637402885 ], [ 21.376167630038641, 37.921836136412836 ], [ 21.376531415321757, 37.922804931233522 ], [ 21.376958976807639, 37.92375736705862 ], [ 21.377449142579966, 37.924690834012843 ], [ 21.378000569128425, 37.925602774297992 ], [ 21.378611745031176, 37.926490689195234 ], [ 21.379280995097556, 37.927352145904656 ], [ 21.380006484959651, 37.928184784203431 ], [ 21.380786226100174, 37.928986322904315 ], [ 21.381618081302861, 37.929754566097181 ], [ 21.382499770510421, 37.93048740915625 ], [ 21.383428877074024, 37.931182844497016 ], [ 21.384402854377157, 37.931838967066888 ], [ 21.385419032815737, 37.932453979555021 ], [ 21.386474627115295, 37.933026197306702 ], [ 21.38756674396523, 37.933554052929416 ], [ 21.388692389949163, 37.934036100577821 ], [ 21.389848479749702, 37.934471019906056 ], [ 21.39103184460506, 37.934857619676734 ], [ 21.392239240994428, 37.935194841016745 ], [ 21.393467359528216, 37.93548176031112 ], [ 21.394712834018897, 37.935717591727112 ], [ 21.395972250707466, 37.93590168936155 ], [ 21.397242157620315, 37.936033549005884 ], [ 21.398519074030869, 37.936112809523827 ], [ 21.3997995, 37.936139253838149 ], [ 21.401079925969132, 37.936112809523827 ], [ 21.402356842379685, 37.936033549005884 ], [ 21.403626749292538, 37.93590168936155 ], [ 21.404886165981104, 37.935717591727112 ], [ 21.406131640471784, 37.93548176031112 ], [ 21.407359759005576, 37.935194841016745 ], [ 21.408567155394941, 37.934857619676734 ], [ 21.409750520250299, 37.934471019906056 ], [ 21.410906610050841, 37.934036100577821 ], [ 21.412032256034774, 37.933554052929416 ], [ 21.41312437288471, 37.933026197306702 ], [ 21.414179967184264, 37.932453979555021 ], [ 21.415196145622843, 37.931838967066888 ], [ 21.416170122925976, 37.931182844497016 ], [ 21.41709922948958, 37.93048740915625 ], [ 21.41798091869714, 37.929754566097181 ], [ 21.418812773899827, 37.928986322904315 ], [ 21.419592515040353, 37.928184784203431 ], [ 21.420318004902445, 37.927352145904656 ], [ 21.420987254968825, 37.926490689195234 ], [ 21.421598430871576, 37.925602774297992 ], [ 21.422149857420038, 37.924690834012843 ], [ 21.422640023192365, 37.92375736705862 ], [ 21.423067584678243, 37.922804931233522 ], [ 21.423431369961364, 37.921836136412836 ], [ 21.423730381931549, 37.920853637402885 ], [ 21.423963801017781, 37.919860126671011 ], [ 21.424130987434562, 37.918858326970962 ], [ 21.424231482935546, 37.917850983884421 ], [ 21.424265012069551, 37.916840858298549 ] ] ] } },
{ "type": "Feature", "properties": { "name": "Κοινότητα Σιμίζα", "feature_type": "mrr", "metric_roundness": 46.18, "metric_rectangularity": 68.2, "metric_mobile_fit": 29.9, "metric_aspect_ratio": 1.263, "metric_area_km2": 10.76 }, "geometry": { "type": "Polygon", "coordinates": [ [ [ 21.421125, 37.9073805 ], [ 21.375355862711434, 37.916024821459523 ], [ 21.381651051570245, 37.936767866791314 ], [ 21.427420186880148, 37.928125989204872 ], [ 21.421125, 37.9073805 ] ] ] } }
]
}
