{
"type": "FeatureCollection",
"name": "koinoteta_riolou",
"crs": { "type": "name", "properties": { "name": "urn:ogc:def:crs:OGC:1.3:CRS84" } },
"features": [
{ "type": "Feature", "properties": { "name": "Κοινότητα Ριόλου", "feature_type": "entity", "metric_roundness": 34.09, "metric_rectangularity": 70.39, "metric_mobile_fit": 36.87, "metric_aspect_ratio": 1.194, "metric_area_km2": 19.2 }, "geometry": { "type": "Polygon", "coordinates": [ [ [ 21.4322215, 38.092579 ], [ 21.4287405, 38.092913 ], [ 21.4261235, 38.0902725 ], [ 21.4229425, 38.0876895 ], [ 21.4357185, 38.064479 ], [ 21.4391325, 38.062851 ], [ 21.4440232, 38.062742699999987 ], [ 21.4523386, 38.0545419 ], [ 21.4635008, 38.0505683 ], [ 21.487158, 38.0555515 ], [ 21.4635725, 38.072928 ], [ 21.446953, 38.0888817 ], [ 21.438577, 38.091528 ], [ 21.4322215, 38.092579 ] ] ] } },
{ "type": "Feature", "properties": { "name": "Κοινότητα Ριόλου", "feature_type": "circle", "metric_roundness": 34.09, "metric_rectangularity": 70.39, "metric_mobile_fit": 36.87, "metric_aspect_ratio": 1.194, "metric_area_km2": 19.2 }, "geometry": { "type": "Polygon", "coordinates": [ [ [ 21.493096923754138, 38.071622265035998 ], [ 21.493044782110051, 38.070054687761349 ], [ 21.49288850009442, 38.068491373652066 ], [ 21.492628506065383, 38.066936608056331 ], [ 21.492265512648508, 38.06539465316142 ], [ 21.49180051478351, 38.063869736303744 ], [ 21.491234786997222, 38.062366038371806 ], [ 21.490569879910183, 38.060887682333366 ], [ 21.489807615986496, 38.059438721919108 ], [ 21.488950084538597, 38.05802313049336 ], [ 21.487999636000573, 38.05664479014294 ], [ 21.486958875485811, 38.055307481014232 ], [ 21.485830655646531, 38.054014870927823 ], [ 21.484618068854896, 38.052770505299492 ], [ 21.483324438727006, 38.051577797395524 ], [ 21.481953311013136, 38.050440018949303 ], [ 21.480508443879039, 38.049360291165165 ], [ 21.478993797605096, 38.048341576134575 ], [ 21.47741352373146, 38.047386668688397 ], [ 21.475771953678979, 38.046498188707922 ], [ 21.474073586877061, 38.045678573916049 ], [ 21.472323078431067, 38.044930073168771 ], [ 21.470525226362955, 38.044254740265373 ], [ 21.468684958460287, 38.043654428295035 ], [ 21.466807318769462, 38.043130784535052 ], [ 21.464897453770366, 38.042685245915479 ], [ 21.462960598270211, 38.042319035062356 ], [ 21.461002061055282, 38.042033156930891 ], [ 21.459027210339958, 38.041828396037793 ], [ 21.457041459052778, 38.041705314300685 ], [ 21.45505025, 38.04166424949041 ], [ 21.45305904094721, 38.041705314300685 ], [ 21.45107328966003, 38.041828396037793 ], [ 21.449098438944706, 38.042033156930891 ], [ 21.447139901729777, 38.042319035062356 ], [ 21.445203046229622, 38.042685245915479 ], [ 21.443293181230526, 38.043130784535052 ], [ 21.441415541539701, 38.043654428295035 ], [ 21.439575273637036, 38.044254740265373 ], [ 21.437777421568924, 38.044930073168771 ], [ 21.436026913122927, 38.045678573916049 ], [ 21.434328546321009, 38.046498188707922 ], [ 21.432686976268528, 38.047386668688397 ], [ 21.431106702394896, 38.048341576134575 ], [ 21.429592056120949, 38.049360291165165 ], [ 21.428147188986852, 38.050440018949303 ], [ 21.426776061272982, 38.051577797395524 ], [ 21.425482431145095, 38.052770505299492 ], [ 21.424269844353457, 38.054014870927823 ], [ 21.42314162451418, 38.055307481014232 ], [ 21.422100863999415, 38.05664479014294 ], [ 21.421150415461391, 38.05802313049336 ], [ 21.420292884013492, 38.059438721919108 ], [ 21.419530620089809, 38.060887682333366 ], [ 21.418865713002766, 38.062366038371806 ], [ 21.418299985216478, 38.063869736303744 ], [ 21.417834987351483, 38.06539465316142 ], [ 21.417471993934608, 38.066936608056331 ], [ 21.417211999905568, 38.068491373652066 ], [ 21.417055717889941, 38.070054687761349 ], [ 21.417003576245857, 38.071622265035998 ], [ 21.417055717889941, 38.073189808717188 ], [ 21.417211999905568, 38.074753022414214 ], [ 21.417471993934608, 38.076307621878996 ], [ 21.417834987351483, 38.077849346744451 ], [ 21.418299985216478, 38.079373972194382 ], [ 21.418865713002766, 38.080877320533055 ], [ 21.419530620089809, 38.082355272622877 ], [ 21.420292884013492, 38.083803779158963 ], [ 21.421150415461391, 38.085218871749738 ], [ 21.422100863999415, 38.086596673773741 ], [ 21.42314162451418, 38.087933410982586 ], [ 21.424269844353457, 38.089225421821773 ], [ 21.425482431145095, 38.090469167441007 ], [ 21.426776061272982, 38.09166124136695 ], [ 21.428147188986852, 38.092798378812212 ], [ 21.429592056120949, 38.093877465595391 ], [ 21.431106702394896, 38.094895546647969 ], [ 21.432686976268528, 38.095849834085087 ], [ 21.434328546321009, 38.096737714818389 ], [ 21.436026913122927, 38.097556757690455 ], [ 21.437777421568924, 38.098304720111365 ], [ 21.439575273637036, 38.098979554179849 ], [ 21.441415541539701, 38.099579412272078 ], [ 21.443293181230526, 38.100102652083514 ], [ 21.445203046229622, 38.100547841109872 ], [ 21.447139901729777, 38.100913760555308 ], [ 21.449098438944706, 38.101199408657358 ], [ 21.45107328966003, 38.101404003419539 ], [ 21.45305904094721, 38.101526984744396 ], [ 21.45505025, 38.101568015961242 ], [ 21.457041459052778, 38.101526984744396 ], [ 21.459027210339958, 38.101404003419539 ], [ 21.461002061055282, 38.101199408657358 ], [ 21.462960598270211, 38.100913760555308 ], [ 21.464897453770366, 38.100547841109872 ], [ 21.466807318769462, 38.100102652083514 ], [ 21.468684958460287, 38.099579412272078 ], [ 21.470525226362955, 38.098979554179849 ], [ 21.472323078431067, 38.098304720111365 ], [ 21.474073586877061, 38.097556757690455 ], [ 21.475771953678979, 38.096737714818389 ], [ 21.47741352373146, 38.095849834085087 ], [ 21.478993797605096, 38.094895546647969 ], [ 21.480508443879039, 38.093877465595391 ], [ 21.481953311013136, 38.092798378812212 ], [ 21.483324438727006, 38.09166124136695 ], [ 21.484618068854896, 38.090469167441007 ], [ 21.485830655646531, 38.089225421821773 ], [ 21.486958875485811, 38.087933410982586 ], [ 21.487999636000573, 38.086596673773741 ], [ 21.488950084538597, 38.085218871749738 ], [ 21.489807615986496, 38.083803779158963 ], [ 21.490569879910183, 38.082355272622877 ], [ 21.491234786997222, 38.080877320533055 ], [ 21.49180051478351, 38.079373972194382 ], [ 21.492265512648508, 38.077849346744451 ], [ 21.492628506065383, 38.076307621878996 ], [ 21.49288850009442, 38.074753022414214 ], [ 21.493044782110051, 38.073189808717188 ], [ 21.493096923754138, 38.071622265035998 ] ] ] } },
{ "type": "Feature", "properties": { "name": "Κοινότητα Ριόλου", "feature_type": "mrr", "metric_roundness": 34.09, "metric_rectangularity": 70.39, "metric_mobile_fit": 36.87, "metric_aspect_ratio": 1.194, "metric_area_km2": 19.2 }, "geometry": { "type": "Polygon", "coordinates": [ [ [ 21.435759479027205, 38.09815848164061 ], [ 21.487158, 38.0555515 ], [ 21.465771312308615, 38.039558134330662 ], [ 21.414372800753018, 38.082174436678947 ], [ 21.435759479027205, 38.09815848164061 ] ] ] } }
]
}
