{
"type": "FeatureCollection",
"name": "koinoteta_sykountos",
"crs": { "type": "name", "properties": { "name": "urn:ogc:def:crs:OGC:1.3:CRS84" } },
"features": [
{ "type": "Feature", "properties": { "name": "Κοινότητα Συκούντος", "feature_type": "entity", "metric_roundness": 40.1, "metric_rectangularity": 64.01, "metric_mobile_fit": -10.15, "metric_aspect_ratio": 1.664, "metric_area_km2": 9.63 }, "geometry": { "type": "Polygon", "coordinates": [ [ [ 26.4495184, 39.1120466 ], [ 26.436917, 39.1164784 ], [ 26.4172451, 39.1154945 ], [ 26.4084803, 39.1120466 ], [ 26.4036365, 39.1086035 ], [ 26.4063561, 39.099832299999989 ], [ 26.4161745, 39.0934955 ], [ 26.4209341, 39.0952147 ], [ 26.4277869, 39.1052195 ], [ 26.4421195, 39.1037465 ], [ 26.4529214, 39.1120466 ], [ 26.4495184, 39.1120466 ] ] ] } },
{ "type": "Feature", "properties": { "name": "Κοινότητα Συκούντος", "feature_type": "circle", "metric_roundness": 40.1, "metric_rectangularity": 64.01, "metric_mobile_fit": -10.15, "metric_aspect_ratio": 1.664, "metric_area_km2": 9.63 }, "geometry": { "type": "Polygon", "coordinates": [ [ [ 26.453321187011255, 39.108602344487565 ], [ 26.453287141442836, 39.10759348535678 ], [ 26.453185098054114, 39.106587377057608 ], [ 26.453015336538925, 39.105586777440379 ], [ 26.452778322201773, 39.104594429372519 ], [ 26.452474704682498, 39.103613053217359 ], [ 26.452105316175608, 39.102645339373375 ], [ 26.451671169149318, 39.101693940894286 ], [ 26.451173453570462, 39.100761466210493 ], [ 26.450613533642841, 39.099850471971777 ], [ 26.44999294406805, 39.098963456030837 ], [ 26.449313385838988, 39.09810285058726 ], [ 26.448576721577517, 39.097271015510572 ], [ 26.447784970429179, 39.096470231861005 ], [ 26.446940302528834, 39.095702695625576 ], [ 26.446045033052481, 39.094970511687144 ], [ 26.44510161587154, 39.09427568804275 ], [ 26.444112636826912, 39.093620130287434 ], [ 26.443080806641419, 39.093005636378791 ], [ 26.442008953489886, 39.092433891696579 ], [ 26.440900015247284, 39.091906464411224 ], [ 26.439757031436265, 39.091424801173986 ], [ 26.438583134896003, 39.090990223140778 ], [ 26.437381543195322, 39.090603922340449 ], [ 26.436155549813545, 39.090266958397983 ], [ 26.434908515113321, 39.089980255621278 ], [ 26.433643857130082, 39.089744600459937 ], [ 26.43236504220345, 39.089560639342849 ], [ 26.431075575476257, 39.089428876900762 ], [ 26.429778991287158, 39.089349674578649 ], [ 26.428478843483308, 39.089323249641886 ], [ 26.427178695679462, 39.089349674578649 ], [ 26.425882111490363, 39.089428876900762 ], [ 26.42459264476317, 39.089560639342849 ], [ 26.423313829836538, 39.089744600459937 ], [ 26.422049171853295, 39.089980255621278 ], [ 26.420802137153071, 39.090266958397983 ], [ 26.419576143771298, 39.090603922340449 ], [ 26.418374552070617, 39.090990223140778 ], [ 26.417200655530358, 39.091424801173986 ], [ 26.416057671719336, 39.091906464411224 ], [ 26.414948733476734, 39.092433891696579 ], [ 26.413876880325201, 39.093005636378791 ], [ 26.412845050139705, 39.093620130287434 ], [ 26.41185607109508, 39.09427568804275 ], [ 26.410912653914135, 39.094970511687144 ], [ 26.410017384437783, 39.095702695625576 ], [ 26.409172716537437, 39.096470231861005 ], [ 26.408380965389103, 39.097271015510572 ], [ 26.407644301127633, 39.09810285058726 ], [ 26.406964742898566, 39.098963456030837 ], [ 26.406344153323779, 39.099850471971777 ], [ 26.405784233396155, 39.100761466210493 ], [ 26.405286517817302, 39.101693940894286 ], [ 26.404852370791012, 39.102645339373375 ], [ 26.404482982284122, 39.103613053217359 ], [ 26.404179364764843, 39.104594429372519 ], [ 26.403942350427695, 39.105586777440379 ], [ 26.403772588912503, 39.106587377057608 ], [ 26.403670545523781, 39.10759348535678 ], [ 26.403636499955361, 39.108602344487565 ], [ 26.403670545523781, 39.109611189177798 ], [ 26.403772588912503, 39.110617254313517 ], [ 26.403942350427695, 39.111617782517314 ], [ 26.404179364764843, 39.112610031704158 ], [ 26.404482982284122, 39.113591282594079 ], [ 26.404852370791012, 39.114558846161081 ], [ 26.405286517817302, 39.115510070997864 ], [ 26.405784233396155, 39.116442350576499 ], [ 26.406344153323779, 39.117353130384821 ], [ 26.406964742898566, 39.118239914919492 ], [ 26.407644301127633, 39.119100274516235 ], [ 26.408380965389103, 39.11993185199907 ], [ 26.409172716537437, 39.120732369130053 ], [ 26.410017384437783, 39.121499632842173 ], [ 26.410912653914135, 39.122231541238392 ], [ 26.41185607109508, 39.122926089340595 ], [ 26.412845050139705, 39.123581374572595 ], [ 26.413876880325201, 39.124195601962647 ], [ 26.414948733476734, 39.124767089051034 ], [ 26.416057671719336, 39.125294270489562 ], [ 26.417200655530351, 39.125775702320524 ], [ 26.418374552070617, 39.126210065923367 ], [ 26.419576143771298, 39.126596171618544 ], [ 26.420802137153071, 39.126932961918719 ], [ 26.422049171853295, 39.127219514418435 ], [ 26.423313829836538, 39.127455044314566 ], [ 26.42459264476317, 39.127638906550651 ], [ 26.425882111490363, 39.1277705975793 ], [ 26.427178695679462, 39.127849756737959 ], [ 26.428478843483308, 39.127876167234177 ], [ 26.429778991287158, 39.127849756737959 ], [ 26.431075575476257, 39.1277705975793 ], [ 26.43236504220345, 39.127638906550651 ], [ 26.433643857130082, 39.127455044314566 ], [ 26.434908515113321, 39.127219514418435 ], [ 26.436155549813545, 39.126932961918719 ], [ 26.437381543195322, 39.126596171618544 ], [ 26.438583134896003, 39.126210065923367 ], [ 26.439757031436262, 39.125775702320524 ], [ 26.440900015247284, 39.125294270489562 ], [ 26.442008953489879, 39.124767089051034 ], [ 26.443080806641419, 39.124195601962647 ], [ 26.444112636826912, 39.123581374572595 ], [ 26.44510161587154, 39.122926089340595 ], [ 26.446045033052481, 39.122231541238392 ], [ 26.446940302528834, 39.121499632842173 ], [ 26.447784970429179, 39.120732369130053 ], [ 26.448576721577517, 39.11993185199907 ], [ 26.449313385838988, 39.119100274516235 ], [ 26.44999294406805, 39.118239914919492 ], [ 26.450613533642841, 39.117353130384821 ], [ 26.451173453570462, 39.116442350576499 ], [ 26.451671169149318, 39.115510070997864 ], [ 26.452105316175608, 39.114558846161081 ], [ 26.452474704682498, 39.113591282594079 ], [ 26.452778322201773, 39.112610031704158 ], [ 26.453015336538925, 39.111617782517314 ], [ 26.453185098054114, 39.110617254313517 ], [ 26.453287141442836, 39.109611189177798 ], [ 26.453321187011255, 39.108602344487565 ] ] ] } },
{ "type": "Feature", "properties": { "name": "Κοινότητα Συκούντος", "feature_type": "mrr", "metric_roundness": 40.1, "metric_rectangularity": 64.01, "metric_mobile_fit": -10.15, "metric_aspect_ratio": 1.664, "metric_area_km2": 9.63 }, "geometry": { "type": "Polygon", "coordinates": [ [ [ 26.455002825284009, 39.108934377230192 ], [ 26.41188153747434, 39.091568730236133 ], [ 26.40037147637053, 39.1087815147676 ], [ 26.443492764180203, 39.126142921734861 ], [ 26.455002825284009, 39.108934377230192 ] ] ] } }
]
}
