{
"type": "FeatureCollection",
"name": "koinoteta_lades",
"crs": { "type": "name", "properties": { "name": "urn:ogc:def:crs:OGC:1.3:CRS84" } },
"features": [
{ "type": "Feature", "properties": { "name": "Κοινότητα Λάδης", "metric_roundness": 30.51, "metric_rectangularity": 51.33, "metric_mobile_fit": 63.69, "metric_aspect_ratio": 0.926, "metric_area_km2": 16.79 }, "geometry": { "type": "Polygon", "coordinates": [ [ [ 26.296669, 41.452675 ], [ 26.2812447, 41.4567246 ], [ 26.2719704, 41.4548291 ], [ 26.261865, 41.4687099 ], [ 26.2524485, 41.4844165 ], [ 26.245707, 41.474173 ], [ 26.2427065, 41.471547 ], [ 26.2406445, 41.4687099 ], [ 26.239062, 41.4665325 ], [ 26.2458241, 41.4622277 ], [ 26.249344, 41.449405 ], [ 26.2623745, 41.444657499999984 ], [ 26.2716059, 41.4459358 ], [ 26.279683, 41.4397343 ], [ 26.2872551, 41.4408271 ], [ 26.294672, 41.437776 ], [ 26.296669, 41.452675 ] ] ] } }
]
}
