{
"type": "FeatureCollection",
"name": "koinoteta_episkopes_gonias",
"crs": { "type": "name", "properties": { "name": "urn:ogc:def:crs:OGC:1.3:CRS84" } },
"features": [
{ "type": "Feature", "properties": { "name": "Κοινότητα Επισκοπής Γωνιάς", "feature_type": "entity", "metric_roundness": 37.74, "metric_rectangularity": 59.34, "metric_mobile_fit": 36.6, "metric_aspect_ratio": 1.197, "metric_area_km2": 7.3 }, "geometry": { "type": "Polygon", "coordinates": [ [ [ 25.4569881, 36.3717496 ], [ 25.4725183, 36.3700825 ], [ 25.479012, 36.362493799999982 ], [ 25.4861125, 36.361397 ], [ 25.4816156, 36.3692773 ], [ 25.4863005, 36.384429 ], [ 25.471692, 36.384631 ], [ 25.454105, 36.384523 ], [ 25.4517735, 36.3842995 ], [ 25.4569881, 36.3717496 ] ] ] } },
{ "type": "Feature", "properties": { "name": "Κοινότητα Επισκοπής Γωνιάς", "feature_type": "circle", "metric_roundness": 37.74, "metric_rectangularity": 59.34, "metric_mobile_fit": 36.6, "metric_aspect_ratio": 1.197, "metric_area_km2": 7.3 }, "geometry": { "type": "Polygon", "coordinates": [ [ [ 25.491398958920325, 36.373004362572608 ], [ 25.491368402721314, 36.372064804869645 ], [ 25.491276817876692, 36.371127811127906 ], [ 25.491124455414159, 36.370195949721563 ], [ 25.490911732948629, 36.369271775048581 ], [ 25.490639233537596, 36.368357820526782 ], [ 25.490307704083005, 36.367456591646416 ], [ 25.48991805328405, 36.366570559098349 ], [ 25.489471349146481, 36.365702151996764 ], [ 25.488968816055284, 36.364853751215009 ], [ 25.488411831418745, 36.364027682852821 ], [ 25.487801921893031, 36.363226211853167 ], [ 25.487140759197754, 36.362451535785873 ], [ 25.48643015553391, 36.361705778815676 ], [ 25.485672058616746, 36.360990985870842 ], [ 25.484868546337211, 36.36030911702877 ], [ 25.484021821066623, 36.35966204213392 ], [ 25.483134203620093, 36.359051535662921 ], [ 25.482208126895333, 36.358479271851159 ], [ 25.481246129204287, 36.357946820094178 ], [ 25.480250847315748, 36.357455640636601 ], [ 25.479225009228202, 36.357007080560635 ], [ 25.478171426692533, 36.356602370085099 ], [ 25.477092987505241, 36.356242619185366 ], [ 25.475992647593181, 36.355928814543269 ], [ 25.474873422911561, 36.355661816835962 ], [ 25.473738381177441, 36.355442358370581 ], [ 25.472590633461316, 36.355271041071809 ], [ 25.471433325659902, 36.35514833482754 ], [ 25.470269629873435, 36.355074576197573 ], [ 25.469102735711175, 36.355049967488455 ], [ 25.467935841548918, 36.355074576197573 ], [ 25.466772145762452, 36.35514833482754 ], [ 25.465614837961038, 36.355271041071809 ], [ 25.464467090244913, 36.355442358370581 ], [ 25.463332048510789, 36.355661816835962 ], [ 25.462212823829169, 36.355928814543269 ], [ 25.461112483917113, 36.356242619185366 ], [ 25.460034044729817, 36.356602370085099 ], [ 25.458980462194148, 36.357007080560635 ], [ 25.457954624106602, 36.357455640636601 ], [ 25.456959342218067, 36.357946820094178 ], [ 25.455997344527017, 36.358479271851159 ], [ 25.455071267802257, 36.359051535662921 ], [ 25.454183650355727, 36.35966204213392 ], [ 25.453336925085143, 36.36030911702877 ], [ 25.452533412805607, 36.360990985870842 ], [ 25.45177531588844, 36.361705778815676 ], [ 25.4510647122246, 36.362451535785873 ], [ 25.450403549529323, 36.363226211853167 ], [ 25.449793640003609, 36.364027682852821 ], [ 25.449236655367066, 36.364853751215009 ], [ 25.448734122275873, 36.365702151996764 ], [ 25.448287418138303, 36.366570559098349 ], [ 25.447897767339345, 36.367456591646416 ], [ 25.447566237884754, 36.368357820526782 ], [ 25.447293738473725, 36.369271775048581 ], [ 25.447081016008195, 36.370195949721563 ], [ 25.446928653545658, 36.371127811127906 ], [ 25.44683706870104, 36.372064804869645 ], [ 25.446806512502025, 36.373004362572608 ], [ 25.44683706870104, 36.37394390892775 ], [ 25.446928653545658, 36.374880868750282 ], [ 25.447081016008195, 36.375812674037682 ], [ 25.447293738473725, 36.376736771006854 ], [ 25.447566237884754, 36.377650627091278 ], [ 25.447897767339345, 36.378551737879249 ], [ 25.448287418138303, 36.37943763397373 ], [ 25.448734122275873, 36.380305887755533 ], [ 25.449236655367066, 36.38115412003112 ], [ 25.449793640003609, 36.381980006546954 ], [ 25.450403549529323, 36.38278128435244 ], [ 25.4510647122246, 36.383555757994365 ], [ 25.45177531588844, 36.384301305525852 ], [ 25.452533412805607, 36.385015884313276 ], [ 25.453336925085143, 36.385697536625599 ], [ 25.454183650355727, 36.386344394990708 ], [ 25.455071267802257, 36.386954687304289 ], [ 25.455997344527017, 36.387526741677341 ], [ 25.456959342218067, 36.388058991008968 ], [ 25.457954624106602, 36.388549977272362 ], [ 25.458980462194148, 36.38899835550199 ], [ 25.460034044729817, 36.389402897471371 ], [ 25.461112483917113, 36.389762495051343 ], [ 25.462212823829169, 36.390076163239833 ], [ 25.463332048510789, 36.390343042854752 ], [ 25.464467090244913, 36.390562402882779 ], [ 25.465614837961038, 36.390733642477741 ], [ 25.466772145762452, 36.390856292603075 ], [ 25.467935841548918, 36.390930017313842 ], [ 25.469102735711175, 36.39095461467511 ], [ 25.470269629873435, 36.390930017313842 ], [ 25.471433325659902, 36.390856292603075 ], [ 25.472590633461316, 36.390733642477741 ], [ 25.473738381177441, 36.390562402882779 ], [ 25.474873422911561, 36.390343042854752 ], [ 25.475992647593181, 36.390076163239833 ], [ 25.477092987505241, 36.389762495051343 ], [ 25.478171426692533, 36.389402897471371 ], [ 25.479225009228202, 36.38899835550199 ], [ 25.480250847315748, 36.388549977272362 ], [ 25.481246129204287, 36.388058991008968 ], [ 25.482208126895333, 36.387526741677341 ], [ 25.483134203620093, 36.386954687304289 ], [ 25.484021821066623, 36.386344394990708 ], [ 25.484868546337211, 36.385697536625599 ], [ 25.485672058616746, 36.385015884313276 ], [ 25.48643015553391, 36.384301305525852 ], [ 25.487140759197754, 36.383555757994365 ], [ 25.487801921893031, 36.38278128435244 ], [ 25.488411831418745, 36.381980006546954 ], [ 25.488968816055284, 36.38115412003112 ], [ 25.489471349146481, 36.380305887755533 ], [ 25.48991805328405, 36.37943763397373 ], [ 25.490307704083005, 36.378551737879249 ], [ 25.490639233537596, 36.377650627091278 ], [ 25.490911732948629, 36.376736771006854 ], [ 25.491124455414159, 36.375812674037682 ], [ 25.491276817876692, 36.374880868750282 ], [ 25.491368402721314, 36.37394390892775 ], [ 25.491398958920325, 36.373004362572608 ] ] ] } },
{ "type": "Feature", "properties": { "name": "Κοινότητα Επισκοπής Γωνιάς", "feature_type": "mrr", "metric_roundness": 37.74, "metric_rectangularity": 59.34, "metric_mobile_fit": 36.6, "metric_aspect_ratio": 1.197, "metric_area_km2": 7.3 }, "geometry": { "type": "Polygon", "coordinates": [ [ [ 25.486301514321585, 36.384553702483672 ], [ 25.4861125, 36.361397 ], [ 25.451588044783559, 36.36157972635214 ], [ 25.451777062807317, 36.384736372478343 ], [ 25.486301514321585, 36.384553702483672 ] ] ] } }
]
}
