{
"type": "FeatureCollection",
"name": "koinoteta_kryoneriou",
"crs": { "type": "name", "properties": { "name": "urn:ogc:def:crs:OGC:1.3:CRS84" } },
"features": [
{ "type": "Feature", "properties": { "name": "Κοινότητα Κρυονερίου", "feature_type": "entity", "metric_roundness": 49.72, "metric_rectangularity": 62.71, "metric_mobile_fit": 87.14, "metric_aspect_ratio": 0.691, "metric_area_km2": 101.75 }, "geometry": { "type": "Polygon", "coordinates": [ [ [ 23.312966, 40.769098 ], [ 23.3226901, 40.783896299999988 ], [ 23.3161571, 40.8010948 ], [ 23.3192391, 40.8098995 ], [ 23.3261058, 40.8121304 ], [ 23.3237388, 40.8260774 ], [ 23.3111199, 40.844661 ], [ 23.3080073, 40.8544818 ], [ 23.280482, 40.8754215 ], [ 23.2803697, 40.8707973 ], [ 23.2713694, 40.859253099999989 ], [ 23.2500535, 40.855830499999989 ], [ 23.2616332, 40.8498064 ], [ 23.2619891, 40.847004 ], [ 23.2457693, 40.824309899999989 ], [ 23.22643, 40.804432 ], [ 23.2406109, 40.8005388 ], [ 23.2584903, 40.7891647 ], [ 23.2633915, 40.7785566 ], [ 23.282779, 40.766275 ], [ 23.312966, 40.769098 ] ] ] } },
{ "type": "Feature", "properties": { "name": "Κοινότητα Κρυονερίου", "feature_type": "circle", "metric_roundness": 49.72, "metric_rectangularity": 62.71, "metric_mobile_fit": 87.14, "metric_aspect_ratio": 0.691, "metric_area_km2": 101.75 }, "geometry": { "type": "Polygon", "coordinates": [ [ [ 23.361701522672412, 40.820961727395371 ], [ 23.36160213891808, 40.818089539927087 ], [ 23.361304260059061, 40.815225101070709 ], [ 23.36080870256059, 40.812376263582784 ], [ 23.36011682471133, 40.809550838456865 ], [ 23.359230522900376, 40.806756573486474 ], [ 23.358152226419385, 40.804001131990482 ], [ 23.356884890804054, 40.801292071759946 ], [ 23.355431989733219, 40.798636824284458 ], [ 23.353797505507721, 40.796042674315615 ], [ 23.351985918135213, 40.793516739824348 ], [ 23.350002193050763, 40.791065952408019 ], [ 23.347851767506938, 40.788697038201583 ], [ 23.345540535670686, 40.786416499346572 ], [ 23.343074832467803, 40.784230596069193 ], [ 23.340461416219394, 40.782145329418363 ], [ 23.337707450117733, 40.780166424711503 ], [ 23.334820482592484, 40.778299315735168 ], [ 23.331808426620952, 40.776549129744609 ], [ 23.328679538039207, 40.774920673304742 ], [ 23.325442392913345, 40.773418419012415 ], [ 23.322105864033155, 40.772046493137587 ], [ 23.318679096592383, 40.770808664218187 ], [ 23.315171483122388, 40.769708332641237 ], [ 23.311592637747871, 40.768748521239516 ], [ 23.30795236983526, 40.767931866930645 ], [ 23.304260657105853, 40.767260613422167 ], [ 23.300527618287646, 40.766736605003523 ], [ 23.296763485380556, 40.766361281442471 ], [ 23.292978575611233, 40.766135674000438 ], [ 23.289183263154278, 40.766060402578276 ], [ 23.285387950697324, 40.766135674000438 ], [ 23.281603040928001, 40.766361281442471 ], [ 23.277838908020911, 40.766736605003523 ], [ 23.274105869202707, 40.767260613422167 ], [ 23.270414156473297, 40.767931866930645 ], [ 23.266773888560685, 40.768748521239516 ], [ 23.263195043186169, 40.769708332641237 ], [ 23.259687429716173, 40.770808664218187 ], [ 23.256260662275402, 40.772046493137587 ], [ 23.252924133395211, 40.773418419012415 ], [ 23.249686988269353, 40.774920673304742 ], [ 23.246558099687604, 40.776549129744609 ], [ 23.243546043716076, 40.778299315735168 ], [ 23.240659076190823, 40.780166424711503 ], [ 23.237905110089162, 40.782145329418363 ], [ 23.235291693840754, 40.784230596069193 ], [ 23.23282599063787, 40.786416499346572 ], [ 23.230514758801618, 40.788697038201583 ], [ 23.228364333257794, 40.791065952408019 ], [ 23.226380608173343, 40.793516739824348 ], [ 23.224569020800836, 40.796042674315615 ], [ 23.222934536575337, 40.798636824284458 ], [ 23.221481635504503, 40.801292071759946 ], [ 23.220214299889172, 40.804001131990482 ], [ 23.219136003408181, 40.806756573486474 ], [ 23.218249701597227, 40.809550838456865 ], [ 23.217557823747967, 40.812376263582784 ], [ 23.217062266249499, 40.815225101070709 ], [ 23.216764387390477, 40.818089539927087 ], [ 23.216665003636145, 40.820961727395371 ], [ 23.216764387390477, 40.823833790496657 ], [ 23.217062266249499, 40.826697857614661 ], [ 23.217557823747967, 40.82954608006569 ], [ 23.218249701597227, 40.832370653594651 ], [ 23.219136003408181, 40.835163839738307 ], [ 23.220214299889172, 40.837917986997653 ], [ 23.221481635504503, 40.840625551761576 ], [ 23.222934536575337, 40.843279118925139 ], [ 23.224569020800836, 40.845871422146608 ], [ 23.226380608173343, 40.848395363688397 ], [ 23.228364333257794, 40.850844033788363 ], [ 23.230514758801618, 40.853210729509279 ], [ 23.23282599063787, 40.855488973015859 ], [ 23.235291693840754, 40.857672529230165 ], [ 23.237905110089162, 40.85975542281826 ], [ 23.240659076190823, 40.861731954462449 ], [ 23.243546043716076, 40.863596716375959 ], [ 23.246558099687604, 40.865344607018464 ], [ 23.249686988269353, 40.866970844973345 ], [ 23.252924133395211, 40.868470981949919 ], [ 23.256260662275402, 40.869840914875994 ], [ 23.259687429716173, 40.871076897048759 ], [ 23.263195043186169, 40.872175548314559 ], [ 23.266773888560685, 40.873133864250413 ], [ 23.270414156473297, 40.873949224323354 ], [ 23.274105869202707, 40.874619399005731 ], [ 23.277838908020911, 40.875142555827921 ], [ 23.281603040928001, 40.875517264352453 ], [ 23.285387950697324, 40.875742500056361 ], [ 23.289183263154278, 40.875817647111624 ], [ 23.292978575611233, 40.875742500056361 ], [ 23.296763485380556, 40.875517264352453 ], [ 23.300527618287646, 40.875142555827921 ], [ 23.304260657105853, 40.874619399005731 ], [ 23.30795236983526, 40.873949224323354 ], [ 23.311592637747871, 40.873133864250413 ], [ 23.315171483122388, 40.872175548314559 ], [ 23.318679096592383, 40.871076897048759 ], [ 23.322105864033155, 40.869840914875994 ], [ 23.325442392913345, 40.868470981949919 ], [ 23.328679538039207, 40.866970844973345 ], [ 23.331808426620952, 40.865344607018464 ], [ 23.334820482592484, 40.863596716375959 ], [ 23.337707450117733, 40.861731954462449 ], [ 23.340461416219394, 40.85975542281826 ], [ 23.343074832467803, 40.857672529230165 ], [ 23.345540535670686, 40.855488973015859 ], [ 23.347851767506938, 40.853210729509279 ], [ 23.350002193050763, 40.850844033788363 ], [ 23.351985918135213, 40.848395363688397 ], [ 23.353797505507721, 40.845871422146608 ], [ 23.355431989733219, 40.843279118925139 ], [ 23.356884890804054, 40.840625551761576 ], [ 23.358152226419385, 40.837917986997653 ], [ 23.359230522900376, 40.835163839738307 ], [ 23.36011682471133, 40.832370653594651 ], [ 23.36080870256059, 40.82954608006569 ], [ 23.361304260059061, 40.826697857614661 ], [ 23.36160213891808, 40.823833790496657 ], [ 23.361701522672412, 40.820961727395371 ] ] ] } },
{ "type": "Feature", "properties": { "name": "Κοινότητα Κρυονερίου", "feature_type": "mrr", "metric_roundness": 49.72, "metric_rectangularity": 62.71, "metric_mobile_fit": 87.14, "metric_aspect_ratio": 0.691, "metric_area_km2": 101.75 }, "geometry": { "type": "Polygon", "coordinates": [ [ [ 23.296341878809958, 40.755480746613436 ], [ 23.205304319586297, 40.819216798278468 ], [ 23.276991876728481, 40.877861680143852 ], [ 23.368029435952145, 40.814181974694584 ], [ 23.296341878809958, 40.755480746613436 ] ] ] } }
]
}
