{
"type": "FeatureCollection",
"name": "koinoteta_patrikon",
"crs": { "type": "name", "properties": { "name": "urn:ogc:def:crs:OGC:1.3:CRS84" } },
"features": [
{ "type": "Feature", "properties": { "name": "Κοινότητα Πατρικών", "feature_type": "entity", "metric_roundness": 44.24, "metric_rectangularity": 78.35, "metric_mobile_fit": 93.29, "metric_aspect_ratio": 0.495, "metric_area_km2": 4.26 }, "geometry": { "type": "Polygon", "coordinates": [ [ [ 26.0659026, 38.217796199999988 ], [ 26.0687892, 38.2218587 ], [ 26.0672885, 38.2410385 ], [ 26.058722, 38.240794499999986 ], [ 26.0536697, 38.2291506 ], [ 26.0596505, 38.217066 ], [ 26.0659026, 38.217796199999988 ] ] ] } },
{ "type": "Feature", "properties": { "name": "Κοινότητα Πατρικών", "feature_type": "circle", "metric_roundness": 44.24, "metric_rectangularity": 78.35, "metric_mobile_fit": 93.29, "metric_aspect_ratio": 0.495, "metric_area_km2": 4.26 }, "geometry": { "type": "Polygon", "coordinates": [ [ [ 26.079198711524256, 38.229053237640798 ], [ 26.079177155186525, 38.228406572980489 ], [ 26.079112545257754, 38.227761675057387 ], [ 26.079005058829264, 38.22712031156248 ], [ 26.078854990513886, 38.226484240545368 ], [ 26.078662751638443, 38.225855205594236 ], [ 26.07842886911633, 38.22523493105502 ], [ 26.078153984003279, 38.224625117302921 ], [ 26.077838849740285, 38.224027436079034 ], [ 26.077484330088449, 38.223443525905125 ], [ 26.077091396761503, 38.222874987589094 ], [ 26.076661126762385, 38.222323379833391 ], [ 26.076194699431241, 38.221790214958588 ], [ 26.07569339321298, 38.221276954753812 ], [ 26.075158582153087, 38.220785006465455 ], [ 26.07459173213152, 38.22031571893524 ], [ 26.073994396844771, 38.2198703788983 ], [ 26.073368213547351, 38.219450207451295 ], [ 26.072714898564143, 38.219056356700634 ], [ 26.072036242586115, 38.218689906599664 ], [ 26.071334105762126, 38.218351861983891 ], [ 26.070610412600402, 38.218043149812146 ], [ 26.069867146693607, 38.21776461662143 ], [ 26.069106345281909, 38.217517026202515 ], [ 26.068330093669115, 38.217301057502574 ], [ 26.067540519506924, 38.217117302760769 ], [ 26.066739786963236, 38.216966265881773 ], [ 26.0659300907903, 38.216848361052058 ], [ 26.065113650309041, 38.216763911602229 ], [ 26.064292703326068, 38.216713149119144 ], [ 26.0634695, 38.216696212809829 ], [ 26.062646296673929, 38.216713149119144 ], [ 26.061825349690956, 38.216763911602229 ], [ 26.061008909209697, 38.216848361052058 ], [ 26.060199213036764, 38.216966265881773 ], [ 26.059398480493076, 38.217117302760769 ], [ 26.058608906330885, 38.217301057502574 ], [ 26.057832654718087, 38.217517026202515 ], [ 26.05707185330639, 38.21776461662143 ], [ 26.056328587399594, 38.218043149812146 ], [ 26.05560489423787, 38.218351861983891 ], [ 26.054902757413881, 38.218689906599664 ], [ 26.054224101435853, 38.219056356700634 ], [ 26.053570786452649, 38.219450207451295 ], [ 26.052944603155225, 38.2198703788983 ], [ 26.05234726786848, 38.22031571893524 ], [ 26.05178041784691, 38.220785006465455 ], [ 26.051245606787017, 38.221276954753812 ], [ 26.050744300568759, 38.221790214958588 ], [ 26.050277873237615, 38.222323379833391 ], [ 26.049847603238494, 38.222874987589094 ], [ 26.049454669911547, 38.223443525905125 ], [ 26.049100150259715, 38.224027436079034 ], [ 26.048785015996717, 38.224625117302921 ], [ 26.048510130883667, 38.22523493105502 ], [ 26.048276248361557, 38.225855205594236 ], [ 26.048084009486114, 38.226484240545368 ], [ 26.047933941170733, 38.22712031156248 ], [ 26.047826454742246, 38.227761675057387 ], [ 26.047761844813476, 38.228406572980489 ], [ 26.04774028847574, 38.229053237640798 ], [ 26.047761844813476, 38.229699896551793 ], [ 26.047826454742246, 38.230344777289922 ], [ 26.047933941170733, 38.230986112352461 ], [ 26.048084009486114, 38.231622144001349 ], [ 26.048276248361557, 38.232251129079735 ], [ 26.048510130883667, 38.232871343788077 ], [ 26.048785015996717, 38.233481088406691 ], [ 26.049100150259715, 38.23407869195195 ], [ 26.049454669911547, 38.234662516753126 ], [ 26.049847603238494, 38.235230962937685 ], [ 26.050277873237615, 38.235782472812595 ], [ 26.050744300568759, 38.236315535129684 ], [ 26.051245606787017, 38.236828689223472 ], [ 26.05178041784691, 38.237320529010141 ], [ 26.05234726786848, 38.237789706836715 ], [ 26.052944603155225, 38.238234937170034 ], [ 26.053570786452649, 38.238655000115337 ], [ 26.054224101435853, 38.23904874475501 ], [ 26.054902757413881, 38.239415092298266 ], [ 26.05560489423787, 38.239753039033246 ], [ 26.056328587399594, 38.240061659073532 ], [ 26.05707185330639, 38.240340106891509 ], [ 26.057832654718087, 38.240587619631782 ], [ 26.058608906330885, 38.240803519198252 ], [ 26.059398480493076, 38.240987214109197 ], [ 26.060199213036764, 38.241138201115433 ], [ 26.061008909209697, 38.241256066576931 ], [ 26.061825349690956, 38.241340487594407 ], [ 26.062646296673929, 38.241391232892511 ], [ 26.0634695, 38.241408163452498 ], [ 26.064292703326068, 38.241391232892511 ], [ 26.065113650309041, 38.241340487594407 ], [ 26.0659300907903, 38.241256066576931 ], [ 26.066739786963236, 38.241138201115433 ], [ 26.067540519506924, 38.240987214109197 ], [ 26.068330093669115, 38.240803519198252 ], [ 26.069106345281909, 38.240587619631782 ], [ 26.069867146693607, 38.240340106891509 ], [ 26.070610412600402, 38.240061659073532 ], [ 26.071334105762126, 38.239753039033246 ], [ 26.072036242586115, 38.239415092298266 ], [ 26.072714898564143, 38.23904874475501 ], [ 26.073368213547351, 38.238655000115337 ], [ 26.073994396844771, 38.238234937170034 ], [ 26.07459173213152, 38.237789706836715 ], [ 26.075158582153087, 38.237320529010141 ], [ 26.07569339321298, 38.236828689223472 ], [ 26.076194699431241, 38.236315535129684 ], [ 26.076661126762385, 38.235782472812595 ], [ 26.077091396761503, 38.235230962937685 ], [ 26.077484330088449, 38.234662516753126 ], [ 26.077838849740285, 38.23407869195195 ], [ 26.078153984003279, 38.233481088406691 ], [ 26.07842886911633, 38.232871343788077 ], [ 26.078662751638443, 38.232251129079735 ], [ 26.078854990513886, 38.231622144001349 ], [ 26.079005058829264, 38.230986112352461 ], [ 26.079112545257754, 38.230344777289922 ], [ 26.079177155186525, 38.229699896551793 ], [ 26.079198711524256, 38.229053237640798 ] ] ] } },
{ "type": "Feature", "properties": { "name": "Κοινότητα Πατρικών", "feature_type": "mrr", "metric_roundness": 44.24, "metric_rectangularity": 78.35, "metric_mobile_fit": 93.29, "metric_aspect_ratio": 0.495, "metric_area_km2": 4.26 }, "geometry": { "type": "Polygon", "coordinates": [ [ [ 26.067275273602707, 38.241207396890246 ], [ 26.069128324260966, 38.217523676872517 ], [ 26.054634076297919, 38.216823766761109 ], [ 26.052781025639664, 38.24050771464789 ], [ 26.067275273602707, 38.241207396890246 ] ] ] } }
]
}
