{
"type": "FeatureCollection",
"name": "koinoteta_poseidonias",
"crs": { "type": "name", "properties": { "name": "urn:ogc:def:crs:OGC:1.3:CRS84" } },
"features": [
{ "type": "Feature", "properties": { "name": "Κοινότητα Ποσειδωνίας", "feature_type": "entity", "metric_roundness": 47.25, "metric_rectangularity": 61.32, "metric_mobile_fit": 58.86, "metric_aspect_ratio": 0.974, "metric_area_km2": 12.44 }, "geometry": { "type": "Polygon", "coordinates": [ [ [ 24.8822402, 37.3894325 ], [ 24.8767097, 37.3870121 ], [ 24.8789836, 37.3842725 ], [ 24.8718289, 37.3810998 ], [ 24.8814196, 37.3793429 ], [ 24.8782973, 37.3647802 ], [ 24.9039875, 37.3736519 ], [ 24.9089755, 37.3784595 ], [ 24.9017973, 37.385716599999981 ], [ 24.9151925, 37.392433499999989 ], [ 24.905105, 37.400162 ], [ 24.889815, 37.3979195 ], [ 24.8824775, 37.395966 ], [ 24.8822402, 37.3894325 ] ] ] } },
{ "type": "Feature", "properties": { "name": "Κοινότητα Ποσειδωνίας", "feature_type": "circle", "metric_roundness": 47.25, "metric_rectangularity": 61.32, "metric_mobile_fit": 58.86, "metric_aspect_ratio": 0.974, "metric_area_km2": 12.44 }, "geometry": { "type": "Polygon", "coordinates": [ [ [ 24.918772828155504, 37.381968429797418 ], [ 24.918737173372996, 37.380886485870249 ], [ 24.918630306752735, 37.379807491930301 ], [ 24.918452521208717, 37.378734405616768 ], [ 24.918204304038749, 37.377670168501886 ], [ 24.91788633558884, 37.37661769802483 ], [ 24.917499487388419, 37.375579879490367 ], [ 24.917044819761497, 37.374559558154324 ], [ 24.916523578920454, 37.373559531417698 ], [ 24.915937193550196, 37.372582541150642 ], [ 24.915287270892264, 37.371631266167761 ], [ 24.914575592339485, 37.370708314875188 ], [ 24.913804108553315, 37.369816218109889 ], [ 24.91297493411717, 37.36895742219086 ], [ 24.912090341740559, 37.368134282201403 ], [ 24.911152756029697, 37.367349055521018 ], [ 24.910164746841836, 37.366603895624834 ], [ 24.909129022241491, 37.36590084616774 ], [ 24.908048421077801, 37.365241835369361 ], [ 24.90692590520344, 37.364628670715796 ], [ 24.905764551356398, 37.364063033992366 ], [ 24.904567542726848, 37.363546476661512 ], [ 24.903338160232234, 37.363080415598326 ], [ 24.902079773524523, 37.36266612919578 ], [ 24.900795831754209, 37.362304753850282 ], [ 24.899489854116446, 37.361997280837436 ], [ 24.898165420205153, 37.361744553586561 ], [ 24.896826160201627, 37.361547265361594 ], [ 24.89547574492444, 37.361405957354812 ], [ 24.894117875768007, 37.361321017198712 ], [ 24.892756274557296, 37.361292677899961 ], [ 24.891394673346589, 37.361321017198712 ], [ 24.890036804190157, 37.361405957354812 ], [ 24.888686388912973, 37.361547265361594 ], [ 24.887347128909443, 37.361744553586561 ], [ 24.88602269499815, 37.361997280837436 ], [ 24.884716717360387, 37.362304753850282 ], [ 24.883432775590077, 37.36266612919578 ], [ 24.882174388882362, 37.363080415598326 ], [ 24.880945006387751, 37.363546476661512 ], [ 24.879747997758198, 37.364063033992366 ], [ 24.878586643911156, 37.364628670715796 ], [ 24.877464128036795, 37.365241835369361 ], [ 24.876383526873106, 37.36590084616774 ], [ 24.875347802272763, 37.366603895624834 ], [ 24.874359793084903, 37.367349055521018 ], [ 24.873422207374038, 37.368134282201403 ], [ 24.872537614997427, 37.36895742219086 ], [ 24.871708440561285, 37.369816218109889 ], [ 24.870936956775108, 37.370708314875188 ], [ 24.870225278222332, 37.371631266167761 ], [ 24.869575355564404, 37.372582541150642 ], [ 24.868988970194142, 37.373559531417698 ], [ 24.8684677293531, 37.374559558154324 ], [ 24.868013061726181, 37.375579879490367 ], [ 24.867626213525757, 37.37661769802483 ], [ 24.867308245075851, 37.377670168501886 ], [ 24.867060027905879, 37.378734405616768 ], [ 24.866882242361861, 37.379807491930301 ], [ 24.866775375741604, 37.380886485870249 ], [ 24.866739720959096, 37.381968429797418 ], [ 24.866775375741604, 37.38305035811441 ], [ 24.866882242361861, 37.384129305394879 ], [ 24.867060027905879, 37.385202314510842 ], [ 24.867308245075851, 37.386266444735831 ], [ 24.867626213525757, 37.387318779801809 ], [ 24.868013061726181, 37.388356435887594 ], [ 24.8684677293531, 37.389376569517161 ], [ 24.868988970194142, 37.390376385346087 ], [ 24.869575355564404, 37.39135314381496 ], [ 24.870225278222332, 37.392304168648806 ], [ 24.870936956775108, 37.393226854182174 ], [ 24.871708440561285, 37.394118672489817 ], [ 24.872537614997427, 37.394977180303563 ], [ 24.873422207374038, 37.395800025696687 ], [ 24.874359793084903, 37.396584954517323 ], [ 24.875347802272763, 37.397329816553743 ], [ 24.876383526873106, 37.398032571414511 ], [ 24.877464128036795, 37.398691294107614 ], [ 24.878586643911156, 37.399304180303538 ], [ 24.879747997758198, 37.39986955126777 ], [ 24.880945006387751, 37.400385858449603 ], [ 24.882174388882362, 37.400851687714621 ], [ 24.883432775590077, 37.401265763209487 ], [ 24.884716717360387, 37.401626950848517 ], [ 24.88602269499815, 37.401934261412691 ], [ 24.887347128909443, 37.402186853252502 ], [ 24.888686388912973, 37.402384034587605 ], [ 24.890036804190157, 37.402525265396804 ], [ 24.891394673346589, 37.402610158893424 ], [ 24.892756274557296, 37.402638482582013 ], [ 24.894117875768007, 37.402610158893424 ], [ 24.89547574492444, 37.402525265396804 ], [ 24.896826160201627, 37.402384034587605 ], [ 24.898165420205153, 37.402186853252502 ], [ 24.899489854116446, 37.401934261412691 ], [ 24.900795831754209, 37.401626950848517 ], [ 24.902079773524523, 37.401265763209487 ], [ 24.903338160232234, 37.400851687714621 ], [ 24.904567542726848, 37.400385858449603 ], [ 24.905764551356398, 37.39986955126777 ], [ 24.90692590520344, 37.399304180303538 ], [ 24.908048421077801, 37.398691294107614 ], [ 24.909129022241491, 37.398032571414511 ], [ 24.910164746841836, 37.397329816553743 ], [ 24.911152756029697, 37.396584954517323 ], [ 24.912090341740559, 37.395800025696687 ], [ 24.91297493411717, 37.394977180303563 ], [ 24.913804108553315, 37.394118672489817 ], [ 24.914575592339485, 37.393226854182174 ], [ 24.915287270892264, 37.392304168648806 ], [ 24.915937193550196, 37.39135314381496 ], [ 24.916523578920454, 37.390376385346087 ], [ 24.917044819761497, 37.389376569517161 ], [ 24.917499487388419, 37.388356435887594 ], [ 24.91788633558884, 37.387318779801809 ], [ 24.918204304038749, 37.386266444735831 ], [ 24.918452521208717, 37.385202314510842 ], [ 24.918630306752735, 37.384129305394879 ], [ 24.918737173372996, 37.38305035811441 ], [ 24.918772828155504, 37.381968429797418 ] ] ] } },
{ "type": "Feature", "properties": { "name": "Κοινότητα Ποσειδωνίας", "feature_type": "mrr", "metric_roundness": 47.25, "metric_rectangularity": 61.32, "metric_mobile_fit": 58.86, "metric_aspect_ratio": 0.974, "metric_area_km2": 12.44 }, "geometry": { "type": "Polygon", "coordinates": [ [ [ 24.922052367434961, 37.379889687134778 ], [ 24.8782973, 37.3647802 ], [ 24.864616329115151, 37.389799878500334 ], [ 24.908371401152291, 37.404904324711957 ], [ 24.922052367434961, 37.379889687134778 ] ] ] } }
]
}
