{
"type": "FeatureCollection",
"name": "koinoteta_neou_skopou",
"crs": { "type": "name", "properties": { "name": "urn:ogc:def:crs:OGC:1.3:CRS84" } },
"features": [
{ "type": "Feature", "properties": { "name": "Κοινότητα Νέου Σκοπού", "metric_roundness": 44.08, "metric_rectangularity": 56.78, "metric_mobile_fit": 50.66, "metric_aspect_ratio": 1.056, "metric_area_km2": 12.14 }, "geometry": { "type": "Polygon", "coordinates": [ [ [ 23.6210582, 41.0164362 ], [ 23.6252979, 41.0233376 ], [ 23.632993, 41.018264499999987 ], [ 23.6349155, 41.026146 ], [ 23.635375, 41.0305162 ], [ 23.614827, 41.033281 ], [ 23.606014, 41.0356725 ], [ 23.602292, 41.037268499999989 ], [ 23.5945765, 41.039955 ], [ 23.590204, 41.042075 ], [ 23.5898495, 41.0295285 ], [ 23.611297, 41.0095485 ], [ 23.6210582, 41.0164362 ] ] ] } }
]
}
