{
"type": "FeatureCollection",
"name": "koinoteta_zolon",
"crs": { "type": "name", "properties": { "name": "urn:ogc:def:crs:OGC:1.3:CRS84" } },
"features": [
{ "type": "Feature", "properties": { "name": "Κοινότητα Ζόλων", "metric_roundness": 56.15, "metric_rectangularity": 76.27, "metric_mobile_fit": 42.05, "metric_aspect_ratio": 1.142, "metric_area_km2": 10.57 }, "geometry": { "type": "Polygon", "coordinates": [ [ [ 20.4441255, 38.3275815 ], [ 20.440518, 38.3196765 ], [ 20.4370705, 38.313543 ], [ 20.435355, 38.3111185 ], [ 20.4643294, 38.3020694 ], [ 20.472588, 38.3028125 ], [ 20.4737945, 38.306593 ], [ 20.4754325, 38.3103275 ], [ 20.4689294, 38.325159099999979 ], [ 20.4559078, 38.322535299999984 ], [ 20.445421, 38.329605 ], [ 20.4441255, 38.3275815 ] ] ] } }
]
}
