{
"type": "FeatureCollection",
"name": "koinoteta_perdikobryses",
"crs": { "type": "name", "properties": { "name": "urn:ogc:def:crs:OGC:1.3:CRS84" } },
"features": [
{ "type": "Feature", "properties": { "name": "Κοινότητα Περδικόβρυσης", "feature_type": "entity", "metric_roundness": 31.42, "metric_rectangularity": 52.14, "metric_mobile_fit": 35.9, "metric_aspect_ratio": 1.204, "metric_area_km2": 15.17 }, "geometry": { "type": "Polygon", "coordinates": [ [ [ 21.8788385, 38.666451499999987 ], [ 21.8722093, 38.6597465 ], [ 21.874269, 38.6548832 ], [ 21.8720123, 38.6431696 ], [ 21.867379, 38.6386345 ], [ 21.8752044, 38.634839499999984 ], [ 21.8884885, 38.63653 ], [ 21.8943942, 38.646041599999982 ], [ 21.9090879, 38.6528323 ], [ 21.9119939, 38.6653003 ], [ 21.923873, 38.671496499999989 ], [ 21.9088664, 38.6676962 ], [ 21.886221, 38.6676125 ], [ 21.8788385, 38.666451499999987 ] ] ] } },
{ "type": "Feature", "properties": { "name": "Κοινότητα Περδικόβρυσης", "feature_type": "circle", "metric_roundness": 31.42, "metric_rectangularity": 52.14, "metric_mobile_fit": 35.9, "metric_aspect_ratio": 1.204, "metric_area_km2": 15.17 }, "geometry": { "type": "Polygon", "coordinates": [ [ [ 21.930848122774957, 38.655067384480603 ], [ 21.930799852079826, 38.65362783407658 ], [ 21.930655172301044, 38.652192200569964 ], [ 21.930414479995836, 38.650764419287903 ], [ 21.930078434885079, 38.64934840426762 ], [ 21.929647958045056, 38.647948037521836 ], [ 21.929124229382872, 38.646567158389502 ], [ 21.928508684402384, 38.645209553001195 ], [ 21.927803010269592, 38.643878943887984 ], [ 21.927009141188254, 38.642578979762597 ], [ 21.926129253098328, 38.641313225500973 ], [ 21.925165757711916, 38.640085152351837 ], [ 21.924121295902903, 38.638898128401379 ], [ 21.922998730468496, 38.637755409319389 ], [ 21.921801138282543, 38.636660129412505 ], [ 21.920531801861959, 38.635615293009231 ], [ 21.919194200369649, 38.634623766200775 ], [ 21.917792000078343, 38.633688268960363 ], [ 21.916329044321554, 38.632811367663237 ], [ 21.914809342959334, 38.631995468027768 ], [ 21.913237061387481, 38.631242808497575 ], [ 21.911616509120488, 38.630555454082845 ], [ 21.909952127979491, 38.629935290678191 ], [ 21.908248479917493, 38.629384019872603 ], [ 21.906510234515419, 38.628903154266283 ], [ 21.904742156183097, 38.628494013307041 ], [ 21.902949091100329, 38.628157719658198 ], [ 21.901135953933881, 38.62789519610785 ], [ 21.899307714366689, 38.627707163028333 ], [ 21.897469383476331, 38.62759413639278 ], [ 21.895626, 38.62755642635446 ], [ 21.893782616523662, 38.62759413639278 ], [ 21.891944285633308, 38.627707163028333 ], [ 21.890116046066115, 38.62789519610785 ], [ 21.888302908899664, 38.628157719658198 ], [ 21.886509843816896, 38.628494013307041 ], [ 21.88474176548457, 38.628903154266283 ], [ 21.8830035200825, 38.629384019872603 ], [ 21.881299872020506, 38.629935290678191 ], [ 21.879635490879501, 38.630555454082845 ], [ 21.878014938612512, 38.631242808497575 ], [ 21.876442657040659, 38.631995468027768 ], [ 21.874922955678439, 38.632811367663237 ], [ 21.87345999992165, 38.633688268960363 ], [ 21.87205779963034, 38.634623766200775 ], [ 21.870720198138038, 38.635615293009231 ], [ 21.869450861717453, 38.636660129412505 ], [ 21.868253269531493, 38.637755409319389 ], [ 21.867130704097086, 38.638898128401379 ], [ 21.866086242288073, 38.640085152351837 ], [ 21.865122746901662, 38.641313225500973 ], [ 21.864242858811739, 38.642578979762597 ], [ 21.863448989730401, 38.643878943887984 ], [ 21.862743315597609, 38.645209553001195 ], [ 21.862127770617121, 38.646567158389502 ], [ 21.861604041954937, 38.647948037521836 ], [ 21.86117356511491, 38.64934840426762 ], [ 21.860837520004154, 38.650764419287903 ], [ 21.860596827698945, 38.652192200569964 ], [ 21.860452147920167, 38.65362783407658 ], [ 21.860403877225032, 38.655067384480603 ], [ 21.860452147920167, 38.656506905955268 ], [ 21.860596827698945, 38.657942452990788 ], [ 21.860837520004154, 38.659370091207386 ], [ 21.86117356511491, 38.660785908135324 ], [ 21.861604041954937, 38.662186023932207 ], [ 21.862127770617121, 38.663566602008522 ], [ 21.862743315597609, 38.664923859532152 ], [ 21.863448989730401, 38.666254077783286 ], [ 21.864242858811739, 38.66755361233156 ], [ 21.865122746901662, 38.66881890300759 ], [ 21.866086242288073, 38.670046483641784 ], [ 21.867130704097086, 38.671232991544059 ], [ 21.868253269531493, 38.67237517669853 ], [ 21.869450861717453, 38.673469910648414 ], [ 21.870720198138038, 38.674514195046797 ], [ 21.87205779963034, 38.675505169850375 ], [ 21.87345999992165, 38.676440121133801 ], [ 21.874922955678439, 38.677316488503443 ], [ 21.876442657040659, 38.678131872090759 ], [ 21.878014938612512, 38.678884039106038 ], [ 21.879635490879501, 38.679570929935217 ], [ 21.881299872020506, 38.680190663762815 ], [ 21.8830035200825, 38.680741543706368 ], [ 21.88474176548457, 38.681222061448047 ], [ 21.886509843816896, 38.681630901351319 ], [ 21.888302908899664, 38.68196694405129 ], [ 21.890116046066115, 38.682229269509328 ], [ 21.891944285633308, 38.682417159523411 ], [ 21.893782616523662, 38.682530099687874 ], [ 21.895626, 38.682567780796838 ], [ 21.897469383476331, 38.682530099687874 ], [ 21.899307714366689, 38.682417159523411 ], [ 21.901135953933881, 38.682229269509328 ], [ 21.902949091100329, 38.68196694405129 ], [ 21.904742156183097, 38.681630901351319 ], [ 21.906510234515419, 38.681222061448047 ], [ 21.908248479917493, 38.680741543706368 ], [ 21.909952127979491, 38.680190663762815 ], [ 21.911616509120488, 38.679570929935217 ], [ 21.913237061387481, 38.678884039106038 ], [ 21.914809342959334, 38.678131872090759 ], [ 21.916329044321554, 38.677316488503443 ], [ 21.917792000078343, 38.676440121133801 ], [ 21.919194200369649, 38.675505169850375 ], [ 21.920531801861959, 38.674514195046797 ], [ 21.921801138282543, 38.673469910648414 ], [ 21.922998730468496, 38.67237517669853 ], [ 21.924121295902903, 38.671232991544059 ], [ 21.925165757711916, 38.670046483641784 ], [ 21.926129253098328, 38.66881890300759 ], [ 21.927009141188254, 38.66755361233156 ], [ 21.927803010269592, 38.666254077783286 ], [ 21.928508684402384, 38.664923859532152 ], [ 21.929124229382872, 38.663566602008522 ], [ 21.929647958045056, 38.662186023932207 ], [ 21.930078434885079, 38.660785908135324 ], [ 21.930414479995836, 38.659370091207386 ], [ 21.930655172301044, 38.657942452990788 ], [ 21.930799852079826, 38.656506905955268 ], [ 21.930848122774957, 38.655067384480603 ] ] ] } },
{ "type": "Feature", "properties": { "name": "Κοινότητα Περδικόβρυσης", "feature_type": "mrr", "metric_roundness": 31.42, "metric_rectangularity": 52.14, "metric_mobile_fit": 35.9, "metric_aspect_ratio": 1.204, "metric_area_km2": 15.17 }, "geometry": { "type": "Polygon", "coordinates": [ [ [ 21.857329469527826, 38.644694244531607 ], [ 21.898781327795216, 38.68661857475616 ], [ 21.926171168550326, 38.670111296362798 ], [ 21.884719310282939, 38.628177300094251 ], [ 21.857329469527826, 38.644694244531607 ] ] ] } }
]
}
