{
"type": "FeatureCollection",
"name": "koinoteta_ampelokepon",
"crs": { "type": "name", "properties": { "name": "urn:ogc:def:crs:OGC:1.3:CRS84" } },
"features": [
{ "type": "Feature", "properties": { "name": "Κοινότητα Αμπελοκήπων", "metric_roundness": 41.28, "metric_rectangularity": 64.7, "metric_mobile_fit": 99.47, "metric_aspect_ratio": 0.557, "metric_area_km2": 18.75 }, "geometry": { "type": "Polygon", "coordinates": [ [ [ 21.8148685, 36.921167 ], [ 21.810536, 36.919415 ], [ 21.8055995, 36.918443 ], [ 21.8027645, 36.918421499999987 ], [ 21.8132331, 36.908369 ], [ 21.8062279, 36.8932848 ], [ 21.818899, 36.869915 ], [ 21.8303137, 36.885596199999988 ], [ 21.8400425, 36.891826 ], [ 21.840716, 36.9051324 ], [ 21.8324905, 36.921687 ], [ 21.826956, 36.923309 ], [ 21.824344, 36.9243835 ], [ 21.8148685, 36.921167 ] ] ] } }
]
}
