{
"type": "FeatureCollection",
"name": "koinoteta_gregoriou",
"crs": { "type": "name", "properties": { "name": "urn:ogc:def:crs:OGC:1.3:CRS84" } },
"features": [
{ "type": "Feature", "properties": { "name": "Κοινότητα Γρηγορίου", "metric_roundness": 52.21, "metric_rectangularity": 61.0, "metric_mobile_fit": 57.88, "metric_aspect_ratio": 0.984, "metric_area_km2": 11.83 }, "geometry": { "type": "Polygon", "coordinates": [ [ [ 21.967582, 38.6098645 ], [ 21.9782595, 38.6201657 ], [ 21.9940755, 38.6252169 ], [ 22.0028225, 38.6250628 ], [ 22.0004841, 38.6370261 ], [ 21.989716, 38.6427425 ], [ 21.9822238, 38.640119499999983 ], [ 21.9706257, 38.641791399999981 ], [ 21.9614225, 38.623221 ], [ 21.967582, 38.6098645 ] ] ] } }
]
}
