{
"type": "FeatureCollection",
"name": "koinoteta_bouchorinas",
"crs": { "type": "name", "properties": { "name": "urn:ogc:def:crs:OGC:1.3:CRS84" } },
"features": [
{ "type": "Feature", "properties": { "name": "Κοινότητα Βουχωρίνας", "feature_type": "entity", "metric_roundness": 46.6, "metric_rectangularity": 57.25, "metric_mobile_fit": 80.04, "metric_aspect_ratio": 0.762, "metric_area_km2": 15.46 }, "geometry": { "type": "Polygon", "coordinates": [ [ [ 21.233634, 40.222295 ], [ 21.2492155, 40.2179603 ], [ 21.2518348, 40.1973559 ], [ 21.2647385, 40.1951005 ], [ 21.2705613, 40.2159305 ], [ 21.2759425, 40.2251215 ], [ 21.277904, 40.2316785 ], [ 21.2696788, 40.2312732 ], [ 21.258756, 40.239459599999989 ], [ 21.2521632, 40.2373638 ], [ 21.2476025, 40.2320095 ], [ 21.233634, 40.222295 ] ] ] } },
{ "type": "Feature", "properties": { "name": "Κοινότητα Βουχωρίνας", "feature_type": "circle", "metric_roundness": 46.6, "metric_rectangularity": 57.25, "metric_mobile_fit": 80.04, "metric_aspect_ratio": 0.762, "metric_area_km2": 15.46 }, "geometry": { "type": "Polygon", "coordinates": [ [ [ 21.290946851315518, 40.217283680019193 ], [ 21.290906834276736, 40.216116742840462 ], [ 21.290786892844306, 40.214952984141597 ], [ 21.290587355769361, 40.213795593951161 ], [ 21.290308769969158, 40.212647745003586 ], [ 21.289951899028001, 40.211512584038424 ], [ 21.289517721104339, 40.210393223169149 ], [ 21.28900742624969, 40.209292731345251 ], [ 21.288422413146765, 40.208214125931029 ], [ 21.287764285275824, 40.207160364424304 ], [ 21.287034846519617, 40.206134336337946 ], [ 21.286236096219064, 40.205138855266462 ], [ 21.285370223693228, 40.204176651159649 ], [ 21.284439602238507, 40.203250362824591 ], [ 21.283446782623628, 40.202362530676702 ], [ 21.282394486098145, 40.201515589760014 ], [ 21.281285596933692, 40.200711863055737 ], [ 21.280123154518382, 40.199953555097942 ], [ 21.27891034502608, 40.199242745913793 ], [ 21.277650492683307, 40.198581385305268 ], [ 21.276347050657755, 40.197971287488237 ], [ 21.275003591593428, 40.197414126103631 ], [ 21.273623797818225, 40.196911429614794 ], [ 21.272211451250982, 40.196464577103498 ], [ 21.270770423035465, 40.196074794476615 ], [ 21.269304662929855, 40.195743151093737 ], [ 21.267818188480714, 40.195470556825278 ], [ 21.266315074011178, 40.19525775954915 ], [ 21.264799439453537, 40.195105343093104 ], [ 21.263275439056759, 40.195013725628208 ], [ 21.26174725, 40.194983158518284 ], [ 21.260219060943239, 40.195013725628208 ], [ 21.258695060546462, 40.195105343093104 ], [ 21.257179425988816, 40.19525775954915 ], [ 21.255676311519284, 40.195470556825278 ], [ 21.25418983707014, 40.195743151093737 ], [ 21.25272407696453, 40.196074794476615 ], [ 21.251283048749016, 40.196464577103498 ], [ 21.24987070218177, 40.196911429614794 ], [ 21.24849090840657, 40.197414126103631 ], [ 21.24714744934224, 40.197971287488237 ], [ 21.245844007316691, 40.198581385305268 ], [ 21.244584154973914, 40.199242745913793 ], [ 21.243371345481616, 40.199953555097942 ], [ 21.242208903066306, 40.200711863055737 ], [ 21.241100013901853, 40.201515589760014 ], [ 21.240047717376367, 40.202362530676702 ], [ 21.239054897761491, 40.203250362824591 ], [ 21.23812427630677, 40.204176651159649 ], [ 21.237258403780931, 40.205138855266462 ], [ 21.236459653480381, 40.206134336337946 ], [ 21.235730214724171, 40.207160364424304 ], [ 21.235072086853233, 40.208214125931029 ], [ 21.234487073750312, 40.209292731345251 ], [ 21.233976778895656, 40.210393223169149 ], [ 21.233542600971994, 40.211512584038424 ], [ 21.23318573003084, 40.212647745003586 ], [ 21.232907144230634, 40.213795593951161 ], [ 21.232707607155692, 40.214952984141597 ], [ 21.232587665723262, 40.216116742840462 ], [ 21.232547648684477, 40.217283680019193 ], [ 21.232587665723262, 40.218450597101388 ], [ 21.232707607155692, 40.219614295730864 ], [ 21.232907144230634, 40.220771586537182 ], [ 21.23318573003084, 40.22191929787477 ], [ 21.233542600971994, 40.223054284511775 ], [ 21.233976778895656, 40.224173436244683 ], [ 21.234487073750312, 40.225273686415363 ], [ 21.235072086853233, 40.226352020307125 ], [ 21.235730214724171, 40.227405483396971 ], [ 21.236459653480381, 40.228431189441586 ], [ 21.237258403780931, 40.229426328374792 ], [ 21.23812427630677, 40.230388173995351 ], [ 21.239054897761491, 40.231314091423833 ], [ 21.240047717376367, 40.232201544308531 ], [ 21.241100013901853, 40.233048101760716 ], [ 21.242208903066306, 40.233851445000489 ], [ 21.243371345481616, 40.2346093736951 ], [ 21.244584154973914, 40.23531981197268 ], [ 21.245844007316691, 40.235980814094965 ], [ 21.24714744934224, 40.236590569773746 ], [ 21.24849090840657, 40.237147409116616 ], [ 21.24987070218177, 40.23764980718861 ], [ 21.251283048749016, 40.238096388177446 ], [ 21.25272407696453, 40.238485929151139 ], [ 21.25418983707014, 40.238817363397672 ], [ 21.255676311519284, 40.239089783337995 ], [ 21.257179425988816, 40.239302443004149 ], [ 21.258695060546462, 40.239454760076093 ], [ 21.260219060943239, 40.2395463174716 ], [ 21.26174725, 40.239576864484988 ], [ 21.263275439056759, 40.2395463174716 ], [ 21.264799439453537, 40.239454760076093 ], [ 21.266315074011178, 40.239302443004149 ], [ 21.267818188480714, 40.239089783337995 ], [ 21.269304662929855, 40.238817363397672 ], [ 21.270770423035465, 40.238485929151139 ], [ 21.272211451250982, 40.238096388177446 ], [ 21.273623797818225, 40.23764980718861 ], [ 21.275003591593428, 40.237147409116616 ], [ 21.276347050657755, 40.236590569773746 ], [ 21.277650492683307, 40.235980814094965 ], [ 21.27891034502608, 40.23531981197268 ], [ 21.280123154518382, 40.2346093736951 ], [ 21.281285596933692, 40.233851445000489 ], [ 21.282394486098145, 40.233048101760716 ], [ 21.283446782623628, 40.232201544308531 ], [ 21.284439602238507, 40.231314091423833 ], [ 21.285370223693228, 40.230388173995351 ], [ 21.286236096219064, 40.229426328374792 ], [ 21.287034846519617, 40.228431189441586 ], [ 21.287764285275824, 40.227405483396971 ], [ 21.288422413146765, 40.226352020307125 ], [ 21.28900742624969, 40.225273686415363 ], [ 21.289517721104339, 40.224173436244683 ], [ 21.289951899028001, 40.223054284511775 ], [ 21.290308769969158, 40.22191929787477 ], [ 21.290587355769361, 40.220771586537182 ], [ 21.290786892844306, 40.219614295730864 ], [ 21.290906834276736, 40.218450597101388 ], [ 21.290946851315518, 40.217283680019193 ] ] ] } },
{ "type": "Feature", "properties": { "name": "Κοινότητα Βουχωρίνας", "feature_type": "mrr", "metric_roundness": 46.6, "metric_rectangularity": 57.25, "metric_mobile_fit": 80.04, "metric_aspect_ratio": 0.762, "metric_area_km2": 15.46 }, "geometry": { "type": "Polygon", "coordinates": [ [ [ 21.279601973620871, 40.234924137339995 ], [ 21.264547401032118, 40.194588334403065 ], [ 21.226393271001754, 40.202894250979774 ], [ 21.241447843590507, 40.243225111027463 ], [ 21.279601973620871, 40.234924137339995 ] ] ] } }
]
}
