{
"type": "FeatureCollection",
"name": "koinoteta_perachoriou",
"crs": { "type": "name", "properties": { "name": "urn:ogc:def:crs:OGC:1.3:CRS84" } },
"features": [
{ "type": "Feature", "properties": { "name": "Κοινότητα Περαχωρίου", "metric_roundness": 53.17, "metric_rectangularity": 72.09, "metric_mobile_fit": 45.63, "metric_aspect_ratio": 1.106, "metric_area_km2": 37.97 }, "geometry": { "type": "Polygon", "coordinates": [ [ [ 20.6874127, 38.3315923 ], [ 20.6963564, 38.3150033 ], [ 20.7206328, 38.3013746 ], [ 20.7244374, 38.3069288 ], [ 20.7293429, 38.305074899999987 ], [ 20.7667119, 38.3190458 ], [ 20.7451019, 38.3291628 ], [ 20.7449405, 38.331914399999981 ], [ 20.7504012, 38.3351559 ], [ 20.744766, 38.3385695 ], [ 20.7348488, 38.3415404 ], [ 20.7189179, 38.3576131 ], [ 20.6990912, 38.3468776 ], [ 20.6874105, 38.344497499999989 ], [ 20.6874127, 38.3315923 ] ] ] } }
]
}
