{
"type": "FeatureCollection",
"name": "koinoteta_neochoriou_thespion",
"crs": { "type": "name", "properties": { "name": "urn:ogc:def:crs:OGC:1.3:CRS84" } },
"features": [
{ "type": "Feature", "properties": { "name": "Κοινότητα Νεοχωρίου Θεσπιών", "metric_roundness": 46.99, "metric_rectangularity": 57.32, "metric_mobile_fit": 26.32, "metric_aspect_ratio": 1.299, "metric_area_km2": 11.09 }, "geometry": { "type": "Polygon", "coordinates": [ [ [ 23.1117482, 38.3015079 ], [ 23.1039886, 38.306055799999989 ], [ 23.0939498, 38.298866 ], [ 23.0822795, 38.298174 ], [ 23.084684, 38.2970055 ], [ 23.091095, 38.2923955 ], [ 23.100018, 38.2849415 ], [ 23.1041745, 38.282669 ], [ 23.1072535, 38.281331 ], [ 23.109189, 38.2802315 ], [ 23.111549, 38.278492 ], [ 23.115874, 38.279349499999988 ], [ 23.1279116, 38.2842388 ], [ 23.1252635, 38.293623599999975 ], [ 23.12788, 38.302186 ], [ 23.1117482, 38.3015079 ] ] ] } }
]
}
