{
"type": "FeatureCollection",
"name": "koinoteta_asprokklesiou",
"crs": { "type": "name", "properties": { "name": "urn:ogc:def:crs:OGC:1.3:CRS84" } },
"features": [
{ "type": "Feature", "properties": { "name": "Κοινότητα Ασπροκκλησίου", "metric_roundness": 30.76, "metric_rectangularity": 48.0, "metric_mobile_fit": 68.55, "metric_aspect_ratio": 0.877, "metric_area_km2": 35.93 }, "geometry": { "type": "Polygon", "coordinates": [ [ [ 20.2187048, 39.6368728 ], [ 20.2091805, 39.6236956 ], [ 20.2193453, 39.6127585 ], [ 20.219984, 39.606056 ], [ 20.2142215, 39.6040939 ], [ 20.2009894, 39.6078802 ], [ 20.1966025, 39.600047499999981 ], [ 20.1801375, 39.600837499999983 ], [ 20.1670685, 39.5931845 ], [ 20.1668492, 39.5902318 ], [ 20.1559996, 39.590288699999988 ], [ 20.160403, 39.587516699999988 ], [ 20.1561205, 39.582616199999983 ], [ 20.163303, 39.5851126 ], [ 20.1730845, 39.581217 ], [ 20.1847086, 39.5849089 ], [ 20.199004, 39.5737992 ], [ 20.2100795, 39.574041 ], [ 20.227056, 39.5905005 ], [ 20.2325136, 39.5999652 ], [ 20.2331251, 39.6101826 ], [ 20.240167, 39.6189075 ], [ 20.2393987, 39.635664099999985 ], [ 20.2269173, 39.6389073 ], [ 20.2256965, 39.6477345 ], [ 20.21663, 39.647169 ], [ 20.2187048, 39.6368728 ] ] ] } }
]
}
