{
"type": "FeatureCollection",
"name": "koinoteta_phalelianon",
"crs": { "type": "name", "properties": { "name": "urn:ogc:def:crs:OGC:1.3:CRS84" } },
"features": [
{ "type": "Feature", "properties": { "name": "Κοινότητα Φαλελιανών", "metric_roundness": 64.41, "metric_rectangularity": 77.04, "metric_mobile_fit": 71.9, "metric_aspect_ratio": 0.844, "metric_area_km2": 7.65 }, "geometry": { "type": "Polygon", "coordinates": [ [ [ 23.737589, 35.4983955 ], [ 23.721048, 35.504992499999986 ], [ 23.719849, 35.502955 ], [ 23.719925, 35.4992175 ], [ 23.7193685, 35.497478 ], [ 23.7173595, 35.495099 ], [ 23.7126495, 35.490606 ], [ 23.711358, 35.488915 ], [ 23.711457, 35.486647 ], [ 23.7105345, 35.485 ], [ 23.711613, 35.4827995 ], [ 23.7135505, 35.4801125 ], [ 23.719125, 35.478879 ], [ 23.7346745, 35.4794 ], [ 23.7371305, 35.486497 ], [ 23.737589, 35.4983955 ] ] ] } }
]
}
