{
"type": "FeatureCollection",
"name": "koinoteta_triandrias",
"crs": { "type": "name", "properties": { "name": "urn:ogc:def:crs:OGC:1.3:CRS84" } },
"features": [
{ "type": "Feature", "properties": { "name": "Κοινότητα Τριανδρίας", "metric_roundness": 31.33, "metric_rectangularity": 71.69, "metric_mobile_fit": 93.26, "metric_aspect_ratio": 0.63, "metric_area_km2": 2.25 }, "geometry": { "type": "Polygon", "coordinates": [ [ [ 22.970647, 40.630023499999986 ], [ 22.9690717, 40.6209547 ], [ 22.976805, 40.622672 ], [ 22.984574, 40.6372315 ], [ 22.980633, 40.6396335 ], [ 22.970647, 40.630023499999986 ] ] ] } }
]
}
