{
"type": "FeatureCollection",
"name": "koinoteta_eidomenes",
"crs": { "type": "name", "properties": { "name": "urn:ogc:def:crs:OGC:1.3:CRS84" } },
"features": [
{ "type": "Feature", "properties": { "name": "Κοινότητα Ειδομένης", "feature_type": "entity", "metric_roundness": 23.93, "metric_rectangularity": 64.95, "metric_mobile_fit": -124.59, "metric_aspect_ratio": 2.808, "metric_area_km2": 40.14 }, "geometry": { "type": "Polygon", "coordinates": [ [ [ 22.4197185, 41.115703499999988 ], [ 22.420997, 41.112546 ], [ 22.4228605, 41.1098285 ], [ 22.4235625, 41.1076695 ], [ 22.423635, 41.105753499999985 ], [ 22.4231795, 41.10273 ], [ 22.4541414, 41.103459199999982 ], [ 22.4660269, 41.0949238 ], [ 22.4800718, 41.0987833 ], [ 22.4908355, 41.096747 ], [ 22.549824, 41.114184 ], [ 22.5462587, 41.115558 ], [ 22.5409897, 41.118401699999986 ], [ 22.5382752, 41.1210745 ], [ 22.5369685, 41.1241323 ], [ 22.536926, 41.130114 ], [ 22.4651472, 41.1174434 ], [ 22.4536749, 41.1212665 ], [ 22.4461857, 41.118503 ], [ 22.4309171, 41.1205564 ], [ 22.4186495, 41.118569 ], [ 22.4197185, 41.115703499999988 ] ] ] } },
{ "type": "Feature", "properties": { "name": "Κοινότητα Ειδομένης", "feature_type": "circle", "metric_roundness": 23.93, "metric_rectangularity": 64.95, "metric_mobile_fit": -124.59, "metric_aspect_ratio": 2.808, "metric_area_km2": 40.14 }, "geometry": { "type": "Polygon", "coordinates": [ [ [ 22.549888534690083, 41.116376536615988 ], [ 22.549798561200866, 41.113787925944187 ], [ 22.549528887344291, 41.111206308815525 ], [ 22.549080252277655, 41.108638762517657 ], [ 22.548453885678494, 41.106092326591273 ], [ 22.547651504374119, 41.103573983512497 ], [ 22.546675307635905, 41.101090639522901 ], [ 22.545527971151266, 41.098649105660087 ], [ 22.544212639689754, 41.096256079041346 ], [ 22.54273291848347, 41.093918124451946 ], [ 22.541092863345394, 41.091641656289553 ], [ 22.539296969552659, 41.089432920914547 ], [ 22.537350159525321, 41.087297979455499 ], [ 22.53525776933434, 41.085242691117934 ], [ 22.533025534075787, 41.083272697042652 ], [ 22.530659572151354, 41.081393404758963 ], [ 22.528166368498216, 41.079609973276398 ], [ 22.525552756814282, 41.077927298856565 ], [ 22.52282590082751, 41.076350001505141 ], [ 22.519993274660621, 41.074882412222195 ], [ 22.517062642345039, 41.073528561046359 ], [ 22.514042036540243, 41.072292165926903 ], [ 22.510939736516779, 41.071176622454935 ], [ 22.507764245463374, 41.070184994482652 ], [ 22.504524267180283, 41.069320005657424 ], [ 22.501228682222763, 41.068584031894432 ], [ 22.497886523560119, 41.067979094809161 ], [ 22.494506951816927, 41.067506856128588 ], [ 22.491099230164433, 41.067168613096612 ], [ 22.487672698930812, 41.066965294886998 ], [ 22.48423675, 41.06689746003385 ], [ 22.48080080106919, 41.066965294886998 ], [ 22.477374269835568, 41.067168613096612 ], [ 22.473966548183071, 41.067506856128588 ], [ 22.470586976439883, 41.067979094809161 ], [ 22.467244817777239, 41.068584031894432 ], [ 22.463949232819719, 41.069320005657424 ], [ 22.460709254536631, 41.070184994482652 ], [ 22.457533763483223, 41.071176622454935 ], [ 22.454431463459759, 41.072292165926903 ], [ 22.451410857654963, 41.073528561046359 ], [ 22.448480225339381, 41.074882412222195 ], [ 22.445647599172492, 41.076350001505141 ], [ 22.442920743185724, 41.077927298856565 ], [ 22.44030713150179, 41.079609973276398 ], [ 22.437813927848648, 41.081393404758963 ], [ 22.435447965924215, 41.083272697042652 ], [ 22.433215730665662, 41.085242691117934 ], [ 22.431123340474681, 41.087297979455499 ], [ 22.429176530447343, 41.089432920914547 ], [ 22.427380636654608, 41.091641656289553 ], [ 22.425740581516532, 41.093918124451946 ], [ 22.424260860310248, 41.096256079041346 ], [ 22.422945528848732, 41.098649105660087 ], [ 22.421798192364097, 41.101090639522901 ], [ 22.420821995625882, 41.103573983512497 ], [ 22.420019614321507, 41.106092326591273 ], [ 22.419393247722343, 41.108638762517657 ], [ 22.418944612655711, 41.111206308815525 ], [ 22.418674938799139, 41.113787925944187 ], [ 22.418584965309922, 41.116376536615988 ], [ 22.418674938799139, 41.118965045208448 ], [ 22.418944612655711, 41.121546357217497 ], [ 22.419393247722343, 41.124113398698441 ], [ 22.420019614321507, 41.126659135641482 ], [ 22.420821995625882, 41.129176593228678 ], [ 22.421798192364097, 41.13165887492012 ], [ 22.422945528848732, 41.134099181316969 ], [ 22.424260860310248, 41.136490828750333 ], [ 22.425740581516532, 41.138827267545572 ], [ 22.427380636654608, 41.141102099912388 ], [ 22.429176530447343, 41.143309097412541 ], [ 22.431123340474681, 41.145442217957971 ], [ 22.433215730665662, 41.147495622293476 ], [ 22.435447965924215, 41.149463689919791 ], [ 22.437813927848648, 41.15134103441418 ], [ 22.44030713150179, 41.153122518107494 ], [ 22.442920743185724, 41.154803266078517 ], [ 22.445647599172492, 41.156378679428137 ], [ 22.448480225339381, 41.157844447797807 ], [ 22.451410857654963, 41.159196561099208 ], [ 22.454431463459759, 41.160431320423555 ], [ 22.457533763483223, 41.16154534810186 ], [ 22.460709254536631, 41.162535596889278 ], [ 22.463949232819719, 41.163399358249045 ], [ 22.467244817777239, 41.164134269714353 ], [ 22.470586976439883, 41.164738321308469 ], [ 22.473966548183071, 41.165209861006034 ], [ 22.477374269835568, 41.165547599221341 ], [ 22.48080080106919, 41.165750612311498 ], [ 22.48423675, 41.165818345085363 ], [ 22.487672698930812, 41.165750612311498 ], [ 22.491099230164433, 41.165547599221341 ], [ 22.494506951816927, 41.165209861006034 ], [ 22.497886523560119, 41.164738321308469 ], [ 22.501228682222763, 41.164134269714353 ], [ 22.504524267180283, 41.163399358249045 ], [ 22.507764245463374, 41.162535596889278 ], [ 22.510939736516779, 41.16154534810186 ], [ 22.514042036540243, 41.160431320423555 ], [ 22.517062642345039, 41.159196561099208 ], [ 22.519993274660621, 41.157844447797807 ], [ 22.52282590082751, 41.156378679428137 ], [ 22.525552756814282, 41.154803266078517 ], [ 22.528166368498216, 41.153122518107494 ], [ 22.530659572151354, 41.15134103441418 ], [ 22.533025534075787, 41.149463689919791 ], [ 22.53525776933434, 41.147495622293476 ], [ 22.537350159525321, 41.145442217957971 ], [ 22.539296969552659, 41.143309097412541 ], [ 22.541092863345394, 41.141102099912388 ], [ 22.54273291848347, 41.138827267545572 ], [ 22.544212639689754, 41.136490828750333 ], [ 22.545527971151266, 41.134099181316969 ], [ 22.546675307635905, 41.13165887492012 ], [ 22.547651504374119, 41.129176593228678 ], [ 22.548453885678494, 41.126659135641482 ], [ 22.549080252277655, 41.124113398698441 ], [ 22.549528887344291, 41.121546357217497 ], [ 22.549798561200866, 41.118965045208448 ], [ 22.549888534690083, 41.116376536615988 ] ] ] } },
{ "type": "Feature", "properties": { "name": "Κοινότητα Ειδομένης", "feature_type": "mrr", "metric_roundness": 23.93, "metric_rectangularity": 64.95, "metric_mobile_fit": -124.59, "metric_aspect_ratio": 2.808, "metric_area_km2": 40.14 }, "geometry": { "type": "Polygon", "coordinates": [ [ [ 22.41851146509001, 41.119437842384038 ], [ 22.547146561303066, 41.131035403010173 ], [ 22.551721544128217, 41.102238560148713 ], [ 22.423086447915161, 41.090635911114823 ], [ 22.41851146509001, 41.119437842384038 ] ] ] } }
]
}
