{
"type": "FeatureCollection",
"name": "koinoteta_skandaliou",
"crs": { "type": "name", "properties": { "name": "urn:ogc:def:crs:OGC:1.3:CRS84" } },
"features": [
{ "type": "Feature", "properties": { "name": "Κοινότητα Σκανδαλίου", "feature_type": "entity", "metric_roundness": 29.54, "metric_rectangularity": 54.06, "metric_mobile_fit": 52.36, "metric_aspect_ratio": 1.039, "metric_area_km2": 31.5 }, "geometry": { "type": "Polygon", "coordinates": [ [ [ 25.2846755, 39.8287258 ], [ 25.2925107, 39.823546199999988 ], [ 25.2936086, 39.8177513 ], [ 25.2893718, 39.807665899999989 ], [ 25.3053578, 39.7932396 ], [ 25.3528583, 39.7822724 ], [ 25.356428, 39.7852662 ], [ 25.3506313, 39.791016899999988 ], [ 25.3497392, 39.7965842 ], [ 25.3567905, 39.8040125 ], [ 25.342664, 39.8116414 ], [ 25.3050955, 39.8202897 ], [ 25.3012012, 39.830300099999988 ], [ 25.2950881, 39.8366886 ], [ 25.2982005, 39.846017 ], [ 25.2841937, 39.8415013 ], [ 25.270572, 39.8312965 ], [ 25.2846755, 39.8287258 ] ] ] } },
{ "type": "Feature", "properties": { "name": "Κοινότητα Σκανδαλίου", "feature_type": "circle", "metric_roundness": 29.54, "metric_rectangularity": 54.06, "metric_mobile_fit": 52.36, "metric_aspect_ratio": 1.039, "metric_area_km2": 31.5 }, "geometry": { "type": "Polygon", "coordinates": [ [ [ 25.365849082365596, 39.808285202437112 ], [ 25.365777339767583, 39.806180527289911 ], [ 25.365562308615026, 39.80408155674553 ], [ 25.365204578293355, 39.801994044728239 ], [ 25.364705129316526, 39.799923714273028 ], [ 25.364065330639463, 39.797876241824731 ], [ 25.363286935905869, 39.79585724165949 ], [ 25.362372078641606, 39.793872250471168 ], [ 25.361323266406849, 39.79192671216552 ], [ 25.360143373923016, 39.79002596290394 ], [ 25.358835635193412, 39.788175216438191 ], [ 25.357403634638974, 39.786379549776889 ], [ 25.355851297273698, 39.784643889223211 ], [ 25.354182877946403, 39.782972996822934 ], [ 25.352402949678481, 39.781371457260292 ], [ 25.350516391129606, 39.779843665238111 ], [ 25.348528373225623, 39.778393813377569 ], [ 25.346444344985414, 39.777025880671161 ], [ 25.344270018585544, 39.775743621521308 ], [ 25.342011353703519, 39.774550555395017 ], [ 25.339674541182799, 39.773449957123816 ], [ 25.337265986064065, 39.772444847875967 ], [ 25.334792290029483, 39.771537986826267 ], [ 25.332260233307935, 39.77073186354697 ], [ 25.329676756090905, 39.770028691140929 ], [ 25.327048939509858, 39.769430400136507 ], [ 25.324383986227389, 39.768938633161319 ], [ 25.321689200695211, 39.768554740409698 ], [ 25.318971969133152, 39.76827977591676 ], [ 25.316239739284047, 39.768114494649573 ], [ 25.3135, 39.768059350423485 ], [ 25.310760260715956, 39.768114494649573 ], [ 25.308028030866851, 39.76827977591676 ], [ 25.305310799304792, 39.768554740409698 ], [ 25.302616013772614, 39.768938633161319 ], [ 25.299951060490145, 39.769430400136507 ], [ 25.297323243909098, 39.770028691140929 ], [ 25.294739766692064, 39.77073186354697 ], [ 25.292207709970523, 39.771537986826267 ], [ 25.289734013935938, 39.772444847875967 ], [ 25.287325458817207, 39.773449957123816 ], [ 25.284988646296483, 39.774550555395017 ], [ 25.282729981414462, 39.775743621521308 ], [ 25.280555655014588, 39.777025880671161 ], [ 25.278471626774383, 39.778393813377569 ], [ 25.276483608870397, 39.779843665238111 ], [ 25.274597050321521, 39.781371457260292 ], [ 25.272817122053603, 39.782972996822934 ], [ 25.271148702726304, 39.784643889223211 ], [ 25.269596365361028, 39.786379549776889 ], [ 25.268164364806591, 39.788175216438191 ], [ 25.266856626076983, 39.79002596290394 ], [ 25.265676733593153, 39.79192671216552 ], [ 25.264627921358397, 39.793872250471168 ], [ 25.263713064094134, 39.79585724165949 ], [ 25.26293466936054, 39.797876241824731 ], [ 25.26229487068348, 39.799923714273028 ], [ 25.261795421706651, 39.801994044728239 ], [ 25.26143769138498, 39.80408155674553 ], [ 25.26122266023242, 39.806180527289911 ], [ 25.26115091763441, 39.808285202437112 ], [ 25.26122266023242, 39.810389813153321 ], [ 25.26143769138498, 39.812488591110665 ], [ 25.261795421706648, 39.814575784494856 ], [ 25.26229487068348, 39.816645673761968 ], [ 25.26293466936054, 39.81869258730088 ], [ 25.263713064094134, 39.820710916959015 ], [ 25.264627921358397, 39.822695133388706 ], [ 25.265676733593153, 39.824639801172616 ], [ 25.266856626076983, 39.826539593686988 ], [ 25.268164364806591, 39.828389307662363 ], [ 25.269596365361028, 39.830183877402341 ], [ 25.271148702726304, 39.83191838862183 ], [ 25.272817122053603, 39.833588091867398 ], [ 25.274597050321521, 39.835188415483444 ], [ 25.276483608870397, 39.836714978089312 ], [ 25.278471626774383, 39.838163600533569 ], [ 25.280555655014588, 39.839530317293438 ], [ 25.282729981414462, 39.840811387288689 ], [ 25.284988646296483, 39.842003304080933 ], [ 25.287325458817207, 39.843102805430981 ], [ 25.289734013935938, 39.844106882188676 ], [ 25.292207709970523, 39.845012786491367 ], [ 25.294739766692064, 39.845818039249146 ], [ 25.297323243909098, 39.846520436896768 ], [ 25.299951060490145, 39.847118057394276 ], [ 25.302616013772614, 39.847609265460264 ], [ 25.305310799304792, 39.847992717023921 ], [ 25.308028030866851, 39.848267362883888 ], [ 25.310760260715956, 39.848432451564086 ], [ 25.3135, 39.848487531359204 ], [ 25.316239739284047, 39.848432451564086 ], [ 25.318971969133152, 39.848267362883888 ], [ 25.321689200695211, 39.847992717023921 ], [ 25.324383986227389, 39.847609265460264 ], [ 25.327048939509858, 39.847118057394276 ], [ 25.329676756090905, 39.846520436896768 ], [ 25.332260233307935, 39.845818039249146 ], [ 25.334792290029483, 39.845012786491367 ], [ 25.337265986064065, 39.844106882188676 ], [ 25.339674541182799, 39.843102805430981 ], [ 25.342011353703519, 39.842003304080933 ], [ 25.344270018585544, 39.840811387288689 ], [ 25.346444344985414, 39.839530317293438 ], [ 25.348528373225623, 39.838163600533569 ], [ 25.350516391129606, 39.836714978089312 ], [ 25.352402949678481, 39.835188415483444 ], [ 25.354182877946403, 39.833588091867398 ], [ 25.355851297273698, 39.83191838862183 ], [ 25.357403634638974, 39.830183877402341 ], [ 25.358835635193412, 39.828389307662363 ], [ 25.360143373923016, 39.826539593686988 ], [ 25.361323266406849, 39.824639801172616 ], [ 25.362372078641606, 39.822695133388706 ], [ 25.363286935905869, 39.820710916959015 ], [ 25.364065330639463, 39.81869258730088 ], [ 25.364705129316526, 39.816645673761968 ], [ 25.365204578293348, 39.814575784494856 ], [ 25.365562308615026, 39.812488591110665 ], [ 25.365777339767583, 39.810389813153321 ], [ 25.365849082365596, 39.808285202437112 ] ] ] } },
{ "type": "Feature", "properties": { "name": "Κοινότητα Σκανδαλίου", "feature_type": "mrr", "metric_roundness": 29.54, "metric_rectangularity": 54.06, "metric_mobile_fit": 52.36, "metric_aspect_ratio": 1.039, "metric_area_km2": 31.5 }, "geometry": { "type": "Polygon", "coordinates": [ [ [ 25.292999806921109, 39.849744250378045 ], [ 25.368802924248829, 39.795397345048031 ], [ 25.337859455059846, 39.769923698840998 ], [ 25.262056337732126, 39.824290738476108 ], [ 25.292999806921109, 39.849744250378045 ] ] ] } }
]
}
