{
"type": "FeatureCollection",
"name": "koinoteta_methones",
"crs": { "type": "name", "properties": { "name": "urn:ogc:def:crs:OGC:1.3:CRS84" } },
"features": [
{ "type": "Feature", "properties": { "name": "Κοινότητα Μεθώνης", "metric_roundness": 34.75, "metric_rectangularity": 53.34, "metric_mobile_fit": 70.85, "metric_aspect_ratio": 0.854, "metric_area_km2": 17.76 }, "geometry": { "type": "Polygon", "coordinates": [ [ [ 22.5847625, 40.443236 ], [ 22.584786, 40.427902499999988 ], [ 22.5920025, 40.4271315 ], [ 22.5945675, 40.426384 ], [ 22.598047, 40.4248195 ], [ 22.6013465, 40.4245495 ], [ 22.6055025, 40.4251775 ], [ 22.605529, 40.4422492 ], [ 22.5860545, 40.4593595 ], [ 22.5808828, 40.4591702 ], [ 22.5802501, 40.4669126 ], [ 22.5736927, 40.4713882 ], [ 22.5664625, 40.471655499999983 ], [ 22.5744259, 40.4655534 ], [ 22.5659547, 40.458978799999983 ], [ 22.5544556, 40.4565903 ], [ 22.5526654, 40.449476399999988 ], [ 22.5545995, 40.4444545 ], [ 22.5847625, 40.443236 ] ] ] } }
]
}
