{
"type": "FeatureCollection",
"name": "koinoteta_mauraton",
"crs": { "type": "name", "properties": { "name": "urn:ogc:def:crs:OGC:1.3:CRS84" } },
"features": [
{ "type": "Feature", "properties": { "name": "Κοινότητα Μαυράτων", "metric_roundness": 38.74, "metric_rectangularity": 74.56, "metric_mobile_fit": -28.79, "metric_aspect_ratio": 1.85, "metric_area_km2": 4.28 }, "geometry": { "type": "Polygon", "coordinates": [ [ [ 20.7427138, 38.0700782 ], [ 20.725979, 38.0760575 ], [ 20.7165347, 38.0727672 ], [ 20.714365, 38.066982 ], [ 20.7424521, 38.0618572 ], [ 20.7477415, 38.0637095 ], [ 20.7427138, 38.0700782 ] ] ] } }
]
}
