{
"type": "FeatureCollection",
"name": "koinoteta_loutses",
"crs": { "type": "name", "properties": { "name": "urn:ogc:def:crs:OGC:1.3:CRS84" } },
"features": [
{ "type": "Feature", "properties": { "name": "Κοινότητα Λούτσης", "metric_roundness": 52.41, "metric_rectangularity": 66.34, "metric_mobile_fit": 62.82, "metric_aspect_ratio": 0.934, "metric_area_km2": 17.16 }, "geometry": { "type": "Polygon", "coordinates": [ [ [ 20.547979, 39.216156 ], [ 20.5484625, 39.214383 ], [ 20.5483325, 39.2124665 ], [ 20.5414305, 39.211135 ], [ 20.538531, 39.210356 ], [ 20.5357815, 39.209448 ], [ 20.529893, 39.206946 ], [ 20.5272205, 39.2051025 ], [ 20.524012, 39.202232 ], [ 20.5199795, 39.1973875 ], [ 20.548058, 39.175422499999989 ], [ 20.5533855, 39.180186499999984 ], [ 20.556902, 39.181953 ], [ 20.5605385, 39.1831715 ], [ 20.5659245, 39.1844935 ], [ 20.5694125, 39.18478 ], [ 20.572883, 39.1844175 ], [ 20.5604994, 39.1964632 ], [ 20.554002, 39.2193035 ], [ 20.547979, 39.216156 ] ] ] } }
]
}
