{
"type": "FeatureCollection",
"name": "koinoteta_kato_blasias",
"crs": { "type": "name", "properties": { "name": "urn:ogc:def:crs:OGC:1.3:CRS84" } },
"features": [
{ "type": "Feature", "properties": { "name": "Κοινότητα Κάτω Βλασίας", "feature_type": "entity", "metric_roundness": 43.69, "metric_rectangularity": 57.85, "metric_mobile_fit": 80.39, "metric_aspect_ratio": 0.759, "metric_area_km2": 33.66 }, "geometry": { "type": "Polygon", "coordinates": [ [ [ 21.8958535, 38.014036 ], [ 21.8938325, 38.012423 ], [ 21.8922505, 38.0105055 ], [ 21.884551, 38.006298 ], [ 21.9048064, 38.0067394 ], [ 21.915511, 38.003606499999982 ], [ 21.9154033, 37.9912814 ], [ 21.9280735, 37.977305 ], [ 21.936189, 37.9763435 ], [ 21.943867, 37.9837281 ], [ 21.949928, 37.998065299999986 ], [ 21.945404, 38.014224199999987 ], [ 21.9349078, 38.0209414 ], [ 21.9384105, 38.0355335 ], [ 21.927909, 38.044142 ], [ 21.9228911, 38.0417937 ], [ 21.9139705, 38.044248499999981 ], [ 21.9121445, 38.0407535 ], [ 21.91059, 38.036052499999983 ], [ 21.9066195, 38.030183 ], [ 21.9040595, 38.0235 ], [ 21.9017745, 38.0206355 ], [ 21.896992, 38.015721 ], [ 21.8958535, 38.014036 ] ] ] } },
{ "type": "Feature", "properties": { "name": "Κοινότητα Κάτω Βλασίας", "feature_type": "circle", "metric_roundness": 43.69, "metric_rectangularity": 57.85, "metric_mobile_fit": 80.39, "metric_aspect_ratio": 0.759, "metric_area_km2": 33.66 }, "geometry": { "type": "Polygon", "coordinates": [ [ [ 21.969581099835008, 38.010303862518207 ], [ 21.969520112281689, 38.008468804090896 ], [ 21.969337316784358, 38.00663872968628 ], [ 21.969033214372786, 38.004818655975797 ], [ 21.968608638570533, 38.003013572588756 ], [ 21.968064753110362, 38.001228428425833 ], [ 21.967403048744515, 37.999468118080415 ], [ 21.966625339158671, 37.997737468404765 ], [ 21.965733756000738, 37.996041225258594 ], [ 21.964730743038185, 37.994384040475992 ], [ 21.963619049459819, 37.99277045908719 ], [ 21.962401722340463, 37.991204906830248 ], [ 21.96108209828915, 37.989691677987281 ], [ 21.959663794303662, 37.988234923578936 ], [ 21.958150697856649, 37.986838639949887 ], [ 21.956546956240292, 37.985506657776916 ], [ 21.954856965198886, 37.98424263153035 ], [ 21.953085356880415, 37.983050029417981 ], [ 21.951236987140128, 37.981932123839499 ], [ 21.949316922231006, 37.980891982378061 ], [ 21.947330424917507, 37.979932459354131 ], [ 21.945282940050681, 37.979056187965185 ], [ 21.943180079644236, 37.978265573032992 ], [ 21.941027607492369, 37.977562784379202 ], [ 21.938831423371646, 37.976949750847247 ], [ 21.936597546870068, 37.976428154987637 ], [ 21.934332100887872, 37.975999428421318 ], [ 21.932041294855008, 37.975664747894278 ], [ 21.929731407711593, 37.975425032034167 ], [ 21.927408770697717, 37.975280938818322 ], [ 21.92507975, 37.975232863760041 ], [ 21.922750729302283, 37.975280938818322 ], [ 21.920428092288407, 37.975425032034167 ], [ 21.918118205144989, 37.975664747894278 ], [ 21.915827399112128, 37.975999428421318 ], [ 21.913561953129928, 37.976428154987637 ], [ 21.911328076628354, 37.976949750847247 ], [ 21.909131892507627, 37.977562784379202 ], [ 21.906979420355764, 37.978265573032992 ], [ 21.904876559949319, 37.979056187965185 ], [ 21.90282907508249, 37.979932459354131 ], [ 21.900842577768994, 37.980891982378061 ], [ 21.898922512859869, 37.981932123839499 ], [ 21.897074143119585, 37.983050029417981 ], [ 21.895302534801115, 37.98424263153035 ], [ 21.893612543759708, 37.985506657776916 ], [ 21.892008802143351, 37.986838639949887 ], [ 21.890495705696338, 37.988234923578936 ], [ 21.88907740171085, 37.989691677987281 ], [ 21.887757777659537, 37.991204906830248 ], [ 21.886540450540181, 37.99277045908719 ], [ 21.885428756961815, 37.994384040475992 ], [ 21.884425743999259, 37.996041225258594 ], [ 21.883534160841325, 37.997737468404765 ], [ 21.882756451255485, 37.999468118080415 ], [ 21.882094746889639, 38.001228428425833 ], [ 21.881550861429467, 38.003013572588756 ], [ 21.881126285627214, 38.004818655975797 ], [ 21.880822183215638, 38.00663872968628 ], [ 21.880639387718311, 38.008468804090896 ], [ 21.880578400164993, 38.010303862518207 ], [ 21.880639387718311, 38.012138875011225 ], [ 21.880822183215638, 38.013968812116197 ], [ 21.881126285627214, 38.015788658665997 ], [ 21.881550861429467, 38.017593427520126 ], [ 21.882094746889639, 38.019378173223991 ], [ 21.882756451255485, 38.02113800554983 ], [ 21.883534160841325, 38.022868102882633 ], [ 21.884425743999259, 38.024563725414296 ], [ 21.885428756961815, 38.026220228110304 ], [ 21.886540450540181, 38.027833073413525 ], [ 21.887757777659537, 38.029397843650599 ], [ 21.88907740171085, 38.030910253107379 ], [ 21.890495705696338, 38.032366159740576 ], [ 21.892008802143351, 38.033761576493959 ], [ 21.893612543759708, 38.035092682188399 ], [ 21.895302534801115, 38.036355831956421 ], [ 21.897074143119585, 38.037547567193151 ], [ 21.898922512859869, 38.038664624996578 ], [ 21.900842577768994, 38.039703947071906 ], [ 21.90282907508249, 38.040662688076047 ], [ 21.904876559949319, 38.041538223379519 ], [ 21.906979420355764, 38.042328156225238 ], [ 21.909131892507627, 38.043030324264642 ], [ 21.911328076628354, 38.043642805453871 ], [ 21.913561953129928, 38.044163923294001 ], [ 21.915827399112128, 38.044592251401362 ], [ 21.918118205144989, 38.044926617395582 ], [ 21.920428092288407, 38.04516610609506 ], [ 21.922750729302283, 38.045310062011303 ], [ 21.92507975, 38.045358091135313 ], [ 21.927408770697717, 38.045310062011303 ], [ 21.929731407711593, 38.04516610609506 ], [ 21.932041294855008, 38.044926617395582 ], [ 21.934332100887872, 38.044592251401362 ], [ 21.936597546870068, 38.044163923294001 ], [ 21.938831423371646, 38.043642805453871 ], [ 21.941027607492369, 38.043030324264642 ], [ 21.943180079644236, 38.042328156225238 ], [ 21.945282940050681, 38.041538223379519 ], [ 21.947330424917507, 38.040662688076047 ], [ 21.949316922231006, 38.039703947071906 ], [ 21.951236987140128, 38.038664624996578 ], [ 21.953085356880415, 38.037547567193151 ], [ 21.954856965198886, 38.036355831956421 ], [ 21.956546956240292, 38.035092682188399 ], [ 21.958150697856649, 38.033761576493959 ], [ 21.959663794303662, 38.032366159740576 ], [ 21.96108209828915, 38.030910253107379 ], [ 21.962401722340463, 38.029397843650599 ], [ 21.963619049459819, 38.027833073413525 ], [ 21.964730743038185, 38.026220228110304 ], [ 21.965733756000738, 38.024563725414296 ], [ 21.966625339158671, 38.022868102882633 ], [ 21.967403048744515, 38.02113800554983 ], [ 21.968064753110362, 38.019378173223991 ], [ 21.968608638570533, 38.017593427520126 ], [ 21.969033214372786, 38.015788658665997 ], [ 21.969337316784358, 38.013968812116197 ], [ 21.969520112281689, 38.012138875011225 ], [ 21.969581099835008, 38.010303862518207 ] ] ] } },
{ "type": "Feature", "properties": { "name": "Κοινότητα Κάτω Βλασίας", "feature_type": "mrr", "metric_roundness": 43.69, "metric_rectangularity": 57.85, "metric_mobile_fit": 80.39, "metric_aspect_ratio": 0.759, "metric_area_km2": 33.66 }, "geometry": { "type": "Polygon", "coordinates": [ [ [ 21.933408342877577, 37.973750348433605 ], [ 21.877958411545748, 38.010688729122627 ], [ 21.919712512558196, 38.049598082441783 ], [ 21.975162443890024, 38.012679308055098 ], [ 21.933408342877577, 37.973750348433605 ] ] ] } }
]
}
