{
"type": "FeatureCollection",
"name": "kokasice",
"crs": { "type": "name", "properties": { "name": "urn:ogc:def:crs:OGC:1.3:CRS84" } },
"features": [
{ "type": "Feature", "properties": { "name": "Kokašice", "feature_type": "entity", "metric_roundness": 60.52, "metric_rectangularity": 69.15, "metric_mobile_fit": 70.48, "metric_aspect_ratio": 0.858, "metric_area_km2": 31.38 }, "geometry": { "type": "Polygon", "coordinates": [ [ [ 12.9156077, 49.8550701 ], [ 12.9227185, 49.8535075 ], [ 12.9351203, 49.854003399999982 ], [ 12.9605, 49.863435 ], [ 12.9543738, 49.8654292 ], [ 12.9620248, 49.871517 ], [ 12.9622095, 49.876393499999985 ], [ 12.9664065, 49.8809933 ], [ 12.965402, 49.887425499999985 ], [ 12.9617175, 49.886898699999982 ], [ 12.9541462, 49.8933465 ], [ 12.9411718, 49.8970184 ], [ 12.908499, 49.8921745 ], [ 12.9105672, 49.8861499 ], [ 12.9199197, 49.8835243 ], [ 12.9219817, 49.8763056 ], [ 12.9278452, 49.871423299999989 ], [ 12.9244866, 49.8647061 ], [ 12.9150148, 49.864328199999974 ], [ 12.9141085, 49.85932 ], [ 12.9156077, 49.8550701 ] ] ] } },
{ "type": "Feature", "properties": { "name": "Kokašice", "feature_type": "circle", "metric_roundness": 60.52, "metric_rectangularity": 69.15, "metric_mobile_fit": 70.48, "metric_aspect_ratio": 0.858, "metric_area_km2": 31.38 }, "geometry": { "type": "Polygon", "coordinates": [ [ [ 12.970554995389618, 49.875376280432576 ], [ 12.970504967603365, 49.874145048865053 ], [ 12.970355021367292, 49.872917160754696 ], [ 12.970105567673606, 49.871695982042695 ], [ 12.969757290257546, 49.87048486053245 ], [ 12.969311143723298, 49.869287116706623 ], [ 12.968768350927503, 49.868106034616133 ], [ 12.968130399627483, 49.866944852866624 ], [ 12.967399038403411, 49.865806755726979 ], [ 12.966576271865566, 49.864694864384433 ], [ 12.965664355159834, 49.863612228370549 ], [ 12.964665787786522, 49.862561817181685 ], [ 12.963583306749392, 49.861546512117194 ], [ 12.962419879053721, 49.860569098357907 ], [ 12.961178693573958, 49.859632257306934 ], [ 12.959863152313224, 49.858738559214075 ], [ 12.95847686107868, 49.857890456104251 ], [ 12.957023619598232, 49.857090275029741 ], [ 12.955507411105767, 49.856340211664943 ], [ 12.953932391423375, 49.85564232426146 ], [ 12.952302877570524, 49.854998527980541 ], [ 12.950623335931423, 49.854410589618539 ], [ 12.948898370012957, 49.853880122740193 ], [ 12.947132707826809, 49.85340858323331 ], [ 12.9453311889303, 49.852997265297283 ], [ 12.943498751161506, 49.852647297876707 ], [ 12.941640417104979, 49.852359641550024 ], [ 12.939761280325197, 49.852135085881905 ], [ 12.937866491405455, 49.851974247246922 ], [ 12.935961243830477, 49.851877567130359 ], [ 12.934050759751434, 49.851845310911159 ], [ 12.932140275672392, 49.851877567130359 ], [ 12.930235028097414, 49.851974247246922 ], [ 12.928340239177672, 49.852135085881905 ], [ 12.926461102397887, 49.852359641550024 ], [ 12.924602768341362, 49.852647297876707 ], [ 12.922770330572568, 49.852997265297283 ], [ 12.920968811676058, 49.85340858323331 ], [ 12.919203149489912, 49.853880122740193 ], [ 12.917478183571445, 49.854410589618539 ], [ 12.915798641932344, 49.854998527980541 ], [ 12.914169128079493, 49.85564232426146 ], [ 12.9125941083971, 49.856340211664943 ], [ 12.911077899904637, 49.857090275029741 ], [ 12.909624658424189, 49.857890456104251 ], [ 12.908238367189643, 49.858738559214075 ], [ 12.906922825928911, 49.859632257306934 ], [ 12.905681640449147, 49.860569098357907 ], [ 12.904518212753477, 49.861546512117194 ], [ 12.903435731716346, 49.862561817181685 ], [ 12.902437164343034, 49.863612228370549 ], [ 12.901525247637302, 49.864694864384433 ], [ 12.900702481099456, 49.865806755726979 ], [ 12.899971119875385, 49.866944852866624 ], [ 12.899333168575366, 49.868106034616133 ], [ 12.898790375779571, 49.869287116706623 ], [ 12.898344229245323, 49.87048486053245 ], [ 12.897995951829262, 49.871695982042695 ], [ 12.897746498135577, 49.872917160754696 ], [ 12.897596551899504, 49.874145048865053 ], [ 12.897546524113251, 49.875376280432576 ], [ 12.897596551899504, 49.876607480608421 ], [ 12.897746498135577, 49.877835274887659 ], [ 12.897995951829262, 49.879056298357177 ], [ 12.898344229245323, 49.880267204914389 ], [ 12.898790375779571, 49.881464676431733 ], [ 12.899333168575366, 49.882645431841759 ], [ 12.899971119875385, 49.883806236117991 ], [ 12.900702481099456, 49.884943909127244 ], [ 12.901525247637302, 49.886055334329122 ], [ 12.902437164343034, 49.887137467299212 ], [ 12.903435731716346, 49.888187344052596 ], [ 12.904518212753477, 49.889202089145314 ], [ 12.905681640449147, 49.890178923531707 ], [ 12.906922825928911, 49.891115172156418 ], [ 12.908238367189643, 49.892008271260359 ], [ 12.909624658424189, 49.892855775381264 ], [ 12.911077899904637, 49.893655364029499 ], [ 12.9125941083971, 49.894404848021424 ], [ 12.914169128079493, 49.895102175453161 ], [ 12.915798641932344, 49.895745437298622 ], [ 12.917478183571445, 49.896332872616853 ], [ 12.919203149489912, 49.896862873354571 ], [ 12.920968811676058, 49.897333988731084 ], [ 12.922770330572568, 49.89774492919387 ], [ 12.924602768341362, 49.898094569934017 ], [ 12.926461102397887, 49.898381953952246 ], [ 12.928340239177672, 49.898606294667346 ], [ 12.930235028097414, 49.89876697805984 ], [ 12.932140275672392, 49.898863564345298 ], [ 12.934050759751434, 49.898895789172819 ], [ 12.935961243830477, 49.898863564345298 ], [ 12.937866491405455, 49.89876697805984 ], [ 12.939761280325197, 49.898606294667346 ], [ 12.941640417104979, 49.898381953952246 ], [ 12.943498751161506, 49.898094569934017 ], [ 12.9453311889303, 49.89774492919387 ], [ 12.947132707826809, 49.897333988731084 ], [ 12.948898370012957, 49.896862873354571 ], [ 12.950623335931423, 49.896332872616853 ], [ 12.952302877570524, 49.895745437298622 ], [ 12.953932391423375, 49.895102175453161 ], [ 12.955507411105767, 49.894404848021424 ], [ 12.957023619598232, 49.893655364029499 ], [ 12.95847686107868, 49.892855775381264 ], [ 12.959863152313224, 49.892008271260359 ], [ 12.961178693573958, 49.891115172156418 ], [ 12.962419879053721, 49.890178923531707 ], [ 12.963583306749392, 49.889202089145314 ], [ 12.964665787786522, 49.888187344052596 ], [ 12.965664355159834, 49.887137467299212 ], [ 12.966576271865566, 49.886055334329122 ], [ 12.967399038403411, 49.884943909127244 ], [ 12.968130399627483, 49.883806236117991 ], [ 12.968768350927503, 49.882645431841759 ], [ 12.969311143723298, 49.881464676431733 ], [ 12.969757290257546, 49.880267204914389 ], [ 12.970105567673606, 49.879056298357177 ], [ 12.970355021367292, 49.877835274887659 ], [ 12.970504967603365, 49.876607480608421 ], [ 12.970554995389618, 49.875376280432576 ] ] ] } },
{ "type": "Feature", "properties": { "name": "Kokašice", "feature_type": "mrr", "metric_roundness": 60.52, "metric_rectangularity": 69.15, "metric_mobile_fit": 70.48, "metric_aspect_ratio": 0.858, "metric_area_km2": 31.38 }, "geometry": { "type": "Polygon", "coordinates": [ [ [ 12.915256375501395, 49.852594201489026 ], [ 12.908072372403369, 49.894672310849799 ], [ 12.963493326628949, 49.898600480333705 ], [ 12.970677329726977, 49.856525795239818 ], [ 12.915256375501395, 49.852594201489026 ] ] ] } }
]
}
