{
"type": "FeatureCollection",
"name": "kolsko",
"crs": { "type": "name", "properties": { "name": "urn:ogc:def:crs:OGC:1.3:CRS84" } },
"features": [
{ "type": "Feature", "properties": { "name": "Kolsko", "metric_roundness": 44.7, "metric_rectangularity": 57.58, "metric_mobile_fit": 80.65, "metric_aspect_ratio": 0.756, "metric_area_km2": 210.83 }, "geometry": { "type": "Polygon", "coordinates": [ [ [ 15.9586275, 51.9215658 ], [ 15.9690308, 51.9216179 ], [ 15.9694127, 51.9258167 ], [ 15.9480548, 51.9347337 ], [ 15.946592, 51.937825699999983 ], [ 15.9581778, 51.943144499999988 ], [ 15.9728791, 51.9420149 ], [ 15.9960197, 51.947322 ], [ 16.0024487, 51.958397699999985 ], [ 16.0110132, 51.966111599999977 ], [ 16.008056, 51.976191799999974 ], [ 16.010617, 51.981422499999987 ], [ 16.0054587, 51.9928632 ], [ 15.9973583, 51.9987273 ], [ 15.9867478, 52.003425899999982 ], [ 15.9885048, 51.996860399999989 ], [ 15.9849828, 51.9957314 ], [ 15.9706901, 52.001593899999989 ], [ 15.9654445, 52.017916 ], [ 15.96599, 52.026736 ], [ 15.9552311, 52.0267018 ], [ 15.9459624, 52.0330119 ], [ 15.9389684, 52.0296739 ], [ 15.9269189, 52.036154799999984 ], [ 15.9029325, 52.037557899999982 ], [ 15.9032763, 52.033722399999988 ], [ 15.9112463, 52.02995 ], [ 15.9135212, 52.0208856 ], [ 15.9240633, 52.0203443 ], [ 15.917644, 52.0106695 ], [ 15.9249122, 51.9915293 ], [ 15.9318469, 51.985442 ], [ 15.9327728, 51.9805204 ], [ 15.9105512, 51.9729946 ], [ 15.9029349, 51.975493 ], [ 15.9038416, 51.9677339 ], [ 15.9071893, 51.9637968 ], [ 15.9041618, 51.9603305 ], [ 15.8918595, 51.955505699999989 ], [ 15.8727073, 51.959484199999984 ], [ 15.8753543, 51.9509262 ], [ 15.8726704, 51.9472357 ], [ 15.8609487, 51.9406398 ], [ 15.8533329, 51.9411513 ], [ 15.8454556, 51.937565299999989 ], [ 15.8465919, 51.9327895 ], [ 15.8645203, 51.928482599999981 ], [ 15.867936, 51.921704499999983 ], [ 15.8761484, 51.9141726 ], [ 15.8939593, 51.9117725 ], [ 15.914056, 51.902643899999987 ], [ 15.9283897, 51.902819199999982 ], [ 15.9433734, 51.907158799999984 ], [ 15.958579, 51.918962 ], [ 15.9586275, 51.9215658 ] ] ] } }
]
}
