{
"type": "FeatureCollection",
"name": "komarow_osada",
"crs": { "type": "name", "properties": { "name": "urn:ogc:def:crs:OGC:1.3:CRS84" } },
"features": [
{ "type": "Feature", "properties": { "name": "Komarów-Osada", "feature_type": "entity", "metric_roundness": 60.09, "metric_rectangularity": 74.14, "metric_mobile_fit": 28.96, "metric_aspect_ratio": 1.273, "metric_area_km2": 306.54 }, "geometry": { "type": "Polygon", "coordinates": [ [ [ 23.4059724, 50.596409 ], [ 23.4274082, 50.5922517 ], [ 23.485191, 50.592861499999984 ], [ 23.495986, 50.602580099999983 ], [ 23.5025422, 50.602521 ], [ 23.5060057, 50.5952881 ], [ 23.5545149, 50.6006812 ], [ 23.5572845, 50.5902725 ], [ 23.5740915, 50.589858199999988 ], [ 23.584163, 50.584124 ], [ 23.5875848, 50.590030599999984 ], [ 23.5788177, 50.596370199999988 ], [ 23.5766615, 50.602850599999989 ], [ 23.5971831, 50.6140326 ], [ 23.594420499999988, 50.62641349999997 ], [ 23.5986742, 50.629386199999985 ], [ 23.6037159, 50.6425325 ], [ 23.6002021, 50.6596687 ], [ 23.591565, 50.662175299999987 ], [ 23.5914346, 50.6707694 ], [ 23.595883, 50.677173 ], [ 23.5798184, 50.6785618 ], [ 23.5770418, 50.685639 ], [ 23.5546141, 50.688659 ], [ 23.5308531, 50.689012 ], [ 23.5243947, 50.685970399999981 ], [ 23.5208245, 50.6793828 ], [ 23.478822, 50.681387499999985 ], [ 23.446896, 50.6796777 ], [ 23.428979, 50.682274 ], [ 23.4242172, 50.665216099999988 ], [ 23.4330654, 50.6584162 ], [ 23.4291515, 50.6431882 ], [ 23.4211623, 50.632193199999982 ], [ 23.4067484, 50.6267956 ], [ 23.3959518, 50.6186332 ], [ 23.3932109, 50.6138343 ], [ 23.3957715, 50.6089145 ], [ 23.4059724, 50.596409 ] ] ] } },
{ "type": "Feature", "properties": { "name": "Komarów-Osada", "feature_type": "circle", "metric_roundness": 60.09, "metric_rectangularity": 74.14, "metric_mobile_fit": 28.96, "metric_aspect_ratio": 1.273, "metric_area_km2": 306.54 }, "geometry": { "type": "Polygon", "coordinates": [ [ [ 23.617072950399006, 50.635103224286432 ], [ 23.616916031361392, 50.631302288110426 ], [ 23.61644570435271, 50.627511463959593 ], [ 23.615663258506611, 50.623741145984958 ], [ 23.614570838452764, 50.620001674601554 ], [ 23.613171438438606, 50.616303308077867 ], [ 23.611468894122304, 50.612656194324096 ], [ 23.60946787205949, 50.609070342957637 ], [ 23.607173856912546, 50.605555597723573 ], [ 23.604593136417535, 50.602121609347421 ], [ 23.601732784149949, 50.59877780889645 ], [ 23.598600640136532, 50.595533381724366 ], [ 23.595205289366319, 50.592397242073297 ], [ 23.591556038259753, 50.589378008405028 ], [ 23.587662889160473, 50.586483979531529 ], [ 23.583536512919537, 50.583723111613217 ], [ 23.579188219647413, 50.581102996090536 ], [ 23.574629927713701, 50.578630838612312 ], [ 23.569874131079757, 50.576313439021405 ], [ 23.564933865053586, 50.574157172455799 ], [ 23.559822670560965, 50.572167971619152 ], [ 23.554554557030727, 50.570351310272876 ], [ 23.549143963995874, 50.568712187997221 ], [ 23.543605721515831, 50.56725511626594 ], [ 23.537955009528275, 50.565984105875067 ], [ 23.53220731624199, 50.564902655762573 ], [ 23.526378395684759, 50.564013743251493 ], [ 23.520484224522658, 50.563319815745281 ], [ 23.514540958269144, 50.562822783899463 ], [ 23.508564887003924, 50.562524016289878 ], [ 23.502572390722921, 50.56242433559305 ], [ 23.496579894441922, 50.562524016289878 ], [ 23.490603823176695, 50.562822783899463 ], [ 23.484660556923188, 50.563319815745281 ], [ 23.478766385761087, 50.564013743251493 ], [ 23.472937465203849, 50.564902655762573 ], [ 23.467189771917567, 50.565984105875067 ], [ 23.461539059930011, 50.56725511626594 ], [ 23.456000817449969, 50.568712187997221 ], [ 23.450590224415112, 50.570351310272876 ], [ 23.445322110884877, 50.572167971619152 ], [ 23.440210916392257, 50.574157172455799 ], [ 23.435270650366085, 50.576313439021405 ], [ 23.430514853732138, 50.578630838612312 ], [ 23.425956561798433, 50.581102996090536 ], [ 23.421608268526306, 50.583723111613217 ], [ 23.41748189228537, 50.586483979531529 ], [ 23.413588743186086, 50.589378008405028 ], [ 23.409939492079523, 50.592397242073297 ], [ 23.406544141309308, 50.595533381724366 ], [ 23.403411997295894, 50.59877780889645 ], [ 23.400551645028305, 50.602121609347421 ], [ 23.397970924533297, 50.605555597723573 ], [ 23.395676909386349, 50.609070342957637 ], [ 23.393675887323536, 50.612656194324096 ], [ 23.391973343007237, 50.616303308077867 ], [ 23.390573942993079, 50.620001674601554 ], [ 23.389481522939228, 50.623741145984958 ], [ 23.388699077093133, 50.627511463959593 ], [ 23.388228750084448, 50.631302288110426 ], [ 23.388071831046837, 50.635103224286432 ], [ 23.388228750084448, 50.638903853131445 ], [ 23.388699077093133, 50.64269375865647 ], [ 23.389481522939228, 50.64646255677517 ], [ 23.390573942993079, 50.650199923724387 ], [ 23.391973343007237, 50.653895624292296 ], [ 23.393675887323536, 50.657539539777488 ], [ 23.395676909386349, 50.661121695603519 ], [ 23.397970924533297, 50.664632288514461 ], [ 23.400551645028305, 50.668061713278561 ], [ 23.403411997295894, 50.671400588828476 ], [ 23.406544141309308, 50.674639783768811 ], [ 23.409939492079523, 50.677770441182858 ], [ 23.413588743186086, 50.680784002673455 ], [ 23.41748189228537, 50.683672231574192 ], [ 23.421608268526306, 50.686427235270372 ], [ 23.425956561798433, 50.689041486571199 ], [ 23.430514853732138, 50.691507844077513 ], [ 23.435270650366085, 50.693819571492114 ], [ 23.440210916392257, 50.695970355822574 ], [ 23.445322110884877, 50.697954324429688 ], [ 23.450590224415112, 50.699766060877437 ], [ 23.456000817449969, 50.701400619543726 ], [ 23.461539059930011, 50.702853538954649 ], [ 23.467189771917567, 50.704120853807787 ], [ 23.472937465203849, 50.705199105654231 ], [ 23.478766385761087, 50.706085352211751 ], [ 23.484660556923188, 50.706777175285637 ], [ 23.490603823176695, 50.707272687276898 ], [ 23.496579894441922, 50.707570536261528 ], [ 23.502572390722921, 50.707669909627647 ], [ 23.508564887003924, 50.707570536261528 ], [ 23.514540958269144, 50.707272687276898 ], [ 23.520484224522658, 50.706777175285637 ], [ 23.526378395684759, 50.706085352211751 ], [ 23.53220731624199, 50.705199105654231 ], [ 23.537955009528275, 50.704120853807787 ], [ 23.543605721515831, 50.702853538954649 ], [ 23.549143963995874, 50.701400619543726 ], [ 23.554554557030727, 50.699766060877437 ], [ 23.559822670560965, 50.697954324429688 ], [ 23.564933865053586, 50.695970355822574 ], [ 23.569874131079757, 50.693819571492114 ], [ 23.574629927713701, 50.691507844077513 ], [ 23.579188219647413, 50.689041486571199 ], [ 23.583536512919537, 50.686427235270372 ], [ 23.587662889160473, 50.683672231574192 ], [ 23.591556038259753, 50.680784002673455 ], [ 23.595205289366319, 50.677770441182858 ], [ 23.598600640136532, 50.674639783768811 ], [ 23.601732784149949, 50.671400588828476 ], [ 23.604593136417535, 50.668061713278561 ], [ 23.607173856912546, 50.664632288514461 ], [ 23.60946787205949, 50.661121695603519 ], [ 23.611468894122304, 50.657539539777488 ], [ 23.613171438438606, 50.653895624292296 ], [ 23.614570838452764, 50.650199923724387 ], [ 23.615663258506611, 50.64646255677517 ], [ 23.61644570435271, 50.64269375865647 ], [ 23.616916031361392, 50.638903853131445 ], [ 23.617072950399006, 50.635103224286432 ] ] ] } },
{ "type": "Feature", "properties": { "name": "Komarów-Osada", "feature_type": "mrr", "metric_roundness": 60.09, "metric_rectangularity": 74.14, "metric_mobile_fit": 28.96, "metric_aspect_ratio": 1.273, "metric_area_km2": 306.54 }, "geometry": { "type": "Polygon", "coordinates": [ [ [ 23.596118917906821, 50.583504035649362 ], [ 23.390678768136841, 50.594155914394342 ], [ 23.403854188534691, 50.696458530259285 ], [ 23.609294338304668, 50.685829816155085 ], [ 23.596118917906821, 50.583504035649362 ] ] ] } }
]
}
