{
"type": "FeatureCollection",
"name": "kosariska",
"crs": { "type": "name", "properties": { "name": "urn:ogc:def:crs:OGC:1.3:CRS84" } },
"features": [
{ "type": "Feature", "properties": { "name": "Košařiska", "metric_roundness": 38.96, "metric_rectangularity": 66.55, "metric_mobile_fit": 51.07, "metric_aspect_ratio": 1.052, "metric_area_km2": 40.84 }, "geometry": { "type": "Polygon", "coordinates": [ [ [ 18.6458685, 49.597532799999989 ], [ 18.6348434, 49.5792374 ], [ 18.6298251, 49.576684799999988 ], [ 18.628073, 49.576025499999972 ], [ 18.6295425, 49.564999 ], [ 18.633519, 49.565262499999982 ], [ 18.63987, 49.564595 ], [ 18.642836, 49.563529 ], [ 18.646128, 49.56304 ], [ 18.6553885, 49.564978 ], [ 18.6597105, 49.563267 ], [ 18.6648935, 49.562069499999986 ], [ 18.6685565, 49.56567 ], [ 18.672461, 49.567025 ], [ 18.6736514, 49.5728517 ], [ 18.6794578, 49.576684799999988 ], [ 18.6924433, 49.5845821 ], [ 18.6977285, 49.5916753 ], [ 18.6954006, 49.5956585 ], [ 18.706526, 49.601375 ], [ 18.706131, 49.6104275 ], [ 18.6853355, 49.6084666 ], [ 18.667303, 49.601639399999989 ], [ 18.6586005, 49.6055435 ], [ 18.6458685, 49.597532799999989 ] ] ] } }
]
}
