{
"type": "FeatureCollection",
"name": "kosice_mestska_cast_dzungla",
"crs": { "type": "name", "properties": { "name": "urn:ogc:def:crs:OGC:1.3:CRS84" } },
"features": [
{ "type": "Feature", "properties": { "name": "Košice - mestská časť Džungľa", "metric_roundness": 36.42, "metric_rectangularity": 73.87, "metric_mobile_fit": 30.65, "metric_aspect_ratio": 1.256, "metric_area_km2": 0.99 }, "geometry": { "type": "Polygon", "coordinates": [ [ [ 21.2676875, 48.734987499999988 ], [ 21.273093, 48.7363315 ], [ 21.265964, 48.742752499999987 ], [ 21.258305, 48.741528 ], [ 21.2676875, 48.734987499999988 ] ] ] } }
]
}
