{
"type": "FeatureCollection",
"name": "kosice_mestska_cast_peres",
"crs": { "type": "name", "properties": { "name": "urn:ogc:def:crs:OGC:1.3:CRS84" } },
"features": [
{ "type": "Feature", "properties": { "name": "Košice - mestská časť Pereš", "metric_roundness": 60.46, "metric_rectangularity": 73.96, "metric_mobile_fit": 44.96, "metric_aspect_ratio": 1.113, "metric_area_km2": 3.15 }, "geometry": { "type": "Polygon", "coordinates": [ [ [ 21.2003113, 48.691752499999986 ], [ 21.2015056, 48.6857353 ], [ 21.215867, 48.683013 ], [ 21.216022, 48.6824125 ], [ 21.2220715, 48.6865855 ], [ 21.2139385, 48.692279 ], [ 21.2087938, 48.69532 ], [ 21.2032065, 48.694365499999982 ], [ 21.2003113, 48.691752499999986 ] ] ] } }
]
}
