{
"type": "FeatureCollection",
"name": "kouvola",
"crs": { "type": "name", "properties": { "name": "urn:ogc:def:crs:OGC:1.3:CRS84" } },
"features": [
{ "type": "Feature", "properties": { "name": "Kouvola", "metric_roundness": 55.6, "metric_rectangularity": 59.65, "metric_mobile_fit": 75.42, "metric_aspect_ratio": 0.808, "metric_area_km2": 12181.04 }, "geometry": { "type": "Polygon", "coordinates": [ [ [ 27.2222535, 61.097839 ], [ 27.213449, 61.103259 ], [ 27.201794, 61.106556 ], [ 27.1901855, 61.101579 ], [ 27.182922, 61.103496499999984 ], [ 27.1766935, 61.106939499999989 ], [ 27.1854045, 61.111854499999986 ], [ 27.18687, 61.1210655 ], [ 27.2182955, 61.142781499999984 ], [ 27.207486, 61.1555005 ], [ 27.2094375, 61.161003499999985 ], [ 27.2058195, 61.162468 ], [ 27.1667205, 61.160987 ], [ 27.147163, 61.163201499999985 ], [ 27.1316555, 61.161059 ], [ 27.1208885, 61.1644075 ], [ 27.111512, 61.157931499999989 ], [ 27.096314, 61.155338 ], [ 27.0839465, 61.155967 ], [ 27.0557025, 61.1515945 ], [ 27.031166, 61.152058 ], [ 27.022896, 61.156289 ], [ 27.003029, 61.15973 ], [ 26.9667785, 61.169344 ], [ 26.9397016, 61.174377699999987 ], [ 26.9365775, 61.174958499999988 ], [ 26.9121315, 61.183158499999983 ], [ 26.929526, 61.2100345 ], [ 26.926744, 61.2183985 ], [ 26.9213825, 61.219905499999982 ], [ 26.920757, 61.225746499999985 ], [ 26.899392, 61.235157 ], [ 26.8908255, 61.242447 ], [ 26.896722, 61.24409 ], [ 26.878023, 61.278142499999987 ], [ 26.881218, 61.285201499999971 ], [ 26.852306, 61.283684 ], [ 26.781821, 61.269986499999987 ], [ 26.7719395, 61.266152499999983 ], [ 26.773359, 61.2585405 ], [ 26.7638565, 61.2485335 ], [ 26.760549, 61.239613 ], [ 26.7507455, 61.235235499999987 ], [ 26.745443, 61.229681 ], [ 26.661315, 61.206876499999986 ], [ 26.6298755, 61.221032499999978 ], [ 26.671099, 61.243588 ], [ 26.6669735, 61.252289 ], [ 26.6500205, 61.2643825 ], [ 26.6417585, 61.282539 ], [ 26.633097, 61.287549 ], [ 26.6291365, 61.2925765 ], [ 26.6170935, 61.2870535 ], [ 26.561709, 61.2705485 ], [ 26.549575, 61.277016499999988 ], [ 26.534808, 61.275619 ], [ 26.5321405, 61.272231 ], [ 26.5181765, 61.2718905 ], [ 26.5136595, 61.274324 ], [ 26.5053385, 61.269894 ], [ 26.483929, 61.265114499999989 ], [ 26.4673705, 61.263148 ], [ 26.4439925, 61.262791 ], [ 26.443567, 61.256388499999986 ], [ 26.4342215, 61.255565499999975 ], [ 26.4249665, 61.251501 ], [ 26.4293275, 61.246874 ], [ 26.431301, 61.237305 ], [ 26.3964315, 61.213724 ], [ 26.385474, 61.188136 ], [ 26.347742, 61.173691 ], [ 26.270542, 61.163007499999985 ], [ 26.269007, 61.149534 ], [ 26.2344465, 61.130002499999989 ], [ 26.2599243, 61.106678 ], [ 26.3004729, 61.102781499999985 ], [ 26.2705064, 61.0717642 ], [ 26.2529053, 61.0440844 ], [ 26.267844, 61.0139381 ], [ 26.2852975, 61.011785399999987 ], [ 26.3033445, 61.0055723 ], [ 26.3404336, 61.001390799999982 ], [ 26.3469075, 61.005032499999984 ], [ 26.3575216, 61.0213057 ], [ 26.3793398, 61.0269093 ], [ 26.4201218, 61.0135581 ], [ 26.453438, 61.016385 ], [ 26.4972434, 61.010038499999986 ], [ 26.5013998, 61.005398299999989 ], [ 26.4998556, 60.985712799999973 ], [ 26.5152075, 60.969587399999988 ], [ 26.5194299, 60.953751599999983 ], [ 26.5378353, 60.934935499999987 ], [ 26.5436473, 60.889246599999986 ], [ 26.5378009, 60.8746917 ], [ 26.5294491, 60.8724728 ], [ 26.4708796, 60.875864599999986 ], [ 26.4649507, 60.8737924 ], [ 26.4678427, 60.868443799999987 ], [ 26.5050307, 60.838930399999988 ], [ 26.4738161, 60.828563099999982 ], [ 26.4580998, 60.819003 ], [ 26.4330717, 60.8185837 ], [ 26.3866435, 60.807068299999983 ], [ 26.3830299, 60.79953 ], [ 26.392662, 60.7805559 ], [ 26.3740242, 60.770175799999976 ], [ 26.3694912, 60.76197269999998 ], [ 26.3122257, 60.7539658 ], [ 26.3001265, 60.7492035 ], [ 26.3012609, 60.730963399999972 ], [ 26.3303831, 60.712038399999983 ], [ 26.3257601, 60.6965178 ], [ 26.3371937, 60.67786229999998 ], [ 26.3591439, 60.6683823 ], [ 26.3471005, 60.661355499999985 ], [ 26.4301181, 60.649668899999988 ], [ 26.4564309, 60.6398119 ], [ 26.4810049, 60.6148227 ], [ 26.4841947, 60.5975405 ], [ 26.5122812, 60.5988185 ], [ 26.5375624, 60.594960199999989 ], [ 26.5417795, 60.575003499999987 ], [ 26.5660123, 60.6076838 ], [ 26.5787313, 60.6150827 ], [ 26.5831971, 60.623620499999987 ], [ 26.5935479, 60.628179 ], [ 26.598892, 60.6420824 ], [ 26.6496383, 60.652195399999989 ], [ 26.6837179, 60.648100299999982 ], [ 26.7538785, 60.575706 ], [ 26.7657752, 60.576771399999984 ], [ 26.7755401, 60.582222 ], [ 26.7767739, 60.588377099999988 ], [ 26.7834053, 60.59259609999998 ], [ 26.7817804, 60.599100699999987 ], [ 26.7859176, 60.6050149 ], [ 26.7807227, 60.6181639 ], [ 26.7560284, 60.625931099999981 ], [ 26.7513914, 60.6298587 ], [ 26.7593065, 60.639106 ], [ 26.7530732, 60.645315199999985 ], [ 26.7528551, 60.6514695 ], [ 26.7435934, 60.656462 ], [ 26.7543616, 60.664925599999989 ], [ 26.7528999, 60.673437299999989 ], [ 26.7705168, 60.675449499999985 ], [ 26.7804904, 60.673707199999988 ], [ 26.7950989, 60.668472699999988 ], [ 26.8253773, 60.649520299999985 ], [ 26.8402117, 60.6515342 ], [ 26.8396801, 60.647116499999981 ], [ 26.828357, 60.644293499999989 ], [ 26.8315333, 60.639950599999985 ], [ 26.8533442, 60.641153799999984 ], [ 26.8826656, 60.636610699999984 ], [ 26.9221325, 60.648549 ], [ 26.9397016, 60.653066899999985 ], [ 27.041735, 60.679305 ], [ 27.0507655, 60.670883499999988 ], [ 27.0639375, 60.67557 ], [ 27.067749, 60.671755 ], [ 27.0833465, 60.674835 ], [ 27.1031135, 60.685541499999985 ], [ 27.1099105, 60.6978575 ], [ 27.119056, 60.712357499999989 ], [ 27.1328285, 60.716711499999988 ], [ 27.1230665, 60.724634 ], [ 27.125195, 60.728404 ], [ 27.117203, 60.735703 ], [ 27.110658, 60.7398795 ], [ 27.129108, 60.747891 ], [ 27.124124, 60.752068499999986 ], [ 27.126896, 60.75623049999998 ], [ 27.1209215, 60.759397 ], [ 27.117695, 60.7641675 ], [ 27.129206, 60.767255 ], [ 27.122712, 60.77195 ], [ 27.124648, 60.7768585 ], [ 27.1313745, 60.7760335 ], [ 27.2031015, 60.760494499999986 ], [ 27.2252695, 60.760393 ], [ 27.22516, 60.7636435 ], [ 27.2321135, 60.770214 ], [ 27.232383, 60.775553 ], [ 27.2387035, 60.774144499999984 ], [ 27.2479295, 60.7773535 ], [ 27.267467, 60.778166 ], [ 27.2727425, 60.786982 ], [ 27.269896, 60.790998499999986 ], [ 27.26145, 60.794886 ], [ 27.261315, 60.80084249999998 ], [ 27.271635, 60.804028 ], [ 27.2926415, 60.821997 ], [ 27.3101875, 60.820581 ], [ 27.3345475, 60.816887 ], [ 27.346918, 60.817475 ], [ 27.3490205, 60.82497 ], [ 27.358274, 60.828432 ], [ 27.354344, 60.8310035 ], [ 27.377929, 60.8384645 ], [ 27.428357, 60.842635499999986 ], [ 27.3914175, 60.864384 ], [ 27.3859605, 60.8712105 ], [ 27.372619, 60.878989 ], [ 27.350922, 60.8851455 ], [ 27.3389955, 60.887702 ], [ 27.316324, 60.890272 ], [ 27.3046985, 60.893602499999986 ], [ 27.2770535, 60.896787 ], [ 27.250684, 60.899097499999982 ], [ 27.2132215, 60.904045499999981 ], [ 27.184346, 60.92478149999998 ], [ 27.1607015, 60.936631 ], [ 27.136108, 60.951243499999983 ], [ 27.121067, 60.964015499999988 ], [ 27.1294325, 60.966890499999984 ], [ 27.1388925, 60.963469 ], [ 27.1420695, 60.9580835 ], [ 27.152583, 60.9531165 ], [ 27.16845, 60.954129 ], [ 27.17423, 60.950741 ], [ 27.18486, 60.950856 ], [ 27.1889095, 60.952928 ], [ 27.1951875, 60.9519545 ], [ 27.2122855, 60.955626 ], [ 27.222114, 60.960274 ], [ 27.234527, 60.963224499999988 ], [ 27.2416605, 60.9634765 ], [ 27.2483225, 60.9703095 ], [ 27.24166, 60.973181499999981 ], [ 27.2191785, 60.9698 ], [ 27.2126065, 60.9786115 ], [ 27.213386, 60.984767499999982 ], [ 27.2175645, 60.98692 ], [ 27.2085675, 60.992285 ], [ 27.2072195, 60.999705 ], [ 27.192961, 61.0076585 ], [ 27.1906645, 61.004158 ], [ 27.173304, 60.99798149999998 ], [ 27.1667285, 60.9997415 ], [ 27.161695, 61.0046545 ], [ 27.1411515, 61.010544 ], [ 27.141778, 61.014702 ], [ 27.1480195, 61.021261 ], [ 27.154033, 61.0230355 ], [ 27.159522, 61.02773449999998 ], [ 27.1507705, 61.044067 ], [ 27.146872, 61.047904 ], [ 27.1513265, 61.058688 ], [ 27.1496825, 61.0673995 ], [ 27.152881, 61.070796 ], [ 27.1615, 61.071551499999984 ], [ 27.173849, 61.078270499999988 ], [ 27.185007, 61.086043499999981 ], [ 27.212357, 61.0896975 ], [ 27.228489, 61.0901985 ], [ 27.2222535, 61.097839 ] ] ] } }
]
}
