{
"type": "FeatureCollection",
"name": "kozli",
"crs": { "type": "name", "properties": { "name": "urn:ogc:def:crs:OGC:1.3:CRS84" } },
"features": [
{ "type": "Feature", "properties": { "name": "Kožlí", "feature_type": "entity", "metric_roundness": 52.93, "metric_rectangularity": 67.16, "metric_mobile_fit": 68.63, "metric_aspect_ratio": 0.876, "metric_area_km2": 10.55 }, "geometry": { "type": "Polygon", "coordinates": [ [ [ 14.1692536, 49.523901099999989 ], [ 14.1593255, 49.533455499999988 ], [ 14.1531423, 49.533780299999982 ], [ 14.1513095, 49.5302695 ], [ 14.1423121, 49.527852099999983 ], [ 14.1376462, 49.5224155 ], [ 14.1352405, 49.5085805 ], [ 14.1661195, 49.514399 ], [ 14.1692536, 49.523901099999989 ] ] ] } },
{ "type": "Feature", "properties": { "name": "Kožlí", "feature_type": "circle", "metric_roundness": 52.93, "metric_rectangularity": 67.16, "metric_mobile_fit": 68.63, "metric_aspect_ratio": 0.876, "metric_area_km2": 10.55 }, "geometry": { "type": "Polygon", "coordinates": [ [ [ 14.16991247716496, 49.521019581747979 ], [ 14.169881464252983, 49.520250741875067 ], [ 14.169788510521288, 49.519483997300085 ], [ 14.169633870749594, 49.518721449764975 ], [ 14.169417968794765, 49.517965189605057 ], [ 14.169141396429053, 49.517217290016816 ], [ 14.168804911718086, 49.51647980137173 ], [ 14.168409436943071, 49.515754745591614 ], [ 14.167956056072875, 49.515044110601011 ], [ 14.167446011792949, 49.514349844871894 ], [ 14.166880702099215, 49.513673852075677 ], [ 14.166261676466243, 49.513017985857331 ], [ 14.165590631600271, 49.512384044745929 ], [ 14.164869406788631, 49.51177376721575 ], [ 14.164099978858397, 49.511188826911557 ], [ 14.163284456758047, 49.510630828051156 ], [ 14.162425075776973, 49.510101301018132 ], [ 14.161524191418703, 49.509601698156786 ], [ 14.160584272944652, 49.50913338978097 ], [ 14.159607896606015, 49.508697660407854 ], [ 14.158597738582479, 49.508295705227184 ], [ 14.157556567646964, 49.507928626815556 ], [ 14.156487237576634, 49.507597432105143 ], [ 14.155392679330888, 49.507303029615002 ], [ 14.15427589301779, 49.507046226952816 ], [ 14.153139939671004, 49.506827728593954 ], [ 14.151987932859686, 49.506648133944005 ], [ 14.15082303015444, 49.506507935690188 ], [ 14.149648424472604, 49.506407518446188 ], [ 14.148467335326705, 49.5063471576943 ], [ 14.147283, 49.506327019027545 ], [ 14.146098664673291, 49.5063471576943 ], [ 14.144917575527394, 49.506407518446188 ], [ 14.143742969845558, 49.506507935690188 ], [ 14.14257806714031, 49.506648133944005 ], [ 14.141426060328994, 49.506827728593954 ], [ 14.140290106982208, 49.507046226952816 ], [ 14.139173320669109, 49.507303029615002 ], [ 14.138078762423362, 49.507597432105143 ], [ 14.137009432353032, 49.507928626815556 ], [ 14.135968261417517, 49.508295705227184 ], [ 14.134958103393982, 49.508697660407854 ], [ 14.133981727055346, 49.50913338978097 ], [ 14.133041808581293, 49.509601698156786 ], [ 14.132140924223023, 49.510101301018132 ], [ 14.131281543241949, 49.510630828051156 ], [ 14.130466021141601, 49.511188826911557 ], [ 14.129696593211365, 49.51177376721575 ], [ 14.128975368399727, 49.512384044745929 ], [ 14.128304323533753, 49.513017985857331 ], [ 14.127685297900783, 49.513673852075677 ], [ 14.127119988207047, 49.514349844871894 ], [ 14.126609943927122, 49.515044110601011 ], [ 14.126156563056927, 49.515754745591614 ], [ 14.125761088281912, 49.51647980137173 ], [ 14.125424603570945, 49.517217290016816 ], [ 14.125148031205232, 49.517965189605057 ], [ 14.124932129250402, 49.518721449764975 ], [ 14.12477748947871, 49.519483997300085 ], [ 14.124684535747015, 49.520250741875067 ], [ 14.124653522835038, 49.521019581747979 ], [ 14.124684535747015, 49.521788409532576 ], [ 14.12477748947871, 49.522555117975031 ], [ 14.124932129250402, 49.523317605729275 ], [ 14.125148031205232, 49.524073783114979 ], [ 14.125424603570945, 49.524821577842538 ], [ 14.125761088281912, 49.525558940689358 ], [ 14.126156563056927, 49.526283851111877 ], [ 14.126609943927122, 49.526994322778144 ], [ 14.127119988207047, 49.527688409005592 ], [ 14.127685297900783, 49.528364208089457 ], [ 14.128304323533753, 49.52901986850712 ], [ 14.128975368399727, 49.529653593984321 ], [ 14.129696593211365, 49.530263648409289 ], [ 14.130466021141601, 49.530848360581693 ], [ 14.131281543241949, 49.531406128783146 ], [ 14.132140924223023, 49.531935425157222 ], [ 14.133041808581293, 49.532434799886758 ], [ 14.133981727055346, 49.532902885157384 ], [ 14.134958103393982, 49.533338398896291 ], [ 14.135968261417517, 49.533740148276301 ], [ 14.137009432353032, 49.534107032975584 ], [ 14.138078762423362, 49.534438048184327 ], [ 14.139173320669109, 49.534732287350131 ], [ 14.140290106982208, 49.534988944654735 ], [ 14.141426060328994, 49.535207317215317 ], [ 14.14257806714031, 49.535386807004592 ], [ 14.143742969845558, 49.535526922484202 ], [ 14.144917575527394, 49.535627279947335 ], [ 14.146098664673291, 49.535687604566711 ], [ 14.147283, 49.535707731145138 ], [ 14.148467335326705, 49.535687604566711 ], [ 14.149648424472604, 49.535627279947335 ], [ 14.15082303015444, 49.535526922484202 ], [ 14.151987932859686, 49.535386807004592 ], [ 14.153139939671004, 49.535207317215317 ], [ 14.15427589301779, 49.534988944654735 ], [ 14.155392679330888, 49.534732287350131 ], [ 14.156487237576634, 49.534438048184327 ], [ 14.157556567646964, 49.534107032975584 ], [ 14.158597738582479, 49.533740148276301 ], [ 14.159607896606015, 49.533338398896291 ], [ 14.160584272944652, 49.532902885157384 ], [ 14.161524191418703, 49.532434799886758 ], [ 14.162425075776973, 49.531935425157222 ], [ 14.163284456758047, 49.531406128783146 ], [ 14.164099978858397, 49.530848360581693 ], [ 14.164869406788631, 49.530263648409289 ], [ 14.165590631600271, 49.529653593984321 ], [ 14.166261676466243, 49.52901986850712 ], [ 14.166880702099215, 49.528364208089457 ], [ 14.167446011792949, 49.527688409005592 ], [ 14.167956056072875, 49.526994322778144 ], [ 14.168409436943071, 49.526283851111877 ], [ 14.168804911718086, 49.525558940689358 ], [ 14.169141396429053, 49.524821577842538 ], [ 14.169417968794765, 49.524073783114979 ], [ 14.169633870749594, 49.523317605729275 ], [ 14.169788510521288, 49.522555117975031 ], [ 14.169881464252983, 49.521788409532576 ], [ 14.16991247716496, 49.521019581747979 ] ] ] } },
{ "type": "Feature", "properties": { "name": "Kožlí", "feature_type": "mrr", "metric_roundness": 52.93, "metric_rectangularity": 67.16, "metric_mobile_fit": 68.63, "metric_aspect_ratio": 0.876, "metric_area_km2": 10.55 }, "geometry": { "type": "Polygon", "coordinates": [ [ [ 14.172927869935805, 49.515681801897294 ], [ 14.1352405, 49.5085805 ], [ 14.126240736064908, 49.528713312594604 ], [ 14.163928108953971, 49.535811691488625 ], [ 14.172927869935805, 49.515681801897294 ] ] ] } }
]
}
