{
"type": "FeatureCollection",
"name": "turnau",
"crs": { "type": "name", "properties": { "name": "urn:ogc:def:crs:OGC:1.3:CRS84" } },
"features": [
{ "type": "Feature", "properties": { "name": "Turnau", "feature_type": "entity", "metric_roundness": 41.36, "metric_rectangularity": 49.89, "metric_mobile_fit": 46.84, "metric_aspect_ratio": 1.094, "metric_area_km2": 295.13 }, "geometry": { "type": "Polygon", "coordinates": [ [ [ 15.273290900726124, 47.663526986278889 ], [ 15.273530923781372, 47.6622229034665 ], [ 15.273544131940268, 47.661328839249279 ], [ 15.273545678073749, 47.661055765688239 ], [ 15.272542327979831, 47.659270989154365 ], [ 15.272242667953554, 47.658737886260489 ], [ 15.27208275966726, 47.65815955047804 ], [ 15.271899965517344, 47.657498891424012 ], [ 15.271484402584193, 47.655996257216991 ], [ 15.270841125909282, 47.655006943318639 ], [ 15.270931307785828, 47.654841085368986 ], [ 15.270673733556253, 47.654622049299391 ], [ 15.270670180421968, 47.654569099837431 ], [ 15.270596521852726, 47.653490264460977 ], [ 15.270335736166723, 47.653176782979877 ], [ 15.269936125062689, 47.652696261900061 ], [ 15.272080762400913, 47.652145496749036 ], [ 15.272837322667918, 47.652106094416183 ], [ 15.273065710841385, 47.65209414077966 ], [ 15.274455322345224, 47.652021633787193 ], [ 15.27511310317546, 47.651987304402439 ], [ 15.275911303558123, 47.6524144535978 ], [ 15.27760437077171, 47.652411029336662 ], [ 15.27765764601274, 47.652410938220854 ], [ 15.277938937549267, 47.652410409949844 ], [ 15.278996168295972, 47.651901574549136 ], [ 15.279454423006186, 47.651382441667891 ], [ 15.279821089811614, 47.650904367370735 ], [ 15.28000552313179, 47.650479597675997 ], [ 15.280744114133581, 47.650164869384533 ], [ 15.280914566935733, 47.650092232009897 ], [ 15.28114694242668, 47.64934103046081 ], [ 15.28121303184844, 47.649305890771132 ], [ 15.282226133327438, 47.648766091797867 ], [ 15.28219775733535, 47.648730033190539 ], [ 15.281868630824102, 47.648313336256329 ], [ 15.281697834706188, 47.648351421271876 ], [ 15.281373036317934, 47.648151637994296 ], [ 15.281250865958587, 47.647422103980666 ], [ 15.281226394992483, 47.647275909782756 ], [ 15.280900849229136, 47.64665017109261 ], [ 15.280847928049976, 47.646548378562329 ], [ 15.280822790206107, 47.645917549108475 ], [ 15.28076971420619, 47.645667980230549 ], [ 15.280698428815139, 47.645333220461431 ], [ 15.280693764849831, 47.645311609638867 ], [ 15.280730261754551, 47.645301001331212 ], [ 15.281178627789716, 47.645170554428283 ], [ 15.281170572520395, 47.644856593119897 ], [ 15.281157473682539, 47.644345708608121 ], [ 15.281128168273257, 47.643200692901125 ], [ 15.281339571173611, 47.643001271191892 ], [ 15.28141510081624, 47.642930061422177 ], [ 15.281639113546307, 47.642718815445562 ], [ 15.281801465719269, 47.642697703212114 ], [ 15.282010334738759, 47.642670492073513 ], [ 15.2823893740496, 47.642621134910605 ], [ 15.282047650556008, 47.642301761603733 ], [ 15.281628961533984, 47.641910702551641 ], [ 15.281361712407866, 47.641900562849663 ], [ 15.279941720046804, 47.641846683590025 ], [ 15.280177333648844, 47.641165446977773 ], [ 15.28031791052617, 47.640758428075593 ], [ 15.280454776698713, 47.640362721729119 ], [ 15.28077851885743, 47.639426281742196 ], [ 15.280839846153061, 47.639248753509193 ], [ 15.280908651915972, 47.639039508672653 ], [ 15.281264585083591, 47.637955462009437 ], [ 15.281159855549642, 47.637336420499267 ], [ 15.281465339870831, 47.636737695220461 ], [ 15.281494505935539, 47.636680411059537 ], [ 15.281535971640288, 47.636599338488061 ], [ 15.28237778492451, 47.635752837708758 ], [ 15.283200581762408, 47.635011682400034 ], [ 15.283232148012173, 47.634983246883117 ], [ 15.28379582433392, 47.634475442608256 ], [ 15.284402010472197, 47.634151592905695 ], [ 15.284927774126789, 47.633935395409644 ], [ 15.286091120484581, 47.633617192420992 ], [ 15.287430158786202, 47.633344139648656 ], [ 15.288586230813671, 47.633010104625782 ], [ 15.28953032280762, 47.632522526934558 ], [ 15.289846200021858, 47.632259569286425 ], [ 15.289871898284993, 47.63223816174547 ], [ 15.290532945413048, 47.631687534565891 ], [ 15.290603450236768, 47.631628733675022 ], [ 15.290742530582573, 47.631512964617585 ], [ 15.291324388582042, 47.631045761424232 ], [ 15.291979969265833, 47.630909731272318 ], [ 15.292806514676791, 47.630796530922467 ], [ 15.293538022065725, 47.630644517923592 ], [ 15.293787392721514, 47.630592698436729 ], [ 15.294016126163379, 47.630545163555631 ], [ 15.294349535914176, 47.63045558474343 ], [ 15.295054893798071, 47.630259251179609 ], [ 15.295374175064882, 47.630154385531846 ], [ 15.295760792534445, 47.630136299025416 ], [ 15.296396790423277, 47.629894440594917 ], [ 15.296396829667282, 47.629894421924412 ], [ 15.296429790233566, 47.629867938759027 ], [ 15.296489632556428, 47.629819756264951 ], [ 15.296515353822743, 47.629799066769017 ], [ 15.296864051566939, 47.629553528056675 ], [ 15.296897258728436, 47.629537210548754 ], [ 15.297002636921363, 47.62948554957724 ], [ 15.297112068937421, 47.629431929217091 ], [ 15.297129718373514, 47.629423257551082 ], [ 15.29714084293974, 47.629418117407909 ], [ 15.297538888706034, 47.629235543200508 ], [ 15.298170360653693, 47.628989935948063 ], [ 15.29825307179898, 47.62894811142246 ], [ 15.298268752020922, 47.628940193252383 ], [ 15.298400987810162, 47.628873401608814 ], [ 15.298703346610155, 47.628720539735191 ], [ 15.298750732266241, 47.62868822910513 ], [ 15.298986588885622, 47.628885704820355 ], [ 15.29918077187396, 47.629207553378592 ], [ 15.299220334165385, 47.629211646497509 ], [ 15.299260162569809, 47.629215735049662 ], [ 15.299305070585188, 47.629220366675405 ], [ 15.299447142931317, 47.62923494570866 ], [ 15.299513650519264, 47.629435948116139 ], [ 15.299600942040414, 47.629651534849472 ], [ 15.29996621363799, 47.630243424862186 ], [ 15.300790623941177, 47.631131653688527 ], [ 15.300885411521872, 47.631259270941875 ], [ 15.300978515569421, 47.631398796979653 ], [ 15.301274332554261, 47.631842022054435 ], [ 15.302902172772379, 47.631930861308014 ], [ 15.303141485685844, 47.63223383994827 ], [ 15.303162454334185, 47.632242660511423 ], [ 15.303358201599087, 47.632328404914723 ], [ 15.303421417785856, 47.632356031162097 ], [ 15.303458238202095, 47.632372139912327 ], [ 15.303482334870932, 47.632382706792541 ], [ 15.303508324784307, 47.632394051208806 ], [ 15.303515907849874, 47.632397431200154 ], [ 15.303539192672966, 47.632407651987648 ], [ 15.303712296627303, 47.632443473895385 ], [ 15.303848795099865, 47.632412153083479 ], [ 15.303958361605822, 47.632386964008191 ], [ 15.304052617827464, 47.632365367420761 ], [ 15.304081028176556, 47.632356060130682 ], [ 15.304344882850755, 47.632269814190714 ], [ 15.304857398664591, 47.632164361369583 ], [ 15.305194318335156, 47.632095039844742 ], [ 15.305221709832582, 47.632090519767971 ], [ 15.305255471134561, 47.632067710303872 ], [ 15.305280407268263, 47.632050992304791 ], [ 15.305357229973707, 47.631969393586004 ], [ 15.305545936745517, 47.631835744308674 ], [ 15.30557317314795, 47.631816466750493 ], [ 15.305700153252161, 47.631776397028737 ], [ 15.305704726091083, 47.631717368305083 ], [ 15.305998985170465, 47.63170340684141 ], [ 15.306158234403981, 47.631774473056986 ], [ 15.306380258842077, 47.63181179101862 ], [ 15.306512702697679, 47.631814376746675 ], [ 15.306813966453992, 47.631820273000706 ], [ 15.307008278139838, 47.631786245412357 ], [ 15.30726540113152, 47.631861118962561 ], [ 15.307403098741196, 47.63186532342155 ], [ 15.307572931856379, 47.631817675353176 ], [ 15.307729802294809, 47.631836040064634 ], [ 15.307875685640164, 47.631700332659108 ], [ 15.308573999108988, 47.631706510649423 ], [ 15.308699596573176, 47.631760691797588 ], [ 15.309105871473401, 47.6317761167669 ], [ 15.309262389056693, 47.63164004467918 ], [ 15.309514175356442, 47.63167918483127 ], [ 15.309846762655113, 47.631647094210521 ], [ 15.309951608037187, 47.631687590899766 ], [ 15.309980519534589, 47.631698703613559 ], [ 15.310000380621952, 47.631706371993126 ], [ 15.310071719558731, 47.631733944901022 ], [ 15.310120086278388, 47.631752552926152 ], [ 15.309992105195548, 47.632098376415769 ], [ 15.309973814192094, 47.632135951259791 ], [ 15.309946012318608, 47.632193219808734 ], [ 15.309826129903145, 47.632439453223867 ], [ 15.30976841577554, 47.63255807654329 ], [ 15.309305477129135, 47.633800214229893 ], [ 15.309292167025282, 47.63383572327254 ], [ 15.309248767553967, 47.633927909975526 ], [ 15.309227678924623, 47.633972552804508 ], [ 15.3090839049958, 47.634277606301104 ], [ 15.308469697521888, 47.635007268278038 ], [ 15.308333911219355, 47.635408033733462 ], [ 15.308449871004159, 47.635736701990972 ], [ 15.308582376373122, 47.636013155530087 ], [ 15.308680346929462, 47.636044141606895 ], [ 15.308892947124731, 47.636046336881158 ], [ 15.309211408718861, 47.636267932494263 ], [ 15.309364148742135, 47.636420286766395 ], [ 15.310056000212544, 47.636514858328916 ], [ 15.310281000477643, 47.636644728325706 ], [ 15.31074810576507, 47.636676201697206 ], [ 15.311351878222004, 47.636857331543503 ], [ 15.311902443190785, 47.636955043991016 ], [ 15.312215599157748, 47.637010672090618 ], [ 15.313225720886926, 47.637260754502591 ], [ 15.313930863462584, 47.637421224403653 ], [ 15.31465017936155, 47.637554895535452 ], [ 15.314717042870155, 47.637576512833213 ], [ 15.315372442727254, 47.637787691963169 ], [ 15.315743972617986, 47.639156131318558 ], [ 15.31560174377983, 47.640178560263799 ], [ 15.316537477859889, 47.641358522889675 ], [ 15.316526454901988, 47.64149326382816 ], [ 15.316304376542295, 47.644208989382818 ], [ 15.316438069162887, 47.645854680162643 ], [ 15.31725198598855, 47.645996784639053 ], [ 15.317346771016428, 47.64601332859182 ], [ 15.318414253626239, 47.646204237886955 ], [ 15.319861894701894, 47.64601983549116 ], [ 15.320372052941812, 47.645954856571606 ], [ 15.32071975552193, 47.645595142820405 ], [ 15.322000621316745, 47.644503600881798 ], [ 15.322898114231517, 47.644630179099742 ], [ 15.326683475963391, 47.645163724302364 ], [ 15.327748836918659, 47.64519312272779 ], [ 15.330422525728196, 47.646112584600822 ], [ 15.331183100157155, 47.646374139112503 ], [ 15.332249617394078, 47.646740889387139 ], [ 15.333114514583919, 47.646136068638278 ], [ 15.334197205011035, 47.645379128131815 ], [ 15.335045055231525, 47.64517707298404 ], [ 15.336969794509477, 47.644776151019812 ], [ 15.336972090151445, 47.644623469256985 ], [ 15.337465270627382, 47.644062354059777 ], [ 15.337964507868593, 47.643733333634131 ], [ 15.339014278465321, 47.64304154029233 ], [ 15.33957169213369, 47.642674146716359 ], [ 15.339637165357333, 47.642631063233452 ], [ 15.339872839284594, 47.642183963120644 ], [ 15.339991359229634, 47.641765818379326 ], [ 15.339908063287611, 47.641697971826495 ], [ 15.339734191756339, 47.641556465560768 ], [ 15.34000582912342, 47.641130607392363 ], [ 15.339695912828473, 47.639844231249995 ], [ 15.339781803025344, 47.638868648551288 ], [ 15.33965550914202, 47.638720911479908 ], [ 15.339699971069814, 47.638082926514009 ], [ 15.339702098212731, 47.638051478943929 ], [ 15.339710937228668, 47.637923882866517 ], [ 15.33968385018879, 47.637737783208195 ], [ 15.339675915280985, 47.63768347099149 ], [ 15.339666663971048, 47.63766788229222 ], [ 15.339595668207101, 47.637548880120569 ], [ 15.339571055147207, 47.637507639245833 ], [ 15.339521255607041, 47.637424087477186 ], [ 15.339673471594285, 47.637305958419773 ], [ 15.339809909345464, 47.637200074808021 ], [ 15.340209906374508, 47.636889605727099 ], [ 15.340521444731229, 47.63674187258141 ], [ 15.340876945370908, 47.636525059561691 ], [ 15.341344077413721, 47.636271194271536 ], [ 15.342117133314737, 47.635897227869101 ], [ 15.342512910858181, 47.635619764538681 ], [ 15.342651600841288, 47.635332935192018 ], [ 15.342921070854048, 47.634858865740036 ], [ 15.343117420607539, 47.634617468049477 ], [ 15.343557034266063, 47.634160311243313 ], [ 15.343416144204955, 47.633836520712265 ], [ 15.343448625445568, 47.633624179143489 ], [ 15.343763913020412, 47.633136975550315 ], [ 15.343703541978469, 47.63277046584728 ], [ 15.343674805573382, 47.632736318046604 ], [ 15.343509798247952, 47.632540661601148 ], [ 15.343372570138735, 47.632100255030032 ], [ 15.343274712904876, 47.631982174868917 ], [ 15.343235761236771, 47.63193506543962 ], [ 15.343068661135401, 47.631733324907778 ], [ 15.342913855225552, 47.631463148023769 ], [ 15.342688578823227, 47.63135548592647 ], [ 15.342762837448291, 47.631121443535243 ], [ 15.342546647113748, 47.630990221904852 ], [ 15.342882778282901, 47.630887772154246 ], [ 15.343415607030286, 47.631019484480895 ], [ 15.343853691188258, 47.630631023523421 ], [ 15.344459164676797, 47.630789180344507 ], [ 15.344826504391444, 47.630893272093715 ], [ 15.345623253546155, 47.63102206378008 ], [ 15.346635978959775, 47.631019173670239 ], [ 15.347378162857428, 47.630898524909171 ], [ 15.347851569152958, 47.630956017080379 ], [ 15.347949836358763, 47.630963114331117 ], [ 15.348003238108356, 47.630966858093359 ], [ 15.348109516310458, 47.630974534757975 ], [ 15.348189758931198, 47.630980327829739 ], [ 15.348514997732805, 47.631003694706074 ], [ 15.349763263751667, 47.631108427908885 ], [ 15.350647111031778, 47.631226926353499 ], [ 15.350735315229725, 47.631228527803856 ], [ 15.351861090182146, 47.631461211378124 ], [ 15.355750165280556, 47.631730602281387 ], [ 15.356409540543138, 47.631835007149213 ], [ 15.359500146892795, 47.632324342054076 ], [ 15.359654873691055, 47.632873055497683 ], [ 15.35991142975638, 47.633783040641568 ], [ 15.361050083281992, 47.633736402567109 ], [ 15.36167535157692, 47.633281027309707 ], [ 15.361660726644185, 47.633229894331109 ], [ 15.361765870678656, 47.632890980806394 ], [ 15.36198029736666, 47.632199759956599 ], [ 15.362154228366016, 47.631639126477992 ], [ 15.363327667733016, 47.631863207000606 ], [ 15.363570771807167, 47.631638766769719 ], [ 15.364616382710098, 47.631638827469757 ], [ 15.3647303219722, 47.631589742068549 ], [ 15.365522403465841, 47.631248848196812 ], [ 15.366111633919667, 47.631367218537413 ], [ 15.366743770229853, 47.631451975820113 ], [ 15.367202058792461, 47.631345312280722 ], [ 15.367470587446984, 47.631203665444716 ], [ 15.368035862882019, 47.631153875903671 ], [ 15.369327257707269, 47.631205522358087 ], [ 15.37074694266262, 47.630963812157397 ], [ 15.371519662963355, 47.631188614037917 ], [ 15.37226128025957, 47.631404332500281 ], [ 15.373044135837212, 47.63172173693453 ], [ 15.373900726612478, 47.63206896758026 ], [ 15.374080196661772, 47.632119961697867 ], [ 15.374930585388261, 47.632235448814342 ], [ 15.375937116774368, 47.632253921584663 ], [ 15.376148972507023, 47.632257715538998 ], [ 15.376985707025273, 47.632655048050211 ], [ 15.377495088730981, 47.633023007701681 ], [ 15.378089423681049, 47.633452365233381 ], [ 15.380200226341534, 47.633788655022947 ], [ 15.381098456504171, 47.633907475099868 ], [ 15.381320101289797, 47.6339367359326 ], [ 15.381349546795411, 47.633940621253913 ], [ 15.384224816974868, 47.634320721921675 ], [ 15.384289731804648, 47.63432928359407 ], [ 15.385124133358982, 47.634439581470865 ], [ 15.386171623343349, 47.634578017726277 ], [ 15.38622649928165, 47.634585227612163 ], [ 15.386448286364731, 47.634614566115893 ], [ 15.386734346639431, 47.634292195032465 ], [ 15.387833765516925, 47.63353227053463 ], [ 15.389248712775418, 47.633265125471119 ], [ 15.389076013257215, 47.63311890059699 ], [ 15.388568934824452, 47.632689477681225 ], [ 15.388825224724611, 47.632535758619014 ], [ 15.389149554360674, 47.632395672111265 ], [ 15.389663542786634, 47.632437146557393 ], [ 15.390870909462263, 47.632534517075285 ], [ 15.390463910979843, 47.633130333053778 ], [ 15.390454215181881, 47.633144547081947 ], [ 15.391313147609662, 47.633167417993775 ], [ 15.391935734858997, 47.633241228489787 ], [ 15.39285742985547, 47.633563933296941 ], [ 15.393273662921336, 47.633750428602241 ], [ 15.39402346286872, 47.634086466071651 ], [ 15.394940860422263, 47.633959936757819 ], [ 15.39530449067985, 47.63396970270631 ], [ 15.396099677506845, 47.634314992796419 ], [ 15.39654692012631, 47.634670035563737 ], [ 15.397786985055053, 47.634960614041816 ], [ 15.397933994518073, 47.635008104515137 ], [ 15.398251618817021, 47.635110761006288 ], [ 15.398644592163791, 47.635182451389554 ], [ 15.399083927529691, 47.635308838918249 ], [ 15.399355994580606, 47.635502314495106 ], [ 15.399688079806863, 47.635596696836629 ], [ 15.400029500916215, 47.635268615689419 ], [ 15.40023318600613, 47.634709362829746 ], [ 15.401215096310505, 47.634141687427913 ], [ 15.401946788902407, 47.633641600253014 ], [ 15.401904356473674, 47.633223669162582 ], [ 15.401644461688296, 47.630672435587854 ], [ 15.401315667561271, 47.629920616245357 ], [ 15.401321043007359, 47.628721855830122 ], [ 15.401332536044874, 47.626096432261619 ], [ 15.401412657260137, 47.62578816866791 ], [ 15.402301183895515, 47.625324944483978 ], [ 15.402896216451298, 47.62517445205691 ], [ 15.403005481249878, 47.624825610592985 ], [ 15.403589202046984, 47.624243211681026 ], [ 15.404233627247777, 47.623600312974254 ], [ 15.405070811188589, 47.623052038188305 ], [ 15.405123331870112, 47.622675866383666 ], [ 15.40566136531293, 47.62250892608921 ], [ 15.406487154371794, 47.621629002624012 ], [ 15.406701010250128, 47.621401214209669 ], [ 15.407228548413281, 47.620995946042747 ], [ 15.407259568758505, 47.620554458277866 ], [ 15.407246805503217, 47.619978485433329 ], [ 15.407493917690569, 47.619804277086651 ], [ 15.407488738854678, 47.619777639509195 ], [ 15.407434656655575, 47.619496994553764 ], [ 15.406534912834488, 47.618927312389239 ], [ 15.405819771689115, 47.618474447947122 ], [ 15.406543637807024, 47.618433484950415 ], [ 15.407457032746867, 47.618381715149106 ], [ 15.407670096747662, 47.618400548854417 ], [ 15.408621124408063, 47.618213084637446 ], [ 15.409401090127158, 47.618123208040366 ], [ 15.410103662334526, 47.617887299147029 ], [ 15.410604712341515, 47.61761821866461 ], [ 15.411076788050071, 47.617296557722518 ], [ 15.411836923687375, 47.61671281185842 ], [ 15.413913795488341, 47.615403907859893 ], [ 15.41404010671134, 47.615333126921662 ], [ 15.414613847797096, 47.615011769004397 ], [ 15.414918210215141, 47.614980152640115 ], [ 15.415536475159119, 47.614915844496899 ], [ 15.417020485495758, 47.614365470308833 ], [ 15.417777834823863, 47.613767872742976 ], [ 15.417851789331973, 47.613709558065672 ], [ 15.41832377046496, 47.613337195055252 ], [ 15.418382234154306, 47.613291041742201 ], [ 15.418796384943636, 47.612964188427874 ], [ 15.419635982610549, 47.612725911019425 ], [ 15.420392225574906, 47.612564025429862 ], [ 15.421069665185072, 47.612197817529214 ], [ 15.421534397760364, 47.612072543922537 ], [ 15.421648723754407, 47.611985321353963 ], [ 15.423296251075632, 47.611256381593584 ], [ 15.423976648118737, 47.610955355104494 ], [ 15.424014725249247, 47.610915510128457 ], [ 15.424667179307594, 47.610233819546259 ], [ 15.424953932280095, 47.609864440162511 ], [ 15.425533387468215, 47.609465787228132 ], [ 15.425958799612614, 47.60926308745227 ], [ 15.426660513599735, 47.608836729623491 ], [ 15.427234581512414, 47.608366972232709 ], [ 15.427448118341422, 47.608091355401989 ], [ 15.427694930189581, 47.607695695355439 ], [ 15.427964198640865, 47.607352637775101 ], [ 15.428406442831811, 47.607045396123475 ], [ 15.429012779729417, 47.606871605404606 ], [ 15.429302273450643, 47.606672182651373 ], [ 15.429710386750198, 47.606570499030951 ], [ 15.429907267640441, 47.606464929861076 ], [ 15.430369561164728, 47.606216987301053 ], [ 15.430507547436394, 47.606096381593616 ], [ 15.430557650224312, 47.606044614055392 ], [ 15.430709825430847, 47.605936079610352 ], [ 15.430769374076373, 47.605870908784205 ], [ 15.430784486530913, 47.605696113793456 ], [ 15.430779612014204, 47.605277411222154 ], [ 15.430837386835684, 47.605131178544205 ], [ 15.430791885111427, 47.604761550431185 ], [ 15.430685712740027, 47.604645583387757 ], [ 15.430432956749998, 47.604131412340386 ], [ 15.430268492969237, 47.603928664827976 ], [ 15.430028730545034, 47.603633147013667 ], [ 15.429784797625723, 47.603276411697834 ], [ 15.429495920626204, 47.602917166102529 ], [ 15.429262041672011, 47.602825579928201 ], [ 15.429273198814277, 47.602748332322825 ], [ 15.429192747269742, 47.602379611523922 ], [ 15.429125741028811, 47.60225113771169 ], [ 15.429234725485012, 47.602150953608628 ], [ 15.429286976123267, 47.601962970288561 ], [ 15.429314221054321, 47.601865357992892 ], [ 15.429584691511346, 47.60147673116164 ], [ 15.429836369564018, 47.600930758454133 ], [ 15.430028772843761, 47.600666862029819 ], [ 15.430110874946219, 47.600136675250631 ], [ 15.4300080154309, 47.59973335211204 ], [ 15.429994047298273, 47.599179988072052 ], [ 15.429862694211137, 47.598656128661105 ], [ 15.42971834276177, 47.598313325925155 ], [ 15.429534473198826, 47.597900500707532 ], [ 15.429364529807275, 47.597466449903465 ], [ 15.429354167133923, 47.597440177666783 ], [ 15.429169272256408, 47.596968147492497 ], [ 15.429093043114822, 47.596638321353787 ], [ 15.42887718049978, 47.596263791061226 ], [ 15.428789364279499, 47.595840211227262 ], [ 15.428813661187121, 47.595728791954933 ], [ 15.428817374550842, 47.595711803292666 ], [ 15.428796488043522, 47.595465031390781 ], [ 15.428754637679072, 47.595006230802355 ], [ 15.428777363280917, 47.594802045267436 ], [ 15.428726532177889, 47.594611802765762 ], [ 15.428533421099496, 47.593889978247731 ], [ 15.428331175641716, 47.593506198035605 ], [ 15.427844935582071, 47.592957309468879 ], [ 15.427715640497022, 47.59281125014504 ], [ 15.427685969367781, 47.592777859574632 ], [ 15.42742055861938, 47.592478124441847 ], [ 15.427381567028682, 47.592441213594135 ], [ 15.42694437413628, 47.592027514110292 ], [ 15.426537635976535, 47.591439638640836 ], [ 15.425816457586812, 47.590796829804383 ], [ 15.4250260914966, 47.590307205203246 ], [ 15.424905356418595, 47.590228760515032 ], [ 15.423672565120633, 47.589546745483062 ], [ 15.423400218632693, 47.589396085647891 ], [ 15.422584141993138, 47.589299333375337 ], [ 15.422361162292368, 47.589242457695832 ], [ 15.422136877029557, 47.58917615485452 ], [ 15.421924445562563, 47.58907669423489 ], [ 15.421638039943053, 47.589010620469054 ], [ 15.421447514998491, 47.588973583768741 ], [ 15.421066783078601, 47.58871328404787 ], [ 15.420974247806697, 47.588607681195839 ], [ 15.42084982682265, 47.588506528249113 ], [ 15.420759839447925, 47.588434900660125 ], [ 15.420727472692498, 47.5884038075164 ], [ 15.420356227658894, 47.588047208113494 ], [ 15.42032775051752, 47.587963301440126 ], [ 15.420305768963818, 47.587929049244337 ], [ 15.42028038246756, 47.58788945866187 ], [ 15.420271244572284, 47.587800070159489 ], [ 15.420226302185993, 47.587710252446428 ], [ 15.420208865590372, 47.587616244543135 ], [ 15.420169856206018, 47.58750831803448 ], [ 15.42011674143707, 47.587336654607064 ], [ 15.420088599458508, 47.587190818592099 ], [ 15.420067748147421, 47.587134764687185 ], [ 15.420033432506038, 47.587084715806547 ], [ 15.41995814403592, 47.587028031246469 ], [ 15.419855743252084, 47.586985430100086 ], [ 15.419722872852441, 47.586962823610058 ], [ 15.419541323855015, 47.586900329466623 ], [ 15.419379328206563, 47.586881312001552 ], [ 15.41920225511948, 47.586867878525716 ], [ 15.419113174016514, 47.58686922699286 ], [ 15.419024387350211, 47.586871290078513 ], [ 15.418926397214875, 47.586852639222066 ], [ 15.418707214494114, 47.586730164350982 ], [ 15.41862563232071, 47.586635521324474 ], [ 15.418491720178233, 47.586509517068947 ], [ 15.418367122500614, 47.586366782651112 ], [ 15.418205327846112, 47.586131478864431 ], [ 15.418154397265273, 47.586081731192557 ], [ 15.418146661326459, 47.586004107703353 ], [ 15.418086727446486, 47.585848138065629 ], [ 15.418041421013179, 47.585769126724124 ], [ 15.418010145282969, 47.585597785873546 ], [ 15.417954925837373, 47.585533805270508 ], [ 15.417928667993989, 47.585485589583065 ], [ 15.417941301901992, 47.585441887946878 ], [ 15.417853150890524, 47.585376075157747 ], [ 15.417742221913528, 47.585346407708506 ], [ 15.417623939987513, 47.585171606231171 ], [ 15.417644872277984, 47.585132524207339 ], [ 15.417546953303612, 47.585028366574036 ], [ 15.417488040616064, 47.584854467190539 ], [ 15.417410188801442, 47.584786667009574 ], [ 15.417358780505166, 47.584681214834141 ], [ 15.417225884969547, 47.584496777759377 ], [ 15.417122545586849, 47.584346455818654 ], [ 15.416830110750059, 47.584147633242146 ], [ 15.416746401282124, 47.58387499848817 ], [ 15.416640722822912, 47.583531388719699 ], [ 15.416525004219329, 47.583021722553433 ], [ 15.41657485630409, 47.582785995854081 ], [ 15.41782840940952, 47.582005760909958 ], [ 15.417878262418389, 47.58197479407346 ], [ 15.418187228433908, 47.581782423383693 ], [ 15.419212221082654, 47.580814973203083 ], [ 15.419229289542638, 47.580671915547526 ], [ 15.419357695706115, 47.580394797694161 ], [ 15.41989070251898, 47.579660932005986 ], [ 15.41994033318591, 47.579403336221816 ], [ 15.420027050581462, 47.578954166058573 ], [ 15.419981237990699, 47.57840335952509 ], [ 15.419982911978035, 47.578388568307908 ], [ 15.41998558622514, 47.578352067751645 ], [ 15.420002779121127, 47.578172015624865 ], [ 15.420000021142425, 47.578152804735325 ], [ 15.419989169381406, 47.578073797786004 ], [ 15.419977722495059, 47.577989851389717 ], [ 15.419960428429366, 47.57794624343228 ], [ 15.41993559496777, 47.577883601505185 ], [ 15.419905297264441, 47.577807288169119 ], [ 15.419891963463041, 47.57777296871042 ], [ 15.419877129104467, 47.577734356297 ], [ 15.419828658896057, 47.57760905065021 ], [ 15.419777303212634, 47.577488117664828 ], [ 15.419755007469245, 47.577435780124404 ], [ 15.41975382273491, 47.577432741496139 ], [ 15.419734754702057, 47.577387995689875 ], [ 15.419611949799414, 47.577098972303311 ], [ 15.419597416554192, 47.577064584608664 ], [ 15.419591844488957, 47.577051545184148 ], [ 15.419475765429999, 47.575836159861723 ], [ 15.419598751381095, 47.574903454509005 ], [ 15.419617461774951, 47.574761626798562 ], [ 15.419622140454031, 47.574725359806287 ], [ 15.419645032617275, 47.574551504350119 ], [ 15.419762186556973, 47.574403476891284 ], [ 15.419748939310514, 47.574297601974827 ], [ 15.419634576279536, 47.574006625011343 ], [ 15.419637743419608, 47.573761394195742 ], [ 15.420149067261313, 47.573679104566267 ], [ 15.42027929802884, 47.573555680080034 ], [ 15.420225054990093, 47.573505993619627 ], [ 15.420260150108236, 47.573240921124516 ], [ 15.420311504175856, 47.573154212676947 ], [ 15.420341386483681, 47.57307608508696 ], [ 15.420262651777303, 47.573002452668767 ], [ 15.420248559725554, 47.572989208170448 ], [ 15.420237250005856, 47.572982393432341 ], [ 15.419997325707437, 47.572838607646361 ], [ 15.41960728541798, 47.572709250844014 ], [ 15.41941950545521, 47.572652720810169 ], [ 15.418940566201023, 47.572508506684436 ], [ 15.41889820950608, 47.572480114795837 ], [ 15.418837957039814, 47.572439807414106 ], [ 15.418345241988709, 47.572390796297668 ], [ 15.418317829817269, 47.572383733873117 ], [ 15.418233711282028, 47.572362040720016 ], [ 15.417823411554629, 47.572224675564129 ], [ 15.41755769916754, 47.57184284040288 ], [ 15.4173727084174, 47.57151102168234 ], [ 15.41722653256015, 47.571296044231872 ], [ 15.416933003888673, 47.570947024521011 ], [ 15.416790025967183, 47.57057105985708 ], [ 15.416718747816683, 47.570383343649581 ], [ 15.416692311175858, 47.570313619784521 ], [ 15.416687706488192, 47.570301462715591 ], [ 15.416680788044664, 47.570291327754056 ], [ 15.416413535098485, 47.569897007423698 ], [ 15.416335223289039, 47.56969618794971 ], [ 15.416283861498631, 47.569564633042027 ], [ 15.416127265404539, 47.569163623411171 ], [ 15.415946978192425, 47.56870166020375 ], [ 15.415897734843782, 47.568532894691053 ], [ 15.415926881779352, 47.568452891494111 ], [ 15.415994291811336, 47.568267878296169 ], [ 15.415985755784023, 47.567988658150462 ], [ 15.416004970075614, 47.567889574131776 ], [ 15.41602263382025, 47.567798348668468 ], [ 15.415997461612367, 47.567666498350221 ], [ 15.415971977422231, 47.567533483623961 ], [ 15.415967634696422, 47.567420516329236 ], [ 15.415964959646535, 47.567349641043755 ], [ 15.415981507515736, 47.566911377055931 ], [ 15.415991553315919, 47.566648020495663 ], [ 15.416525026248253, 47.56588463671703 ], [ 15.416545532163241, 47.565855102881535 ], [ 15.416567061950369, 47.56582456040109 ], [ 15.416732053005081, 47.565551730398951 ], [ 15.41686913855097, 47.565138549063995 ], [ 15.416921883631309, 47.564979632742393 ], [ 15.416462488850311, 47.56402798039683 ], [ 15.416378606724152, 47.563585688743736 ], [ 15.416157215519309, 47.562418112986165 ], [ 15.416111643856661, 47.562365387201673 ], [ 15.416024826710636, 47.562265077349338 ], [ 15.415960583753195, 47.562190819186007 ], [ 15.415842526506962, 47.562090716168179 ], [ 15.415313062416848, 47.561641748705391 ], [ 15.414337189067247, 47.561369994919239 ], [ 15.413456788745906, 47.561124853858892 ], [ 15.4128163897985, 47.561080928163456 ], [ 15.412187215685373, 47.56094085038027 ], [ 15.41185808452898, 47.560795514600912 ], [ 15.411788797172484, 47.560764997946983 ], [ 15.410733703872284, 47.559722497640401 ], [ 15.41076126790993, 47.558014066610816 ], [ 15.410809782541195, 47.557909322604914 ], [ 15.411068292400925, 47.557819227117861 ], [ 15.411441471878234, 47.557488361276754 ], [ 15.411477954728669, 47.557456018784976 ], [ 15.411660977299368, 47.557343347789768 ], [ 15.412191474366914, 47.557016650024565 ], [ 15.412515484130889, 47.556858220689506 ], [ 15.412962628942331, 47.556639685439222 ], [ 15.413643381105107, 47.556306926945133 ], [ 15.413749196559934, 47.556088006311256 ], [ 15.41371231542974, 47.555743955931625 ], [ 15.413772720318496, 47.555412362302775 ], [ 15.413596927612637, 47.554312898452856 ], [ 15.413536804271111, 47.553744256810177 ], [ 15.413697870261618, 47.553661771935616 ], [ 15.413832608526549, 47.55344817688966 ], [ 15.414017243081204, 47.55307769802598 ], [ 15.414082257995512, 47.552856006546492 ], [ 15.41425442473086, 47.552674493928571 ], [ 15.414473828101176, 47.552567908441418 ], [ 15.414425881379829, 47.552434760624443 ], [ 15.414508544806795, 47.552413820034189 ], [ 15.414534219501094, 47.552377262254069 ], [ 15.414598037779756, 47.552286639502022 ], [ 15.414589522534097, 47.552239451304708 ], [ 15.414639225548978, 47.552118032832084 ], [ 15.414625733511491, 47.551955188382827 ], [ 15.414189858211399, 47.551476347449402 ], [ 15.41386129376415, 47.551028140770441 ], [ 15.413531703618039, 47.550153957776509 ], [ 15.413444533262259, 47.549839080482094 ], [ 15.413324208881122, 47.549418688237864 ], [ 15.413139777719278, 47.548906752860184 ], [ 15.413155956725403, 47.548875497791656 ], [ 15.412288056172288, 47.548184509345738 ], [ 15.41208155274804, 47.547873863743305 ], [ 15.412050968557187, 47.547860197139542 ], [ 15.412006449168846, 47.547840392672775 ], [ 15.411794659774539, 47.547567464490612 ], [ 15.4114967847836, 47.547285834894161 ], [ 15.411461930109295, 47.547106906193612 ], [ 15.411154742107852, 47.546650024600517 ], [ 15.411130441254906, 47.546213310129637 ], [ 15.411185967476488, 47.545902776914772 ], [ 15.411117714704698, 47.545460558143489 ], [ 15.411124880714375, 47.545248286352312 ], [ 15.411194856807723, 47.544980513761125 ], [ 15.410953039782154, 47.544377809374183 ], [ 15.41081328419587, 47.543979547827597 ], [ 15.410821378631328, 47.54374700805193 ], [ 15.410893875628668, 47.543415196269443 ], [ 15.410921364344846, 47.543353944945096 ], [ 15.410937491028552, 47.543318010831456 ], [ 15.4110782036334, 47.543003684388786 ], [ 15.410883295777548, 47.542952221555197 ], [ 15.410271835870496, 47.542790574773036 ], [ 15.409832701692437, 47.542586473128573 ], [ 15.409751698009263, 47.542544737046654 ], [ 15.409419271644408, 47.542373444157398 ], [ 15.409191664763529, 47.54241617562122 ], [ 15.409113027610642, 47.542431009465844 ], [ 15.408961600411843, 47.542430329482826 ], [ 15.408201490084821, 47.54211232272025 ], [ 15.407890131083246, 47.542053690779504 ], [ 15.407769071717611, 47.54203094880112 ], [ 15.407679619445734, 47.541906379443951 ], [ 15.407557691834638, 47.541838020397869 ], [ 15.407263641742427, 47.541847477615988 ], [ 15.406439209278675, 47.541448357879901 ], [ 15.405123071145104, 47.54160480496072 ], [ 15.404811012083544, 47.541572098848299 ], [ 15.404667395833744, 47.541557051401192 ], [ 15.404089169404349, 47.541570101746892 ], [ 15.40277329473604, 47.541757118599165 ], [ 15.401762731915516, 47.54199477805053 ], [ 15.401336674456656, 47.542193180439526 ], [ 15.401003402672401, 47.542236270440405 ], [ 15.400544640202098, 47.54228585133631 ], [ 15.400237552451955, 47.542369509391698 ], [ 15.399578697833602, 47.542587220443323 ], [ 15.399457974856478, 47.542627107005366 ], [ 15.399252338601775, 47.542660872391799 ], [ 15.399198578242938, 47.542605227631718 ], [ 15.398927104203992, 47.542590585533596 ], [ 15.398546950304825, 47.542705886306003 ], [ 15.398417990412034, 47.542779761835561 ], [ 15.398014060871599, 47.543081798603453 ], [ 15.397732351727088, 47.543243297079322 ], [ 15.397725722066895, 47.543247106586392 ], [ 15.397614310711203, 47.543310944831269 ], [ 15.396889952776558, 47.543563840540514 ], [ 15.394496969788921, 47.544064627682445 ], [ 15.39413771033278, 47.544082693074309 ], [ 15.393613427247708, 47.54417725514601 ], [ 15.393253471295264, 47.544242042624113 ], [ 15.392810663983639, 47.544343238239776 ], [ 15.392477230856208, 47.544358944611275 ], [ 15.392238811987568, 47.544333162665573 ], [ 15.392071262389733, 47.544362181153389 ], [ 15.391630820184254, 47.544534073246098 ], [ 15.391246587493562, 47.544607030326773 ], [ 15.39124032754154, 47.544610112778194 ], [ 15.390914501125925, 47.544769325248978 ], [ 15.390397617352008, 47.544812077109725 ], [ 15.390116394257952, 47.544864462144666 ], [ 15.389757683260621, 47.544910315234134 ], [ 15.389350524985622, 47.544896822578515 ], [ 15.388972743100785, 47.544907103250239 ], [ 15.387617740948983, 47.545045232496015 ], [ 15.386857772537601, 47.544966675194608 ], [ 15.385820342470391, 47.545149320024244 ], [ 15.385397544368708, 47.545412946381703 ], [ 15.385298588131281, 47.545466018985159 ], [ 15.385174080412567, 47.54544340490795 ], [ 15.384885971439651, 47.545391045147113 ], [ 15.384197677798788, 47.545439264404315 ], [ 15.383976718151114, 47.54540442272998 ], [ 15.383742665806853, 47.545187196042981 ], [ 15.383511995979955, 47.545148746881374 ], [ 15.383409896451644, 47.545148501498616 ], [ 15.383356321030035, 47.545148378907122 ], [ 15.383218729456946, 47.54514813759782 ], [ 15.382929159702865, 47.545099129245472 ], [ 15.382096984384715, 47.544958287685027 ], [ 15.381570607914202, 47.545003239262009 ], [ 15.38086018342675, 47.54518287975489 ], [ 15.380727805423168, 47.545152661019586 ], [ 15.380674416027777, 47.545164144391862 ], [ 15.380570007230574, 47.545186528739073 ], [ 15.380249533757461, 47.545255340587403 ], [ 15.379610154763681, 47.54549139808654 ], [ 15.378798611475403, 47.5458672381206 ], [ 15.378458924723692, 47.54588994533254 ], [ 15.37787918516678, 47.545790114525929 ], [ 15.377746705977978, 47.545760704198592 ], [ 15.377508239312272, 47.545795195235918 ], [ 15.377257554614179, 47.545908657002109 ], [ 15.377120502632264, 47.546011273341634 ], [ 15.37692209180539, 47.546159804607811 ], [ 15.376759869140214, 47.546227047290728 ], [ 15.376401404697015, 47.546375548424216 ], [ 15.375956747242153, 47.546454300025715 ], [ 15.375706211179448, 47.546523833684994 ], [ 15.375504128755335, 47.546629315845664 ], [ 15.375232661079151, 47.546806865804477 ], [ 15.375127846927938, 47.546860033662725 ], [ 15.374954611716966, 47.546999832889242 ], [ 15.374773068299842, 47.547090007503371 ], [ 15.37462040123795, 47.547225479994644 ], [ 15.374587619807118, 47.547240553940163 ], [ 15.374461573529322, 47.547298149133979 ], [ 15.374200694343426, 47.54736507329892 ], [ 15.373812670974671, 47.547464769767956 ], [ 15.373609205514766, 47.547545071949862 ], [ 15.373509175093659, 47.54758456259929 ], [ 15.373391201614423, 47.54765155342124 ], [ 15.373148530233719, 47.547841816671998 ], [ 15.372829493083296, 47.547982584860378 ], [ 15.372684295494306, 47.548005777012101 ], [ 15.372124312045365, 47.548093493778666 ], [ 15.371861932913296, 47.548163049262641 ], [ 15.371645088221708, 47.548193273455645 ], [ 15.371420461620808, 47.548252526713505 ], [ 15.370701308395045, 47.5484421583024 ], [ 15.370084883522646, 47.548620781097988 ], [ 15.369612642155317, 47.548653915379923 ], [ 15.36911936575834, 47.548727472655926 ], [ 15.36867181630952, 47.548794096267279 ], [ 15.368267132480003, 47.548824496299183 ], [ 15.367825729558421, 47.548857616174963 ], [ 15.367500194208516, 47.548865278939161 ], [ 15.36713282580234, 47.548874042428601 ], [ 15.36681079203629, 47.548676612792825 ], [ 15.366259237615019, 47.548632025854225 ], [ 15.366225897299065, 47.548629286529206 ], [ 15.365821688598738, 47.548692610850637 ], [ 15.365366869618359, 47.548763850480377 ], [ 15.364815467479259, 47.548771366003315 ], [ 15.364367297810075, 47.548777321283694 ], [ 15.363770788951459, 47.548804441099591 ], [ 15.363090202575357, 47.548568254948123 ], [ 15.362625866496412, 47.548634071837455 ], [ 15.362226189531992, 47.548690913005281 ], [ 15.361657127856242, 47.548716186359336 ], [ 15.361118854960306, 47.548740102635769 ], [ 15.360940436402732, 47.548736235930257 ], [ 15.360306682976193, 47.548473104746556 ], [ 15.359493075304025, 47.547937466265502 ], [ 15.359427195696178, 47.547894078097052 ], [ 15.358476298646142, 47.547417469499379 ], [ 15.358130375363233, 47.547244108816614 ], [ 15.358072089070532, 47.547214896420876 ], [ 15.357983303616441, 47.547170381678562 ], [ 15.357537211569817, 47.546946765127963 ], [ 15.356661947736034, 47.545902505968762 ], [ 15.356205233852018, 47.545357399653227 ], [ 15.356067442350454, 47.545192963097968 ], [ 15.355893734857112, 47.545076231429078 ], [ 15.355373155267706, 47.54472620534839 ], [ 15.355166470765168, 47.54442239683965 ], [ 15.354941831357346, 47.544201257516974 ], [ 15.354607213699738, 47.544061798724258 ], [ 15.354385600002608, 47.544005761248698 ], [ 15.353312414413693, 47.543702632471359 ], [ 15.351821045834457, 47.543281298611191 ], [ 15.351363740216513, 47.543127608823752 ], [ 15.35027646678939, 47.542996876328054 ], [ 15.349867170806268, 47.542947640324385 ], [ 15.349759671200671, 47.542934679551692 ], [ 15.349616519034523, 47.542917485194216 ], [ 15.349420928729485, 47.542843070220577 ], [ 15.349021788564212, 47.542691139051961 ], [ 15.348566928849978, 47.542448292161843 ], [ 15.348277532157235, 47.542215137557896 ], [ 15.347822064450522, 47.542029090533468 ], [ 15.347434530487336, 47.541912681450256 ], [ 15.346720114325068, 47.541698145537609 ], [ 15.346492656789337, 47.541690347393015 ], [ 15.344870962061117, 47.541531861351871 ], [ 15.344624317298004, 47.541453293530843 ], [ 15.34458153062306, 47.541439733270032 ], [ 15.344026078649827, 47.541168931611537 ], [ 15.343665551078223, 47.541014505336022 ], [ 15.34339802244542, 47.540858898297671 ], [ 15.343481881728859, 47.540695153121391 ], [ 15.344336930841344, 47.539162082357819 ], [ 15.344354989590261, 47.539119914268866 ], [ 15.344539726883413, 47.538688620075682 ], [ 15.344546459876817, 47.538670051364726 ], [ 15.344568322296089, 47.538609185879515 ], [ 15.34459307316671, 47.538540439462921 ], [ 15.34473773776301, 47.538305604439707 ], [ 15.344841857510595, 47.538136642573726 ], [ 15.345010265140148, 47.537904090847718 ], [ 15.345167164733386, 47.537683441112627 ], [ 15.345318715829263, 47.537461984921833 ], [ 15.345506722006306, 47.537272830129623 ], [ 15.346272231739912, 47.536236870802348 ], [ 15.346560927646458, 47.535622931482358 ], [ 15.346576091986909, 47.535456609240903 ], [ 15.346579815740636, 47.535328199192094 ], [ 15.346624099811248, 47.535193496944501 ], [ 15.346495382907177, 47.535129243949577 ], [ 15.345898537621423, 47.534938741500454 ], [ 15.344702738975073, 47.534794202977466 ], [ 15.344183431023934, 47.534719606139355 ], [ 15.343812426268558, 47.534731510536943 ], [ 15.343150225024631, 47.534691004966703 ], [ 15.342005631712546, 47.534654985069196 ], [ 15.341729243422218, 47.534631834412629 ], [ 15.341672043679189, 47.534626985850885 ], [ 15.341618447051433, 47.534622524183888 ], [ 15.341614326433467, 47.534622506335175 ], [ 15.341567147130565, 47.534622522433629 ], [ 15.341519085105459, 47.534620303890307 ], [ 15.341419767929384, 47.534608812403299 ], [ 15.341200843235338, 47.53458348430383 ], [ 15.340946979697989, 47.534516735930467 ], [ 15.340878580603857, 47.534503982736709 ], [ 15.339939329219005, 47.534328713119379 ], [ 15.339242675412232, 47.53376091980892 ], [ 15.339238284853858, 47.533757306473724 ], [ 15.338885769837479, 47.533511552839364 ], [ 15.338622679140908, 47.533328046809054 ], [ 15.337934250361199, 47.533052072061814 ], [ 15.337395538049252, 47.532976704077534 ], [ 15.337074742904225, 47.532931817603043 ], [ 15.336866034559401, 47.532912783105857 ], [ 15.336662390206158, 47.53289410978924 ], [ 15.335525060329447, 47.53262524136737 ], [ 15.334786168687957, 47.532415921299815 ], [ 15.334518039818162, 47.532319526967818 ], [ 15.334137032588689, 47.532144908732739 ], [ 15.333992521135833, 47.532063097040499 ], [ 15.333829030158912, 47.531967935795073 ], [ 15.333447734779565, 47.531771629659353 ], [ 15.333368230451992, 47.531742775220394 ], [ 15.333148574025172, 47.531662812993908 ], [ 15.332870567677286, 47.531596558136428 ], [ 15.332389269771637, 47.531520705975751 ], [ 15.332045411101795, 47.531431566233074 ], [ 15.331343499203527, 47.531295832374113 ], [ 15.331290622530629, 47.5312682226674 ], [ 15.331209802809765, 47.531215178902066 ], [ 15.330711709093919, 47.530707328551422 ], [ 15.330679747127336, 47.530670534024225 ], [ 15.330622086312427, 47.530604396108473 ], [ 15.330602490304255, 47.530581786656015 ], [ 15.330559570001194, 47.530539872775655 ], [ 15.330537072877922, 47.530517853854363 ], [ 15.330275670365769, 47.530262117642351 ], [ 15.330192097100298, 47.53019598072261 ], [ 15.329965778474486, 47.530017215421992 ], [ 15.329349538131341, 47.529690612109192 ], [ 15.329253174084263, 47.52962353612412 ], [ 15.329241388046066, 47.529625667314065 ], [ 15.328960435277429, 47.52947641787776 ], [ 15.328744934410722, 47.52934267045319 ], [ 15.328601167091435, 47.52924220867105 ], [ 15.32848098332544, 47.529170011322201 ], [ 15.328390567168691, 47.529115701567989 ], [ 15.328246638541238, 47.528975208902445 ], [ 15.328157978754003, 47.528841044900048 ], [ 15.328056273660145, 47.528714685987637 ], [ 15.327964364024064, 47.528569787033796 ], [ 15.327883856427778, 47.528383531398596 ], [ 15.327463791113654, 47.527242040568765 ], [ 15.327262498431843, 47.526790396411599 ], [ 15.326832356483949, 47.526137974092912 ], [ 15.326518476758151, 47.525888452258073 ], [ 15.326176080998392, 47.525650765543652 ], [ 15.326035722211245, 47.525530440880317 ], [ 15.325858111441621, 47.525412383409758 ], [ 15.325578957819188, 47.525258558731778 ], [ 15.325319897223633, 47.525031752077268 ], [ 15.325199565576753, 47.524861216971978 ], [ 15.32517161848296, 47.524821471168735 ], [ 15.324999823982559, 47.524663890164966 ], [ 15.324969762784898, 47.524642001592788 ], [ 15.324741453076616, 47.524476221517631 ], [ 15.324370225051375, 47.524308332532932 ], [ 15.324194885826346, 47.52422902436178 ], [ 15.324025604778821, 47.52411666973385 ], [ 15.323893115898922, 47.523852921495859 ], [ 15.323779260849962, 47.523670752202122 ], [ 15.323654100402404, 47.523593632293277 ], [ 15.324017821654831, 47.523057651860142 ], [ 15.324213268449059, 47.522320105513806 ], [ 15.324208161217094, 47.522069266294864 ], [ 15.324339670970692, 47.521906957774291 ], [ 15.324434290427567, 47.521781020820839 ], [ 15.324681862724002, 47.521522283385728 ], [ 15.324848940984905, 47.521348466134555 ], [ 15.324987324257354, 47.521192337600652 ], [ 15.325110651579207, 47.521024590041741 ], [ 15.325156616577278, 47.520968259790159 ], [ 15.325152238268208, 47.520964915738844 ], [ 15.325149592892089, 47.52096172158943 ], [ 15.325146750041789, 47.520956820815655 ], [ 15.325145783117836, 47.5209523374686 ], [ 15.325146143980078, 47.520947831055892 ], [ 15.325147706659678, 47.520943483771561 ], [ 15.325151747866375, 47.52093792339388 ], [ 15.325147672572777, 47.520935564110239 ], [ 15.3251989384834, 47.52089642230704 ], [ 15.325216887321726, 47.520882700069158 ], [ 15.325223550102999, 47.52088672445479 ], [ 15.325277021874667, 47.520821623462801 ], [ 15.32532794692276, 47.520759446779863 ], [ 15.325544218904575, 47.520509441323789 ], [ 15.325794954470734, 47.520152093078337 ], [ 15.32579747716397, 47.520148539126815 ], [ 15.325958069561368, 47.51969141358429 ], [ 15.326066124446822, 47.519067975395089 ], [ 15.325975171707068, 47.518290670680457 ], [ 15.325860406379819, 47.517417746516031 ], [ 15.326048237436254, 47.516778521086508 ], [ 15.326079432110109, 47.516672585410724 ], [ 15.326602355660158, 47.516115106988366 ], [ 15.326744417472382, 47.515684852740023 ], [ 15.326736420145117, 47.515663121059013 ], [ 15.326716016634812, 47.515608483975669 ], [ 15.326663484478331, 47.515466742565494 ], [ 15.328024847483743, 47.514437100820665 ], [ 15.328941907722335, 47.512986851867886 ], [ 15.329064598596773, 47.512792649418515 ], [ 15.329328622503541, 47.512657638333515 ], [ 15.329626194961731, 47.512293434423761 ], [ 15.329692715313286, 47.512096429188041 ], [ 15.329658611470158, 47.511806762886678 ], [ 15.329753517553852, 47.511654174853383 ], [ 15.329497741373139, 47.51136908869281 ], [ 15.329210963187871, 47.511187685371524 ], [ 15.328969233484051, 47.511034658180122 ], [ 15.328521957651352, 47.510813925584934 ], [ 15.328278347215084, 47.51068127043402 ], [ 15.327959897124208, 47.510620839448293 ], [ 15.327687732876219, 47.510537371587247 ], [ 15.327140994420429, 47.510310263804307 ], [ 15.326740017941717, 47.509982335533692 ], [ 15.326393544038751, 47.509721950708645 ], [ 15.326232473950009, 47.50960081672266 ], [ 15.325964361426006, 47.5093504987356 ], [ 15.325787577260842, 47.508989689071015 ], [ 15.325776679869714, 47.508884304854071 ], [ 15.325774153829533, 47.508859687912185 ], [ 15.32568043163319, 47.508727932281637 ], [ 15.32550863550656, 47.508723357751343 ], [ 15.324849770815966, 47.508705735105067 ], [ 15.324591233117825, 47.508623913454407 ], [ 15.324584241759906, 47.508621694819922 ], [ 15.324480586607692, 47.50858893416266 ], [ 15.323850451972115, 47.508389630650342 ], [ 15.323636690136158, 47.508322059889068 ], [ 15.323564493479264, 47.508299192570554 ], [ 15.323207820239869, 47.508186400548183 ], [ 15.322609854085824, 47.508138547042229 ], [ 15.322581473705448, 47.508136249448455 ], [ 15.322564822608026, 47.508135008349178 ], [ 15.322519120604852, 47.508131301268101 ], [ 15.321497735023373, 47.50804965738201 ], [ 15.320709207511113, 47.507904655654301 ], [ 15.320099155393491, 47.507909470398161 ], [ 15.319419653254059, 47.507914855178285 ], [ 15.318673162475203, 47.507887465058303 ], [ 15.317745138657473, 47.50790362409483 ], [ 15.317437303655288, 47.508007685832567 ], [ 15.317269211584591, 47.508066036896558 ], [ 15.317224239009942, 47.508081665701376 ], [ 15.317057194878561, 47.508139638297983 ], [ 15.316936494740139, 47.508521448945622 ], [ 15.316545237431484, 47.509037994565233 ], [ 15.316181626758304, 47.509174428661098 ], [ 15.316030470670418, 47.509231134820837 ], [ 15.315260363895847, 47.509317804159387 ], [ 15.315164880243511, 47.509314954809717 ], [ 15.314624430422427, 47.509298916211655 ], [ 15.31401875125446, 47.509243860922609 ], [ 15.313637821555515, 47.509185010130111 ], [ 15.313548300684017, 47.509171166103222 ], [ 15.312611286992849, 47.509026603645303 ], [ 15.312530999851331, 47.509003959143385 ], [ 15.312134132750273, 47.508892096987068 ], [ 15.311305059436707, 47.508678698698596 ], [ 15.310398926262238, 47.508595507383212 ], [ 15.309372912649682, 47.508531746024268 ], [ 15.309056465936729, 47.508636923381282 ], [ 15.308943793653862, 47.508547692625832 ], [ 15.308918763617886, 47.508532013532339 ], [ 15.308312517939161, 47.508149958732453 ], [ 15.308304364090572, 47.508145059069122 ], [ 15.307997081652831, 47.507959907314444 ], [ 15.307955495990774, 47.507934882932219 ], [ 15.307461359759124, 47.507570153133528 ], [ 15.307103873774523, 47.507360212925391 ], [ 15.307076710809799, 47.507344300164121 ], [ 15.306645382107853, 47.507152280475815 ], [ 15.306316117223995, 47.50704301494023 ], [ 15.305567248645856, 47.506887777177823 ], [ 15.305375551664509, 47.507004118393859 ], [ 15.304907867095359, 47.507288020981548 ], [ 15.304213658567884, 47.507897125306009 ], [ 15.30376216368286, 47.507946828204318 ], [ 15.303647311535915, 47.507980033219546 ], [ 15.302704561337597, 47.508252290440609 ], [ 15.302532873600635, 47.508321481669952 ], [ 15.302146966057094, 47.508476974264028 ], [ 15.301501342592031, 47.508628284721475 ], [ 15.301287506133653, 47.508675157081854 ], [ 15.30078657513249, 47.508784918324771 ], [ 15.300616480596782, 47.508822218429934 ], [ 15.300018705404488, 47.508953168721519 ], [ 15.299920405386459, 47.508977985737239 ], [ 15.299355995570426, 47.509120330418419 ], [ 15.2987487471582, 47.509410380477753 ], [ 15.298184585086396, 47.509726779381467 ], [ 15.297367275854919, 47.510090713837492 ], [ 15.295704181875077, 47.510889433771275 ], [ 15.295502948883703, 47.510986120538796 ], [ 15.295304348936023, 47.511035870751705 ], [ 15.294965581576033, 47.511120689948513 ], [ 15.294821203063755, 47.511156821184798 ], [ 15.294284602861312, 47.51126572360932 ], [ 15.294022623699798, 47.511336536144427 ], [ 15.293503033311097, 47.511456394189359 ], [ 15.292823722745167, 47.511592930305937 ], [ 15.292545735294663, 47.51165132273222 ], [ 15.292262701297833, 47.511706200625078 ], [ 15.292061702468065, 47.511745185862658 ], [ 15.292126474845475, 47.511940013617469 ], [ 15.292183755132868, 47.512354664352202 ], [ 15.291957405791422, 47.512390752439146 ], [ 15.29130315727396, 47.51303347240475 ], [ 15.291192103186967, 47.513229953363435 ], [ 15.290943393832814, 47.513568557915832 ], [ 15.29083659625403, 47.513611692406194 ], [ 15.290773625942789, 47.513708079683553 ], [ 15.290590632676597, 47.513820646373944 ], [ 15.290449183300268, 47.513989384808241 ], [ 15.290292478456808, 47.514273045953054 ], [ 15.290149940352773, 47.514391131451859 ], [ 15.290043501211025, 47.514418958708326 ], [ 15.289853886967038, 47.514642969545577 ], [ 15.289713916911591, 47.514740850201775 ], [ 15.289545725429344, 47.514808611564689 ], [ 15.289503813354715, 47.514924799174224 ], [ 15.289264010835199, 47.51509251405421 ], [ 15.289140936221651, 47.515326908624971 ], [ 15.289044526555198, 47.51551026710878 ], [ 15.288873547306986, 47.515756908743114 ], [ 15.288340282703334, 47.516654411761806 ], [ 15.288063106292963, 47.517075216363047 ], [ 15.287878387824119, 47.51741362239359 ], [ 15.287502058967601, 47.517694002822985 ], [ 15.287212727437641, 47.517909448120157 ], [ 15.287195108612167, 47.517982379833171 ], [ 15.286762644764552, 47.518425717503042 ], [ 15.286726933198171, 47.518462236647096 ], [ 15.286192840384166, 47.519009815417391 ], [ 15.28606166764315, 47.519216353513706 ], [ 15.285798074746095, 47.519631700466256 ], [ 15.285792796585621, 47.519793793481618 ], [ 15.285786375969286, 47.519985966526114 ], [ 15.285907683697996, 47.52008992282682 ], [ 15.286305595172664, 47.520716038181483 ], [ 15.286373183144962, 47.520822349031583 ], [ 15.286604327573603, 47.521476234378021 ], [ 15.286745065164386, 47.522339563491954 ], [ 15.287074116501573, 47.522756515419331 ], [ 15.287180859861477, 47.523004721400611 ], [ 15.287286534359056, 47.523420888724949 ], [ 15.287291854945273, 47.523632122107628 ], [ 15.287376247826668, 47.523986820800744 ], [ 15.28761298298029, 47.524307602564988 ], [ 15.287726594563548, 47.524461549211502 ], [ 15.28769017302222, 47.524611392822372 ], [ 15.28790805323359, 47.524850143800371 ], [ 15.288215746405083, 47.525052802629823 ], [ 15.288815158070504, 47.525253366369967 ], [ 15.289112891109491, 47.52553107418089 ], [ 15.289159828290281, 47.525574824490178 ], [ 15.289297200109607, 47.525702893918023 ], [ 15.289329410482052, 47.525732945088244 ], [ 15.289768102772584, 47.526142079390894 ], [ 15.290031228074076, 47.526542957777728 ], [ 15.290184808641444, 47.526774431647027 ], [ 15.290479020434216, 47.527217799429934 ], [ 15.290500705769455, 47.527250639971967 ], [ 15.291042129309384, 47.528066624296727 ], [ 15.291124206744662, 47.528190415518033 ], [ 15.291647464832627, 47.528496487285807 ], [ 15.291713209542149, 47.528534875335012 ], [ 15.291800558322777, 47.528586034651994 ], [ 15.291807333024536, 47.528842964011687 ], [ 15.29181991478896, 47.529320118503961 ], [ 15.291826560654318, 47.529348715567416 ], [ 15.291837372452536, 47.529374991439958 ], [ 15.291845406535906, 47.529394474616197 ], [ 15.29191328007026, 47.529368654952343 ], [ 15.292655293484277, 47.529086244462668 ], [ 15.293032131278359, 47.529010684032905 ], [ 15.293252118946402, 47.529326250923233 ], [ 15.293652852513977, 47.530080906780313 ], [ 15.293976375519248, 47.530403792696738 ], [ 15.294688557296094, 47.530351203850216 ], [ 15.295874505553469, 47.529697211607086 ], [ 15.296413226905972, 47.529779072962192 ], [ 15.29721768125343, 47.529770789642342 ], [ 15.298125209733533, 47.530223794723263 ], [ 15.299318675649541, 47.529779251882687 ], [ 15.300184610813382, 47.529840815325691 ], [ 15.300204067111652, 47.529835171514499 ], [ 15.301483428187373, 47.529467254211283 ], [ 15.301926477163661, 47.529481610126332 ], [ 15.302594119249171, 47.530234714919494 ], [ 15.302615347237671, 47.530258650953613 ], [ 15.303057402183198, 47.530757320835441 ], [ 15.303274662637042, 47.531136637868613 ], [ 15.302286716038195, 47.53207648473979 ], [ 15.302427380294267, 47.532152731441187 ], [ 15.30249398628111, 47.532188938663438 ], [ 15.303139124741183, 47.532503217082862 ], [ 15.302939533980293, 47.532840822571032 ], [ 15.302590150740404, 47.533334183213647 ], [ 15.302428773943582, 47.533436046254138 ], [ 15.301994621108777, 47.533709995387916 ], [ 15.301931696764608, 47.533747346288564 ], [ 15.301877090530052, 47.533779694271715 ], [ 15.301471443556785, 47.53402003130288 ], [ 15.301328252469096, 47.534164061555202 ], [ 15.301306604614789, 47.534185763481375 ], [ 15.301283168026629, 47.534209386137057 ], [ 15.301092913406837, 47.53437429405777 ], [ 15.300893385160007, 47.53458265166514 ], [ 15.300760384900565, 47.53468654545307 ], [ 15.300955654493395, 47.53477643759296 ], [ 15.301180520064232, 47.534847461213928 ], [ 15.301953138028578, 47.534980725336936 ], [ 15.302073928450618, 47.53500160246108 ], [ 15.302165910713835, 47.535041064391841 ], [ 15.302797103664378, 47.535312113570576 ], [ 15.303286192358248, 47.535578580088384 ], [ 15.303584260083143, 47.535740953819769 ], [ 15.30395360924577, 47.535866182287464 ], [ 15.304676485318584, 47.536240426471373 ], [ 15.305863250538872, 47.535849582839873 ], [ 15.306639420787564, 47.536088129188251 ], [ 15.306639516121971, 47.536088190549485 ], [ 15.306755742449321, 47.53618602112504 ], [ 15.306936364155247, 47.536315810285522 ], [ 15.307643875686846, 47.536773201536889 ], [ 15.307763708661934, 47.536839207310905 ], [ 15.308339121320262, 47.53704376641123 ], [ 15.30836336224565, 47.537066389533067 ], [ 15.309258561072234, 47.537903381177301 ], [ 15.309705644589341, 47.537998370709012 ], [ 15.310292470538545, 47.538123080744455 ], [ 15.310845530610685, 47.538162687917612 ], [ 15.312581800188294, 47.538355585150391 ], [ 15.313400331965049, 47.538601204012359 ], [ 15.314940744630308, 47.538847758161545 ], [ 15.314971851029433, 47.538802039598892 ], [ 15.315577782333136, 47.538050670407728 ], [ 15.316263813200916, 47.537199900273571 ], [ 15.316431634942882, 47.537205908976446 ], [ 15.316661741979132, 47.53721417049573 ], [ 15.316800551384439, 47.537219150300665 ], [ 15.316950344614479, 47.53726516106336 ], [ 15.317217170029364, 47.537330747970408 ], [ 15.317091967363446, 47.537545589123141 ], [ 15.318278803688928, 47.53784420429065 ], [ 15.319367214672402, 47.538084210086915 ], [ 15.319856404321218, 47.538192021684573 ], [ 15.320712788248118, 47.538735021492322 ], [ 15.321083698362651, 47.538846407393805 ], [ 15.321915597120832, 47.539096234783223 ], [ 15.323477322154783, 47.539630493844882 ], [ 15.324253079362007, 47.539895859154626 ], [ 15.324904797552721, 47.540244465402672 ], [ 15.325386673703745, 47.540502235184952 ], [ 15.325633216372305, 47.540526394005759 ], [ 15.325836754355139, 47.540590720472309 ], [ 15.326031288237029, 47.54067698363626 ], [ 15.326228186495783, 47.540765995480875 ], [ 15.326461682566231, 47.540891272130388 ], [ 15.326799477738899, 47.540917262913645 ], [ 15.327034094949315, 47.540924795535169 ], [ 15.327223371818199, 47.540900354884755 ], [ 15.327555081552429, 47.540800895572303 ], [ 15.327707997777123, 47.540732444961748 ], [ 15.327886592203541, 47.540815382077007 ], [ 15.328069383347076, 47.540900316001199 ], [ 15.328294653533231, 47.540990811028756 ], [ 15.329430314501089, 47.541446627803538 ], [ 15.329532525134416, 47.54155510236005 ], [ 15.329467848816174, 47.542670190831458 ], [ 15.329438645147384, 47.543172013770139 ], [ 15.329752126265781, 47.543481477561066 ], [ 15.330149588926105, 47.543975694148919 ], [ 15.330129121632634, 47.544416883389907 ], [ 15.330127884501781, 47.544443815714743 ], [ 15.330115417501466, 47.544710620545345 ], [ 15.330097753832927, 47.544749539144753 ], [ 15.329465495844438, 47.545721500806607 ], [ 15.329444271349979, 47.545754181063359 ], [ 15.328530387304085, 47.547159179166499 ], [ 15.328474237333728, 47.547245388139579 ], [ 15.328531958063763, 47.547508901739434 ], [ 15.328523538818057, 47.547623351395622 ], [ 15.328515452033177, 47.547669483339035 ], [ 15.328375302913035, 47.54787523644633 ], [ 15.328263938448949, 47.547956735330899 ], [ 15.328044434076462, 47.548229299752045 ], [ 15.327991790374908, 47.548309867316433 ], [ 15.327811226714337, 47.548435050068576 ], [ 15.327644692565993, 47.548551618397035 ], [ 15.32747969105276, 47.548747182014459 ], [ 15.327251127639583, 47.548924769597058 ], [ 15.326859201488938, 47.548731145309915 ], [ 15.326659638533792, 47.548621749883544 ], [ 15.326475749397634, 47.548522522093748 ], [ 15.326306723640036, 47.548450666562474 ], [ 15.326205547046847, 47.548415253188587 ], [ 15.32616001089939, 47.548416854236727 ], [ 15.326045441559325, 47.548420914441401 ], [ 15.325771349882757, 47.548474096452637 ], [ 15.325492154737109, 47.548511886003809 ], [ 15.325279577659026, 47.548571198779179 ], [ 15.325006101474042, 47.54882318358694 ], [ 15.324810673589155, 47.549015941308781 ], [ 15.324735398867793, 47.549081779718207 ], [ 15.324651631759064, 47.549155055677964 ], [ 15.324560523565859, 47.549234579153577 ], [ 15.324390155951034, 47.549169404282544 ], [ 15.324235683390315, 47.549074612542057 ], [ 15.324058837389885, 47.549031420199647 ], [ 15.32393259028847, 47.548986899618022 ], [ 15.323844849343704, 47.548937660686597 ], [ 15.32375505705269, 47.548929048353507 ], [ 15.323528785229962, 47.54888653273418 ], [ 15.323068977188004, 47.548792175922337 ], [ 15.32280443527103, 47.548764093008351 ], [ 15.322471485845895, 47.548681214165263 ], [ 15.322353687086565, 47.548599914443592 ], [ 15.322207076883453, 47.54846682274632 ], [ 15.322060233654897, 47.548309974294078 ], [ 15.321787375699419, 47.548525939553258 ], [ 15.321260893403739, 47.548942864323358 ], [ 15.321660896343895, 47.549434995065091 ], [ 15.321965105477194, 47.549647167812552 ], [ 15.322107438787651, 47.549800674500354 ], [ 15.322408089852591, 47.549915165288631 ], [ 15.322593494182446, 47.55004398401276 ], [ 15.322865367835654, 47.550121621656238 ], [ 15.323261607502202, 47.550366125960061 ], [ 15.322919579895174, 47.550630364683421 ], [ 15.322866869563645, 47.550670789803249 ], [ 15.322708605228955, 47.550792067319371 ], [ 15.322611836677883, 47.550866197134589 ], [ 15.32259736516675, 47.550880758428697 ], [ 15.322245011256939, 47.551237696407554 ], [ 15.321918541474629, 47.551066411168719 ], [ 15.321419462927475, 47.550883175927439 ], [ 15.321078251356324, 47.550757864984035 ], [ 15.320570539204192, 47.550331949641411 ], [ 15.320351417348062, 47.55017266093769 ], [ 15.319226720937984, 47.549907908094113 ], [ 15.318960462522666, 47.5498450151185 ], [ 15.318419639554843, 47.549689310332049 ], [ 15.318022041065126, 47.549601777097351 ], [ 15.317906824858127, 47.549476057149668 ], [ 15.317649730024877, 47.549289519670509 ], [ 15.317387861908093, 47.549050412913573 ], [ 15.317076803617251, 47.548909808554882 ], [ 15.316877009497794, 47.548881852427904 ], [ 15.316829883665196, 47.548827225890065 ], [ 15.316494950107371, 47.548511708570679 ], [ 15.316450237284783, 47.548559822647199 ], [ 15.316442190053451, 47.54856851196098 ], [ 15.316403606269928, 47.548609949910031 ], [ 15.316371158353064, 47.548644891628236 ], [ 15.316317438738993, 47.548672730846256 ], [ 15.31621272596397, 47.548698481362536 ], [ 15.315945019738701, 47.548653336993347 ], [ 15.315736772872613, 47.548584484009936 ], [ 15.315447574809253, 47.548455827886848 ], [ 15.314913488841135, 47.548146626940401 ], [ 15.3145798186163, 47.547948895221481 ], [ 15.31436654110998, 47.547764023971673 ], [ 15.314055090292889, 47.547421993709854 ], [ 15.313965056798462, 47.547463329124028 ], [ 15.31366879863719, 47.547570506074067 ], [ 15.31332126679299, 47.547696387619105 ], [ 15.31302247622358, 47.547496249454326 ], [ 15.312766964138232, 47.547358095239069 ], [ 15.312677725774797, 47.547286373301809 ], [ 15.312505998141919, 47.547198614075249 ], [ 15.312361872236815, 47.547053047118482 ], [ 15.31232682148867, 47.547068322122698 ], [ 15.312466041384278, 47.547217753848599 ], [ 15.312822882229797, 47.547653507211045 ], [ 15.312813468720368, 47.547795422907086 ], [ 15.312875454929268, 47.5482520138411 ], [ 15.312888606124123, 47.548898001707499 ], [ 15.312869953574644, 47.549073467557328 ], [ 15.312883848189237, 47.549357814285138 ], [ 15.3128864384734, 47.550457774500323 ], [ 15.312880504016533, 47.550519078277112 ], [ 15.312831301498223, 47.550931866499646 ], [ 15.312841222666316, 47.551223661861307 ], [ 15.312923048876263, 47.551518536623611 ], [ 15.313002721398766, 47.55180561831483 ], [ 15.313060178700592, 47.552191185478733 ], [ 15.313069806439069, 47.552506926372601 ], [ 15.313065925570196, 47.552555684421129 ], [ 15.313125468206833, 47.552975416293869 ], [ 15.313219333188577, 47.553399235936652 ], [ 15.313322690240245, 47.553577276264356 ], [ 15.313477040280148, 47.553909059853936 ], [ 15.313606175325493, 47.554051374263672 ], [ 15.313645341726893, 47.554198211510247 ], [ 15.313728001274809, 47.554462020622296 ], [ 15.314050165825856, 47.555263867193432 ], [ 15.314090336038348, 47.555260833663105 ], [ 15.314177439045217, 47.55525428980004 ], [ 15.314162425695393, 47.555402782263521 ], [ 15.314162166025387, 47.555406476827834 ], [ 15.314201942837526, 47.555714136890572 ], [ 15.314223036084025, 47.555790544411657 ], [ 15.314234440573568, 47.555832108434039 ], [ 15.314288484713751, 47.556027919684986 ], [ 15.314289397137017, 47.556030963999042 ], [ 15.314142385052907, 47.556046012366458 ], [ 15.314235876848496, 47.556445447077181 ], [ 15.314249684712658, 47.556480219454812 ], [ 15.31426304315746, 47.5565136495605 ], [ 15.314424513141256, 47.556921090673384 ], [ 15.31447408145298, 47.557276822590346 ], [ 15.314458558430601, 47.557454124466261 ], [ 15.314455765266134, 47.55748585338192 ], [ 15.314757975807971, 47.557746860781151 ], [ 15.314831509958381, 47.55791641464144 ], [ 15.314854632035821, 47.558011327412629 ], [ 15.31492993274307, 47.558319453718795 ], [ 15.315053539029805, 47.558974333232619 ], [ 15.31369608899953, 47.559244914741583 ], [ 15.31385037763739, 47.559765162838495 ], [ 15.313731730869167, 47.559788721084878 ], [ 15.313468971658546, 47.559823406391835 ], [ 15.313076182981861, 47.559875994930664 ], [ 15.313106451588983, 47.560196059360841 ], [ 15.313079884170619, 47.560433312648399 ], [ 15.313082935830673, 47.560514351676794 ], [ 15.313085086562339, 47.560571465752638 ], [ 15.312967223158051, 47.56060175979178 ], [ 15.31307465843442, 47.560870091835547 ], [ 15.31309897813585, 47.561025105451307 ], [ 15.313112639643281, 47.561183093005639 ], [ 15.313078283259768, 47.561312388403827 ], [ 15.31302051822626, 47.561536859583484 ], [ 15.312979779825463, 47.561620274098892 ], [ 15.312868452785265, 47.561753597328519 ], [ 15.312809278019536, 47.561908881270504 ], [ 15.312811232611333, 47.562077330978077 ], [ 15.312799560215074, 47.562237015565856 ], [ 15.312914582767545, 47.562399554695141 ], [ 15.312877368520821, 47.56259424060454 ], [ 15.312931421730847, 47.562758461479326 ], [ 15.313114675574594, 47.562896692868954 ], [ 15.313127834708629, 47.563094289842169 ], [ 15.313193761174535, 47.563315996920039 ], [ 15.313245422954394, 47.563377836845341 ], [ 15.312909892688856, 47.563874675312299 ], [ 15.312829408830689, 47.563898474121466 ], [ 15.312186584811181, 47.564837389170251 ], [ 15.31213011070388, 47.564919724581635 ], [ 15.312073254676239, 47.565002516555097 ], [ 15.312047918216106, 47.56503949413802 ], [ 15.31181250312895, 47.565391589818937 ], [ 15.311711159105943, 47.565525459542876 ], [ 15.311549995021696, 47.565825963542913 ], [ 15.311590311078957, 47.566073943332327 ], [ 15.311359274219203, 47.566132646827143 ], [ 15.311216463254155, 47.566168228896686 ], [ 15.311189456997344, 47.5661749944665 ], [ 15.31126750369657, 47.566499815514874 ], [ 15.311372573471798, 47.566744069218878 ], [ 15.311458702325766, 47.567265944555388 ], [ 15.311339716946101, 47.567277445594719 ], [ 15.311272572098428, 47.56728481298201 ], [ 15.310448046496111, 47.567174278516326 ], [ 15.310023690278067, 47.567117417352655 ], [ 15.309543602912015, 47.567088514841039 ], [ 15.309268136722402, 47.567083357894603 ], [ 15.309121551018354, 47.567114142187094 ], [ 15.30912774763744, 47.567222397467155 ], [ 15.30924044860482, 47.567386870117531 ], [ 15.309282313584553, 47.567630323725972 ], [ 15.309164705102317, 47.567830622184907 ], [ 15.30906913972705, 47.568076081831833 ], [ 15.309021519190164, 47.56818544358476 ], [ 15.309008772730071, 47.568507958772614 ], [ 15.308982332017393, 47.568904870995219 ], [ 15.30896925690188, 47.569016968060915 ], [ 15.308968810337001, 47.569231539544816 ], [ 15.308928926250825, 47.569412319296369 ], [ 15.308915856733053, 47.569471495312825 ], [ 15.308902449327238, 47.569532297171421 ], [ 15.308920308260832, 47.569883625927538 ], [ 15.309130893815471, 47.570292208000161 ], [ 15.309162625481392, 47.570662288204169 ], [ 15.309145149639887, 47.570766990881559 ], [ 15.309309498500115, 47.5711447780672 ], [ 15.309331697032391, 47.571271838097005 ], [ 15.309295602445122, 47.571486213239766 ], [ 15.309187850159908, 47.571701281993789 ], [ 15.309354039182384, 47.571986425825465 ], [ 15.30952628632774, 47.572269935095136 ], [ 15.309592275179856, 47.572627815056322 ], [ 15.309617574909616, 47.573053086739947 ], [ 15.309528763027984, 47.573428842330578 ], [ 15.309423102283137, 47.573834048382544 ], [ 15.309815360197247, 47.573976696811776 ], [ 15.309993891067787, 47.574041573492188 ], [ 15.309989097684493, 47.574204108813319 ], [ 15.309983218480928, 47.574397893359119 ], [ 15.309982557098271, 47.574422745171361 ], [ 15.30991563197626, 47.574595350612086 ], [ 15.309841108658276, 47.574569453486006 ], [ 15.309593562466171, 47.574483714509931 ], [ 15.309575372135678, 47.574477457601112 ], [ 15.309397155068986, 47.574431565175438 ], [ 15.309200082365546, 47.574428927792994 ], [ 15.309127311388794, 47.574676064604844 ], [ 15.309064239777468, 47.574784972095387 ], [ 15.308921627176119, 47.574971569904811 ], [ 15.308749288754322, 47.57507857779612 ], [ 15.308498011866739, 47.575173173616371 ], [ 15.308388557952656, 47.575226447923711 ], [ 15.308661316635739, 47.575639720978586 ], [ 15.308579428228143, 47.575743461883981 ], [ 15.3085168350672, 47.575840390581604 ], [ 15.308393918589841, 47.575988488060432 ], [ 15.308275836968468, 47.576095371540184 ], [ 15.308070841861324, 47.576335152308594 ], [ 15.308015010174705, 47.576406763964961 ], [ 15.307966153238491, 47.576472855516144 ], [ 15.307955131042425, 47.576483935307017 ], [ 15.30784757054071, 47.576616017707444 ], [ 15.307711602696529, 47.576777929095201 ], [ 15.307707379059929, 47.576885013434222 ], [ 15.307674848534548, 47.577049375562034 ], [ 15.307581648692697, 47.577149530158692 ], [ 15.307464657536501, 47.577274934240535 ], [ 15.307454806776004, 47.577483636910522 ], [ 15.307432590635054, 47.577703082396489 ], [ 15.307382703163011, 47.577685130070016 ], [ 15.307234806505964, 47.57768182338085 ], [ 15.306956259768089, 47.577712983479117 ], [ 15.306866287256037, 47.577955824130903 ], [ 15.306832138088874, 47.57811967375013 ], [ 15.30683856263045, 47.578209294660539 ], [ 15.306951988593976, 47.578314716122769 ], [ 15.306974165850541, 47.578356275447845 ], [ 15.307009940378334, 47.578423431367639 ], [ 15.307004505764757, 47.578448725195791 ], [ 15.30698992216999, 47.578517286988486 ], [ 15.306946340466375, 47.578706229185016 ], [ 15.307031340520577, 47.578766598630544 ], [ 15.306747086274175, 47.578865537270772 ], [ 15.306602946981473, 47.5790155274169 ], [ 15.306415889100368, 47.579184435364922 ], [ 15.306108411866498, 47.579508144841029 ], [ 15.306058252411177, 47.579560937638767 ], [ 15.306084350563872, 47.579579389400458 ], [ 15.30552566669725, 47.579819662845459 ], [ 15.305036361301994, 47.579891969427727 ], [ 15.304829710632557, 47.58019477305303 ], [ 15.304727308814158, 47.580326493566268 ], [ 15.304630388990411, 47.580462529896366 ], [ 15.30449685545379, 47.580835268154033 ], [ 15.304520859871001, 47.581102879688572 ], [ 15.304539828746611, 47.581321346995544 ], [ 15.304528006428225, 47.581378520794701 ], [ 15.304504219208431, 47.581535171418629 ], [ 15.304470834465643, 47.581662916430581 ], [ 15.304380879737103, 47.581857063660344 ], [ 15.304375097406632, 47.581869583114482 ], [ 15.30432771984886, 47.581971827973817 ], [ 15.304316404135196, 47.581996412594435 ], [ 15.304309015076196, 47.582012199675525 ], [ 15.304393802362108, 47.582038464260719 ], [ 15.304723552579505, 47.582212084338863 ], [ 15.30490282599172, 47.582757113048444 ], [ 15.304802538299219, 47.582909857457608 ], [ 15.304780396733518, 47.582925987920127 ], [ 15.30346061426539, 47.583885557731492 ], [ 15.303392523779431, 47.583900226426366 ], [ 15.302944933655436, 47.583808905365508 ], [ 15.302281753545785, 47.584205036543359 ], [ 15.302273705053382, 47.584277805495226 ], [ 15.302223419726053, 47.584302608232662 ], [ 15.302054309068067, 47.58438686947968 ], [ 15.302022806332161, 47.584401719898509 ], [ 15.301805167565789, 47.584504453174532 ], [ 15.301887722384556, 47.584598888765882 ], [ 15.30155473038894, 47.584843191220834 ], [ 15.301158065775732, 47.58512791455486 ], [ 15.300907932415514, 47.585307973935578 ], [ 15.300591105007191, 47.58555433639205 ], [ 15.300108033777898, 47.585897867162593 ], [ 15.299701382519414, 47.586154315900103 ], [ 15.299302790131504, 47.58636670462321 ], [ 15.299090671222359, 47.586460877866116 ], [ 15.298879601659474, 47.58655467273293 ], [ 15.298120420929312, 47.586843520938743 ], [ 15.297844339575503, 47.586920696248612 ], [ 15.297658424758158, 47.586972207913 ], [ 15.297625640475438, 47.586981318937156 ], [ 15.297556774820801, 47.58700742744896 ], [ 15.297464035541497, 47.587042584447573 ], [ 15.29745550830885, 47.587045790365451 ], [ 15.297249432335958, 47.587123836542261 ], [ 15.297077886647987, 47.587235942062087 ], [ 15.296939329133895, 47.587326602885653 ], [ 15.296909692299003, 47.587352310035499 ], [ 15.296661621969051, 47.587566884720914 ], [ 15.296623047739301, 47.587609754800646 ], [ 15.296421095828176, 47.587833890350758 ], [ 15.296246597252235, 47.587977455343314 ], [ 15.296218593974736, 47.588000614345191 ], [ 15.296149539116264, 47.588057325507499 ], [ 15.295852228892743, 47.58831792055598 ], [ 15.295716242854121, 47.588409885856173 ], [ 15.295571048610801, 47.588508218425289 ], [ 15.295137788729056, 47.588819195421607 ], [ 15.294827203542098, 47.58908793452337 ], [ 15.294616605109976, 47.589308884298148 ], [ 15.294413645610621, 47.58966326435776 ], [ 15.294270906184988, 47.58995586494045 ], [ 15.294154072186318, 47.590286723217694 ], [ 15.293983946728373, 47.590679781913572 ], [ 15.293956233521515, 47.590721475514592 ], [ 15.29390305923493, 47.590801044203737 ], [ 15.293887564753147, 47.590824348982736 ], [ 15.293653991872313, 47.591125159699565 ], [ 15.293573638502531, 47.591228682455359 ], [ 15.293398022815456, 47.591378471820761 ], [ 15.293006926123997, 47.591665139997495 ], [ 15.292824828055275, 47.591812429040552 ], [ 15.292736619886218, 47.591883774947092 ], [ 15.29247979875775, 47.592118019237461 ], [ 15.292190841660947, 47.592371801312076 ], [ 15.291988920751377, 47.592497826952133 ], [ 15.291568302868159, 47.592781753458418 ], [ 15.2913893689988, 47.592910625959121 ], [ 15.291141474619273, 47.593099084463425 ], [ 15.290731764239187, 47.593429622051715 ], [ 15.290641845446139, 47.59350162539787 ], [ 15.290300522745216, 47.593775195139024 ], [ 15.290107641982278, 47.593919153310246 ], [ 15.289929992557024, 47.594079141695978 ], [ 15.289565534693049, 47.594371193436423 ], [ 15.289255589782709, 47.594615875069287 ], [ 15.289204869950261, 47.594654449268731 ], [ 15.288697363842916, 47.595035605159431 ], [ 15.288396688630353, 47.595239986216654 ], [ 15.288143161090774, 47.595427813700859 ], [ 15.28804241891798, 47.595502339137852 ], [ 15.287754049831369, 47.595755109180828 ], [ 15.287467180784677, 47.596008932917506 ], [ 15.287344526607349, 47.596113260756304 ], [ 15.287088621709136, 47.595940404314888 ], [ 15.286862785296783, 47.596178967907463 ], [ 15.286585692832514, 47.596112581369965 ], [ 15.28629647153296, 47.596002660245311 ], [ 15.285959503471283, 47.595932610553504 ], [ 15.285902098055583, 47.595938176749236 ], [ 15.285272622456139, 47.595863018631235 ], [ 15.285372631576802, 47.595654047530481 ], [ 15.285477375217377, 47.595436445786902 ], [ 15.285475767811327, 47.595174751840467 ], [ 15.28605843088649, 47.594645721731879 ], [ 15.286520550454027, 47.594184979356484 ], [ 15.286873920453697, 47.593755335405156 ], [ 15.286457769667276, 47.593426713111327 ], [ 15.286055648534214, 47.593385942352697 ], [ 15.285602180788395, 47.593295282979113 ], [ 15.285205640989497, 47.593039403251687 ], [ 15.28486891781777, 47.592764055443752 ], [ 15.284678548591593, 47.592578289960194 ], [ 15.284322109098948, 47.592148024907551 ], [ 15.284155186414306, 47.592009560437766 ], [ 15.284071309825835, 47.591939885168799 ], [ 15.28384282048693, 47.59175566602952 ], [ 15.283825255664055, 47.591730494292086 ], [ 15.28366463953725, 47.591500211544663 ], [ 15.283457757232288, 47.591303024583112 ], [ 15.283193819930585, 47.590948585436259 ], [ 15.282973885404823, 47.590686368985082 ], [ 15.282807620423725, 47.590579751645194 ], [ 15.28270889456221, 47.590518517602682 ], [ 15.282395696026523, 47.590306303792374 ], [ 15.282293616259402, 47.590237116303257 ], [ 15.281762194540445, 47.590073965187194 ], [ 15.281355256108261, 47.589974219923924 ], [ 15.281091097040738, 47.589882401167074 ], [ 15.280792989062238, 47.589761187534371 ], [ 15.280488278096811, 47.58960894499522 ], [ 15.280113817862031, 47.589559764824699 ], [ 15.279934048269872, 47.589497742636624 ], [ 15.279573577498681, 47.589309002958487 ], [ 15.279376046907792, 47.589166100662474 ], [ 15.276681090043532, 47.591664975925532 ], [ 15.274008637786093, 47.594142431975861 ], [ 15.272911034863727, 47.595210558991994 ], [ 15.272830891459591, 47.595288592785586 ], [ 15.272462786579926, 47.595646800078889 ], [ 15.27258379255565, 47.596124276789801 ], [ 15.272611358879514, 47.596233071289859 ], [ 15.272050456282578, 47.598087813180257 ], [ 15.272031576671726, 47.599746831600221 ], [ 15.272030821899515, 47.599805704320801 ], [ 15.272027894681468, 47.600061713635931 ], [ 15.271216276380631, 47.600388252646972 ], [ 15.271084630657281, 47.600441144088911 ], [ 15.270680525774205, 47.600603842140309 ], [ 15.270305412904664, 47.600755339723626 ], [ 15.27028626938271, 47.600763042611788 ], [ 15.270156074646707, 47.600815638480469 ], [ 15.269057471382958, 47.601259411486474 ], [ 15.268941567293908, 47.601306275054675 ], [ 15.268929375420424, 47.601311250542082 ], [ 15.265524616400374, 47.602686453603347 ], [ 15.262733100860876, 47.603813922395915 ], [ 15.261101338428798, 47.604175853281845 ], [ 15.257286226613916, 47.604756427031454 ], [ 15.257170114875132, 47.604783571984576 ], [ 15.256383727258955, 47.604967651382111 ], [ 15.252603452811963, 47.605852581992373 ], [ 15.251729587781423, 47.60610550024181 ], [ 15.250112222436941, 47.606486561770538 ], [ 15.24893261002793, 47.607066757710882 ], [ 15.248809240518888, 47.607146934604998 ], [ 15.248793252189753, 47.607157371161819 ], [ 15.24859058231301, 47.60728908986767 ], [ 15.247725414022177, 47.607851158823742 ], [ 15.24397116743126, 47.609347628295339 ], [ 15.243820830417635, 47.60940754841878 ], [ 15.241765818712981, 47.610102664660459 ], [ 15.240839360380727, 47.610211653477165 ], [ 15.240438171999298, 47.609971718632828 ], [ 15.239311819253087, 47.60930327403797 ], [ 15.238625222625169, 47.608895811159414 ], [ 15.237950660282491, 47.608629082921617 ], [ 15.23643603715553, 47.60802680823155 ], [ 15.234853309187711, 47.607850885788984 ], [ 15.233900201872297, 47.607744893376818 ], [ 15.233588781905278, 47.607740956436587 ], [ 15.233672390369975, 47.607874301170838 ], [ 15.233455278447623, 47.607813904191431 ], [ 15.23315708457479, 47.607881296231859 ], [ 15.232750922327901, 47.607826184905434 ], [ 15.232594346606092, 47.607971422150676 ], [ 15.232207415659706, 47.607700984038793 ], [ 15.232172932738999, 47.6077042541068 ], [ 15.231973470224082, 47.607723391392263 ], [ 15.231778680291571, 47.607676662067206 ], [ 15.231185136400729, 47.607997056835018 ], [ 15.231097857013792, 47.608296034530994 ], [ 15.230878363880416, 47.608158633222608 ], [ 15.23038571445497, 47.608107642365603 ], [ 15.230268923973034, 47.607954413737453 ], [ 15.229895816229726, 47.607882186674352 ], [ 15.22958006306088, 47.607820891305614 ], [ 15.22947792012425, 47.607807907896095 ], [ 15.228252075820114, 47.607652102090952 ], [ 15.227330526357472, 47.60753500495715 ], [ 15.225752814333365, 47.607334395576899 ], [ 15.225901947232991, 47.607802090391971 ], [ 15.22544942827874, 47.607874795123472 ], [ 15.22445467371293, 47.608034546225475 ], [ 15.224182066638566, 47.608177182148573 ], [ 15.223850714311265, 47.608166707051467 ], [ 15.22321665430454, 47.608146632636171 ], [ 15.220337831028585, 47.607780064497909 ], [ 15.216174884184316, 47.60775658719804 ], [ 15.215549121994936, 47.607659566093304 ], [ 15.214171274521943, 47.607445892968869 ], [ 15.211200498119434, 47.607199220816703 ], [ 15.209303693209657, 47.607302757110681 ], [ 15.209076834575809, 47.607315102175903 ], [ 15.208141640099296, 47.607339911642221 ], [ 15.208016666480491, 47.607343301580151 ], [ 15.207236828359155, 47.607653111287036 ], [ 15.206759444638136, 47.607842695056391 ], [ 15.206756111667833, 47.607846259342722 ], [ 15.207058435465482, 47.607987034299612 ], [ 15.207224645809346, 47.608221827251228 ], [ 15.207774166866457, 47.60899827258072 ], [ 15.209090505207362, 47.610858100333424 ], [ 15.20931712820726, 47.611237430532697 ], [ 15.210682901034833, 47.613523923968174 ], [ 15.211192829085098, 47.614377499198085 ], [ 15.211572525618093, 47.61501306677728 ], [ 15.211787435860874, 47.615372784328024 ], [ 15.212281122823583, 47.617921731860072 ], [ 15.212303476602626, 47.618036833571523 ], [ 15.212616649014528, 47.619654103225642 ], [ 15.212746006907008, 47.620386099899306 ], [ 15.212855020482371, 47.621003321922018 ], [ 15.21296602585249, 47.621631490956311 ], [ 15.213028930782798, 47.621986853327378 ], [ 15.212785245639033, 47.622538747145214 ], [ 15.211170854029039, 47.626196016512345 ], [ 15.211017896588951, 47.626542397714772 ], [ 15.210476335278681, 47.626523887726229 ], [ 15.209666974804605, 47.626495709289145 ], [ 15.206849216678975, 47.625709213494048 ], [ 15.204396873246537, 47.625024606540215 ], [ 15.198588188847385, 47.623200762170164 ], [ 15.196855370953521, 47.622656678903262 ], [ 15.193880997054592, 47.622352547148743 ], [ 15.190541133651928, 47.622011049321465 ], [ 15.190296670245374, 47.622125967625308 ], [ 15.189899006729549, 47.622312929094043 ], [ 15.189789017497782, 47.622364654946971 ], [ 15.189273634681392, 47.622606974707537 ], [ 15.188838127379222, 47.624525999220751 ], [ 15.188723730818479, 47.625029580774203 ], [ 15.188644564514068, 47.626669706781158 ], [ 15.188018235273416, 47.626791325386641 ], [ 15.18771042482245, 47.626851102006668 ], [ 15.187349633864224, 47.626986430290209 ], [ 15.181829794301684, 47.629056470388093 ], [ 15.180675450079601, 47.629485601090295 ], [ 15.179956548636435, 47.630587828345213 ], [ 15.178371071344438, 47.631191706804138 ], [ 15.176473395630389, 47.631914596725096 ], [ 15.175558855632957, 47.632658325392278 ], [ 15.181306320001083, 47.634469558913445 ], [ 15.181708159222602, 47.634594401254454 ], [ 15.18367322548583, 47.635204813403547 ], [ 15.185666821939614, 47.63576208458327 ], [ 15.185759072888821, 47.63578786658146 ], [ 15.189963315591216, 47.637418439765163 ], [ 15.190626471964466, 47.637675644774859 ], [ 15.191792397252822, 47.640320255362077 ], [ 15.193311625874079, 47.643765959710706 ], [ 15.193652510341696, 47.644835905600672 ], [ 15.193873534590066, 47.645529713846159 ], [ 15.194578752575394, 47.647743288892755 ], [ 15.198015810647338, 47.648007070319984 ], [ 15.198051265570387, 47.648000375341987 ], [ 15.198914778015711, 47.647838138175175 ], [ 15.202213456222605, 47.647218199266099 ], [ 15.203419397959467, 47.647068538946201 ], [ 15.206212721628152, 47.646721656529266 ], [ 15.206396739841866, 47.646757986665321 ], [ 15.209042324390524, 47.647279126270433 ], [ 15.20939668306265, 47.647348940656656 ], [ 15.210177043352173, 47.647503145900927 ], [ 15.214084807483195, 47.64644641866326 ], [ 15.214722409839714, 47.646429953874723 ], [ 15.216874983973629, 47.64637444939234 ], [ 15.218285103216946, 47.646338012821282 ], [ 15.221998101697778, 47.647110888803908 ], [ 15.223021943789472, 47.647324004705752 ], [ 15.228421196313104, 47.648447471046921 ], [ 15.229262452141736, 47.648622503369971 ], [ 15.230681689616301, 47.648917767332485 ], [ 15.230927372005088, 47.648979140083014 ], [ 15.231303956246045, 47.649073090094234 ], [ 15.232629275992055, 47.649403900324877 ], [ 15.233919129876908, 47.649725832173679 ], [ 15.234829979333798, 47.649953132412072 ], [ 15.235052954401551, 47.650008752268377 ], [ 15.239073356134782, 47.651328316478654 ], [ 15.23957043982729, 47.65158529849419 ], [ 15.241646782566523, 47.652658543750107 ], [ 15.242953990218822, 47.653039936931442 ], [ 15.243716379028173, 47.65326234453363 ], [ 15.243935063848244, 47.653364097863943 ], [ 15.245084321767756, 47.653898749375024 ], [ 15.246029272433509, 47.654338331282119 ], [ 15.247677756318343, 47.655105125275995 ], [ 15.24781637633175, 47.65513314619318 ], [ 15.249257341665416, 47.655424583342729 ], [ 15.249402264724752, 47.655844079719422 ], [ 15.250448616194664, 47.658871365648018 ], [ 15.25045056048395, 47.658877183109958 ], [ 15.25046172825545, 47.658909396238293 ], [ 15.250741025594209, 47.659717422321755 ], [ 15.250804773683587, 47.659901665434319 ], [ 15.250819232361843, 47.659943723443732 ], [ 15.252010256666166, 47.663388963754436 ], [ 15.252139120710211, 47.663761565622423 ], [ 15.252124329034849, 47.663867110331282 ], [ 15.252068895863687, 47.664261705371942 ], [ 15.252999503425851, 47.663906320502889 ], [ 15.253343386440541, 47.663774985967017 ], [ 15.254527146896407, 47.663210893634563 ], [ 15.255669375432834, 47.662666571674116 ], [ 15.257645389169976, 47.661662613831062 ], [ 15.260585146105766, 47.660180461969667 ], [ 15.261479586181352, 47.659729943856227 ], [ 15.261755046626542, 47.659006775415918 ], [ 15.262434429986573, 47.658790783751627 ], [ 15.263901388290872, 47.659115569536254 ], [ 15.264617963252869, 47.659451702818124 ], [ 15.266593147506613, 47.659284524307608 ], [ 15.267210573978636, 47.660320707709573 ], [ 15.267472789965618, 47.660760728135095 ], [ 15.26872098765382, 47.662034380992068 ], [ 15.269772927647912, 47.662124360749964 ], [ 15.270796338882906, 47.66274876517334 ], [ 15.27125234511959, 47.662826650738666 ], [ 15.272364191433068, 47.663495639387861 ], [ 15.272943111981759, 47.663843970672339 ], [ 15.272993029768825, 47.66380824504165 ], [ 15.273285045997291, 47.66359924608728 ], [ 15.273290900726124, 47.663526986278889 ] ] ] } },
{ "type": "Feature", "properties": { "name": "Turnau", "feature_type": "circle", "metric_roundness": 41.36, "metric_rectangularity": 49.89, "metric_mobile_fit": 46.84, "metric_aspect_ratio": 1.094, "metric_area_km2": 295.13 }, "geometry": { "type": "Polygon", "coordinates": [ [ [ 15.432312599737937, 47.592124521689207 ], [ 15.43212701536091, 47.587344680740252 ], [ 15.43157077090371, 47.582577506259483 ], [ 15.430645390993726, 47.577836070094065 ], [ 15.42935341203297, 47.573133377052422 ], [ 15.427698375245967, 47.568482329161945 ], [ 15.425684816973517, 47.56389569017103 ], [ 15.423318256238879, 47.559386050394238 ], [ 15.42060517962053, 47.554965791998825 ], [ 15.417553023472896, 47.550647054829867 ], [ 15.414170153543827, 47.546441702870439 ], [ 15.410465842044657, 47.542361291431583 ], [ 15.406450242235721, 47.538417035165203 ], [ 15.402134360596973, 47.534619776991001 ], [ 15.397530026659998, 47.530979958026272 ], [ 15.392649860584063, 47.527507588604934 ], [ 15.387507238565181, 47.524212220469011 ], [ 15.38211625617283, 47.521102920213039 ], [ 15.37649168971504, 47.518188244058159 ], [ 15.370648955737503, 47.515476214029206 ], [ 15.364604068767928, 47.512974295604202 ], [ 15.35837359742133, 47.510689376901347 ], [ 15.35197461898659, 47.508627749464587 ], [ 15.345424672618815, 47.506795090703946 ], [ 15.33874171126571, 47.505196448042234 ], [ 15.331944052459823, 47.503836224814876 ], [ 15.325050328111441, 47.502718167964268 ], [ 15.318079433439825, 47.501845357565138 ], [ 15.311050475182732, 47.50122019821174 ], [ 15.303982719226161, 47.500844412292416 ], [ 15.296895537797919, 47.50071903517145 ], [ 15.289808356369681, 47.500844412292416 ], [ 15.282740600413112, 47.50122019821174 ], [ 15.275711642156013, 47.501845357565138 ], [ 15.268740747484401, 47.502718167964268 ], [ 15.261847023136015, 47.503836224814876 ], [ 15.25504936433013, 47.505196448042234 ], [ 15.248366402977027, 47.506795090703946 ], [ 15.241816456609252, 47.508627749464587 ], [ 15.235417478174512, 47.510689376901347 ], [ 15.229187006827912, 47.512974295604202 ], [ 15.223142119858339, 47.515476214029206 ], [ 15.217299385880802, 47.518188244058159 ], [ 15.211674819423008, 47.521102920213039 ], [ 15.206283837030661, 47.524212220469011 ], [ 15.201141215011779, 47.527507588604934 ], [ 15.196261048935844, 47.530979958026272 ], [ 15.191656714998869, 47.534619776991001 ], [ 15.187340833360121, 47.538417035165203 ], [ 15.183325233551185, 47.542361291431583 ], [ 15.179620922052015, 47.546441702870432 ], [ 15.176238052122947, 47.550647054829867 ], [ 15.173185895975312, 47.554965791998825 ], [ 15.170472819356963, 47.559386050394238 ], [ 15.168106258622322, 47.56389569017103 ], [ 15.166092700349875, 47.568482329161945 ], [ 15.164437663562872, 47.573133377052422 ], [ 15.163145684602116, 47.577836070094065 ], [ 15.162220304692134, 47.582577506259483 ], [ 15.161664060234928, 47.587344680740252 ], [ 15.161478475857903, 47.592124521689207 ], [ 15.161664060234928, 47.596903926108006 ], [ 15.162220304692134, 47.601669795781042 ], [ 15.163145684602116, 47.606409073156918 ], [ 15.164437663562872, 47.611108777079423 ], [ 15.166092700349875, 47.615756038270646 ], [ 15.168106258622322, 47.620338134470174 ], [ 15.170472819356963, 47.624842525135278 ], [ 15.173185895975312, 47.629256885609202 ], [ 15.176238052122947, 47.633569140665855 ], [ 15.179620922052015, 47.637767497341628 ], [ 15.183325233551185, 47.641840476967367 ], [ 15.187340833360121, 47.645776946315756 ], [ 15.191656714998869, 47.649566147782295 ], [ 15.196261048935844, 47.653197728520688 ], [ 15.201141215011779, 47.6566617684568 ], [ 15.206283837030661, 47.659948807108201 ], [ 15.211674819423008, 47.663049869139911 ], [ 15.217299385880802, 47.665956488590481 ], [ 15.223142119858339, 47.668660731705927 ], [ 15.229187006827912, 47.671155218323243 ], [ 15.235417478174512, 47.673433141748561 ], [ 15.241816456609248, 47.675488287079567 ], [ 15.248366402977027, 47.677315047925426 ], [ 15.25504936433013, 47.678908441482015 ], [ 15.261847023136015, 47.680264121924104 ], [ 15.268740747484401, 47.68137839208088 ], [ 15.275711642156013, 47.682248213365355 ], [ 15.282740600413112, 47.682871213932565 ], [ 15.289808356369681, 47.683245695046217 ], [ 15.296895537797919, 47.683370635637736 ], [ 15.303982719226161, 47.683245695046217 ], [ 15.311050475182732, 47.682871213932565 ], [ 15.318079433439825, 47.682248213365355 ], [ 15.325050328111441, 47.68137839208088 ], [ 15.331944052459823, 47.680264121924104 ], [ 15.33874171126571, 47.678908441482015 ], [ 15.345424672618815, 47.677315047925426 ], [ 15.35197461898659, 47.675488287079567 ], [ 15.35837359742133, 47.673433141748561 ], [ 15.364604068767928, 47.671155218323243 ], [ 15.370648955737503, 47.668660731705927 ], [ 15.37649168971504, 47.665956488590481 ], [ 15.38211625617283, 47.663049869139911 ], [ 15.387507238565181, 47.659948807108201 ], [ 15.392649860584063, 47.6566617684568 ], [ 15.397530026659998, 47.653197728520688 ], [ 15.402134360596973, 47.649566147782295 ], [ 15.406450242235721, 47.645776946315756 ], [ 15.410465842044653, 47.641840476967367 ], [ 15.414170153543827, 47.637767497341628 ], [ 15.417553023472896, 47.633569140665855 ], [ 15.42060517962053, 47.629256885609202 ], [ 15.423318256238879, 47.624842525135278 ], [ 15.425684816973517, 47.620338134470174 ], [ 15.427698375245967, 47.615756038270646 ], [ 15.42935341203297, 47.611108777079423 ], [ 15.430645390993726, 47.606409073156918 ], [ 15.43157077090371, 47.601669795781042 ], [ 15.43212701536091, 47.596903926108006 ], [ 15.432312599737937, 47.592124521689207 ] ] ] } },
{ "type": "Feature", "properties": { "name": "Turnau", "feature_type": "mrr", "metric_roundness": 41.36, "metric_rectangularity": 49.89, "metric_mobile_fit": 46.84, "metric_aspect_ratio": 1.094, "metric_area_km2": 295.13 }, "geometry": { "type": "Polygon", "coordinates": [ [ [ 15.306261351104187, 47.496988931588518 ], [ 15.170978106910077, 47.637406797314576 ], [ 15.332221933688846, 47.707986785062864 ], [ 15.467505177882956, 47.567758493570366 ], [ 15.306261351104187, 47.496988931588518 ] ] ] } }
]
}
