{
"type": "FeatureCollection",
"name": "nelling",
"crs": { "type": "name", "properties": { "name": "urn:ogc:def:crs:OGC:1.3:CRS84" } },
"features": [
{ "type": "Feature", "properties": { "name": "Nelling", "feature_type": "entity", "metric_roundness": 27.75, "metric_rectangularity": 60.55, "metric_mobile_fit": 2.83, "metric_aspect_ratio": 1.534, "metric_area_km2": 16.87 }, "geometry": { "type": "Polygon", "coordinates": [ [ [ 6.8675995, 48.962282 ], [ 6.880418, 48.964882 ], [ 6.8846265, 48.969673 ], [ 6.891069, 48.972028 ], [ 6.894405, 48.974827 ], [ 6.894648, 48.98129849999998 ], [ 6.8902799, 48.984252099999985 ], [ 6.8762999, 48.984553499999983 ], [ 6.8731712, 48.9789356 ], [ 6.857611, 48.978135 ], [ 6.8527945, 48.9756174 ], [ 6.8512067, 48.969194 ], [ 6.8348517, 48.964173799999983 ], [ 6.831887, 48.960817 ], [ 6.8251915, 48.957063 ], [ 6.8261915, 48.95536 ], [ 6.8386878, 48.9548336 ], [ 6.8583715, 48.9616605 ], [ 6.8675995, 48.962282 ] ] ] } },
{ "type": "Feature", "properties": { "name": "Nelling", "feature_type": "circle", "metric_roundness": 27.75, "metric_rectangularity": 60.55, "metric_mobile_fit": 2.83, "metric_aspect_ratio": 1.534, "metric_area_km2": 16.87 }, "geometry": { "type": "Polygon", "coordinates": [ [ [ 6.899940214696377, 48.968330936666632 ], [ 6.899886053273027, 48.966973101585133 ], [ 6.899723717455677, 48.965618951411557 ], [ 6.899453652195514, 48.964272198231114 ], [ 6.899076597722646, 48.962936534151581 ], [ 6.898593587517176, 48.961615621175113 ], [ 6.898005945476502, 48.9603130811497 ], [ 6.897315282286611, 48.9590324858274 ], [ 6.8965234910073, 48.957777347057203 ], [ 6.895632741883428, 48.956551107139163 ], [ 6.894645476396429, 48.955357129366917 ], [ 6.893564400572378, 48.954198688784416 ], [ 6.892392477564964, 48.953078963182492 ], [ 6.891132919533693, 48.95200102436057 ], [ 6.889789178839576, 48.950967829677268 ], [ 6.888364938582452, 48.949982213913835 ], [ 6.886864102505871, 48.949046881472825 ], [ 6.885290784297196, 48.948164398933663 ], [ 6.883649296312276, 48.947337187986172 ], [ 6.881944137755581, 48.946567518761455 ], [ 6.88017998234819, 48.945857503578885 ], [ 6.878361665517446, 48.945209091126713 ], [ 6.876494171143401, 48.944624061092483 ], [ 6.874582617898318, 48.944104019258418 ], [ 6.872632245216776, 48.943650393075309 ], [ 6.870648398934724, 48.943264427727513 ], [ 6.868636516636927, 48.942947182699982 ], [ 6.866602112752919, 48.942699528856927 ], [ 6.864550763442336, 48.94252214604046 ], [ 6.86248809131105, 48.942415521195741 ], [ 6.86041975, 48.942379947028094 ], [ 6.858351408688949, 48.942415521195741 ], [ 6.856288736557663, 48.94252214604046 ], [ 6.85423738724708, 48.942699528856927 ], [ 6.852202983363073, 48.942947182699982 ], [ 6.850191101065276, 48.943264427727513 ], [ 6.848207254783223, 48.943650393075309 ], [ 6.846256882101682, 48.944104019258418 ], [ 6.844345328856599, 48.944624061092483 ], [ 6.842477834482553, 48.945209091126713 ], [ 6.840659517651811, 48.945857503578885 ], [ 6.838895362244418, 48.946567518761455 ], [ 6.837190203687724, 48.947337187986172 ], [ 6.835548715702804, 48.948164398933663 ], [ 6.833975397494129, 48.949046881472825 ], [ 6.832474561417547, 48.949982213913835 ], [ 6.831050321160424, 48.950967829677268 ], [ 6.829706580466307, 48.95200102436057 ], [ 6.828447022435036, 48.953078963182492 ], [ 6.827275099427621, 48.954198688784416 ], [ 6.826194023603571, 48.955357129366917 ], [ 6.825206758116571, 48.956551107139163 ], [ 6.8243160089927, 48.957777347057203 ], [ 6.823524217713389, 48.9590324858274 ], [ 6.822833554523497, 48.9603130811497 ], [ 6.822245912482823, 48.961615621175113 ], [ 6.821762902277353, 48.962936534151581 ], [ 6.821385847804486, 48.964272198231114 ], [ 6.821115782544322, 48.965618951411557 ], [ 6.820953446726972, 48.966973101585133 ], [ 6.820899285303622, 48.968330936666632 ], [ 6.820953446726972, 48.969688734772824 ], [ 6.821115782544322, 48.971042774425598 ], [ 6.821385847804486, 48.972389344750617 ], [ 6.821762902277353, 48.973724755643538 ], [ 6.822245912482823, 48.97504534787614 ], [ 6.822833554523497, 48.976347503114575 ], [ 6.823524217713389, 48.977627653822601 ], [ 6.8243160089927, 48.978882293022529 ], [ 6.825206758116571, 48.98010798388767 ], [ 6.826194023603571, 48.981301369139949 ], [ 6.827275099427621, 48.982459180227202 ], [ 6.828447022435036, 48.983578246255433 ], [ 6.829706580466307, 48.984655502651691 ], [ 6.831050321160424, 48.985687999534129 ], [ 6.832474561417547, 48.986672909766746 ], [ 6.833975397494129, 48.987607536676975 ], [ 6.835548715702804, 48.988489321415287 ], [ 6.837190203687724, 48.989315849937121 ], [ 6.838895362244418, 48.99008485958818 ], [ 6.840659517651811, 48.990794245275531 ], [ 6.842477834482553, 48.991442065207778 ], [ 6.844345328856599, 48.992026546189159 ], [ 6.846256882101681, 48.992546088452983 ], [ 6.848207254783223, 48.992999270021876 ], [ 6.850191101065274, 48.993384850582729 ], [ 6.852202983363073, 48.993701774866437 ], [ 6.85423738724708, 48.993949175522893 ], [ 6.856288736557663, 48.994126375483965 ], [ 6.858351408688949, 48.994232889807897 ], [ 6.86041975, 48.994268427000236 ], [ 6.86248809131105, 48.994232889807897 ], [ 6.864550763442336, 48.994126375483965 ], [ 6.866602112752919, 48.993949175522893 ], [ 6.868636516636927, 48.993701774866437 ], [ 6.870648398934724, 48.993384850582729 ], [ 6.872632245216776, 48.992999270021876 ], [ 6.874582617898318, 48.992546088452983 ], [ 6.876494171143401, 48.992026546189159 ], [ 6.878361665517446, 48.991442065207778 ], [ 6.88017998234819, 48.990794245275531 ], [ 6.881944137755581, 48.99008485958818 ], [ 6.883649296312276, 48.989315849937121 ], [ 6.885290784297196, 48.988489321415287 ], [ 6.886864102505871, 48.987607536676975 ], [ 6.888364938582452, 48.986672909766746 ], [ 6.889789178839576, 48.985687999534129 ], [ 6.891132919533693, 48.984655502651691 ], [ 6.892392477564964, 48.983578246255433 ], [ 6.893564400572378, 48.982459180227202 ], [ 6.894645476396429, 48.981301369139949 ], [ 6.895632741883428, 48.98010798388767 ], [ 6.8965234910073, 48.978882293022529 ], [ 6.897315282286611, 48.977627653822601 ], [ 6.898005945476502, 48.976347503114575 ], [ 6.898593587517176, 48.97504534787614 ], [ 6.899076597722646, 48.973724755643538 ], [ 6.899453652195514, 48.972389344750617 ], [ 6.899723717455677, 48.971042774425598 ], [ 6.899886053273027, 48.969688734772824 ], [ 6.899940214696377, 48.968330936666632 ] ] ] } },
{ "type": "Feature", "properties": { "name": "Nelling", "feature_type": "mrr", "metric_roundness": 27.75, "metric_rectangularity": 60.55, "metric_mobile_fit": 2.83, "metric_aspect_ratio": 1.534, "metric_area_km2": 16.87 }, "geometry": { "type": "Polygon", "coordinates": [ [ [ 6.818694343621829, 48.964766842700172 ], [ 6.888666274328914, 48.988800141756592 ], [ 6.90186287941892, 48.972248898498357 ], [ 6.831890948711836, 48.948207618520499 ], [ 6.818694343621829, 48.964766842700172 ] ] ] } }
]
}
