{
"type": "FeatureCollection",
"name": "nemesany",
"crs": { "type": "name", "properties": { "name": "urn:ogc:def:crs:OGC:1.3:CRS84" } },
"features": [
{ "type": "Feature", "properties": { "name": "Nemešany", "feature_type": "entity", "metric_roundness": 14.51, "metric_rectangularity": 61.97, "metric_mobile_fit": 95.94, "metric_aspect_ratio": 0.603, "metric_area_km2": 9.47 }, "geometry": { "type": "Polygon", "coordinates": [ [ [ 20.7027665, 48.992512499999989 ], [ 20.7035055, 48.992685499999986 ], [ 20.693217, 49.006813 ], [ 20.6859432, 49.017707199999975 ], [ 20.6766498, 49.0222238 ], [ 20.659931, 49.03817 ], [ 20.6818863, 48.999679699999987 ], [ 20.6930905, 48.990784499999982 ], [ 20.7027665, 48.992512499999989 ] ] ] } },
{ "type": "Feature", "properties": { "name": "Nemešany", "feature_type": "circle", "metric_roundness": 14.51, "metric_rectangularity": 61.97, "metric_mobile_fit": 95.94, "metric_aspect_ratio": 0.603, "metric_area_km2": 9.47 }, "geometry": { "type": "Polygon", "coordinates": [ [ [ 20.722670511946095, 49.01543294502229 ], [ 20.722614388294375, 49.014027245489679 ], [ 20.722446171170247, 49.012625359350707 ], [ 20.722166321645155, 49.011231129564898 ], [ 20.721775606767196, 49.009848378425289 ], [ 20.721275097458687, 49.008480897072843 ], [ 20.720666165580862, 49.007132435093084 ], [ 20.719950480173662, 49.005806690223132 ], [ 20.719130002881045, 49.004507298197993 ], [ 20.718206982574241, 49.003237822763722 ], [ 20.717183949187756, 49.002001745885288 ], [ 20.716063706784983, 49.000802458176288 ], [ 20.714849325872482, 48.999643249576849 ], [ 20.713544134983938, 48.998527300305703 ], [ 20.712151711556835, 48.997457672111615 ], [ 20.710675872127013, 48.99643729984831 ], [ 20.709120661867757, 48.995468983396549 ], [ 20.707490343502293, 48.994555379955777 ], [ 20.705789385619934, 48.993698996726806 ], [ 20.704022450428006, 48.992902184006056 ], [ 20.702194380973047, 48.992167128710562 ], [ 20.700310187866371, 48.991495848351903 ], [ 20.698375035550317, 48.99089018547599 ], [ 20.696394228142864, 48.990351802584023 ], [ 20.694373194899438, 48.989882177549312 ], [ 20.692317475331677, 48.989482599542228 ], [ 20.690232704024027, 48.98915416547532 ], [ 20.688124595189727, 48.988897776978057 ], [ 20.685998927008562, 48.988714137910108 ], [ 20.683861525789261, 48.988603752419834 ], [ 20.68171825, 48.988566923553591 ], [ 20.679574974210741, 48.988603752419834 ], [ 20.67743757299144, 48.988714137910108 ], [ 20.675311904810275, 48.988897776978057 ], [ 20.673203795975976, 48.98915416547532 ], [ 20.671119024668325, 48.989482599542228 ], [ 20.669063305100561, 48.989882177549312 ], [ 20.667042271857138, 48.990351802584023 ], [ 20.665061464449686, 48.99089018547599 ], [ 20.663126312133627, 48.991495848351903 ], [ 20.661242119026955, 48.992167128710562 ], [ 20.659414049571996, 48.992902184006056 ], [ 20.657647114380069, 48.993698996726806 ], [ 20.655946156497709, 48.994555379955777 ], [ 20.654315838132241, 48.995468983396549 ], [ 20.65276062787299, 48.99643729984831 ], [ 20.651284788443164, 48.997457672111615 ], [ 20.649892365016065, 48.998527300305703 ], [ 20.648587174127517, 48.999643249576849 ], [ 20.647372793215016, 49.000802458176288 ], [ 20.646252550812243, 49.002001745885288 ], [ 20.645229517425754, 49.003237822763722 ], [ 20.644306497118954, 49.004507298197993 ], [ 20.643486019826341, 49.005806690223132 ], [ 20.64277033441914, 49.007132435093084 ], [ 20.642161402541312, 49.008480897072843 ], [ 20.641660893232807, 49.009848378425289 ], [ 20.641270178354844, 49.011231129564898 ], [ 20.640990328829755, 49.012625359350707 ], [ 20.640822111705624, 49.014027245489679 ], [ 20.640765988053904, 49.01543294502229 ], [ 20.640822111705624, 49.016838604861036 ], [ 20.640990328829755, 49.018240372353333 ], [ 20.641270178354844, 49.019634405839547 ], [ 20.641660893232807, 49.021016885177374 ], [ 20.642161402541312, 49.022384022203731 ], [ 20.64277033441914, 49.023732071105648 ], [ 20.643486019826341, 49.025057338671722 ], [ 20.644306497118954, 49.026356194396421 ], [ 20.645229517425754, 49.027625080409521 ], [ 20.646252550812243, 49.028860521203853 ], [ 20.647372793215016, 49.030059133134891 ], [ 20.648587174127517, 49.031217633666486 ], [ 20.649892365016065, 49.032332850337625 ], [ 20.651284788443164, 49.033401729426096 ], [ 20.65276062787299, 49.034421344285512 ], [ 20.654315838132241, 49.035388903333384 ], [ 20.655946156497709, 49.036301757668546 ], [ 20.657647114380069, 49.037157408297546 ], [ 20.659414049571996, 49.03795351295048 ], [ 20.661242119026955, 49.038687892468069 ], [ 20.663126312133627, 49.039358536742661 ], [ 20.665061464449686, 49.039963610197447 ], [ 20.667042271857138, 49.040501456789023 ], [ 20.669063305100561, 49.04097060451992 ], [ 20.671119024668325, 49.04136976944919 ], [ 20.673203795975976, 49.041697859190066 ], [ 20.675311904810275, 49.041953975885576 ], [ 20.67743757299144, 49.042137418653958 ], [ 20.679574974210741, 49.042247685497571 ], [ 20.68171825, 49.042284474669948 ], [ 20.683861525789261, 49.042247685497571 ], [ 20.685998927008562, 49.042137418653958 ], [ 20.688124595189727, 49.041953975885576 ], [ 20.690232704024027, 49.041697859190066 ], [ 20.692317475331677, 49.04136976944919 ], [ 20.694373194899438, 49.04097060451992 ], [ 20.696394228142864, 49.040501456789023 ], [ 20.698375035550317, 49.039963610197447 ], [ 20.700310187866371, 49.039358536742661 ], [ 20.702194380973047, 49.038687892468069 ], [ 20.704022450428006, 49.03795351295048 ], [ 20.705789385619934, 49.037157408297546 ], [ 20.707490343502293, 49.036301757668546 ], [ 20.709120661867757, 49.035388903333384 ], [ 20.710675872127013, 49.034421344285512 ], [ 20.712151711556835, 49.033401729426096 ], [ 20.713544134983938, 49.032332850337625 ], [ 20.714849325872482, 49.031217633666486 ], [ 20.716063706784983, 49.030059133134891 ], [ 20.717183949187756, 49.028860521203853 ], [ 20.718206982574241, 49.027625080409528 ], [ 20.719130002881045, 49.026356194396421 ], [ 20.719950480173662, 49.025057338671722 ], [ 20.720666165580862, 49.023732071105648 ], [ 20.721275097458687, 49.022384022203731 ], [ 20.721775606767196, 49.021016885177374 ], [ 20.722166321645155, 49.019634405839547 ], [ 20.722446171170247, 49.018240372353333 ], [ 20.722614388294375, 49.016838604861036 ], [ 20.722670511946095, 49.01543294502229 ] ] ] } },
{ "type": "Feature", "properties": { "name": "Nemešany", "feature_type": "mrr", "metric_roundness": 14.51, "metric_rectangularity": 61.97, "metric_mobile_fit": 95.94, "metric_aspect_ratio": 0.603, "metric_area_km2": 9.47 }, "geometry": { "type": "Polygon", "coordinates": [ [ [ 20.669537590077695, 49.041069540330014 ], [ 20.7035055, 48.992685499999986 ], [ 20.689717484713675, 48.988519796012483 ], [ 20.655749588742207, 49.036907884120218 ], [ 20.669537590077695, 49.041069540330014 ] ] ] } }
]
}
