{
"type": "FeatureCollection",
"name": "nepolisy",
"crs": { "type": "name", "properties": { "name": "urn:ogc:def:crs:OGC:1.3:CRS84" } },
"features": [
{ "type": "Feature", "properties": { "name": "Nepolisy", "feature_type": "entity", "metric_roundness": 48.29, "metric_rectangularity": 64.04, "metric_mobile_fit": 77.27, "metric_aspect_ratio": 0.79, "metric_area_km2": 33.41 }, "geometry": { "type": "Polygon", "coordinates": [ [ [ 15.4396135, 50.2116902 ], [ 15.440472, 50.2023187 ], [ 15.4337106, 50.198450099999988 ], [ 15.431664, 50.189185 ], [ 15.432618, 50.1879935 ], [ 15.4413726, 50.186911 ], [ 15.4449711, 50.186466 ], [ 15.450152, 50.181362899999982 ], [ 15.4628483, 50.1810149 ], [ 15.4634657, 50.1738711 ], [ 15.4740826, 50.172741599999988 ], [ 15.4797494, 50.1770265 ], [ 15.4886175, 50.1746955 ], [ 15.4914653, 50.180780499999983 ], [ 15.4898525, 50.1923045 ], [ 15.494509, 50.197073 ], [ 15.4873451, 50.199151799999989 ], [ 15.4847278, 50.2041216 ], [ 15.4710253, 50.205631499999988 ], [ 15.4617954, 50.2154358 ], [ 15.454653, 50.215205599999983 ], [ 15.453153, 50.221679499999986 ], [ 15.4531765, 50.2236805 ], [ 15.4396135, 50.2116902 ] ] ] } },
{ "type": "Feature", "properties": { "name": "Nepolisy", "feature_type": "circle", "metric_roundness": 48.29, "metric_rectangularity": 64.04, "metric_mobile_fit": 77.27, "metric_aspect_ratio": 0.79, "metric_area_km2": 33.41 }, "geometry": { "type": "Polygon", "coordinates": [ [ [ 15.513002783140161, 50.199176238860773 ], [ 15.512944995213882, 50.197763579098101 ], [ 15.512771789827728, 50.196354749707247 ], [ 15.512483641725629, 50.194953612704531 ], [ 15.512081340701497, 50.193564009357885 ], [ 15.511565989434486, 50.192189749648925 ], [ 15.510939000466584, 50.190834601817159 ], [ 15.51020209233098, 50.189502282015255 ], [ 15.509357284841649, 50.188196444103674 ], [ 15.508406893557195, 50.186920669613144 ], [ 15.507353523434075, 50.185678457902469 ], [ 15.50620006168657, 50.184473216539125 ], [ 15.504949669873158, 50.183308251929191 ], [ 15.503605775230884, 50.182186760222727 ], [ 15.50217206128155, 50.181111818519739 ], [ 15.500652457735434, 50.180086376401384 ], [ 15.499051129720234, 50.179113247809816 ], [ 15.497372466364727, 50.178195103299494 ], [ 15.495621068768489, 50.177334462681507 ], [ 15.4938017373906, 50.176533688081335 ], [ 15.491919458891894, 50.175794977429824 ], [ 15.48997939246691, 50.175120358405152 ], [ 15.487986855702864, 50.174511682843097 ], [ 15.485947310004528, 50.173970621631128 ], [ 15.483866345624893, 50.173498660100698 ], [ 15.481749666342674, 50.173097093930551 ], [ 15.47960307382866, 50.172767025572824 ], [ 15.477432451743722, 50.172509361211674 ], [ 15.475243749612117, 50.172324808263134 ], [ 15.473042966514253, 50.17221387342331 ], [ 15.470836134643626, 50.172176861270223 ], [ 15.468629302773001, 50.17221387342331 ], [ 15.466428519675139, 50.172324808263134 ], [ 15.464239817543532, 50.172509361211674 ], [ 15.462069195458595, 50.172767025572824 ], [ 15.459922602944582, 50.173097093930551 ], [ 15.457805923662363, 50.173498660100698 ], [ 15.455724959282726, 50.173970621631128 ], [ 15.453685413584388, 50.174511682843097 ], [ 15.451692876820344, 50.175120358405152 ], [ 15.44975281039536, 50.175794977429824 ], [ 15.447870531896655, 50.176533688081335 ], [ 15.446051200518765, 50.177334462681507 ], [ 15.444299802922526, 50.178195103299494 ], [ 15.442621139567018, 50.179113247809816 ], [ 15.44101981155182, 50.180086376401384 ], [ 15.439500208005704, 50.181111818519739 ], [ 15.438066494056368, 50.182186760222727 ], [ 15.436722599414097, 50.183308251929191 ], [ 15.435472207600682, 50.184473216539125 ], [ 15.434318745853178, 50.185678457902469 ], [ 15.433265375730057, 50.186920669613144 ], [ 15.432314984445606, 50.188196444103674 ], [ 15.431470176956275, 50.189502282015255 ], [ 15.430733268820671, 50.190834601817159 ], [ 15.430106279852771, 50.192189749648925 ], [ 15.429590928585755, 50.193564009357885 ], [ 15.429188627561627, 50.194953612704531 ], [ 15.428900479459525, 50.196354749707247 ], [ 15.428727274073374, 50.197763579098101 ], [ 15.428669486147095, 50.199176238860773 ], [ 15.428727274073374, 50.200588856821753 ], [ 15.428900479459525, 50.201997561265465 ], [ 15.429188627561627, 50.20339849154454 ], [ 15.429590928585755, 50.204787808655958 ], [ 15.430106279852771, 50.206161705754162 ], [ 15.430733268820671, 50.207516418572482 ], [ 15.431470176956275, 50.208848235724346 ], [ 15.432314984445606, 50.21015350885645 ], [ 15.433265375730057, 50.211428662625892 ], [ 15.434318745853178, 50.212670204474612 ], [ 15.435472207600682, 50.213874734174311 ], [ 15.436722599414097, 50.215038953116007 ], [ 15.438066494056368, 50.216159673319375 ], [ 15.439500208005704, 50.217233826137146 ], [ 15.44101981155182, 50.218258470631355 ], [ 15.442621139567018, 50.219230801598769 ], [ 15.444299802922526, 50.220148157223875 ], [ 15.446051200518765, 50.221008026338801 ], [ 15.447870531896655, 50.221808055270778 ], [ 15.44975281039536, 50.222546054258679 ], [ 15.451692876820344, 50.223220003421446 ], [ 15.453685413584388, 50.223828058262455 ], [ 15.455724959282726, 50.224368554694998 ], [ 15.457805923662363, 50.224840013575459 ], [ 15.459922602944582, 50.225241144732209 ], [ 15.462069195458595, 50.225570850479215 ], [ 15.464239817543532, 50.225828228605181 ], [ 15.466428519675139, 50.226012574830101 ], [ 15.468629302773001, 50.226123384722783 ], [ 15.470836134643626, 50.226160355074178 ], [ 15.473042966514253, 50.226123384722783 ], [ 15.475243749612117, 50.226012574830101 ], [ 15.477432451743722, 50.225828228605181 ], [ 15.47960307382866, 50.225570850479215 ], [ 15.481749666342674, 50.225241144732209 ], [ 15.483866345624893, 50.224840013575459 ], [ 15.485947310004528, 50.224368554694998 ], [ 15.487986855702864, 50.223828058262455 ], [ 15.48997939246691, 50.223220003421446 ], [ 15.491919458891894, 50.222546054258679 ], [ 15.4938017373906, 50.221808055270778 ], [ 15.495621068768489, 50.221008026338801 ], [ 15.497372466364727, 50.220148157223875 ], [ 15.499051129720234, 50.219230801598769 ], [ 15.500652457735434, 50.218258470631355 ], [ 15.50217206128155, 50.217233826137146 ], [ 15.503605775230884, 50.216159673319375 ], [ 15.504949669873158, 50.215038953116007 ], [ 15.50620006168657, 50.213874734174311 ], [ 15.507353523434075, 50.212670204474612 ], [ 15.508406893557195, 50.211428662625892 ], [ 15.509357284841649, 50.21015350885645 ], [ 15.51020209233098, 50.208848235724346 ], [ 15.510939000466584, 50.207516418572482 ], [ 15.511565989434486, 50.206161705754162 ], [ 15.512081340701497, 50.204787808655958 ], [ 15.512483641725629, 50.20339849154454 ], [ 15.512771789827728, 50.201997561265465 ], [ 15.512944995213882, 50.200588856821753 ], [ 15.513002783140161, 50.199176238860773 ] ] ] } },
{ "type": "Feature", "properties": { "name": "Nepolisy", "feature_type": "mrr", "metric_roundness": 48.29, "metric_rectangularity": 64.04, "metric_mobile_fit": 77.27, "metric_aspect_ratio": 0.79, "metric_area_km2": 33.41 }, "geometry": { "type": "Polygon", "coordinates": [ [ [ 15.41962534423673, 50.194014284096887 ], [ 15.4531765, 50.2236805 ], [ 15.512780367863847, 50.196071021214046 ], [ 15.479229217423367, 50.166387641637051 ], [ 15.41962534423673, 50.194014284096887 ] ] ] } }
]
}
