{
"type": "FeatureCollection",
"name": "neumarkt_i_d_o_pf_gk_st",
"crs": { "type": "name", "properties": { "name": "urn:ogc:def:crs:OGC:1.3:CRS84" } },
"features": [
{ "type": "Feature", "properties": { "name": "Neumarkt i.d.OPf., GKSt", "metric_roundness": 43.46, "metric_rectangularity": 63.16, "metric_mobile_fit": -5.22, "metric_aspect_ratio": 1.615, "metric_area_km2": 184.7 }, "geometry": { "type": "Polygon", "coordinates": [ [ [ 11.4747536, 49.3089459 ], [ 11.4595642, 49.3045034 ], [ 11.4578926, 49.3079901 ], [ 11.4364659, 49.308307099999986 ], [ 11.431705, 49.316444399999988 ], [ 11.4262346, 49.319350899999989 ], [ 11.4011097, 49.311867099999986 ], [ 11.3912855, 49.3125365 ], [ 11.3902646, 49.3095193 ], [ 11.377247, 49.3080248 ], [ 11.3869562, 49.296579399999985 ], [ 11.3828095, 49.289313 ], [ 11.392615, 49.277864799999989 ], [ 11.3933871, 49.271560099999988 ], [ 11.3999427, 49.270327899999984 ], [ 11.407236, 49.2754604 ], [ 11.4230282, 49.2671751 ], [ 11.4197498, 49.259269499999981 ], [ 11.4249451, 49.250013199999984 ], [ 11.4180847, 49.246387899999988 ], [ 11.4215306, 49.241102 ], [ 11.41939, 49.238112 ], [ 11.4328823, 49.2370989 ], [ 11.4341111, 49.243897399999987 ], [ 11.4443244, 49.249088699999987 ], [ 11.4573509, 49.2425736 ], [ 11.4679993, 49.2466922 ], [ 11.494207, 49.249979 ], [ 11.4986001, 49.2537148 ], [ 11.5136506, 49.2505133 ], [ 11.5317376, 49.2675886 ], [ 11.538497, 49.2657951 ], [ 11.5531465, 49.2700785 ], [ 11.5577639, 49.274811499999984 ], [ 11.5608195, 49.270919699999986 ], [ 11.5768032, 49.2730044 ], [ 11.580501, 49.2762506 ], [ 11.58083, 49.285784 ], [ 11.564163, 49.28871909999998 ], [ 11.5512397, 49.3049067 ], [ 11.538252, 49.305786099999985 ], [ 11.5347458, 49.308558699999985 ], [ 11.5341445, 49.3135313 ], [ 11.5137441, 49.314236699999988 ], [ 11.4972189, 49.3074303 ], [ 11.4912704, 49.3149674 ], [ 11.484209, 49.316790499999989 ], [ 11.4747536, 49.3089459 ] ] ] } }
]
}
