{
"type": "FeatureCollection",
"name": "neutraubling_st",
"crs": { "type": "name", "properties": { "name": "urn:ogc:def:crs:OGC:1.3:CRS84" } },
"features": [
{ "type": "Feature", "properties": { "name": "Neutraubling, St", "metric_roundness": 56.97, "metric_rectangularity": 71.33, "metric_mobile_fit": 51.09, "metric_aspect_ratio": 1.052, "metric_area_km2": 22.28 }, "geometry": { "type": "Polygon", "coordinates": [ [ [ 12.1967638, 48.973677599999988 ], [ 12.19917, 48.965859 ], [ 12.2123919, 48.9615053 ], [ 12.2173357, 48.965060799999989 ], [ 12.2194817, 48.972102399999983 ], [ 12.2302119, 48.97377 ], [ 12.2289863, 48.9856378 ], [ 12.232763, 48.990418 ], [ 12.1868565, 48.997551 ], [ 12.1879123, 48.989464399999989 ], [ 12.1750065, 48.9732605 ], [ 12.1967638, 48.973677599999988 ] ] ] } }
]
}
