{
"type": "FeatureCollection",
"name": "nevid",
"crs": { "type": "name", "properties": { "name": "urn:ogc:def:crs:OGC:1.3:CRS84" } },
"features": [
{ "type": "Feature", "properties": { "name": "Nevid", "metric_roundness": 48.19, "metric_rectangularity": 60.68, "metric_mobile_fit": 58.14, "metric_aspect_ratio": 0.981, "metric_area_km2": 11.42 }, "geometry": { "type": "Polygon", "coordinates": [ [ [ 13.5916124, 49.685788099999989 ], [ 13.595176, 49.681808 ], [ 13.6133768, 49.676993699999976 ], [ 13.6164905, 49.67258 ], [ 13.6193, 49.674474499999988 ], [ 13.6235915, 49.67694 ], [ 13.6284298, 49.6889405 ], [ 13.6391454, 49.693244099999987 ], [ 13.6339202, 49.697493 ], [ 13.6257362, 49.6979772 ], [ 13.622502, 49.703924 ], [ 13.6187585, 49.6980477 ], [ 13.6085996, 49.694238499999983 ], [ 13.6034802, 49.686268899999988 ], [ 13.5939215, 49.689104 ], [ 13.5916124, 49.685788099999989 ] ] ] } }
]
}
