{
"type": "FeatureCollection",
"name": "epense",
"crs": { "type": "name", "properties": { "name": "urn:ogc:def:crs:OGC:1.3:CRS84" } },
"features": [
{ "type": "Feature", "properties": { "name": "Épense", "metric_roundness": 44.35, "metric_rectangularity": 68.5, "metric_mobile_fit": 43.84, "metric_aspect_ratio": 1.124, "metric_area_km2": 26.47 }, "geometry": { "type": "Polygon", "coordinates": [ [ [ 4.8391361, 48.9900539 ], [ 4.832294, 48.9939605 ], [ 4.8300935, 48.993656 ], [ 4.8295425, 48.991005499999986 ], [ 4.821887, 48.9869485 ], [ 4.8166315, 48.9827425 ], [ 4.814426, 48.979776 ], [ 4.8077445, 48.9745645 ], [ 4.8000975, 48.965147 ], [ 4.798746, 48.962568 ], [ 4.8176339, 48.9541505 ], [ 4.821312, 48.95479049999998 ], [ 4.8442125, 48.965102699999989 ], [ 4.8498825, 48.96339 ], [ 4.8542206, 48.96787209999998 ], [ 4.8491577, 48.969355799999981 ], [ 4.8471575, 48.974514599999985 ], [ 4.864883, 48.980021 ], [ 4.861973, 48.980577499999981 ], [ 4.8610505, 48.982674 ], [ 4.863376, 48.986671 ], [ 4.865428, 48.986717499999983 ], [ 4.86692, 48.9878905 ], [ 4.8391361, 48.9900539 ] ] ] } }
]
}
