{
"type": "FeatureCollection",
"name": "frabosa_sottana",
"crs": { "type": "name", "properties": { "name": "urn:ogc:def:crs:OGC:1.3:CRS84" } },
"features": [
{ "type": "Feature", "properties": { "name": "Frabosa Sottana", "feature_type": "entity", "metric_roundness": 25.7, "metric_rectangularity": 59.89, "metric_mobile_fit": 85.23, "metric_aspect_ratio": 0.415, "metric_area_km2": 73.07 }, "geometry": { "type": "Polygon", "coordinates": [ [ [ 7.7554056, 44.3244723 ], [ 7.7710223, 44.3145507 ], [ 7.773217, 44.301909899999984 ], [ 7.7597612, 44.2768936 ], [ 7.7609657, 44.268061899999985 ], [ 7.7562648, 44.2563294 ], [ 7.7429548, 44.2483402 ], [ 7.739388, 44.2430559 ], [ 7.7395402, 44.2372424 ], [ 7.7386784, 44.230753899999989 ], [ 7.755855, 44.2227775 ], [ 7.7610435, 44.2241935 ], [ 7.784941, 44.2303505 ], [ 7.796603, 44.2372424 ], [ 7.7960512, 44.2440946 ], [ 7.7911399, 44.2501144 ], [ 7.7934909, 44.2609395 ], [ 7.7914864, 44.269265499999975 ], [ 7.7872715, 44.2731032 ], [ 7.7853279, 44.2873569 ], [ 7.8004815, 44.3003091 ], [ 7.8060197, 44.314512599999986 ], [ 7.8045249, 44.3229271 ], [ 7.8086365, 44.327451 ], [ 7.783915, 44.343518499999988 ], [ 7.7626042, 44.3368476 ], [ 7.754121, 44.3303745 ], [ 7.7554056, 44.3244723 ] ] ] } },
{ "type": "Feature", "properties": { "name": "Frabosa Sottana", "feature_type": "circle", "metric_roundness": 25.7, "metric_rectangularity": 59.89, "metric_mobile_fit": 85.23, "metric_aspect_ratio": 0.415, "metric_area_km2": 73.07 }, "geometry": { "type": "Polygon", "coordinates": [ [ [ 7.855372527722494, 44.283179019072705 ], [ 7.855255370036831, 44.279975954054485 ], [ 7.854904218100923, 44.276781494503282 ], [ 7.85432003439781, 44.273604398355261 ], [ 7.853504420134422, 44.27045337735791 ], [ 7.852459610852758, 44.267337073152987 ], [ 7.85118847030244, 44.264264033536456 ], [ 7.849694482591357, 44.26124268896141 ], [ 7.84798174263598, 44.258281329349046 ], [ 7.846054944937476, 44.255388081271981 ], [ 7.843919370714406, 44.252570885573725 ], [ 7.841580873427275, 44.249837475486707 ], [ 7.839045862734596, 44.247195355310055 ], [ 7.836321286924476, 44.244651779707013 ], [ 7.833414613869826, 44.242213733680259 ], [ 7.830333810559448, 44.23988791328145 ], [ 7.827087321261073, 44.23768070710949 ], [ 7.823684044376204, 44.235598178649859 ], [ 7.820133308050226, 44.233646049505111 ], [ 7.816444844604599, 44.231829683564023 ], [ 7.812628763861246, 44.230154072154491 ], [ 7.808695525432234, 44.228623820222531 ], [ 7.804655910050697, 44.227243133576607 ], [ 7.800520990021607, 44.226015807233871 ], [ 7.79630209887335, 44.224945214901638 ], [ 7.792010800293311, 44.224034299624059 ], [ 7.787658856432614, 44.223285565621033 ], [ 7.783258195666882, 44.222701071342449 ], [ 7.778820879901384, 44.22228242375801 ], [ 7.774359071510204, 44.222030773898823 ], [ 7.769885, 44.221946813663607 ], [ 7.765410928489799, 44.222030773898823 ], [ 7.760949120098616, 44.22228242375801 ], [ 7.756511804333121, 44.222701071342449 ], [ 7.752111143567387, 44.223285565621033 ], [ 7.74775919970669, 44.224034299624059 ], [ 7.74346790112665, 44.224945214901638 ], [ 7.739249009978394, 44.226015807233871 ], [ 7.735114089949303, 44.227243133576607 ], [ 7.731074474567767, 44.228623820222531 ], [ 7.727141236138754, 44.230154072154491 ], [ 7.723325155395401, 44.231829683564023 ], [ 7.719636691949775, 44.233646049505111 ], [ 7.716085955623797, 44.235598178649859 ], [ 7.712682678738927, 44.23768070710949 ], [ 7.709436189440553, 44.23988791328145 ], [ 7.706355386130174, 44.242213733680259 ], [ 7.703448713075525, 44.244651779707013 ], [ 7.700724137265404, 44.247195355310055 ], [ 7.698189126572728, 44.249837475486707 ], [ 7.695850629285593, 44.252570885573725 ], [ 7.693715055062524, 44.255388081271981 ], [ 7.69178825736402, 44.258281329349046 ], [ 7.690075517408643, 44.26124268896141 ], [ 7.688581529697561, 44.264264033536456 ], [ 7.687310389147243, 44.267337073152987 ], [ 7.686265579865579, 44.27045337735791 ], [ 7.68544996560219, 44.273604398355261 ], [ 7.684865781899078, 44.276781494503282 ], [ 7.684514629963169, 44.279975954054485 ], [ 7.684397472277507, 44.283179019072705 ], [ 7.684514629963169, 44.286381909461575 ], [ 7.684865781899078, 44.289575847037995 ], [ 7.68544996560219, 44.29275207958468 ], [ 7.686265579865579, 44.295901904815935 ], [ 7.687310389147243, 44.299016694191096 ], [ 7.688581529697561, 44.302087916511006 ], [ 7.690075517408643, 44.305107161233238 ], [ 7.69178825736402, 44.308066161443115 ], [ 7.693715055062524, 44.310956816418091 ], [ 7.695850629285593, 44.313771213725261 ], [ 7.698189126572728, 44.31650165079197 ], [ 7.700724137265404, 44.319140655892141 ], [ 7.703448713075523, 44.321681008491986 ], [ 7.706355386130174, 44.324115758900717 ], [ 7.709436189440553, 44.326438247174167 ], [ 7.712682678738927, 44.328642121220916 ], [ 7.716085955623797, 44.330721354062916 ], [ 7.719636691949775, 44.332670260205106 ], [ 7.723325155395401, 44.33448351107058 ], [ 7.727141236138754, 44.336156149460827 ], [ 7.731074474567767, 44.33768360300288 ], [ 7.735114089949303, 44.339061696547965 ], [ 7.739249009978394, 44.340286663489486 ], [ 7.74346790112665, 44.341355155970184 ], [ 7.74775919970669, 44.342264253952301 ], [ 7.752111143567387, 44.343011473126602 ], [ 7.756511804333121, 44.343594771639957 ], [ 7.760949120098616, 44.344012555623699 ], [ 7.765410928489799, 44.344263683508501 ], [ 7.769885, 44.344347469114489 ], [ 7.774359071510202, 44.344263683508501 ], [ 7.778820879901384, 44.344012555623699 ], [ 7.783258195666882, 44.343594771639957 ], [ 7.787658856432614, 44.343011473126602 ], [ 7.792010800293311, 44.342264253952301 ], [ 7.79630209887335, 44.341355155970184 ], [ 7.800520990021607, 44.340286663489486 ], [ 7.804655910050697, 44.339061696547965 ], [ 7.808695525432234, 44.33768360300288 ], [ 7.812628763861246, 44.336156149460827 ], [ 7.816444844604599, 44.33448351107058 ], [ 7.820133308050226, 44.332670260205106 ], [ 7.823684044376204, 44.330721354062916 ], [ 7.827087321261073, 44.328642121220916 ], [ 7.830333810559448, 44.326438247174167 ], [ 7.833414613869826, 44.324115758900717 ], [ 7.836321286924476, 44.321681008491986 ], [ 7.839045862734596, 44.319140655892141 ], [ 7.841580873427275, 44.31650165079197 ], [ 7.843919370714406, 44.313771213725261 ], [ 7.846054944937476, 44.310956816418091 ], [ 7.84798174263598, 44.308066161443115 ], [ 7.849694482591357, 44.305107161233238 ], [ 7.85118847030244, 44.302087916511006 ], [ 7.852459610852758, 44.299016694191096 ], [ 7.853504420134422, 44.295901904815935 ], [ 7.85432003439781, 44.29275207958468 ], [ 7.854904218100923, 44.289575847037995 ], [ 7.855255370036831, 44.286381909461575 ], [ 7.855372527722494, 44.283179019072705 ] ] ] } },
{ "type": "Feature", "properties": { "name": "Frabosa Sottana", "feature_type": "mrr", "metric_roundness": 25.7, "metric_rectangularity": 59.89, "metric_mobile_fit": 85.23, "metric_aspect_ratio": 0.415, "metric_area_km2": 73.07 }, "geometry": { "type": "Polygon", "coordinates": [ [ [ 7.810538971251123, 44.341700117350243 ], [ 7.794324305102721, 44.220144673274412 ], [ 7.736858459172726, 44.224077572343894 ], [ 7.753073125321126, 44.345624887575681 ], [ 7.810538971251123, 44.341700117350243 ] ] ] } }
]
}
