{
"type": "FeatureCollection",
"name": "frankelbach",
"crs": { "type": "name", "properties": { "name": "urn:ogc:def:crs:OGC:1.3:CRS84" } },
"features": [
{ "type": "Feature", "properties": { "name": "Frankelbach", "feature_type": "entity", "metric_roundness": 40.43, "metric_rectangularity": 71.94, "metric_mobile_fit": 6.99, "metric_aspect_ratio": 1.493, "metric_area_km2": 12.32 }, "geometry": { "type": "Polygon", "coordinates": [ [ [ 7.6079845, 49.521981 ], [ 7.6184759, 49.519314499999979 ], [ 7.6223998, 49.522333 ], [ 7.6386871, 49.524392499999983 ], [ 7.6464189, 49.529320799999979 ], [ 7.6621725, 49.531068 ], [ 7.6524662, 49.5387821 ], [ 7.6413695, 49.542877499999982 ], [ 7.6131629, 49.5332545 ], [ 7.612072, 49.530359 ], [ 7.6079845, 49.521981 ] ] ] } },
{ "type": "Feature", "properties": { "name": "Frankelbach", "feature_type": "circle", "metric_roundness": 40.43, "metric_rectangularity": 71.94, "metric_mobile_fit": 6.99, "metric_aspect_ratio": 1.493, "metric_area_km2": 12.32 }, "geometry": { "type": "Polygon", "coordinates": [ [ [ 7.663062086854518, 49.526524711123542 ], [ 7.663023736321291, 49.52557406984505 ], [ 7.662908789837759, 49.524626015799434 ], [ 7.662717562464239, 49.523683147763791 ], [ 7.662450578341674, 49.52274805044928 ], [ 7.662108569254983, 49.521823287412467 ], [ 7.661692472627301, 49.520911394023109 ], [ 7.661203428950563, 49.520014870507715 ], [ 7.660642778659493, 49.51913617508788 ], [ 7.660012058457568, 49.518277717232472 ], [ 7.659312997105022, 49.517441851042271 ], [ 7.65854751068043, 49.516630868785114 ], [ 7.657717697328873, 49.51584699459967 ], [ 7.656825831511069, 49.515092378385035 ], [ 7.655874357769233, 49.514369089893187 ], [ 7.654865884026753, 49.513679113040588 ], [ 7.653803174440061, 49.513024340454685 ], [ 7.652689141822264, 49.512406568270499 ], [ 7.651526839659332, 49.511827491191639 ], [ 7.650319453740706, 49.511288697829571 ], [ 7.64907029342726, 49.510791666333979 ], [ 7.647782782580589, 49.510337760326379 ], [ 7.646460450178427, 49.509928225148428 ], [ 7.645106920641979, 49.509564184435142 ], [ 7.643725903901615, 49.509246637022763 ], [ 7.642321185228233, 49.508976454199768 ], [ 7.640896614858071, 49.508754377308719 ], [ 7.639456097439495, 49.508581015705651 ], [ 7.63800358133062, 49.508456845082613 ], [ 7.636543047777139, 49.508382206158203 ], [ 7.6350785, 49.508357303739487 ], [ 7.633613952222865, 49.508382206158203 ], [ 7.632153418669382, 49.508456845082613 ], [ 7.630700902560508, 49.508581015705651 ], [ 7.629260385141933, 49.508754377308719 ], [ 7.627835814771773, 49.508976454199768 ], [ 7.626431096098389, 49.509246637022763 ], [ 7.625050079358025, 49.509564184435142 ], [ 7.623696549821576, 49.509928225148428 ], [ 7.622374217419415, 49.510337760326379 ], [ 7.621086706572743, 49.510791666333979 ], [ 7.6198375462593, 49.511288697829571 ], [ 7.618630160340671, 49.511827491191639 ], [ 7.61746785817774, 49.512406568270499 ], [ 7.616353825559943, 49.513024340454685 ], [ 7.615291115973251, 49.513679113040588 ], [ 7.61428264223077, 49.514369089893187 ], [ 7.613331168488934, 49.515092378385035 ], [ 7.612439302671131, 49.51584699459967 ], [ 7.611609489319574, 49.516630868785114 ], [ 7.610844002894982, 49.517441851042271 ], [ 7.610144941542435, 49.518277717232472 ], [ 7.609514221340511, 49.51913617508788 ], [ 7.608953571049441, 49.520014870507715 ], [ 7.608464527372702, 49.520911394023109 ], [ 7.60804843074502, 49.521823287412467 ], [ 7.607706421658331, 49.52274805044928 ], [ 7.607439437535765, 49.523683147763791 ], [ 7.607248210162244, 49.524626015799434 ], [ 7.607133263678713, 49.52557406984505 ], [ 7.607094913145485, 49.526524711123542 ], [ 7.607133263678713, 49.527475333917415 ], [ 7.607248210162244, 49.528423332711697 ], [ 7.607439437535765, 49.529366109334624 ], [ 7.607706421658331, 49.530301080076597 ], [ 7.60804843074502, 49.53122568276779 ], [ 7.608464527372702, 49.532137383795217 ], [ 7.608953571049441, 49.533033685039946 ], [ 7.609514221340511, 49.533912130715635 ], [ 7.610144941542435, 49.534770314089627 ], [ 7.610844002894982, 49.535605884068445 ], [ 7.611609489319574, 49.5364165516296 ], [ 7.612439302671131, 49.537200096082316 ], [ 7.613331168488934, 49.537954371140074 ], [ 7.61428264223077, 49.538677310788721 ], [ 7.615291115973251, 49.539366934933781 ], [ 7.616353825559943, 49.540021354812154 ], [ 7.61746785817774, 49.540638778153145 ], [ 7.618630160340671, 49.541217514075143 ], [ 7.6198375462593, 49.541755977704483 ], [ 7.621086706572743, 49.542252694504086 ], [ 7.622374217419415, 49.54270630430031 ], [ 7.623696549821576, 49.543115564996867 ], [ 7.625050079358025, 49.543479355965999 ], [ 7.626431096098389, 49.543796681107722 ], [ 7.627835814771773, 49.544066671568807 ], [ 7.629260385141933, 49.544288588114249 ], [ 7.630700902560508, 49.544461823144779 ], [ 7.632153418669382, 49.544585902355117 ], [ 7.633613952222865, 49.544660486028192 ], [ 7.6350785, 49.544685369962281 ], [ 7.636543047777139, 49.544660486028192 ], [ 7.63800358133062, 49.544585902355117 ], [ 7.639456097439495, 49.544461823144779 ], [ 7.640896614858071, 49.544288588114249 ], [ 7.642321185228231, 49.544066671568807 ], [ 7.643725903901615, 49.543796681107722 ], [ 7.645106920641979, 49.543479355965999 ], [ 7.646460450178427, 49.543115564996867 ], [ 7.647782782580589, 49.54270630430031 ], [ 7.64907029342726, 49.542252694504086 ], [ 7.650319453740706, 49.541755977704483 ], [ 7.651526839659332, 49.541217514075143 ], [ 7.652689141822264, 49.540638778153145 ], [ 7.653803174440061, 49.540021354812154 ], [ 7.654865884026753, 49.539366934933781 ], [ 7.655874357769233, 49.538677310788721 ], [ 7.656825831511069, 49.537954371140074 ], [ 7.657717697328873, 49.537200096082316 ], [ 7.65854751068043, 49.5364165516296 ], [ 7.659312997105022, 49.535605884068445 ], [ 7.660012058457568, 49.534770314089627 ], [ 7.660642778659493, 49.533912130715635 ], [ 7.661203428950563, 49.533033685039946 ], [ 7.661692472627301, 49.532137383795217 ], [ 7.662108569254983, 49.53122568276779 ], [ 7.662450578341674, 49.530301080076597 ], [ 7.662717562464239, 49.529366109334624 ], [ 7.662908789837759, 49.528423332711697 ], [ 7.663023736321291, 49.527475333917415 ], [ 7.663062086854518, 49.526524711123542 ] ] ] } },
{ "type": "Feature", "properties": { "name": "Frankelbach", "feature_type": "mrr", "metric_roundness": 40.43, "metric_rectangularity": 71.94, "metric_mobile_fit": 6.99, "metric_aspect_ratio": 1.493, "metric_area_km2": 12.32 }, "geometry": { "type": "Polygon", "coordinates": [ [ [ 7.6621725, 49.531068 ], [ 7.611559814637908, 49.516680695429741 ], [ 7.601525703860251, 49.531554481248477 ], [ 7.652138378917813, 49.545937407367617 ], [ 7.6621725, 49.531068 ] ] ] } }
]
}
