{
"type": "FeatureCollection",
"name": "franco_el",
"crs": { "type": "name", "properties": { "name": "urn:ogc:def:crs:OGC:1.3:CRS84" } },
"features": [
{ "type": "Feature", "properties": { "name": "Franco, El", "feature_type": "entity", "metric_roundness": 53.72, "metric_rectangularity": 76.42, "metric_mobile_fit": 95.64, "metric_aspect_ratio": 0.606, "metric_area_km2": 149.21 }, "geometry": { "type": "Polygon", "coordinates": [ [ [ -6.8791976, 43.5573835 ], [ -6.8754338, 43.54951 ], [ -6.8762658, 43.538595099999988 ], [ -6.883602, 43.527363 ], [ -6.8781339, 43.5213387 ], [ -6.885261, 43.5128638 ], [ -6.8734822, 43.5051911 ], [ -6.8842776, 43.486502099999989 ], [ -6.889539, 43.467499 ], [ -6.8852262, 43.4609148 ], [ -6.878988, 43.4577485 ], [ -6.872482, 43.452839 ], [ -6.837634, 43.448291 ], [ -6.8246933, 43.453553799999987 ], [ -6.8163665, 43.4689675 ], [ -6.8182676, 43.486068599999982 ], [ -6.8003635, 43.4932671 ], [ -6.7904208, 43.5023443 ], [ -6.7887381, 43.5100822 ], [ -6.7891044, 43.5266077 ], [ -6.8024572, 43.5467764 ], [ -6.801958, 43.5564615 ], [ -6.8039186, 43.5584048 ], [ -6.8142047, 43.555542899999985 ], [ -6.8220527, 43.5632225 ], [ -6.8330852, 43.5668167 ], [ -6.8497349, 43.5651724 ], [ -6.8675241, 43.568902799999989 ], [ -6.87731, 43.563382 ], [ -6.8791976, 43.5573835 ] ] ] } },
{ "type": "Feature", "properties": { "name": "Franco, El", "feature_type": "circle", "metric_roundness": 53.72, "metric_rectangularity": 76.42, "metric_mobile_fit": 95.64, "metric_aspect_ratio": 0.606, "metric_area_km2": 149.21 }, "geometry": { "type": "Polygon", "coordinates": [ [ [ -6.768097130662164, 43.50862702643817 ], [ -6.768212910196483, 43.5054201988196 ], [ -6.768559931455785, 43.50222199122603 ], [ -6.769137243278921, 43.499041171814895 ], [ -6.76994326329431, 43.495886462452816 ], [ -6.770975782257114, 43.492766514771624 ], [ -6.772231970104628, 43.489689886402317 ], [ -6.773708383713281, 43.48666501745268 ], [ -6.775400976335991, 43.483700207293694 ], [ -6.777305108694033, 43.480803591719365 ], [ -6.779415561692966, 43.477983120543449 ], [ -6.781726550727818, 43.475246535695725 ], [ -6.784231741538277, 43.472601349879028 ], [ -6.786924267570467, 43.470054825846894 ], [ -6.78979674879769, 43.467613956360168 ], [ -6.792841311948561, 43.465285444878752 ], [ -6.796049612087113, 43.463075687043251 ], [ -6.799412855485672, 43.460990752998647 ], [ -6.802921823727858, 43.4590363706102 ], [ -6.806566898975623, 43.457217909619132 ], [ -6.810338090331082, 43.455540366782941 ], [ -6.81422506122086, 43.454008352042983 ], [ -6.818217157727928, 43.452626075758438 ], [ -6.822303437793248, 43.451397337043076 ], [ -6.826472701207195, 43.45032551323844 ], [ -6.830713520308553, 43.449413550553153 ], [ -6.835014271306942, 43.44866395589537 ], [ -6.839363166142814, 43.448078789921809 ], [ -6.843748284797714, 43.447659661323101 ], [ -6.848157607966216, 43.447407722362016 ], [ -6.85257905, 43.447323665677224 ], [ -6.857000492033785, 43.447407722362016 ], [ -6.861409815202287, 43.447659661323101 ], [ -6.865794933857186, 43.448078789921809 ], [ -6.87014382869306, 43.44866395589537 ], [ -6.874444579691447, 43.449413550553153 ], [ -6.878685398792804, 43.45032551323844 ], [ -6.882854662206752, 43.451397337043076 ], [ -6.886940942272073, 43.452626075758438 ], [ -6.89093303877914, 43.454008352042983 ], [ -6.894820009668918, 43.455540366782941 ], [ -6.898591201024377, 43.457217909619132 ], [ -6.902236276272143, 43.4590363706102 ], [ -6.905745244514328, 43.460990752998647 ], [ -6.909108487912887, 43.463075687043251 ], [ -6.912316788051439, 43.465285444878752 ], [ -6.915361351202312, 43.467613956360168 ], [ -6.918233832429534, 43.470054825846894 ], [ -6.920926358461722, 43.472601349879028 ], [ -6.923431549272182, 43.475246535695725 ], [ -6.925742538307033, 43.477983120543449 ], [ -6.927852991305968, 43.480803591719365 ], [ -6.929757123664009, 43.483700207293694 ], [ -6.93144971628672, 43.48666501745268 ], [ -6.932926129895371, 43.489689886402317 ], [ -6.934182317742886, 43.492766514771624 ], [ -6.935214836705692, 43.495886462452816 ], [ -6.93602085672108, 43.499041171814895 ], [ -6.936598168544215, 43.50222199122603 ], [ -6.936945189803517, 43.5054201988196 ], [ -6.937060969337836, 43.50862702643817 ], [ -6.936945189803517, 43.511833683689346 ], [ -6.936598168544215, 43.515031382047312 ], [ -6.93602085672108, 43.518211358933932 ], [ -6.935214836705692, 43.521364901713483 ], [ -6.934182317742886, 43.524483371535446 ], [ -6.932926129895371, 43.527558226960593 ], [ -6.93144971628672, 43.530581047305908 ], [ -6.929757123664009, 43.533543555645352 ], [ -6.927852991305968, 43.536437641404163 ], [ -6.925742538307033, 43.539255382485806 ], [ -6.923431549272182, 43.541989066871977 ], [ -6.920926358461722, 43.544631213637956 ], [ -6.918233832429534, 43.547174593326666 ], [ -6.915361351202312, 43.54961224762738 ], [ -6.912316788051439, 43.551937508306445 ], [ -6.909108487912887, 43.554144015339723 ], [ -6.905745244514328, 43.556225734198705 ], [ -6.902236276272143, 43.558176972244361 ], [ -6.898591201024377, 43.559992394185556 ], [ -6.894820009668918, 43.561667036561232 ], [ -6.89093303877914, 43.563196321208061 ], [ -6.886940942272073, 43.564576067678345 ], [ -6.882854662206752, 43.56580250457543 ], [ -6.878685398792804, 43.56687227977698 ], [ -6.874444579691447, 43.56778246951928 ], [ -6.87014382869306, 43.568530586318857 ], [ -6.865794933857186, 43.569114585710729 ], [ -6.861409815202287, 43.569532871785562 ], [ -6.857000492033785, 43.56978430151144 ], [ -6.85257905, 43.569868187828959 ], [ -6.848157607966216, 43.56978430151144 ], [ -6.843748284797714, 43.569532871785562 ], [ -6.839363166142814, 43.569114585710729 ], [ -6.835014271306942, 43.568530586318857 ], [ -6.830713520308553, 43.56778246951928 ], [ -6.826472701207195, 43.56687227977698 ], [ -6.822303437793248, 43.56580250457543 ], [ -6.818217157727928, 43.564576067678345 ], [ -6.81422506122086, 43.563196321208061 ], [ -6.810338090331082, 43.561667036561232 ], [ -6.806566898975623, 43.559992394185556 ], [ -6.802921823727858, 43.558176972244361 ], [ -6.799412855485672, 43.556225734198705 ], [ -6.796049612087113, 43.554144015339723 ], [ -6.792841311948561, 43.551937508306445 ], [ -6.78979674879769, 43.54961224762738 ], [ -6.786924267570467, 43.547174593326666 ], [ -6.784231741538277, 43.544631213637956 ], [ -6.781726550727818, 43.541989066871977 ], [ -6.779415561692966, 43.539255382485806 ], [ -6.777305108694033, 43.536437641404163 ], [ -6.775400976335991, 43.533543555645352 ], [ -6.773708383713281, 43.530581047305908 ], [ -6.772231970104628, 43.527558226960593 ], [ -6.770975782257114, 43.524483371535446 ], [ -6.76994326329431, 43.521364901713483 ], [ -6.769137243278921, 43.518211358933932 ], [ -6.768559931455785, 43.515031382047312 ], [ -6.768212910196483, 43.511833683689346 ], [ -6.768097130662164, 43.50862702643817 ] ] ] } },
{ "type": "Feature", "properties": { "name": "Franco, El", "feature_type": "mrr", "metric_roundness": 53.72, "metric_rectangularity": 76.42, "metric_mobile_fit": 95.64, "metric_aspect_ratio": 0.606, "metric_area_km2": 149.21 }, "geometry": { "type": "Polygon", "coordinates": [ [ [ -6.878732281663832, 43.569581709083707 ], [ -6.782548353751252, 43.563755353993066 ], [ -6.796147194131679, 43.445772945986356 ], [ -6.892331122044259, 43.451610699951125 ], [ -6.878732281663832, 43.569581709083707 ] ] ] } }
]
}
