{
"type": "FeatureCollection",
"name": "freixiel",
"crs": { "type": "name", "properties": { "name": "urn:ogc:def:crs:OGC:1.3:CRS84" } },
"features": [
{ "type": "Feature", "properties": { "name": "Freixiel", "metric_roundness": 63.13, "metric_rectangularity": 68.87, "metric_mobile_fit": 48.83, "metric_aspect_ratio": 1.074, "metric_area_km2": 62.56 }, "geometry": { "type": "Polygon", "coordinates": [ [ [ -7.2970296, 41.298638 ], [ -7.2857607, 41.2917178 ], [ -7.2724724, 41.2950619 ], [ -7.266384, 41.293195 ], [ -7.2379, 41.292297 ], [ -7.2354075, 41.2931525 ], [ -7.2229535, 41.2946005 ], [ -7.2130345, 41.294676 ], [ -7.213072, 41.308406299999987 ], [ -7.208193, 41.319065 ], [ -7.2139995, 41.3272696 ], [ -7.250273, 41.353828 ], [ -7.266109, 41.35313 ], [ -7.2712265, 41.352949 ], [ -7.2866579, 41.3453492 ], [ -7.2954845, 41.3359015 ], [ -7.2714249, 41.332024 ], [ -7.2767568, 41.3134706 ], [ -7.2863678, 41.311452799999984 ], [ -7.292283, 41.305784 ], [ -7.2970296, 41.298638 ] ] ] } }
]
}
