{
"type": "FeatureCollection",
"name": "frontino",
"crs": { "type": "name", "properties": { "name": "urn:ogc:def:crs:OGC:1.3:CRS84" } },
"features": [
{ "type": "Feature", "properties": { "name": "Frontino", "metric_roundness": 43.04, "metric_rectangularity": 58.82, "metric_mobile_fit": 10.0, "metric_aspect_ratio": 1.462, "metric_area_km2": 19.28 }, "geometry": { "type": "Polygon", "coordinates": [ [ [ 12.364418, 43.783538 ], [ 12.3596448, 43.7791987 ], [ 12.348468, 43.776030499999983 ], [ 12.322249, 43.7578715 ], [ 12.3481774, 43.7606786 ], [ 12.358092, 43.7525696 ], [ 12.3757562, 43.7520631 ], [ 12.38373, 43.7546738 ], [ 12.38599, 43.7746805 ], [ 12.364418, 43.783538 ] ] ] } }
]
}
