{
"type": "FeatureCollection",
"name": "querrieu",
"crs": { "type": "name", "properties": { "name": "urn:ogc:def:crs:OGC:1.3:CRS84" } },
"features": [
{ "type": "Feature", "properties": { "name": "Querrieu", "metric_roundness": 49.95, "metric_rectangularity": 66.13, "metric_mobile_fit": 52.67, "metric_aspect_ratio": 1.036, "metric_area_km2": 24.65 }, "geometry": { "type": "Polygon", "coordinates": [ [ [ 2.4402819, 49.948013899999985 ], [ 2.439414, 49.951289 ], [ 2.422795, 49.956518 ], [ 2.4096794, 49.953574899999985 ], [ 2.4062278, 49.9496001 ], [ 2.389716, 49.952062 ], [ 2.395273, 49.9442594 ], [ 2.3945056, 49.931609299999984 ], [ 2.3839454, 49.9254088 ], [ 2.3852525, 49.9215135 ], [ 2.3876585, 49.921606499999982 ], [ 2.4189519, 49.926118699999989 ], [ 2.4297695, 49.922262 ], [ 2.4402819, 49.948013899999985 ] ] ] } }
]
}
