{
"type": "FeatureCollection",
"name": "quincay",
"crs": { "type": "name", "properties": { "name": "urn:ogc:def:crs:OGC:1.3:CRS84" } },
"features": [
{ "type": "Feature", "properties": { "name": "Quinçay", "feature_type": "entity", "metric_roundness": 60.9, "metric_rectangularity": 73.29, "metric_mobile_fit": 46.27, "metric_aspect_ratio": 1.1, "metric_area_km2": 63.33 }, "geometry": { "type": "Polygon", "coordinates": [ [ [ 0.2505405, 46.623961 ], [ 0.2367628, 46.627315599999982 ], [ 0.2316419, 46.6335699 ], [ 0.2063885, 46.6372295 ], [ 0.1874436, 46.618304 ], [ 0.1870703, 46.612068 ], [ 0.1693015, 46.5877495 ], [ 0.179629, 46.589102499999989 ], [ 0.2005021, 46.5801155 ], [ 0.253522, 46.582121 ], [ 0.2525083, 46.5883681 ], [ 0.2607385, 46.593062199999984 ], [ 0.2529579, 46.6039099 ], [ 0.2568056, 46.612455499999982 ], [ 0.2506997, 46.618000699999989 ], [ 0.257772, 46.6244535 ], [ 0.2505405, 46.623961 ] ] ] } },
{ "type": "Feature", "properties": { "name": "Quinçay", "feature_type": "circle", "metric_roundness": 60.9, "metric_rectangularity": 73.29, "metric_mobile_fit": 46.27, "metric_aspect_ratio": 1.1, "metric_area_km2": 63.33 }, "geometry": { "type": "Polygon", "coordinates": [ [ [ 0.265982337701364, 46.605251412192729 ], [ 0.265911490631296, 46.603392617429243 ], [ 0.265699143607986, 46.601538853976386 ], [ 0.265345878659865, 46.599695203653788 ], [ 0.264852664061601, 46.597866721074183 ], [ 0.264220851680124, 46.596058419774906 ], [ 0.263452173269256, 46.59427525845652 ], [ 0.26254873572309, 46.592522127366372 ], [ 0.261513015301144, 46.590803834865021 ], [ 0.260347850841101, 46.58912509421225 ], [ 0.259056435977758, 46.587490510609612 ], [ 0.257642310389489, 46.585904568535256 ], [ 0.256109350096237, 46.584371619406326 ], [ 0.254461756835612, 46.582895869603092 ], [ 0.252704046546218, 46.58148136888844 ], [ 0.250841036989781, 46.580131999254682 ], [ 0.248877834545999, 46.578851464229231 ], [ 0.24681982021631, 46.577643278668553 ], [ 0.244672634874942, 46.576510759069599 ], [ 0.242442163807664, 46.575457014425204 ], [ 0.240134520580636, 46.574484937649657 ], [ 0.237756030283539, 46.573597197598183 ], [ 0.235313212192952, 46.572796231702917 ], [ 0.232812761903462, 46.572084239246095 ], [ 0.230261532975509, 46.571463175289331 ], [ 0.227666518150251, 46.570934745276148 ], [ 0.225034830182945, 46.570500400322963 ], [ 0.222373682347385, 46.570161333211793 ], [ 0.219690368664814, 46.569918475096031 ], [ 0.21699224391152, 46.56977249292855 ], [ 0.214286703459908, 46.569723787619431 ], [ 0.211581163008296, 46.56977249292855 ], [ 0.208883038255002, 46.569918475096031 ], [ 0.20619972457243, 46.570161333211793 ], [ 0.20353857673687, 46.570500400322963 ], [ 0.200906888769565, 46.570934745276148 ], [ 0.198311873944306, 46.571463175289331 ], [ 0.195760645016353, 46.572084239246095 ], [ 0.193260194726863, 46.572796231702917 ], [ 0.190817376636276, 46.573597197598183 ], [ 0.18843888633918, 46.574484937649657 ], [ 0.186131243112151, 46.575457014425204 ], [ 0.183900772044874, 46.576510759069599 ], [ 0.181753586703505, 46.577643278668553 ], [ 0.179695572373816, 46.578851464229231 ], [ 0.177732369930034, 46.580131999254682 ], [ 0.175869360373597, 46.58148136888844 ], [ 0.174111650084203, 46.582895869603092 ], [ 0.172464056823578, 46.584371619406326 ], [ 0.170931096530327, 46.585904568535256 ], [ 0.169516970942058, 46.587490510609612 ], [ 0.168225556078715, 46.58912509421225 ], [ 0.167060391618672, 46.590803834865021 ], [ 0.166024671196726, 46.592522127366372 ], [ 0.16512123365056, 46.59427525845652 ], [ 0.164352555239692, 46.596058419774906 ], [ 0.163720742858215, 46.597866721074183 ], [ 0.163227528259951, 46.599695203653788 ], [ 0.16287426331183, 46.601538853976386 ], [ 0.16266191628852, 46.603392617429243 ], [ 0.162591069218451, 46.605251412192729 ], [ 0.16266191628852, 46.607110143177877 ], [ 0.16287426331183, 46.608963715994442 ], [ 0.163227528259951, 46.61080705091149 ], [ 0.163720742858215, 46.612635096771903 ], [ 0.164352555239692, 46.614442844823138 ], [ 0.16512123365056, 46.616225342426169 ], [ 0.166024671196726, 46.617977706605409 ], [ 0.167060391618672, 46.619695137402772 ], [ 0.168225556078715, 46.621372930999478 ], [ 0.169516970942058, 46.623006492570113 ], [ 0.170931096530327, 46.624591348834137 ], [ 0.172464056823578, 46.626123160270765 ], [ 0.174111650084203, 46.627597732964517 ], [ 0.175869360373597, 46.629011030049192 ], [ 0.177732369930034, 46.630359182719658 ], [ 0.179695572373816, 46.631638500781875 ], [ 0.181753586703505, 46.632845482712604 ], [ 0.183900772044874, 46.633976825202161 ], [ 0.186131243112151, 46.635029432154347 ], [ 0.18843888633918, 46.636000423119675 ], [ 0.190817376636276, 46.636887141139283 ], [ 0.193260194726863, 46.637687159978633 ], [ 0.195760645016353, 46.638398290731615 ], [ 0.198311873944306, 46.639018587777628 ], [ 0.200906888769565, 46.639546354075584 ], [ 0.20353857673687, 46.639980145780854 ], [ 0.20619972457243, 46.640318776172947 ], [ 0.208883038255002, 46.640561318883222 ], [ 0.211581163008296, 46.640707110414475 ], [ 0.214286703459908, 46.640755751945257 ], [ 0.21699224391152, 46.640707110414475 ], [ 0.219690368664814, 46.640561318883222 ], [ 0.222373682347385, 46.640318776172947 ], [ 0.225034830182945, 46.639980145780854 ], [ 0.227666518150251, 46.639546354075584 ], [ 0.230261532975509, 46.639018587777628 ], [ 0.232812761903462, 46.638398290731615 ], [ 0.235313212192952, 46.637687159978633 ], [ 0.237756030283539, 46.636887141139283 ], [ 0.240134520580636, 46.636000423119675 ], [ 0.242442163807664, 46.635029432154347 ], [ 0.244672634874942, 46.633976825202161 ], [ 0.24681982021631, 46.632845482712604 ], [ 0.248877834545999, 46.631638500781875 ], [ 0.250841036989781, 46.630359182719658 ], [ 0.252704046546218, 46.629011030049192 ], [ 0.254461756835612, 46.627597732964517 ], [ 0.256109350096237, 46.626123160270765 ], [ 0.257642310389489, 46.624591348834137 ], [ 0.259056435977758, 46.623006492570113 ], [ 0.260347850841101, 46.621372930999478 ], [ 0.261513015301143, 46.619695137402772 ], [ 0.26254873572309, 46.617977706605409 ], [ 0.263452173269256, 46.616225342426169 ], [ 0.264220851680124, 46.614442844823138 ], [ 0.264852664061601, 46.612635096771903 ], [ 0.265345878659865, 46.61080705091149 ], [ 0.265699143607986, 46.608963715994442 ], [ 0.265911490631296, 46.607110143177877 ], [ 0.265982337701364, 46.605251412192729 ] ] ] } },
{ "type": "Feature", "properties": { "name": "Quinçay", "feature_type": "mrr", "metric_roundness": 60.9, "metric_rectangularity": 73.29, "metric_mobile_fit": 46.27, "metric_aspect_ratio": 1.1, "metric_area_km2": 63.33 }, "geometry": { "type": "Polygon", "coordinates": [ [ [ 0.1693015, 46.5877495 ], [ 0.201523914857481, 46.642005870086997 ], [ 0.277211408920603, 46.62080349752673 ], [ 0.244988988870405, 46.566525879431538 ], [ 0.1693015, 46.5877495 ] ] ] } }
]
}
