{
"type": "FeatureCollection",
"name": "quirnbach",
"crs": { "type": "name", "properties": { "name": "urn:ogc:def:crs:OGC:1.3:CRS84" } },
"features": [
{ "type": "Feature", "properties": { "name": "Quirnbach", "metric_roundness": 35.11, "metric_rectangularity": 48.5, "metric_mobile_fit": 82.87, "metric_aspect_ratio": 0.734, "metric_area_km2": 7.69 }, "geometry": { "type": "Polygon", "coordinates": [ [ [ 7.7967073, 50.514234699999982 ], [ 7.8117315, 50.529852 ], [ 7.7980349, 50.5289728 ], [ 7.7856265, 50.523532 ], [ 7.778753, 50.52029049999998 ], [ 7.7841031, 50.5085185 ], [ 7.7947829, 50.50575749999998 ], [ 7.7982655, 50.501275 ], [ 7.7967073, 50.514234699999982 ] ] ] } }
]
}
