{
"type": "FeatureCollection",
"name": "hvar",
"crs": { "type": "name", "properties": { "name": "urn:ogc:def:crs:OGC:1.3:CRS84" } },
"features": [
{ "type": "Feature", "properties": { "name": "Hvar", "feature_type": "entity", "metric_roundness": 18.35, "metric_rectangularity": 51.17, "metric_mobile_fit": -74.58, "metric_aspect_ratio": 2.308, "metric_area_km2": 130.26 }, "geometry": { "type": "Polygon", "coordinates": [ [ [ 16.5669139, 43.1478634 ], [ 16.5630715, 43.149745 ], [ 16.5668261, 43.1580134 ], [ 16.5582584, 43.166955 ], [ 16.567442, 43.177483 ], [ 16.5406158, 43.1903302 ], [ 16.5262099, 43.2018659 ], [ 16.507131, 43.2065421 ], [ 16.4755703, 43.2091296 ], [ 16.4663587, 43.2061828 ], [ 16.4578281, 43.2071682 ], [ 16.445859, 43.2008364 ], [ 16.4401059, 43.200709 ], [ 16.4374031, 43.1974235 ], [ 16.4320027, 43.1984106 ], [ 16.4297781, 43.1954219 ], [ 16.4254047, 43.1968178 ], [ 16.4197406, 43.1938601 ], [ 16.4147167, 43.1955181 ], [ 16.412856, 43.191245399999985 ], [ 16.389629, 43.1976945 ], [ 16.3692235, 43.1948219 ], [ 16.3816036, 43.187637 ], [ 16.4396444, 43.1707405 ], [ 16.4482002, 43.1620479 ], [ 16.4681132, 43.158087799999983 ], [ 16.486816, 43.1610837 ], [ 16.5427529, 43.139966 ], [ 16.5652311, 43.1414244 ], [ 16.5874103, 43.1343176 ], [ 16.623396, 43.128052 ], [ 16.6258282, 43.133984 ], [ 16.6209754, 43.138895299999987 ], [ 16.587392, 43.149482 ], [ 16.5669139, 43.1478634 ] ] ] } },
{ "type": "Feature", "properties": { "name": "Hvar", "feature_type": "circle", "metric_roundness": 18.35, "metric_rectangularity": 51.17, "metric_mobile_fit": -74.58, "metric_aspect_ratio": 2.308, "metric_area_km2": 130.26 }, "geometry": { "type": "Polygon", "coordinates": [ [ [ 16.631386320645593, 43.161446071318899 ], [ 16.631201202900055, 43.156289255793602 ], [ 16.6306463570583, 43.151146141310051 ], [ 16.629723303914229, 43.146030830136105 ], [ 16.628434573492338, 43.140957351829805 ], [ 16.62678369811314, 43.135939624688334 ], [ 16.624775202711294, 43.130991417464763 ], [ 16.622414592433095, 43.126126311458748 ], [ 16.61970833754722, 43.121357663087352 ], [ 16.616663855710215, 43.116698567040302 ], [ 16.613289491635168, 43.112161820123774 ], [ 16.609594494219461, 43.107759885894275 ], [ 16.605588991194175, 43.103504860183094 ], [ 16.601283961364683, 43.099408437608936 ], [ 16.596691204518507, 43.095481879174478 ], [ 16.591823309082923, 43.091735981039236 ], [ 16.586693617620959, 43.088181044558517 ], [ 16.581316190260356, 43.084826847674414 ], [ 16.575705766155725, 43.081682617741521 ], [ 16.569877723089554, 43.078757005865839 ], [ 16.563848035322799, 43.076058062831372 ], [ 16.557633229810499, 43.07359321668411 ], [ 16.55125034090258, 43.071369252039055 ], [ 16.544716863653871, 43.069392291170203 ], [ 16.538050705871377, 43.067667776939182 ], [ 16.531270139030219, 43.066200457612183 ], [ 16.524393748192789, 43.064994373609892 ], [ 16.517440381068415, 43.064052846229231 ], [ 16.510429096353047, 43.063378468370068 ], [ 16.503379111490755, 43.062973097294297 ], [ 16.49630975, 43.06283784943826 ], [ 16.489240388509248, 43.062973097294297 ], [ 16.482190403646953, 43.063378468370068 ], [ 16.475179118931589, 43.064052846229231 ], [ 16.468225751807214, 43.064994373609892 ], [ 16.461349360969788, 43.066200457612183 ], [ 16.454568794128626, 43.067667776939182 ], [ 16.447902636346129, 43.069392291170203 ], [ 16.44136915909742, 43.071369252039055 ], [ 16.434986270189505, 43.07359321668411 ], [ 16.428771464677208, 43.076058062831372 ], [ 16.422741776910449, 43.078757005865839 ], [ 16.416913733844282, 43.081682617741521 ], [ 16.411303309739644, 43.084826847674414 ], [ 16.405925882379041, 43.088181044558517 ], [ 16.400796190917077, 43.091735981039236 ], [ 16.395928295481497, 43.095481879174478 ], [ 16.391335538635321, 43.099408437608936 ], [ 16.387030508805829, 43.103504860183094 ], [ 16.383025005780546, 43.107759885894275 ], [ 16.379330008364835, 43.112161820123774 ], [ 16.375955644289785, 43.116698567040302 ], [ 16.37291116245278, 43.121357663087352 ], [ 16.370204907566908, 43.126126311458748 ], [ 16.367844297288709, 43.130991417464763 ], [ 16.365835801886863, 43.135939624688334 ], [ 16.364184926507662, 43.140957351829805 ], [ 16.362896196085774, 43.146030830136105 ], [ 16.3619731429417, 43.151146141310051 ], [ 16.361418297099952, 43.156289255793602 ], [ 16.361233179354407, 43.161446071318899 ], [ 16.361418297099952, 43.166602451620278 ], [ 16.3619731429417, 43.171744265200481 ], [ 16.362896196085774, 43.176857424044677 ], [ 16.364184926507662, 43.181927922176271 ], [ 16.365835801886863, 43.18694187394955 ], [ 16.367844297288709, 43.191885551975354 ], [ 16.370204907566908, 43.19674542457691 ], [ 16.37291116245278, 43.201508192675618 ], [ 16.375955644289785, 43.206160826007363 ], [ 16.379330008364835, 43.210690598572988 ], [ 16.383025005780546, 43.21508512322854 ], [ 16.387030508805829, 43.219332385323682 ], [ 16.391335538635321, 43.223420775299616 ], [ 16.395928295481497, 43.227339120160558 ], [ 16.400796190917077, 43.231076713736655 ], [ 16.405925882379041, 43.234623345659116 ], [ 16.411303309739644, 43.237969328972305 ], [ 16.416913733844282, 43.241105526311188 ], [ 16.422741776910449, 43.244023374576471 ], [ 16.428771464677208, 43.24671490804382 ], [ 16.434986270189505, 43.249172779847868 ], [ 16.44136915909742, 43.251390281785888 ], [ 16.447902636346129, 43.253361362390478 ], [ 16.454568794128626, 43.255080643225298 ], [ 16.461349360969788, 43.256543433362204 ], [ 16.468225751807214, 43.257745742003145 ], [ 16.475179118931589, 43.258684289214742 ], [ 16.482190403646953, 43.259356514748362 ], [ 16.489240388509248, 43.259760584923406 ], [ 16.49630975, 43.259895397556399 ], [ 16.503379111490755, 43.259760584923406 ], [ 16.510429096353047, 43.259356514748362 ], [ 16.517440381068411, 43.258684289214742 ], [ 16.524393748192789, 43.257745742003145 ], [ 16.531270139030219, 43.256543433362204 ], [ 16.538050705871377, 43.255080643225298 ], [ 16.544716863653871, 43.253361362390478 ], [ 16.55125034090258, 43.251390281785888 ], [ 16.557633229810499, 43.249172779847868 ], [ 16.563848035322799, 43.24671490804382 ], [ 16.569877723089554, 43.244023374576471 ], [ 16.575705766155725, 43.241105526311188 ], [ 16.581316190260356, 43.237969328972305 ], [ 16.586693617620959, 43.234623345659116 ], [ 16.591823309082923, 43.231076713736655 ], [ 16.596691204518507, 43.227339120160558 ], [ 16.601283961364683, 43.223420775299616 ], [ 16.605588991194175, 43.219332385323682 ], [ 16.609594494219461, 43.21508512322854 ], [ 16.613289491635168, 43.210690598572988 ], [ 16.616663855710215, 43.206160826007363 ], [ 16.61970833754722, 43.201508192675618 ], [ 16.622414592433095, 43.19674542457691 ], [ 16.624775202711294, 43.191885551975354 ], [ 16.62678369811314, 43.18694187394955 ], [ 16.628434573492338, 43.181927922176271 ], [ 16.629723303914229, 43.176857424044677 ], [ 16.6306463570583, 43.171744265200481 ], [ 16.631201202900055, 43.166602451620278 ], [ 16.631386320645593, 43.161446071318899 ] ] ] } },
{ "type": "Feature", "properties": { "name": "Hvar", "feature_type": "mrr", "metric_roundness": 18.35, "metric_rectangularity": 51.17, "metric_mobile_fit": -74.58, "metric_aspect_ratio": 2.308, "metric_area_km2": 130.26 }, "geometry": { "type": "Polygon", "coordinates": [ [ [ 16.620640761840335, 43.121770019180133 ], [ 16.363514448762064, 43.181818688033907 ], [ 16.386710195877306, 43.234633210754239 ], [ 16.643836508956536, 43.174636484465715 ], [ 16.620640761840335, 43.121770019180133 ] ] ] } }
]
}
