{
"type": "FeatureCollection",
"name": "tobadill",
"crs": { "type": "name", "properties": { "name": "urn:ogc:def:crs:OGC:1.3:CRS84" } },
"features": [
{ "type": "Feature", "properties": { "name": "Tobadill", "feature_type": "entity", "metric_roundness": 76.72, "metric_rectangularity": 76.93, "metric_mobile_fit": 53.64, "metric_aspect_ratio": 1.026, "metric_area_km2": 34.67 }, "geometry": { "type": "Polygon", "coordinates": [ [ [ 10.4918625, 47.115385499999981 ], [ 10.4882843, 47.100856099999987 ], [ 10.5113297, 47.087645 ], [ 10.529893, 47.08775 ], [ 10.540471, 47.0957515 ], [ 10.546587, 47.0943635 ], [ 10.5523585, 47.098182 ], [ 10.5523717, 47.1043677 ], [ 10.5439982, 47.1125525 ], [ 10.5388354, 47.1231475 ], [ 10.5268175, 47.130152499999987 ], [ 10.496065, 47.122561499999982 ], [ 10.493136, 47.1184995 ], [ 10.4918625, 47.115385499999981 ] ] ] } },
{ "type": "Feature", "properties": { "name": "Tobadill", "feature_type": "circle", "metric_roundness": 76.72, "metric_rectangularity": 76.93, "metric_mobile_fit": 53.64, "metric_aspect_ratio": 1.026, "metric_area_km2": 34.67 }, "geometry": { "type": "Polygon", "coordinates": [ [ [ 10.55510147735195, 47.107299971512951 ], [ 10.555054772922611, 47.106086010689104 ], [ 10.554914787648197, 47.104875349675666 ], [ 10.55468190521861, 47.103671307150172 ], [ 10.554356763948402, 47.102477183871791 ], [ 10.553940255027195, 47.101296253628057 ], [ 10.553433520076991, 47.100131754253113 ], [ 10.552837948023067, 47.098986878742195 ], [ 10.552155171287025, 47.097864766486921 ], [ 10.551387061312434, 47.096768494655443 ], [ 10.550535723435353, 47.095701069741303 ], [ 10.54960349111372, 47.094665419304356 ], [ 10.548592919531531, 47.093664383926559 ], [ 10.547506778595254, 47.092700709404902 ], [ 10.546348045341691, 47.091777039203201 ], [ 10.545119895778152, 47.090895907183466 ], [ 10.543825696177223, 47.090059730637343 ], [ 10.542468993850051, 47.089270803636602 ], [ 10.54105350742341, 47.088531290721576 ], [ 10.539583116647208, 47.08784322094472 ], [ 10.538061851760355, 47.087208482286123 ], [ 10.536493882444166, 47.086628816456532 ], [ 10.534883506393548, 47.086105814102133 ], [ 10.533235137537318, 47.085640910424779 ], [ 10.531553293939938, 47.085235381229708 ], [ 10.529842585417802, 47.084890339411793 ], [ 10.52810770090406, 47.08460673189019 ], [ 10.526353395596574, 47.084385336999951 ], [ 10.52458447792425, 47.084226762347825 ], [ 10.522805796367473, 47.084131443138332 ], [ 10.521022226168759, 47.084099640974749 ], [ 10.519238655970042, 47.084131443138332 ], [ 10.517459974413267, 47.084226762347825 ], [ 10.515691056740947, 47.084385336999951 ], [ 10.513936751433457, 47.08460673189019 ], [ 10.512201866919716, 47.084890339411793 ], [ 10.51049115839758, 47.085235381229708 ], [ 10.508809314800198, 47.085640910424779 ], [ 10.507160945943971, 47.086105814102133 ], [ 10.505550569893352, 47.086628816456532 ], [ 10.503982600577164, 47.087208482286123 ], [ 10.50246133569031, 47.08784322094472 ], [ 10.500990944914108, 47.088531290721576 ], [ 10.499575458487469, 47.089270803636602 ], [ 10.498218756160295, 47.090059730637343 ], [ 10.496924556559366, 47.090895907183466 ], [ 10.495696406995824, 47.091777039203201 ], [ 10.494537673742265, 47.092700709404902 ], [ 10.493451532805986, 47.093664383926559 ], [ 10.492440961223798, 47.094665419304356 ], [ 10.491508728902165, 47.095701069741303 ], [ 10.490657391025081, 47.096768494655443 ], [ 10.489889281050493, 47.097864766486921 ], [ 10.489206504314451, 47.098986878742195 ], [ 10.488610932260528, 47.100131754253113 ], [ 10.488104197310323, 47.101296253628057 ], [ 10.487687688389116, 47.102477183871791 ], [ 10.487362547118908, 47.103671307150172 ], [ 10.487129664689322, 47.104875349675666 ], [ 10.486989679414906, 47.106086010689104 ], [ 10.486942974985567, 47.107299971512951 ], [ 10.486989679414906, 47.108513904651339 ], [ 10.487129664689322, 47.109724482911709 ], [ 10.487362547118908, 47.110928388523213 ], [ 10.487687688389116, 47.112122322226732 ], [ 10.488104197310323, 47.113303012311739 ], [ 10.488610932260528, 47.114467223575339 ], [ 10.489206504314451, 47.115611766178887 ], [ 10.489889281050493, 47.116733504378182 ], [ 10.490657391025081, 47.117829365103297 ], [ 10.491508728902165, 47.118896346364878 ], [ 10.492440961223798, 47.119931525463798 ], [ 10.493451532805986, 47.120932066982199 ], [ 10.494537673742265, 47.121895230533895 ], [ 10.495696406995824, 47.122818378253378 ], [ 10.496924556559366, 47.123698982003063 ], [ 10.498218756160295, 47.124534630279143 ], [ 10.499575458487469, 47.125323034797667 ], [ 10.500990944914108, 47.126062036742759 ], [ 10.50246133569031, 47.126749612660241 ], [ 10.503982600577164, 47.127383879980812 ], [ 10.505550569893352, 47.127963102157871 ], [ 10.507160945943971, 47.128485693405942 ], [ 10.508809314800198, 47.128950223027346 ], [ 10.51049115839758, 47.129355419315083 ], [ 10.512201866919716, 47.129700173021668 ], [ 10.513936751433457, 47.129983540384572 ], [ 10.515691056740945, 47.130204745699956 ], [ 10.517459974413267, 47.130363183438114 ], [ 10.519238655970042, 47.130458419894552 ], [ 10.521022226168759, 47.130490194372662 ], [ 10.522805796367473, 47.130458419894552 ], [ 10.52458447792425, 47.130363183438114 ], [ 10.526353395596571, 47.130204745699956 ], [ 10.52810770090406, 47.129983540384572 ], [ 10.529842585417802, 47.129700173021668 ], [ 10.531553293939938, 47.129355419315083 ], [ 10.533235137537318, 47.128950223027346 ], [ 10.534883506393548, 47.128485693405942 ], [ 10.536493882444166, 47.127963102157871 ], [ 10.538061851760355, 47.127383879980812 ], [ 10.539583116647208, 47.126749612660241 ], [ 10.54105350742341, 47.126062036742759 ], [ 10.542468993850051, 47.125323034797667 ], [ 10.543825696177223, 47.124534630279143 ], [ 10.545119895778152, 47.123698982003063 ], [ 10.546348045341691, 47.122818378253378 ], [ 10.547506778595254, 47.121895230533895 ], [ 10.548592919531531, 47.120932066982199 ], [ 10.54960349111372, 47.119931525463798 ], [ 10.550535723435353, 47.118896346364878 ], [ 10.551387061312434, 47.117829365103297 ], [ 10.552155171287025, 47.116733504378182 ], [ 10.552837948023067, 47.115611766178887 ], [ 10.553433520076991, 47.114467223575339 ], [ 10.553940255027195, 47.113303012311739 ], [ 10.554356763948402, 47.112122322226732 ], [ 10.55468190521861, 47.110928388523213 ], [ 10.554914787648197, 47.109724482911709 ], [ 10.555054772922611, 47.108513904651339 ], [ 10.55510147735195, 47.107299971512951 ] ] ] } },
{ "type": "Feature", "properties": { "name": "Tobadill", "feature_type": "mrr", "metric_roundness": 76.72, "metric_rectangularity": 76.93, "metric_mobile_fit": 53.64, "metric_aspect_ratio": 1.026, "metric_area_km2": 34.67 }, "geometry": { "type": "Polygon", "coordinates": [ [ [ 10.530880536087304, 47.134180703295698 ], [ 10.557663463136914, 47.097024275446969 ], [ 10.503966118174901, 47.079089948264453 ], [ 10.477183191125294, 47.116258892613168 ], [ 10.530880536087304, 47.134180703295698 ] ] ] } }
]
}
