{
"type": "FeatureCollection",
"name": "tocina",
"crs": { "type": "name", "properties": { "name": "urn:ogc:def:crs:OGC:1.3:CRS84" } },
"features": [
{ "type": "Feature", "properties": { "name": "Tocina", "metric_roundness": 58.27, "metric_rectangularity": 76.05, "metric_mobile_fit": 67.15, "metric_aspect_ratio": 0.891, "metric_area_km2": 25.55 }, "geometry": { "type": "Polygon", "coordinates": [ [ [ -5.7037633, 37.5878258 ], [ -5.7070704, 37.5990822 ], [ -5.7145444, 37.6059045 ], [ -5.7119861, 37.6231009 ], [ -5.7165974, 37.630064499999975 ], [ -5.7304353, 37.630740099999983 ], [ -5.7405923, 37.6176834 ], [ -5.7512275, 37.6163465 ], [ -5.7552625, 37.605277 ], [ -5.750533, 37.584952 ], [ -5.7037633, 37.5878258 ] ] ] } }
]
}
