{
"type": "FeatureCollection",
"name": "tordas",
"crs": { "type": "name", "properties": { "name": "urn:ogc:def:crs:OGC:1.3:CRS84" } },
"features": [
{ "type": "Feature", "properties": { "name": "Tordas", "metric_roundness": 39.7, "metric_rectangularity": 73.02, "metric_mobile_fit": 5.19, "metric_aspect_ratio": 1.511, "metric_area_km2": 35.6 }, "geometry": { "type": "Polygon", "coordinates": [ [ [ 18.7167125, 47.343391 ], [ 18.7293905, 47.335283 ], [ 18.7361074, 47.3367988 ], [ 18.744406, 47.327645499999988 ], [ 18.7931718, 47.3503061 ], [ 18.8114925, 47.3537245 ], [ 18.7944805, 47.370156 ], [ 18.7794823, 47.368262099999981 ], [ 18.7625431, 47.3609557 ], [ 18.7342546, 47.3579183 ], [ 18.717087, 47.349619 ], [ 18.7167125, 47.343391 ] ] ] } }
]
}
