{
"type": "FeatureCollection",
"name": "tornac",
"crs": { "type": "name", "properties": { "name": "urn:ogc:def:crs:OGC:1.3:CRS84" } },
"features": [
{ "type": "Feature", "properties": { "name": "Tornac", "feature_type": "entity", "metric_roundness": 47.24, "metric_rectangularity": 56.79, "metric_mobile_fit": 40.72, "metric_aspect_ratio": 1.155, "metric_area_km2": 38.5 }, "geometry": { "type": "Polygon", "coordinates": [ [ [ 3.971585, 44.0105121 ], [ 3.9732955, 44.004357 ], [ 3.9707788, 43.9945671 ], [ 3.987303, 43.99097 ], [ 3.9893795, 43.993825 ], [ 3.9929665, 43.992960499999988 ], [ 4.0021185, 43.994584 ], [ 4.004648, 43.9958485 ], [ 4.0055415, 43.998721499999988 ], [ 4.0119505, 44.000611 ], [ 4.0084528, 44.018801899999985 ], [ 4.021079, 44.0345065 ], [ 4.0140975, 44.0369885 ], [ 4.010662, 44.03884 ], [ 3.9986321, 44.0388823 ], [ 3.9773295, 44.032862099999981 ], [ 3.9582057, 44.0391802 ], [ 3.9467075, 44.038156199999989 ], [ 3.9404565, 44.0411545 ], [ 3.9418702, 44.033860699999984 ], [ 3.9514851, 44.028988199999986 ], [ 3.9614574, 44.0158049 ], [ 3.961903, 44.0082665 ], [ 3.971585, 44.0105121 ] ] ] } },
{ "type": "Feature", "properties": { "name": "Tornac", "feature_type": "circle", "metric_roundness": 47.24, "metric_rectangularity": 56.79, "metric_mobile_fit": 40.72, "metric_aspect_ratio": 1.155, "metric_area_km2": 38.5 }, "geometry": { "type": "Polygon", "coordinates": [ [ [ 4.024119311740702, 44.022713571926019 ], [ 4.024056594717702, 44.020991339958854 ], [ 4.023868615551707, 44.019273778685502 ], [ 4.02355588948054, 44.017565596436363 ], [ 4.023119273664626, 44.015871476236661 ], [ 4.02255996483757, 44.014196062959371 ], [ 4.021879496025988, 44.012543950578554 ], [ 4.021079732347594, 44.010919669558113 ], [ 4.02016286589904, 44.009327674410564 ], [ 4.01913140974753, 44.007772331460565 ], [ 4.017988191042681, 44.006257906846642 ], [ 4.016736343267497, 44.004788554794544 ], [ 4.015379297649716, 44.003368306194787 ], [ 4.013920773757049, 44.002001057515876 ], [ 4.012364769302106, 44.000690560084223 ], [ 4.01071554918494, 43.999440409760432 ], [ 4.008977633803258, 43.998254037040866 ], [ 4.007155786662318, 43.997134697611848 ], [ 4.0052550013185, 43.996085463383174 ], [ 4.003280487692309, 43.995109214025689 ], [ 4.001237657788347, 43.994208629036784 ], [ 3.999132110861386, 43.993386180355841 ], [ 3.996969618069198, 43.992644125550612 ], [ 3.994756106654213, 43.991984501593208 ], [ 3.99249764369736, 43.991409119243507 ], [ 3.990200419488622, 43.99091955805558 ], [ 3.987870730559874, 43.990517162021128 ], [ 3.985514962426536, 43.990203035862308 ], [ 3.983139572085316, 43.989978041984209 ], [ 3.980751070316025, 43.989842798095673 ], [ 3.978356003835992, 43.989797675505038 ], [ 3.975960937355958, 43.989842798095673 ], [ 3.973572435586668, 43.989978041984209 ], [ 3.971197045245447, 43.990203035862308 ], [ 3.96884127711211, 43.990517162021128 ], [ 3.966511588183362, 43.99091955805558 ], [ 3.964214363974623, 43.991409119243507 ], [ 3.96195590101777, 43.991984501593208 ], [ 3.959742389602785, 43.992644125550612 ], [ 3.957579896810597, 43.993386180355841 ], [ 3.955474349883636, 43.994208629036784 ], [ 3.953431519979674, 43.995109214025689 ], [ 3.951457006353484, 43.996085463383174 ], [ 3.949556221009665, 43.997134697611848 ], [ 3.947734373868726, 43.998254037040866 ], [ 3.945996458487043, 43.999440409760432 ], [ 3.944347238369878, 44.000690560084223 ], [ 3.942791233914934, 44.002001057515876 ], [ 3.941332710022268, 44.003368306194787 ], [ 3.939975664404487, 44.004788554794544 ], [ 3.938723816629303, 44.006257906846642 ], [ 3.937580597924453, 44.007772331460565 ], [ 3.936549141772943, 44.009327674410564 ], [ 3.935632275324389, 44.010919669558113 ], [ 3.934832511645995, 44.012543950578554 ], [ 3.934152042834413, 44.014196062959371 ], [ 3.933592734007356, 44.015871476236661 ], [ 3.933156118191444, 44.017565596436363 ], [ 3.932843392120277, 44.019273778685502 ], [ 3.93265541295428, 44.020991339958854 ], [ 3.932592695931281, 44.022713571926019 ], [ 3.93265541295428, 44.024435753863266 ], [ 3.932843392120277, 44.026153165595019 ], [ 3.933156118191444, 44.02786110042927 ], [ 3.933592734007356, 44.029554878051535 ], [ 3.934152042834413, 44.031229857342183 ], [ 3.934832511645995, 44.032881449081998 ], [ 3.935632275324389, 44.034505128511363 ], [ 3.936549141772943, 44.036096447708879 ], [ 3.937580597924453, 44.037651047755766 ], [ 3.938723816629303, 44.039164670652902 ], [ 3.939975664404487, 44.040633170958309 ], [ 3.941332710022268, 44.042052527113384 ], [ 3.942791233914934, 44.043418852427436 ], [ 3.944347238369878, 44.044728405690627 ], [ 3.945996458487043, 44.045977601386873 ], [ 3.947734373868726, 44.047163019478916 ], [ 3.949556221009665, 44.048281414739506 ], [ 3.951457006353483, 44.049329725603378 ], [ 3.953431519979674, 44.050305082516246 ], [ 3.955474349883636, 44.051204815758553 ], [ 3.957579896810597, 44.0520264627228 ], [ 3.959742389602785, 44.052767774625018 ], [ 3.96195590101777, 44.053426722632508 ], [ 3.964214363974623, 44.05400150339122 ], [ 3.966511588183362, 44.05449054393825 ], [ 3.96884127711211, 44.054892505986153 ], [ 3.971197045245447, 44.055206289567607 ], [ 3.973572435586668, 44.055431036030875 ], [ 3.975960937355958, 44.055566130377834 ], [ 3.978356003835992, 44.055611202938564 ], [ 3.980751070316025, 44.055566130377834 ], [ 3.983139572085316, 44.055431036030875 ], [ 3.985514962426536, 44.055206289567607 ], [ 3.987870730559874, 44.054892505986153 ], [ 3.990200419488622, 44.05449054393825 ], [ 3.99249764369736, 44.05400150339122 ], [ 3.994756106654213, 44.053426722632508 ], [ 3.996969618069198, 44.052767774625018 ], [ 3.999132110861386, 44.0520264627228 ], [ 4.001237657788347, 44.051204815758553 ], [ 4.003280487692309, 44.050305082516246 ], [ 4.005255001318499, 44.049329725603378 ], [ 4.007155786662318, 44.048281414739506 ], [ 4.008977633803258, 44.047163019478916 ], [ 4.01071554918494, 44.045977601386873 ], [ 4.012364769302106, 44.044728405690627 ], [ 4.013920773757049, 44.043418852427436 ], [ 4.015379297649716, 44.042052527113384 ], [ 4.016736343267497, 44.040633170958309 ], [ 4.017988191042681, 44.039164670652902 ], [ 4.01913140974753, 44.037651047755766 ], [ 4.02016286589904, 44.036096447708879 ], [ 4.021079732347594, 44.034505128511363 ], [ 4.021879496025988, 44.032881449081998 ], [ 4.02255996483757, 44.031229857342183 ], [ 4.023119273664626, 44.029554878051535 ], [ 4.02355588948054, 44.02786110042927 ], [ 4.023868615551707, 44.026153165595019 ], [ 4.024056594717702, 44.024435753863266 ], [ 4.024119311740702, 44.022713571926019 ] ] ] } },
{ "type": "Feature", "properties": { "name": "Tornac", "feature_type": "mrr", "metric_roundness": 47.24, "metric_rectangularity": 56.79, "metric_mobile_fit": 40.72, "metric_aspect_ratio": 1.155, "metric_area_km2": 38.5 }, "geometry": { "type": "Polygon", "coordinates": [ [ [ 3.9404565, 44.0411545 ], [ 4.021333007109777, 44.038488196064684 ], [ 4.018237692453735, 43.989949308579526 ], [ 3.937361185136818, 43.992617796270636 ], [ 3.9404565, 44.0411545 ] ] ] } }
]
}
