{
"type": "FeatureCollection",
"name": "torralba_de_los_sisones",
"crs": { "type": "name", "properties": { "name": "urn:ogc:def:crs:OGC:1.3:CRS84" } },
"features": [
{ "type": "Feature", "properties": { "name": "Torralba de los Sisones", "metric_roundness": 37.79, "metric_rectangularity": 60.17, "metric_mobile_fit": 26.85, "metric_aspect_ratio": 1.294, "metric_area_km2": 78.35 }, "geometry": { "type": "Polygon", "coordinates": [ [ [ -1.5010375, 40.8657035 ], [ -1.4932475, 40.86388 ], [ -1.481552, 40.8616295 ], [ -1.470449, 40.8599855 ], [ -1.45883, 40.8560215 ], [ -1.448777, 40.851147 ], [ -1.443841, 40.8481515 ], [ -1.4391635, 40.8462065 ], [ -1.4441685, 40.851303 ], [ -1.444292, 40.8537255 ], [ -1.4436845, 40.859897499999988 ], [ -1.4393645, 40.8634415 ], [ -1.4336205, 40.869526 ], [ -1.427988, 40.872837 ], [ -1.4216515, 40.8773615 ], [ -1.409908, 40.884102 ], [ -1.400059, 40.888874 ], [ -1.3963085, 40.892273 ], [ -1.394688, 40.8940315 ], [ -1.394144, 40.897381 ], [ -1.3903285, 40.901481499999989 ], [ -1.384, 40.9063835 ], [ -1.373335, 40.91029 ], [ -1.3845075, 40.924034 ], [ -1.3873135, 40.9209745 ], [ -1.3946075, 40.9184305 ], [ -1.399446, 40.9171445 ], [ -1.416902, 40.914299 ], [ -1.4274785, 40.9149665 ], [ -1.441041, 40.918949 ], [ -1.4440815, 40.920433 ], [ -1.4513065, 40.9227635 ], [ -1.4534425, 40.922829 ], [ -1.4740024, 40.9072986 ], [ -1.4857594, 40.8931051 ], [ -1.490589, 40.8798854 ], [ -1.5024565, 40.873772099999989 ], [ -1.506543, 40.865188499999988 ], [ -1.5010375, 40.8657035 ] ] ] } }
]
}
