{
"type": "FeatureCollection",
"name": "torre_de_picenardi",
"crs": { "type": "name", "properties": { "name": "urn:ogc:def:crs:OGC:1.3:CRS84" } },
"features": [
{ "type": "Feature", "properties": { "name": "Torre de' Picenardi", "metric_roundness": 55.08, "metric_rectangularity": 68.01, "metric_mobile_fit": 80.02, "metric_aspect_ratio": 0.762, "metric_area_km2": 69.61 }, "geometry": { "type": "Polygon", "coordinates": [ [ [ 10.2661113, 45.1606381 ], [ 10.255715, 45.1538295 ], [ 10.2607447, 45.1518452 ], [ 10.2607818, 45.1456984 ], [ 10.2561582, 45.1384563 ], [ 10.2573379, 45.1337837 ], [ 10.2513985, 45.1252735 ], [ 10.2517314, 45.120410799999981 ], [ 10.2593877, 45.11765339999998 ], [ 10.2666593, 45.105323399999989 ], [ 10.274747, 45.1008455 ], [ 10.2809571, 45.1003172 ], [ 10.282185, 45.086720299999982 ], [ 10.2858248, 45.0901168 ], [ 10.297951, 45.089962 ], [ 10.3095155, 45.098876499999982 ], [ 10.3136967, 45.1119406 ], [ 10.320211, 45.116136 ], [ 10.3218242, 45.121470699999982 ], [ 10.3119848, 45.1295767 ], [ 10.319384, 45.131125 ], [ 10.3229024, 45.1384245 ], [ 10.3308792, 45.140202599999981 ], [ 10.333671, 45.155372 ], [ 10.2996141, 45.1611657 ], [ 10.2872245, 45.1583794 ], [ 10.2840855, 45.162867 ], [ 10.2661113, 45.1606381 ] ] ] } }
]
}
