{
"type": "FeatureCollection",
"name": "torvaj",
"crs": { "type": "name", "properties": { "name": "urn:ogc:def:crs:OGC:1.3:CRS84" } },
"features": [
{ "type": "Feature", "properties": { "name": "Torvaj", "metric_roundness": 59.63, "metric_rectangularity": 67.21, "metric_mobile_fit": 68.21, "metric_aspect_ratio": 0.88, "metric_area_km2": 24.38 }, "geometry": { "type": "Polygon", "coordinates": [ [ [ 18.0461768, 46.7450957 ], [ 18.067549, 46.753418 ], [ 18.0626725, 46.764678599999975 ], [ 18.0760911, 46.766139599999988 ], [ 18.0731821, 46.775460899999985 ], [ 18.0764538, 46.7797348 ], [ 18.0740075, 46.7848985 ], [ 18.073192, 46.784465499999989 ], [ 18.0573841, 46.7794825 ], [ 18.047277, 46.783693 ], [ 18.0323777, 46.780631599999985 ], [ 18.0318689, 46.774594199999989 ], [ 18.025298, 46.768435499999981 ], [ 18.029781, 46.7539665 ], [ 18.0461768, 46.7450957 ] ] ] } }
]
}
