{
"type": "FeatureCollection",
"name": "tox",
"crs": { "type": "name", "properties": { "name": "urn:ogc:def:crs:OGC:1.3:CRS84" } },
"features": [
{ "type": "Feature", "properties": { "name": "Tox", "metric_roundness": 43.83, "metric_rectangularity": 67.34, "metric_mobile_fit": 54.07, "metric_aspect_ratio": 1.022, "metric_area_km2": 26.66 }, "geometry": { "type": "Polygon", "coordinates": [ [ [ 9.4765316, 42.2232563 ], [ 9.4744354, 42.2316402 ], [ 9.4673894, 42.241722599999989 ], [ 9.4552017, 42.248757399999981 ], [ 9.44392, 42.269674 ], [ 9.4414205, 42.266895 ], [ 9.436253, 42.264728 ], [ 9.431545, 42.2640265 ], [ 9.42634, 42.2620415 ], [ 9.416641, 42.260701 ], [ 9.411555, 42.2565905 ], [ 9.409642, 42.254132 ], [ 9.4109145, 42.2492245 ], [ 9.4487664, 42.2218902 ], [ 9.4625853, 42.2274682 ], [ 9.472809, 42.221216 ], [ 9.4765316, 42.2232563 ] ] ] } }
]
}
