{
"type": "FeatureCollection",
"name": "diosti",
"crs": { "type": "name", "properties": { "name": "urn:ogc:def:crs:OGC:1.3:CRS84" } },
"features": [
{ "type": "Feature", "properties": { "name": "Dioşti", "feature_type": "entity", "metric_roundness": 53.85, "metric_rectangularity": 73.26, "metric_mobile_fit": 92.29, "metric_aspect_ratio": 0.64, "metric_area_km2": 123.04 }, "geometry": { "type": "Polygon", "coordinates": [ [ [ 24.1379355, 44.1265765 ], [ 24.140129, 44.126937 ], [ 24.137129, 44.1198535 ], [ 24.152636, 44.116658 ], [ 24.144322, 44.0961755 ], [ 24.159359, 44.093341 ], [ 24.1843785, 44.089409 ], [ 24.1826015, 44.08519 ], [ 24.185038, 44.084708 ], [ 24.1798575, 44.0716825 ], [ 24.1822675, 44.071296499999981 ], [ 24.181231, 44.0686 ], [ 24.221999, 44.0701252 ], [ 24.2260068, 44.0863787 ], [ 24.227283, 44.109406 ], [ 24.2215103, 44.110670399999982 ], [ 24.2224968, 44.1200365 ], [ 24.2157558, 44.1243252 ], [ 24.2292845, 44.16953849999998 ], [ 24.2188015, 44.171016 ], [ 24.2077304, 44.1698753 ], [ 24.1741118, 44.173995499999982 ], [ 24.1675308, 44.1649076 ], [ 24.1478689, 44.165494699999989 ], [ 24.144042, 44.1591555 ], [ 24.135379, 44.1266025 ], [ 24.1379355, 44.1265765 ] ] ] } },
{ "type": "Feature", "properties": { "name": "Dioşti", "feature_type": "circle", "metric_roundness": 53.85, "metric_rectangularity": 73.26, "metric_mobile_fit": 92.29, "metric_aspect_ratio": 0.64, "metric_area_km2": 123.04 }, "geometry": { "type": "Polygon", "coordinates": [ [ [ 24.269687470265609, 44.121083399644853 ], [ 24.269582451214841, 44.118204299873852 ], [ 24.26926768191246, 44.115332951796532 ], [ 24.26874402511924, 44.112477227301326 ], [ 24.268012916142055, 44.109644956580901 ], [ 24.267076358899793, 44.106843906638886 ], [ 24.265936920430757, 44.104081759957793 ], [ 24.264597723856586, 44.101366093387099 ], [ 24.263062439822004, 44.098704357309934 ], [ 24.261335276433837, 44.096103855146161 ], [ 24.259420967726868, 44.093571723248871 ], [ 24.257324760688217, 44.091114911250422 ], [ 24.255052400875659, 44.088740162912785 ], [ 24.252610116669491, 44.086453997535834 ], [ 24.250004602200971, 44.084262691975809 ], [ 24.24724299900414, 44.082172263324388 ], [ 24.244332876441405, 44.080188452297044 ], [ 24.241282210956435, 44.078316707377688 ], [ 24.238099364211273, 44.076562169764351 ], [ 24.234793060167608, 44.074929659158286 ], [ 24.231372361175005, 44.073423660437008 ], [ 24.227846643131638, 44.07204831124897 ], [ 24.224225569785592, 44.070807390565051 ], [ 24.220519066247213, 44.069704308219485 ], [ 24.216737291785059, 44.068742095469993 ], [ 24.212890611980061, 44.067923396604066 ], [ 24.208989570314191, 44.067250461615167 ], [ 24.205044859271499, 44.06672513997006 ], [ 24.20106729103075, 44.066348875484678 ], [ 24.197067767830024, 44.066122702323561 ], [ 24.193057252084404, 44.066047242134061 ], [ 24.189046736338785, 44.066122702323561 ], [ 24.185047213138059, 44.066348875484678 ], [ 24.18106964489731, 44.06672513997006 ], [ 24.177124933854614, 44.067250461615167 ], [ 24.173223892188751, 44.067923396604066 ], [ 24.16937721238375, 44.068742095469993 ], [ 24.165595437921596, 44.069704308219485 ], [ 24.161888934383217, 44.070807390565051 ], [ 24.158267861037171, 44.07204831124897 ], [ 24.154742142993804, 44.073423660437008 ], [ 24.151321444001205, 44.074929659158286 ], [ 24.14801513995754, 44.076562169764351 ], [ 24.144832293212374, 44.078316707377688 ], [ 24.141781627727408, 44.080188452297044 ], [ 24.138871505164669, 44.082172263324388 ], [ 24.136109901967838, 44.084262691975809 ], [ 24.133504387499318, 44.086453997535834 ], [ 24.13106210329315, 44.088740162912785 ], [ 24.128789743480592, 44.091114911250422 ], [ 24.126693536441937, 44.093571723248871 ], [ 24.12477922773498, 44.096103855146161 ], [ 24.123052064346805, 44.098704357309934 ], [ 24.121516780312223, 44.101366093387099 ], [ 24.120177583738052, 44.104081759957793 ], [ 24.119038145269016, 44.106843906638886 ], [ 24.118101588026754, 44.109644956580901 ], [ 24.117370479049566, 44.112477227301326 ], [ 24.116846822256353, 44.115332951796532 ], [ 24.116532052953971, 44.118204299873852 ], [ 24.116427033903204, 44.121083399644853 ], [ 24.116532052953971, 44.123962359120455 ], [ 24.116846822256353, 44.126833287848726 ], [ 24.117370479049566, 44.129688318535685 ], [ 24.118101588026754, 44.132519628590174 ], [ 24.119038145269016, 44.135319461533847 ], [ 24.120177583738052, 44.138080148217895 ], [ 24.121516780312223, 44.140794127788872 ], [ 24.123052064346805, 44.14345396834679 ], [ 24.124779227734976, 44.146052387239521 ], [ 24.126693536441937, 44.148582270938704 ], [ 24.128789743480592, 44.151036694443746 ], [ 24.13106210329315, 44.153408940161533 ], [ 24.133504387499318, 44.155692516211417 ], [ 24.136109901967838, 44.15788117410635 ], [ 24.138871505164669, 44.15996892576306 ], [ 24.141781627727408, 44.161950059795778 ], [ 24.144832293212374, 44.163819157050298 ], [ 24.14801513995754, 44.165571105336973 ], [ 24.151321444001205, 44.167201113323749 ], [ 24.154742142993804, 44.168704723552302 ], [ 24.158267861037171, 44.170077824543007 ], [ 24.161888934383217, 44.171316661956681 ], [ 24.165595437921596, 44.172417848783844 ], [ 24.16937721238375, 44.173378374534437 ], [ 24.173223892188751, 44.174195613404088 ], [ 24.177124933854614, 44.174867331395305 ], [ 24.18106964489731, 44.175391692375051 ], [ 24.185047213138059, 44.175767263052599 ], [ 24.189046736338785, 44.175993016864915 ], [ 24.193057252084404, 44.176068336759101 ], [ 24.197067767830024, 44.175993016864915 ], [ 24.20106729103075, 44.175767263052599 ], [ 24.205044859271496, 44.175391692375051 ], [ 24.208989570314191, 44.174867331395305 ], [ 24.212890611980061, 44.174195613404088 ], [ 24.216737291785059, 44.173378374534437 ], [ 24.22051906624721, 44.172417848783844 ], [ 24.224225569785592, 44.171316661956681 ], [ 24.227846643131638, 44.170077824543007 ], [ 24.231372361175005, 44.168704723552302 ], [ 24.234793060167608, 44.167201113323749 ], [ 24.238099364211273, 44.165571105336973 ], [ 24.241282210956435, 44.163819157050298 ], [ 24.244332876441405, 44.161950059795778 ], [ 24.24724299900414, 44.15996892576306 ], [ 24.250004602200971, 44.15788117410635 ], [ 24.252610116669491, 44.155692516211417 ], [ 24.255052400875659, 44.153408940161533 ], [ 24.257324760688217, 44.151036694443746 ], [ 24.259420967726868, 44.148582270938704 ], [ 24.261335276433833, 44.146052387239521 ], [ 24.263062439822004, 44.14345396834679 ], [ 24.264597723856586, 44.140794127788872 ], [ 24.265936920430757, 44.138080148217895 ], [ 24.267076358899793, 44.135319461533847 ], [ 24.268012916142055, 44.132519628590174 ], [ 24.26874402511924, 44.129688318535685 ], [ 24.26926768191246, 44.126833287848726 ], [ 24.269582451214841, 44.123962359120455 ], [ 24.269687470265609, 44.121083399644853 ] ] ] } },
{ "type": "Feature", "properties": { "name": "Dioşti", "feature_type": "mrr", "metric_roundness": 53.85, "metric_rectangularity": 73.26, "metric_mobile_fit": 92.29, "metric_aspect_ratio": 0.64, "metric_area_km2": 123.04 }, "geometry": { "type": "Polygon", "coordinates": [ [ [ 24.229401391467359, 44.173048256706167 ], [ 24.225900458190786, 44.067833339340602 ], [ 24.133477018344319, 44.069419584299744 ], [ 24.136977951620889, 44.174631679329146 ], [ 24.229401391467359, 44.173048256706167 ] ] ] } }
]
}
