{
"type": "FeatureCollection",
"name": "avilly_saint_leonard",
"crs": { "type": "name", "properties": { "name": "urn:ogc:def:crs:OGC:1.3:CRS84" } },
"features": [
{ "type": "Feature", "properties": { "name": "Avilly-Saint-Léonard", "feature_type": "entity", "metric_roundness": 57.65, "metric_rectangularity": 74.4, "metric_mobile_fit": 15.82, "metric_aspect_ratio": 1.404, "metric_area_km2": 27.6 }, "geometry": { "type": "Polygon", "coordinates": [ [ [ 2.538952, 49.168969 ], [ 2.552746, 49.1742905 ], [ 2.5569885, 49.1858825 ], [ 2.560221, 49.188348 ], [ 2.5602841, 49.194844899999985 ], [ 2.5558785, 49.198697 ], [ 2.5539995, 49.1965156 ], [ 2.5276082, 49.194206799999989 ], [ 2.5244455, 49.196414 ], [ 2.500968, 49.194517 ], [ 2.4968451, 49.185143099999983 ], [ 2.4928776, 49.182481 ], [ 2.5066625, 49.1686628 ], [ 2.5105596, 49.167323 ], [ 2.5260015, 49.1724045 ], [ 2.538952, 49.168969 ] ] ] } },
{ "type": "Feature", "properties": { "name": "Avilly-Saint-Léonard", "feature_type": "circle", "metric_roundness": 57.65, "metric_rectangularity": 74.4, "metric_mobile_fit": 15.82, "metric_aspect_ratio": 1.404, "metric_area_km2": 27.6 }, "geometry": { "type": "Polygon", "coordinates": [ [ [ 2.56226036844428, 49.187258911621626 ], [ 2.562212297378441, 49.186059064709617 ], [ 2.562068215940374, 49.184862477518578 ], [ 2.561828519047285, 49.183672430167888 ], [ 2.561493863691699, 49.182492185085493 ], [ 2.561065167140682, 49.181324978059315 ], [ 2.560543604421683, 49.180174009359284 ], [ 2.559930605101861, 49.179042434954205 ], [ 2.559227849369743, 49.177933357847877 ], [ 2.558437263429941, 49.176849819558235 ], [ 2.557561014223566, 49.175794791763018 ], [ 2.556601503488784, 49.174771168135258 ], [ 2.555561361177823, 49.173781756390852 ], [ 2.55444343824846, 49.172829270570567 ], [ 2.553250798849736, 49.171916323577662 ], [ 2.551986711923346, 49.171045419991941 ], [ 2.55065464224369, 49.17021894918016 ], [ 2.549258240921166, 49.169439178721952 ], [ 2.547801335394739, 49.168708248169565 ], [ 2.546287918941187, 49.168028163158759 ], [ 2.544722139729814, 49.167400789887346 ], [ 2.543108289452602, 49.166827849976727 ], [ 2.541450791560983, 49.166310915730712 ], [ 2.539754189141467, 49.165851405804993 ], [ 2.538023132463357, 49.165450581299218 ], [ 2.536262366232683, 49.165109542282764 ], [ 2.534476716587294, 49.164829224763722 ], [ 2.532671077868749, 49.16461039810978 ], [ 2.530850399207267, 49.164453662928025 ], [ 2.529019670956506, 49.164359449409808 ], [ 2.527183911015348, 49.164328016145092 ], [ 2.525348151074189, 49.164359449409808 ], [ 2.523517422823428, 49.164453662928025 ], [ 2.521696744161946, 49.16461039810978 ], [ 2.519891105443401, 49.164829224763722 ], [ 2.518105455798012, 49.165109542282764 ], [ 2.516344689567338, 49.165450581299218 ], [ 2.514613632889228, 49.165851405804993 ], [ 2.512917030469712, 49.166310915730712 ], [ 2.511259532578094, 49.166827849976727 ], [ 2.509645682300881, 49.167400789887346 ], [ 2.508079903089508, 49.168028163158759 ], [ 2.506566486635956, 49.168708248169565 ], [ 2.505109581109528, 49.169439178721952 ], [ 2.503713179787006, 49.17021894918016 ], [ 2.502381110107348, 49.171045419991941 ], [ 2.501117023180958, 49.171916323577662 ], [ 2.499924383782235, 49.172829270570567 ], [ 2.498806460852872, 49.173781756390852 ], [ 2.497766318541911, 49.174771168135258 ], [ 2.496806807807129, 49.175794791763018 ], [ 2.495930558600754, 49.176849819558235 ], [ 2.495139972660952, 49.177933357847877 ], [ 2.494437216928834, 49.179042434954205 ], [ 2.493824217609012, 49.180174009359284 ], [ 2.493302654890012, 49.181324978059315 ], [ 2.492873958338996, 49.182492185085493 ], [ 2.492539302983409, 49.183672430167888 ], [ 2.492299606090321, 49.184862477518578 ], [ 2.492155524652254, 49.186059064709617 ], [ 2.492107453586415, 49.187258911621626 ], [ 2.492155524652254, 49.188458729438302 ], [ 2.492299606090321, 49.189655229662073 ], [ 2.492539302983409, 49.190845133126416 ], [ 2.492873958338996, 49.192025178979861 ], [ 2.493302654890012, 49.193192133617224 ], [ 2.493824217609012, 49.194342799533828 ], [ 2.494437216928834, 49.195474024078237 ], [ 2.495139972660952, 49.196582708079788 ], [ 2.495930558600754, 49.197665814327486 ], [ 2.496806807807128, 49.19872037587713 ], [ 2.497766318541911, 49.199743504163983 ], [ 2.498806460852872, 49.200732396899184 ], [ 2.499924383782235, 49.201684345728381 ], [ 2.501117023180958, 49.202596743631659 ], [ 2.502381110107348, 49.203467092045173 ], [ 2.503713179787006, 49.204293007684754 ], [ 2.505109581109528, 49.205072229053343 ], [ 2.506566486635956, 49.205802622614641 ], [ 2.508079903089508, 49.206482188616278 ], [ 2.509645682300881, 49.207109066546806 ], [ 2.511259532578094, 49.207681540211873 ], [ 2.512917030469712, 49.208198042415972 ], [ 2.514613632889227, 49.208657159236935 ], [ 2.516344689567338, 49.209057633882068 ], [ 2.518105455798012, 49.209398370115132 ], [ 2.519891105443401, 49.209678435245372 ], [ 2.521696744161946, 49.209897062670372 ], [ 2.523517422823428, 49.210053653965808 ], [ 2.525348151074189, 49.210147780516778 ], [ 2.527183911015348, 49.210179184686147 ], [ 2.529019670956506, 49.210147780516778 ], [ 2.530850399207267, 49.210053653965808 ], [ 2.532671077868749, 49.209897062670372 ], [ 2.534476716587294, 49.209678435245372 ], [ 2.536262366232683, 49.209398370115132 ], [ 2.538023132463357, 49.209057633882068 ], [ 2.539754189141467, 49.208657159236935 ], [ 2.541450791560983, 49.208198042415972 ], [ 2.543108289452602, 49.207681540211873 ], [ 2.544722139729814, 49.207109066546806 ], [ 2.546287918941187, 49.206482188616278 ], [ 2.547801335394739, 49.205802622614641 ], [ 2.549258240921166, 49.205072229053343 ], [ 2.55065464224369, 49.204293007684754 ], [ 2.551986711923346, 49.203467092045173 ], [ 2.553250798849736, 49.202596743631659 ], [ 2.55444343824846, 49.201684345728381 ], [ 2.555561361177823, 49.200732396899184 ], [ 2.556601503488783, 49.199743504163983 ], [ 2.557561014223566, 49.19872037587713 ], [ 2.558437263429941, 49.197665814327486 ], [ 2.559227849369743, 49.196582708079788 ], [ 2.559930605101861, 49.195474024078237 ], [ 2.560543604421683, 49.194342799533828 ], [ 2.561065167140682, 49.193192133617224 ], [ 2.561493863691699, 49.192025178979861 ], [ 2.561828519047285, 49.190845133126416 ], [ 2.562068215940374, 49.189655229662073 ], [ 2.562212297378441, 49.188458729438302 ], [ 2.56226036844428, 49.187258911621626 ] ] ] } },
{ "type": "Feature", "properties": { "name": "Avilly-Saint-Léonard", "feature_type": "mrr", "metric_roundness": 57.65, "metric_rectangularity": 74.4, "metric_mobile_fit": 15.82, "metric_aspect_ratio": 1.404, "metric_area_km2": 27.6 }, "geometry": { "type": "Polygon", "coordinates": [ [ [ 2.490922208301689, 49.193979064501441 ], [ 2.559583122926273, 49.198966062240686 ], [ 2.564370054164313, 49.170816162654297 ], [ 2.49570913953973, 49.165826327196569 ], [ 2.490922208301689, 49.193979064501441 ] ] ] } }
]
}
