{
"type": "FeatureCollection",
"name": "avolsheim",
"crs": { "type": "name", "properties": { "name": "urn:ogc:def:crs:OGC:1.3:CRS84" } },
"features": [
{ "type": "Feature", "properties": { "name": "Avolsheim", "metric_roundness": 32.2, "metric_rectangularity": 57.06, "metric_mobile_fit": -40.91, "metric_aspect_ratio": 1.972, "metric_area_km2": 4.06 }, "geometry": { "type": "Polygon", "coordinates": [ [ [ 7.476453, 48.555339499999988 ], [ 7.48165, 48.55506 ], [ 7.4839325, 48.5553565 ], [ 7.488311, 48.5570935 ], [ 7.4941505, 48.557686 ], [ 7.503699, 48.5568005 ], [ 7.509624, 48.5619905 ], [ 7.4953685, 48.5668305 ], [ 7.4865795, 48.5640245 ], [ 7.482784, 48.5607755 ], [ 7.478261, 48.55909 ], [ 7.474559, 48.556638 ], [ 7.476453, 48.555339499999988 ] ] ] } }
]
}
