{
"type": "FeatureCollection",
"name": "avrille",
"crs": { "type": "name", "properties": { "name": "urn:ogc:def:crs:OGC:1.3:CRS84" } },
"features": [
{ "type": "Feature", "properties": { "name": "Avrillé", "feature_type": "entity", "metric_roundness": 58.08, "metric_rectangularity": 72.64, "metric_mobile_fit": 46.65, "metric_aspect_ratio": 1.096, "metric_area_km2": 35.45 }, "geometry": { "type": "Polygon", "coordinates": [ [ [ -0.5931495, 47.523408 ], [ -0.633163, 47.5228221 ], [ -0.6346489, 47.5171468 ], [ -0.6315377, 47.5145878 ], [ -0.630913, 47.504097099999989 ], [ -0.6263544, 47.500764599999982 ], [ -0.6277095, 47.498541 ], [ -0.6096395, 47.488831 ], [ -0.5978579, 47.4836265 ], [ -0.5823291, 47.481926499999986 ], [ -0.573683, 47.502907099999987 ], [ -0.5673521, 47.506665 ], [ -0.5693825, 47.514015 ], [ -0.5931495, 47.523408 ] ] ] } },
{ "type": "Feature", "properties": { "name": "Avrillé", "feature_type": "circle", "metric_roundness": 58.08, "metric_rectangularity": 72.64, "metric_mobile_fit": 46.65, "metric_aspect_ratio": 1.096, "metric_area_km2": 35.45 }, "geometry": { "type": "Polygon", "coordinates": [ [ [ -0.566186403461639, 47.503486270736936 ], [ -0.566240682788292, 47.502085952041774 ], [ -0.566403371992388, 47.500689434323547 ], [ -0.566674025154129, 47.499300545798704 ], [ -0.567051900432009, 47.497923094072789 ], [ -0.567535962096159, 47.496560855695705 ], [ -0.568124883367204, 47.495217565798953 ], [ -0.568817050052875, 47.493896907843386 ], [ -0.569610564972398, 47.492602503505516 ], [ -0.570503253156537, 47.491337902730585 ], [ -0.571492667809027, 47.490106573979702 ], [ -0.572576097013081, 47.488911894698077 ], [ -0.573750571164557, 47.487757142030695 ], [ -0.575012871111444, 47.48664548381133 ], [ -0.576359536977328, 47.485579969849695 ], [ -0.577786877644677, 47.484563523541162 ], [ -0.579290980871934, 47.48359893382213 ], [ -0.580867724016703, 47.482688847493726 ], [ -0.582512785335622, 47.48183576193501 ], [ -0.584221655829963, 47.48104201822612 ], [ -0.585989651604482, 47.480309794700467 ], [ -0.587811926705654, 47.479641100944107 ], [ -0.589683486404091, 47.479037772258998 ], [ -0.59159920088475, 47.478501464605628 ], [ -0.5935538193074, 47.478033650039109 ], [ -0.595541984198807, 47.477635612651738 ], [ -0.597558246137201, 47.477308445033138 ], [ -0.599597078688756, 47.47705304525806 ], [ -0.601652893555166, 47.476870114410225 ], [ -0.603720055890781, 47.476760154649206 ], [ -0.605792899747325, 47.476723467825714 ], [ -0.607865743603869, 47.476760154649206 ], [ -0.609932905939484, 47.476870114410225 ], [ -0.611988720805894, 47.47705304525806 ], [ -0.614027553357449, 47.477308445033138 ], [ -0.616043815295843, 47.477635612651738 ], [ -0.61803198018725, 47.478033650039109 ], [ -0.6199865986099, 47.478501464605628 ], [ -0.621902313090559, 47.479037772258998 ], [ -0.623773872788996, 47.479641100944107 ], [ -0.625596147890168, 47.480309794700467 ], [ -0.627364143664687, 47.48104201822612 ], [ -0.629073014159028, 47.48183576193501 ], [ -0.630718075477947, 47.482688847493726 ], [ -0.632294818622716, 47.48359893382213 ], [ -0.633798921849973, 47.484563523541162 ], [ -0.635226262517322, 47.485579969849695 ], [ -0.636572928383206, 47.48664548381133 ], [ -0.637835228330093, 47.487757142030695 ], [ -0.639009702481569, 47.488911894698077 ], [ -0.640093131685623, 47.490106573979702 ], [ -0.641082546338113, 47.491337902730585 ], [ -0.641975234522252, 47.492602503505516 ], [ -0.642768749441775, 47.493896907843386 ], [ -0.643460916127446, 47.495217565798953 ], [ -0.644049837398491, 47.496560855695705 ], [ -0.644533899062641, 47.497923094072789 ], [ -0.644911774340521, 47.499300545798704 ], [ -0.645182427502262, 47.500689434323547 ], [ -0.645345116706358, 47.502085952041774 ], [ -0.645399396033011, 47.503486270736936 ], [ -0.645345116706358, 47.504886552079562 ], [ -0.645182427502262, 47.506282958149406 ], [ -0.644911774340521, 47.507671661953275 ], [ -0.644533899062641, 47.509048857909463 ], [ -0.644049837398491, 47.510410772270333 ], [ -0.643460916127446, 47.511753673454365 ], [ -0.642768749441775, 47.51307388225954 ], [ -0.641975234522252, 47.514367781930332 ], [ -0.641082546338113, 47.515631828050722 ], [ -0.640093131685623, 47.516862558236532 ], [ -0.639009702481569, 47.518056601600549 ], [ -0.637835228330093, 47.519210687965028 ], [ -0.636572928383206, 47.520321656796362 ], [ -0.635226262517322, 47.521386465837899 ], [ -0.633798921849973, 47.522402199417556 ], [ -0.632294818622716, 47.523366076407704 ], [ -0.630718075477947, 47.524275457816039 ], [ -0.629073014159028, 47.525127853986731 ], [ -0.627364143664687, 47.525920931392761 ], [ -0.625596147890168, 47.526652519000848 ], [ -0.623773872788996, 47.52732061419217 ], [ -0.621902313090559, 47.527923388222796 ], [ -0.6199865986099, 47.528459191209137 ], [ -0.61803198018725, 47.528926556625315 ], [ -0.616043815295843, 47.529324205300021 ], [ -0.614027553357449, 47.529651048902444 ], [ -0.611988720805894, 47.529906192907816 ], [ -0.609932905939484, 47.530088939034698 ], [ -0.607865743603869, 47.530198787147356 ], [ -0.605792899747325, 47.53023543661832 ], [ -0.603720055890781, 47.530198787147356 ], [ -0.601652893555166, 47.530088939034698 ], [ -0.599597078688756, 47.529906192907816 ], [ -0.597558246137201, 47.529651048902444 ], [ -0.595541984198807, 47.529324205300021 ], [ -0.5935538193074, 47.528926556625315 ], [ -0.59159920088475, 47.528459191209137 ], [ -0.589683486404091, 47.527923388222796 ], [ -0.587811926705654, 47.52732061419217 ], [ -0.585989651604482, 47.526652519000848 ], [ -0.584221655829963, 47.525920931392761 ], [ -0.582512785335622, 47.525127853986731 ], [ -0.580867724016703, 47.524275457816039 ], [ -0.579290980871934, 47.523366076407704 ], [ -0.577786877644677, 47.522402199417556 ], [ -0.576359536977328, 47.521386465837899 ], [ -0.575012871111444, 47.520321656796362 ], [ -0.573750571164557, 47.519210687965028 ], [ -0.572576097013081, 47.518056601600549 ], [ -0.571492667809027, 47.516862558236532 ], [ -0.570503253156537, 47.515631828050722 ], [ -0.569610564972398, 47.514367781930332 ], [ -0.568817050052875, 47.51307388225954 ], [ -0.568124883367204, 47.511753673454365 ], [ -0.567535962096159, 47.510410772270333 ], [ -0.567051900432009, 47.509048857909463 ], [ -0.566674025154129, 47.507671661953275 ], [ -0.566403371992388, 47.506282958149406 ], [ -0.566240682788292, 47.504886552079562 ], [ -0.566186403461639, 47.503486270736936 ] ] ] } },
{ "type": "Feature", "properties": { "name": "Avrillé", "feature_type": "mrr", "metric_roundness": 58.08, "metric_rectangularity": 72.64, "metric_mobile_fit": 46.65, "metric_aspect_ratio": 1.096, "metric_area_km2": 35.45 }, "geometry": { "type": "Polygon", "coordinates": [ [ [ -0.562363052966206, 47.514903155404546 ], [ -0.583673541798939, 47.479705231229012 ], [ -0.648433865544185, 47.497605854646963 ], [ -0.627123376711451, 47.532791781462734 ], [ -0.562363052966206, 47.514903155404546 ] ] ] } }
]
}
