{
"type": "FeatureCollection",
"name": "rindal",
"crs": { "type": "name", "properties": { "name": "urn:ogc:def:crs:OGC:1.3:CRS84" } },
"features": [
{ "type": "Feature", "properties": { "name": "Rindal", "feature_type": "entity", "metric_roundness": 37.11, "metric_rectangularity": 52.1, "metric_mobile_fit": 89.07, "metric_aspect_ratio": 0.672, "metric_area_km2": 3060.9 }, "geometry": { "type": "Polygon", "coordinates": [ [ [ 8.9910662, 63.103122499999984 ], [ 8.9622715, 63.091752899999982 ], [ 8.9735511, 63.0747411 ], [ 9.0120996, 63.0742878 ], [ 9.0496325, 63.088156299999987 ], [ 9.0804155, 63.0892766 ], [ 9.1009449, 63.0506632 ], [ 9.1105311, 63.0415746 ], [ 9.1061325, 63.0347617 ], [ 9.1072316, 63.0296168 ], [ 9.138277, 63.0160208 ], [ 9.1525429, 63.015645 ], [ 9.151369, 63.010217799999985 ], [ 9.1432528, 63.0036847 ], [ 9.1438006, 63.0000486 ], [ 9.1515155, 62.9958648 ], [ 9.1742373, 62.9915308 ], [ 9.1688776, 62.9856438 ], [ 9.1460065, 62.99061709999998 ], [ 9.1148456, 62.9733001 ], [ 9.1145319, 62.9628322 ], [ 9.1223775, 62.957704 ], [ 9.1192033, 62.953634 ], [ 9.1253432, 62.934738099999983 ], [ 9.1383671, 62.927624699999981 ], [ 9.1748732, 62.9183076 ], [ 9.2063694, 62.9248888 ], [ 9.2644058, 62.92525689999998 ], [ 9.3012931, 62.908286399999987 ], [ 9.3097869, 62.893150399999982 ], [ 9.2987958, 62.887630499999986 ], [ 9.2897853, 62.877825799999989 ], [ 9.3279962, 62.8614378 ], [ 9.3247512, 62.8469564 ], [ 9.3240639, 62.8188312 ], [ 9.3268594, 62.806280199999982 ], [ 9.3333851, 62.79985689999998 ], [ 9.3648315, 62.7941065 ], [ 9.4215665, 62.81605 ], [ 9.4318924, 62.8241101 ], [ 9.462212, 62.848664299999989 ], [ 9.450261, 62.8904315 ], [ 9.4485145, 62.8946465 ], [ 9.447368, 62.8986105 ], [ 9.4318924, 62.9176459 ], [ 9.424142, 62.927179 ], [ 9.42994, 62.954142499999982 ], [ 9.4318924, 62.954981799999985 ], [ 9.4780019, 62.974970099999979 ], [ 9.4864894, 62.9820691 ], [ 9.4834879, 62.98496669999998 ], [ 9.4915421, 62.994185199999983 ], [ 9.5805917, 63.01026359999998 ], [ 9.5779155, 63.012980899999981 ], [ 9.5641008, 63.0154012 ], [ 9.4930952, 63.0144041 ], [ 9.4888053, 63.0222163 ], [ 9.4726083, 63.02735509999998 ], [ 9.4755228, 63.0389735 ], [ 9.4492819, 63.040857699999989 ], [ 9.4333768, 63.0479737 ], [ 9.4340862, 63.0573791 ], [ 9.4475913, 63.0615708 ], [ 9.4462043, 63.0803079 ], [ 9.4401182, 63.098072 ], [ 9.4511969, 63.115296 ], [ 9.4589387, 63.1211532 ], [ 9.4581432, 63.128228499999985 ], [ 9.4625651, 63.1314612 ], [ 9.4587411, 63.1360275 ], [ 9.4629998, 63.14229 ], [ 9.4543099, 63.147575299999986 ], [ 9.4491016, 63.162791899999988 ], [ 9.4660427, 63.1706736 ], [ 9.4683081, 63.176710799999988 ], [ 9.4657426, 63.1796401 ], [ 9.4375498, 63.183275 ], [ 9.4112203, 63.1832559 ], [ 9.3782264, 63.188368499999989 ], [ 9.3656174, 63.200709299999986 ], [ 9.361128, 63.2118955 ], [ 9.3350888, 63.207763899999989 ], [ 9.2955338, 63.1957191 ], [ 9.2539777, 63.199868499999987 ], [ 9.2456689, 63.2060879 ], [ 9.2284167, 63.2045765 ], [ 9.2039149, 63.1967135 ], [ 9.1919032, 63.1860945 ], [ 9.1449364, 63.173004699999979 ], [ 9.1539993, 63.164544 ], [ 9.1824165, 63.148058299999988 ], [ 9.1856942, 63.141341 ], [ 9.1846739, 63.1362781 ], [ 9.1437889, 63.127723 ], [ 9.1188024, 63.129752499999981 ], [ 9.0963144, 63.1356297 ], [ 9.0592609, 63.136462499999986 ], [ 9.0550292, 63.1352424 ], [ 9.0571921, 63.13121 ], [ 9.0494567, 63.129522499999986 ], [ 9.0474779, 63.123108499999979 ], [ 9.0400568, 63.122083699999983 ], [ 9.0206075, 63.1297718 ], [ 8.9845435, 63.115735 ], [ 8.9910662, 63.103122499999984 ] ] ] } },
{ "type": "Feature", "properties": { "name": "Rindal", "feature_type": "circle", "metric_roundness": 37.11, "metric_rectangularity": 52.1, "metric_mobile_fit": 89.07, "metric_aspect_ratio": 0.672, "metric_area_km2": 3060.9 }, "geometry": { "type": "Polygon", "coordinates": [ [ [ 9.810459805745415, 63.00372493548776 ], [ 9.80982888456075, 62.992785876640809 ], [ 9.807937850317861, 62.981872718634385 ], [ 9.804791886210168, 62.971015422888463 ], [ 9.800399615106615, 62.960243830694658 ], [ 9.794773075916995, 62.949587580537042 ], [ 9.787927690594131, 62.939076025615996 ], [ 9.779882221863373, 62.928738151814557 ], [ 9.770658721795282, 62.918602496348939 ], [ 9.760282471362425, 62.90869706734685 ], [ 9.748781911145995, 62.899049264598013 ], [ 9.736188563382154, 62.88968580172105 ], [ 9.722536945561762, 62.880632629990096 ], [ 9.707864475820358, 62.87191486406202 ], [ 9.692211370377631, 62.863556709842449 ], [ 9.675620533307569, 62.855581394724474 ], [ 9.65813743894136, 62.848011100428792 ], [ 9.63981000722543, 62.840866898667883 ], [ 9.620688472376189, 62.834168689849555 ], [ 9.600825245191535, 62.827935145026871 ], [ 9.580274769396505, 62.822183651292455 ], [ 9.559093372416811, 62.816930260804689 ], [ 9.537339110989269, 62.812189643622098 ], [ 9.515071612032337, 62.807975044510506 ], [ 9.492351909212852, 62.804298243874356 ], [ 9.469242275657024, 62.80116952294977 ], [ 9.445806053264093, 62.798597633383011 ], [ 9.422107479090613, 62.796589771302258 ], [ 9.398211509281117, 62.795151555975586 ], [ 9.374183641027869, 62.794287013131587 ], [ 9.350089733047596, 62.793998563002241 ], [ 9.325995825067324, 62.794287013131587 ], [ 9.301967956814076, 62.795151555975586 ], [ 9.278071987004582, 62.796589771302258 ], [ 9.254373412831098, 62.798597633383011 ], [ 9.230937190438169, 62.80116952294977 ], [ 9.207827556882341, 62.804298243874356 ], [ 9.185107854062858, 62.807975044510506 ], [ 9.162840355105923, 62.812189643622098 ], [ 9.141086093678382, 62.816930260804689 ], [ 9.119904696698686, 62.822183651292455 ], [ 9.099354220903658, 62.827935145026871 ], [ 9.079490993719004, 62.834168689849555 ], [ 9.060369458869763, 62.840866898667883 ], [ 9.042042027153833, 62.848011100428792 ], [ 9.024558932787626, 62.855581394724474 ], [ 9.007968095717562, 62.863556709842449 ], [ 8.992314990274835, 62.87191486406202 ], [ 8.977642520533431, 62.880632629990096 ], [ 8.963990902713039, 62.88968580172105 ], [ 8.951397554949198, 62.899049264598013 ], [ 8.939896994732766, 62.90869706734685 ], [ 8.929520744299911, 62.918602496348939 ], [ 8.92029724423182, 62.928738151814557 ], [ 8.912251775501062, 62.939076025615975 ], [ 8.905406390178197, 62.949587580537042 ], [ 8.899779850988578, 62.960243830694658 ], [ 8.895387579885025, 62.971015422888463 ], [ 8.892241615777332, 62.981872718634385 ], [ 8.890350581534445, 62.992785876640809 ], [ 8.889719660349778, 63.00372493548776 ], [ 8.890350581534445, 63.014659896273159 ], [ 8.892241615777332, 63.025560804994321 ], [ 8.895387579885025, 63.036397834437501 ], [ 8.899779850988576, 63.047141365353767 ], [ 8.905406390178197, 63.057762066705365 ], [ 8.912251775501062, 63.068230974773364 ], [ 8.92029724423182, 63.078519570924087 ], [ 8.929520744299911, 63.088599857839135 ], [ 8.939896994732766, 63.098444434021872 ], [ 8.951397554949196, 63.108026566400426 ], [ 8.963990902713039, 63.117320260855919 ], [ 8.977642520533431, 63.126300330513004 ], [ 8.992314990274835, 63.134942461637515 ], [ 9.007968095717562, 63.14322327699535 ], [ 9.024558932787626, 63.151120396534694 ], [ 9.042042027153832, 63.158612495262133 ], [ 9.060369458869763, 63.165679358192023 ], [ 9.079490993719004, 63.172301932256509 ], [ 9.099354220903658, 63.178462375071845 ], [ 9.119904696698686, 63.18414410046524 ], [ 9.141086093678382, 63.189331820673537 ], [ 9.162840355105923, 63.194011585134056 ], [ 9.185107854062858, 63.198170815794519 ], [ 9.207827556882341, 63.201798338877211 ], [ 9.230937190438167, 63.204884413039593 ], [ 9.254373412831098, 63.207420753880761 ], [ 9.27807198700458, 63.209400554750509 ], [ 9.301967956814076, 63.210818503824164 ], [ 9.325995825067324, 63.211670797413632 ], [ 9.350089733047596, 63.211955149491814 ], [ 9.374183641027869, 63.211670797413632 ], [ 9.398211509281117, 63.210818503824164 ], [ 9.422107479090613, 63.209400554750509 ], [ 9.445806053264093, 63.207420753880761 ], [ 9.469242275657024, 63.204884413039593 ], [ 9.492351909212852, 63.201798338877211 ], [ 9.515071612032333, 63.198170815794519 ], [ 9.537339110989269, 63.194011585134056 ], [ 9.559093372416811, 63.189331820673537 ], [ 9.580274769396505, 63.18414410046524 ], [ 9.600825245191535, 63.178462375071845 ], [ 9.620688472376189, 63.172301932256509 ], [ 9.63981000722543, 63.165679358192023 ], [ 9.65813743894136, 63.158612495262133 ], [ 9.675620533307567, 63.151120396534694 ], [ 9.692211370377631, 63.14322327699535 ], [ 9.707864475820358, 63.134942461637515 ], [ 9.722536945561762, 63.126300330513004 ], [ 9.736188563382152, 63.117320260855919 ], [ 9.748781911145995, 63.108026566400426 ], [ 9.760282471362425, 63.098444434021872 ], [ 9.770658721795282, 63.088599857839135 ], [ 9.779882221863373, 63.078519570924087 ], [ 9.787927690594131, 63.068230974773378 ], [ 9.794773075916995, 63.057762066705365 ], [ 9.800399615106615, 63.047141365353767 ], [ 9.804791886210168, 63.036397834437501 ], [ 9.807937850317861, 63.025560804994321 ], [ 9.80982888456075, 63.014659896273159 ], [ 9.810459805745415, 63.00372493548776 ] ] ] } },
{ "type": "Feature", "properties": { "name": "Rindal", "feature_type": "mrr", "metric_roundness": 37.11, "metric_rectangularity": 52.1, "metric_mobile_fit": 89.07, "metric_aspect_ratio": 0.672, "metric_area_km2": 3060.9 }, "geometry": { "type": "Polygon", "coordinates": [ [ [ 9.294195740502015, 62.778209138679571 ], [ 8.909395601166946, 63.133712185615998 ], [ 9.397564091361918, 63.242079047515567 ], [ 9.78236423069699, 62.887901828560452 ], [ 9.294195740502015, 62.778209138679571 ] ] ] } }
]
}
