{
"type": "FeatureCollection",
"name": "riolas",
"crs": { "type": "name", "properties": { "name": "urn:ogc:def:crs:OGC:1.3:CRS84" } },
"features": [
{ "type": "Feature", "properties": { "name": "Riolas", "feature_type": "entity", "metric_roundness": 59.61, "metric_rectangularity": 67.61, "metric_mobile_fit": 61.59, "metric_aspect_ratio": 0.947, "metric_area_km2": 5.17 }, "geometry": { "type": "Polygon", "coordinates": [ [ [ 0.928736, 43.3517815 ], [ 0.9313585, 43.3512145 ], [ 0.9325605, 43.353358499999985 ], [ 0.932403, 43.355928 ], [ 0.9269905, 43.35584 ], [ 0.9281545, 43.358389 ], [ 0.9124667, 43.358898 ], [ 0.9070891, 43.346285599999987 ], [ 0.9155215, 43.339331 ], [ 0.9203954, 43.3443601 ], [ 0.9272105, 43.345686 ], [ 0.928736, 43.3517815 ] ] ] } },
{ "type": "Feature", "properties": { "name": "Riolas", "feature_type": "circle", "metric_roundness": 59.61, "metric_rectangularity": 67.61, "metric_mobile_fit": 61.59, "metric_aspect_ratio": 0.947, "metric_area_km2": 5.17 }, "geometry": { "type": "Polygon", "coordinates": [ [ [ 0.935171255967452, 43.349631090457876 ], [ 0.935150795998192, 43.349062918070494 ], [ 0.935089472169763, 43.348496297707349 ], [ 0.934987452566519, 43.347932782500777 ], [ 0.934845016817098, 43.347373917114844 ], [ 0.934662555327991, 43.346821233510305 ], [ 0.934440568213457, 43.346276246744047 ], [ 0.934179663924744, 43.345740450814262 ], [ 0.933880557582376, 43.345215314563049 ], [ 0.933544069016044, 43.344702277647556 ], [ 0.93317112051752, 43.344202746590724 ], [ 0.932762734312715, 43.343718090922543 ], [ 0.932320029759831, 43.343249639422453 ], [ 0.931844220281274, 43.342798676473166 ], [ 0.931336610037752, 43.34236643853599 ], [ 0.930798590353659, 43.341954110757364 ], [ 0.930231635903552, 43.341562823715932 ], [ 0.92963730067017, 43.341193650319148 ], [ 0.929017213685076, 43.340847602857913 ], [ 0.928373074563595, 43.340525630227475 ], [ 0.927706648846284, 43.340228615322147 ], [ 0.927019763159713, 43.339957372611067 ], [ 0.926314300209803, 43.339712645901749 ], [ 0.925592193621465, 43.339495106297484 ], [ 0.924855422638663, 43.339305350354387 ], [ 0.924106006699449, 43.339143898442998 ], [ 0.923345999900821, 43.339011193319145 ], [ 0.922577485368587, 43.338907598907831 ], [ 0.921802569547661, 43.338833399303752 ], [ 0.921023376428445, 43.338788797990901 ], [ 0.920242041725116, 43.338773917283675 ], [ 0.919460707021788, 43.338788797990901 ], [ 0.918681513902571, 43.338833399303752 ], [ 0.917906598081645, 43.338907598907831 ], [ 0.917138083549412, 43.339011193319145 ], [ 0.916378076750784, 43.339143898442998 ], [ 0.91562866081157, 43.339305350354387 ], [ 0.914891889828768, 43.339495106297484 ], [ 0.914169783240429, 43.339712645901749 ], [ 0.913464320290519, 43.339957372611067 ], [ 0.912777434603948, 43.340228615322147 ], [ 0.912111008886638, 43.340525630227475 ], [ 0.911466869765156, 43.340847602857913 ], [ 0.910846782780063, 43.341193650319148 ], [ 0.910252447546681, 43.341562823715932 ], [ 0.909685493096574, 43.341954110757364 ], [ 0.909147473412481, 43.34236643853599 ], [ 0.908639863168959, 43.342798676473166 ], [ 0.908164053690402, 43.343249639422453 ], [ 0.907721349137517, 43.343718090922543 ], [ 0.907312962932713, 43.344202746590724 ], [ 0.906940014434189, 43.344702277647556 ], [ 0.906603525867857, 43.345215314563049 ], [ 0.906304419525488, 43.345740450814262 ], [ 0.906043515236776, 43.346276246744047 ], [ 0.905821528122241, 43.346821233510305 ], [ 0.905639066633134, 43.347373917114844 ], [ 0.905496630883714, 43.347932782500777 ], [ 0.905394611280469, 43.348496297707349 ], [ 0.905333287452041, 43.349062918070494 ], [ 0.90531282748278, 43.349631090457876 ], [ 0.905333287452041, 43.350199257526612 ], [ 0.905394611280469, 43.350765861992109 ], [ 0.905496630883714, 43.351329350896201 ], [ 0.905639066633134, 43.351888179863018 ], [ 0.905821528122241, 43.352440817330788 ], [ 0.906043515236776, 43.352985748748125 ], [ 0.906304419525488, 43.353521480723259 ], [ 0.906603525867857, 43.354046545114777 ], [ 0.906940014434189, 43.354559503052847 ], [ 0.907312962932713, 43.355058948879822 ], [ 0.907721349137517, 43.3555435139995 ], [ 0.908164053690402, 43.356011870624521 ], [ 0.908639863168959, 43.35646273541164 ], [ 0.909147473412481, 43.356894872975033 ], [ 0.909685493096574, 43.35730709926797 ], [ 0.910252447546681, 43.357698284823719 ], [ 0.910846782780063, 43.358067357846721 ], [ 0.911466869765156, 43.358413307145781 ], [ 0.912111008886638, 43.35873518490115 ], [ 0.912777434603948, 43.359032109257974 ], [ 0.913464320290519, 43.359303266739204 ], [ 0.914169783240429, 43.359547914471101 ], [ 0.914891889828768, 43.359765382215663 ], [ 0.91562866081157, 43.359955074204102 ], [ 0.916378076750784, 43.360116470766577 ], [ 0.917138083549412, 43.360249129753676 ], [ 0.917906598081645, 43.360352687745852 ], [ 0.918681513902571, 43.360426861047458 ], [ 0.919460707021788, 43.360471446462668 ], [ 0.920242041725116, 43.360486321851255 ], [ 0.921023376428445, 43.360471446462668 ], [ 0.921802569547661, 43.360426861047458 ], [ 0.922577485368587, 43.360352687745852 ], [ 0.923345999900821, 43.360249129753676 ], [ 0.924106006699449, 43.360116470766577 ], [ 0.924855422638663, 43.359955074204102 ], [ 0.925592193621465, 43.359765382215663 ], [ 0.926314300209803, 43.359547914471101 ], [ 0.927019763159713, 43.359303266739204 ], [ 0.927706648846284, 43.359032109257974 ], [ 0.928373074563595, 43.35873518490115 ], [ 0.929017213685076, 43.358413307145781 ], [ 0.92963730067017, 43.358067357846721 ], [ 0.930231635903552, 43.357698284823719 ], [ 0.930798590353659, 43.35730709926797 ], [ 0.931336610037752, 43.356894872975033 ], [ 0.931844220281274, 43.35646273541164 ], [ 0.932320029759831, 43.356011870624521 ], [ 0.932762734312715, 43.3555435139995 ], [ 0.93317112051752, 43.355058948879822 ], [ 0.933544069016044, 43.354559503052847 ], [ 0.933880557582376, 43.354046545114777 ], [ 0.934179663924744, 43.353521480723259 ], [ 0.934440568213457, 43.352985748748125 ], [ 0.934662555327991, 43.352440817330788 ], [ 0.934845016817098, 43.351888179863018 ], [ 0.934987452566519, 43.351329350896201 ], [ 0.935089472169763, 43.350765861992109 ], [ 0.935150795998192, 43.350199257526612 ], [ 0.935171255967452, 43.349631090457876 ] ] ] } },
{ "type": "Feature", "properties": { "name": "Riolas", "feature_type": "mrr", "metric_roundness": 59.61, "metric_rectangularity": 67.61, "metric_mobile_fit": 61.59, "metric_aspect_ratio": 0.947, "metric_area_km2": 5.17 }, "geometry": { "type": "Polygon", "coordinates": [ [ [ 0.905123763252653, 43.341675529204011 ], [ 0.913644388385846, 43.361659754131459 ], [ 0.934131017042371, 43.357041769742729 ], [ 0.925610391909179, 43.337056024029593 ], [ 0.905123763252653, 43.341675529204011 ] ] ] } }
]
}
