{
"type": "FeatureCollection",
"name": "voicesti",
"crs": { "type": "name", "properties": { "name": "urn:ogc:def:crs:OGC:1.3:CRS84" } },
"features": [
{ "type": "Feature", "properties": { "name": "Voiceşti", "metric_roundness": 46.21, "metric_rectangularity": 71.19, "metric_mobile_fit": 99.54, "metric_aspect_ratio": 0.558, "metric_area_km2": 45.92 }, "geometry": { "type": "Polygon", "coordinates": [ [ [ 24.3245815, 44.572749 ], [ 24.3247515, 44.597071 ], [ 24.32472, 44.6128935 ], [ 24.319778, 44.624574 ], [ 24.316062, 44.630722 ], [ 24.2948579, 44.6221135 ], [ 24.2880533, 44.623192 ], [ 24.283432, 44.6187026 ], [ 24.2728707, 44.6200526 ], [ 24.2701527, 44.6136771 ], [ 24.2712755, 44.607963 ], [ 24.2793704, 44.6042578 ], [ 24.281978, 44.6001005 ], [ 24.2867102, 44.585008 ], [ 24.284242, 44.5715562 ], [ 24.2868785, 44.567641899999984 ], [ 24.3120116, 44.561273899999989 ], [ 24.3248965, 44.560852 ], [ 24.3245815, 44.572749 ] ] ] } }
]
}
