{
"type": "FeatureCollection",
"name": "volxheim",
"crs": { "type": "name", "properties": { "name": "urn:ogc:def:crs:OGC:1.3:CRS84" } },
"features": [
{ "type": "Feature", "properties": { "name": "Volxheim", "feature_type": "entity", "metric_roundness": 53.87, "metric_rectangularity": 72.37, "metric_mobile_fit": 68.9, "metric_aspect_ratio": 0.874, "metric_area_km2": 11.32 }, "geometry": { "type": "Polygon", "coordinates": [ [ [ 7.9082345, 49.821105 ], [ 7.9129369, 49.8121863 ], [ 7.9275585, 49.811380499999984 ], [ 7.9432582, 49.8179404 ], [ 7.9446769, 49.820942399999986 ], [ 7.941604, 49.8238865 ], [ 7.937893, 49.827674 ], [ 7.940455, 49.829199 ], [ 7.939388, 49.830743499999983 ], [ 7.9422155, 49.8323105 ], [ 7.9389275, 49.83534 ], [ 7.9358035, 49.8382945 ], [ 7.924545, 49.832602499999986 ], [ 7.9082345, 49.821105 ] ] ] } },
{ "type": "Feature", "properties": { "name": "Volxheim", "feature_type": "circle", "metric_roundness": 53.87, "metric_rectangularity": 72.37, "metric_mobile_fit": 68.9, "metric_aspect_ratio": 0.874, "metric_area_km2": 11.32 }, "geometry": { "type": "Polygon", "coordinates": [ [ [ 7.947611977291246, 49.825242161322883 ], [ 7.947580125243226, 49.824457442108212 ], [ 7.947484656403418, 49.823674861077507 ], [ 7.947325832445273, 49.822896563387218 ], [ 7.947104088694222, 49.822124682555753 ], [ 7.946820032934474, 49.821361334612774 ], [ 7.946474443743121, 49.820608612295452 ], [ 7.946068268356114, 49.819868579307425 ], [ 7.945602620071959, 49.819143264656375 ], [ 7.945078775200233, 49.818434657085753 ], [ 7.94449816956332, 49.81774469961605 ], [ 7.94386239456091, 49.81707528421061 ], [ 7.943173192808096, 49.816428246580685 ], [ 7.942432453358975, 49.815805361144172 ], [ 7.941642206528887, 49.815208336151784 ], [ 7.940804618329468, 49.814638808994296 ], [ 7.93992198453175, 49.814098341703811 ], [ 7.93899672437362, 49.813588416661311 ], [ 7.93803137392886, 49.813110432522706 ], [ 7.937028579155939, 49.812665700374367 ], [ 7.935991088645622, 49.812255440128936 ], [ 7.934921746087288, 49.81188077717146 ], [ 7.933823482474557, 49.811542739265001 ], [ 7.932699308071652, 49.811242253724437 ], [ 7.931552304162472, 49.810980144866235 ], [ 7.930385614605007, 49.81075713174134 ], [ 7.929202437214233, 49.81057382615738 ], [ 7.92800601499714, 49.810430730995812 ], [ 7.926799627263862, 49.810328238828617 ], [ 7.925586580639322, 49.810266630838271 ], [ 7.9243702, 49.810246076044308 ], [ 7.923153819360677, 49.810266630838271 ], [ 7.921940772736138, 49.810328238828617 ], [ 7.92073438500286, 49.810430730995812 ], [ 7.919537962785767, 49.81057382615738 ], [ 7.918354785394994, 49.81075713174134 ], [ 7.917188095837528, 49.810980144866235 ], [ 7.916041091928347, 49.811242253724437 ], [ 7.914916917525444, 49.811542739265001 ], [ 7.913818653912712, 49.81188077717146 ], [ 7.912749311354378, 49.812255440128936 ], [ 7.911711820844061, 49.812665700374367 ], [ 7.91070902607114, 49.813110432522706 ], [ 7.909743675626379, 49.813588416661311 ], [ 7.90881841546825, 49.814098341703811 ], [ 7.907935781670533, 49.814638808994296 ], [ 7.907098193471112, 49.815208336151784 ], [ 7.906307946641025, 49.815805361144172 ], [ 7.905567207191903, 49.816428246580685 ], [ 7.904878005439089, 49.81707528421061 ], [ 7.90424223043668, 49.81774469961605 ], [ 7.903661624799767, 49.818434657085753 ], [ 7.90313777992804, 49.819143264656375 ], [ 7.902672131643886, 49.819868579307425 ], [ 7.902265956256879, 49.820608612295452 ], [ 7.901920367065527, 49.821361334612774 ], [ 7.901636311305778, 49.822124682555753 ], [ 7.901414567554727, 49.822896563387218 ], [ 7.901255743596583, 49.823674861077507 ], [ 7.901160274756774, 49.824457442108212 ], [ 7.901128422708753, 49.825242161322883 ], [ 7.901160274756774, 49.82602686780848 ], [ 7.901255743596583, 49.826809410791434 ], [ 7.901414567554727, 49.827587645532162 ], [ 7.901636311305778, 49.82835943920194 ], [ 7.901920367065527, 49.829122676726065 ], [ 7.902265956256879, 49.829875266577133 ], [ 7.902672131643886, 49.830615146502851 ], [ 7.90313777992804, 49.831340289172495 ], [ 7.903661624799767, 49.832048707726905 ], [ 7.90424223043668, 49.832738461216472 ], [ 7.904878005439089, 49.833407659912702 ], [ 7.905567207191903, 49.834054470478655 ], [ 7.906307946641025, 49.834677120984217 ], [ 7.907098193471112, 49.835273905752608 ], [ 7.907935781670533, 49.835843190024988 ], [ 7.90881841546825, 49.836383414430372 ], [ 7.909743675626379, 49.836893099248876 ], [ 7.91070902607114, 49.83737084845653 ], [ 7.911711820844061, 49.837815353540904 ], [ 7.912749311354378, 49.838225397077139 ], [ 7.913818653912712, 49.838599856054479 ], [ 7.914916917525444, 49.838937704944719 ], [ 7.916041091928347, 49.839238018503892 ], [ 7.917188095837528, 49.839499974299784 ], [ 7.918354785394994, 49.839722854958431 ], [ 7.919537962785767, 49.839906050123538 ], [ 7.92073438500286, 49.840049058123419 ], [ 7.921940772736138, 49.840151487341046 ], [ 7.923153819360677, 49.840213057283663 ], [ 7.9243702, 49.840233599348558 ], [ 7.925586580639322, 49.840213057283663 ], [ 7.926799627263862, 49.840151487341046 ], [ 7.92800601499714, 49.840049058123419 ], [ 7.929202437214233, 49.839906050123538 ], [ 7.930385614605007, 49.839722854958431 ], [ 7.931552304162472, 49.839499974299784 ], [ 7.932699308071652, 49.839238018503892 ], [ 7.933823482474557, 49.838937704944719 ], [ 7.934921746087288, 49.838599856054479 ], [ 7.935991088645622, 49.838225397077139 ], [ 7.937028579155939, 49.837815353540904 ], [ 7.93803137392886, 49.83737084845653 ], [ 7.93899672437362, 49.836893099248876 ], [ 7.93992198453175, 49.836383414430372 ], [ 7.940804618329468, 49.835843190024988 ], [ 7.941642206528887, 49.835273905752608 ], [ 7.942432453358975, 49.834677120984217 ], [ 7.943173192808096, 49.834054470478655 ], [ 7.94386239456091, 49.833407659912702 ], [ 7.94449816956332, 49.832738461216472 ], [ 7.945078775200233, 49.832048707726905 ], [ 7.945602620071959, 49.831340289172495 ], [ 7.946068268356114, 49.830615146502851 ], [ 7.946474443743121, 49.829875266577133 ], [ 7.946820032934474, 49.829122676726065 ], [ 7.947104088694222, 49.82835943920194 ], [ 7.947325832445273, 49.827587645532162 ], [ 7.947484656403418, 49.826809410791434 ], [ 7.947580125243226, 49.82602686780848 ], [ 7.947611977291246, 49.825242161322883 ] ] ] } },
{ "type": "Feature", "properties": { "name": "Volxheim", "feature_type": "mrr", "metric_roundness": 53.87, "metric_rectangularity": 72.37, "metric_mobile_fit": 68.9, "metric_aspect_ratio": 0.874, "metric_area_km2": 11.32 }, "geometry": { "type": "Polygon", "coordinates": [ [ [ 7.9358035, 49.8382945 ], [ 7.952970941789723, 49.822271337379028 ], [ 7.918567328070283, 49.806928923124559 ], [ 7.901399900506267, 49.822957171669145 ], [ 7.9358035, 49.8382945 ] ] ] } }
]
}
