{
"type": "FeatureCollection",
"name": "vorta",
"crs": { "type": "name", "properties": { "name": "urn:ogc:def:crs:OGC:1.3:CRS84" } },
"features": [
{ "type": "Feature", "properties": { "name": "Vorţa", "feature_type": "entity", "metric_roundness": 54.77, "metric_rectangularity": 66.75, "metric_mobile_fit": 80.79, "metric_aspect_ratio": 0.755, "metric_area_km2": 211.79 }, "geometry": { "type": "Polygon", "coordinates": [ [ [ 22.5852195, 46.078356499999984 ], [ 22.5932938, 46.077521 ], [ 22.6024581, 46.069367199999988 ], [ 22.6088423, 46.0607383 ], [ 22.6242375, 46.0575288 ], [ 22.6288929, 46.050597399999987 ], [ 22.6286376, 46.03639 ], [ 22.6346248, 46.0253412 ], [ 22.6306453, 46.0141112 ], [ 22.6336177, 46.005793699999984 ], [ 22.6258072, 45.9988647 ], [ 22.6239625, 45.989794 ], [ 22.6435605, 45.9874505 ], [ 22.6500752, 45.989252099999987 ], [ 22.656778, 45.9851916 ], [ 22.6635717, 45.987013399999988 ], [ 22.6746395, 45.9940195 ], [ 22.6745788, 46.000783899999981 ], [ 22.6876283, 46.0034907 ], [ 22.6895153, 46.009796199999975 ], [ 22.7183545, 45.997708 ], [ 22.7189498, 46.0144086 ], [ 22.7130707, 46.019797 ], [ 22.7158514, 46.0258853 ], [ 22.7101277, 46.029400599999988 ], [ 22.7146217, 46.034093299999981 ], [ 22.7146413, 46.0402938 ], [ 22.729776, 46.050628499999988 ], [ 22.7315375, 46.0553835 ], [ 22.7289638, 46.0647729 ], [ 22.7228321, 46.07061 ], [ 22.7194001, 46.0803416 ], [ 22.7108189, 46.085759799999984 ], [ 22.7143315, 46.0978112 ], [ 22.6930695, 46.109185 ], [ 22.6757821, 46.1112636 ], [ 22.6651725, 46.1172457 ], [ 22.653758, 46.115407 ], [ 22.6491642, 46.112830199999983 ], [ 22.6440484, 46.1125231 ], [ 22.6377328, 46.116111 ], [ 22.6291867, 46.119750899999985 ], [ 22.6237883, 46.1182638 ], [ 22.620662, 46.116111 ], [ 22.6235171, 46.1065192 ], [ 22.6106821, 46.0997157 ], [ 22.6024581, 46.0990737 ], [ 22.5973629, 46.099503899999988 ], [ 22.587196, 46.08865 ], [ 22.5852195, 46.078356499999984 ] ] ] } },
{ "type": "Feature", "properties": { "name": "Vorţa", "feature_type": "circle", "metric_roundness": 54.77, "metric_rectangularity": 66.75, "metric_mobile_fit": 80.79, "metric_aspect_ratio": 0.755, "metric_area_km2": 211.79 }, "geometry": { "type": "Polygon", "coordinates": [ [ [ 22.760344005289635, 46.054150769419351 ], [ 22.760207393003661, 46.050530157614183 ], [ 22.759797930590526, 46.046919233273883 ], [ 22.75911674035823, 46.043327896604225 ], [ 22.758165689401867, 46.039765996029935 ], [ 22.756947384485986, 46.036243301147998 ], [ 22.755465164899693, 46.032769475876776 ], [ 22.753723093303833, 46.029354051875238 ], [ 22.751725944595574, 46.026006402306237 ], [ 22.749479192820697, 46.022735716016825 ], [ 22.746988996169637, 46.019550972207959 ], [ 22.744262180098346, 46.016460915664567 ], [ 22.741306218620114, 46.013474032615491 ], [ 22.738129213819903, 46.010598527291471 ], [ 22.734739873647037, 46.007842299247372 ], [ 22.731147488047334, 46.005212921512893 ], [ 22.727361903500011, 46.002717619633799 ], [ 22.7233934960292, 46.000363251663373 ], [ 22.719253142763929, 45.99815628916113 ], [ 22.714952192124699, 45.996102799253109 ], [ 22.710502432718265, 45.994208427805106 ], [ 22.70591606102586, 45.992478383757216 ], [ 22.701205647973488, 45.990917424664573 ], [ 22.696384104475925, 45.989529843486018 ], [ 22.69146464604875, 45.9883194566588 ], [ 22.686460756585557, 45.9872895934936 ], [ 22.681386151399554, 45.98644308692063 ], [ 22.676254739630828, 45.985782265613665 ], [ 22.671080586122351, 45.985308947514554 ], [ 22.665877872869245, 45.985024434777252 ], [ 22.660660860146894, 45.984929510145861 ], [ 22.655443847424543, 45.985024434777252 ], [ 22.650241134171438, 45.985308947514554 ], [ 22.645066980662961, 45.985782265613665 ], [ 22.639935568894234, 45.98644308692063 ], [ 22.634860963708231, 45.9872895934936 ], [ 22.629857074245042, 45.9883194566588 ], [ 22.624937615817863, 45.989529843486018 ], [ 22.620116072320297, 45.990917424664573 ], [ 22.615405659267928, 45.992478383757216 ], [ 22.610819287575524, 45.994208427805106 ], [ 22.60636952816909, 45.996102799253109 ], [ 22.60206857752986, 45.99815628916113 ], [ 22.597928224264589, 46.000363251663373 ], [ 22.593959816793777, 46.002717619633799 ], [ 22.590174232246458, 46.005212921512893 ], [ 22.586581846646752, 46.007842299247372 ], [ 22.583192506473882, 46.010598527291471 ], [ 22.580015501673675, 46.013474032615491 ], [ 22.577059540195442, 46.016460915664567 ], [ 22.574332724124147, 46.019550972207959 ], [ 22.571842527473095, 46.022735716016825 ], [ 22.569595775698215, 46.026006402306237 ], [ 22.567598626989952, 46.029354051875238 ], [ 22.565856555394095, 46.032769475876776 ], [ 22.564374335807798, 46.036243301147998 ], [ 22.563156030891921, 46.039765996029935 ], [ 22.562204979935558, 46.043327896604225 ], [ 22.561523789703262, 46.046919233273883 ], [ 22.561114327290124, 46.050530157614183 ], [ 22.56097771500415, 46.054150769419351 ], [ 22.561114327290124, 46.057771143870234 ], [ 22.561523789703262, 46.061381358748186 ], [ 22.562204979935558, 46.06497152162045 ], [ 22.563156030891921, 46.068531796922713 ], [ 22.564374335807798, 46.072052432864808 ], [ 22.565856555394095, 46.075523788086592 ], [ 22.567598626989952, 46.078936357991495 ], [ 22.569595775698215, 46.082280800686789 ], [ 22.571842527473095, 46.085547962460637 ], [ 22.574332724124147, 46.088728902727453 ], [ 22.577059540195442, 46.091814918374723 ], [ 22.580015501673675, 46.094797567446555 ], [ 22.583192506473882, 46.097668692100569 ], [ 22.586581846646752, 46.100420440777441 ], [ 22.590174232246458, 46.103045289524388 ], [ 22.593959816793777, 46.105536062416171 ], [ 22.597928224264589, 46.107885951020045 ], [ 22.60206857752986, 46.110088532853354 ], [ 22.60636952816909, 46.112137788785574 ], [ 22.610819287575524, 46.11402811933921 ], [ 22.615405659267928, 46.11575435984701 ], [ 22.620116072320297, 46.117311794426207 ], [ 22.624937615817863, 46.118696168733216 ], [ 22.629857074245042, 46.119903701465908 ], [ 22.634860963708231, 46.120931094583646 ], [ 22.639935568894234, 46.121775542218515 ], [ 22.645066980662961, 46.122434738254888 ], [ 22.650241134171438, 46.122906882557693 ], [ 22.655443847424543, 46.123190685833315 ], [ 22.660660860146894, 46.123285373110647 ], [ 22.665877872869245, 46.123190685833315 ], [ 22.671080586122351, 46.122906882557693 ], [ 22.676254739630828, 46.122434738254888 ], [ 22.681386151399554, 46.121775542218515 ], [ 22.686460756585557, 46.120931094583646 ], [ 22.69146464604875, 46.119903701465908 ], [ 22.696384104475925, 46.118696168733216 ], [ 22.701205647973488, 46.117311794426207 ], [ 22.70591606102586, 46.11575435984701 ], [ 22.710502432718265, 46.11402811933921 ], [ 22.714952192124699, 46.112137788785574 ], [ 22.719253142763929, 46.110088532853354 ], [ 22.7233934960292, 46.107885951020045 ], [ 22.727361903500011, 46.105536062416171 ], [ 22.731147488047334, 46.103045289524388 ], [ 22.734739873647037, 46.100420440777441 ], [ 22.738129213819903, 46.097668692100569 ], [ 22.741306218620114, 46.094797567446555 ], [ 22.744262180098346, 46.091814918374723 ], [ 22.746988996169637, 46.088728902727453 ], [ 22.749479192820697, 46.085547962460637 ], [ 22.751725944595574, 46.082280800686789 ], [ 22.753723093303833, 46.078936357991495 ], [ 22.755465164899693, 46.075523788086592 ], [ 22.756947384485986, 46.072052432864808 ], [ 22.758165689401867, 46.068531796922713 ], [ 22.75911674035823, 46.06497152162045 ], [ 22.759797930590526, 46.061381358748186 ], [ 22.760207393003661, 46.057771143870234 ], [ 22.760344005289635, 46.054150769419351 ] ] ] } },
{ "type": "Feature", "properties": { "name": "Vorţa", "feature_type": "mrr", "metric_roundness": 54.77, "metric_rectangularity": 66.75, "metric_mobile_fit": 80.79, "metric_aspect_ratio": 0.755, "metric_area_km2": 211.79 }, "geometry": { "type": "Polygon", "coordinates": [ [ [ 22.628766088803026, 45.978803628675109 ], [ 22.572333423338307, 46.107781316386649 ], [ 22.698494889385071, 46.134339149995185 ], [ 22.754927554849786, 46.005423550447958 ], [ 22.628766088803026, 45.978803628675109 ] ] ] } }
]
}
