{
"type": "FeatureCollection",
"name": "decines_charpieu",
"crs": { "type": "name", "properties": { "name": "urn:ogc:def:crs:OGC:1.3:CRS84" } },
"features": [
{ "type": "Feature", "properties": { "name": "Décines-Charpieu", "feature_type": "entity", "metric_roundness": 36.02, "metric_rectangularity": 59.95, "metric_mobile_fit": 98.72, "metric_aspect_ratio": 0.575, "metric_area_km2": 35.19 }, "geometry": { "type": "Polygon", "coordinates": [ [ [ 4.9596973, 45.7507588 ], [ 4.9673035, 45.7526315 ], [ 4.9847815, 45.7537515 ], [ 4.9846675, 45.779453499999988 ], [ 4.975371, 45.786784 ], [ 4.9800145, 45.805626 ], [ 4.9753245, 45.807264 ], [ 4.970375, 45.80738 ], [ 4.9675605, 45.80506 ], [ 4.9596973, 45.7963284 ], [ 4.935841, 45.7698375 ], [ 4.937029, 45.766389499999981 ], [ 4.9371975, 45.761795 ], [ 4.9325665, 45.744079 ], [ 4.9596973, 45.7507588 ] ] ] } },
{ "type": "Feature", "properties": { "name": "Décines-Charpieu", "feature_type": "circle", "metric_roundness": 36.02, "metric_rectangularity": 59.95, "metric_mobile_fit": 98.72, "metric_aspect_ratio": 0.575, "metric_area_km2": 35.19 }, "geometry": { "type": "Polygon", "coordinates": [ [ [ 5.005363066534058, 45.775249552238947 ], [ 5.005294394395492, 45.773420406510681 ], [ 5.005088566205347, 45.77159621459522 ], [ 5.004746146124391, 45.769781977212325 ], [ 5.004268072702261, 45.767982668279181 ], [ 5.003655656304977, 45.766203221263879 ], [ 5.002910575523316, 45.764448515644652 ], [ 5.002034872571911, 45.762723363512137 ], [ 5.001030947691683, 45.761032496351675 ], [ 4.999901552570943, 45.759380552042188 ], [ 4.998649782803218, 45.757772062107549 ], [ 4.997279069402429, 45.756211439255964 ], [ 4.995793169398732, 45.754702965241719 ], [ 4.994196155540754, 45.753250779083267 ], [ 4.992492405132471, 45.751858865670265 ], [ 4.990686588035327, 45.750531044791479 ], [ 4.988783653868463, 45.749270960613984 ], [ 4.986788818442161, 45.748082071643317 ], [ 4.984707549461664, 45.746967641192377 ], [ 4.982545551540581, 45.745930728385964 ], [ 4.980308750564935, 45.744974179726093 ], [ 4.978003277450721, 45.744100621241792 ], [ 4.975635451339495, 45.743312451245345 ], [ 4.97321176227804, 45.742611833715408 ], [ 4.970738853429609, 45.742000692325611 ], [ 4.968223502865461, 45.741480705135437 ], [ 4.965672604986657, 45.741053299958274 ], [ 4.963093151626968, 45.740719650419791 ], [ 4.96049221288876, 45.740480672717716 ], [ 4.957876917764325, 45.740337023092053 ], [ 4.955254434595811, 45.740289096013079 ], [ 4.952631951427296, 45.740337023092053 ], [ 4.950016656302862, 45.740480672717716 ], [ 4.947415717564653, 45.740719650419791 ], [ 4.944836264204965, 45.741053299958274 ], [ 4.94228536632616, 45.741480705135437 ], [ 4.939770015762013, 45.742000692325611 ], [ 4.937297106913581, 45.742611833715408 ], [ 4.934873417852127, 45.743312451245345 ], [ 4.9325055917409, 45.744100621241792 ], [ 4.930200118626686, 45.744974179726093 ], [ 4.927963317651041, 45.745930728385964 ], [ 4.925801319729958, 45.746967641192377 ], [ 4.923720050749461, 45.748082071643317 ], [ 4.921725215323159, 45.749270960613984 ], [ 4.919822281156295, 45.750531044791479 ], [ 4.918016464059151, 45.751858865670265 ], [ 4.916312713650868, 45.753250779083267 ], [ 4.91471569979289, 45.754702965241719 ], [ 4.913229799789193, 45.756211439255964 ], [ 4.911859086388404, 45.757772062107549 ], [ 4.910607316620679, 45.759380552042188 ], [ 4.909477921499939, 45.761032496351675 ], [ 4.90847399661971, 45.762723363512137 ], [ 4.907598293668306, 45.764448515644652 ], [ 4.906853212886644, 45.766203221263879 ], [ 4.90624079648936, 45.767982668279181 ], [ 4.90576272306723, 45.769781977212325 ], [ 4.905420302986274, 45.77159621459522 ], [ 4.90521447479613, 45.773420406510681 ], [ 4.905145802657563, 45.775249552238947 ], [ 4.90521447479613, 45.777078637972409 ], [ 4.905420302986274, 45.778902650560724 ], [ 4.90576272306723, 45.78071659124889 ], [ 4.90624079648936, 45.78251548937039 ], [ 4.906853212886644, 45.784294415958065 ], [ 4.907598293668306, 45.786048497235598 ], [ 4.90847399661971, 45.787772927952759 ], [ 4.909477921499939, 45.789462984528193 ], [ 4.910607316620679, 45.791114037963936 ], [ 4.911859086388404, 45.792721566496695 ], [ 4.913229799789193, 45.794281167951596 ], [ 4.91471569979289, 45.795788571764994 ], [ 4.916312713650868, 45.797239650643775 ], [ 4.918016464059151, 45.798630431829864 ], [ 4.919822281156295, 45.799957107939441 ], [ 4.921725215323159, 45.801216047347722 ], [ 4.923720050749461, 45.802403804091533 ], [ 4.925801319729958, 45.803517127262872 ], [ 4.927963317651041, 45.804552969868539 ], [ 4.930200118626686, 45.805508497131839 ], [ 4.9325055917409, 45.80638109421438 ], [ 4.934873417852127, 45.80716837333722 ], [ 4.937297106913581, 45.80786818028227 ], [ 4.939770015762013, 45.808478600256855 ], [ 4.94228536632616, 45.808997963105455 ], [ 4.944836264204965, 45.809424847855105 ], [ 4.947415717564653, 45.809758086582029 ], [ 4.950016656302862, 45.809996767589467 ], [ 4.952631951427296, 45.810140237888028 ], [ 4.955254434595811, 45.810188104972191 ], [ 4.957876917764325, 45.810140237888028 ], [ 4.96049221288876, 45.809996767589467 ], [ 4.963093151626968, 45.809758086582029 ], [ 4.965672604986657, 45.809424847855105 ], [ 4.968223502865461, 45.808997963105455 ], [ 4.970738853429609, 45.808478600256855 ], [ 4.97321176227804, 45.80786818028227 ], [ 4.975635451339495, 45.80716837333722 ], [ 4.978003277450721, 45.80638109421438 ], [ 4.980308750564935, 45.805508497131839 ], [ 4.982545551540581, 45.804552969868539 ], [ 4.984707549461664, 45.803517127262872 ], [ 4.986788818442161, 45.802403804091533 ], [ 4.988783653868463, 45.801216047347722 ], [ 4.990686588035327, 45.799957107939441 ], [ 4.992492405132471, 45.798630431829864 ], [ 4.994196155540754, 45.797239650643775 ], [ 4.995793169398732, 45.795788571764994 ], [ 4.997279069402429, 45.794281167951596 ], [ 4.998649782803218, 45.792721566496695 ], [ 4.999901552570943, 45.791114037963936 ], [ 5.001030947691683, 45.789462984528193 ], [ 5.002034872571911, 45.787772927952759 ], [ 5.002910575523316, 45.786048497235598 ], [ 5.003655656304977, 45.784294415958065 ], [ 5.004268072702261, 45.78251548937039 ], [ 5.004746146124391, 45.78071659124889 ], [ 5.005088566205347, 45.778902650560724 ], [ 5.005294394395492, 45.777078637972409 ], [ 5.005363066534058, 45.775249552238947 ] ] ] } },
{ "type": "Feature", "properties": { "name": "Décines-Charpieu", "feature_type": "mrr", "metric_roundness": 36.02, "metric_rectangularity": 59.95, "metric_mobile_fit": 98.72, "metric_aspect_ratio": 0.575, "metric_area_km2": 35.19 }, "geometry": { "type": "Polygon", "coordinates": [ [ [ 4.984543436811083, 45.807410559105946 ], [ 4.98482388673657, 45.744191837632506 ], [ 4.9325665, 45.744079 ], [ 4.932286048776864, 45.807297849805025 ], [ 4.984543436811083, 45.807410559105946 ] ] ] } }
]
}
