{
"type": "FeatureCollection",
"name": "deryneia",
"crs": { "type": "name", "properties": { "name": "urn:ogc:def:crs:OGC:1.3:CRS84" } },
"features": [
{ "type": "Feature", "properties": { "name": "Δερύνεια", "metric_roundness": 30.76, "metric_rectangularity": 53.97, "metric_mobile_fit": 17.9, "metric_aspect_ratio": 1.384, "metric_area_km2": 48.25 }, "geometry": { "type": "Polygon", "coordinates": [ [ [ 33.897798, 35.0750892 ], [ 33.8976863, 35.070548599999988 ], [ 33.921026, 35.069554599999989 ], [ 33.927225299999989, 35.0576327 ], [ 33.940908, 35.044785 ], [ 33.963427, 35.041650499999989 ], [ 33.9681499, 35.0490535 ], [ 33.9749362, 35.0515276 ], [ 33.9715461, 35.05675 ], [ 33.97286, 35.063822 ], [ 33.9860466, 35.0653455 ], [ 33.9966861, 35.061919 ], [ 33.9996445, 35.067938 ], [ 33.982854, 35.0819525 ], [ 33.9743828, 35.0793215 ], [ 33.9656101, 35.0872703 ], [ 33.957158899999989, 35.0841311 ], [ 33.940505, 35.084698 ], [ 33.9323827, 35.0881347 ], [ 33.9276391, 35.0866044 ], [ 33.9143199, 35.1002167 ], [ 33.9015923, 35.096956899999988 ], [ 33.899611, 35.1034205 ], [ 33.8934721, 35.1085827 ], [ 33.8841177, 35.1099878 ], [ 33.8873545, 35.1010239 ], [ 33.8942344, 35.0938171 ], [ 33.887744, 35.0845785 ], [ 33.897798, 35.0750892 ] ] ] } }
]
}
