{
"type": "FeatureCollection",
"name": "uniao_das_freguesias_de_aveleda_e_rio_de_onor",
"crs": { "type": "name", "properties": { "name": "urn:ogc:def:crs:OGC:1.3:CRS84" } },
"features": [
{ "type": "Feature", "properties": { "name": "União das freguesias de Aveleda e Rio de Onor", "feature_type": "entity", "metric_roundness": 51.89, "metric_rectangularity": 66.97, "metric_mobile_fit": 39.47, "metric_aspect_ratio": 1.168, "metric_area_km2": 193.12 }, "geometry": { "type": "Polygon", "coordinates": [ [ [ -6.598794, 41.9494324 ], [ -6.6115853, 41.9471191 ], [ -6.6189227, 41.9410332 ], [ -6.6376822, 41.941836099999989 ], [ -6.6969781, 41.9335778 ], [ -6.706292, 41.9352725 ], [ -6.7082184, 41.923718599999987 ], [ -6.7002212, 41.9105653 ], [ -6.7080343, 41.904668699999988 ], [ -6.7105062, 41.8940462 ], [ -6.716279, 41.8881565 ], [ -6.718896, 41.887037 ], [ -6.7206735, 41.881395 ], [ -6.721027, 41.877284 ], [ -6.7158555, 41.868408 ], [ -6.6587629, 41.8628536 ], [ -6.6455045, 41.856121499999986 ], [ -6.6306172, 41.863771299999989 ], [ -6.6220985, 41.8643655 ], [ -6.6008884, 41.87262 ], [ -6.5937979, 41.8897308 ], [ -6.5711775, 41.8836325 ], [ -6.5606462, 41.8976189 ], [ -6.5568617, 41.911382599999989 ], [ -6.5459715, 41.930687 ], [ -6.545839, 41.9359395 ], [ -6.5491255, 41.9445115 ], [ -6.552587, 41.946239499999983 ], [ -6.5563785, 41.948715 ], [ -6.561255, 41.9526635 ], [ -6.573791, 41.960674 ], [ -6.5775635, 41.961708 ], [ -6.5832115, 41.9653855 ], [ -6.5884615, 41.967762 ], [ -6.598794, 41.9494324 ] ] ] } },
{ "type": "Feature", "properties": { "name": "União das freguesias de Aveleda e Rio de Onor", "feature_type": "circle", "metric_roundness": 51.89, "metric_rectangularity": 66.97, "metric_mobile_fit": 39.47, "metric_aspect_ratio": 1.168, "metric_area_km2": 193.12 }, "geometry": { "type": "Polygon", "coordinates": [ [ [ -6.534695525949891, 41.906471089870436 ], [ -6.534829550563004, 41.902661831800877 ], [ -6.535231257050195, 41.898862788308868 ], [ -6.535899544361904, 41.89508437510213 ], [ -6.536832580769061, 41.89133695316837 ], [ -6.538027808883731, 41.887630800325859 ], [ -6.539481952668728, 41.8839760829825 ], [ -6.541191026417016, 41.880382828181688 ], [ -6.543150345676247, 41.876860896012353 ], [ -6.54535454008852, 41.87341995246009 ], [ -6.547797568110165, 41.870069442775197 ], [ -6.550472733571186, 41.866818565431956 ], [ -6.553372704029004, 41.863676246752313 ], [ -6.556489530866168, 41.860651116265466 ], [ -6.559814671076965, 41.857751482872288 ], [ -6.563339010683205, 41.854985311882636 ], [ -6.567052889715001, 41.852360202989928 ], [ -6.570946128688075, 41.849883369245781 ], [ -6.57500805650502, 41.847561617094513 ], [ -6.579227539704028, 41.845401327524101 ], [ -6.583593012974944, 41.843408438387726 ], [ -6.588092510858974, 41.841588427946078 ], [ -6.592713700545172, 41.839946299677834 ], [ -6.597443915673826, 41.838486568401649 ], [ -6.602270191054058, 41.837213247749489 ], [ -6.607179298200524, 41.836129839027478 ], [ -6.612157781591762, 41.835239321496154 ], [ -6.617191995550846, 41.834544144098118 ], [ -6.62226814164724, 41.834046218656979 ], [ -6.627372306517333, 41.8337469145672 ], [ -6.6324905, 41.833647054990116 ], [ -6.637608693482664, 41.8337469145672 ], [ -6.642712858352756, 41.834046218656979 ], [ -6.647789004449151, 41.834544144098118 ], [ -6.652823218408235, 41.835239321496154 ], [ -6.657801701799473, 41.836129839027478 ], [ -6.662710808945939, 41.837213247749489 ], [ -6.667537084326171, 41.838486568401649 ], [ -6.672267299454824, 41.839946299677834 ], [ -6.676888489141023, 41.841588427946078 ], [ -6.681387987025053, 41.843408438387726 ], [ -6.685753460295969, 41.845401327524101 ], [ -6.689972943494976, 41.847561617094513 ], [ -6.694034871311921, 41.849883369245781 ], [ -6.697928110284996, 41.852360202989928 ], [ -6.701641989316792, 41.854985311882636 ], [ -6.705166328923031, 41.857751482872288 ], [ -6.708491469133829, 41.860651116265466 ], [ -6.711608295970992, 41.863676246752313 ], [ -6.71450826642881, 41.866818565431956 ], [ -6.717183431889832, 41.870069442775197 ], [ -6.719626459911476, 41.87341995246009 ], [ -6.72183065432375, 41.876860896012353 ], [ -6.72378997358298, 41.880382828181688 ], [ -6.725499047331268, 41.8839760829825 ], [ -6.726953191116267, 41.887630800325859 ], [ -6.728148419230935, 41.89133695316837 ], [ -6.729081455638093, 41.89508437510213 ], [ -6.729749742949803, 41.898862788308868 ], [ -6.730151449436993, 41.902661831800877 ], [ -6.730285474050107, 41.906471089870436 ], [ -6.730151449436993, 41.910280120669142 ], [ -6.729749742949803, 41.914078484838605 ], [ -6.729081455638093, 41.917855774113917 ], [ -6.728148419230935, 41.921601639821432 ], [ -6.726953191116267, 41.925305821193234 ], [ -6.725499047331268, 41.9289581734213 ], [ -6.72378997358298, 41.932548695374969 ], [ -6.72183065432375, 41.936067556907012 ], [ -6.719626459911476, 41.939505125674394 ], [ -6.717183431889832, 41.942851993401717 ], [ -6.71450826642881, 41.946099001516792 ], [ -6.711608295970992, 41.949237266089753 ], [ -6.708491469133829, 41.952258202009119 ], [ -6.705166328923031, 41.955153546330543 ], [ -6.701641989316792, 41.957915380736168 ], [ -6.697928110284996, 41.960536153045119 ], [ -6.694034871311921, 41.963008697718273 ], [ -6.689972943494976, 41.965326255303268 ], [ -6.685753460295969, 41.967482490768639 ], [ -6.681387987025053, 41.969471510678829 ], [ -6.676888489141023, 41.971287879165139 ], [ -6.672267299454824, 41.972926632650889 ], [ -6.667537084326171, 41.97438329329222 ], [ -6.662710808945939, 41.975653881099639 ], [ -6.657801701799473, 41.976734924708602 ], [ -6.652823218408235, 41.977623470771185 ], [ -6.647789004449151, 41.978317091944618 ], [ -6.642712858352756, 41.978813893455552 ], [ -6.637608693482664, 41.979112518223552 ], [ -6.6324905, 41.979212150530024 ], [ -6.627372306517333, 41.979112518223552 ], [ -6.62226814164724, 41.978813893455552 ], [ -6.617191995550846, 41.978317091944618 ], [ -6.612157781591762, 41.977623470771185 ], [ -6.607179298200524, 41.976734924708602 ], [ -6.602270191054058, 41.975653881099639 ], [ -6.597443915673826, 41.97438329329222 ], [ -6.592713700545172, 41.972926632650889 ], [ -6.588092510858974, 41.971287879165139 ], [ -6.583593012974944, 41.969471510678829 ], [ -6.579227539704028, 41.967482490768639 ], [ -6.57500805650502, 41.965326255303268 ], [ -6.570946128688075, 41.963008697718273 ], [ -6.567052889715001, 41.960536153045119 ], [ -6.563339010683205, 41.957915380736168 ], [ -6.559814671076965, 41.955153546330543 ], [ -6.556489530866168, 41.952258202009119 ], [ -6.553372704029004, 41.949237266089753 ], [ -6.550472733571186, 41.946099001516792 ], [ -6.547797568110165, 41.942851993401717 ], [ -6.54535454008852, 41.939505125674394 ], [ -6.543150345676247, 41.936067556907012 ], [ -6.541191026417016, 41.932548695374969 ], [ -6.539481952668728, 41.9289581734213 ], [ -6.538027808883731, 41.925305821193234 ], [ -6.536832580769061, 41.921601639821432 ], [ -6.535899544361904, 41.917855774113917 ], [ -6.535231257050195, 41.914078484838605 ], [ -6.534829550563004, 41.910280120669142 ], [ -6.534695525949891, 41.906471089870436 ] ] ] } },
{ "type": "Feature", "properties": { "name": "União das freguesias de Aveleda e Rio de Onor", "feature_type": "mrr", "metric_roundness": 51.89, "metric_rectangularity": 66.97, "metric_mobile_fit": 39.47, "metric_aspect_ratio": 1.168, "metric_area_km2": 193.12 }, "geometry": { "type": "Polygon", "coordinates": [ [ [ -6.744643012249157, 41.924694373680182 ], [ -6.564069807591018, 41.974485473916481 ], [ -6.522064694296047, 41.890199468121821 ], [ -6.702637898954187, 41.840342561625818 ], [ -6.744643012249157, 41.924694373680182 ] ] ] } }
]
}
