{
"type": "FeatureCollection",
"name": "uniao_das_freguesias_de_eucisia_gouveia_e_valverde",
"crs": { "type": "name", "properties": { "name": "urn:ogc:def:crs:OGC:1.3:CRS84" } },
"features": [
{ "type": "Feature", "properties": { "name": "União das freguesias de Eucisia, Gouveia e Valverde", "metric_roundness": 46.43, "metric_rectangularity": 64.68, "metric_mobile_fit": 63.52, "metric_aspect_ratio": 0.927, "metric_area_km2": 89.51 }, "geometry": { "type": "Polygon", "coordinates": [ [ [ -7.014492, 41.356293499999985 ], [ -7.0119898, 41.3492629 ], [ -7.0153655, 41.342114899999984 ], [ -7.0269216, 41.3384268 ], [ -7.0589535, 41.317817499999983 ], [ -7.0695485, 41.3091195 ], [ -7.0471517, 41.3011271 ], [ -7.0213098, 41.2743412 ], [ -6.9996505, 41.2609712 ], [ -6.9871593, 41.255267599999982 ], [ -6.9776925, 41.254512 ], [ -6.9694743, 41.277121399999984 ], [ -6.9823096, 41.285616499999989 ], [ -6.9913258, 41.2958259 ], [ -6.9899236, 41.2996585 ], [ -6.981733, 41.3080868 ], [ -6.9647317, 41.3120851 ], [ -6.962463, 41.3057747 ], [ -6.9575989, 41.3048361 ], [ -6.9541238, 41.2992638 ], [ -6.9422735, 41.295075 ], [ -6.945481, 41.2997305 ], [ -6.9514433, 41.313705899999988 ], [ -6.9705615, 41.323056199999989 ], [ -6.9807053, 41.337316 ], [ -7.0006524, 41.346559899999988 ], [ -7.002867, 41.357619 ], [ -7.014492, 41.356293499999985 ] ] ] } }
]
}
