{
"type": "FeatureCollection",
"name": "uniao_das_freguesias_de_soutelo_e_seara_velha",
"crs": { "type": "name", "properties": { "name": "urn:ogc:def:crs:OGC:1.3:CRS84" } },
"features": [
{ "type": "Feature", "properties": { "name": "União das freguesias de Soutelo e Seara Velha", "metric_roundness": 38.11, "metric_rectangularity": 65.03, "metric_mobile_fit": 46.74, "metric_aspect_ratio": 1.095, "metric_area_km2": 32.59 }, "geometry": { "type": "Polygon", "coordinates": [ [ [ -7.5228205, 41.732887 ], [ -7.511932, 41.756364 ], [ -7.5139164, 41.759260399999988 ], [ -7.5304796, 41.7734367 ], [ -7.537154, 41.7746965 ], [ -7.5417399, 41.7721666 ], [ -7.5648221, 41.783064599999989 ], [ -7.58689, 41.7839485 ], [ -7.5789996, 41.7771347 ], [ -7.5798896, 41.767005300000015 ], [ -7.5747802, 41.759260399999988 ], [ -7.562725, 41.7447345 ], [ -7.5524905, 41.7507908 ], [ -7.5315925, 41.7368585 ], [ -7.5228205, 41.732887 ] ] ] } }
]
}
