{
"type": "FeatureCollection",
"name": "uniao_das_freguesias_de_sequeiros_e_gradiz",
"crs": { "type": "name", "properties": { "name": "urn:ogc:def:crs:OGC:1.3:CRS84" } },
"features": [
{ "type": "Feature", "properties": { "name": "União das freguesias de Sequeiros e Gradiz", "metric_roundness": 31.76, "metric_rectangularity": 60.77, "metric_mobile_fit": 16.65, "metric_aspect_ratio": 1.396, "metric_area_km2": 41.21 }, "geometry": { "type": "Polygon", "coordinates": [ [ [ -7.551084, 40.8467203 ], [ -7.5258401, 40.8459941 ], [ -7.5205909, 40.8353837 ], [ -7.5061389, 40.8301095 ], [ -7.5055205, 40.82185 ], [ -7.502967, 40.816239799999977 ], [ -7.4952061, 40.814675199999989 ], [ -7.4894166, 40.817185099999989 ], [ -7.485471, 40.8243515 ], [ -7.4717025, 40.8287345 ], [ -7.480505, 40.8338495 ], [ -7.4841427, 40.8407131 ], [ -7.4956307, 40.84917 ], [ -7.4983519, 40.855337299999988 ], [ -7.510958, 40.860173899999985 ], [ -7.514489, 40.86945 ], [ -7.5296453, 40.8728938 ], [ -7.558532, 40.873159 ], [ -7.579628, 40.859818499999989 ], [ -7.551084, 40.8467203 ] ] ] } }
]
}
