{
"type": "FeatureCollection",
"name": "uniao_das_freguesias_de_povoa_de_santo_adriao_e_olival_basto",
"crs": { "type": "name", "properties": { "name": "urn:ogc:def:crs:OGC:1.3:CRS84" } },
"features": [
{ "type": "Feature", "properties": { "name": "União das freguesias de Póvoa de Santo Adrião e Olival Basto", "feature_type": "entity", "metric_roundness": 52.3, "metric_rectangularity": 61.04, "metric_mobile_fit": 74.78, "metric_aspect_ratio": 0.815, "metric_area_km2": 4.23 }, "geometry": { "type": "Polygon", "coordinates": [ [ [ -9.1498875, 38.7958535 ], [ -9.1509, 38.800002 ], [ -9.1577826, 38.8006567 ], [ -9.1586539, 38.806117 ], [ -9.1645985, 38.8073354 ], [ -9.1691134, 38.8058694 ], [ -9.170071, 38.8004545 ], [ -9.1681679, 38.7938083 ], [ -9.1726436, 38.7888096 ], [ -9.1692685, 38.785566 ], [ -9.1498875, 38.7958535 ] ] ] } },
{ "type": "Feature", "properties": { "name": "União das freguesias de Póvoa de Santo Adrião e Olival Basto", "feature_type": "circle", "metric_roundness": 52.3, "metric_rectangularity": 61.04, "metric_mobile_fit": 74.78, "metric_aspect_ratio": 0.815, "metric_area_km2": 4.23 }, "geometry": { "type": "Polygon", "coordinates": [ [ [ -9.149883811050884, 38.796107612893998 ], [ -9.149903559987107, 38.795519816133059 ], [ -9.149962752665321, 38.794933625654423 ], [ -9.150061226842503, 38.794350648224992 ], [ -9.150198712607782, 38.793772481843881 ], [ -9.150374833122232, 38.793200711361301 ], [ -9.150589105651763, 38.792636904133154 ], [ -9.150840942890268, 38.792082605723131 ], [ -9.151129654569376, 38.791539335664062 ], [ -9.151454449350449, 38.791008583290477 ], [ -9.151814436993567, 38.790491803653431 ], [ -9.152208630797618, 38.789990413529068 ], [ -9.152635950304791, 38.789505787531887 ], [ -9.153095224262016, 38.789039254343258 ], [ -9.153585193831303, 38.788592093065731 ], [ -9.154104516040116, 38.788165529713062 ], [ -9.154651767462379, 38.78776073384568 ], [ -9.155225448119984, 38.787378815360874 ], [ -9.155823985594125, 38.787020821446418 ], [ -9.156445739335188, 38.786687733706266 ], [ -9.157089005159389, 38.786380465465932 ], [ -9.157752019919814, 38.786099859265271 ], [ -9.158432966339086, 38.785846684545483 ], [ -9.159129977990412, 38.785621635536508 ], [ -9.159841144413297, 38.785425329351071 ], [ -9.160564516350011, 38.785258304290203 ], [ -9.161298111088355, 38.785121018365174 ], [ -9.162039917896143, 38.78501384803991 ], [ -9.162787903532481, 38.784937087197136 ], [ -9.163540017820726, 38.784890946331465 ], [ -9.164294199267895, 38.784875551971318 ], [ -9.165048380715064, 38.784890946331465 ], [ -9.165800495003309, 38.784937087197136 ], [ -9.166548480639644, 38.78501384803991 ], [ -9.167290287447432, 38.785121018365174 ], [ -9.168023882185778, 38.785258304290203 ], [ -9.168747254122492, 38.785425329351071 ], [ -9.169458420545375, 38.785621635536508 ], [ -9.170155432196699, 38.785846684545483 ], [ -9.170836378615975, 38.786099859265271 ], [ -9.171499393376399, 38.786380465465932 ], [ -9.172142659200599, 38.786687733706266 ], [ -9.172764412941664, 38.787020821446418 ], [ -9.173362950415802, 38.787378815360874 ], [ -9.173936631073408, 38.78776073384568 ], [ -9.174483882495673, 38.788165529713062 ], [ -9.175003204704485, 38.788592093065731 ], [ -9.17549317427377, 38.789039254343258 ], [ -9.175952448230996, 38.789505787531887 ], [ -9.176379767738169, 38.789990413529068 ], [ -9.176773961542221, 38.790491803653431 ], [ -9.177133949185338, 38.791008583290477 ], [ -9.17745874396641, 38.791539335664062 ], [ -9.177747455645521, 38.792082605723131 ], [ -9.177999292884024, 38.792636904133154 ], [ -9.178213565413557, 38.793200711361301 ], [ -9.178389685928007, 38.793772481843881 ], [ -9.178527171693286, 38.794350648224992 ], [ -9.178625645870468, 38.794933625654423 ], [ -9.17868483854868, 38.795519816133059 ], [ -9.178704587484905, 38.796107612893998 ], [ -9.17868483854868, 38.796695404807245 ], [ -9.178625645870468, 38.797281580795925 ], [ -9.178527171693286, 38.797864534251879 ], [ -9.178389685928007, 38.798442667438671 ], [ -9.178213565413557, 38.799014395869733 ], [ -9.177999292884024, 38.799578152649921 ], [ -9.177747455645521, 38.800132392768276 ], [ -9.17745874396641, 38.800675597330581 ], [ -9.177133949185338, 38.801206277719942 ], [ -9.176773961542221, 38.801722979673954 ], [ -9.176379767738169, 38.802224287267592 ], [ -9.175952448230996, 38.802708826790578 ], [ -9.17549317427377, 38.803175270508973 ], [ -9.175003204704485, 38.803622340300485 ], [ -9.174483882495673, 38.804048811153706 ], [ -9.173936631073408, 38.804453514521626 ], [ -9.173362950415802, 38.804835341520423 ], [ -9.172764412941664, 38.805193245964638 ], [ -9.172142659200599, 38.80552624723061 ], [ -9.171499393376399, 38.805833432940226 ], [ -9.170836378615975, 38.806113961457839 ], [ -9.170155432196699, 38.806367064193402 ], [ -9.169458420545375, 38.806592047705621 ], [ -9.168747254122492, 38.806788295599382 ], [ -9.168023882185778, 38.806955270212306 ], [ -9.167290287447432, 38.807092514085817 ], [ -9.166548480639644, 38.807199651216763 ], [ -9.165800495003309, 38.807276388086059 ], [ -9.165048380715064, 38.80732251446176 ], [ -9.164294199267895, 38.807337903974229 ], [ -9.163540017820726, 38.80732251446176 ], [ -9.162787903532481, 38.807276388086059 ], [ -9.162039917896143, 38.807199651216763 ], [ -9.161298111088355, 38.807092514085817 ], [ -9.160564516350011, 38.806955270212306 ], [ -9.159841144413297, 38.806788295599382 ], [ -9.159129977990412, 38.806592047705621 ], [ -9.158432966339086, 38.806367064193402 ], [ -9.157752019919814, 38.806113961457839 ], [ -9.157089005159389, 38.805833432940226 ], [ -9.156445739335188, 38.80552624723061 ], [ -9.155823985594125, 38.805193245964638 ], [ -9.155225448119984, 38.804835341520423 ], [ -9.154651767462379, 38.804453514521626 ], [ -9.154104516040116, 38.804048811153706 ], [ -9.153585193831303, 38.803622340300485 ], [ -9.153095224262016, 38.803175270508973 ], [ -9.152635950304791, 38.802708826790578 ], [ -9.152208630797618, 38.802224287267592 ], [ -9.151814436993567, 38.801722979673954 ], [ -9.151454449350449, 38.801206277719942 ], [ -9.151129654569376, 38.800675597330581 ], [ -9.150840942890268, 38.800132392768276 ], [ -9.150589105651763, 38.799578152649921 ], [ -9.150374833122232, 38.799014395869733 ], [ -9.150198712607782, 38.798442667438671 ], [ -9.150061226842503, 38.797864534251879 ], [ -9.149962752665321, 38.797281580795925 ], [ -9.149903559987107, 38.796695404807245 ], [ -9.149883811050884, 38.796107612893998 ] ] ] } },
{ "type": "Feature", "properties": { "name": "União das freguesias de Póvoa de Santo Adrião e Olival Basto", "feature_type": "mrr", "metric_roundness": 52.3, "metric_rectangularity": 61.04, "metric_mobile_fit": 74.78, "metric_aspect_ratio": 0.815, "metric_area_km2": 4.23 }, "geometry": { "type": "Polygon", "coordinates": [ [ [ -9.148102745678944, 38.796800779758264 ], [ -9.169638271603541, 38.78536971037331 ], [ -9.181708926452869, 38.799184761465987 ], [ -9.160173400528274, 38.81061361533007 ], [ -9.148102745678944, 38.796800779758264 ] ] ] } }
]
}
