{
"type": "FeatureCollection",
"name": "uniao_das_freguesias_de_belinho_e_mar",
"crs": { "type": "name", "properties": { "name": "urn:ogc:def:crs:OGC:1.3:CRS84" } },
"features": [
{ "type": "Feature", "properties": { "name": "União das freguesias de Belinho e Mar", "feature_type": "entity", "metric_roundness": 51.79, "metric_rectangularity": 64.93, "metric_mobile_fit": 52.95, "metric_aspect_ratio": 1.033, "metric_area_km2": 16.48 }, "geometry": { "type": "Polygon", "coordinates": [ [ [ -8.8057721, 41.58648 ], [ -8.7989045, 41.568345 ], [ -8.7721395, 41.573551499999986 ], [ -8.7731328, 41.5812296 ], [ -8.758276, 41.5839245 ], [ -8.7817819, 41.5944238 ], [ -8.7850478, 41.6043369 ], [ -8.807986, 41.6016645 ], [ -8.8057721, 41.58648 ] ] ] } },
{ "type": "Feature", "properties": { "name": "União das freguesias de Belinho e Mar", "feature_type": "circle", "metric_roundness": 51.79, "metric_rectangularity": 64.93, "metric_mobile_fit": 52.95, "metric_aspect_ratio": 1.033, "metric_area_km2": 16.48 }, "geometry": { "type": "Polygon", "coordinates": [ [ [ -8.757850849176977, 41.587598963917273 ], [ -8.757890038093459, 41.586479611227489 ], [ -8.758007497428807, 41.585363307278811 ], [ -8.758202905235144, 41.584253112021131 ], [ -8.758475725913264, 41.58315206881678 ], [ -8.758825211680644, 41.58206319609458 ], [ -8.759250404621092, 41.580989479070531 ], [ -8.759750139310311, 41.579933861557983 ], [ -8.760323046010257, 41.578899237889786 ], [ -8.760967554423482, 41.577888444974533 ], [ -8.76168189799723, 41.576904254509081 ], [ -8.762464118765418, 41.575949365368515 ], [ -8.763312072715291, 41.575026396194737 ], [ -8.764223435664009, 41.574137878204034 ], [ -8.765195709629086, 41.573286248233671 ], [ -8.766226229675159, 41.57247384204657 ], [ -8.767312171218412, 41.571702887912608 ], [ -8.768450557768563, 41.570975500484465 ], [ -8.769638269087205, 41.57029367498486 ], [ -8.770872049740165, 41.569659281721229 ], [ -8.772148518020439, 41.569074060943336 ], [ -8.773464175217192, 41.568539618057656 ], [ -8.774815415205502, 41.568057419212373 ], [ -8.776198534330483, 41.567628787264574 ], [ -8.777609741558752, 41.567254898141613 ], [ -8.779045168869386, 41.566936777606038 ], [ -8.780500881855907, 41.566675298433623 ], [ -8.781972890510202, 41.566471178012065 ], [ -8.783457160158868, 41.566324976367014 ], [ -8.784949622521966, 41.566237094621215 ], [ -8.786446186863902, 41.566207773890696 ], [ -8.787942751205836, 41.566237094621215 ], [ -8.789435213568934, 41.566324976367014 ], [ -8.7909194832176, 41.566471178012065 ], [ -8.792391491871895, 41.566675298433623 ], [ -8.793847204858416, 41.566936777606038 ], [ -8.795282632169052, 41.567254898141613 ], [ -8.796693839397319, 41.567628787264574 ], [ -8.7980769585223, 41.568057419212373 ], [ -8.79942819851061, 41.568539618057656 ], [ -8.800743855707363, 41.569074060943336 ], [ -8.802020323987637, 41.569659281721229 ], [ -8.803254104640597, 41.57029367498486 ], [ -8.804441815959239, 41.570975500484465 ], [ -8.80558020250939, 41.571702887912608 ], [ -8.806666144052643, 41.57247384204657 ], [ -8.807696664098717, 41.573286248233671 ], [ -8.808668938063793, 41.574137878204034 ], [ -8.809580301012513, 41.575026396194737 ], [ -8.810428254962385, 41.575949365368515 ], [ -8.811210475730572, 41.576904254509081 ], [ -8.81192481930432, 41.577888444974533 ], [ -8.812569327717545, 41.578899237889786 ], [ -8.813142234417491, 41.579933861557983 ], [ -8.81364196910671, 41.580989479070531 ], [ -8.814067162047158, 41.58206319609458 ], [ -8.814416647814538, 41.58315206881678 ], [ -8.814689468492658, 41.584253112021131 ], [ -8.814884876298995, 41.585363307278811 ], [ -8.815002335634343, 41.586479611227489 ], [ -8.815041524550825, 41.587598963917273 ], [ -8.815002335634343, 41.588718297200437 ], [ -8.814884876298995, 41.589834543141883 ], [ -8.814689468492658, 41.59094464242726 ], [ -8.814416647814538, 41.592045552745724 ], [ -8.814067162047158, 41.59313425712439 ], [ -8.81364196910671, 41.594207772191645 ], [ -8.813142234417491, 41.595263156346824 ], [ -8.812569327717545, 41.596297517813824 ], [ -8.81192481930432, 41.597308022556732 ], [ -8.811210475730572, 41.598291902036003 ], [ -8.810428254962385, 41.599246460783775 ], [ -8.809580301012513, 41.600169083777999 ], [ -8.808668938063793, 41.601057243595186 ], [ -8.807696664098717, 41.601908507322321 ], [ -8.806666144052643, 41.602720543209095 ], [ -8.80558020250939, 41.603491127042744 ], [ -8.804441815959239, 41.604218148227652 ], [ -8.803254104640597, 41.604899615553762 ], [ -8.802020323987637, 41.605533662637839 ], [ -8.800743855707363, 41.606118553022966 ], [ -8.79942819851061, 41.606652684922466 ], [ -8.7980769585223, 41.60713459559544 ], [ -8.796693839397319, 41.607562965342041 ], [ -8.795282632169052, 41.607936621107662 ], [ -8.793847204858416, 41.608254539686463 ], [ -8.792391491871895, 41.608515850515346 ], [ -8.7909194832176, 41.608719838051044 ], [ -8.789435213568934, 41.608865943723792 ], [ -8.787942751205836, 41.60895376746236 ], [ -8.786446186863902, 41.608983068786266 ], [ -8.784949622521966, 41.60895376746236 ], [ -8.783457160158868, 41.608865943723792 ], [ -8.781972890510202, 41.608719838051044 ], [ -8.780500881855907, 41.608515850515346 ], [ -8.779045168869386, 41.608254539686463 ], [ -8.777609741558752, 41.607936621107662 ], [ -8.776198534330483, 41.607562965342041 ], [ -8.774815415205502, 41.60713459559544 ], [ -8.773464175217192, 41.606652684922466 ], [ -8.772148518020439, 41.606118553022966 ], [ -8.770872049740165, 41.605533662637839 ], [ -8.769638269087205, 41.604899615553762 ], [ -8.768450557768563, 41.604218148227652 ], [ -8.767312171218412, 41.603491127042744 ], [ -8.766226229675159, 41.602720543209095 ], [ -8.765195709629086, 41.601908507322321 ], [ -8.764223435664009, 41.601057243595186 ], [ -8.763312072715291, 41.600169083777999 ], [ -8.762464118765418, 41.599246460783775 ], [ -8.76168189799723, 41.598291902036003 ], [ -8.760967554423482, 41.597308022556732 ], [ -8.760323046010257, 41.596297517813824 ], [ -8.759750139310311, 41.595263156346824 ], [ -8.759250404621092, 41.594207772191645 ], [ -8.758825211680644, 41.59313425712439 ], [ -8.758475725913264, 41.592045552745724 ], [ -8.758202905235144, 41.59094464242726 ], [ -8.758007497428807, 41.589834543141883 ], [ -8.757890038093459, 41.588718297200437 ], [ -8.757850849176977, 41.587598963917273 ] ] ] } },
{ "type": "Feature", "properties": { "name": "União das freguesias de Belinho e Mar", "feature_type": "mrr", "metric_roundness": 51.79, "metric_rectangularity": 64.93, "metric_mobile_fit": 52.95, "metric_aspect_ratio": 1.033, "metric_area_km2": 16.48 }, "geometry": { "type": "Polygon", "coordinates": [ [ [ -8.755776672375292, 41.576734298037685 ], [ -8.799432900783199, 41.56824221008921 ], [ -8.810857266024465, 41.601106228335972 ], [ -8.767201037616559, 41.609593994732485 ], [ -8.755776672375292, 41.576734298037685 ] ] ] } }
]
}
