{
"type": "FeatureCollection",
"name": "uniao_das_freguesias_de_espadanedo_edroso_murcos_e_soutelo_mourisco",
"crs": { "type": "name", "properties": { "name": "urn:ogc:def:crs:OGC:1.3:CRS84" } },
"features": [
{ "type": "Feature", "properties": { "name": "União das freguesias de Espadanedo, Edroso, Murçós e Soutelo Mourisco", "metric_roundness": 46.73, "metric_rectangularity": 51.52, "metric_mobile_fit": 42.31, "metric_aspect_ratio": 1.139, "metric_area_km2": 114.71 }, "geometry": { "type": "Polygon", "coordinates": [ [ [ -6.9133306, 41.6237048 ], [ -6.9083475, 41.630959 ], [ -6.907587, 41.647898499999989 ], [ -6.8980215, 41.664043199999988 ], [ -6.8858225, 41.6709496 ], [ -6.883913, 41.697426 ], [ -6.921096, 41.697493399999985 ], [ -6.9280258, 41.6812811 ], [ -6.9316745, 41.6799608 ], [ -6.9434385, 41.680825 ], [ -6.9553218, 41.691103499999983 ], [ -6.9636286, 41.694114199999987 ], [ -6.9690913, 41.6921016 ], [ -6.9747046, 41.698048899999989 ], [ -6.9847482, 41.7014604 ], [ -6.999625, 41.699041 ], [ -7.0038996, 41.6897434 ], [ -7.0164743, 41.674879399999973 ], [ -7.0287475, 41.6730275 ], [ -7.029668, 41.6665285 ], [ -7.0137695, 41.6541435 ], [ -6.9948872, 41.656680099999988 ], [ -6.974565, 41.6664612 ], [ -6.9686651, 41.666103299999989 ], [ -6.9739292, 41.64831 ], [ -6.9700878, 41.6432899 ], [ -6.9544955, 41.6370067 ], [ -6.9578692, 41.6250421 ], [ -6.9479189, 41.6191485 ], [ -6.9446245, 41.607578 ], [ -6.9411005, 41.6058775 ], [ -6.9380685, 41.6068005 ], [ -6.9348435, 41.607591 ], [ -6.9256665, 41.610345 ], [ -6.9221345, 41.612286 ], [ -6.911785, 41.6175785 ], [ -6.9133306, 41.6237048 ] ] ] } }
]
}
