{
"type": "FeatureCollection",
"name": "gnadendorf",
"crs": { "type": "name", "properties": { "name": "urn:ogc:def:crs:OGC:1.3:CRS84" } },
"features": [
{ "type": "Feature", "properties": { "name": "Gnadendorf", "metric_roundness": 44.32, "metric_rectangularity": 54.88, "metric_mobile_fit": 4.75, "metric_aspect_ratio": 1.515, "metric_area_km2": 98.68 }, "geometry": { "type": "Polygon", "coordinates": [ [ [ 16.398511093051635, 48.582856316257804 ], [ 16.398610778398638, 48.582520665645397 ], [ 16.398671811239911, 48.582315192712009 ], [ 16.398834901622894, 48.582101285883233 ], [ 16.398992957687906, 48.581893991418752 ], [ 16.39901761813271, 48.581861571631379 ], [ 16.3992716072908, 48.581472282118519 ], [ 16.399270325097671, 48.581282032757791 ], [ 16.399246409715204, 48.58115142343032 ], [ 16.399170559854717, 48.580909480987238 ], [ 16.399117688120576, 48.580805193259188 ], [ 16.399066306965516, 48.580748752247104 ], [ 16.399025383908565, 48.580703918697282 ], [ 16.398850216847684, 48.5805118333571 ], [ 16.39837541311039, 48.580048831946023 ], [ 16.397875643169318, 48.579430493642867 ], [ 16.397769041232827, 48.578933634647534 ], [ 16.397800959003781, 48.578231793850037 ], [ 16.397584666858911, 48.577489376582271 ], [ 16.397536261837438, 48.577323223659015 ], [ 16.397505785008558, 48.577314840551132 ], [ 16.397366508055828, 48.577276632206015 ], [ 16.39727701663957, 48.577252152049105 ], [ 16.397220477313489, 48.57723662028441 ], [ 16.397098158812039, 48.577203008241256 ], [ 16.397092814481017, 48.577199817753929 ], [ 16.396990629043575, 48.577137505080124 ], [ 16.396697954592383, 48.577099621315426 ], [ 16.396075827237755, 48.577018963483681 ], [ 16.395778094898329, 48.576980399729557 ], [ 16.395642034354449, 48.576952906519402 ], [ 16.395318159834829, 48.576887572388443 ], [ 16.395094802712155, 48.576799445085413 ], [ 16.395066051817292, 48.57678813585413 ], [ 16.393595286963002, 48.576309404707857 ], [ 16.393340223474457, 48.576226333837141 ], [ 16.392267414639047, 48.575141128255304 ], [ 16.391805436629635, 48.57513232110535 ], [ 16.391701240074077, 48.575129643735004 ], [ 16.391565521913048, 48.575126079868411 ], [ 16.391525170535267, 48.575124974160026 ], [ 16.390952700139593, 48.574959372115906 ], [ 16.390336899469183, 48.574836124245834 ], [ 16.389948013534081, 48.574758342373386 ], [ 16.388964468575921, 48.574655223834753 ], [ 16.388619975084598, 48.574614622981379 ], [ 16.388148038149982, 48.574558985987281 ], [ 16.387942868371702, 48.574550750243098 ], [ 16.387679375050173, 48.574540256036379 ], [ 16.387394257767664, 48.574528795424406 ], [ 16.387098815906199, 48.574517063493282 ], [ 16.38682738558612, 48.574539718384592 ], [ 16.386550960052542, 48.574562773005994 ], [ 16.386484551602813, 48.57456828614491 ], [ 16.385584608382118, 48.574724528805731 ], [ 16.385424145702441, 48.574887132627758 ], [ 16.385157734115637, 48.575157181549429 ], [ 16.384956127972384, 48.575163339274788 ], [ 16.38388730311366, 48.575195977544084 ], [ 16.383218945888796, 48.575204307750035 ], [ 16.382948674393905, 48.575207661077734 ], [ 16.382838476926278, 48.575209002662888 ], [ 16.382584098997242, 48.57531590294515 ], [ 16.382355467377092, 48.575300887862348 ], [ 16.382313936875967, 48.575298189517625 ], [ 16.382237273156708, 48.575293166168642 ], [ 16.38156609115088, 48.575249174489201 ], [ 16.381030657393278, 48.575158798709012 ], [ 16.38095639693119, 48.575146241083566 ], [ 16.380220056454387, 48.574949931127577 ], [ 16.380150738271336, 48.57493148366089 ], [ 16.379940569280745, 48.574875388582107 ], [ 16.379525891641986, 48.574764850181488 ], [ 16.379416743461029, 48.57473573778973 ], [ 16.378841708644824, 48.574585626144184 ], [ 16.378133312164216, 48.57440054751541 ], [ 16.377660932616244, 48.574295824556863 ], [ 16.377401442945253, 48.574238217835862 ], [ 16.377296715692147, 48.574215019197759 ], [ 16.377100767232147, 48.57436053205852 ], [ 16.376733271941369, 48.574633010032741 ], [ 16.37662035317863, 48.574716865845559 ], [ 16.376601272468839, 48.574735994166794 ], [ 16.376332260905858, 48.575004109239856 ], [ 16.37622555530622, 48.575073761476276 ], [ 16.376112967192515, 48.575147166967142 ], [ 16.375928413450186, 48.575267538552801 ], [ 16.375654178123408, 48.575523096236864 ], [ 16.374727876077714, 48.57529325638626 ], [ 16.374858683347732, 48.575519292125151 ], [ 16.374969566652776, 48.575711101727428 ], [ 16.374726562963019, 48.575631818146149 ], [ 16.374691888306277, 48.575713098263023 ], [ 16.374680456657373, 48.57574003832552 ], [ 16.374633866764785, 48.575849261153628 ], [ 16.374573095889932, 48.575991706137771 ], [ 16.374605317909928, 48.576004460235424 ], [ 16.375037051142325, 48.57616497825574 ], [ 16.374660170926248, 48.576614382335137 ], [ 16.374506706401135, 48.576797400392493 ], [ 16.374434986721763, 48.576883063436874 ], [ 16.37419711549839, 48.577166655282639 ], [ 16.373868004141432, 48.577559188845235 ], [ 16.37338855996137, 48.577443110580482 ], [ 16.37307888597477, 48.577707682814889 ], [ 16.372952499639453, 48.577924468909458 ], [ 16.372912645091333, 48.577977799773286 ], [ 16.372878830404328, 48.578023142893564 ], [ 16.372504017710586, 48.578524240688729 ], [ 16.37273027352148, 48.578583891820934 ], [ 16.373081783960561, 48.578676563119302 ], [ 16.372916141014166, 48.578841892968889 ], [ 16.372714351928732, 48.579056766570481 ], [ 16.372230878275655, 48.579546463424435 ], [ 16.371846666178456, 48.579897666217626 ], [ 16.371684886645166, 48.579969913732299 ], [ 16.371500642479326, 48.580052285220674 ], [ 16.371462577142772, 48.580069295115621 ], [ 16.371435212698618, 48.580081436714785 ], [ 16.371361065923121, 48.580114594859531 ], [ 16.371287011988883, 48.580110216525028 ], [ 16.370999085116676, 48.580092937625551 ], [ 16.370550885822123, 48.58009295893477 ], [ 16.370195745213369, 48.580081472815777 ], [ 16.370139333020379, 48.580229112209686 ], [ 16.370079272505951, 48.580386207218837 ], [ 16.369808892071458, 48.580381251429507 ], [ 16.369512297272859, 48.580414869118854 ], [ 16.369142072313139, 48.580446705632006 ], [ 16.368683038967887, 48.580435569538075 ], [ 16.368389707070325, 48.580388721252149 ], [ 16.36815246037219, 48.580372821304358 ], [ 16.368119305650126, 48.58042255619695 ], [ 16.368076063581174, 48.580487584232245 ], [ 16.368068327481801, 48.580499036018828 ], [ 16.368056367269169, 48.580517078020385 ], [ 16.368012625595156, 48.580582839055779 ], [ 16.368004889467397, 48.580594290837631 ], [ 16.367970615996668, 48.580645764864173 ], [ 16.367992856348188, 48.580825297109435 ], [ 16.368003031876565, 48.581028004577348 ], [ 16.367986792168484, 48.581295843720788 ], [ 16.367986248485451, 48.581305038780663 ], [ 16.3678664678615, 48.581335057389303 ], [ 16.367829886948719, 48.58134275657703 ], [ 16.367777502862509, 48.581353925814135 ], [ 16.367739984357254, 48.581361829301464 ], [ 16.367711686618875, 48.581295956011232 ], [ 16.367704142331785, 48.581278419756366 ], [ 16.367609808325781, 48.581079424433341 ], [ 16.36724403034323, 48.580825179568315 ], [ 16.367101013121442, 48.580681721569704 ], [ 16.366833762201665, 48.580199987852374 ], [ 16.366702969944576, 48.580287176716496 ], [ 16.366663681705802, 48.580313397661357 ], [ 16.366417119920573, 48.580452641843692 ], [ 16.366326645836111, 48.580478118996744 ], [ 16.365958126545042, 48.580573537807261 ], [ 16.365548338609575, 48.580714579283232 ], [ 16.365500467161425, 48.580756323779227 ], [ 16.365489368611133, 48.580765972297797 ], [ 16.365315316155357, 48.580918006892581 ], [ 16.365221389391859, 48.581000098454879 ], [ 16.365012970148769, 48.58115599314683 ], [ 16.36479063692612, 48.581296766227844 ], [ 16.364753148071877, 48.581321319698127 ], [ 16.364623701933866, 48.581406130917671 ], [ 16.364494187888248, 48.581485183145041 ], [ 16.364474280166089, 48.581501900412341 ], [ 16.364421267283184, 48.581546207818882 ], [ 16.36426223592067, 48.581670038751412 ], [ 16.36421090096702, 48.581715202688137 ], [ 16.364060253430072, 48.58184781711698 ], [ 16.363997704742093, 48.581902992329681 ], [ 16.363932217039736, 48.581982006042864 ], [ 16.36375159540188, 48.582200094837809 ], [ 16.363544871275579, 48.582449552242878 ], [ 16.3634919252512, 48.582513479431363 ], [ 16.363476483287933, 48.582569234872338 ], [ 16.363447811500372, 48.582672227606913 ], [ 16.363424382418906, 48.582702897244452 ], [ 16.363361521272619, 48.58278508288646 ], [ 16.363339828736823, 48.582879884072717 ], [ 16.363298946999098, 48.582992103750151 ], [ 16.363287317512338, 48.583015807197846 ], [ 16.363273019837166, 48.583044890258215 ], [ 16.363216353160752, 48.583140146770077 ], [ 16.363205984389484, 48.58315760693872 ], [ 16.363181911924226, 48.583198104161937 ], [ 16.363079451381296, 48.583370513764272 ], [ 16.362944025882481, 48.583598322071268 ], [ 16.362864741683566, 48.583913425954727 ], [ 16.362787556550259, 48.584222714797725 ], [ 16.362776028559061, 48.584268917806071 ], [ 16.362759873483157, 48.584333332397179 ], [ 16.362593498394023, 48.584904695562606 ], [ 16.362623040067557, 48.585081788809838 ], [ 16.362645288449436, 48.58521559644818 ], [ 16.362671694109086, 48.585373958946846 ], [ 16.362700843852796, 48.585548992083147 ], [ 16.362714463082007, 48.585630637789258 ], [ 16.362648098178013, 48.585784830674569 ], [ 16.362644411442108, 48.585793656964938 ], [ 16.362617830404474, 48.585858431317874 ], [ 16.362573564873614, 48.585966237598967 ], [ 16.362511510870199, 48.586117618520248 ], [ 16.362306845650327, 48.586617064243342 ], [ 16.362234620226037, 48.58690930208337 ], [ 16.362213250562679, 48.586995813589553 ], [ 16.362087190911097, 48.587505465653436 ], [ 16.362153884891992, 48.587915260473274 ], [ 16.362159022445859, 48.5879472606996 ], [ 16.362583650130318, 48.588357423711983 ], [ 16.36275897967672, 48.589008690693404 ], [ 16.362763667958035, 48.589026121082213 ], [ 16.3629319416717, 48.589458128780059 ], [ 16.363068333668686, 48.590007792861904 ], [ 16.363111108822714, 48.590289853431827 ], [ 16.363111538342633, 48.590292542578673 ], [ 16.363134292973143, 48.590441818272801 ], [ 16.363120299816487, 48.590582234148307 ], [ 16.363090295915814, 48.59068112031909 ], [ 16.362979830341136, 48.591045274643278 ], [ 16.362963999132891, 48.591069086658877 ], [ 16.362900929249925, 48.591164058068685 ], [ 16.362897562089081, 48.591169095695484 ], [ 16.362767560074708, 48.591364898889992 ], [ 16.362619102492058, 48.591588362130551 ], [ 16.362377194037219, 48.592022433426806 ], [ 16.362183066335994, 48.592362288793694 ], [ 16.361755593840968, 48.592968215582665 ], [ 16.361518220745442, 48.593149602989691 ], [ 16.360842365374825, 48.59359525484372 ], [ 16.360803968822623, 48.5936322512717 ], [ 16.360080889992481, 48.59432745298416 ], [ 16.359691179975677, 48.594786940580121 ], [ 16.359625324407371, 48.594864700167193 ], [ 16.358868271825067, 48.595635838321371 ], [ 16.358487876517316, 48.59597932962599 ], [ 16.358051128964266, 48.596382330833343 ], [ 16.357577411358854, 48.596657303348451 ], [ 16.357411690844597, 48.596756092886956 ], [ 16.357401335270019, 48.596762300927161 ], [ 16.357297670276857, 48.596824834137202 ], [ 16.357157307208944, 48.596909467057763 ], [ 16.357007244367292, 48.596999930826044 ], [ 16.356977359841835, 48.597017894235975 ], [ 16.356887032024485, 48.59707648225632 ], [ 16.356593034079669, 48.597267061476828 ], [ 16.356404005595259, 48.597389583459758 ], [ 16.356352067225018, 48.597438718950642 ], [ 16.356095222898031, 48.597682072277678 ], [ 16.355937223621428, 48.597831604769382 ], [ 16.355624260791117, 48.598138511354456 ], [ 16.355506592786977, 48.598253879018884 ], [ 16.355386611886448, 48.598371466441549 ], [ 16.355232117119961, 48.598522977546267 ], [ 16.354751973436954, 48.598307289403564 ], [ 16.354091209023544, 48.598010482228666 ], [ 16.353625791208611, 48.597809711065842 ], [ 16.351984794903252, 48.599136717459174 ], [ 16.351697205802299, 48.599008760290324 ], [ 16.351207872963947, 48.598791224666186 ], [ 16.351181680522583, 48.598774978345133 ], [ 16.351142105100212, 48.598750346221145 ], [ 16.350970983895998, 48.598643777290327 ], [ 16.350752799851758, 48.598766951066871 ], [ 16.350704523719941, 48.598737412596812 ], [ 16.350670323830581, 48.598716512115132 ], [ 16.350634580854237, 48.598694751314078 ], [ 16.350332002035074, 48.598510022246302 ], [ 16.350291707626461, 48.598484688312659 ], [ 16.350270014702982, 48.598471116090366 ], [ 16.35025311291167, 48.598460570676338 ], [ 16.350213673670812, 48.598435934743186 ], [ 16.349947408544523, 48.598273400986749 ], [ 16.349924751539071, 48.59825958352117 ], [ 16.349883238064415, 48.59823428086488 ], [ 16.34980328949942, 48.598270993810296 ], [ 16.348339296999423, 48.59894460963443 ], [ 16.347801786033866, 48.599255386051489 ], [ 16.347755096189275, 48.59928539066177 ], [ 16.347599089795349, 48.599385985548395 ], [ 16.34735626343598, 48.599565951885353 ], [ 16.346901136131823, 48.599937428205884 ], [ 16.346534273512251, 48.600321572208081 ], [ 16.346461641025428, 48.600397607734116 ], [ 16.346413630731778, 48.600488580865289 ], [ 16.346286089753448, 48.600456490104804 ], [ 16.346278954280237, 48.600455143600648 ], [ 16.346084456265448, 48.600417485067396 ], [ 16.346035727551342, 48.600408028062397 ], [ 16.345675277127274, 48.600375269080075 ], [ 16.345546145347097, 48.60033916812089 ], [ 16.345358244194042, 48.600286667451215 ], [ 16.345283191190024, 48.600265646335401 ], [ 16.345136535963828, 48.600224595284878 ], [ 16.344854978394764, 48.600088185820908 ], [ 16.344644228207347, 48.599986047562034 ], [ 16.344409370553045, 48.599852216245367 ], [ 16.344091497943289, 48.599672545290851 ], [ 16.344057535431091, 48.599653346980276 ], [ 16.343486729676659, 48.599285852263989 ], [ 16.343382384682602, 48.599218689181413 ], [ 16.343267603402428, 48.599144773731609 ], [ 16.343337998494839, 48.598758721826499 ], [ 16.343190196853858, 48.598728138804852 ], [ 16.343090329957676, 48.598707394244499 ], [ 16.343062998343736, 48.598701796347221 ], [ 16.343008987366833, 48.598704084893903 ], [ 16.342896103242662, 48.598709056921884 ], [ 16.342814753260384, 48.598712588197209 ], [ 16.342733267769439, 48.598716122898956 ], [ 16.342629451426443, 48.598720681569439 ], [ 16.342535109393431, 48.598724816615459 ], [ 16.342462556203156, 48.598727941526413 ], [ 16.342431574511643, 48.598729547890258 ], [ 16.34235770308528, 48.59873333666966 ], [ 16.34229843913899, 48.598736299940526 ], [ 16.342174642568377, 48.598742631818354 ], [ 16.342099958118446, 48.598746441328792 ], [ 16.342017696287659, 48.598750625533704 ], [ 16.341943418307611, 48.598754424498061 ], [ 16.341888213994554, 48.598757193228778 ], [ 16.341841671029748, 48.598759559348281 ], [ 16.341782683268477, 48.598762605266984 ], [ 16.341696977518389, 48.598756616892047 ], [ 16.341642197738143, 48.598752714046284 ], [ 16.341605273145863, 48.598750152537207 ], [ 16.341533331437876, 48.598745160487994 ], [ 16.341505808685774, 48.598743257447843 ], [ 16.341470921821116, 48.598740733546592 ], [ 16.34144122061322, 48.598738706449289 ], [ 16.341365187763657, 48.598733369376333 ], [ 16.341043174176729, 48.598707889613983 ], [ 16.340925932498649, 48.598698660504532 ], [ 16.340881487390757, 48.598695121868303 ], [ 16.340633636225153, 48.59867547646185 ], [ 16.340606233299006, 48.59867330011194 ], [ 16.340514210991799, 48.598666033010034 ], [ 16.340459681404145, 48.598661763159967 ], [ 16.34037160955425, 48.598654754508303 ], [ 16.340263050848751, 48.598619919638018 ], [ 16.340147711262826, 48.598582828621403 ], [ 16.340016469632729, 48.598540655433141 ], [ 16.339946432939868, 48.598514821790481 ], [ 16.339860170685441, 48.598483014259422 ], [ 16.339777791634368, 48.598452637073962 ], [ 16.339612199859889, 48.598391543912989 ], [ 16.339158562790875, 48.598224256936859 ], [ 16.338937502602267, 48.598207880492865 ], [ 16.338884414213634, 48.598209693425289 ], [ 16.338593222635176, 48.598219328700218 ], [ 16.33842175745519, 48.598224990098473 ], [ 16.338238270033855, 48.598217638729579 ], [ 16.337804910928661, 48.598200138389608 ], [ 16.337782876616323, 48.598199263731651 ], [ 16.337722847649875, 48.598189103263898 ], [ 16.337371158988091, 48.598129362219339 ], [ 16.337428389395647, 48.598000803426032 ], [ 16.337464138249612, 48.597687740780025 ], [ 16.337523518889519, 48.596986500051585 ], [ 16.337535080498085, 48.596626353955784 ], [ 16.337505572439763, 48.596313525484831 ], [ 16.337417874867377, 48.595873119556565 ], [ 16.337407787061405, 48.5956443095845 ], [ 16.337639098518796, 48.595238740787337 ], [ 16.337655488945245, 48.594998630349458 ], [ 16.337714423028263, 48.594790010754572 ], [ 16.337802357320779, 48.594478398331653 ], [ 16.337804513011985, 48.594473482602957 ], [ 16.337954067178284, 48.594117984985644 ], [ 16.338260308252153, 48.593524715616432 ], [ 16.33854285276643, 48.593002169324521 ], [ 16.339196268916616, 48.592392152962042 ], [ 16.339404362382865, 48.592233256388468 ], [ 16.340027067939825, 48.591759934909824 ], [ 16.340140038852233, 48.591668375601799 ], [ 16.340291800755736, 48.591476631227394 ], [ 16.340354068109068, 48.591327689066539 ], [ 16.340364980163585, 48.591303106668121 ], [ 16.34039587973891, 48.590893407719335 ], [ 16.340406408570555, 48.590611232935302 ], [ 16.340370360872868, 48.590293531432373 ], [ 16.340345017178318, 48.590070873160307 ], [ 16.34030024597309, 48.589496783400222 ], [ 16.340313475199398, 48.589230650462582 ], [ 16.34046035864996, 48.58873930461354 ], [ 16.340407190379345, 48.588105034940313 ], [ 16.34036825166141, 48.587414684617151 ], [ 16.340249316824377, 48.586701906995962 ], [ 16.340069637181522, 48.58623839143393 ], [ 16.340077364904836, 48.586187158411875 ], [ 16.340412376240504, 48.585813749712237 ], [ 16.340422810968398, 48.585797280191301 ], [ 16.340793709772917, 48.585216019728428 ], [ 16.341113020851122, 48.584776045964709 ], [ 16.341219397012694, 48.584513728977832 ], [ 16.34120617978127, 48.584401198507237 ], [ 16.341208033959376, 48.584298181601824 ], [ 16.341213869292552, 48.584158789115406 ], [ 16.341160868231736, 48.583803989111424 ], [ 16.341082951847579, 48.583508064579469 ], [ 16.341064696061334, 48.583367310972257 ], [ 16.341064686518241, 48.583190535245635 ], [ 16.341147321268522, 48.582528561859078 ], [ 16.341212162136109, 48.582310065772745 ], [ 16.341311743884738, 48.581768807403272 ], [ 16.341356856550252, 48.581368101445491 ], [ 16.341348592172775, 48.581300897687214 ], [ 16.341324362927875, 48.581101972153007 ], [ 16.341221623351963, 48.580724687868468 ], [ 16.341229816984914, 48.580379385602242 ], [ 16.341299284204712, 48.580017117022336 ], [ 16.341333912590507, 48.57934854537541 ], [ 16.341309359574762, 48.579157998764025 ], [ 16.341283320910733, 48.579027975920525 ], [ 16.341301016418679, 48.578671178070728 ], [ 16.341339533735521, 48.578566498441972 ], [ 16.341346082838289, 48.578404495074594 ], [ 16.341265032086444, 48.57822206115484 ], [ 16.341107098749966, 48.578033142397061 ], [ 16.34083167636533, 48.577901967939546 ], [ 16.340601055085756, 48.577859739979246 ], [ 16.340258733098107, 48.5778140810976 ], [ 16.339770244762555, 48.577790358015548 ], [ 16.339590779648539, 48.57779955875808 ], [ 16.33924060410196, 48.577798292752945 ], [ 16.338636846327237, 48.577740172216579 ], [ 16.338297558165941, 48.577604601507545 ], [ 16.338087764992235, 48.577496127833626 ], [ 16.337802838781343, 48.577343678533133 ], [ 16.337788135298716, 48.577335775260998 ], [ 16.337456466894238, 48.577212157701474 ], [ 16.337445510282496, 48.577208028558566 ], [ 16.337424076742931, 48.577201018071669 ], [ 16.337004301741651, 48.577511250377661 ], [ 16.336861214716933, 48.577602320794639 ], [ 16.336848917935615, 48.57761010707403 ], [ 16.336647733689404, 48.577712119124584 ], [ 16.336080865099376, 48.578082107673822 ], [ 16.335838292421347, 48.578281668881665 ], [ 16.335304971083097, 48.578668884193789 ], [ 16.33483066560321, 48.57923801961163 ], [ 16.334654022607925, 48.57942850641853 ], [ 16.334181796113608, 48.580012616642549 ], [ 16.33399479105422, 48.580279154640614 ], [ 16.333905316505703, 48.580573614448895 ], [ 16.333795842161781, 48.580950944103137 ], [ 16.333726245391706, 48.581106911896185 ], [ 16.333712382081295, 48.581204295818807 ], [ 16.333686145450912, 48.581301186867705 ], [ 16.333668059243909, 48.581367986341441 ], [ 16.333689463517445, 48.581574815784307 ], [ 16.333832461102183, 48.582022359282867 ], [ 16.333796021490048, 48.582209609749818 ], [ 16.333624656507393, 48.582514269001415 ], [ 16.333537724808977, 48.582733686345371 ], [ 16.333344168179238, 48.583081307552831 ], [ 16.33276582266835, 48.583451301086029 ], [ 16.332462738588703, 48.583581478407993 ], [ 16.332241271504646, 48.583640887799071 ], [ 16.331797784883669, 48.583834155795913 ], [ 16.331416787066189, 48.583947334666163 ], [ 16.330620003901082, 48.584095822728855 ], [ 16.329695698732046, 48.584263051246616 ], [ 16.329332311289377, 48.584305926411282 ], [ 16.329247962418787, 48.584315826142202 ], [ 16.328478904694467, 48.58436269119818 ], [ 16.327773817317222, 48.584462189079368 ], [ 16.32707023965412, 48.584611058113659 ], [ 16.326630145118674, 48.584779106905785 ], [ 16.32597501350169, 48.584970383753763 ], [ 16.325310972995279, 48.585162514580126 ], [ 16.325072411641241, 48.585271220932924 ], [ 16.324410949523145, 48.58566444681513 ], [ 16.324217071855642, 48.585774079576609 ], [ 16.324162517757863, 48.585797165329872 ], [ 16.32289219730206, 48.586333478455003 ], [ 16.321975684533186, 48.586792788304798 ], [ 16.321356963785348, 48.587076895719527 ], [ 16.320860459193064, 48.587264813057914 ], [ 16.319976961447328, 48.587599143872886 ], [ 16.31886209035865, 48.58787888466027 ], [ 16.318363407228325, 48.588048215045184 ], [ 16.318219105234249, 48.58817556437036 ], [ 16.318056119639177, 48.588256766343093 ], [ 16.317539368866896, 48.588678752897032 ], [ 16.316730256731567, 48.589108188703072 ], [ 16.316539554746978, 48.589287212100039 ], [ 16.316420799425803, 48.589607512369398 ], [ 16.316220865441874, 48.590292608131165 ], [ 16.316218056153453, 48.590302670462059 ], [ 16.316351915697272, 48.591421732686193 ], [ 16.316184070116076, 48.592138592252638 ], [ 16.315993984460558, 48.592530014012347 ], [ 16.315919935234977, 48.592823522021789 ], [ 16.315849382017646, 48.59298526125167 ], [ 16.315641405834558, 48.593264629757968 ], [ 16.315502074493779, 48.59345242261741 ], [ 16.315375818453681, 48.593676244827378 ], [ 16.315169773364591, 48.593867176696982 ], [ 16.315000315863916, 48.594139352181578 ], [ 16.314702347689149, 48.594399589121807 ], [ 16.314300426915388, 48.59478857123424 ], [ 16.314168536105964, 48.594905787666889 ], [ 16.313595741612858, 48.595188679942645 ], [ 16.313262605161508, 48.595413535473028 ], [ 16.312794877722627, 48.59559177189977 ], [ 16.312608839796408, 48.595690203021398 ], [ 16.312385311493159, 48.5957903078858 ], [ 16.311310882478701, 48.596271004911998 ], [ 16.310607927405151, 48.596518669789418 ], [ 16.309724586781094, 48.596739774285005 ], [ 16.309076393408581, 48.596965515934485 ], [ 16.308690058385348, 48.597148506729653 ], [ 16.308352023926243, 48.597289136032337 ], [ 16.308415440756555, 48.597289954666287 ], [ 16.308748548216677, 48.597277799028753 ], [ 16.308983403344978, 48.597277230356255 ], [ 16.30927090967274, 48.597222669314625 ], [ 16.309422488828112, 48.597239247559571 ], [ 16.309457251743925, 48.597249074584333 ], [ 16.309786300409844, 48.59723008869117 ], [ 16.310000236558224, 48.597231489908395 ], [ 16.310408283136645, 48.597271607827516 ], [ 16.310665447941069, 48.597300170491394 ], [ 16.310906428948535, 48.597344535255743 ], [ 16.31115699896689, 48.597420967843092 ], [ 16.311327383798425, 48.597488188819099 ], [ 16.311475906325509, 48.597592688204209 ], [ 16.311585181341908, 48.597703676204709 ], [ 16.311611980142548, 48.597756458128558 ], [ 16.311616104571915, 48.597806666647784 ], [ 16.311631535432365, 48.597935072903681 ], [ 16.311668983447156, 48.598071109609492 ], [ 16.311678414944971, 48.598142694579984 ], [ 16.311666305664946, 48.598193766095399 ], [ 16.311585918715299, 48.598481490507204 ], [ 16.311468076548397, 48.598764497180241 ], [ 16.311521334452962, 48.599007328981124 ], [ 16.311617447944393, 48.599247360457547 ], [ 16.311651343082179, 48.599284390779893 ], [ 16.311746082967762, 48.599388007863929 ], [ 16.311945913172927, 48.59953485442314 ], [ 16.312383661228594, 48.599738561423585 ], [ 16.312406950287016, 48.599749399614183 ], [ 16.312639896393051, 48.599910343428306 ], [ 16.312955664457782, 48.600205718330166 ], [ 16.313129303705434, 48.600457996617855 ], [ 16.313281675913924, 48.600708565793653 ], [ 16.313384187384603, 48.600810363717144 ], [ 16.313596481229631, 48.600977771795755 ], [ 16.313860904882667, 48.601140792269049 ], [ 16.314170183045839, 48.601300330067829 ], [ 16.314387190353457, 48.601443585156431 ], [ 16.31448726038651, 48.601552374801003 ], [ 16.314738508112626, 48.601776032967678 ], [ 16.314852227023888, 48.601855672810039 ], [ 16.3149881731701, 48.601951217634557 ], [ 16.315165808492775, 48.602110505011531 ], [ 16.315246533242693, 48.602182794200537 ], [ 16.315426683435014, 48.602329236287147 ], [ 16.31569890194643, 48.602544617868013 ], [ 16.316408026254763, 48.602915559756767 ], [ 16.316449038710054, 48.602918385121193 ], [ 16.316848132488555, 48.602988141876196 ], [ 16.316993511925343, 48.603026200204802 ], [ 16.317304967642986, 48.603110519475528 ], [ 16.317297518841311, 48.60322555716936 ], [ 16.317601084231313, 48.603443015876685 ], [ 16.317567980931869, 48.603593089795936 ], [ 16.3175608233628, 48.603624144330986 ], [ 16.317538245446297, 48.603721656392395 ], [ 16.317546607806264, 48.60378165737437 ], [ 16.317566761053182, 48.603923353435754 ], [ 16.317547325517364, 48.604028255900772 ], [ 16.317558543120992, 48.604217162883913 ], [ 16.317613812567821, 48.604531585713524 ], [ 16.317597695881016, 48.604988867445975 ], [ 16.317605408410842, 48.605128990370545 ], [ 16.31759078182268, 48.605265362338656 ], [ 16.317570907050694, 48.605498534566486 ], [ 16.317573218558064, 48.605554819451712 ], [ 16.317576739198628, 48.605613233664833 ], [ 16.317576340367374, 48.605669587622742 ], [ 16.31758726006375, 48.60577605650532 ], [ 16.317657778771252, 48.606168575735879 ], [ 16.317650272590349, 48.606291985304516 ], [ 16.317617166057694, 48.606474821251048 ], [ 16.317463588533982, 48.606944246280264 ], [ 16.317241703535718, 48.607443493434204 ], [ 16.317222912762912, 48.607540818675474 ], [ 16.317135171486676, 48.607743497715767 ], [ 16.317041828274302, 48.608088438748347 ], [ 16.316984768870622, 48.608242092626362 ], [ 16.316974758805632, 48.608277810008374 ], [ 16.31689581955083, 48.608559829677553 ], [ 16.316887747664158, 48.608947600681361 ], [ 16.316899559957065, 48.60910697014085 ], [ 16.316908230807346, 48.609324563413672 ], [ 16.31700975380955, 48.609629076706007 ], [ 16.317006010275353, 48.609908820244897 ], [ 16.316911947115216, 48.610356205629913 ], [ 16.316907341664184, 48.610656222310944 ], [ 16.316906970238442, 48.610677923171345 ], [ 16.316851327083572, 48.610888874300301 ], [ 16.316820590746861, 48.611004954777016 ], [ 16.316804573359512, 48.611065846730327 ], [ 16.316568135468096, 48.611960946880984 ], [ 16.316547699465684, 48.611985408992204 ], [ 16.316447578376756, 48.612105776915769 ], [ 16.31622911529541, 48.612353006937639 ], [ 16.316028025007498, 48.612529949595491 ], [ 16.315957134839792, 48.612594939076438 ], [ 16.315801554340219, 48.612737420106058 ], [ 16.315769601315534, 48.612773966101258 ], [ 16.3156575542593, 48.612901747378167 ], [ 16.315558160066157, 48.613011295200224 ], [ 16.315261024140558, 48.613268986993702 ], [ 16.314722219260837, 48.613795376719757 ], [ 16.314183637907153, 48.61436802068674 ], [ 16.31369140894936, 48.614866937733069 ], [ 16.312986515134106, 48.615434806942574 ], [ 16.312545137772812, 48.615808847226077 ], [ 16.312377102658186, 48.615963970537052 ], [ 16.312351585515255, 48.61598748095647 ], [ 16.311999336818886, 48.616353671405129 ], [ 16.311585736034914, 48.616921862501052 ], [ 16.31141633795762, 48.617269450068711 ], [ 16.311358715333583, 48.617388012074308 ], [ 16.312300641084267, 48.617967003285848 ], [ 16.3123762368174, 48.617997212383969 ], [ 16.313262670038075, 48.618351154426279 ], [ 16.313771891473994, 48.618571941095951 ], [ 16.314372859045804, 48.618752408312844 ], [ 16.316229605207457, 48.619245617973114 ], [ 16.316848555860975, 48.619333179328095 ], [ 16.317041003438003, 48.619360408906864 ], [ 16.317964778624365, 48.619491051866227 ], [ 16.318214273561601, 48.619549227794067 ], [ 16.318316652415678, 48.619572990279366 ], [ 16.31846499947104, 48.619607551841099 ], [ 16.318759358488016, 48.61967619390105 ], [ 16.318942387003492, 48.619718871417753 ], [ 16.3190561895406, 48.619745312256207 ], [ 16.319183208698796, 48.619774926275198 ], [ 16.320054187718195, 48.619753439560952 ], [ 16.320408015570248, 48.619698153554324 ], [ 16.320760826314562, 48.619665123772734 ], [ 16.320852742280252, 48.619653598749359 ], [ 16.321036579303595, 48.619630638358579 ], [ 16.321070589705588, 48.619730127005383 ], [ 16.321164920633802, 48.620005837889259 ], [ 16.321212842515141, 48.620146194157108 ], [ 16.321245889006992, 48.620243097172107 ], [ 16.321269910089836, 48.620313138746852 ], [ 16.321420962352192, 48.620754452694754 ], [ 16.321525793221731, 48.621061307300373 ], [ 16.32191566391878, 48.621381230562463 ], [ 16.32229256699172, 48.621690502834987 ], [ 16.322386080448503, 48.621767231364188 ], [ 16.322493708604849, 48.621855570354327 ], [ 16.322941960652155, 48.622175350574111 ], [ 16.323216582306735, 48.622371303444488 ], [ 16.323515994196111, 48.622584983987863 ], [ 16.323761295522083, 48.622759902798975 ], [ 16.323767163597669, 48.622793145041953 ], [ 16.323776495177182, 48.622846280089938 ], [ 16.323583433186673, 48.62307289246634 ], [ 16.323504885754378, 48.623165083164871 ], [ 16.323493191723514, 48.623178792508341 ], [ 16.32331876311153, 48.623586019723518 ], [ 16.323284602312739, 48.623692108113708 ], [ 16.323249841843509, 48.623799561873383 ], [ 16.323132829212188, 48.624162210406588 ], [ 16.323096238313223, 48.624275561152139 ], [ 16.323020965524627, 48.624508346308779 ], [ 16.322822028212915, 48.625124920334407 ], [ 16.322723738738503, 48.625181161950074 ], [ 16.322858681825821, 48.62518329844594 ], [ 16.322837200109181, 48.625292663196191 ], [ 16.324168356431048, 48.626263683698248 ], [ 16.326570775288676, 48.628016020856947 ], [ 16.326593460317788, 48.628032542248327 ], [ 16.326610893891274, 48.628045147575968 ], [ 16.326481219604251, 48.628080052823215 ], [ 16.326007890371478, 48.628206002589771 ], [ 16.325932475547859, 48.628226020241378 ], [ 16.325685378583351, 48.628291735855179 ], [ 16.32569658149675, 48.628311610892602 ], [ 16.325740788236665, 48.628390046419398 ], [ 16.326204526233241, 48.629320465864389 ], [ 16.32618219315426, 48.629373059510456 ], [ 16.326134656824525, 48.62941720648255 ], [ 16.325908815106974, 48.629626747913171 ], [ 16.325693759660986, 48.629874715602924 ], [ 16.325452257581741, 48.630113907732962 ], [ 16.325072231209212, 48.630366717515876 ], [ 16.324764624082039, 48.630571324062856 ], [ 16.324481068757621, 48.630759924734555 ], [ 16.324417009233013, 48.630802512667195 ], [ 16.324070043073476, 48.631033233547242 ], [ 16.323291979785377, 48.631472427717874 ], [ 16.322841198187831, 48.631620199292023 ], [ 16.322375093013537, 48.631773040281651 ], [ 16.3222430147846, 48.631853274334645 ], [ 16.322149358299555, 48.631910026764373 ], [ 16.321340767589337, 48.63230804350075 ], [ 16.321386957193837, 48.632355198121623 ], [ 16.321613004301767, 48.63258605569559 ], [ 16.322066690011528, 48.63304934909786 ], [ 16.322235028169377, 48.633142169976693 ], [ 16.322438011027725, 48.633253997824227 ], [ 16.322777706045699, 48.63346116250711 ], [ 16.323027349319375, 48.63373803800593 ], [ 16.323512093819552, 48.634137170035537 ], [ 16.324277351878678, 48.633710633590809 ], [ 16.324553529401484, 48.633523302562445 ], [ 16.324855205827564, 48.633386892644289 ], [ 16.325339595204667, 48.633167691407756 ], [ 16.325586474488393, 48.632941323673158 ], [ 16.325736665933185, 48.632803649924796 ], [ 16.326107551151026, 48.632608225492852 ], [ 16.326364989544938, 48.632507503446554 ], [ 16.326473725777952, 48.632464943156904 ], [ 16.326684032791981, 48.632382705494607 ], [ 16.326772853795756, 48.632347944173056 ], [ 16.326837422139317, 48.63232811330974 ], [ 16.327147184701236, 48.632232892877056 ], [ 16.327355823488759, 48.632168697631329 ], [ 16.327539118577555, 48.632112350150514 ], [ 16.327729516388001, 48.632094073076757 ], [ 16.327981620789338, 48.632069808133444 ], [ 16.328065479984204, 48.632061814191296 ], [ 16.328262760941172, 48.632042820260708 ], [ 16.32832757561091, 48.632036573054428 ], [ 16.328490563934043, 48.632020975553068 ], [ 16.328709991779323, 48.631999884563683 ], [ 16.328918749996113, 48.631979786019677 ], [ 16.329237430343827, 48.631949225734651 ], [ 16.329329021928285, 48.631936442869304 ], [ 16.329381956671035, 48.631929058792998 ], [ 16.329601134406065, 48.631885021140114 ], [ 16.329631066579871, 48.631879035295803 ], [ 16.329810004160517, 48.631824865736121 ], [ 16.329917288316221, 48.631792419872241 ], [ 16.330078272072246, 48.631719087931984 ], [ 16.330229999886502, 48.631650042775888 ], [ 16.330277069866838, 48.631628227431371 ], [ 16.330370693532739, 48.631585059916922 ], [ 16.330605353487243, 48.631422177087927 ], [ 16.330736773868786, 48.631330879394383 ], [ 16.330847226364899, 48.631245608365404 ], [ 16.331043822947457, 48.631093689062162 ], [ 16.331145958252741, 48.631014840915604 ], [ 16.331184415959385, 48.630985055055056 ], [ 16.331266357123013, 48.630944165830556 ], [ 16.33146506975466, 48.630844934815443 ], [ 16.331642362739668, 48.630760292505002 ], [ 16.331655836182765, 48.630753827296772 ], [ 16.331811990305926, 48.630679266314274 ], [ 16.331897268225102, 48.630639731301514 ], [ 16.33202528273905, 48.630608912914646 ], [ 16.332213419467735, 48.630563594565047 ], [ 16.332394187877814, 48.630519994627711 ], [ 16.332558488885997, 48.630480416215946 ], [ 16.332756078114866, 48.630452856087565 ], [ 16.33286639156201, 48.6304375208896 ], [ 16.332982628635534, 48.630421313866449 ], [ 16.333194765936039, 48.630391760379624 ], [ 16.33322076032205, 48.630388124555935 ], [ 16.333248922808675, 48.630379752915239 ], [ 16.333264273740213, 48.63037521955907 ], [ 16.333351425616666, 48.630349226301647 ], [ 16.333425369615359, 48.630327261447356 ], [ 16.33351625998403, 48.63030018226187 ], [ 16.333733680056909, 48.630235480293237 ], [ 16.333927875234885, 48.630177673168788 ], [ 16.334005823297868, 48.630154525308605 ], [ 16.334144360926455, 48.630113264357412 ], [ 16.334305246344627, 48.630026787950229 ], [ 16.334389242106941, 48.629981613521082 ], [ 16.334496413417256, 48.629924054566928 ], [ 16.33459462704792, 48.62987122528002 ], [ 16.334693367076088, 48.629818112400798 ], [ 16.334847670805395, 48.629735224028749 ], [ 16.335027245378154, 48.629638637096576 ], [ 16.33515060409745, 48.629572292193579 ], [ 16.335310082564579, 48.629447777917399 ], [ 16.335480602216062, 48.629314699914751 ], [ 16.335560992431802, 48.629251975841996 ], [ 16.335745013312845, 48.629108290741577 ], [ 16.336780111265458, 48.628399242941619 ], [ 16.336786633124543, 48.628394665443146 ], [ 16.33696436027774, 48.628271210871674 ], [ 16.337075153281269, 48.628194385229257 ], [ 16.337367424020169, 48.627911832652515 ], [ 16.337738497230127, 48.627553453319095 ], [ 16.337786385815914, 48.62756671605991 ], [ 16.337807777417293, 48.627572647843444 ], [ 16.337848636374233, 48.627584110722637 ], [ 16.33869119340407, 48.62782936543347 ], [ 16.339326110027159, 48.628025038941587 ], [ 16.339424643282765, 48.628054552623091 ], [ 16.339905314848508, 48.628261741634738 ], [ 16.34040594587, 48.628494428144997 ], [ 16.340428278542145, 48.628504835609355 ], [ 16.341243167830218, 48.628963917082203 ], [ 16.341646260992146, 48.629230425012551 ], [ 16.341919963287921, 48.629436620429843 ], [ 16.342069253598563, 48.629549254097412 ], [ 16.342340821600146, 48.629816437493943 ], [ 16.342578821512561, 48.630050550293959 ], [ 16.343092004369737, 48.630532220215137 ], [ 16.343135080266631, 48.630572246291109 ], [ 16.343337094871345, 48.630759758965631 ], [ 16.343345854111963, 48.630767904473274 ], [ 16.343525959079596, 48.630889555309686 ], [ 16.343669581420407, 48.630986401619317 ], [ 16.343942143636692, 48.631170480381286 ], [ 16.344470087088581, 48.631486244140994 ], [ 16.344517367648827, 48.631514550883935 ], [ 16.34477157087208, 48.632278288648116 ], [ 16.345017610030673, 48.632612276840469 ], [ 16.345752045754544, 48.63285495218021 ], [ 16.346242583949923, 48.633016049706086 ], [ 16.346287609738418, 48.633035953188909 ], [ 16.347035365411337, 48.633366754179882 ], [ 16.34764746500321, 48.633655677846022 ], [ 16.347881382590685, 48.633766037119251 ], [ 16.34806987007115, 48.633842642598381 ], [ 16.348196316346634, 48.633894022501494 ], [ 16.348526561427988, 48.634028363477306 ], [ 16.348645036554913, 48.634064196987431 ], [ 16.348795730930004, 48.634109911847716 ], [ 16.348843284872331, 48.634124258943018 ], [ 16.349076512042025, 48.634194940986944 ], [ 16.349080658741549, 48.634196184340333 ], [ 16.349191952283658, 48.634229952019268 ], [ 16.349251418679135, 48.634245972442926 ], [ 16.34965125950222, 48.634353587091177 ], [ 16.350079111596454, 48.634468759720264 ], [ 16.350089736474626, 48.634471636355343 ], [ 16.350157340264815, 48.634489786961261 ], [ 16.350209353642867, 48.63450374867061 ], [ 16.350221282708677, 48.634489490536666 ], [ 16.350242983270995, 48.634463549995914 ], [ 16.35025174379086, 48.634453153709359 ], [ 16.350303530165878, 48.634391426018439 ], [ 16.350801793974838, 48.634655993284028 ], [ 16.351146796574781, 48.634803267963221 ], [ 16.352284935978705, 48.635127850802142 ], [ 16.352546118040419, 48.635202666151194 ], [ 16.352728156183996, 48.635254768880429 ], [ 16.353365034583671, 48.635437357861861 ], [ 16.353749540543625, 48.635570285947281 ], [ 16.35432921109842, 48.635793767407641 ], [ 16.35436950934492, 48.635809379489778 ], [ 16.354697143755871, 48.635935760434755 ], [ 16.354751615811281, 48.635956857289244 ], [ 16.35476814199334, 48.63596309157488 ], [ 16.354915636353848, 48.636018872031293 ], [ 16.354959837135045, 48.636036183399504 ], [ 16.355399770435735, 48.636208629657141 ], [ 16.355425765279893, 48.636218849919686 ], [ 16.355534877889937, 48.63626157864347 ], [ 16.355989629931024, 48.63592321444267 ], [ 16.356390528200109, 48.635613689787291 ], [ 16.357049068866257, 48.63525395146754 ], [ 16.357183542025933, 48.63518054585996 ], [ 16.357347484547329, 48.63509098835361 ], [ 16.357631670213379, 48.634919301086676 ], [ 16.35770881068569, 48.63486627612194 ], [ 16.357851767905824, 48.634787070270498 ], [ 16.358195825203232, 48.63460132498895 ], [ 16.358319681911905, 48.634534492524118 ], [ 16.358440639821385, 48.6344691748711 ], [ 16.358657021468535, 48.634352339475754 ], [ 16.358817727524801, 48.634265563511313 ], [ 16.359113479982842, 48.634105994544797 ], [ 16.359326303341415, 48.633991049843537 ], [ 16.359600713655862, 48.633914296837411 ], [ 16.359973310814414, 48.633458958828655 ], [ 16.359992317230386, 48.633435786132388 ], [ 16.360038616375384, 48.633375635646267 ], [ 16.360041132588851, 48.633372240393584 ], [ 16.360074695499819, 48.633324119793599 ], [ 16.360083437986624, 48.6333134531558 ], [ 16.360146906743161, 48.633235847772845 ], [ 16.360198720490406, 48.633172494506461 ], [ 16.360291828552448, 48.633058570611922 ], [ 16.360356943028432, 48.632978942420557 ], [ 16.360580269166157, 48.632853373041982 ], [ 16.360742210309734, 48.632762331936256 ], [ 16.360758013599067, 48.632751662793808 ], [ 16.360587136099817, 48.632586865684367 ], [ 16.360334364517239, 48.632421844150201 ], [ 16.360385597240182, 48.632337084155566 ], [ 16.360421981404691, 48.632276919611229 ], [ 16.360452928307154, 48.63222589621909 ], [ 16.360471149973073, 48.632187082515365 ], [ 16.360524476660817, 48.632073286155553 ], [ 16.360589756508435, 48.631934159006455 ], [ 16.360680247198605, 48.631738846147648 ], [ 16.360774977013225, 48.631629470128452 ], [ 16.360849438028719, 48.631528718428001 ], [ 16.360903520240825, 48.631455495362346 ], [ 16.360948204420112, 48.631414107533622 ], [ 16.361054667644616, 48.631398035095614 ], [ 16.361168269081119, 48.631380968008145 ], [ 16.361509416903782, 48.631374850618691 ], [ 16.361635300601762, 48.631372676753131 ], [ 16.361852070271617, 48.631341241224099 ], [ 16.362358054729089, 48.631268035205032 ], [ 16.36246726447915, 48.631282492791293 ], [ 16.362784212917081, 48.6313243410086 ], [ 16.362804575252785, 48.631328854838955 ], [ 16.362812602978703, 48.631331437460375 ], [ 16.362891920078788, 48.63135017793018 ], [ 16.363202256348401, 48.631441159786021 ], [ 16.363245362112544, 48.631453725995804 ], [ 16.363445436200568, 48.631512366195231 ], [ 16.363966172972233, 48.631763516686881 ], [ 16.364360449435384, 48.631893997301589 ], [ 16.364598318641551, 48.631916465024588 ], [ 16.365398199303346, 48.631708011259569 ], [ 16.36609327604998, 48.631767425708261 ], [ 16.366608500340412, 48.631839503514051 ], [ 16.367144601008491, 48.631957032083847 ], [ 16.367150874602004, 48.631922936958333 ], [ 16.367171116757458, 48.631812514129898 ], [ 16.367180762755734, 48.631759610194472 ], [ 16.36776510375007, 48.631767158103408 ], [ 16.368781096921431, 48.631712125613682 ], [ 16.369250562014912, 48.631678268982697 ], [ 16.369943494256379, 48.631597665071581 ], [ 16.370269055696372, 48.631559793624227 ], [ 16.370976276866024, 48.631477462997658 ], [ 16.371507081354007, 48.631449927379293 ], [ 16.371724398080122, 48.631460042631659 ], [ 16.372246869328183, 48.631484563990419 ], [ 16.373033023757614, 48.631575417600907 ], [ 16.373128582457962, 48.631597780162856 ], [ 16.374234518447068, 48.631856292307184 ], [ 16.374301844387229, 48.631888027473686 ], [ 16.374534000678988, 48.631997570586741 ], [ 16.374758673766568, 48.632150511084483 ], [ 16.375770686263088, 48.632604693440861 ], [ 16.377470810186608, 48.633304981613797 ], [ 16.377530518088395, 48.633329532334798 ], [ 16.377632722776418, 48.633367739979846 ], [ 16.377681185249411, 48.633385832278627 ], [ 16.377857276396668, 48.63345182220808 ], [ 16.379486257480561, 48.633892099147907 ], [ 16.380205998341779, 48.634114963543091 ], [ 16.380262435522237, 48.634132397376433 ], [ 16.38039386136386, 48.634083795501617 ], [ 16.380766472943684, 48.633945933135038 ], [ 16.381289763819527, 48.63413051714074 ], [ 16.381491975174143, 48.63420176273182 ], [ 16.381593093807382, 48.633912007516628 ], [ 16.381703435963203, 48.633438666563677 ], [ 16.38186341018584, 48.632663858201958 ], [ 16.382247947673985, 48.632610647611394 ], [ 16.382731271607003, 48.632322464459634 ], [ 16.383095871812579, 48.632143669043089 ], [ 16.383572950813232, 48.63197481502683 ], [ 16.383633995405674, 48.63195315388176 ], [ 16.38366566305211, 48.631951339260205 ], [ 16.383698957682384, 48.631949482267331 ], [ 16.383836323247372, 48.631941675151772 ], [ 16.383954202231017, 48.631935005356695 ], [ 16.384047224630212, 48.63193051285765 ], [ 16.384215128017622, 48.631922450116079 ], [ 16.384570296223316, 48.631905369600261 ], [ 16.38473545419027, 48.631883066363059 ], [ 16.385024423153819, 48.631844216641511 ], [ 16.385130677826119, 48.631849909510663 ], [ 16.385176509216237, 48.631844215205739 ], [ 16.38522962471195, 48.631837701071404 ], [ 16.385397725311961, 48.631816940371706 ], [ 16.386725562485811, 48.63194174388822 ], [ 16.386870265140292, 48.632066773736312 ], [ 16.387474503697796, 48.631892248840366 ], [ 16.38813684758389, 48.63174959856768 ], [ 16.388683115050856, 48.631950562279968 ], [ 16.389447200611411, 48.632231619295666 ], [ 16.390106614117371, 48.632707299880408 ], [ 16.390645138233339, 48.633006205633777 ], [ 16.39173374858288, 48.633437193236098 ], [ 16.39238229994973, 48.633809455877852 ], [ 16.392923153713326, 48.634498926078791 ], [ 16.392775241967449, 48.63470179663009 ], [ 16.393691339030031, 48.634971206879101 ], [ 16.393894746389709, 48.635240328218224 ], [ 16.394017521083853, 48.635402645861092 ], [ 16.394044475603962, 48.635476828458742 ], [ 16.39418845856078, 48.63587243296643 ], [ 16.394204377526471, 48.636025930943305 ], [ 16.394257062414457, 48.636532740227466 ], [ 16.394410145349163, 48.637040166670836 ], [ 16.394424565384089, 48.637563456783191 ], [ 16.396540599948892, 48.639021909805351 ], [ 16.397063510435046, 48.639193654533941 ], [ 16.397171557863736, 48.639229172707644 ], [ 16.397358420783586, 48.639290532259032 ], [ 16.398647088005259, 48.639713797269877 ], [ 16.398777984657023, 48.639733864901913 ], [ 16.399491681251305, 48.639843272367692 ], [ 16.399555160469262, 48.639825949780075 ], [ 16.399611674024609, 48.639810249575227 ], [ 16.399990347201676, 48.639733193188341 ], [ 16.401334490989278, 48.63945984371454 ], [ 16.401336248243691, 48.639489320413851 ], [ 16.401394261713349, 48.639446397550948 ], [ 16.401431457647288, 48.639418781125912 ], [ 16.401587800401828, 48.639302986876459 ], [ 16.40181877473448, 48.639165616109224 ], [ 16.402832107350026, 48.638321527894114 ], [ 16.403611492255745, 48.63744692702339 ], [ 16.404118963764621, 48.637127598820008 ], [ 16.404263859938485, 48.637020471322543 ], [ 16.404931259610397, 48.636427371695547 ], [ 16.405026359103406, 48.636318758348537 ], [ 16.405108875596806, 48.63620183398789 ], [ 16.405149479195835, 48.636124442133223 ], [ 16.405152573979269, 48.636119410519107 ], [ 16.40535938667983, 48.635773305358185 ], [ 16.405646576956691, 48.635520231107698 ], [ 16.405821520601815, 48.63536604899226 ], [ 16.405832227322211, 48.635356587326093 ], [ 16.405972211769704, 48.635233294633046 ], [ 16.406158766264532, 48.635068906474103 ], [ 16.407564898890552, 48.633819239753741 ], [ 16.407601781485443, 48.633786498816079 ], [ 16.407934301483923, 48.63338785441551 ], [ 16.408070140040554, 48.633224883703072 ], [ 16.408401156058122, 48.632817096235769 ], [ 16.408431161625309, 48.632782915336364 ], [ 16.409464775959371, 48.631677652418375 ], [ 16.409515714560843, 48.631566593884173 ], [ 16.409560750765273, 48.63146811155049 ], [ 16.409728052095044, 48.631102422027404 ], [ 16.409800719924153, 48.630943717948995 ], [ 16.409826055635339, 48.630888237085749 ], [ 16.409854768487016, 48.63082564681784 ], [ 16.409896436955886, 48.630734453451232 ], [ 16.409898000713063, 48.630731082048158 ], [ 16.40990533090271, 48.630715137954645 ], [ 16.409955290419717, 48.63060590501842 ], [ 16.409983275443274, 48.630544773961624 ], [ 16.409987119704759, 48.630536392164515 ], [ 16.410013432192958, 48.630479085403699 ], [ 16.410039000997042, 48.630422968283625 ], [ 16.410053893222781, 48.630383603224715 ], [ 16.410095528252317, 48.630273688733133 ], [ 16.410132345819616, 48.630176322000246 ], [ 16.410174436864914, 48.63006495533719 ], [ 16.410186520948127, 48.630033134760559 ], [ 16.410229585456722, 48.62998348875287 ], [ 16.410306939747485, 48.629894148142775 ], [ 16.410336410792151, 48.629860160683862 ], [ 16.410381379697942, 48.62980830436765 ], [ 16.410424183426258, 48.629758845140913 ], [ 16.410519075096737, 48.629649421710653 ], [ 16.410596808242694, 48.629559620869856 ], [ 16.410679120900227, 48.62946465915207 ], [ 16.410764868078083, 48.629365826753123 ], [ 16.410844765414666, 48.62927362861965 ], [ 16.410927706664694, 48.629177840092744 ], [ 16.411004944454934, 48.62908886201852 ], [ 16.411030475117879, 48.629059388320684 ], [ 16.411182394110426, 48.628884109384281 ], [ 16.411209074862651, 48.628853435301778 ], [ 16.411339655023298, 48.628278175647253 ], [ 16.411380410966306, 48.628101406681147 ], [ 16.411433672306462, 48.627793165564583 ], [ 16.411487395663482, 48.627501743955257 ], [ 16.411892046261581, 48.627125222225381 ], [ 16.411977775886836, 48.627017118155131 ], [ 16.411999486389096, 48.626989634769707 ], [ 16.412002455136971, 48.626984786250013 ], [ 16.412172164352523, 48.626712097948051 ], [ 16.41220387728082, 48.626236644980324 ], [ 16.412215017033979, 48.626068754696419 ], [ 16.412200645603093, 48.625692263070697 ], [ 16.41214187307688, 48.625299836634127 ], [ 16.412202552041116, 48.625306432586015 ], [ 16.414110274823514, 48.625511810309078 ], [ 16.414437708935086, 48.625547122723212 ], [ 16.415201428461867, 48.625630632679645 ], [ 16.415710666021798, 48.625636405546359 ], [ 16.416604467867046, 48.625574898215369 ], [ 16.41683299353538, 48.625559251694355 ], [ 16.416874232607853, 48.62555636591609 ], [ 16.417247525715826, 48.625543478282765 ], [ 16.417676909385204, 48.625528572476384 ], [ 16.418309399187212, 48.62550660594404 ], [ 16.41866767194545, 48.625492309159412 ], [ 16.418942518743851, 48.625522333472134 ], [ 16.419067023833808, 48.625535885504455 ], [ 16.419493822321922, 48.625600159701051 ], [ 16.419941996040979, 48.6256676495329 ], [ 16.419997898547102, 48.625676077533477 ], [ 16.42008216441889, 48.625688798635053 ], [ 16.420407971167304, 48.625769322301892 ], [ 16.420908259204765, 48.625892951313354 ], [ 16.421215877614824, 48.625969001672743 ], [ 16.421257743692614, 48.625972038474139 ], [ 16.42258931003331, 48.626071403397987 ], [ 16.423318171137069, 48.626125717004513 ], [ 16.423388024413683, 48.62612450438349 ], [ 16.423577905852575, 48.62612102537485 ], [ 16.424205999687423, 48.626109404261562 ], [ 16.424348919806608, 48.626094921794348 ], [ 16.424665392483565, 48.626062807664184 ], [ 16.424968367761771, 48.626032039020039 ], [ 16.425102844094621, 48.626019398660567 ], [ 16.425726465696521, 48.625955951617691 ], [ 16.426413514314191, 48.625886055862772 ], [ 16.427434689033564, 48.625840634477228 ], [ 16.428303927880496, 48.625802008996821 ], [ 16.428392953004423, 48.625706406228808 ], [ 16.42844587763804, 48.625649471534878 ], [ 16.428454932351755, 48.62565328273719 ], [ 16.428479174039989, 48.625663533419356 ], [ 16.428507872615814, 48.625675646552779 ], [ 16.428661990541329, 48.625569682565846 ], [ 16.429427237402393, 48.625111468597979 ], [ 16.430052548668979, 48.624731027251649 ], [ 16.430386160907588, 48.624510052652347 ], [ 16.430650844274261, 48.624305661386487 ], [ 16.430773201560207, 48.624161649694123 ], [ 16.430816062501151, 48.624111280619871 ], [ 16.430913407502832, 48.62385847757983 ], [ 16.430890255605181, 48.623654226249663 ], [ 16.430842393962898, 48.62351993633348 ], [ 16.430763269718284, 48.623407625551614 ], [ 16.430655048378892, 48.623305895277184 ], [ 16.430687906208487, 48.623278833383324 ], [ 16.430978122895979, 48.623027320484063 ], [ 16.431061485653206, 48.622948336947076 ], [ 16.431134951194249, 48.622878616140873 ], [ 16.431256979327316, 48.622763055711872 ], [ 16.431335400720666, 48.622689963307387 ], [ 16.431488517286709, 48.622547297273748 ], [ 16.431987194355457, 48.622303588952036 ], [ 16.432068038343385, 48.62226400581541 ], [ 16.432654552077359, 48.621821837682397 ], [ 16.432782959150089, 48.621724378790795 ], [ 16.433156632874887, 48.621440947793445 ], [ 16.43319454173848, 48.621412131234877 ], [ 16.43370993568141, 48.621723607940183 ], [ 16.434867689068597, 48.622423212373356 ], [ 16.434966057500464, 48.622232845408377 ], [ 16.435014279789275, 48.622255781294911 ], [ 16.435008099963955, 48.622112648026508 ], [ 16.435002634103352, 48.621990378308908 ], [ 16.435262221711415, 48.621722202910419 ], [ 16.435695741975515, 48.621274079101404 ], [ 16.436299656671864, 48.620637007237747 ], [ 16.437089505443819, 48.61987078959973 ], [ 16.43808853993157, 48.619145106168396 ], [ 16.438396038232447, 48.619055044334679 ], [ 16.438741416723946, 48.619012313163871 ], [ 16.438852210683471, 48.619005775005405 ], [ 16.439530766820916, 48.618965637979777 ], [ 16.440244086203769, 48.618923404673581 ], [ 16.441386716020727, 48.618755820984973 ], [ 16.441478387792063, 48.618913787962832 ], [ 16.441531314634442, 48.61890446239601 ], [ 16.443141927112006, 48.61864505103469 ], [ 16.443567869123534, 48.618576403307209 ], [ 16.444043152336938, 48.618499782663825 ], [ 16.444777121220454, 48.618381543597778 ], [ 16.446221519289846, 48.618148827447968 ], [ 16.446272773321247, 48.618129822929902 ], [ 16.446640729039771, 48.618303485393554 ], [ 16.446779631419552, 48.6183689216451 ], [ 16.447810684911161, 48.618718295523898 ], [ 16.447913715822537, 48.618760741358848 ], [ 16.448007377742407, 48.618800915947283 ], [ 16.448014762687709, 48.61880404997315 ], [ 16.448988834929292, 48.619129095925615 ], [ 16.449938129263288, 48.619446062290955 ], [ 16.450202941422496, 48.619108673216424 ], [ 16.450471758355121, 48.618803850980306 ], [ 16.450630050062408, 48.618646798383281 ], [ 16.450730106173545, 48.618539181762351 ], [ 16.450810206579231, 48.618465220468629 ], [ 16.45087211106387, 48.61841361626805 ], [ 16.450976670846419, 48.618326582171839 ], [ 16.451048981434127, 48.618260749067332 ], [ 16.45111677952832, 48.618212318257015 ], [ 16.4511464688409, 48.618189205030625 ], [ 16.451189249144953, 48.618155842022276 ], [ 16.451247257452533, 48.618069056782033 ], [ 16.451593801190501, 48.618189267214056 ], [ 16.451613215826821, 48.618164627194055 ], [ 16.452364344826691, 48.617209494916857 ], [ 16.45309540410571, 48.616279824501248 ], [ 16.453853160342515, 48.615316222657377 ], [ 16.453584196511855, 48.615145345743223 ], [ 16.453571018871898, 48.615033182070633 ], [ 16.453529947560043, 48.614680259836547 ], [ 16.453537749090192, 48.614562586529324 ], [ 16.453543811807105, 48.614469982834791 ], [ 16.453562103300136, 48.614193879191212 ], [ 16.453568760037037, 48.614093158580772 ], [ 16.453622717587368, 48.613679826580075 ], [ 16.453675711106001, 48.613273000987853 ], [ 16.453718290699701, 48.612947463486407 ], [ 16.453745135608919, 48.612711727027012 ], [ 16.453751954937168, 48.612651777390916 ], [ 16.453766529456129, 48.612524922253463 ], [ 16.453844008717255, 48.611561259786704 ], [ 16.453861063489853, 48.611349907201145 ], [ 16.453823393232202, 48.611214362819553 ], [ 16.453691809354428, 48.61074089550003 ], [ 16.453677375283029, 48.610688623087384 ], [ 16.453662122045206, 48.610634032187676 ], [ 16.453522868786667, 48.610213155989811 ], [ 16.453307138713729, 48.610064623441879 ], [ 16.453295807078, 48.610056824277287 ], [ 16.451300310543079, 48.60868256501373 ], [ 16.451204558393012, 48.608630027268781 ], [ 16.451193327466449, 48.608585770367853 ], [ 16.451104722858794, 48.608330695231984 ], [ 16.451081356082572, 48.608218262301385 ], [ 16.450994570412146, 48.607802647184521 ], [ 16.450953063158835, 48.607359182845457 ], [ 16.450935263276609, 48.607049475215234 ], [ 16.45093455541986, 48.606889812650444 ], [ 16.450936855089193, 48.606871749006174 ], [ 16.45097101704749, 48.606590811838359 ], [ 16.45104206216023, 48.606154611790316 ], [ 16.45111780808142, 48.605753481143786 ], [ 16.451229353496451, 48.605349596804103 ], [ 16.451285793776854, 48.605248360384309 ], [ 16.451497454964429, 48.604868363149961 ], [ 16.452180572334644, 48.604077503811446 ], [ 16.452204200829968, 48.604019446581596 ], [ 16.45284052400531, 48.603720126067188 ], [ 16.453147337180997, 48.603575852509984 ], [ 16.453419304663157, 48.603459060322891 ], [ 16.453868933507987, 48.6032908160931 ], [ 16.454616023026155, 48.603041370367151 ], [ 16.455007851563302, 48.602949642777588 ], [ 16.455429018372765, 48.602860551982303 ], [ 16.456167741494593, 48.602643453504541 ], [ 16.456295485173033, 48.602605931469135 ], [ 16.456318919485319, 48.602484329560816 ], [ 16.456340741551966, 48.602371951920667 ], [ 16.456301155622043, 48.602195863157654 ], [ 16.456150832609413, 48.602064673904209 ], [ 16.455907909478025, 48.601948465937696 ], [ 16.455208231849593, 48.601658741728166 ], [ 16.455097994587938, 48.601584270355197 ], [ 16.455013909271802, 48.601493439419208 ], [ 16.454870157691275, 48.601244427047114 ], [ 16.454917324178759, 48.601180700797087 ], [ 16.455031768138209, 48.601154426157137 ], [ 16.455315346103934, 48.600938395602107 ], [ 16.455808725831929, 48.600540884393112 ], [ 16.456058380106441, 48.600425760562956 ], [ 16.456406918810192, 48.600265062378334 ], [ 16.456439090036007, 48.600262944009266 ], [ 16.457994237923568, 48.600162490346321 ], [ 16.458711117656524, 48.600116261321382 ], [ 16.458725710190809, 48.599674629227216 ], [ 16.458694587065441, 48.599217655094563 ], [ 16.458694172613281, 48.59921082518678 ], [ 16.458648037352482, 48.599217637585674 ], [ 16.457924184520785, 48.59932544137844 ], [ 16.457842145490595, 48.599337712324946 ], [ 16.457778125959045, 48.599347251994288 ], [ 16.457738580463264, 48.599353078046612 ], [ 16.457703965898705, 48.599218712672155 ], [ 16.457688715645386, 48.599159711249186 ], [ 16.457632984453632, 48.59894345771233 ], [ 16.457402764150974, 48.599009639828864 ], [ 16.457199357163322, 48.599068175037488 ], [ 16.4570034172874, 48.599124530366879 ], [ 16.456804965529443, 48.598837373861087 ], [ 16.456434279611926, 48.598301426012668 ], [ 16.456401253109522, 48.598253610169429 ], [ 16.456345673712725, 48.598182992636616 ], [ 16.456252765298238, 48.598065214045398 ], [ 16.456097512178978, 48.597868176956425 ], [ 16.456042614317472, 48.597824454914488 ], [ 16.455927978031713, 48.597733269322589 ], [ 16.455912900502412, 48.59771512886114 ], [ 16.455512626461097, 48.597234785207966 ], [ 16.45544353474239, 48.597151655819722 ], [ 16.455418925787296, 48.597119547480716 ], [ 16.454937137369239, 48.597307019878443 ], [ 16.453823819764185, 48.597741667636861 ], [ 16.452651134871441, 48.598202459479396 ], [ 16.452590046142841, 48.598226770311506 ], [ 16.452137143595948, 48.598407520073565 ], [ 16.451752222131017, 48.598590417759347 ], [ 16.451652003084018, 48.598638633541981 ], [ 16.451134998438242, 48.598903898052527 ], [ 16.450815431759271, 48.599065789267826 ], [ 16.450508172601555, 48.599209079329803 ], [ 16.450467555751086, 48.599226363010033 ], [ 16.45014232179081, 48.599364189815766 ], [ 16.449818706543173, 48.599474968864428 ], [ 16.449567713983395, 48.59955690027094 ], [ 16.449169937855334, 48.599666680996378 ], [ 16.448801958960786, 48.599753074305625 ], [ 16.448341545666938, 48.599843726097369 ], [ 16.447964472944996, 48.599916676792517 ], [ 16.446584535690878, 48.600183451133375 ], [ 16.446052843451593, 48.600309653651138 ], [ 16.445453358347599, 48.600396520223619 ], [ 16.445123482091514, 48.600451104659101 ], [ 16.444241015675956, 48.600616325442026 ], [ 16.443191603750019, 48.600815047875379 ], [ 16.44231129916842, 48.600996038440819 ], [ 16.44186166111124, 48.601114911755111 ], [ 16.441616170665107, 48.601193889054315 ], [ 16.441375958616778, 48.601277136275073 ], [ 16.441054719586575, 48.60140753970493 ], [ 16.440995724483752, 48.601430708489879 ], [ 16.440313481244154, 48.601750085027703 ], [ 16.439996692069883, 48.601904850496965 ], [ 16.439767872623335, 48.602033067861385 ], [ 16.439744962439363, 48.602046997465202 ], [ 16.439495491578334, 48.602199615295895 ], [ 16.439458836125802, 48.60222192054632 ], [ 16.439422820202811, 48.602245829029407 ], [ 16.439171217290959, 48.602412634507203 ], [ 16.438884848352494, 48.602603854604212 ], [ 16.438645962946204, 48.602763300592756 ], [ 16.437913129346803, 48.603252595643831 ], [ 16.437193734957646, 48.603735408565761 ], [ 16.437027281994848, 48.603847024818144 ], [ 16.436981328325462, 48.603877226675365 ], [ 16.436812087959645, 48.603998907759077 ], [ 16.436629116223067, 48.604142735305331 ], [ 16.436234495976816, 48.604441050658878 ], [ 16.43568094979705, 48.60495132198615 ], [ 16.43551036634457, 48.605113901727982 ], [ 16.43544860994712, 48.605080073405126 ], [ 16.435414224988826, 48.605061271887259 ], [ 16.435342083870655, 48.605021777884531 ], [ 16.435244111617468, 48.604959025124842 ], [ 16.434628332525197, 48.604564614774468 ], [ 16.434389336051339, 48.604411534651362 ], [ 16.433910508717979, 48.604091443346242 ], [ 16.433876884245418, 48.604119067149306 ], [ 16.433233364619703, 48.604665913310207 ], [ 16.432971590823456, 48.604901022266439 ], [ 16.432861913867239, 48.605009058900436 ], [ 16.432886228664429, 48.605827968162913 ], [ 16.432913649647151, 48.606091875446175 ], [ 16.432663279853188, 48.606099403005224 ], [ 16.432623466726657, 48.606100906890624 ], [ 16.432432970994721, 48.606106489075728 ], [ 16.432111994178126, 48.606118044498189 ], [ 16.431988624884415, 48.606122659549634 ], [ 16.431851655812746, 48.606126824255924 ], [ 16.431733254776645, 48.606146339437444 ], [ 16.431029139661614, 48.606264251648987 ], [ 16.429757689235927, 48.606477093717224 ], [ 16.429148025263181, 48.606579084967933 ], [ 16.428682282858819, 48.606657105991459 ], [ 16.428493860067313, 48.606665597270712 ], [ 16.42749390276823, 48.606639909112396 ], [ 16.427221211462097, 48.606632892949001 ], [ 16.426143751566762, 48.606446681347698 ], [ 16.425612843156348, 48.606354940533258 ], [ 16.42510154681991, 48.606266549975871 ], [ 16.425071649161357, 48.606261398694976 ], [ 16.424635380395458, 48.606186056868033 ], [ 16.42455814422441, 48.606131659121004 ], [ 16.42393158665649, 48.603950762440419 ], [ 16.423971918150198, 48.603933045813839 ], [ 16.423933509414617, 48.603865201275291 ], [ 16.423789384423856, 48.60378394517079 ], [ 16.423720245218842, 48.603746795329812 ], [ 16.422548649615706, 48.603116762788957 ], [ 16.422523829920163, 48.603103465951236 ], [ 16.421675115075342, 48.60271981657327 ], [ 16.421135032644301, 48.60250822397353 ], [ 16.420437302436007, 48.602268021832288 ], [ 16.420022430994432, 48.602173107267362 ], [ 16.418876048676502, 48.602195853465545 ], [ 16.41805683515074, 48.602449037630109 ], [ 16.41788632578994, 48.602502585707036 ], [ 16.416956527092299, 48.602794859491397 ], [ 16.416585408718362, 48.602870790898834 ], [ 16.416101819923639, 48.602940591383565 ], [ 16.415969467723123, 48.602962798307196 ], [ 16.416008896831613, 48.603038809296237 ], [ 16.415918723493562, 48.603001578739047 ], [ 16.414074282232672, 48.603093869831909 ], [ 16.411017838095592, 48.603246800076093 ], [ 16.410816557281009, 48.60325569118968 ], [ 16.409266783954045, 48.603339530545917 ], [ 16.409171509483077, 48.603384968378776 ], [ 16.409217934206826, 48.603262414886863 ], [ 16.409191691685457, 48.602973001036524 ], [ 16.409177786945701, 48.602819718691805 ], [ 16.409147463273435, 48.602484686737661 ], [ 16.40912204000119, 48.602204432311829 ], [ 16.409113455624325, 48.602110687011859 ], [ 16.409104273622265, 48.602102377241522 ], [ 16.408806930760299, 48.601832056146662 ], [ 16.408721161117157, 48.601757080213723 ], [ 16.408561126685861, 48.601620237529353 ], [ 16.408445990483745, 48.601521639934546 ], [ 16.40834903444572, 48.601438856622458 ], [ 16.408235339902991, 48.601341661134441 ], [ 16.408141510401684, 48.601261225827251 ], [ 16.408050990830628, 48.601183943897588 ], [ 16.407511671873834, 48.600713310412281 ], [ 16.40743529826306, 48.600638806960546 ], [ 16.407307483969831, 48.60051416816448 ], [ 16.407008910046741, 48.600222902686419 ], [ 16.406867981943762, 48.600046761757518 ], [ 16.406796732542315, 48.599928468370898 ], [ 16.406693911739183, 48.599701821158902 ], [ 16.40656212399681, 48.599346769359656 ], [ 16.406549240723379, 48.59926276782604 ], [ 16.406508740394699, 48.598997940292129 ], [ 16.406480070667978, 48.598810841182441 ], [ 16.406446554299059, 48.598499294879403 ], [ 16.406410135228104, 48.5981595614508 ], [ 16.406403727605298, 48.598052167194076 ], [ 16.40637601695483, 48.597587720663206 ], [ 16.406373297021617, 48.597544407025786 ], [ 16.406389325799907, 48.596955587911722 ], [ 16.406390469269631, 48.596913342983974 ], [ 16.406586509479194, 48.595939143704761 ], [ 16.40658967858116, 48.595924028751362 ], [ 16.406606502768987, 48.595562374793865 ], [ 16.406629007100829, 48.595079867472791 ], [ 16.406635325196905, 48.594944685746405 ], [ 16.406639578472092, 48.594852223232628 ], [ 16.406628491075519, 48.594766464193484 ], [ 16.406503699990374, 48.593802936408011 ], [ 16.406411545931672, 48.59296789667161 ], [ 16.406354179518939, 48.592943389562684 ], [ 16.405982412470863, 48.59278455849838 ], [ 16.405584892983086, 48.592614790808675 ], [ 16.404999678433491, 48.592364707079895 ], [ 16.404805251785234, 48.592355857079333 ], [ 16.404649797885746, 48.591801329989494 ], [ 16.404629476977664, 48.591729044560054 ], [ 16.405248138358836, 48.591775638277838 ], [ 16.405142911439878, 48.591510527950035 ], [ 16.405096755069572, 48.59139409523457 ], [ 16.405063219844884, 48.591309555124042 ], [ 16.405007980691853, 48.591170498004999 ], [ 16.404896340625086, 48.590888813740349 ], [ 16.404877504063993, 48.590841422330485 ], [ 16.404796229404436, 48.590636620389169 ], [ 16.40473167543281, 48.590282141917505 ], [ 16.404483555060526, 48.590291982493888 ], [ 16.404484235422096, 48.590271532216647 ], [ 16.404520235460371, 48.590026478667923 ], [ 16.40447456641667, 48.589954588204499 ], [ 16.403659046939087, 48.588669476914156 ], [ 16.403617203943089, 48.588600276102383 ], [ 16.402863130311335, 48.586892927421893 ], [ 16.402476763034564, 48.586360564329489 ], [ 16.402215877161911, 48.586057857898112 ], [ 16.40185724911656, 48.585776885746569 ], [ 16.401482500306763, 48.58553269949757 ], [ 16.401419548787167, 48.585491684572695 ], [ 16.401066970085843, 48.585262037720618 ], [ 16.3991866723076, 48.584187342220638 ], [ 16.398644867025659, 48.583474426892039 ], [ 16.398611461626487, 48.583430566459576 ], [ 16.398568768814219, 48.583374257741966 ], [ 16.398486368618034, 48.58335742350674 ], [ 16.398437890600711, 48.583347531769938 ], [ 16.398368690035348, 48.583335932434871 ], [ 16.398511093051635, 48.582856316257804 ] ] ] } }
]
}
