{
"type": "FeatureCollection",
"name": "solarino",
"crs": { "type": "name", "properties": { "name": "urn:ogc:def:crs:OGC:1.3:CRS84" } },
"features": [
{ "type": "Feature", "properties": { "name": "Solarino", "metric_roundness": 35.06, "metric_rectangularity": 65.69, "metric_mobile_fit": -75.84, "metric_aspect_ratio": 2.321, "metric_area_km2": 19.83 }, "geometry": { "type": "Polygon", "coordinates": [ [ [ 15.0901555, 37.1136054 ], [ 15.0780764, 37.104934099999987 ], [ 15.0717185, 37.104556499999987 ], [ 15.0725403, 37.101312899999989 ], [ 15.0825216, 37.0956931 ], [ 15.092407, 37.089687499999975 ], [ 15.1042459, 37.094446 ], [ 15.133864, 37.0901911 ], [ 15.1416485, 37.0956931 ], [ 15.1443403, 37.097963 ], [ 15.1475135, 37.097984 ], [ 15.1397155, 37.104422 ], [ 15.133864, 37.1082928 ], [ 15.122615, 37.115734 ], [ 15.0901555, 37.1136054 ] ] ] } }
]
}
