{
"type": "FeatureCollection",
"name": "soneja",
"crs": { "type": "name", "properties": { "name": "urn:ogc:def:crs:OGC:1.3:CRS84" } },
"features": [
{ "type": "Feature", "properties": { "name": "Soneja", "metric_roundness": 28.14, "metric_rectangularity": 47.54, "metric_mobile_fit": -36.85, "metric_aspect_ratio": 1.931, "metric_area_km2": 50.08 }, "geometry": { "type": "Polygon", "coordinates": [ [ [ -0.3572488, 39.8233394 ], [ -0.3757818, 39.8187325 ], [ -0.3794566, 39.8319881 ], [ -0.3977915, 39.8532175 ], [ -0.401287, 39.8488845 ], [ -0.404604, 39.848282 ], [ -0.4153065, 39.84182 ], [ -0.4194405, 39.838470499999985 ], [ -0.4277966, 39.8301203 ], [ -0.4267858, 39.8218299 ], [ -0.4365003, 39.8208732 ], [ -0.44484, 39.825393499999983 ], [ -0.437195, 39.814838499999986 ], [ -0.42621, 39.808323 ], [ -0.4130998, 39.8148929 ], [ -0.3955821, 39.8153082 ], [ -0.3778575, 39.799881 ], [ -0.3573315, 39.799747499999988 ], [ -0.349947, 39.800957 ], [ -0.338441, 39.800163499999975 ], [ -0.328195, 39.801487 ], [ -0.3159605, 39.7998355 ], [ -0.3127015, 39.8091165 ], [ -0.3103955, 39.814018 ], [ -0.313409, 39.822746 ], [ -0.3162255, 39.823055499999981 ], [ -0.319117, 39.8237535 ], [ -0.3237515, 39.823868 ], [ -0.3264835, 39.824550499999987 ], [ -0.329572, 39.8235245 ], [ -0.3572488, 39.8233394 ] ] ] } }
]
}
