{
"type": "FeatureCollection",
"name": "sopeira",
"crs": { "type": "name", "properties": { "name": "urn:ogc:def:crs:OGC:1.3:CRS84" } },
"features": [
{ "type": "Feature", "properties": { "name": "Sopeira", "feature_type": "entity", "metric_roundness": 29.64, "metric_rectangularity": 45.77, "metric_mobile_fit": 90.61, "metric_aspect_ratio": 0.656, "metric_area_km2": 81.84 }, "geometry": { "type": "Polygon", "coordinates": [ [ [ 0.7670705, 42.348816 ], [ 0.7679206, 42.3521706 ], [ 0.760655, 42.357040499999982 ], [ 0.7463907, 42.357043399999988 ], [ 0.7241904, 42.365649499999989 ], [ 0.7241541, 42.3690581 ], [ 0.7333531, 42.371755899999989 ], [ 0.7353565, 42.376137 ], [ 0.6843214, 42.3926941 ], [ 0.669071, 42.394867 ], [ 0.6675755, 42.3933945 ], [ 0.6672105, 42.3908655 ], [ 0.6701685, 42.387638 ], [ 0.668744, 42.38591 ], [ 0.6692905, 42.3821755 ], [ 0.6965959, 42.3691004 ], [ 0.7074523, 42.3514233 ], [ 0.7092205, 42.3446322 ], [ 0.6963658, 42.34046 ], [ 0.6889739, 42.330187599999981 ], [ 0.6876463, 42.3208404 ], [ 0.6902853, 42.3165598 ], [ 0.7036869, 42.312389 ], [ 0.7013414, 42.299114699999983 ], [ 0.7239691, 42.2936714 ], [ 0.738663, 42.2814485 ], [ 0.7431745, 42.2857987 ], [ 0.7452205, 42.300601199999988 ], [ 0.7552264, 42.3085324 ], [ 0.7562067, 42.3137219 ], [ 0.7634659, 42.322305799999981 ], [ 0.7592278, 42.325344699999988 ], [ 0.7441147, 42.327120699999988 ], [ 0.7413079, 42.336233699999987 ], [ 0.7561114, 42.3470829 ], [ 0.763315, 42.347721 ], [ 0.7670705, 42.348816 ] ] ] } },
{ "type": "Feature", "properties": { "name": "Sopeira", "feature_type": "circle", "metric_roundness": 29.64, "metric_rectangularity": 45.77, "metric_mobile_fit": 90.61, "metric_aspect_ratio": 0.656, "metric_area_km2": 81.84 }, "geometry": { "type": "Polygon", "coordinates": [ [ [ 0.788108017663113, 42.338183320806536 ], [ 0.787992568276166, 42.334924303621349 ], [ 0.787646536554071, 42.331674050975991 ], [ 0.787070870945726, 42.328441473662473 ], [ 0.786267149310548, 42.325235435383028 ], [ 0.785237574593674, 42.322064728417793 ], [ 0.783984968787839, 42.318938049473559 ], [ 0.782512765198487, 42.315863975780864 ], [ 0.780824999033327, 42.312850941505175 ], [ 0.778926296342101, 42.30990721453805 ], [ 0.776821861336909, 42.307040873732689 ], [ 0.774517462127823, 42.304259786647499 ], [ 0.772019414912898, 42.301571587859833 ], [ 0.769334566665914, 42.298983657910789 ], [ 0.766470276369292, 42.296503102939994 ], [ 0.763434394843643, 42.29413673506798 ], [ 0.760235243229206, 42.291891053581203 ], [ 0.756881590178186, 42.289772226972886 ], [ 0.753382627820487, 42.287786075890672 ], [ 0.749747946568722, 42.285938057039168 ], [ 0.745987508831556, 42.284233248083339 ], [ 0.742111621707444, 42.282676333595305 ], [ 0.738130908733584, 42.281271592085034 ], [ 0.734056280767539, 42.280022884151371 ], [ 0.729898906081342, 42.278933641787653 ], [ 0.725670179750031, 42.278006858872153 ], [ 0.721381692418546, 42.277245082870749 ], [ 0.717045198532574, 42.276650407775378 ], [ 0.712672584120428, 42.276224468298707 ], [ 0.708275834214278, 42.275968435341419 ], [ 0.703867, 42.275883012745318 ], [ 0.699458165785722, 42.275968435341419 ], [ 0.695061415879571, 42.276224468298707 ], [ 0.690688801467426, 42.276650407775378 ], [ 0.686352307581453, 42.277245082870749 ], [ 0.682063820249968, 42.278006858872153 ], [ 0.677835093918658, 42.278933641787653 ], [ 0.673677719232461, 42.280022884151371 ], [ 0.669603091266416, 42.281271592085034 ], [ 0.665622378292555, 42.282676333595305 ], [ 0.661746491168443, 42.284233248083339 ], [ 0.657986053431278, 42.285938057039168 ], [ 0.654351372179512, 42.287786075890672 ], [ 0.650852409821813, 42.289772226972886 ], [ 0.647498756770794, 42.291891053581203 ], [ 0.644299605156357, 42.29413673506798 ], [ 0.641263723630708, 42.296503102939994 ], [ 0.638399433334086, 42.298983657910789 ], [ 0.635714585087101, 42.301571587859833 ], [ 0.633216537872176, 42.304259786647499 ], [ 0.63091213866309, 42.307040873732689 ], [ 0.628807703657899, 42.30990721453805 ], [ 0.626909000966673, 42.312850941505175 ], [ 0.625221234801512, 42.315863975780864 ], [ 0.623749031212161, 42.318938049473559 ], [ 0.622496425406325, 42.322064728417793 ], [ 0.621466850689452, 42.325235435383028 ], [ 0.620663129054274, 42.328441473662473 ], [ 0.620087463445928, 42.331674050975991 ], [ 0.619741431723833, 42.334924303621349 ], [ 0.619625982336887, 42.338183320806536 ], [ 0.619741431723833, 42.341442169096432 ], [ 0.620087463445928, 42.344691916906378 ], [ 0.620663129054274, 42.347923658975468 ], [ 0.621466850689452, 42.351128540752555 ], [ 0.622496425406325, 42.354297782628436 ], [ 0.623749031212161, 42.357422703948131 ], [ 0.625221234801512, 42.360494746738055 ], [ 0.626909000966673, 42.363505499083736 ], [ 0.628807703657899, 42.366446718094956 ], [ 0.63091213866309, 42.369310352396212 ], [ 0.633216537872176, 42.372088564082155 ], [ 0.635714585087101, 42.374773750078894 ], [ 0.638399433334086, 42.37735856285417 ], [ 0.641263723630708, 42.379835930420718 ], [ 0.644299605156357, 42.382199075579905 ], [ 0.647498756770794, 42.384441534354011 ], [ 0.650852409821813, 42.386557173558501 ], [ 0.654351372179512, 42.388540207467599 ], [ 0.657986053431278, 42.390385213529065 ], [ 0.661746491168443, 42.39208714708672 ], [ 0.665622378292555, 42.39364135507185 ], [ 0.669603091266416, 42.395043588627509 ], [ 0.673677719232461, 42.396290014632484 ], [ 0.677835093918658, 42.397377226094726 ], [ 0.682063820249968, 42.398302251386902 ], [ 0.686352307581453, 42.399062562300024 ], [ 0.690688801467426, 42.399656080893926 ], [ 0.695061415879571, 42.400081185126815 ], [ 0.699458165785722, 42.400336713249111 ], [ 0.703867, 42.400421966950056 ], [ 0.708275834214278, 42.400336713249111 ], [ 0.712672584120428, 42.400081185126815 ], [ 0.717045198532574, 42.399656080893926 ], [ 0.721381692418546, 42.399062562300024 ], [ 0.725670179750031, 42.398302251386902 ], [ 0.729898906081342, 42.397377226094726 ], [ 0.734056280767539, 42.396290014632484 ], [ 0.738130908733584, 42.395043588627509 ], [ 0.742111621707444, 42.39364135507185 ], [ 0.745987508831556, 42.39208714708672 ], [ 0.749747946568722, 42.390385213529065 ], [ 0.753382627820487, 42.388540207467599 ], [ 0.756881590178186, 42.386557173558501 ], [ 0.760235243229206, 42.384441534354011 ], [ 0.763434394843643, 42.382199075579905 ], [ 0.766470276369292, 42.379835930420718 ], [ 0.769334566665914, 42.37735856285417 ], [ 0.772019414912898, 42.374773750078894 ], [ 0.774517462127823, 42.372088564082155 ], [ 0.776821861336909, 42.369310352396212 ], [ 0.778926296342101, 42.366446718094956 ], [ 0.780824999033327, 42.363505499083736 ], [ 0.782512765198487, 42.360494746738055 ], [ 0.783984968787839, 42.357422703948131 ], [ 0.785237574593674, 42.354297782628436 ], [ 0.786267149310548, 42.351128540752555 ], [ 0.787070870945726, 42.347923658975468 ], [ 0.787646536554071, 42.344691916906385 ], [ 0.787992568276166, 42.341442169096432 ], [ 0.788108017663113, 42.338183320806536 ] ] ] } },
{ "type": "Feature", "properties": { "name": "Sopeira", "feature_type": "mrr", "metric_roundness": 29.64, "metric_rectangularity": 45.77, "metric_mobile_fit": 90.61, "metric_aspect_ratio": 0.656, "metric_area_km2": 81.84 }, "geometry": { "type": "Polygon", "coordinates": [ [ [ 0.7012555128304, 42.275327160654342 ], [ 0.665657057245936, 42.394309375868581 ], [ 0.751124631850121, 42.408267930804953 ], [ 0.786723087434585, 42.289312152297555 ], [ 0.7012555128304, 42.275327160654342 ] ] ] } }
]
}
