{
"type": "FeatureCollection",
"name": "sospirolo",
"crs": { "type": "name", "properties": { "name": "urn:ogc:def:crs:OGC:1.3:CRS84" } },
"features": [
{ "type": "Feature", "properties": { "name": "Sospirolo", "feature_type": "entity", "metric_roundness": 52.97, "metric_rectangularity": 68.88, "metric_mobile_fit": 62.39, "metric_aspect_ratio": 0.939, "metric_area_km2": 136.23 }, "geometry": { "type": "Polygon", "coordinates": [ [ [ 12.0154579, 46.155046499999983 ], [ 12.0619665, 46.118267 ], [ 12.0707581, 46.119879099999984 ], [ 12.082054, 46.115261 ], [ 12.0822744, 46.1264566 ], [ 12.0871456, 46.132010499999978 ], [ 12.1220412, 46.142189 ], [ 12.1262102, 46.1591922 ], [ 12.1177507, 46.162932499999982 ], [ 12.1178975, 46.167950499999982 ], [ 12.1136746, 46.1745746 ], [ 12.1153962, 46.1818545 ], [ 12.1002493, 46.183091 ], [ 12.089386, 46.1878786 ], [ 12.0766345, 46.211418699999982 ], [ 12.0555185, 46.218482 ], [ 12.0503807, 46.2084273 ], [ 12.046542, 46.206391799999977 ], [ 12.0246432, 46.2025891 ], [ 11.9977104, 46.2069255 ], [ 11.9890195, 46.2047972 ], [ 11.9863234, 46.198011699999981 ], [ 12.0062922, 46.1849521 ], [ 12.0074715, 46.180077 ], [ 12.0148743, 46.174048299999988 ], [ 12.0134955, 46.168032499999988 ], [ 12.0125265, 46.166663 ], [ 12.0154579, 46.155046499999983 ] ] ] } },
{ "type": "Feature", "properties": { "name": "Sospirolo", "feature_type": "circle", "metric_roundness": 52.97, "metric_rectangularity": 68.88, "metric_mobile_fit": 62.39, "metric_aspect_ratio": 0.939, "metric_area_km2": 136.23 }, "geometry": { "type": "Polygon", "coordinates": [ [ [ 12.130125904365263, 46.166672290601966 ], [ 12.130014487420928, 46.163725466392698 ], [ 12.129680541974023, 46.160786562018131 ], [ 12.129124983345804, 46.157863634748324 ], [ 12.128349334283858, 46.154964699329739 ], [ 12.127355720788346, 46.152097705982221 ], [ 12.126146866284795, 46.149270518559362 ], [ 12.124726084159375, 46.146490892932654 ], [ 12.12309726867713, 46.143766455659204 ], [ 12.121264884308083, 46.141104682992498 ], [ 12.119233953490419, 46.138512880294549 ], [ 12.117010042864342, 46.135998161906862 ], [ 12.114599248014297, 46.133567431536726 ], [ 12.112008176761396, 46.131227363213675 ], [ 12.109243931051839, 46.128984382869696 ], [ 12.106314087490976, 46.126844650595118 ], [ 12.103226676576355, 46.124814043620091 ], [ 12.099990160686694, 46.122898140069971 ], [ 12.096613410887072, 46.121102203540531 ], [ 12.093105682613983, 46.119431168536693 ], [ 12.089476590306797, 46.117889626816265 ], [ 12.085736081055275, 46.116481814677527 ], [ 12.081894407335277, 46.115211601226882 ], [ 12.077962098907442, 46.114082477659984 ], [ 12.073949933955829, 46.113097547587202 ], [ 12.069868909545697, 46.11225951843079 ], [ 12.065730211481284, 46.11157069391858 ], [ 12.061545183646306, 46.111032967695721 ], [ 12.057325296911159, 46.110647818072657 ], [ 12.053082117692067, 46.11041630392458 ], [ 12.048827276248328, 46.110339061753926 ], [ 12.044572434804588, 46.11041630392458 ], [ 12.040329255585496, 46.110647818072657 ], [ 12.036109368850351, 46.111032967695721 ], [ 12.031924341015372, 46.11157069391858 ], [ 12.027785642950958, 46.11225951843079 ], [ 12.023704618540826, 46.113097547587202 ], [ 12.019692453589217, 46.114082477659984 ], [ 12.015760145161378, 46.115211601226882 ], [ 12.01191847144138, 46.116481814677527 ], [ 12.00817796218986, 46.117889626816265 ], [ 12.004548869882674, 46.119431168536693 ], [ 12.001041141609583, 46.121102203540531 ], [ 11.997664391809964, 46.122898140069971 ], [ 11.9944278759203, 46.124814043620091 ], [ 11.991340465005679, 46.126844650595118 ], [ 11.988410621444816, 46.128984382869696 ], [ 11.985646375735261, 46.131227363213675 ], [ 11.983055304482361, 46.133567431536726 ], [ 11.980644509632315, 46.135998161906862 ], [ 11.978420599006236, 46.138512880294549 ], [ 11.976389668188576, 46.141104682992498 ], [ 11.974557283819527, 46.143766455659204 ], [ 11.972928468337283, 46.146490892932654 ], [ 11.97150768621186, 46.149270518559362 ], [ 11.970298831708311, 46.152097705982221 ], [ 11.969305218212797, 46.154964699329739 ], [ 11.968529569150853, 46.157863634748324 ], [ 11.967974010522633, 46.160786562018131 ], [ 11.967640065075729, 46.163725466392698 ], [ 11.967528648131394, 46.166672290601966 ], [ 11.967640065075729, 46.169618956957841 ], [ 11.967974010522633, 46.17255738950174 ], [ 11.968529569150853, 46.175479536133061 ], [ 11.969305218212797, 46.178377390658198 ], [ 11.970298831708311, 46.181243014699803 ], [ 11.97150768621186, 46.18406855940669 ], [ 11.972928468337283, 46.18684628690535 ], [ 11.974557283819527, 46.18956859143497 ], [ 11.976389668188576, 46.192228020108843 ], [ 11.978420599006236, 46.194817293246281 ], [ 11.980644509632315, 46.197329324220163 ], [ 11.983055304482361, 46.199757238767098 ], [ 11.985646375735261, 46.202094393708293 ], [ 11.988410621444816, 46.204334395031395 ], [ 11.991340465005679, 46.20647111528487 ], [ 11.9944278759203, 46.208498710238892 ], [ 11.997664391809964, 46.210411634768441 ], [ 12.001041141609583, 46.212204657916494 ], [ 12.004548869882674, 46.213872877097764 ], [ 12.00817796218986, 46.215411731405155 ], [ 12.01191847144138, 46.216817013984247 ], [ 12.015760145161378, 46.218084883443005 ], [ 12.019692453589217, 46.21921187426701 ], [ 12.023704618540826, 46.220194906212662 ], [ 12.027785642950958, 46.22103129265399 ], [ 12.031924341015372, 46.221718747861054 ], [ 12.036109368850351, 46.222255393191098 ], [ 12.040329255585496, 46.222639762176144 ], [ 12.044572434804588, 46.22287080449383 ], [ 12.048827276248328, 46.222947888811198 ], [ 12.053082117692067, 46.22287080449383 ], [ 12.057325296911159, 46.222639762176144 ], [ 12.061545183646306, 46.222255393191098 ], [ 12.065730211481284, 46.221718747861054 ], [ 12.069868909545697, 46.22103129265399 ], [ 12.073949933955829, 46.220194906212662 ], [ 12.077962098907442, 46.21921187426701 ], [ 12.081894407335277, 46.218084883443005 ], [ 12.085736081055275, 46.216817013984247 ], [ 12.089476590306797, 46.215411731405155 ], [ 12.093105682613983, 46.213872877097764 ], [ 12.096613410887072, 46.212204657916494 ], [ 12.099990160686694, 46.210411634768441 ], [ 12.103226676576355, 46.208498710238892 ], [ 12.106314087490976, 46.20647111528487 ], [ 12.109243931051839, 46.204334395031395 ], [ 12.112008176761396, 46.202094393708293 ], [ 12.114599248014297, 46.199757238767098 ], [ 12.117010042864342, 46.197329324220163 ], [ 12.119233953490419, 46.194817293246281 ], [ 12.121264884308083, 46.192228020108843 ], [ 12.12309726867713, 46.18956859143497 ], [ 12.124726084159375, 46.18684628690535 ], [ 12.126146866284795, 46.18406855940669 ], [ 12.127355720788346, 46.181243014699803 ], [ 12.128349334283858, 46.178377390658198 ], [ 12.129124983345804, 46.175479536133061 ], [ 12.129680541974023, 46.17255738950174 ], [ 12.130014487420928, 46.169618956957841 ], [ 12.130125904365263, 46.166672290601966 ] ] ] } },
{ "type": "Feature", "properties": { "name": "Sospirolo", "feature_type": "mrr", "metric_roundness": 52.97, "metric_rectangularity": 68.88, "metric_mobile_fit": 62.39, "metric_aspect_ratio": 0.939, "metric_area_km2": 136.23 }, "geometry": { "type": "Polygon", "coordinates": [ [ [ 12.072840427805458, 46.109664222052693 ], [ 11.968359831794418, 46.192267108048284 ], [ 12.044079612358527, 46.238177223620127 ], [ 12.148560208369569, 46.155643318295887 ], [ 12.072840427805458, 46.109664222052693 ] ] ] } }
]
}
