{
"type": "FeatureCollection",
"name": "soulac_sur_mer",
"crs": { "type": "name", "properties": { "name": "urn:ogc:def:crs:OGC:1.3:CRS84" } },
"features": [
{ "type": "Feature", "properties": { "name": "Soulac-sur-Mer", "metric_roundness": 45.8, "metric_rectangularity": 60.45, "metric_mobile_fit": 32.1, "metric_aspect_ratio": 1.241, "metric_area_km2": 62.34 }, "geometry": { "type": "Polygon", "coordinates": [ [ [ -1.110156, 45.463584 ], [ -1.1016741, 45.4699612 ], [ -1.1072217, 45.4752647 ], [ -1.0987716, 45.4815732 ], [ -1.0974509, 45.487644199999984 ], [ -1.0890097, 45.4894 ], [ -1.0858037, 45.486645099999969 ], [ -1.0744535, 45.4869622 ], [ -1.0672542, 45.483845399999986 ], [ -1.0473935, 45.500309 ], [ -1.0635328, 45.509182299999978 ], [ -1.068347, 45.515078 ], [ -1.0926298, 45.5101628 ], [ -1.1093726, 45.516325699999982 ], [ -1.10894, 45.5210581 ], [ -1.11738, 45.52491 ], [ -1.1378076, 45.5087949 ], [ -1.1547327, 45.4801741 ], [ -1.156004, 45.467522 ], [ -1.110156, 45.463584 ] ] ] } }
]
}
