{
"type": "FeatureCollection",
"name": "slimnic",
"crs": { "type": "name", "properties": { "name": "urn:ogc:def:crs:OGC:1.3:CRS84" } },
"features": [
{ "type": "Feature", "properties": { "name": "Slimnic", "metric_roundness": 49.04, "metric_rectangularity": 61.84, "metric_mobile_fit": 15.92, "metric_aspect_ratio": 1.403, "metric_area_km2": 223.95 }, "geometry": { "type": "Polygon", "coordinates": [ [ [ 24.080538, 45.9098513 ], [ 24.1007062, 45.9120348 ], [ 24.1134375, 45.899818499999981 ], [ 24.1298221, 45.900413199999988 ], [ 24.1515893, 45.8900225 ], [ 24.1633937, 45.8992156 ], [ 24.195138, 45.9066875 ], [ 24.2166475, 45.9055885 ], [ 24.2364301, 45.900406399999987 ], [ 24.2396153, 45.9175862 ], [ 24.255553, 45.9237545 ], [ 24.2722449, 45.9378149 ], [ 24.284051, 45.941557499999966 ], [ 24.285996, 45.949601499999979 ], [ 24.2699571, 45.9464201 ], [ 24.2606369, 45.9491664 ], [ 24.2528051, 45.9465268 ], [ 24.2258461, 45.951399199999983 ], [ 24.20425, 45.9510422 ], [ 24.2001835, 45.954837 ], [ 24.2000824, 45.961376399999985 ], [ 24.2159102, 45.9709279 ], [ 24.2200416, 45.9833807 ], [ 24.2188378, 45.9876601 ], [ 24.2101066, 45.990643499999983 ], [ 24.1741164, 45.994928199999983 ], [ 24.1655652, 45.989942 ], [ 24.1499076, 45.9876659 ], [ 24.1428487, 45.9910315 ], [ 24.121054, 45.9854615 ], [ 24.103218, 45.971618199999988 ], [ 24.0954851, 45.9470074 ], [ 24.0742997, 45.9296062 ], [ 24.076138, 45.91215 ], [ 24.080538, 45.9098513 ] ] ] } }
]
}
