{
"type": "FeatureCollection",
"name": "slovenska_ves",
"crs": { "type": "name", "properties": { "name": "urn:ogc:def:crs:OGC:1.3:CRS84" } },
"features": [
{ "type": "Feature", "properties": { "name": "Slovenská Ves", "metric_roundness": 38.12, "metric_rectangularity": 55.1, "metric_mobile_fit": 84.66, "metric_aspect_ratio": 0.716, "metric_area_km2": 53.74 }, "geometry": { "type": "Polygon", "coordinates": [ [ [ 20.446771, 49.240243 ], [ 20.4352033, 49.241596299999976 ], [ 20.4254118, 49.2521154 ], [ 20.4371126, 49.267351399999981 ], [ 20.434477, 49.274708599999975 ], [ 20.436109, 49.277428499999985 ], [ 20.427872, 49.290035 ], [ 20.4191369, 49.288246099999981 ], [ 20.4037659, 49.2792829 ], [ 20.3769329, 49.2754458 ], [ 20.3629465, 49.270127 ], [ 20.3782858, 49.269987 ], [ 20.3845812, 49.267372699999989 ], [ 20.4062203, 49.237665799999981 ], [ 20.4096048, 49.227521 ], [ 20.4082075, 49.2154135 ], [ 20.4312098, 49.213601099999984 ], [ 20.4454295, 49.217260499999988 ], [ 20.446771, 49.240243 ] ] ] } }
]
}
