{
"type": "FeatureCollection",
"name": "eggerding",
"crs": { "type": "name", "properties": { "name": "urn:ogc:def:crs:OGC:1.3:CRS84" } },
"features": [
{ "type": "Feature", "properties": { "name": "Eggerding", "feature_type": "entity", "metric_roundness": 35.27, "metric_rectangularity": 52.68, "metric_mobile_fit": 20.32, "metric_aspect_ratio": 1.359, "metric_area_km2": 49.81 }, "geometry": { "type": "Polygon", "coordinates": [ [ [ 13.503617, 48.382353 ], [ 13.4966056, 48.3815464 ], [ 13.4927052, 48.3738118 ], [ 13.4845858, 48.366769 ], [ 13.4750915, 48.36779379999998 ], [ 13.4749254, 48.3621188 ], [ 13.4715087, 48.358547699999988 ], [ 13.4620111, 48.364788 ], [ 13.4559146, 48.361663199999981 ], [ 13.4501083, 48.3546761 ], [ 13.4411463, 48.3528015 ], [ 13.4416412, 48.3468916 ], [ 13.4359863, 48.347918899999989 ], [ 13.4352062, 48.3523521 ], [ 13.4253955, 48.3527425 ], [ 13.4230645, 48.346609 ], [ 13.4238913, 48.339460299999978 ], [ 13.4322937, 48.3427801 ], [ 13.4362833, 48.336582799999988 ], [ 13.4421627, 48.3394538 ], [ 13.4653015, 48.3355295 ], [ 13.4877086, 48.329021399999981 ], [ 13.5001735, 48.333727 ], [ 13.5061, 48.3424701 ], [ 13.4915128, 48.3462242 ], [ 13.4892781, 48.350504 ], [ 13.4915321, 48.3547407 ], [ 13.4970362, 48.352156199999989 ], [ 13.50053, 48.3557123 ], [ 13.5148745, 48.3530905 ], [ 13.5183012, 48.3567798 ], [ 13.526708, 48.357357399999984 ], [ 13.5321557, 48.366460799999984 ], [ 13.5286645, 48.3687008 ], [ 13.527537, 48.380294 ], [ 13.503617, 48.382353 ] ] ] } },
{ "type": "Feature", "properties": { "name": "Eggerding", "feature_type": "circle", "metric_roundness": 35.27, "metric_rectangularity": 52.68, "metric_mobile_fit": 20.32, "metric_aspect_ratio": 1.359, "metric_area_km2": 49.81 }, "geometry": { "type": "Polygon", "coordinates": [ [ [ 13.535961843178249, 48.35988124144685 ], [ 13.535879275808631, 48.357786108426325 ], [ 13.535631800011199, 48.355696632207191 ], [ 13.535220094099909, 48.353618540955772 ], [ 13.534645286532051, 48.351557532325366 ], [ 13.53390895281521, 48.34951925782034 ], [ 13.533013111188925, 48.347509307279111 ], [ 13.531960217092823, 48.345533193519216 ], [ 13.530753156436436, 48.343596337186689 ], [ 13.529395237689119, 48.34170405185187 ], [ 13.527890182811776, 48.339861529392827 ], [ 13.526242117055203, 48.338073825707269 ], [ 13.524455557653091, 48.336345846792497 ], [ 13.522535401440575, 48.334682335232408 ], [ 13.520486911432366, 48.3330878571292 ], [ 13.518315702397187, 48.331566789516472 ], [ 13.516027725468083, 48.330123308288833 ], [ 13.513629251830785, 48.328761376682095 ], [ 13.511126855534817, 48.327484734336295 ], [ 13.508527395474484, 48.326296886972408 ], [ 13.505837996589124, 48.325201096711858 ], [ 13.503066030334148, 48.324200373065999 ], [ 13.500219094476382, 48.323297464621312 ], [ 13.497304992269125, 48.322494851443459 ], [ 13.494331711063968, 48.321794738222088 ], [ 13.491307400418023, 48.321199048175494 ], [ 13.488240349756559, 48.320709417732523 ], [ 13.485138965652249, 48.3203271920069 ], [ 13.482011748783345, 48.320053421076743 ], [ 13.478867270633915, 48.319888857079782 ], [ 13.47571415, 48.319833952132576 ], [ 13.472561029366087, 48.319888857079782 ], [ 13.469416551216655, 48.320053421076743 ], [ 13.466289334347751, 48.3203271920069 ], [ 13.463187950243441, 48.320709417732523 ], [ 13.460120899581979, 48.321199048175494 ], [ 13.457096588936034, 48.321794738222088 ], [ 13.454123307730876, 48.322494851443459 ], [ 13.451209205523618, 48.323297464621312 ], [ 13.448362269665854, 48.324200373065999 ], [ 13.445590303410876, 48.325201096711858 ], [ 13.442900904525517, 48.326296886972408 ], [ 13.440301444465183, 48.327484734336295 ], [ 13.437799048169214, 48.328761376682095 ], [ 13.435400574531915, 48.330123308288833 ], [ 13.433112597602813, 48.331566789516472 ], [ 13.430941388567634, 48.3330878571292 ], [ 13.428892898559424, 48.334682335232408 ], [ 13.426972742346909, 48.336345846792497 ], [ 13.425186182944797, 48.338073825707269 ], [ 13.423538117188226, 48.339861529392827 ], [ 13.422033062310881, 48.34170405185187 ], [ 13.420675143563564, 48.343596337186689 ], [ 13.419468082907178, 48.345533193519216 ], [ 13.418415188811075, 48.347509307279111 ], [ 13.417519347184788, 48.34951925782034 ], [ 13.416783013467949, 48.351557532325366 ], [ 13.416208205900089, 48.353618540955772 ], [ 13.415796499988801, 48.355696632207191 ], [ 13.415549024191369, 48.357786108426325 ], [ 13.415466456821751, 48.35988124144685 ], [ 13.415549024191369, 48.361976288301605 ], [ 13.415796499988801, 48.364065506967457 ], [ 13.416208205900089, 48.366143172099918 ], [ 13.416783013467949, 48.368203590714316 ], [ 13.417519347184788, 48.37024111777064 ], [ 13.418415188811075, 48.372250171619676 ], [ 13.419468082907178, 48.374225249268235 ], [ 13.420675143563564, 48.376160941422143 ], [ 13.422033062310881, 48.378051947266059 ], [ 13.423538117188226, 48.379893088940271 ], [ 13.425186182944797, 48.38167932567525 ], [ 13.426972742346909, 48.383405767545923 ], [ 13.428892898559424, 48.385067688808554 ], [ 13.430941388567634, 48.386660540784582 ], [ 13.433112597602813, 48.388179964256622 ], [ 13.435400574531915, 48.389621801343594 ], [ 13.437799048169214, 48.390982106823245 ], [ 13.440301444465183, 48.392257158871715 ], [ 13.442900904525517, 48.393443469191652 ], [ 13.445590303410876, 48.394537792501829 ], [ 13.448362269665854, 48.395537135363085 ], [ 13.451209205523618, 48.396438764317118 ], [ 13.454123307730876, 48.3972402133166 ], [ 13.457096588936034, 48.397939290426876 ], [ 13.460120899581979, 48.398534083781513 ], [ 13.463187950243441, 48.399022966775988 ], [ 13.466289334347751, 48.399404602485767 ], [ 13.469416551216655, 48.399677947297086 ], [ 13.472561029366087, 48.39984225374085 ], [ 13.47571415, 48.399897072522307 ], [ 13.478867270633915, 48.39984225374085 ], [ 13.482011748783345, 48.399677947297086 ], [ 13.485138965652249, 48.399404602485767 ], [ 13.488240349756559, 48.399022966775988 ], [ 13.491307400418023, 48.398534083781513 ], [ 13.494331711063968, 48.397939290426876 ], [ 13.497304992269125, 48.3972402133166 ], [ 13.500219094476382, 48.396438764317118 ], [ 13.503066030334148, 48.395537135363085 ], [ 13.505837996589124, 48.394537792501829 ], [ 13.508527395474484, 48.393443469191652 ], [ 13.511126855534817, 48.392257158871715 ], [ 13.513629251830785, 48.390982106823245 ], [ 13.516027725468083, 48.389621801343594 ], [ 13.518315702397187, 48.388179964256622 ], [ 13.520486911432366, 48.386660540784582 ], [ 13.522535401440575, 48.385067688808554 ], [ 13.524455557653091, 48.383405767545923 ], [ 13.526242117055203, 48.38167932567525 ], [ 13.527890182811776, 48.379893088940278 ], [ 13.529395237689119, 48.378051947266059 ], [ 13.530753156436436, 48.376160941422143 ], [ 13.531960217092823, 48.374225249268235 ], [ 13.533013111188925, 48.372250171619676 ], [ 13.53390895281521, 48.37024111777064 ], [ 13.534645286532051, 48.368203590714316 ], [ 13.535220094099909, 48.366143172099918 ], [ 13.535631800011199, 48.364065506967457 ], [ 13.535879275808631, 48.361976288301605 ], [ 13.535961843178249, 48.35988124144685 ] ] ] } },
{ "type": "Feature", "properties": { "name": "Eggerding", "feature_type": "mrr", "metric_roundness": 35.27, "metric_rectangularity": 52.68, "metric_mobile_fit": 20.32, "metric_aspect_ratio": 1.359, "metric_area_km2": 49.81 }, "geometry": { "type": "Polygon", "coordinates": [ [ [ 13.415421263395997, 48.348706701612315 ], [ 13.518334203453636, 48.390332196785316 ], [ 13.551265322735668, 48.354402585492892 ], [ 13.448352382678024, 48.312747717550579 ], [ 13.415421263395997, 48.348706701612315 ] ] ] } }
]
}
