{
"type": "FeatureCollection",
"name": "eguelshardt",
"crs": { "type": "name", "properties": { "name": "urn:ogc:def:crs:OGC:1.3:CRS84" } },
"features": [
{ "type": "Feature", "properties": { "name": "Éguelshardt", "feature_type": "entity", "metric_roundness": 47.17, "metric_rectangularity": 72.19, "metric_mobile_fit": 9.42, "metric_aspect_ratio": 1.468, "metric_area_km2": 38.55 }, "geometry": { "type": "Polygon", "coordinates": [ [ [ 7.526749, 49.0380094 ], [ 7.5107039, 49.0405526 ], [ 7.4906318, 49.034851299999985 ], [ 7.479042, 49.0255035 ], [ 7.4875381, 49.021114899999986 ], [ 7.4866255, 49.013684199999986 ], [ 7.5018185, 48.999671 ], [ 7.5030315, 49.000035 ], [ 7.5083565, 49.0037225 ], [ 7.5253905, 49.011961499999984 ], [ 7.5305335, 49.0120435 ], [ 7.534575, 49.012759 ], [ 7.545794, 49.019736 ], [ 7.5518225, 49.02032 ], [ 7.5587145, 49.021981 ], [ 7.570573, 49.027793 ], [ 7.5691065, 49.028856499999982 ], [ 7.566348, 49.02933849999998 ], [ 7.5617, 49.0314505 ], [ 7.5560675, 49.03711 ], [ 7.5532675, 49.0378715 ], [ 7.55204, 49.039276 ], [ 7.526749, 49.0380094 ] ] ] } },
{ "type": "Feature", "properties": { "name": "Éguelshardt", "feature_type": "circle", "metric_roundness": 47.17, "metric_rectangularity": 72.19, "metric_mobile_fit": 9.42, "metric_aspect_ratio": 1.468, "metric_area_km2": 38.55 }, "geometry": { "type": "Polygon", "coordinates": [ [ [ 7.570689839369156, 49.025648679067807 ], [ 7.570627038913312, 49.024076069317012 ], [ 7.570438809677458, 49.022507720486409 ], [ 7.570125667584851, 49.020947931920951 ], [ 7.569688470936199, 49.019400979901853 ], [ 7.569128418057126, 49.017871105914566 ], [ 7.568447044013644, 49.016362505007905 ], [ 7.567646216404646, 49.014879314276214 ], [ 7.566728130242944, 49.013425601496721 ], [ 7.565695301938889, 49.012005353953057 ], [ 7.564550562403075, 49.010622467476253 ], [ 7.563297049286998, 49.009280735733256 ], [ 7.561938198382977, 49.007983839792999 ], [ 7.560477734206891, 49.006735337998663 ], [ 7.558919659789527, 49.005538656174686 ], [ 7.557268245704566, 49.004397078195524 ], [ 7.555528018363224, 49.00331373694253 ], [ 7.553703747607683, 49.002291605674273 ], [ 7.551800433637282, 49.001333489834408 ], [ 7.549823293303313, 49.000442019319841 ], [ 7.547777745810005, 48.999619641231156 ], [ 7.545669397860849, 48.998868613125346 ], [ 7.543504028291028, 48.998190996789923 ], [ 7.541287572228018, 48.997588652555827 ], [ 7.539026104823825, 48.997063234165211 ], [ 7.53672582460341, 48.996616184208392 ], [ 7.534393036474967, 48.996248730142923 ], [ 7.532034134448605, 48.995961880905917 ], [ 7.529655584110817, 48.99575642412924 ], [ 7.527263904902743, 48.995632923965324 ], [ 7.52486565225085, 48.995591719529791 ], [ 7.52246739959896, 48.995632923965324 ], [ 7.520075720390886, 48.99575642412924 ], [ 7.517697170053094, 48.995961880905917 ], [ 7.515338268026734, 48.996248730142923 ], [ 7.513005479898291, 48.996616184208392 ], [ 7.510705199677878, 48.997063234165211 ], [ 7.508443732273684, 48.997588652555827 ], [ 7.506227276210674, 48.998190996789923 ], [ 7.504061906640853, 48.998868613125346 ], [ 7.501953558691698, 48.999619641231156 ], [ 7.499908011198389, 49.000442019319841 ], [ 7.49793087086442, 49.001333489834408 ], [ 7.496027556894018, 49.002291605674273 ], [ 7.494203286138476, 49.00331373694253 ], [ 7.492463058797135, 49.004397078195524 ], [ 7.490811644712173, 49.005538656174686 ], [ 7.489253570294811, 49.006735337998663 ], [ 7.487793106118723, 49.007983839792999 ], [ 7.486434255214705, 49.009280735733256 ], [ 7.485180742098627, 49.010622467476253 ], [ 7.484036002562812, 49.012005353953057 ], [ 7.483003174258759, 49.013425601496721 ], [ 7.482085088097056, 49.014879314276214 ], [ 7.481284260488058, 49.016362505007905 ], [ 7.480602886444577, 49.017871105914566 ], [ 7.480042833565504, 49.019400979901853 ], [ 7.479605636916849, 49.020947931920951 ], [ 7.479292494824243, 49.022507720486409 ], [ 7.47910426558839, 49.024076069317012 ], [ 7.479041465132545, 49.025648679067807 ], [ 7.47910426558839, 49.027221239121026 ], [ 7.479292494824243, 49.028789439403404 ], [ 7.479605636916849, 49.030348982197516 ], [ 7.480042833565504, 49.031895593914861 ], [ 7.480602886444577, 49.033425036798405 ], [ 7.481284260488058, 49.034933120522624 ], [ 7.482085088097056, 49.036415713659487 ], [ 7.483003174258759, 49.037868754979172 ], [ 7.484036002562812, 49.039288264554713 ], [ 7.485180742098627, 49.04067035464039 ], [ 7.486434255214705, 49.042011240294691 ], [ 7.487793106118723, 49.043307249718623 ], [ 7.489253570294811, 49.044554834281847 ], [ 7.490811644712173, 49.045750578209301 ], [ 7.492463058797135, 49.046891207902334 ], [ 7.494203286138476, 49.047973600869213 ], [ 7.496027556894018, 49.048994794240969 ], [ 7.49793087086442, 49.049951992849763 ], [ 7.499908011198389, 49.050842576848041 ], [ 7.501953558691698, 49.051664108848101 ], [ 7.504061906640853, 49.052414340562862 ], [ 7.506227276210674, 49.053091218930227 ], [ 7.508443732273684, 49.053692891704614 ], [ 7.510705199677878, 49.054217712500481 ], [ 7.513005479898291, 49.054664245274928 ], [ 7.515338268026734, 49.055031268236711 ], [ 7.517697170053094, 49.055317777172021 ], [ 7.520075720390884, 49.055522988177387 ], [ 7.52246739959896, 49.055646339793107 ], [ 7.52486565225085, 49.055687494531071 ], [ 7.527263904902743, 49.055646339793107 ], [ 7.529655584110817, 49.055522988177387 ], [ 7.532034134448605, 49.055317777172021 ], [ 7.534393036474967, 49.055031268236711 ], [ 7.53672582460341, 49.054664245274928 ], [ 7.539026104823825, 49.054217712500481 ], [ 7.541287572228018, 49.053692891704614 ], [ 7.543504028291028, 49.053091218930227 ], [ 7.545669397860849, 49.052414340562862 ], [ 7.547777745810005, 49.051664108848101 ], [ 7.549823293303313, 49.050842576848055 ], [ 7.551800433637282, 49.049951992849763 ], [ 7.553703747607683, 49.048994794240969 ], [ 7.555528018363224, 49.047973600869213 ], [ 7.557268245704566, 49.046891207902334 ], [ 7.558919659789527, 49.045750578209301 ], [ 7.560477734206891, 49.044554834281847 ], [ 7.561938198382977, 49.043307249718623 ], [ 7.563297049286998, 49.042011240294691 ], [ 7.564550562403075, 49.04067035464039 ], [ 7.565695301938889, 49.039288264554713 ], [ 7.566728130242944, 49.037868754979172 ], [ 7.567646216404646, 49.036415713659487 ], [ 7.568447044013644, 49.034933120522624 ], [ 7.569128418057126, 49.033425036798405 ], [ 7.569688470936199, 49.031895593914861 ], [ 7.570125667584851, 49.030348982197516 ], [ 7.570438809677458, 49.028789439403404 ], [ 7.570627038913312, 49.027221239121026 ], [ 7.570689839369156, 49.025648679067807 ] ] ] } },
{ "type": "Feature", "properties": { "name": "Éguelshardt", "feature_type": "mrr", "metric_roundness": 47.17, "metric_rectangularity": 72.19, "metric_mobile_fit": 9.42, "metric_aspect_ratio": 1.468, "metric_area_km2": 38.55 }, "geometry": { "type": "Polygon", "coordinates": [ [ [ 7.571340248018045, 49.026955762587626 ], [ 7.500163785707197, 48.998904502547283 ], [ 7.473437429282882, 49.028077371754854 ], [ 7.544613891593731, 49.056112194988835 ], [ 7.571340248018045, 49.026955762587626 ] ] ] } }
]
}
