{
"type": "FeatureCollection",
"name": "palazzuolo_sul_senio",
"crs": { "type": "name", "properties": { "name": "urn:ogc:def:crs:OGC:1.3:CRS84" } },
"features": [
{ "type": "Feature", "properties": { "name": "Palazzuolo sul Senio", "metric_roundness": 51.59, "metric_rectangularity": 66.15, "metric_mobile_fit": 48.46, "metric_aspect_ratio": 1.078, "metric_area_km2": 212.29 }, "geometry": { "type": "Polygon", "coordinates": [ [ [ 11.52399, 44.156284 ], [ 11.5150752, 44.1479615 ], [ 11.4989256, 44.1427961 ], [ 11.4927647, 44.136278 ], [ 11.4915876, 44.1289008 ], [ 11.4809842, 44.1226902 ], [ 11.4670762, 44.1087578 ], [ 11.4350416, 44.0972312 ], [ 11.456038, 44.0774192 ], [ 11.4577445, 44.0634055 ], [ 11.4877253, 44.055612499999988 ], [ 11.5001635, 44.046799 ], [ 11.5054855, 44.0507993 ], [ 11.5153103, 44.04989 ], [ 11.5304291, 44.0553131 ], [ 11.5517536, 44.057756699999985 ], [ 11.5773321, 44.0708157 ], [ 11.5861034, 44.080797799999985 ], [ 11.5846, 44.1121925 ], [ 11.5889716, 44.123457199999983 ], [ 11.5927758, 44.124212699999987 ], [ 11.6016505, 44.125975 ], [ 11.6037894, 44.136278 ], [ 11.6159681, 44.144576199999989 ], [ 11.6153825, 44.158238 ], [ 11.6083736, 44.161372199999988 ], [ 11.6022604, 44.157669299999981 ], [ 11.5891932, 44.1621891 ], [ 11.5745255, 44.161062 ], [ 11.5641669, 44.1673204 ], [ 11.5537276, 44.1651064 ], [ 11.5515874, 44.1584958 ], [ 11.5447239, 44.153172 ], [ 11.5249595, 44.15764 ], [ 11.52399, 44.156284 ] ] ] } }
]
}
