{
"type": "FeatureCollection",
"name": "palazinges",
"crs": { "type": "name", "properties": { "name": "urn:ogc:def:crs:OGC:1.3:CRS84" } },
"features": [
{ "type": "Feature", "properties": { "name": "Palazinges", "feature_type": "entity", "metric_roundness": 57.12, "metric_rectangularity": 71.01, "metric_mobile_fit": 23.39, "metric_aspect_ratio": 1.329, "metric_area_km2": 10.74 }, "geometry": { "type": "Polygon", "coordinates": [ [ [ 1.7092903, 45.171546 ], [ 1.6887129, 45.1755279 ], [ 1.6826422, 45.173890599999986 ], [ 1.679949, 45.169422 ], [ 1.6756046, 45.167591799999983 ], [ 1.676453, 45.164003499999986 ], [ 1.6819944, 45.1630078 ], [ 1.6884325, 45.1551061 ], [ 1.7013844, 45.1568392 ], [ 1.7063305, 45.1532295 ], [ 1.711652, 45.154744499999971 ], [ 1.7155945, 45.1547215 ], [ 1.7165395, 45.1566155 ], [ 1.7176235, 45.161974 ], [ 1.7143955, 45.166328 ], [ 1.7092903, 45.171546 ] ] ] } },
{ "type": "Feature", "properties": { "name": "Palazinges", "feature_type": "circle", "metric_roundness": 57.12, "metric_rectangularity": 71.01, "metric_mobile_fit": 23.39, "metric_aspect_ratio": 1.329, "metric_area_km2": 10.74 }, "geometry": { "type": "Polygon", "coordinates": [ [ [ 1.717791139796428, 45.161476286028332 ], [ 1.717761010230382, 45.160664978168981 ], [ 1.717670704115289, 45.159855882542637 ], [ 1.717520468973934, 45.15905121696602 ], [ 1.717310716590397, 45.158253187206242 ], [ 1.717042021881381, 45.157463980932334 ], [ 1.716715121320408, 45.156685761715472 ], [ 1.716330910919191, 45.155920663094314 ], [ 1.715890443771735, 45.155170782721598 ], [ 1.715394927167874, 45.154438176608487 ], [ 1.714845719284177, 45.153724853482068 ], [ 1.714244325461277, 45.15303276927191 ], [ 1.713592394077842, 45.152363821740622 ], [ 1.712891712032477, 45.151719845273426 ], [ 1.712144199845966, 45.151102605840883 ], [ 1.711351906397252, 45.150513796148971 ], [ 1.710517003307607, 45.149955030989609 ], [ 1.709641778988366, 45.149427842804769 ], [ 1.708728632368553, 45.148933677476194 ], [ 1.707780066319579, 45.148473890352548 ], [ 1.706798680795052, 45.148049742524883 ], [ 1.705787165704478, 45.147662397360847 ], [ 1.704748293540412, 45.147312917307033 ], [ 1.703684911779244, 45.147002260968684 ], [ 1.702599935076466, 45.146731280474377 ], [ 1.701496337277806, 45.146500719133442 ], [ 1.700377143268118, 45.146311209392344 ], [ 1.69924542068039, 45.146163271095737 ], [ 1.698104271487569, 45.146057310057188 ], [ 1.696956823500273, 45.145993616943223 ], [ 1.695806221793676, 45.145972366474055 ], [ 1.694655620087079, 45.145993616943223 ], [ 1.693508172099783, 45.146057310057188 ], [ 1.692367022906962, 45.146163271095737 ], [ 1.691235300319234, 45.146311209392344 ], [ 1.690116106309546, 45.146500719133442 ], [ 1.689012508510886, 45.146731280474377 ], [ 1.687927531808108, 45.147002260968684 ], [ 1.68686415004694, 45.147312917307033 ], [ 1.685825277882874, 45.147662397360847 ], [ 1.6848137627923, 45.148049742524883 ], [ 1.683832377267773, 45.148473890352548 ], [ 1.682883811218799, 45.148933677476194 ], [ 1.681970664598986, 45.149427842804769 ], [ 1.681095440279745, 45.149955030989609 ], [ 1.6802605371901, 45.150513796148971 ], [ 1.679468243741386, 45.151102605840883 ], [ 1.678720731554875, 45.151719845273426 ], [ 1.67802004950951, 45.152363821740622 ], [ 1.677368118126074, 45.15303276927191 ], [ 1.676766724303175, 45.153724853482068 ], [ 1.676217516419478, 45.154438176608487 ], [ 1.675721999815617, 45.155170782721598 ], [ 1.675281532668161, 45.155920663094314 ], [ 1.674897322266944, 45.156685761715472 ], [ 1.67457042170597, 45.157463980932334 ], [ 1.674301726996955, 45.158253187206242 ], [ 1.674091974613418, 45.15905121696602 ], [ 1.673941739472063, 45.159855882542637 ], [ 1.67385143335697, 45.160664978168981 ], [ 1.673821303790924, 45.161476286028332 ], [ 1.67385143335697, 45.162287582334805 ], [ 1.673941739472063, 45.163096643429064 ], [ 1.674091974613418, 45.16390125187273 ], [ 1.674301726996955, 45.164699202524687 ], [ 1.67457042170597, 45.165488308582589 ], [ 1.674897322266944, 45.166266407573254 ], [ 1.675281532668161, 45.16703136727525 ], [ 1.675721999815617, 45.16778109155787 ], [ 1.676217516419478, 45.168513526120115 ], [ 1.676766724303175, 45.169226664114433 ], [ 1.677368118126074, 45.169918551639611 ], [ 1.67802004950951, 45.170587293087934 ], [ 1.678720731554875, 45.171231056332104 ], [ 1.679468243741386, 45.171848077737657 ], [ 1.6802605371901, 45.172436666987373 ], [ 1.681095440279745, 45.172995211704531 ], [ 1.681970664598985, 45.173522181862381 ], [ 1.682883811218799, 45.174016133967946 ], [ 1.683832377267773, 45.17447571500864 ], [ 1.6848137627923, 45.174899666151326 ], [ 1.685825277882874, 45.17528682618326 ], [ 1.68686415004694, 45.175636134686201 ], [ 1.687927531808108, 45.175946634934469 ], [ 1.689012508510886, 45.176217476509628 ], [ 1.690116106309546, 45.176447917624373 ], [ 1.691235300319234, 45.176637327149464 ], [ 1.692367022906962, 45.176785186338236 ], [ 1.693508172099783, 45.176891090243842 ], [ 1.694655620087079, 45.176954748825743 ], [ 1.695806221793676, 45.176975987742011 ], [ 1.696956823500273, 45.176954748825743 ], [ 1.698104271487569, 45.176891090243842 ], [ 1.69924542068039, 45.176785186338236 ], [ 1.700377143268118, 45.176637327149464 ], [ 1.701496337277806, 45.176447917624373 ], [ 1.702599935076466, 45.176217476509628 ], [ 1.703684911779244, 45.175946634934469 ], [ 1.704748293540412, 45.175636134686201 ], [ 1.705787165704478, 45.17528682618326 ], [ 1.706798680795052, 45.174899666151326 ], [ 1.707780066319579, 45.17447571500864 ], [ 1.708728632368553, 45.174016133967946 ], [ 1.709641778988366, 45.173522181862381 ], [ 1.710517003307607, 45.172995211704531 ], [ 1.711351906397252, 45.172436666987373 ], [ 1.712144199845966, 45.171848077737657 ], [ 1.712891712032477, 45.171231056332104 ], [ 1.713592394077842, 45.170587293087934 ], [ 1.714244325461277, 45.169918551639611 ], [ 1.714845719284177, 45.169226664114433 ], [ 1.715394927167874, 45.168513526120115 ], [ 1.715890443771735, 45.16778109155787 ], [ 1.716330910919191, 45.16703136727525 ], [ 1.716715121320408, 45.166266407573254 ], [ 1.717042021881381, 45.165488308582589 ], [ 1.717310716590397, 45.164699202524687 ], [ 1.717520468973934, 45.16390125187273 ], [ 1.717670704115289, 45.163096643429064 ], [ 1.717761010230382, 45.162287582334805 ], [ 1.717791139796428, 45.161476286028332 ] ] ] } },
{ "type": "Feature", "properties": { "name": "Palazinges", "feature_type": "mrr", "metric_roundness": 57.12, "metric_rectangularity": 71.01, "metric_mobile_fit": 23.39, "metric_aspect_ratio": 1.329, "metric_area_km2": 10.74 }, "geometry": { "type": "Polygon", "coordinates": [ [ [ 1.679396572826683, 45.177330595657118 ], [ 1.721436887457332, 45.169195401997911 ], [ 1.714023722104472, 45.150152165047615 ], [ 1.671983407473823, 45.158290078337394 ], [ 1.679396572826683, 45.177330595657118 ] ] ] } }
]
}
