{
"type": "FeatureCollection",
"name": "panske_dubenky",
"crs": { "type": "name", "properties": { "name": "urn:ogc:def:crs:OGC:1.3:CRS84" } },
"features": [
{ "type": "Feature", "properties": { "name": "Panské Dubenky", "feature_type": "entity", "metric_roundness": 41.84, "metric_rectangularity": 57.05, "metric_mobile_fit": 79.3, "metric_aspect_ratio": 0.769, "metric_area_km2": 7.83 }, "geometry": { "type": "Polygon", "coordinates": [ [ [ 15.2796502, 49.2219642 ], [ 15.2775533, 49.2292559 ], [ 15.269588, 49.2327 ], [ 15.2564275, 49.218114 ], [ 15.2550115, 49.212383 ], [ 15.2536025, 49.206124 ], [ 15.2637664, 49.213611599999986 ], [ 15.279154, 49.2111509 ], [ 15.284911, 49.216669 ], [ 15.284391, 49.221993499999989 ], [ 15.2796502, 49.2219642 ] ] ] } },
{ "type": "Feature", "properties": { "name": "Panské Dubenky", "feature_type": "circle", "metric_roundness": 41.84, "metric_rectangularity": 57.05, "metric_mobile_fit": 79.3, "metric_aspect_ratio": 0.769, "metric_area_km2": 7.83 }, "geometry": { "type": "Polygon", "coordinates": [ [ [ 15.285199409689104, 49.218984573028266 ], [ 15.285169353238325, 49.218234852875142 ], [ 15.285079266268632, 49.217487176326891 ], [ 15.284929395702143, 49.216743592852566 ], [ 15.284720152323665, 49.216006140793766 ], [ 15.284452109654756, 49.215276841775143 ], [ 15.284126002381738, 49.214557695159833 ], [ 15.283742724341982, 49.21385067256481 ], [ 15.283303326073947, 49.213157712451583 ], [ 15.282809011937752, 49.212480714806794 ], [ 15.282261136814082, 49.211821535927569 ], [ 15.281661202390564, 49.211181983326007 ], [ 15.281010853045757, 49.210563810766651 ], [ 15.280311871342006, 49.209968713450799 ], [ 15.27956617313958, 49.209398323361043 ], [ 15.278775802345416, 49.208854204778611 ], [ 15.277942925310922, 49.20833784998608 ], [ 15.277069824894161, 49.207850675167478 ], [ 15.276158894202684, 49.20739401651673 ], [ 15.275212630034201, 49.206969126565696 ], [ 15.274233626033014, 49.206577170741532 ], [ 15.273224565581053, 49.206219224163256 ], [ 15.27218821444287, 49.20589626868621 ], [ 15.271127413184907, 49.205609190202601 ], [ 15.270045069389667, 49.205358776205806 ], [ 15.268944149686266, 49.205145713624951 ], [ 15.267827671619084, 49.204970586935922 ], [ 15.266698695376901, 49.204833876554069 ], [ 15.26556031540512, 49.204735957512938 ], [ 15.264415651924114, 49.20467709843286 ], [ 15.263267842376925, 49.204657460782123 ], [ 15.262120032829737, 49.20467709843286 ], [ 15.26097536934873, 49.204735957512938 ], [ 15.25983698937695, 49.204833876554069 ], [ 15.258708013134767, 49.204970586935922 ], [ 15.257591535067585, 49.205145713624951 ], [ 15.256490615364184, 49.205358776205806 ], [ 15.255408271568944, 49.205609190202601 ], [ 15.25434747031098, 49.20589626868621 ], [ 15.253311119172798, 49.206219224163256 ], [ 15.252302058720836, 49.206577170741532 ], [ 15.25132305471965, 49.206969126565696 ], [ 15.250376790551167, 49.20739401651673 ], [ 15.249465859859688, 49.207850675167478 ], [ 15.248592759442928, 49.20833784998608 ], [ 15.247759882408435, 49.208854204778611 ], [ 15.246969511614271, 49.209398323361043 ], [ 15.246223813411842, 49.209968713450799 ], [ 15.245524831708094, 49.210563810766651 ], [ 15.244874482363286, 49.211181983326007 ], [ 15.244274547939769, 49.211821535927569 ], [ 15.243726672816098, 49.212480714806794 ], [ 15.243232358679901, 49.213157712451583 ], [ 15.242792960411869, 49.21385067256481 ], [ 15.242409682372113, 49.214557695159833 ], [ 15.242083575099095, 49.215276841775143 ], [ 15.241815532430186, 49.216006140793766 ], [ 15.241606289051708, 49.216743592852566 ], [ 15.241456418485219, 49.217487176326891 ], [ 15.241366331515525, 49.218234852875142 ], [ 15.241336275064747, 49.218984573028266 ], [ 15.241366331515525, 49.219734281808783 ], [ 15.241456418485219, 49.220481924363781 ], [ 15.241606289051708, 49.221225451596673 ], [ 15.241815532430186, 49.22196282578205 ], [ 15.242083575099095, 49.222692026148444 ], [ 15.242409682372113, 49.223411054413582 ], [ 15.242792960411869, 49.224117940257152 ], [ 15.243232358679901, 49.224810746715931 ], [ 15.243726672816098, 49.225487575486746 ], [ 15.244274547939769, 49.22614657212268 ], [ 15.244874482363286, 49.226785931108331 ], [ 15.245524831708094, 49.227403900800482 ], [ 15.246223813411842, 49.227998788220447 ], [ 15.246969511614271, 49.228568963685326 ], [ 15.247759882408435, 49.229112865265364 ], [ 15.248592759442928, 49.229629003055486 ], [ 15.249465859859688, 49.230115963249219 ], [ 15.250376790551167, 49.230572412004086 ], [ 15.25132305471965, 49.230997099087915 ], [ 15.252302058720836, 49.231388861296175 ], [ 15.253311119172798, 49.231746625631168 ], [ 15.25434747031098, 49.232069412234246 ], [ 15.255408271568944, 49.232356337063408 ], [ 15.256490615364184, 49.23260661430875 ], [ 15.257591535067585, 49.232819558539433 ], [ 15.258708013134767, 49.232994586576226 ], [ 15.25983698937695, 49.233131219084662 ], [ 15.26097536934873, 49.23322908188436 ], [ 15.262120032829737, 49.233287906971192 ], [ 15.263267842376925, 49.233307533249324 ], [ 15.264415651924114, 49.233287906971192 ], [ 15.26556031540512, 49.23322908188436 ], [ 15.266698695376901, 49.233131219084662 ], [ 15.267827671619084, 49.232994586576226 ], [ 15.268944149686266, 49.232819558539433 ], [ 15.270045069389667, 49.23260661430875 ], [ 15.271127413184907, 49.232356337063408 ], [ 15.27218821444287, 49.232069412234246 ], [ 15.273224565581053, 49.231746625631168 ], [ 15.274233626033014, 49.231388861296175 ], [ 15.275212630034201, 49.230997099087915 ], [ 15.276158894202684, 49.230572412004086 ], [ 15.277069824894161, 49.230115963249219 ], [ 15.277942925310922, 49.229629003055486 ], [ 15.278775802345416, 49.229112865265364 ], [ 15.27956617313958, 49.228568963685326 ], [ 15.280311871342006, 49.227998788220447 ], [ 15.281010853045757, 49.227403900800482 ], [ 15.281661202390564, 49.226785931108331 ], [ 15.282261136814082, 49.22614657212268 ], [ 15.282809011937752, 49.225487575486746 ], [ 15.283303326073947, 49.224810746715931 ], [ 15.283742724341982, 49.224117940257152 ], [ 15.284126002381738, 49.223411054413582 ], [ 15.284452109654756, 49.222692026148444 ], [ 15.284720152323665, 49.22196282578205 ], [ 15.284929395702143, 49.221225451596673 ], [ 15.285079266268632, 49.220481924363781 ], [ 15.285169353238325, 49.219734281808783 ], [ 15.285199409689104, 49.218984573028266 ] ] ] } },
{ "type": "Feature", "properties": { "name": "Panské Dubenky", "feature_type": "mrr", "metric_roundness": 41.84, "metric_rectangularity": 57.05, "metric_mobile_fit": 79.3, "metric_aspect_ratio": 0.769, "metric_area_km2": 7.83 }, "geometry": { "type": "Polygon", "coordinates": [ [ [ 15.247671566971407, 49.208407276393167 ], [ 15.269588, 49.2327 ], [ 15.291697932411747, 49.22419183440347 ], [ 15.269781501911924, 49.199894923390417 ], [ 15.247671566971407, 49.208407276393167 ] ] ] } }
]
}
