{
"type": "FeatureCollection",
"name": "pargny_les_bois",
"crs": { "type": "name", "properties": { "name": "urn:ogc:def:crs:OGC:1.3:CRS84" } },
"features": [
{ "type": "Feature", "properties": { "name": "Pargny-les-Bois", "feature_type": "entity", "metric_roundness": 65.5, "metric_rectangularity": 72.55, "metric_mobile_fit": 61.11, "metric_aspect_ratio": 0.951, "metric_area_km2": 16.83 }, "geometry": { "type": "Polygon", "coordinates": [ [ [ 3.6301993, 49.73909029999998 ], [ 3.6329995, 49.745334 ], [ 3.6129481, 49.7442966 ], [ 3.606377, 49.746482 ], [ 3.5999145, 49.743093499999986 ], [ 3.6014, 49.7418795 ], [ 3.5956895, 49.739409 ], [ 3.598066, 49.73584 ], [ 3.59562, 49.735198 ], [ 3.596716, 49.7331285 ], [ 3.5969975, 49.731257499999984 ], [ 3.599533, 49.731631 ], [ 3.6020755, 49.72502 ], [ 3.604006, 49.7253695 ], [ 3.6040305, 49.722041499999989 ], [ 3.6084605, 49.7221955 ], [ 3.6142539, 49.722437899999989 ], [ 3.6163693, 49.716624799999984 ], [ 3.6321653, 49.7184913 ], [ 3.6395695, 49.722285 ], [ 3.6301993, 49.73909029999998 ] ] ] } },
{ "type": "Feature", "properties": { "name": "Pargny-les-Bois", "feature_type": "circle", "metric_roundness": 65.5, "metric_rectangularity": 72.55, "metric_mobile_fit": 61.11, "metric_aspect_ratio": 0.951, "metric_area_km2": 16.83 }, "geometry": { "type": "Polygon", "coordinates": [ [ [ 3.644279111238852, 49.73186975328958 ], [ 3.644243897110743, 49.731000530496452 ], [ 3.644138351245892, 49.730133674679848 ], [ 3.643962762938181, 49.729271562022333 ], [ 3.643717613462952, 49.728416555830918 ], [ 3.64340357475788, 49.727571000055939 ], [ 3.643021507581226, 49.726737212861593 ], [ 3.642572459152564, 49.725917480265991 ], [ 3.642057660282424, 49.725114049868033 ], [ 3.641478521998725, 49.724329124678491 ], [ 3.640836631679249, 49.723564857072205 ], [ 3.640133748700743, 49.722823342878222 ], [ 3.639371799616594, 49.722106615624 ], [ 3.638552872876282, 49.721416640949776 ], [ 3.637679213101075, 49.720755311208293 ], [ 3.636753214931693, 49.720124440265195 ], [ 3.635777416464752, 49.719525758514017 ], [ 3.634754492296021, 49.718960908119968 ], [ 3.633687246189548, 49.718431438505505 ], [ 3.632578603392723, 49.717938802090231 ], [ 3.631431602618394, 49.717484350297021 ], [ 3.630249387715956, 49.717069329835311 ], [ 3.629035199054281, 49.716694879272097 ], [ 3.627792364640094, 49.71636202589989 ], [ 3.626524290996136, 49.716071682910631 ], [ 3.625234453824123, 49.715824646883227 ], [ 3.623926388478087, 49.715621595591735 ], [ 3.622603680274218, 49.715463086140346 ], [ 3.621269954663765, 49.715349553430329 ], [ 3.619928867295918, 49.715281308963206 ], [ 3.618584093997936, 49.715258539983459 ], [ 3.617239320699954, 49.715281308963206 ], [ 3.615898233332107, 49.715349553430329 ], [ 3.614564507721654, 49.715463086140346 ], [ 3.613241799517785, 49.715621595591735 ], [ 3.611933734171749, 49.715824646883227 ], [ 3.610643896999735, 49.716071682910631 ], [ 3.609375823355777, 49.71636202589989 ], [ 3.608132988941591, 49.716694879272097 ], [ 3.606918800279916, 49.717069329835311 ], [ 3.605736585377477, 49.717484350297021 ], [ 3.604589584603149, 49.717938802090231 ], [ 3.603480941806325, 49.718431438505505 ], [ 3.602413695699851, 49.718960908119968 ], [ 3.601390771531121, 49.719525758514017 ], [ 3.600414973064179, 49.720124440265195 ], [ 3.599488974894797, 49.720755311208293 ], [ 3.598615315119591, 49.721416640949776 ], [ 3.597796388379278, 49.722106615624 ], [ 3.597034439295129, 49.722823342878222 ], [ 3.596331556316624, 49.723564857072205 ], [ 3.595689665997147, 49.724329124678491 ], [ 3.595110527713449, 49.725114049868033 ], [ 3.594595728843308, 49.725917480265991 ], [ 3.594146680414646, 49.726737212861593 ], [ 3.593764613237992, 49.727571000055939 ], [ 3.59345057453292, 49.728416555830918 ], [ 3.593205425057691, 49.729271562022333 ], [ 3.59302983674998, 49.730133674679848 ], [ 3.592924290885129, 49.731000530496452 ], [ 3.59288907675702, 49.73186975328958 ], [ 3.592924290885129, 49.732738960516087 ], [ 3.59302983674998, 49.733605769803397 ], [ 3.593205425057691, 49.734467805478729 ], [ 3.59345057453292, 49.735322705078516 ], [ 3.593764613237992, 49.736168125820242 ], [ 3.594146680414646, 49.737001751019172 ], [ 3.594595728843308, 49.73782129643206 ], [ 3.595110527713449, 49.738624516510797 ], [ 3.595689665997147, 49.739409210548921 ], [ 3.596331556316624, 49.740173228704144 ], [ 3.597034439295129, 49.740914477880452 ], [ 3.597796388379278, 49.741630927453976 ], [ 3.598615315119591, 49.742320614826816 ], [ 3.599488974894797, 49.742981650793936 ], [ 3.600414973064179, 49.743612224708379 ], [ 3.601390771531121, 49.744210609430901 ], [ 3.602413695699851, 49.744775166050609 ], [ 3.603480941806325, 49.745304348363675 ], [ 3.604589584603149, 49.745796707098251 ], [ 3.605736585377477, 49.746250893873807 ], [ 3.606918800279916, 49.746665664884446 ], [ 3.608132988941591, 49.747039884296264 ], [ 3.609375823355777, 49.747372527349263 ], [ 3.610643896999735, 49.747662683155802 ], [ 3.611933734171749, 49.747909557187796 ], [ 3.613241799517785, 49.748112473446049 ], [ 3.614564507721654, 49.74827087630581 ], [ 3.615898233332107, 49.748384332033652 ], [ 3.617239320699954, 49.74845252997148 ], [ 3.618584093997936, 49.748475283384622 ], [ 3.619928867295918, 49.74845252997148 ], [ 3.621269954663765, 49.748384332033652 ], [ 3.622603680274218, 49.74827087630581 ], [ 3.623926388478087, 49.748112473446049 ], [ 3.625234453824123, 49.747909557187796 ], [ 3.626524290996136, 49.747662683155802 ], [ 3.627792364640094, 49.747372527349263 ], [ 3.629035199054281, 49.747039884296264 ], [ 3.630249387715956, 49.746665664884446 ], [ 3.631431602618394, 49.746250893873807 ], [ 3.632578603392723, 49.745796707098251 ], [ 3.633687246189548, 49.745304348363675 ], [ 3.634754492296021, 49.744775166050609 ], [ 3.635777416464752, 49.744210609430901 ], [ 3.636753214931693, 49.743612224708379 ], [ 3.637679213101075, 49.742981650793936 ], [ 3.638552872876282, 49.742320614826816 ], [ 3.639371799616594, 49.741630927453976 ], [ 3.640133748700743, 49.740914477880459 ], [ 3.640836631679249, 49.740173228704144 ], [ 3.641478521998725, 49.739409210548921 ], [ 3.642057660282424, 49.738624516510797 ], [ 3.642572459152564, 49.73782129643206 ], [ 3.643021507581226, 49.737001751019172 ], [ 3.64340357475788, 49.736168125820242 ], [ 3.643717613462952, 49.735322705078516 ], [ 3.643962762938181, 49.734467805478729 ], [ 3.644138351245892, 49.733605769803397 ], [ 3.644243897110743, 49.732738960516087 ], [ 3.644279111238852, 49.73186975328958 ] ] ] } },
{ "type": "Feature", "properties": { "name": "Pargny-les-Bois", "feature_type": "mrr", "metric_roundness": 65.5, "metric_rectangularity": 72.55, "metric_mobile_fit": 61.11, "metric_aspect_ratio": 0.951, "metric_area_km2": 16.83 }, "geometry": { "type": "Polygon", "coordinates": [ [ [ 3.63180895678548, 49.749509524169319 ], [ 3.640372019206448, 49.71946884561158 ], [ 3.601424895453907, 49.714829472850177 ], [ 3.592861833032939, 49.744873022186418 ], [ 3.63180895678548, 49.749509524169319 ] ] ] } }
]
}
