{
"type": "FeatureCollection",
"name": "paso_el",
"crs": { "type": "name", "properties": { "name": "urn:ogc:def:crs:OGC:1.3:CRS84" } },
"features": [
{ "type": "Feature", "properties": { "name": "Paso, El", "metric_roundness": 31.77, "metric_rectangularity": 61.63, "metric_mobile_fit": 85.83, "metric_aspect_ratio": 0.421, "metric_area_km2": 175.33 }, "geometry": { "type": "Polygon", "coordinates": [ [ [ -17.871105, 28.5546705 ], [ -17.869257, 28.5542775 ], [ -17.8632815, 28.554737 ], [ -17.852709, 28.554003 ], [ -17.8496935, 28.554329 ], [ -17.8471375, 28.5549945 ], [ -17.8389645, 28.5554105 ], [ -17.8368015, 28.560831 ], [ -17.838214, 28.5918506 ], [ -17.840582, 28.596573 ], [ -17.8402347, 28.6041277 ], [ -17.8346215, 28.614738499999984 ], [ -17.8250213, 28.6411824 ], [ -17.82747, 28.6702239 ], [ -17.833681, 28.688103 ], [ -17.8454686, 28.7053319 ], [ -17.8381543, 28.718304 ], [ -17.835584, 28.734676 ], [ -17.8383445, 28.7437595 ], [ -17.8534415, 28.754328 ], [ -17.8636495, 28.7608145 ], [ -17.8769133, 28.7617085 ], [ -17.8902685, 28.750532 ], [ -17.9002855, 28.7407745 ], [ -17.899475, 28.7374155 ], [ -17.9098841, 28.7132988 ], [ -17.9229976, 28.6946781 ], [ -17.9211264, 28.682643 ], [ -17.92449, 28.6753805 ], [ -17.9246137, 28.670740799999979 ], [ -17.9109118, 28.6714268 ], [ -17.893776, 28.660431 ], [ -17.9031734, 28.6537026 ], [ -17.8854798, 28.6243419 ], [ -17.874748, 28.554882 ], [ -17.871105, 28.5546705 ] ] ] } }
]
}
