{
"type": "FeatureCollection",
"name": "pastena",
"crs": { "type": "name", "properties": { "name": "urn:ogc:def:crs:OGC:1.3:CRS84" } },
"features": [
{ "type": "Feature", "properties": { "name": "Pastena", "feature_type": "entity", "metric_roundness": 69.03, "metric_rectangularity": 78.02, "metric_mobile_fit": 56.8, "metric_aspect_ratio": 0.994, "metric_area_km2": 73.67 }, "geometry": { "type": "Polygon", "coordinates": [ [ [ 13.5260235, 41.481239 ], [ 13.4945501, 41.504936 ], [ 13.486743, 41.505742 ], [ 13.4772253, 41.5055267 ], [ 13.4556746, 41.488005199999975 ], [ 13.4398208, 41.4800464 ], [ 13.4389896, 41.474442499999988 ], [ 13.445362, 41.4649605 ], [ 13.451813, 41.460210099999983 ], [ 13.4576663, 41.448891 ], [ 13.4775221, 41.443691699999988 ], [ 13.4889518, 41.4347043 ], [ 13.4982235, 41.4362706 ], [ 13.512509, 41.432154 ], [ 13.5271683, 41.4534814 ], [ 13.5366553, 41.459662799999982 ], [ 13.5323231, 41.4641401 ], [ 13.528418, 41.476503 ], [ 13.5260235, 41.481239 ] ] ] } },
{ "type": "Feature", "properties": { "name": "Pastena", "feature_type": "circle", "metric_roundness": 69.03, "metric_rectangularity": 78.02, "metric_mobile_fit": 56.8, "metric_aspect_ratio": 0.994, "metric_area_km2": 73.67 }, "geometry": { "type": "Polygon", "coordinates": [ [ [ 13.541746444095033, 41.467368957956971 ], [ 13.54167467666278, 41.465315237792069 ], [ 13.541459571075572, 41.463267081947855 ], [ 13.541101716922871, 41.461230105076353 ], [ 13.540602095058031, 41.459209891711588 ], [ 13.539962074909861, 41.457211980948124 ], [ 13.539183410729091, 41.455241851238846 ], [ 13.538268236780125, 41.453304905353427 ], [ 13.537219061491143, 41.451406455539292 ], [ 13.536038760578682, 41.449551708925853 ], [ 13.5347305691655, 41.447745753212601 ], [ 13.533298072913333, 41.44599354268059 ], [ 13.531745198194837, 41.444299884566199 ], [ 13.530076201331671, 41.442669425834964 ], [ 13.528295656928233, 41.441106640392341 ], [ 13.526408445332965, 41.439615816767088 ], [ 13.524419739261671, 41.438201046301359 ], [ 13.522334989619457, 41.436866211880854 ], [ 13.520159910560192, 41.435614977236206 ], [ 13.517900463824381, 41.434450776845701 ], [ 13.515562842398475, 41.433376806467649 ], [ 13.513153453540321, 41.432396014328752 ], [ 13.510678901217304, 41.431511092993439 ], [ 13.508145968005332, 41.430724471936827 ], [ 13.505561596498282, 41.430038310842257 ], [ 13.502932870278816, 41.429454493642154 ], [ 13.50026699450278, 41.428974623319156 ], [ 13.497571276150374, 41.42860001748199 ], [ 13.494853103998228, 41.428331704728606 ], [ 13.492119928367266, 41.428170421806826 ], [ 13.48937924070192, 41.428116611580485 ], [ 13.486638553036574, 41.428170421806826 ], [ 13.483905377405614, 41.428331704728606 ], [ 13.481187205253466, 41.42860001748199 ], [ 13.47849148690106, 41.428974623319156 ], [ 13.475825611125025, 41.429454493642154 ], [ 13.47319688490556, 41.430038310842257 ], [ 13.47061251339851, 41.430724471936827 ], [ 13.468079580186538, 41.431511092993439 ], [ 13.465605027863521, 41.432396014328752 ], [ 13.463195639005367, 41.433376806467649 ], [ 13.46085801757946, 41.434450776845701 ], [ 13.45859857084365, 41.435614977236206 ], [ 13.456423491784383, 41.436866211880854 ], [ 13.454338742142172, 41.438201046301359 ], [ 13.452350036070877, 41.439615816767088 ], [ 13.450462824475608, 41.441106640392341 ], [ 13.44868228007217, 41.442669425834964 ], [ 13.447013283209005, 41.444299884566199 ], [ 13.445460408490508, 41.44599354268059 ], [ 13.444027912238342, 41.447745753212601 ], [ 13.44271972082516, 41.449551708925853 ], [ 13.441539419912699, 41.451406455539292 ], [ 13.440490244623716, 41.453304905353427 ], [ 13.439575070674749, 41.455241851238846 ], [ 13.438796406493982, 41.457211980948124 ], [ 13.438156386345812, 41.459209891711588 ], [ 13.437656764480971, 41.461230105076353 ], [ 13.43729891032827, 41.463267081947855 ], [ 13.437083804741061, 41.465315237792069 ], [ 13.43701203730881, 41.467368957956971 ], [ 13.437083804741061, 41.469422613070556 ], [ 13.43729891032827, 41.471470574473521 ], [ 13.437656764480971, 41.473507229644163 ], [ 13.438156386345812, 41.475526997573105 ], [ 13.438796406493982, 41.477524344046067 ], [ 13.439575070674749, 41.479493796792653 ], [ 13.440490244623716, 41.481429960460119 ], [ 13.441539419912699, 41.483327531371231 ], [ 13.44271972082516, 41.485181312025972 ], [ 13.444027912238342, 41.486986225308144 ], [ 13.445460408490508, 41.488737328357772 ], [ 13.447013283209005, 41.49042982607228 ], [ 13.44868228007217, 41.492059084199738 ], [ 13.450462824475608, 41.493620641988734 ], [ 13.452350036070877, 41.49511022436095 ], [ 13.454338742142172, 41.496523753573662 ], [ 13.456423491784383, 41.49785736034061 ], [ 13.45859857084365, 41.499107394381575 ], [ 13.46085801757946, 41.500270434372332 ], [ 13.463195639005367, 41.501343297268164 ], [ 13.465605027863521, 41.502323046976173 ], [ 13.468079580186538, 41.503207002352994 ], [ 13.47061251339851, 41.503992744506775 ], [ 13.47319688490556, 41.504678123383613 ], [ 13.475825611125025, 41.505261263621207 ], [ 13.47849148690106, 41.505740569653867 ], [ 13.481187205253466, 41.506114730055344 ], [ 13.483905377405614, 41.506382721107975 ], [ 13.486638553036574, 41.506543809588564 ], [ 13.48937924070192, 41.506597554763609 ], [ 13.492119928367266, 41.506543809588564 ], [ 13.494853103998228, 41.506382721107975 ], [ 13.497571276150374, 41.506114730055344 ], [ 13.50026699450278, 41.505740569653867 ], [ 13.502932870278816, 41.505261263621207 ], [ 13.505561596498282, 41.504678123383613 ], [ 13.508145968005332, 41.503992744506775 ], [ 13.510678901217304, 41.503207002352994 ], [ 13.513153453540321, 41.502323046976173 ], [ 13.515562842398475, 41.501343297268164 ], [ 13.517900463824381, 41.500270434372332 ], [ 13.520159910560192, 41.499107394381575 ], [ 13.522334989619457, 41.49785736034061 ], [ 13.524419739261671, 41.496523753573662 ], [ 13.526408445332965, 41.49511022436095 ], [ 13.528295656928233, 41.493620641988734 ], [ 13.530076201331671, 41.492059084199738 ], [ 13.531745198194837, 41.49042982607228 ], [ 13.533298072913333, 41.488737328357772 ], [ 13.5347305691655, 41.486986225308144 ], [ 13.536038760578682, 41.485181312025972 ], [ 13.537219061491143, 41.483327531371231 ], [ 13.538268236780125, 41.481429960460119 ], [ 13.539183410729091, 41.479493796792653 ], [ 13.539962074909861, 41.477524344046067 ], [ 13.540602095058031, 41.475526997573105 ], [ 13.541101716922871, 41.473507229644163 ], [ 13.541459571075572, 41.471470574473521 ], [ 13.54167467666278, 41.469422613070556 ], [ 13.541746444095033, 41.467368957956971 ] ] ] } },
{ "type": "Feature", "properties": { "name": "Pastena", "feature_type": "mrr", "metric_roundness": 69.03, "metric_rectangularity": 78.02, "metric_mobile_fit": 56.8, "metric_aspect_ratio": 0.994, "metric_area_km2": 73.67 }, "geometry": { "type": "Polygon", "coordinates": [ [ [ 13.483941089573698, 41.512921783740879 ], [ 13.552047841495577, 41.461638151267721 ], [ 13.496108913881846, 41.419920508750032 ], [ 13.428002161959963, 41.471237135568138 ], [ 13.483941089573698, 41.512921783740879 ] ] ] } }
]
}
