{
"type": "FeatureCollection",
"name": "pavlov",
"crs": { "type": "name", "properties": { "name": "urn:ogc:def:crs:OGC:1.3:CRS84" } },
"features": [
{ "type": "Feature", "properties": { "name": "Pavlov", "metric_roundness": 45.48, "metric_rectangularity": 71.32, "metric_mobile_fit": -12.66, "metric_aspect_ratio": 1.689, "metric_area_km2": 29.82 }, "geometry": { "type": "Polygon", "coordinates": [ [ [ 16.703089, 48.8667309 ], [ 16.7110422, 48.8641492 ], [ 16.723119, 48.865497499999989 ], [ 16.7200223, 48.877429599999985 ], [ 16.7136683, 48.881493199999987 ], [ 16.7039051, 48.881375399999989 ], [ 16.698194, 48.888012 ], [ 16.6871752, 48.8876141 ], [ 16.674065, 48.881817 ], [ 16.6708838, 48.8770078 ], [ 16.6546701, 48.8801158 ], [ 16.64924, 48.876242 ], [ 16.641202, 48.869106 ], [ 16.6475164, 48.8604826 ], [ 16.676478, 48.8561125 ], [ 16.703089, 48.8667309 ] ] ] } }
]
}
