{
"type": "FeatureCollection",
"name": "flaurling",
"crs": { "type": "name", "properties": { "name": "urn:ogc:def:crs:OGC:1.3:CRS84" } },
"features": [
{ "type": "Feature", "properties": { "name": "Flaurling", "metric_roundness": 30.08, "metric_rectangularity": 40.49, "metric_mobile_fit": 81.51, "metric_aspect_ratio": 0.747, "metric_area_km2": 42.58 }, "geometry": { "type": "Polygon", "coordinates": [ [ [ 11.129006629732828, 47.298391081457567 ], [ 11.130699062010242, 47.297112073750213 ], [ 11.131074670079688, 47.296896806634336 ], [ 11.131252644486635, 47.296794833907214 ], [ 11.131298461646876, 47.296768533589386 ], [ 11.131303340957619, 47.296765747272332 ], [ 11.131330180904413, 47.296750332584658 ], [ 11.131732597726263, 47.29658697731076 ], [ 11.133137670144297, 47.296016643003057 ], [ 11.13344835693697, 47.295892110191993 ], [ 11.133631754549945, 47.295818592223178 ], [ 11.133836492535794, 47.29574413478143 ], [ 11.134274722205721, 47.295584610973336 ], [ 11.135461151527183, 47.295138756234948 ], [ 11.135990001332322, 47.294928312849422 ], [ 11.136680281868534, 47.294580463247222 ], [ 11.137276583572767, 47.294309833183299 ], [ 11.137290843381018, 47.294304166587779 ], [ 11.137806037763411, 47.294100383423448 ], [ 11.138485326731669, 47.293847814858111 ], [ 11.138947106956577, 47.293649300976966 ], [ 11.139223968237141, 47.293523022845172 ], [ 11.139436100362948, 47.293426194708076 ], [ 11.139611165066471, 47.293339455608425 ], [ 11.139944134238473, 47.293174558244601 ], [ 11.140055981895932, 47.293119098657733 ], [ 11.140686131691764, 47.292793924075831 ], [ 11.14124107350689, 47.292517889303589 ], [ 11.141771414346637, 47.292298987523438 ], [ 11.141794165489047, 47.292289522809696 ], [ 11.142033408256356, 47.292195910646186 ], [ 11.144441402992912, 47.291253309777588 ], [ 11.144281227612632, 47.291102259823518 ], [ 11.14404694832991, 47.290881379892376 ], [ 11.144021540032037, 47.290846418197923 ], [ 11.144000387887266, 47.290817298860617 ], [ 11.142608933617165, 47.289025388104143 ], [ 11.142689514937841, 47.288945203076118 ], [ 11.143428906478558, 47.288657484837344 ], [ 11.14340661066368, 47.288394132188891 ], [ 11.143386976605514, 47.288162334775095 ], [ 11.143294184851309, 47.288083864935231 ], [ 11.143189169650324, 47.287920459261713 ], [ 11.14304708422625, 47.287690723664731 ], [ 11.142899407571674, 47.287455479885381 ], [ 11.142855176682836, 47.287395943566921 ], [ 11.14265145414625, 47.287121369161234 ], [ 11.142568233632707, 47.287019499133379 ], [ 11.142425871588083, 47.286847635086446 ], [ 11.142071152535534, 47.286421372314337 ], [ 11.141962786071772, 47.286291115491416 ], [ 11.141756257954025, 47.286042948994989 ], [ 11.141656331451196, 47.285922935189461 ], [ 11.141611266546573, 47.285909108461311 ], [ 11.141574560455762, 47.28589787248729 ], [ 11.141554975794378, 47.285862931919077 ], [ 11.141617739587343, 47.285845504148121 ], [ 11.141783405407137, 47.285799717313544 ], [ 11.141813382578242, 47.28579138146479 ], [ 11.141729715499364, 47.285751430485483 ], [ 11.141241740888606, 47.285007564720239 ], [ 11.141098011257016, 47.285104988788248 ], [ 11.140469868833366, 47.285530746208565 ], [ 11.140367108419984, 47.285600332335981 ], [ 11.140326117703436, 47.285628619001912 ], [ 11.1402331050858, 47.285692811476586 ], [ 11.139888264353679, 47.285931380820251 ], [ 11.139840253075384, 47.28591524648224 ], [ 11.139833597769007, 47.285913048354367 ], [ 11.139702746264014, 47.285868949003017 ], [ 11.139320175434785, 47.285607674396516 ], [ 11.139146510491621, 47.285492362209787 ], [ 11.138983136811749, 47.285384088443436 ], [ 11.138887875073872, 47.285320779372192 ], [ 11.138722264350623, 47.285199500461914 ], [ 11.138555225823172, 47.285068022472331 ], [ 11.138464512957283, 47.284990758557953 ], [ 11.138268512836595, 47.284824068704886 ], [ 11.138058030763002, 47.284639817712929 ], [ 11.137925662802708, 47.284524037345022 ], [ 11.137755704147455, 47.284389711571869 ], [ 11.137733648356667, 47.284369754809127 ], [ 11.137565954040099, 47.284321073911507 ], [ 11.137468842530948, 47.284292832781688 ], [ 11.137254657112489, 47.284385746707862 ], [ 11.137015708383364, 47.284485654936987 ], [ 11.136815191743565, 47.284501060396018 ], [ 11.13678480399895, 47.28450335621514 ], [ 11.136764245380242, 47.284495129654807 ], [ 11.136652345852987, 47.284450311124004 ], [ 11.136625199871807, 47.284533770318724 ], [ 11.136623212526938, 47.284540212968004 ], [ 11.136600321433594, 47.284604041329693 ], [ 11.136586092415694, 47.284838249530416 ], [ 11.136579595554522, 47.284921385882178 ], [ 11.136579347528109, 47.284924171490601 ], [ 11.136566975483721, 47.285078664545928 ], [ 11.136600527907357, 47.28527400657466 ], [ 11.136602133122166, 47.28528312869495 ], [ 11.13658950617449, 47.285485143315469 ], [ 11.136455918858211, 47.285662957773212 ], [ 11.136306657407481, 47.28580410554941 ], [ 11.136065325778963, 47.285967514746204 ], [ 11.136007369742236, 47.285990162720978 ], [ 11.135946321199857, 47.286014011326763 ], [ 11.135837938018462, 47.286056391607083 ], [ 11.135810513617006, 47.286066935331334 ], [ 11.135785641735231, 47.286076538038579 ], [ 11.135694761821057, 47.286108363558348 ], [ 11.135663749826499, 47.286119288262043 ], [ 11.135463260308267, 47.286197520570404 ], [ 11.135392636061207, 47.286108039124038 ], [ 11.134826668072174, 47.285390366783929 ], [ 11.134589268182543, 47.284994782068217 ], [ 11.134389464578369, 47.284662209355922 ], [ 11.133972628862562, 47.28429692205507 ], [ 11.133937217488509, 47.284267345989477 ], [ 11.13429378771861, 47.284103370367276 ], [ 11.134480963785037, 47.283998420200895 ], [ 11.134529492574632, 47.283900251154172 ], [ 11.134610935847, 47.283735836746146 ], [ 11.134645993133336, 47.283522642506135 ], [ 11.134363594686089, 47.283255088219391 ], [ 11.134294488688216, 47.283189668492874 ], [ 11.134223688450113, 47.283079119897714 ], [ 11.134165686616342, 47.282988440454517 ], [ 11.134310226225152, 47.282925785324828 ], [ 11.134401453120079, 47.282875965196816 ], [ 11.134519478120167, 47.282811538997883 ], [ 11.134733649415542, 47.282706208240981 ], [ 11.134776957478516, 47.282663566206374 ], [ 11.134828528560881, 47.2826130721635 ], [ 11.134891831428558, 47.282550832348598 ], [ 11.135028488081423, 47.282544102249446 ], [ 11.135084689145108, 47.282541313765613 ], [ 11.135132090668284, 47.28226021772484 ], [ 11.135106803562753, 47.282238487968371 ], [ 11.135055341622023, 47.282194111222211 ], [ 11.13464338598755, 47.28181361784452 ], [ 11.134412545938492, 47.281594672850844 ], [ 11.134358616409202, 47.281552408537564 ], [ 11.134334150396219, 47.281533214755989 ], [ 11.134270486726651, 47.281483291892926 ], [ 11.134226781671526, 47.28145598646914 ], [ 11.134188357119614, 47.281432113194299 ], [ 11.13405594311654, 47.281349631677401 ], [ 11.133819229086129, 47.281202042078299 ], [ 11.13370589798383, 47.281131449338723 ], [ 11.133604901742606, 47.281015547855574 ], [ 11.133509840847662, 47.280906421549219 ], [ 11.133593035854105, 47.280734840601419 ], [ 11.133624760371911, 47.280579550341642 ], [ 11.13340727296141, 47.280055808291422 ], [ 11.133407440169007, 47.280048610520126 ], [ 11.13340972088076, 47.279898423744875 ], [ 11.133410556074038, 47.279840201804497 ], [ 11.13333738866085, 47.279643645024649 ], [ 11.133277865641013, 47.279570578118197 ], [ 11.133252951078635, 47.27953994385431 ], [ 11.13322022792363, 47.279499887830525 ], [ 11.133221666192091, 47.279468501209713 ], [ 11.133224889590009, 47.27939421306133 ], [ 11.13323534306488, 47.279155701544674 ], [ 11.133444838853121, 47.27899078508942 ], [ 11.133457681300714, 47.27897140983594 ], [ 11.133490283620443, 47.278922171145624 ], [ 11.133529252957617, 47.278894748119598 ], [ 11.133519098616523, 47.278763674404225 ], [ 11.133518571323528, 47.278757273362302 ], [ 11.133467750727565, 47.278668982086963 ], [ 11.133456271791218, 47.278649228208238 ], [ 11.133397021126822, 47.278665008852784 ], [ 11.133342720492401, 47.278539565336366 ], [ 11.13333864497725, 47.278526254975255 ], [ 11.133312884113733, 47.278442857118677 ], [ 11.133315303743164, 47.278400597901118 ], [ 11.133316342695341, 47.278381985347913 ], [ 11.133319122751766, 47.278334242317051 ], [ 11.133298480401688, 47.278296309353763 ], [ 11.133292671675585, 47.278292866958772 ], [ 11.133244260664432, 47.278264300242839 ], [ 11.133205529647752, 47.278241500819441 ], [ 11.133176887081438, 47.278135184229853 ], [ 11.133141026376535, 47.278002084841958 ], [ 11.133141552716342, 47.277833681703207 ], [ 11.133058642804526, 47.277696525116227 ], [ 11.133071665447831, 47.277542494756084 ], [ 11.133073533671965, 47.277519847623857 ], [ 11.133071672471054, 47.277510540471802 ], [ 11.133033827563164, 47.277329786200319 ], [ 11.1328820689582, 47.277181671194498 ], [ 11.132961092178727, 47.277011720541793 ], [ 11.132969807531213, 47.276992985900868 ], [ 11.132972561777541, 47.276987188174893 ], [ 11.132982865012485, 47.276892153572433 ], [ 11.132991832594227, 47.276810145032876 ], [ 11.132873836925805, 47.276511819806657 ], [ 11.132857204019128, 47.27646973343041 ], [ 11.132781375181318, 47.276442168215752 ], [ 11.132688477419212, 47.276408423116777 ], [ 11.13242086076624, 47.276311181417768 ], [ 11.131835300035478, 47.27605487713631 ], [ 11.131829765462482, 47.276035327707909 ], [ 11.131773505025206, 47.275836395287669 ], [ 11.131701755328669, 47.275742658781112 ], [ 11.131600651191702, 47.275610640854907 ], [ 11.131585726406636, 47.275591090336448 ], [ 11.131473632394222, 47.275583257635695 ], [ 11.131416397897365, 47.275579273333733 ], [ 11.131074184218186, 47.275555299922885 ], [ 11.130885465125015, 47.275456516006436 ], [ 11.13034185589955, 47.275085706961818 ], [ 11.130302670711123, 47.27500087905608 ], [ 11.130206743880978, 47.274808201215862 ], [ 11.1302989473187, 47.274702955622672 ], [ 11.129757527647989, 47.274292580252336 ], [ 11.129612912055608, 47.274182943753239 ], [ 11.12873753712552, 47.273566918186745 ], [ 11.128302576184442, 47.273173083323684 ], [ 11.128222911446956, 47.273066409734163 ], [ 11.127987680985395, 47.272751321982255 ], [ 11.127803309528977, 47.272504275749263 ], [ 11.127517180286562, 47.271627694521207 ], [ 11.127355334420475, 47.270973955255201 ], [ 11.127307862276773, 47.270701199491839 ], [ 11.127220273631437, 47.270198135986639 ], [ 11.127049040345666, 47.269813982732558 ], [ 11.126911059037587, 47.26950455237705 ], [ 11.126854948281871, 47.269378710137076 ], [ 11.12680330281048, 47.269263125617236 ], [ 11.126099520902354, 47.26813471104046 ], [ 11.125859808725682, 47.267750401598342 ], [ 11.125817813303517, 47.267669838110606 ], [ 11.125513069919212, 47.267085341861296 ], [ 11.125161464771045, 47.265339852867413 ], [ 11.125156728639165, 47.265329769817818 ], [ 11.124894115483363, 47.264759678375427 ], [ 11.124828783247663, 47.264398902971834 ], [ 11.12470830627748, 47.264263082692132 ], [ 11.124608665084958, 47.264150798779582 ], [ 11.124271989777256, 47.263771269805922 ], [ 11.123909279015107, 47.263119306821316 ], [ 11.123491794648885, 47.262376539094859 ], [ 11.122945213666426, 47.261404166794442 ], [ 11.122633594091502, 47.260849772350092 ], [ 11.122426442987575, 47.260481837263022 ], [ 11.12220107665186, 47.260081594225142 ], [ 11.122108268430029, 47.259916872633291 ], [ 11.122918952943163, 47.259634273814939 ], [ 11.12294820075248, 47.259624128740413 ], [ 11.123178406791622, 47.259576379562709 ], [ 11.123669349368098, 47.259474809999361 ], [ 11.124726593071998, 47.259255840549436 ], [ 11.125619514615027, 47.258947360522583 ], [ 11.125907673106214, 47.258847799428942 ], [ 11.125940003495261, 47.258836633075497 ], [ 11.126073039783195, 47.25881067207844 ], [ 11.12650241463057, 47.258726712474477 ], [ 11.126783494745048, 47.258619271245308 ], [ 11.127210590950765, 47.258085830962237 ], [ 11.128353963723889, 47.257315725091992 ], [ 11.128640586632025, 47.25712260440276 ], [ 11.128679221983056, 47.257096526971885 ], [ 11.128540856900925, 47.256311552738602 ], [ 11.128484844996992, 47.255993265484904 ], [ 11.128477578901567, 47.255951899238248 ], [ 11.128435029930211, 47.255710292915978 ], [ 11.128511303277854, 47.255104720226683 ], [ 11.128538560065461, 47.254888496004206 ], [ 11.128726493613497, 47.254169954079927 ], [ 11.128835582192529, 47.254045773549635 ], [ 11.130810829994765, 47.251798400786591 ], [ 11.130951825378208, 47.251637929013505 ], [ 11.13105496772687, 47.251538835338231 ], [ 11.131624941173099, 47.250990945073163 ], [ 11.131703708966763, 47.250915233924346 ], [ 11.131956344960509, 47.25028920879241 ], [ 11.132187026144546, 47.249717307380763 ], [ 11.131545045268986, 47.249137121093113 ], [ 11.131011627834397, 47.24865488994093 ], [ 11.130391838961042, 47.248094747730818 ], [ 11.130245463700437, 47.247962393185347 ], [ 11.130107034065912, 47.247305957200446 ], [ 11.129993237508563, 47.24676593314971 ], [ 11.129300702724823, 47.245665022409987 ], [ 11.129298222272054, 47.2456611039417 ], [ 11.128652480057744, 47.245157247875213 ], [ 11.128731210732537, 47.244850745061278 ], [ 11.128777629811909, 47.244669365883396 ], [ 11.128856683143104, 47.244361429024849 ], [ 11.129260408997377, 47.244001796332299 ], [ 11.129383543592944, 47.243892108960971 ], [ 11.129381731078057, 47.24388802336918 ], [ 11.129379801475586, 47.243883575464046 ], [ 11.129305026819646, 47.243711286568789 ], [ 11.12891720456968, 47.242816806964321 ], [ 11.128630086485574, 47.242154524839371 ], [ 11.128582570889096, 47.242045051047093 ], [ 11.128246980389129, 47.241271115099586 ], [ 11.128271664083615, 47.240929363002543 ], [ 11.128343900553409, 47.239925404645611 ], [ 11.128398592350733, 47.239761107920323 ], [ 11.128572166069796, 47.239240047098527 ], [ 11.128598303037448, 47.239161520853074 ], [ 11.128590591367615, 47.239045255124786 ], [ 11.12856465764953, 47.238646266626063 ], [ 11.128578737510653, 47.23840350377764 ], [ 11.128583348326318, 47.23832456151812 ], [ 11.128578306673225, 47.238321853706985 ], [ 11.128441038671006, 47.238247640464657 ], [ 11.128274691108967, 47.238157652787784 ], [ 11.127705847237531, 47.237850153501441 ], [ 11.127409304194519, 47.237500570128269 ], [ 11.12735828799501, 47.237440355080395 ], [ 11.127354415041554, 47.237419127134153 ], [ 11.127261492159693, 47.236912177260457 ], [ 11.127096307584226, 47.236011463011707 ], [ 11.126513160207645, 47.233838790209994 ], [ 11.12628884983776, 47.233003269858209 ], [ 11.126195097011484, 47.23273528721667 ], [ 11.12562983692305, 47.231120765176207 ], [ 11.125212243046276, 47.229350405027517 ], [ 11.125136677574186, 47.22903002558526 ], [ 11.123629940429312, 47.226530703352125 ], [ 11.122419125217311, 47.226003524560888 ], [ 11.122255221056706, 47.225932117158443 ], [ 11.120341720768884, 47.225098927783009 ], [ 11.12017521296846, 47.224887676047501 ], [ 11.120125148457829, 47.22482414527429 ], [ 11.120086877675723, 47.224775605529508 ], [ 11.119959371921945, 47.224563850101944 ], [ 11.119358186307586, 47.223565274825859 ], [ 11.11918067299438, 47.223389903160161 ], [ 11.119108981417735, 47.223319110992293 ], [ 11.119054417166366, 47.223161068282273 ], [ 11.119010927501394, 47.223035195312512 ], [ 11.118625696625058, 47.220548655742263 ], [ 11.114084969853923, 47.220443461734646 ], [ 11.113976472893526, 47.220440900276692 ], [ 11.113706416781834, 47.220434564275173 ], [ 11.111350487541193, 47.220379324535671 ], [ 11.111329481947475, 47.220385576273969 ], [ 11.111103263222395, 47.220452279185089 ], [ 11.110713833753929, 47.220567108689039 ], [ 11.109327202934551, 47.220976012099605 ], [ 11.10585591510416, 47.221999591854122 ], [ 11.105477967850456, 47.222111027619199 ], [ 11.105238490418202, 47.222181600806032 ], [ 11.103427735317826, 47.223347265499918 ], [ 11.102735761489321, 47.223792714701474 ], [ 11.102101908476484, 47.224200681003396 ], [ 11.101947562503298, 47.224282544479863 ], [ 11.101899311600935, 47.224308154556589 ], [ 11.101868904849383, 47.224324212213155 ], [ 11.10055532239045, 47.225020865810222 ], [ 11.100277846852759, 47.225167917065001 ], [ 11.099746402668872, 47.225449696002713 ], [ 11.099688010787151, 47.225443151609433 ], [ 11.097709078210855, 47.225219669395322 ], [ 11.09767462907676, 47.225225025068141 ], [ 11.097650557705521, 47.225228693863663 ], [ 11.097112954954483, 47.225311859010382 ], [ 11.095604681104911, 47.225545117599111 ], [ 11.094217733414908, 47.225730600563523 ], [ 11.094031554109408, 47.225755569806871 ], [ 11.091881149587886, 47.225846459828539 ], [ 11.089997807280479, 47.225955524730729 ], [ 11.089409014382271, 47.225989579401229 ], [ 11.089120642040243, 47.22600631907342 ], [ 11.088906188524376, 47.226018661740284 ], [ 11.086845988575625, 47.226327987048826 ], [ 11.086331885698685, 47.226454501686518 ], [ 11.086026628894368, 47.226529590387003 ], [ 11.085483322658938, 47.226702693439783 ], [ 11.085467514095226, 47.226707782743723 ], [ 11.082766583978058, 47.226766947181069 ], [ 11.082769286393463, 47.226927136417231 ], [ 11.08276943788904, 47.226939111343626 ], [ 11.082209569653235, 47.227032119364353 ], [ 11.081905080260201, 47.227082728389554 ], [ 11.081888492625573, 47.227103014293753 ], [ 11.081596474313905, 47.2274599183284 ], [ 11.081578116412608, 47.227469007431864 ], [ 11.081310950257054, 47.227601995027698 ], [ 11.081181257587046, 47.22774318753283 ], [ 11.081055169273153, 47.227880400419757 ], [ 11.080898597959479, 47.228050766678152 ], [ 11.080684096536652, 47.228178851946865 ], [ 11.080535597237207, 47.228414097682752 ], [ 11.079898423128668, 47.228407361836481 ], [ 11.079459374582203, 47.228402737415536 ], [ 11.07877121322009, 47.22839552779763 ], [ 11.078406878838459, 47.228622273695287 ], [ 11.078074171315929, 47.228829300516438 ], [ 11.077964737877339, 47.229018867996267 ], [ 11.077955605469519, 47.229034710033247 ], [ 11.077475033184129, 47.229250783224856 ], [ 11.076957414943594, 47.229483314432244 ], [ 11.076580385089249, 47.229570460797028 ], [ 11.076108996039766, 47.22967941252459 ], [ 11.075632669846941, 47.229789434808986 ], [ 11.073827172454276, 47.230206547503144 ], [ 11.072967274932029, 47.230528506115711 ], [ 11.072935444244026, 47.230540477406649 ], [ 11.072740176980579, 47.230613570307739 ], [ 11.071269817164428, 47.229968897899859 ], [ 11.071266702118278, 47.229967575913236 ], [ 11.069288287531766, 47.230533493518323 ], [ 11.067991957553664, 47.23262841899443 ], [ 11.067705984264467, 47.232927620156971 ], [ 11.067252876994006, 47.233401640246036 ], [ 11.066447730084835, 47.233445952474447 ], [ 11.065470900887199, 47.233666245943539 ], [ 11.064759497304124, 47.23382654924886 ], [ 11.064298565384449, 47.233930530470019 ], [ 11.064065533872739, 47.234177937224267 ], [ 11.064008667645112, 47.234212721973933 ], [ 11.063939185476578, 47.234255087023847 ], [ 11.062911990510065, 47.23488167569387 ], [ 11.062493446678822, 47.235137088925249 ], [ 11.061976647032209, 47.23545229474135 ], [ 11.061350304029228, 47.236290195321253 ], [ 11.060853963997017, 47.237214936859552 ], [ 11.060095524140023, 47.237641080431501 ], [ 11.059446103055649, 47.238780962873491 ], [ 11.059279986028299, 47.239072631636596 ], [ 11.059249390951639, 47.239126390972608 ], [ 11.059218310824653, 47.2391453047277 ], [ 11.058431164557083, 47.239626405159491 ], [ 11.056841142929789, 47.241195880087467 ], [ 11.056920796916373, 47.24141206601896 ], [ 11.056926112947631, 47.24142675457378 ], [ 11.056615053944901, 47.241848660311113 ], [ 11.056492508544125, 47.242014903439788 ], [ 11.056488714438123, 47.242020138624568 ], [ 11.056462905290845, 47.24215608677914 ], [ 11.056416887169325, 47.242399199920406 ], [ 11.056430087719244, 47.242860341821519 ], [ 11.056442476796263, 47.243297343397003 ], [ 11.056452374367222, 47.243647880526453 ], [ 11.056172818749792, 47.244341720170553 ], [ 11.055937053060552, 47.244927064709188 ], [ 11.055620337441336, 47.245713057256467 ], [ 11.055668182877771, 47.245793045853645 ], [ 11.056127271786565, 47.24656085863927 ], [ 11.056267762824969, 47.246539988531858 ], [ 11.056357036541929, 47.24652664759526 ], [ 11.056524537824394, 47.246461758637722 ], [ 11.056677115052862, 47.246402692690339 ], [ 11.058869112552346, 47.245553369412555 ], [ 11.064899900793321, 47.244014816312159 ], [ 11.065205011745039, 47.243936988308718 ], [ 11.065331306606923, 47.243904753180367 ], [ 11.068116112007667, 47.243223035725393 ], [ 11.070022833440007, 47.242756253817753 ], [ 11.07080350418274, 47.242684783863069 ], [ 11.072605822887118, 47.242519688988288 ], [ 11.07313356391102, 47.24247136561587 ], [ 11.073370429679136, 47.24244968358478 ], [ 11.073583940024946, 47.242430148894414 ], [ 11.073885668088421, 47.242270047643693 ], [ 11.074463551584405, 47.241963558853087 ], [ 11.074869767935143, 47.241640706942214 ], [ 11.074943923183618, 47.241581775031072 ], [ 11.075118231401101, 47.241443182203575 ], [ 11.077159224505957, 47.240530488236018 ], [ 11.077166884626877, 47.240524428715048 ], [ 11.077259671176712, 47.240450021255278 ], [ 11.077586233887672, 47.240035480320707 ], [ 11.078257211547589, 47.239317466768 ], [ 11.079044886907552, 47.238655044290645 ], [ 11.079209519203104, 47.238516614433536 ], [ 11.079585152604242, 47.238351928139082 ], [ 11.080876860212918, 47.238338913453603 ], [ 11.080979598975929, 47.238337881447357 ], [ 11.08099983055595, 47.238337650789752 ], [ 11.081068984624887, 47.238336945778357 ], [ 11.081233501506036, 47.23822902576515 ], [ 11.08132799505997, 47.238167070875818 ], [ 11.081484214296873, 47.238064657632862 ], [ 11.081675245916601, 47.237939257493238 ], [ 11.08185435454387, 47.237749261364876 ], [ 11.081980873898775, 47.237614846252278 ], [ 11.08207448902232, 47.237427483245035 ], [ 11.082653523301587, 47.23679944578366 ], [ 11.082778032512755, 47.23672773029557 ], [ 11.083191843365903, 47.236768028580627 ], [ 11.083636984217446, 47.236811283589425 ], [ 11.083686161732528, 47.236810993203456 ], [ 11.083995911423019, 47.236693871433474 ], [ 11.087220804806888, 47.236884783986312 ], [ 11.087623158327203, 47.236908637940324 ], [ 11.087731798495387, 47.236877471275299 ], [ 11.088261612701553, 47.236725603653177 ], [ 11.088983683131431, 47.2365185569126 ], [ 11.089400245903427, 47.236512709443581 ], [ 11.089560212238423, 47.236614421560219 ], [ 11.089595860562353, 47.236637086201839 ], [ 11.090142444522703, 47.236984218703718 ], [ 11.091666897387407, 47.237316452674875 ], [ 11.092026768522347, 47.237394814907688 ], [ 11.0926336040156, 47.237727276238992 ], [ 11.092756447770352, 47.237794499211446 ], [ 11.092816159476921, 47.237835728259491 ], [ 11.093173805651375, 47.238082279468088 ], [ 11.093277341462974, 47.238156053787478 ], [ 11.093537644670752, 47.238444889244448 ], [ 11.093707819058254, 47.238558677536503 ], [ 11.094083130993114, 47.238809623144547 ], [ 11.094236222071384, 47.239102293311433 ], [ 11.094842430616721, 47.239778403541976 ], [ 11.094941136533109, 47.239922742487934 ], [ 11.095078683888085, 47.240123742107464 ], [ 11.095195109261534, 47.240249165441305 ], [ 11.095653110286801, 47.240742425138485 ], [ 11.095892470096018, 47.241227074399561 ], [ 11.096522507621145, 47.241903371953924 ], [ 11.096688641532358, 47.242081886261836 ], [ 11.097790158666106, 47.243027738663613 ], [ 11.097911259825178, 47.243349390895006 ], [ 11.097973643371434, 47.2435153386471 ], [ 11.097984815535153, 47.24354499209003 ], [ 11.09809110924394, 47.243641499202177 ], [ 11.098445639461914, 47.243963313085516 ], [ 11.099854341596869, 47.24450712798096 ], [ 11.100907925115866, 47.24547937383295 ], [ 11.101003984483036, 47.245568026613036 ], [ 11.101163241915023, 47.24563757260664 ], [ 11.102143691484388, 47.246066312420723 ], [ 11.102201760389507, 47.246103003385528 ], [ 11.102236782887532, 47.246125111505485 ], [ 11.102797083517011, 47.246643383818849 ], [ 11.102819981872534, 47.246664624632743 ], [ 11.102948607725253, 47.246783616826427 ], [ 11.103065968592089, 47.246850000684596 ], [ 11.103302585159533, 47.246906473427607 ], [ 11.103775431149479, 47.247019229818775 ], [ 11.103961751127892, 47.247127466355181 ], [ 11.104387299957095, 47.247374586552276 ], [ 11.104447431679736, 47.247481617283093 ], [ 11.104455305161867, 47.247495543177905 ], [ 11.104792755322924, 47.248095684580022 ], [ 11.104282130563169, 47.249848807903149 ], [ 11.104263272280237, 47.249913609389893 ], [ 11.104270887730037, 47.250002691646749 ], [ 11.104280917012119, 47.250122335683436 ], [ 11.104508323464554, 47.250595478847295 ], [ 11.104528009208151, 47.25063654952632 ], [ 11.104506544386448, 47.250716152385792 ], [ 11.104203218136821, 47.251141212535657 ], [ 11.104175540169649, 47.251180007800151 ], [ 11.104175661690485, 47.251261832576695 ], [ 11.104210126871831, 47.251344328263706 ], [ 11.10427413446371, 47.251497521661669 ], [ 11.104475028658653, 47.251978788121491 ], [ 11.104549049876118, 47.252157920812444 ], [ 11.10447822338547, 47.25252424307687 ], [ 11.104376288165117, 47.25305153211113 ], [ 11.104317331147993, 47.253427897618913 ], [ 11.104300883971117, 47.253532712257382 ], [ 11.104201395543869, 47.254356373776659 ], [ 11.104126665658532, 47.254975197799943 ], [ 11.104063779090003, 47.255247070631036 ], [ 11.103968509199333, 47.255659902220749 ], [ 11.104064224344127, 47.25588590591547 ], [ 11.104141178085449, 47.256067706402561 ], [ 11.104226032901597, 47.256115360867923 ], [ 11.104515347752338, 47.25619923354396 ], [ 11.104716758320174, 47.256257625251351 ], [ 11.104797003434879, 47.256317431099895 ], [ 11.104784970667831, 47.256386506577847 ], [ 11.104769643540219, 47.256474150532249 ], [ 11.104624015716627, 47.257310323151067 ], [ 11.104631852926591, 47.257347111730432 ], [ 11.104703983915185, 47.257684270983475 ], [ 11.104501219324922, 47.257855567568058 ], [ 11.104096792345489, 47.258197011078053 ], [ 11.103884043394835, 47.258580003594254 ], [ 11.104847720896965, 47.259839842022103 ], [ 11.105044204267417, 47.260969657742443 ], [ 11.105089456172616, 47.261229420140154 ], [ 11.105213643250401, 47.261461019083455 ], [ 11.105640949826491, 47.262256348418404 ], [ 11.105940380027638, 47.262813615052508 ], [ 11.106271149524565, 47.263528025676045 ], [ 11.106466411485885, 47.263949858043802 ], [ 11.106744703179958, 47.264551086318626 ], [ 11.107066925052717, 47.265453365378789 ], [ 11.107345259965953, 47.266232999221437 ], [ 11.107654158903763, 47.267015568485377 ], [ 11.107336470353768, 47.268333200355784 ], [ 11.107398607405136, 47.269948531943214 ], [ 11.107412681695132, 47.270314800739065 ], [ 11.106581509778223, 47.271853751136014 ], [ 11.106476936708525, 47.27204758032989 ], [ 11.106413233736646, 47.272803440143385 ], [ 11.106544946408622, 47.273281100044002 ], [ 11.106483992595576, 47.273484871469108 ], [ 11.106433365521282, 47.273653829114629 ], [ 11.106526304009662, 47.273701818910808 ], [ 11.10660915106906, 47.273744481026135 ], [ 11.107142083877283, 47.274019154188508 ], [ 11.107229330302784, 47.274064151958065 ], [ 11.107249183238462, 47.274092083172306 ], [ 11.107301252471483, 47.274165289202244 ], [ 11.107333589593065, 47.274210836407441 ], [ 11.107500289412052, 47.274445151001203 ], [ 11.107573835913342, 47.274548570053021 ], [ 11.10776403663507, 47.275110720808641 ], [ 11.107696091347165, 47.275222992984432 ], [ 11.107496093477613, 47.275427744582423 ], [ 11.107432289861547, 47.275501301629262 ], [ 11.107378765057154, 47.27556317730545 ], [ 11.10706261490421, 47.276010409588487 ], [ 11.106965353656324, 47.276413662832987 ], [ 11.106900214462989, 47.277103154716428 ], [ 11.107192369610758, 47.277452252693948 ], [ 11.107452037366166, 47.277762550803033 ], [ 11.107518434268554, 47.27788824368082 ], [ 11.107785411923979, 47.278838857860393 ], [ 11.107888826041334, 47.278939888313879 ], [ 11.10879426574726, 47.279824991602197 ], [ 11.108903400226213, 47.279931623314724 ], [ 11.10890648969143, 47.279968228876513 ], [ 11.108834455986178, 47.280067550199682 ], [ 11.108597228187536, 47.280175984454594 ], [ 11.108253859607618, 47.280332937159791 ], [ 11.107904534125906, 47.28027311085927 ], [ 11.107824017742596, 47.280294224749746 ], [ 11.1077815637912, 47.280356946561383 ], [ 11.107776064904296, 47.28036503057784 ], [ 11.107782766469748, 47.280586053741324 ], [ 11.107792586940503, 47.280915243609563 ], [ 11.10779922462318, 47.281134645272701 ], [ 11.107879406574849, 47.281253495454983 ], [ 11.108045686830915, 47.281363222098918 ], [ 11.108142471574274, 47.281427037528481 ], [ 11.108528485735141, 47.28202657701673 ], [ 11.108761730609652, 47.282896418681723 ], [ 11.109348770475409, 47.283384114469044 ], [ 11.109371164553435, 47.283427216906844 ], [ 11.109551168038145, 47.283773853053042 ], [ 11.1099124747352, 47.283942552993004 ], [ 11.110596200395351, 47.284519167273864 ], [ 11.110853151667895, 47.285121946078192 ], [ 11.110875909748001, 47.285175316753964 ], [ 11.110941311566799, 47.285230687598833 ], [ 11.111606560699656, 47.285794333761316 ], [ 11.111846546903845, 47.285888295996052 ], [ 11.11301110044923, 47.285940831141382 ], [ 11.11304297407913, 47.285956753137697 ], [ 11.113108016736717, 47.285989252381611 ], [ 11.113347647105487, 47.286400500352094 ], [ 11.11332693863663, 47.287117321411202 ], [ 11.113228640811885, 47.287262401518809 ], [ 11.112803795038086, 47.287597810295473 ], [ 11.112684754319307, 47.287691809267123 ], [ 11.112670625096397, 47.287747882643686 ], [ 11.112639080691245, 47.287872117246316 ], [ 11.112660848945097, 47.287895583919273 ], [ 11.112666921701441, 47.287902182956302 ], [ 11.112709823764831, 47.287951624312363 ], [ 11.112929222235312, 47.28820531679753 ], [ 11.113298266134795, 47.288631772786758 ], [ 11.113618656259389, 47.288966278573483 ], [ 11.114275756762149, 47.289391759234597 ], [ 11.114442287352388, 47.289499590304331 ], [ 11.11474240301853, 47.289759528048457 ], [ 11.115002312774118, 47.289984569002392 ], [ 11.115110023196824, 47.290100707720583 ], [ 11.115263930044657, 47.29026671066962 ], [ 11.115508381913987, 47.29058281321354 ], [ 11.115770538306975, 47.290972079401172 ], [ 11.116024665668938, 47.291373070698334 ], [ 11.116265136788202, 47.291793779066204 ], [ 11.116533658136579, 47.292321786587543 ], [ 11.116556779959474, 47.292373002670232 ], [ 11.11675096573944, 47.292802892759518 ], [ 11.11693365252782, 47.293273605114493 ], [ 11.117144768953814, 47.293908872148386 ], [ 11.117173401575094, 47.293995930101026 ], [ 11.117346411934005, 47.294520911550052 ], [ 11.117435587417347, 47.294839666943133 ], [ 11.117692737085521, 47.295705898445604 ], [ 11.117699590768508, 47.295728624617382 ], [ 11.117969449358915, 47.296607523557832 ], [ 11.118049761531172, 47.29682223160966 ], [ 11.118066305574425, 47.296859997818082 ], [ 11.118119330518351, 47.296980743278873 ], [ 11.118255099646985, 47.297289779997563 ], [ 11.118421658184143, 47.297625067257833 ], [ 11.118545730476809, 47.297837563082446 ], [ 11.118811174179333, 47.298257128866737 ], [ 11.119120452779358, 47.298688525311732 ], [ 11.11954389609226, 47.299196484186638 ], [ 11.119860253531582, 47.299531792025782 ], [ 11.120070225607245, 47.299718676818223 ], [ 11.120098031097136, 47.299743519051731 ], [ 11.120113467678667, 47.299757230065282 ], [ 11.120227002004103, 47.299858263943449 ], [ 11.120527421249889, 47.300125661427188 ], [ 11.120720423515383, 47.300297634100957 ], [ 11.120746026720676, 47.300318202906404 ], [ 11.120782389993419, 47.300350411750863 ], [ 11.120848225579469, 47.300408755083581 ], [ 11.121551121880241, 47.301031574061227 ], [ 11.123115393009087, 47.30071008592688 ], [ 11.12352928094451, 47.300625021402638 ], [ 11.123667420833716, 47.300596639658373 ], [ 11.12392048046947, 47.300544557220121 ], [ 11.124698842407387, 47.300334490022721 ], [ 11.127383506239443, 47.299161483771826 ], [ 11.12899650394688, 47.298395926719245 ], [ 11.129006629732828, 47.298391081457567 ] ] ] } }
]
}
