{
"type": "FeatureCollection",
"name": "vecpiebalgas_novads",
"crs": { "type": "name", "properties": { "name": "urn:ogc:def:crs:OGC:1.3:CRS84" } },
"features": [
{ "type": "Feature", "properties": { "name": "Vecpiebalgas novads", "feature_type": "entity", "metric_roundness": 43.94, "metric_rectangularity": 53.07, "metric_mobile_fit": 75.88, "metric_aspect_ratio": 0.804, "metric_area_km2": 1834.18 }, "geometry": { "type": "Polygon", "coordinates": [ [ [ 25.5068083, 56.998811599999989 ], [ 25.5242293, 56.9911059 ], [ 25.5346739, 56.9906814 ], [ 25.5608247, 56.978100899999987 ], [ 25.6037189, 56.9818499 ], [ 25.6386913, 56.997472399999985 ], [ 25.6391444, 56.9919231 ], [ 25.6310192, 56.987437699999987 ], [ 25.6354331, 56.980801199999981 ], [ 25.6283025, 56.9717438 ], [ 25.6335966, 56.9619861 ], [ 25.6625958, 56.9687467 ], [ 25.7019997, 56.982942199999989 ], [ 25.7120805, 56.9979443 ], [ 25.7165058, 56.999996699999983 ], [ 25.7437936, 56.9965484 ], [ 25.7566704, 56.9822522 ], [ 25.7761029, 56.9767385 ], [ 25.7900501, 56.986140899999981 ], [ 25.8081076, 56.988694299999985 ], [ 25.8201742, 56.9823282 ], [ 25.8282799, 56.97294 ], [ 25.840979, 56.968328599999985 ], [ 25.8480458, 56.9596607 ], [ 25.8790454, 56.9595646 ], [ 25.888821, 56.961982 ], [ 25.9251987, 56.9734276 ], [ 25.9247514, 56.984159199999986 ], [ 25.9196402, 56.9938291 ], [ 25.9238742, 56.9958056 ], [ 25.9258444, 57.001285099999983 ], [ 25.9031041, 57.009137499999987 ], [ 25.8898024, 57.0070298 ], [ 25.885603, 57.010042399999989 ], [ 25.8898513, 57.018975 ], [ 25.8879217, 57.0296952 ], [ 25.8936984, 57.0362875 ], [ 25.8958447, 57.0509305 ], [ 25.9044822, 57.060667199999983 ], [ 25.910254, 57.076403799999987 ], [ 25.9199622, 57.090091599999987 ], [ 25.921547, 57.098239 ], [ 25.8869391, 57.095147499999989 ], [ 25.8711605, 57.1043932 ], [ 25.8658744, 57.1159673 ], [ 25.8525467, 57.125912299999982 ], [ 25.8219687, 57.1251502 ], [ 25.8177821, 57.130656799999983 ], [ 25.8022452, 57.1335239 ], [ 25.7711737, 57.149021 ], [ 25.7719913, 57.155256 ], [ 25.7793701, 57.1603546 ], [ 25.7754843, 57.164938099999986 ], [ 25.7658627, 57.1661391 ], [ 25.7617766, 57.1711962 ], [ 25.7676201, 57.1738175 ], [ 25.7590996, 57.1784429 ], [ 25.7642415, 57.1869325 ], [ 25.7700869, 57.1902367 ], [ 25.7673369, 57.1949181 ], [ 25.7738002, 57.2023035 ], [ 25.772586, 57.205793 ], [ 25.7588412, 57.203726799999984 ], [ 25.7500984, 57.2088343 ], [ 25.7450685, 57.2109307 ], [ 25.7432364, 57.2206825 ], [ 25.7546109, 57.2434933 ], [ 25.7471366, 57.2515862 ], [ 25.7599033, 57.2713305 ], [ 25.7568095, 57.2745865 ], [ 25.7369735, 57.277595 ], [ 25.7380794, 57.270000699999983 ], [ 25.7207704, 57.2625066 ], [ 25.7083423, 57.268314399999987 ], [ 25.7068463, 57.275890699999984 ], [ 25.6867449, 57.275153699999976 ], [ 25.68222, 57.2794751 ], [ 25.6651497, 57.2806188 ], [ 25.6265282, 57.2689989 ], [ 25.6171265, 57.2681195 ], [ 25.6058979, 57.272544899999986 ], [ 25.5981095, 57.266311499999986 ], [ 25.5975085, 57.259880699999982 ], [ 25.6057657, 57.252330899999983 ], [ 25.6013588, 57.2507033 ], [ 25.5895057, 57.253488599999976 ], [ 25.5769795, 57.2417371 ], [ 25.5506187, 57.2354287 ], [ 25.5525425, 57.226424 ], [ 25.560768, 57.219964 ], [ 25.5698145, 57.2196569 ], [ 25.5663176, 57.2125369 ], [ 25.571236, 57.1868779 ], [ 25.5569453, 57.176289099999984 ], [ 25.556401, 57.16591039999998 ], [ 25.559987, 57.158714599999982 ], [ 25.5554395, 57.1538925 ], [ 25.543825, 57.139473699999989 ], [ 25.5314234, 57.134329799999989 ], [ 25.529417, 57.1293548 ], [ 25.5431134, 57.1235496 ], [ 25.5844829, 57.122754099999973 ], [ 25.5887065, 57.111852399999982 ], [ 25.5827433, 57.107173599999989 ], [ 25.5977436, 57.101278 ], [ 25.6094628, 57.0734322 ], [ 25.5895117, 57.058556799999984 ], [ 25.5619128, 57.048951699999989 ], [ 25.5523413, 57.0393308 ], [ 25.536339, 57.032026499999986 ], [ 25.5362156, 57.0273734 ], [ 25.5331608, 57.0253089 ], [ 25.5130313, 57.024995399999987 ], [ 25.4993471, 57.03600969999998 ], [ 25.4865733, 57.0385913 ], [ 25.481555, 57.0347073 ], [ 25.479847, 57.0288251 ], [ 25.4959279, 57.0177672 ], [ 25.4898274, 57.007996199999987 ], [ 25.4795775, 57.000310099999986 ], [ 25.4683275, 57.006404499999988 ], [ 25.4562673, 57.007682299999985 ], [ 25.4521535, 57.0023625 ], [ 25.4505185, 56.9908315 ], [ 25.46909, 56.986899399999977 ], [ 25.4701595, 56.9959974 ], [ 25.4748585, 56.9972929 ], [ 25.490848, 56.9975215 ], [ 25.5068083, 56.998811599999989 ] ] ] } },
{ "type": "Feature", "properties": { "name": "Vecpiebalgas novads", "feature_type": "circle", "metric_roundness": 43.94, "metric_rectangularity": 53.07, "metric_mobile_fit": 75.88, "metric_aspect_ratio": 0.804, "metric_area_km2": 1834.18 }, "geometry": { "type": "Polygon", "coordinates": [ [ [ 26.030511963026054, 57.10434062170534 ], [ 26.030063084216017, 57.095029451565878 ], [ 26.028717678131517, 57.08574147316773 ], [ 26.026479432437117, 57.076502172598246 ], [ 26.023354482008695, 57.06733692133286 ], [ 26.019351392118153, 57.058270906180915 ], [ 26.014481134956629, 57.04932905953676 ], [ 26.00875705956048, 57.040535990135083 ], [ 26.002194855222488, 57.031915914510193 ], [ 25.994812508488611, 57.02349258935876 ], [ 25.986630253858106, 57.015289245005604 ], [ 25.977670518322178, 57.007328520169814 ], [ 25.967957859893144, 56.99963239822759 ], [ 25.957518900292634, 56.992222145164675 ], [ 25.946382251983316, 56.985118249408238 ], [ 25.934578439744108, 56.978340363723625 ], [ 25.922139817003881, 56.971907249356718 ], [ 25.909100477162966, 56.965836722596848 ], [ 25.895496160145523, 56.960145603928787 ], [ 25.881364154438863, 56.954849669935399 ], [ 25.866743194888326, 56.949963608104852 ], [ 25.851673356527755, 56.945500974687434 ], [ 25.836195944736598, 56.941474155738604 ], [ 25.820353382024752, 56.93789433147461 ], [ 25.804189091755415, 56.934771444057219 ], [ 25.787747379124642, 56.932114168913145 ], [ 25.771073309723917, 56.929929889682519 ], [ 25.754212586018447, 56.928224676879154 ], [ 25.737211422079948, 56.92700327033323 ], [ 25.720116416917033, 56.926269065474649 ], [ 25.7029744267506, 56.926024103502691 ], [ 25.685832436584167, 56.926269065474649 ], [ 25.668737431421253, 56.92700327033323 ], [ 25.651736267482754, 56.928224676879154 ], [ 25.634875543777287, 56.929929889682519 ], [ 25.618201474376558, 56.932114168913145 ], [ 25.601759761745786, 56.934771444057219 ], [ 25.585595471476449, 56.93789433147461 ], [ 25.569752908764606, 56.941474155738604 ], [ 25.554275496973446, 56.945500974687434 ], [ 25.539205658612879, 56.949963608104852 ], [ 25.524584699062341, 56.954849669935399 ], [ 25.510452693355678, 56.960145603928787 ], [ 25.496848376338235, 56.965836722596848 ], [ 25.48380903649732, 56.971907249356718 ], [ 25.471370413757093, 56.978340363723625 ], [ 25.459566601517881, 56.985118249408238 ], [ 25.448429953208567, 56.992222145164675 ], [ 25.437990993608057, 56.99963239822759 ], [ 25.428278335179023, 57.007328520169807 ], [ 25.419318599643095, 57.015289245005604 ], [ 25.41113634501259, 57.02349258935876 ], [ 25.403753998278713, 57.031915914510193 ], [ 25.397191793940721, 57.040535990135083 ], [ 25.391467718544575, 57.04932905953676 ], [ 25.386597461383047, 57.058270906180915 ], [ 25.382594371492505, 57.06733692133286 ], [ 25.37946942106408, 57.076502172598246 ], [ 25.377231175369683, 57.08574147316773 ], [ 25.375885769285183, 57.095029451565878 ], [ 25.375436890475147, 57.10434062170534 ], [ 25.375885769285183, 57.113649453048993 ], [ 25.377231175369683, 57.122930440684186 ], [ 25.37946942106408, 57.132158175116331 ], [ 25.382594371492505, 57.141307411591775 ], [ 25.386597461383047, 57.150353138763585 ], [ 25.391467718544575, 57.159270646518003 ], [ 25.397191793940721, 57.16803559278371 ], [ 25.403753998278713, 57.176624069150876 ], [ 25.41113634501259, 57.185012665132412 ], [ 25.419318599643095, 57.193178530905087 ], [ 25.428278335179023, 57.201099438374349 ], [ 25.437990993608057, 57.208753840412655 ], [ 25.448429953208567, 57.216120928127275 ], [ 25.459566601517881, 57.223180686020406 ], [ 25.471370413757093, 57.229913944910848 ], [ 25.48380903649732, 57.236302432493353 ], [ 25.496848376338235, 57.242328821418823 ], [ 25.510452693355678, 57.247976774785378 ], [ 25.524584699062341, 57.253230988937446 ], [ 25.539205658612879, 57.258077233477167 ], [ 25.554275496973446, 57.262502388399554 ], [ 25.569752908764606, 57.266494478270019 ], [ 25.585595471476449, 57.270042703369839 ], [ 25.601759761745786, 57.273137467742778 ], [ 25.618201474376558, 57.275770404082593 ], [ 25.634875543777287, 57.277934395408771 ], [ 25.651736267482754, 57.279623593484793 ], [ 25.668737431421253, 57.280833433940153 ], [ 25.685832436584167, 57.281560648064705 ], [ 25.7029744267506, 57.281803271250631 ], [ 25.720116416917033, 57.281560648064705 ], [ 25.737211422079948, 57.280833433940153 ], [ 25.754212586018447, 57.279623593484793 ], [ 25.771073309723917, 57.277934395408771 ], [ 25.787747379124642, 57.275770404082593 ], [ 25.804189091755415, 57.273137467742778 ], [ 25.820353382024752, 57.270042703369839 ], [ 25.836195944736598, 57.266494478270019 ], [ 25.851673356527755, 57.262502388399554 ], [ 25.866743194888326, 57.258077233477167 ], [ 25.881364154438863, 57.253230988937446 ], [ 25.895496160145523, 57.247976774785378 ], [ 25.909100477162966, 57.242328821418823 ], [ 25.922139817003881, 57.236302432493353 ], [ 25.934578439744108, 57.229913944910848 ], [ 25.946382251983316, 57.223180686020406 ], [ 25.957518900292634, 57.216120928127275 ], [ 25.967957859893144, 57.208753840412655 ], [ 25.977670518322178, 57.201099438374349 ], [ 25.986630253858106, 57.193178530905087 ], [ 25.994812508488611, 57.185012665132412 ], [ 26.002194855222488, 57.176624069150876 ], [ 26.00875705956048, 57.16803559278371 ], [ 26.014481134956629, 57.159270646518003 ], [ 26.019351392118153, 57.150353138763585 ], [ 26.023354482008695, 57.141307411591775 ], [ 26.026479432437117, 57.132158175116331 ], [ 26.028717678131517, 57.122930440684186 ], [ 26.030063084216017, 57.113649453048993 ], [ 26.030511963026054, 57.10434062170534 ] ] ] } },
{ "type": "Feature", "properties": { "name": "Vecpiebalgas novads", "feature_type": "mrr", "metric_roundness": 43.94, "metric_rectangularity": 53.07, "metric_mobile_fit": 75.88, "metric_aspect_ratio": 0.804, "metric_area_km2": 1834.18 }, "geometry": { "type": "Polygon", "coordinates": [ [ [ 25.445075572009166, 56.985552561317974 ], [ 25.576919321327171, 57.297434066635041 ], [ 26.03789543575019, 57.240266135994148 ], [ 25.906051686432189, 56.927900963712268 ], [ 25.445075572009166, 56.985552561317974 ] ] ] } }
]
}
