{
"type": "FeatureCollection",
"name": "vennans",
"crs": { "type": "name", "properties": { "name": "urn:ogc:def:crs:OGC:1.3:CRS84" } },
"features": [
{ "type": "Feature", "properties": { "name": "Vennans", "feature_type": "entity", "metric_roundness": 35.3, "metric_rectangularity": 52.77, "metric_mobile_fit": 13.36, "metric_aspect_ratio": 1.429, "metric_area_km2": 3.05 }, "geometry": { "type": "Polygon", "coordinates": [ [ [ 6.2347267, 47.3312702 ], [ 6.2285145, 47.337618 ], [ 6.228327, 47.335537499999987 ], [ 6.223126, 47.3343145 ], [ 6.2224705, 47.327131 ], [ 6.229554, 47.326172 ], [ 6.2333135, 47.3250545 ], [ 6.242676, 47.324468 ], [ 6.247141, 47.324858 ], [ 6.250194, 47.325835499999982 ], [ 6.2492915, 47.327081499999984 ], [ 6.2347267, 47.3312702 ] ] ] } },
{ "type": "Feature", "properties": { "name": "Vennans", "feature_type": "circle", "metric_roundness": 35.3, "metric_rectangularity": 52.77, "metric_mobile_fit": 13.36, "metric_aspect_ratio": 1.429, "metric_area_km2": 3.05 }, "geometry": { "type": "Polygon", "coordinates": [ [ [ 6.251569548579904, 47.330075170152746 ], [ 6.25154911556175, 47.329546296883777 ], [ 6.251487872512773, 47.329018867945528 ], [ 6.251385987295908, 47.328494329049079 ], [ 6.251243739171458, 47.327974118026667 ], [ 6.251061518031642, 47.327459660889488 ], [ 6.250839823331938, 47.326952367917485 ], [ 6.250579262722108, 47.326453629791814 ], [ 6.250280550380674, 47.32596481378058 ], [ 6.249944505057399, 47.325487259988421 ], [ 6.249572047829155, 47.325022277680077 ], [ 6.249164199575318, 47.324571141688345 ], [ 6.248722078179601, 47.324135088915988 ], [ 6.24824689546602, 47.323715314941353 ], [ 6.24773995387736, 47.323312970737256 ], [ 6.247202642905281, 47.322929159511709 ], [ 6.246636435281808, 47.322564933679715 ], [ 6.246042882942682, 47.322221291974031 ], [ 6.245423612773606, 47.321899176703234 ], [ 6.244780322151069, 47.321599471164383 ], [ 6.244114774289952, 47.321322997217599 ], [ 6.243428793410682, 47.321070513029085 ], [ 6.242724259739166, 47.320842710989069 ], [ 6.242003104353226, 47.320640215810151 ], [ 6.241267303889649, 47.320463582811442 ], [ 6.24051887512636, 47.320313296393302 ], [ 6.239759869454577, 47.320189768706754 ], [ 6.238992367256088, 47.320093338521289 ], [ 6.238218472201071, 47.320024270294319 ], [ 6.23744030548208, 47.319982753444627 ], [ 6.23666, 47.319968901832048 ], [ 6.235879694517919, 47.319982753444627 ], [ 6.235101527798928, 47.320024270294319 ], [ 6.234327632743911, 47.320093338521289 ], [ 6.233560130545422, 47.320189768706754 ], [ 6.23280112487364, 47.320313296393302 ], [ 6.23205269611035, 47.320463582811442 ], [ 6.231316895646772, 47.320640215810151 ], [ 6.230595740260833, 47.320842710989069 ], [ 6.229891206589317, 47.321070513029085 ], [ 6.229205225710047, 47.321322997217599 ], [ 6.22853967784893, 47.321599471164383 ], [ 6.227896387226393, 47.321899176703234 ], [ 6.227277117057318, 47.322221291974031 ], [ 6.226683564718191, 47.322564933679715 ], [ 6.226117357094719, 47.322929159511709 ], [ 6.225580046122639, 47.323312970737256 ], [ 6.22507310453398, 47.323715314941353 ], [ 6.224597921820398, 47.324135088915988 ], [ 6.224155800424681, 47.324571141688345 ], [ 6.223747952170844, 47.325022277680077 ], [ 6.223375494942601, 47.325487259988421 ], [ 6.223039449619325, 47.32596481378058 ], [ 6.222740737277891, 47.326453629791814 ], [ 6.222480176668062, 47.326952367917485 ], [ 6.222258481968358, 47.327459660889488 ], [ 6.222076260828542, 47.327974118026667 ], [ 6.221934012704091, 47.328494329049079 ], [ 6.221832127487226, 47.329018867945528 ], [ 6.221770884438248, 47.329546296883777 ], [ 6.221750451420095, 47.330075170152746 ], [ 6.221770884438248, 47.330604038125834 ], [ 6.221832127487226, 47.331131451234448 ], [ 6.221934012704091, 47.331655963940946 ], [ 6.222076260828541, 47.332176138700035 ], [ 6.222258481968358, 47.332690549897833 ], [ 6.222480176668062, 47.333197787757705 ], [ 6.222740737277891, 47.333696462202319 ], [ 6.223039449619325, 47.334185206661282 ], [ 6.223375494942601, 47.334662681813896 ], [ 6.223747952170844, 47.335127579256998 ], [ 6.224155800424681, 47.335578625087606 ], [ 6.224597921820398, 47.336014583390792 ], [ 6.22507310453398, 47.336434259623189 ], [ 6.225580046122639, 47.336836503882921 ], [ 6.226117357094719, 47.337220214056948 ], [ 6.226683564718191, 47.337584338837431 ], [ 6.227277117057318, 47.337927880598748 ], [ 6.227896387226393, 47.338249898127316 ], [ 6.22853967784893, 47.338549509196987 ], [ 6.229205225710047, 47.338825892982655 ], [ 6.229891206589317, 47.339078292305928 ], [ 6.230595740260833, 47.339306015706391 ], [ 6.231316895646772, 47.339508439333038 ], [ 6.23205269611035, 47.339685008650704 ], [ 6.232801124873638, 47.339835239956713 ], [ 6.233560130545422, 47.33995872170388 ], [ 6.234327632743911, 47.340055115626015 ], [ 6.235101527798928, 47.340124157663034 ], [ 6.235879694517919, 47.340165658683098 ], [ 6.23666, 47.340179504999789 ], [ 6.23744030548208, 47.340165658683098 ], [ 6.238218472201071, 47.340124157663034 ], [ 6.238992367256088, 47.340055115626015 ], [ 6.239759869454577, 47.33995872170388 ], [ 6.24051887512636, 47.339835239956713 ], [ 6.241267303889649, 47.339685008650704 ], [ 6.242003104353226, 47.339508439333038 ], [ 6.242724259739166, 47.339306015706391 ], [ 6.243428793410682, 47.339078292305928 ], [ 6.244114774289952, 47.338825892982655 ], [ 6.244780322151069, 47.338549509196987 ], [ 6.245423612773606, 47.338249898127316 ], [ 6.246042882942682, 47.337927880598748 ], [ 6.246636435281808, 47.337584338837431 ], [ 6.247202642905281, 47.337220214056948 ], [ 6.24773995387736, 47.336836503882921 ], [ 6.24824689546602, 47.336434259623189 ], [ 6.248722078179601, 47.336014583390792 ], [ 6.249164199575318, 47.335578625087606 ], [ 6.249572047829155, 47.335127579256998 ], [ 6.249944505057399, 47.334662681813896 ], [ 6.250280550380674, 47.334185206661282 ], [ 6.250579262722108, 47.333696462202319 ], [ 6.250839823331938, 47.333197787757705 ], [ 6.251061518031642, 47.332690549897833 ], [ 6.251243739171457, 47.332176138700035 ], [ 6.251385987295908, 47.331655963940946 ], [ 6.251487872512773, 47.331131451234448 ], [ 6.25154911556175, 47.330604038125834 ], [ 6.251569548579904, 47.330075170152746 ] ] ] } },
{ "type": "Feature", "properties": { "name": "Vennans", "feature_type": "mrr", "metric_roundness": 35.3, "metric_rectangularity": 52.77, "metric_mobile_fit": 13.36, "metric_aspect_ratio": 1.429, "metric_area_km2": 3.05 }, "geometry": { "type": "Polygon", "coordinates": [ [ [ 6.227398335544904, 47.338183973427775 ], [ 6.250751849510742, 47.326340843690595 ], [ 6.241160152504864, 47.317651255308917 ], [ 6.217806638539025, 47.329496333363117 ], [ 6.227398335544904, 47.338183973427775 ] ] ] } }
]
}
