{
"type": "FeatureCollection",
"name": "endine_gaiano",
"crs": { "type": "name", "properties": { "name": "urn:ogc:def:crs:OGC:1.3:CRS84" } },
"features": [
{ "type": "Feature", "properties": { "name": "Endine Gaiano", "feature_type": "entity", "metric_roundness": 56.18, "metric_rectangularity": 65.97, "metric_mobile_fit": 60.07, "metric_aspect_ratio": 0.962, "metric_area_km2": 44.29 }, "geometry": { "type": "Polygon", "coordinates": [ [ [ 9.9603315, 45.791590899999989 ], [ 9.9419914, 45.783025 ], [ 9.9393845, 45.776437499999986 ], [ 9.9591837, 45.7735148 ], [ 9.960431, 45.7681845 ], [ 9.9527087, 45.7626212 ], [ 9.9528266, 45.758689399999987 ], [ 9.9571024, 45.755555099999974 ], [ 9.966554, 45.7547125 ], [ 9.9734664, 45.762425399999984 ], [ 9.9852898, 45.763638199999974 ], [ 9.994752, 45.7608475 ], [ 9.9967556, 45.78418 ], [ 10.0094625, 45.7886424 ], [ 10.019297, 45.799442 ], [ 10.0013712, 45.8094823 ], [ 9.976162, 45.8126535 ], [ 9.958957, 45.807633 ], [ 9.9603315, 45.791590899999989 ] ] ] } },
{ "type": "Feature", "properties": { "name": "Endine Gaiano", "feature_type": "circle", "metric_roundness": 56.18, "metric_rectangularity": 65.97, "metric_mobile_fit": 60.07, "metric_aspect_ratio": 0.962, "metric_area_km2": 44.29 }, "geometry": { "type": "Polygon", "coordinates": [ [ [ 10.027310424537053, 45.781567666548931 ], [ 10.027248743309892, 45.779924919081743 ], [ 10.027063868692371, 45.778286626068748 ], [ 10.026756307412965, 45.776657278551376 ], [ 10.026326902475761, 45.775041343441075 ], [ 10.025776830849843, 45.773443251264965 ], [ 10.025107600243308, 45.771867384007187 ], [ 10.024321044970725, 45.770318063079287 ], [ 10.023419320925425, 45.768799537452871 ], [ 10.022404899670342, 45.767315971987287 ], [ 10.021280561663618, 45.765871435984543 ], [ 10.020049388637585, 45.764469892003383 ], [ 10.018714755151922, 45.763115184963205 ], [ 10.017280319344248, 45.761811031568371 ], [ 10.015750012903407, 45.760561010082064 ], [ 10.014128030292982, 45.759368550478399 ], [ 10.012418817254563, 45.75823692499992 ], [ 10.010627058622285, 45.757169239147053 ], [ 10.008757665482012, 45.756168423124635 ], [ 10.006815761710406, 45.75523722376925 ], [ 10.004806669930723, 45.75437819698017 ], [ 10.002735896923882, 45.753593700674969 ], [ 10.000609118534754, 45.752885888289512 ], [ 9.998432164115076, 45.752256702840668 ], [ 9.996211000545594, 45.751707871568236 ], [ 9.993951715881257, 45.751240901171329 ], [ 9.991660502664296, 45.750857073652384 ], [ 9.989343640950871, 45.750557442780618 ], [ 9.987007481097899, 45.750342831184852 ], [ 9.984658426357154, 45.75021382808378 ], [ 9.982302915324397, 45.750170787660203 ], [ 9.979947404291638, 45.75021382808378 ], [ 9.97759834955089, 45.750342831184852 ], [ 9.97526218969792, 45.750557442780618 ], [ 9.972945327984496, 45.750857073652384 ], [ 9.970654114767532, 45.751240901171329 ], [ 9.968394830103197, 45.751707871568236 ], [ 9.966173666533715, 45.752256702840668 ], [ 9.963996712114035, 45.752885888289512 ], [ 9.961869933724909, 45.753593700674969 ], [ 9.959799160718068, 45.75437819698017 ], [ 9.957790068938383, 45.75523722376925 ], [ 9.955848165166779, 45.756168423124635 ], [ 9.953978772026508, 45.757169239147053 ], [ 9.952187013394228, 45.75823692499992 ], [ 9.950477800355809, 45.759368550478399 ], [ 9.948855817745384, 45.760561010082064 ], [ 9.947325511304543, 45.761811031568371 ], [ 9.945891075496869, 45.763115184963205 ], [ 9.944556442011207, 45.764469892003383 ], [ 9.943325268985173, 45.765871435984543 ], [ 9.942200930978448, 45.767315971987287 ], [ 9.941186509723364, 45.768799537452871 ], [ 9.940284785678067, 45.770318063079287 ], [ 9.939498230405484, 45.771867384007187 ], [ 9.938828999798947, 45.773443251264965 ], [ 9.938278928173032, 45.775041343441075 ], [ 9.937849523235826, 45.776657278551376 ], [ 9.93754196195642, 45.778286626068748 ], [ 9.937357087338897, 45.779924919081743 ], [ 9.937295406111739, 45.781567666548931 ], [ 9.937357087338897, 45.78321036561492 ], [ 9.93754196195642, 45.784848513954657 ], [ 9.937849523235826, 45.786477622111747 ], [ 9.938278928173032, 45.788093225797247 ], [ 9.938828999798947, 45.789690898115182 ], [ 9.939498230405484, 45.791266261681479 ], [ 9.940284785678067, 45.792815000603134 ], [ 9.941186509723364, 45.794332872285125 ], [ 9.942200930978448, 45.795815719032859 ], [ 9.943325268985173, 45.797259479418763 ], [ 9.944556442011207, 45.798660199381892 ], [ 9.945891075496869, 45.800014043030984 ], [ 9.947325511304543, 45.801317303121166 ], [ 9.948855817745384, 45.802566411176478 ], [ 9.950477800355809, 45.803757947230558 ], [ 9.952187013394228, 45.804888649159473 ], [ 9.953978772026508, 45.805955421581373 ], [ 9.955848165166779, 45.80695534429919 ], [ 9.957790068938383, 45.807885680263546 ], [ 9.959799160718068, 45.808743883034658 ], [ 9.961869933724909, 45.809527603723097 ], [ 9.963996712114035, 45.810234697390804 ], [ 9.966173666533715, 45.810863228895322 ], [ 9.968394830103197, 45.811411478161595 ], [ 9.970654114767532, 45.811877944867099 ], [ 9.972945327984496, 45.812261352527948 ], [ 9.97526218969792, 45.812560651974955 ], [ 9.97759834955089, 45.812775024210495 ], [ 9.979947404291638, 45.812903882638331 ], [ 9.982302915324397, 45.812946874660717 ], [ 9.984658426357154, 45.812903882638331 ], [ 9.987007481097899, 45.812775024210495 ], [ 9.989343640950871, 45.812560651974955 ], [ 9.991660502664296, 45.812261352527948 ], [ 9.993951715881257, 45.811877944867099 ], [ 9.996211000545594, 45.811411478161595 ], [ 9.998432164115076, 45.810863228895322 ], [ 10.000609118534754, 45.810234697390804 ], [ 10.002735896923882, 45.809527603723097 ], [ 10.004806669930723, 45.808743883034658 ], [ 10.006815761710406, 45.807885680263546 ], [ 10.008757665482012, 45.80695534429919 ], [ 10.010627058622285, 45.805955421581373 ], [ 10.012418817254563, 45.804888649159473 ], [ 10.014128030292982, 45.803757947230558 ], [ 10.015750012903407, 45.802566411176478 ], [ 10.017280319344248, 45.801317303121166 ], [ 10.018714755151922, 45.800014043030984 ], [ 10.020049388637585, 45.798660199381892 ], [ 10.021280561663618, 45.797259479418763 ], [ 10.022404899670342, 45.795815719032859 ], [ 10.023419320925425, 45.794332872285125 ], [ 10.024321044970725, 45.792815000603134 ], [ 10.025107600243308, 45.791266261681479 ], [ 10.025776830849843, 45.789690898115182 ], [ 10.026326902475761, 45.788093225797247 ], [ 10.026756307412965, 45.786477622111747 ], [ 10.027063868692371, 45.784848513954657 ], [ 10.027248743309892, 45.78321036561492 ], [ 10.027310424537053, 45.781567666548931 ] ] ] } },
{ "type": "Feature", "properties": { "name": "Endine Gaiano", "feature_type": "mrr", "metric_roundness": 56.18, "metric_rectangularity": 65.97, "metric_mobile_fit": 60.07, "metric_aspect_ratio": 0.962, "metric_area_km2": 44.29 }, "geometry": { "type": "Polygon", "coordinates": [ [ [ 10.021688286183517, 45.803200623361974 ], [ 9.985751552621167, 45.746688522292558 ], [ 9.929880008917062, 45.763978806400232 ], [ 9.96581674247941, 45.820473392310618 ], [ 10.021688286183517, 45.803200623361974 ] ] ] } }
]
}
