{
"type": "FeatureCollection",
"name": "obervisse",
"crs": { "type": "name", "properties": { "name": "urn:ogc:def:crs:OGC:1.3:CRS84" } },
"features": [
{ "type": "Feature", "properties": { "name": "Obervisse", "feature_type": "entity", "metric_roundness": 42.25, "metric_rectangularity": 63.73, "metric_mobile_fit": 12.16, "metric_aspect_ratio": 1.441, "metric_area_km2": 9.7 }, "geometry": { "type": "Polygon", "coordinates": [ [ [ 6.5527945, 49.14302 ], [ 6.5661035, 49.142933499999984 ], [ 6.584631, 49.142734499999975 ], [ 6.5982733, 49.1490824 ], [ 6.598886, 49.151951499999988 ], [ 6.5912894, 49.156104 ], [ 6.5863782, 49.163656599999989 ], [ 6.582505, 49.163595 ], [ 6.5527945, 49.14302 ] ] ] } },
{ "type": "Feature", "properties": { "name": "Obervisse", "feature_type": "circle", "metric_roundness": 42.25, "metric_rectangularity": 63.73, "metric_mobile_fit": 12.16, "metric_aspect_ratio": 1.441, "metric_area_km2": 9.7 }, "geometry": { "type": "Polygon", "coordinates": [ [ [ 6.599136403477857, 49.149676222445557 ], [ 6.599103117431762, 49.148844779724527 ], [ 6.599003350528215, 49.148015602034569 ], [ 6.598837376221363, 49.14719096226537 ], [ 6.598605649435246, 49.146373120980577 ], [ 6.598308805316877, 49.145564320218725 ], [ 6.59794765749535, 49.144766777343584 ], [ 6.597523195851742, 49.143982678961144 ], [ 6.597036583805913, 49.143214174919713 ], [ 6.596489155127659, 49.142463372409786 ], [ 6.595882410280934, 49.141732330179899 ], [ 6.595218012311188, 49.141023052884414 ], [ 6.594497782287076, 49.140337485578861 ], [ 6.59372369430903, 49.139677508377922 ], [ 6.592897870098392, 49.139044931291089 ], [ 6.592022573181922, 49.138441489249814 ], [ 6.591100202687626, 49.13786883734042 ], [ 6.590133286768914, 49.137328546255659 ], [ 6.589124475675114, 49.1368220979775 ], [ 6.58807653448731, 49.136350881703329 ], [ 6.586992335539455, 49.135916190026613 ], [ 6.585874850545506, 49.135519215382836 ], [ 6.584727142454153, 49.135161046770371 ], [ 6.583552357053501, 49.134842666755638 ], [ 6.582353714348673, 49.134564948770517 ], [ 6.581134499736008, 49.13432865470994 ], [ 6.579898054998011, 49.134134432835971 ], [ 6.578647769143766, 49.133982815994464 ], [ 6.577387069119891, 49.133874220149146 ], [ 6.576119410417524, 49.133808943237121 ], [ 6.574848267601053, 49.133787164349208 ], [ 6.573577124784582, 49.133808943237121 ], [ 6.572309466082215, 49.133874220149146 ], [ 6.571048766058341, 49.133982815994464 ], [ 6.569798480204096, 49.134134432835971 ], [ 6.568562035466099, 49.13432865470994 ], [ 6.567342820853433, 49.134564948770517 ], [ 6.566144178148605, 49.134842666755638 ], [ 6.564969392747953, 49.135161046770371 ], [ 6.563821684656601, 49.135519215382836 ], [ 6.562704199662651, 49.135916190026613 ], [ 6.561620000714796, 49.136350881703329 ], [ 6.560572059526992, 49.1368220979775 ], [ 6.559563248433191, 49.137328546255659 ], [ 6.55859633251448, 49.13786883734042 ], [ 6.557673962020184, 49.138441489249814 ], [ 6.556798665103714, 49.139044931291089 ], [ 6.555972840893077, 49.139677508377922 ], [ 6.555198752915031, 49.140337485578861 ], [ 6.554478522890919, 49.141023052884414 ], [ 6.553814124921172, 49.141732330179899 ], [ 6.553207380074447, 49.142463372409786 ], [ 6.552659951396193, 49.143214174919713 ], [ 6.552173339350365, 49.143982678961144 ], [ 6.551748877706755, 49.144766777343584 ], [ 6.55138772988523, 49.145564320218725 ], [ 6.55109088576686, 49.146373120980577 ], [ 6.550859158980743, 49.14719096226537 ], [ 6.550693184673891, 49.148015602034569 ], [ 6.550593417770344, 49.148844779724527 ], [ 6.550560131724248, 49.149676222445557 ], [ 6.550593417770344, 49.150507651213694 ], [ 6.550693184673891, 49.151336787197877 ], [ 6.550859158980743, 49.152161357965362 ], [ 6.55109088576686, 49.152979103708461 ], [ 6.55138772988523, 49.153787783435455 ], [ 6.551748877706755, 49.154585181108629 ], [ 6.552173339350365, 49.155369111712858 ], [ 6.552659951396193, 49.156137427238065 ], [ 6.553207380074447, 49.156888022559158 ], [ 6.553814124921172, 49.157618841197632 ], [ 6.554478522890919, 49.158327880948811 ], [ 6.555198752915031, 49.159013199359784 ], [ 6.555972840893077, 49.159672919042755 ], [ 6.556798665103714, 49.160305232809712 ], [ 6.557673962020184, 49.160908408614162 ], [ 6.55859633251448, 49.161480794286717 ], [ 6.559563248433191, 49.162020822051595 ], [ 6.560572059526992, 49.162527012811807 ], [ 6.561620000714796, 49.162997980191392 ], [ 6.562704199662651, 49.163432434323809 ], [ 6.563821684656601, 49.16382918537618 ], [ 6.564969392747953, 49.164187146799819 ], [ 6.566144178148605, 49.164505338298326 ], [ 6.567342820853433, 49.164782888505258 ], [ 6.568562035466099, 49.165019037363869 ], [ 6.569798480204096, 49.165213138202986 ], [ 6.571048766058341, 49.165364659502806 ], [ 6.572309466082215, 49.165473186346397 ], [ 6.573577124784582, 49.165538421552647 ], [ 6.574848267601053, 49.165560186487689 ], [ 6.576119410417524, 49.165538421552647 ], [ 6.577387069119891, 49.165473186346397 ], [ 6.578647769143766, 49.165364659502806 ], [ 6.579898054998011, 49.165213138202986 ], [ 6.581134499736008, 49.165019037363869 ], [ 6.582353714348673, 49.164782888505258 ], [ 6.583552357053501, 49.164505338298326 ], [ 6.584727142454153, 49.164187146799819 ], [ 6.585874850545506, 49.16382918537618 ], [ 6.586992335539455, 49.163432434323809 ], [ 6.58807653448731, 49.162997980191392 ], [ 6.589124475675114, 49.162527012811807 ], [ 6.590133286768914, 49.162020822051595 ], [ 6.591100202687626, 49.161480794286717 ], [ 6.592022573181922, 49.160908408614162 ], [ 6.592897870098392, 49.160305232809712 ], [ 6.59372369430903, 49.159672919042755 ], [ 6.594497782287076, 49.159013199359784 ], [ 6.595218012311188, 49.158327880948811 ], [ 6.595882410280934, 49.157618841197632 ], [ 6.596489155127659, 49.156888022559158 ], [ 6.597036583805913, 49.156137427238065 ], [ 6.597523195851742, 49.155369111712858 ], [ 6.59794765749535, 49.154585181108629 ], [ 6.598308805316877, 49.153787783435455 ], [ 6.598605649435246, 49.152979103708461 ], [ 6.598837376221363, 49.152161357965362 ], [ 6.599003350528215, 49.151336787197877 ], [ 6.599103117431762, 49.150507651213694 ], [ 6.599136403477857, 49.149676222445557 ] ] ] } },
{ "type": "Feature", "properties": { "name": "Obervisse", "feature_type": "mrr", "metric_roundness": 42.25, "metric_rectangularity": 63.73, "metric_mobile_fit": 12.16, "metric_aspect_ratio": 1.441, "metric_area_km2": 9.7 }, "geometry": { "type": "Polygon", "coordinates": [ [ [ 6.5527945, 49.14302 ], [ 6.584378034458816, 49.164891821871343 ], [ 6.603789609377894, 49.152902713392336 ], [ 6.572206073782897, 49.131025598203863 ], [ 6.5527945, 49.14302 ] ] ] } }
]
}
