{
"type": "FeatureCollection",
"name": "ayros_arbouix",
"crs": { "type": "name", "properties": { "name": "urn:ogc:def:crs:OGC:1.3:CRS84" } },
"features": [
{ "type": "Feature", "properties": { "name": "Ayros-Arbouix", "feature_type": "entity", "metric_roundness": 30.12, "metric_rectangularity": 46.96, "metric_mobile_fit": 49.89, "metric_aspect_ratio": 1.064, "metric_area_km2": 5.09 }, "geometry": { "type": "Polygon", "coordinates": [ [ [ -0.0725017, 43.0085277 ], [ -0.082504, 43.0071065 ], [ -0.0816265, 43.001949 ], [ -0.078897, 42.994983 ], [ -0.0777271, 43.000112599999987 ], [ -0.0725359, 43.0006669 ], [ -0.0602353, 42.992944799999989 ], [ -0.0594305, 42.990001 ], [ -0.0491475, 42.9888195 ], [ -0.0572384, 42.9953096 ], [ -0.058333, 43.0054215 ], [ -0.0671695, 43.011757 ], [ -0.0725017, 43.0085277 ] ] ] } },
{ "type": "Feature", "properties": { "name": "Ayros-Arbouix", "feature_type": "circle", "metric_roundness": 30.12, "metric_rectangularity": 46.96, "metric_mobile_fit": 49.89, "metric_aspect_ratio": 1.064, "metric_area_km2": 5.09 }, "geometry": { "type": "Polygon", "coordinates": [ [ [ -0.044982102666629, 42.997963680294916 ], [ -0.045010668160887, 42.997165835242306 ], [ -0.045096286347628, 42.996370166710705 ], [ -0.045238722553353, 42.995578855699485 ], [ -0.045437586370322, 42.99479407134757 ], [ -0.045692332726636, 42.994017964985723 ], [ -0.046002263380239, 42.993252664236671 ], [ -0.046366528832754, 42.992500267179395 ], [ -0.046784130657895, 42.991762836593651 ], [ -0.047253924238085, 42.991042394300315 ], [ -0.047774621901777, 42.990340915613544 ], [ -0.048344796452868, 42.989660323919544 ], [ -0.048962885082545, 42.989002485397279 ], [ -0.049627193652837, 42.988369203895459 ], [ -0.05033590134013, 42.987762215980055 ], [ -0.051087065625913, 42.987183186165772 ], [ -0.051878627621091, 42.98663370234501 ], [ -0.052708417709258, 42.986115271426691 ], [ -0.053574161493459, 42.985629315196945 ], [ -0.054473486030159, 42.985177166413372 ], [ -0.055403926333315, 42.984760065143405 ], [ -0.056362932130728, 42.984379155357047 ], [ -0.057347874854169, 42.984035481783437 ], [ -0.058356054844095, 42.983729987039787 ], [ -0.05938470874923, 42.983463509040874 ], [ -0.060431017100723, 42.983236778696032 ], [ -0.06149211204011, 42.983050417900166 ], [ -0.062565085179917, 42.982904937824401 ], [ -0.06364699557535, 42.982800737510878 ], [ -0.064734877785217, 42.982738102775826 ], [ -0.06582575, 42.982717205423889 ], [ -0.066916622214783, 42.982738102775826 ], [ -0.06800450442465, 42.982800737510878 ], [ -0.069086414820083, 42.982904937824401 ], [ -0.07015938795989, 42.983050417900166 ], [ -0.071220482899277, 42.983236778696032 ], [ -0.07226679125077, 42.983463509040874 ], [ -0.073295445155905, 42.983729987039787 ], [ -0.074303625145831, 42.984035481783437 ], [ -0.075288567869272, 42.984379155357047 ], [ -0.076247573666685, 42.984760065143405 ], [ -0.077178013969841, 42.985177166413372 ], [ -0.078077338506541, 42.985629315196945 ], [ -0.078943082290742, 42.986115271426691 ], [ -0.079772872378909, 42.98663370234501 ], [ -0.080564434374087, 42.987183186165772 ], [ -0.08131559865987, 42.987762215980055 ], [ -0.082024306347163, 42.988369203895459 ], [ -0.082688614917455, 42.989002485397279 ], [ -0.083306703547132, 42.989660323919544 ], [ -0.083876878098223, 42.990340915613544 ], [ -0.084397575761915, 42.991042394300315 ], [ -0.084867369342105, 42.991762836593651 ], [ -0.085284971167246, 42.992500267179395 ], [ -0.085649236619761, 42.993252664236671 ], [ -0.085959167273364, 42.994017964985723 ], [ -0.086213913629678, 42.99479407134757 ], [ -0.086412777446647, 42.995578855699485 ], [ -0.086555213652372, 42.996370166710705 ], [ -0.086640831839113, 42.997165835242306 ], [ -0.086669397333371, 42.997963680294916 ], [ -0.086640831839113, 42.998761514988168 ], [ -0.086555213652372, 42.999557152555113 ], [ -0.086412777446647, 43.00034841233569 ], [ -0.086213913629678, 43.00113312575224 ], [ -0.085959167273364, 43.001909142251215 ], [ -0.085649236619761, 43.002674335194413 ], [ -0.085284971167246, 43.003426607683991 ], [ -0.084867369342105, 43.004163898305016 ], [ -0.084397575761915, 43.004884186770063 ], [ -0.083876878098223, 43.005585499450369 ], [ -0.083306703547132, 43.006265914778538 ], [ -0.082688614917455, 43.006923568507879 ], [ -0.082024306347163, 43.007556658814316 ], [ -0.08131559865987, 43.008163451226686 ], [ -0.080564434374087, 43.008742283372236 ], [ -0.079772872378909, 43.009291569524251 ], [ -0.078943082290742, 43.009809804939536 ], [ -0.078077338506541, 43.010295569973913 ], [ -0.077178013969841, 43.010747533964562 ], [ -0.076247573666685, 43.011164458868699 ], [ -0.075288567869272, 43.011545202648591 ], [ -0.074303625145831, 43.011888722393934 ], [ -0.073295445155906, 43.012194077172857 ], [ -0.07226679125077, 43.012460430604087 ], [ -0.071220482899277, 43.012687053143082 ], [ -0.07015938795989, 43.012873324076054 ], [ -0.069086414820083, 43.01301873321647 ], [ -0.06800450442465, 43.013122882299356 ], [ -0.066916622214783, 43.013185486069773 ], [ -0.06582575, 43.013206373062324 ], [ -0.064734877785217, 43.013185486069773 ], [ -0.06364699557535, 43.013122882299356 ], [ -0.062565085179917, 43.01301873321647 ], [ -0.06149211204011, 43.012873324076054 ], [ -0.060431017100723, 43.012687053143082 ], [ -0.05938470874923, 43.012460430604087 ], [ -0.058356054844095, 43.012194077172857 ], [ -0.057347874854169, 43.011888722393934 ], [ -0.056362932130728, 43.011545202648591 ], [ -0.055403926333315, 43.011164458868699 ], [ -0.054473486030159, 43.010747533964562 ], [ -0.053574161493459, 43.010295569973913 ], [ -0.052708417709258, 43.009809804939536 ], [ -0.051878627621091, 43.009291569524251 ], [ -0.051087065625913, 43.008742283372236 ], [ -0.05033590134013, 43.008163451226686 ], [ -0.049627193652837, 43.007556658814316 ], [ -0.048962885082545, 43.006923568507879 ], [ -0.048344796452868, 43.006265914778538 ], [ -0.047774621901777, 43.005585499450369 ], [ -0.047253924238085, 43.004884186770063 ], [ -0.046784130657895, 43.004163898305016 ], [ -0.046366528832754, 43.003426607683991 ], [ -0.046002263380239, 43.002674335194413 ], [ -0.045692332726636, 43.001909142251215 ], [ -0.045437586370322, 43.00113312575224 ], [ -0.045238722553353, 43.00034841233569 ], [ -0.045096286347628, 42.999557152555113 ], [ -0.045010668160887, 42.998761514988168 ], [ -0.044982102666629, 42.997963680294916 ] ] ] } },
{ "type": "Feature", "properties": { "name": "Ayros-Arbouix", "feature_type": "mrr", "metric_roundness": 30.12, "metric_rectangularity": 46.96, "metric_mobile_fit": 49.89, "metric_aspect_ratio": 1.064, "metric_area_km2": 5.09 }, "geometry": { "type": "Polygon", "coordinates": [ [ [ -0.062588987582479, 43.013112326168397 ], [ -0.0491475, 42.9888195 ], [ -0.071780941483128, 42.982119559568524 ], [ -0.085222436606391, 43.006415031900396 ], [ -0.062588987582479, 43.013112326168397 ] ] ] } }
]
}
