{
"type": "FeatureCollection",
"name": "crantenoy",
"crs": { "type": "name", "properties": { "name": "urn:ogc:def:crs:OGC:1.3:CRS84" } },
"features": [
{ "type": "Feature", "properties": { "name": "Crantenoy", "metric_roundness": 53.72, "metric_rectangularity": 62.14, "metric_mobile_fit": 51.52, "metric_aspect_ratio": 1.047, "metric_area_km2": 11.9 }, "geometry": { "type": "Polygon", "coordinates": [ [ [ 6.2429556, 48.4768975 ], [ 6.2386938, 48.4745371 ], [ 6.216478, 48.474459 ], [ 6.21223, 48.471952 ], [ 6.2082133, 48.468926399999987 ], [ 6.2103893, 48.4660258 ], [ 6.2326545, 48.453676699999988 ], [ 6.239015, 48.455229 ], [ 6.253846, 48.466601 ], [ 6.2461871, 48.4702599 ], [ 6.2471825, 48.481728 ], [ 6.2435225, 48.482567 ], [ 6.2429556, 48.4768975 ] ] ] } }
]
}
