{
"type": "FeatureCollection",
"name": "crempigny_bonneguete",
"crs": { "type": "name", "properties": { "name": "urn:ogc:def:crs:OGC:1.3:CRS84" } },
"features": [
{ "type": "Feature", "properties": { "name": "Crempigny-Bonneguête", "feature_type": "entity", "metric_roundness": 48.99, "metric_rectangularity": 71.56, "metric_mobile_fit": 72.37, "metric_aspect_ratio": 0.839, "metric_area_km2": 12.4 }, "geometry": { "type": "Polygon", "coordinates": [ [ [ 5.9003169, 45.942036599999987 ], [ 5.9026556, 45.931721 ], [ 5.9088995, 45.929281099999983 ], [ 5.912103, 45.93148 ], [ 5.9210765, 45.938445 ], [ 5.9198333, 45.947153 ], [ 5.914578, 45.9503782 ], [ 5.9129895, 45.954958 ], [ 5.8938965, 45.963173 ], [ 5.8801905, 45.945953499999987 ], [ 5.9003169, 45.942036599999987 ] ] ] } },
{ "type": "Feature", "properties": { "name": "Crempigny-Bonneguête", "feature_type": "circle", "metric_roundness": 48.99, "metric_rectangularity": 71.56, "metric_mobile_fit": 72.37, "metric_aspect_ratio": 0.839, "metric_area_km2": 12.4 }, "geometry": { "type": "Polygon", "coordinates": [ [ [ 5.926897356040121, 45.946229640158847 ], [ 5.926862410058888, 45.945301687240061 ], [ 5.926757667899692, 45.944376262306015 ], [ 5.926583416653513, 45.943455902072841 ], [ 5.926340133930903, 45.942543129499484 ], [ 5.926028486552894, 45.941640446869009 ], [ 5.925649328723289, 45.940750328925247 ], [ 5.925203699687342, 45.939875216083607 ], [ 5.924692820883266, 45.939017507734782 ], [ 5.924118092594351, 45.938179555659815 ], [ 5.923481090110891, 45.937363657574565 ], [ 5.922783559412412, 45.936572050821432 ], [ 5.922027412382077, 45.935806906225793 ], [ 5.921214721566335, 45.935070322133996 ], [ 5.920347714494222, 45.934364318649457 ], [ 5.919428767571861, 45.933690832082817 ], [ 5.918460399568888, 45.933051709631435 ], [ 5.917445264714689, 45.932448704303042 ], [ 5.916386145423339, 45.931883470097475 ], [ 5.915285944667197, 45.931357557460068 ], [ 5.914147678020062, 45.930872409018967 ], [ 5.912974465391692, 45.930429355618656 ], [ 5.911769522476354, 45.930029612660192 ], [ 5.910536151938824, 45.929674276758711 ], [ 5.909277734362016, 45.929364322727331 ], [ 5.907997718981034, 45.929100600895737 ], [ 5.906699614229066, 45.928883834771192 ], [ 5.905386978121007, 45.928714619048037 ], [ 5.904063408501189, 45.92859341797174 ], [ 5.902732533181939, 45.928520564061586 ], [ 5.901398, 45.928496257195789 ], [ 5.900063466818061, 45.928520564061586 ], [ 5.898732591498812, 45.92859341797174 ], [ 5.897409021878993, 45.928714619048037 ], [ 5.896096385770935, 45.928883834771192 ], [ 5.894798281018967, 45.929100600895737 ], [ 5.893518265637985, 45.929364322727331 ], [ 5.892259848061176, 45.929674276758711 ], [ 5.891026477523646, 45.930029612660192 ], [ 5.889821534608308, 45.930429355618656 ], [ 5.888648321979939, 45.930872409018967 ], [ 5.887510055332804, 45.931357557460068 ], [ 5.886409854576661, 45.931883470097475 ], [ 5.885350735285312, 45.932448704303042 ], [ 5.884335600431113, 45.933051709631435 ], [ 5.88336723242814, 45.933690832082817 ], [ 5.882448285505778, 45.934364318649457 ], [ 5.881581278433666, 45.935070322133996 ], [ 5.880768587617924, 45.935806906225793 ], [ 5.880012440587588, 45.936572050821432 ], [ 5.87931490988911, 45.937363657574565 ], [ 5.87867790740565, 45.938179555659815 ], [ 5.878103179116735, 45.939017507734782 ], [ 5.877592300312658, 45.939875216083607 ], [ 5.877146671276711, 45.940750328925247 ], [ 5.876767513447106, 45.941640446869009 ], [ 5.876455866069098, 45.942543129499484 ], [ 5.876212583346487, 45.943455902072841 ], [ 5.876038332100308, 45.944376262306015 ], [ 5.875933589941113, 45.945301687240061 ], [ 5.875898643959878, 45.946229640158847 ], [ 5.875933589941113, 45.947157577544139 ], [ 5.876038332100308, 45.948082956047884 ], [ 5.876212583346487, 45.94900323946267 ], [ 5.876455866069098, 45.949915905671169 ], [ 5.876767513447106, 45.950818453555677 ], [ 5.877146671276711, 45.951708409848656 ], [ 5.877592300312658, 45.952583335905814 ], [ 5.878103179116735, 45.953440834382867 ], [ 5.87867790740565, 45.954278555798197 ], [ 5.87931490988911, 45.955094204963089 ], [ 5.880012440587588, 45.955885547262362 ], [ 5.880768587617924, 45.956650414768063 ], [ 5.881581278433666, 45.957386712169708 ], [ 5.882448285505777, 45.958092422504897 ], [ 5.88336723242814, 45.958765612674803 ], [ 5.884335600431113, 45.95940443872945 ], [ 5.885350735285312, 45.960007150908503 ], [ 5.886409854576661, 45.96057209842391 ], [ 5.887510055332804, 45.9610977339714 ], [ 5.888648321979939, 45.961582617958641 ], [ 5.889821534608308, 45.9620254224386 ], [ 5.891026477523646, 45.962424934737449 ], [ 5.892259848061176, 45.962780060767166 ], [ 5.893518265637985, 45.963089828014063 ], [ 5.894798281018967, 45.963353388194889 ], [ 5.896096385770935, 45.963570019573481 ], [ 5.897409021878993, 45.96373912893177 ], [ 5.898732591498812, 45.963860253189672 ], [ 5.900063466818061, 45.963933060669525 ], [ 5.901398, 45.963957352001835 ], [ 5.902732533181939, 45.963933060669525 ], [ 5.904063408501189, 45.963860253189672 ], [ 5.905386978121007, 45.96373912893177 ], [ 5.906699614229066, 45.963570019573481 ], [ 5.907997718981034, 45.963353388194889 ], [ 5.909277734362016, 45.963089828014063 ], [ 5.910536151938824, 45.962780060767166 ], [ 5.911769522476354, 45.962424934737449 ], [ 5.912974465391692, 45.9620254224386 ], [ 5.914147678020062, 45.961582617958641 ], [ 5.915285944667197, 45.9610977339714 ], [ 5.916386145423339, 45.96057209842391 ], [ 5.917445264714689, 45.960007150908503 ], [ 5.918460399568888, 45.95940443872945 ], [ 5.919428767571861, 45.958765612674803 ], [ 5.920347714494222, 45.958092422504897 ], [ 5.921214721566335, 45.957386712169708 ], [ 5.922027412382077, 45.956650414768063 ], [ 5.922783559412412, 45.955885547262362 ], [ 5.923481090110891, 45.955094204963089 ], [ 5.924118092594351, 45.954278555798197 ], [ 5.924692820883266, 45.953440834382867 ], [ 5.925203699687342, 45.952583335905814 ], [ 5.925649328723289, 45.951708409848656 ], [ 5.926028486552894, 45.950818453555677 ], [ 5.926340133930903, 45.949915905671169 ], [ 5.926583416653513, 45.94900323946267 ], [ 5.926757667899692, 45.948082956047891 ], [ 5.926862410058888, 45.947157577544139 ], [ 5.926897356040121, 45.946229640158847 ] ] ] } },
{ "type": "Feature", "properties": { "name": "Crempigny-Bonneguête", "feature_type": "mrr", "metric_roundness": 48.99, "metric_rectangularity": 71.56, "metric_mobile_fit": 72.37, "metric_aspect_ratio": 0.839, "metric_area_km2": 12.4 }, "geometry": { "type": "Polygon", "coordinates": [ [ [ 5.929278189213046, 45.944810190734557 ], [ 5.908068011398673, 45.928347876043617 ], [ 5.875315780257027, 45.948756601541696 ], [ 5.8965259580714, 45.965212857310959 ], [ 5.929278189213046, 45.944810190734557 ] ] ] } }
]
}
