{
"type": "FeatureCollection",
"name": "crhov",
"crs": { "type": "name", "properties": { "name": "urn:ogc:def:crs:OGC:1.3:CRS84" } },
"features": [
{ "type": "Feature", "properties": { "name": "Crhov", "metric_roundness": 63.83, "metric_rectangularity": 76.24, "metric_mobile_fit": 59.81, "metric_aspect_ratio": 0.964, "metric_area_km2": 8.05 }, "geometry": { "type": "Polygon", "coordinates": [ [ [ 16.4257447, 49.551719599999984 ], [ 16.4229885, 49.548131 ], [ 16.4206844, 49.54082709999998 ], [ 16.4257145, 49.5363305 ], [ 16.4394636, 49.5383989 ], [ 16.4493945, 49.535621499999984 ], [ 16.4489905, 49.5514265 ], [ 16.4459445, 49.554938 ], [ 16.4257447, 49.551719599999984 ] ] ] } }
]
}
