{
"type": "FeatureCollection",
"name": "medovarce",
"crs": { "type": "name", "properties": { "name": "urn:ogc:def:crs:OGC:1.3:CRS84" } },
"features": [
{ "type": "Feature", "properties": { "name": "Medovarce", "feature_type": "entity", "metric_roundness": 67.04, "metric_rectangularity": 67.73, "metric_mobile_fit": 43.91, "metric_aspect_ratio": 1.123, "metric_area_km2": 29.54 }, "geometry": { "type": "Polygon", "coordinates": [ [ [ 19.0089761, 48.2449012 ], [ 19.001835, 48.2550265 ], [ 18.9796563, 48.2387519 ], [ 18.9741585, 48.238055499999987 ], [ 18.970373, 48.232397299999981 ], [ 18.976261, 48.2260735 ], [ 18.9925103, 48.219456399999984 ], [ 19.023972, 48.216185 ], [ 19.0356745, 48.22693049999998 ], [ 19.02371, 48.2341428 ], [ 19.0358864, 48.2400051 ], [ 19.0209675, 48.253504 ], [ 19.0089761, 48.2449012 ] ] ] } },
{ "type": "Feature", "properties": { "name": "Medovarce", "feature_type": "circle", "metric_roundness": 67.04, "metric_rectangularity": 67.73, "metric_mobile_fit": 43.91, "metric_aspect_ratio": 1.123, "metric_area_km2": 29.54 }, "geometry": { "type": "Polygon", "coordinates": [ [ [ 19.037564923024121, 48.234185162264779 ], [ 19.037518807456276, 48.233012113668394 ], [ 19.037380587152313, 48.231842253534367 ], [ 19.037150640964477, 48.2306787886981 ], [ 19.036829599159283, 48.229524908682009 ], [ 19.036418341690005, 48.228383776947283 ], [ 19.035917995784782, 48.227258522214882 ], [ 19.035329932856957, 48.226152229879233 ], [ 19.034655764746145, 48.225067933539016 ], [ 19.033897339300271, 48.22400860666756 ], [ 19.033056735310769, 48.222977154446468 ], [ 19.032136256814741, 48.221976405784751 ], [ 19.031138426779769, 48.221009105545591 ], [ 19.030065980188617, 48.220077907002235 ], [ 19.028921856542841, 48.219185364543982 ], [ 19.027709191805837, 48.218333926652448 ], [ 19.026431309807347, 48.2175259291676 ], [ 19.025091713133115, 48.216763588862264 ], [ 19.02369407352451, 48.216048997343051 ], [ 19.02224222181454, 48.215384115294533 ], [ 19.020740137427829, 48.214770767082811 ], [ 19.019191937473284, 48.21421063573348 ], [ 19.017601865459351, 48.213705258297907 ], [ 19.015974279662906, 48.213256021620978 ], [ 19.014313641183477, 48.212864158521796 ], [ 19.012624501715717, 48.212530744398293 ], [ 19.010911491073486, 48.212256694265037 ], [ 19.009179304499888, 48.212042760232741 ], [ 19.00743268979792, 48.211889529436178 ], [ 19.005676434317071, 48.211797422416652 ], [ 19.003915351831541, 48.211766691963305 ], [ 19.002154269346015, 48.211797422416652 ], [ 19.000398013865166, 48.211889529436178 ], [ 18.998651399163197, 48.212042760232741 ], [ 18.996919212589603, 48.212256694265037 ], [ 18.995206201947369, 48.212530744398293 ], [ 18.993517062479608, 48.212864158521796 ], [ 18.991856424000179, 48.213256021620978 ], [ 18.990228838203731, 48.213705258297907 ], [ 18.988638766189805, 48.21421063573348 ], [ 18.987090566235253, 48.214770767082811 ], [ 18.985588481848549, 48.215384115294533 ], [ 18.984136630138579, 48.216048997343051 ], [ 18.98273899052997, 48.216763588862264 ], [ 18.981399393855739, 48.2175259291676 ], [ 18.980121511857252, 48.218333926652448 ], [ 18.978908847120245, 48.219185364543982 ], [ 18.977764723474468, 48.220077907002235 ], [ 18.97669227688332, 48.221009105545591 ], [ 18.975694446848344, 48.221976405784751 ], [ 18.974773968352316, 48.222977154446468 ], [ 18.973933364362814, 48.22400860666756 ], [ 18.973174938916941, 48.225067933539016 ], [ 18.972500770806128, 48.226152229879233 ], [ 18.971912707878303, 48.227258522214882 ], [ 18.97141236197308, 48.228383776947283 ], [ 18.971001104503806, 48.229524908682009 ], [ 18.970680062698609, 48.2306787886981 ], [ 18.970450116510772, 48.231842253534367 ], [ 18.970311896206805, 48.233012113668394 ], [ 18.970265780638965, 48.234185162264779 ], [ 18.970311896206805, 48.23535818396855 ], [ 18.970450116510772, 48.236527963719304 ], [ 18.970680062698609, 48.237691295562392 ], [ 18.971001104503806, 48.238844991432501 ], [ 18.97141236197308, 48.239985889885922 ], [ 18.971912707878303, 48.241110864757658 ], [ 18.972500770806128, 48.242216833719418 ], [ 18.973174938916941, 48.243300766715521 ], [ 18.973933364362814, 48.244359694253497 ], [ 18.974773968352316, 48.245390715526931 ], [ 18.975694446848344, 48.246391006348354 ], [ 18.97669227688332, 48.24735782687079 ], [ 18.977764723474468, 48.248288529076873 ], [ 18.978908847120245, 48.249180564015255 ], [ 18.980121511857252, 48.25003148876484 ], [ 18.981399393855739, 48.250838973107747 ], [ 18.98273899052997, 48.251600805893233 ], [ 18.984136630138579, 48.252314901075174 ], [ 18.985588481848549, 48.252979303406981 ], [ 18.987090566235253, 48.253592193778438 ], [ 18.988638766189805, 48.25415189418014 ], [ 18.990228838203731, 48.254656872282247 ], [ 18.991856424000179, 48.25510574561509 ], [ 18.993517062479608, 48.255497285340418 ], [ 18.995206201947369, 48.255830419603271 ], [ 18.996919212589603, 48.256104236455251 ], [ 18.998651399163197, 48.256317986341564 ], [ 19.000398013865166, 48.256471084144955 ], [ 19.002154269346015, 48.256563110781237 ], [ 19.003915351831541, 48.256593814341961 ], [ 19.005676434317071, 48.256563110781237 ], [ 19.00743268979792, 48.256471084144955 ], [ 19.009179304499888, 48.256317986341564 ], [ 19.010911491073486, 48.256104236455251 ], [ 19.012624501715717, 48.255830419603271 ], [ 19.014313641183477, 48.255497285340418 ], [ 19.015974279662906, 48.25510574561509 ], [ 19.017601865459351, 48.254656872282247 ], [ 19.019191937473284, 48.25415189418014 ], [ 19.020740137427829, 48.253592193778438 ], [ 19.02224222181454, 48.252979303406981 ], [ 19.02369407352451, 48.252314901075174 ], [ 19.025091713133115, 48.251600805893233 ], [ 19.026431309807347, 48.250838973107747 ], [ 19.027709191805837, 48.25003148876484 ], [ 19.028921856542841, 48.249180564015255 ], [ 19.030065980188617, 48.248288529076873 ], [ 19.031138426779769, 48.24735782687079 ], [ 19.032136256814741, 48.246391006348354 ], [ 19.033056735310769, 48.245390715526931 ], [ 19.033897339300271, 48.244359694253497 ], [ 19.034655764746145, 48.243300766715521 ], [ 19.035329932856957, 48.242216833719418 ], [ 19.035917995784782, 48.241110864757658 ], [ 19.036418341690005, 48.239985889885922 ], [ 19.036829599159283, 48.238844991432501 ], [ 19.037150640964477, 48.237691295562392 ], [ 19.037380587152313, 48.236527963719304 ], [ 19.037518807456276, 48.23535818396855 ], [ 19.037564923024121, 48.234185162264779 ] ] ] } },
{ "type": "Feature", "properties": { "name": "Medovarce", "feature_type": "mrr", "metric_roundness": 67.04, "metric_rectangularity": 67.73, "metric_mobile_fit": 43.91, "metric_aspect_ratio": 1.123, "metric_area_km2": 29.54 }, "geometry": { "type": "Polygon", "coordinates": [ [ [ 18.96633285241511, 48.233255861024801 ], [ 19.011049248615763, 48.260675355693209 ], [ 19.05026495918413, 48.23231464857259 ], [ 19.0055485629731, 48.204879948325782 ], [ 18.96633285241511, 48.233255861024801 ] ] ] } }
]
}
