{
"type": "FeatureCollection",
"name": "mehrnbach",
"crs": { "type": "name", "properties": { "name": "urn:ogc:def:crs:OGC:1.3:CRS84" } },
"features": [
{ "type": "Feature", "properties": { "name": "Mehrnbach", "feature_type": "entity", "metric_roundness": 54.58, "metric_rectangularity": 58.95, "metric_mobile_fit": 64.64, "metric_aspect_ratio": 0.916, "metric_area_km2": 50.22 }, "geometry": { "type": "Polygon", "coordinates": [ [ [ 13.4616648, 48.2244102 ], [ 13.452498, 48.225501 ], [ 13.4421873, 48.2222 ], [ 13.4410614, 48.217758 ], [ 13.434408, 48.2176841 ], [ 13.4293771, 48.2226259 ], [ 13.4331526, 48.230289199999987 ], [ 13.4189801, 48.229737 ], [ 13.4067575, 48.2337225 ], [ 13.3989562, 48.227834199999982 ], [ 13.4017642, 48.218671299999983 ], [ 13.3996699, 48.2127264 ], [ 13.3943572, 48.2072949 ], [ 13.3893635, 48.206805 ], [ 13.4083163, 48.190885899999977 ], [ 13.4016538, 48.1845575 ], [ 13.389839, 48.182783 ], [ 13.4022085, 48.175958499999979 ], [ 13.4098318, 48.1797658 ], [ 13.4215715, 48.175425 ], [ 13.4356916, 48.180915 ], [ 13.4387666, 48.189536899999986 ], [ 13.4470685, 48.1973175 ], [ 13.4609435, 48.201213899999985 ], [ 13.46859, 48.199055 ], [ 13.4687863, 48.2041338 ], [ 13.4639983, 48.211441099999981 ], [ 13.4694975, 48.219081499999987 ], [ 13.4616648, 48.2244102 ] ] ] } },
{ "type": "Feature", "properties": { "name": "Mehrnbach", "feature_type": "circle", "metric_roundness": 54.58, "metric_rectangularity": 58.95, "metric_mobile_fit": 64.64, "metric_aspect_ratio": 0.916, "metric_area_km2": 50.22 }, "geometry": { "type": "Polygon", "coordinates": [ [ [ 13.475020581688387, 48.204082200980814 ], [ 13.474953940289382, 48.202386028024016 ], [ 13.474754198751802, 48.200694448223153 ], [ 13.474421904553322, 48.199012098770147 ], [ 13.473957968489239, 48.197343592008494 ], [ 13.473363662176062, 48.195693502778752 ], [ 13.472640614566084, 48.194066355861814 ], [ 13.471790807482543, 48.192466613554977 ], [ 13.470816570187583, 48.190898663414735 ], [ 13.46972057299792, 48.189366806200418 ], [ 13.468505819965664, 48.187875244051995 ], [ 13.467175640644438, 48.186428068934681 ], [ 13.465733680963305, 48.185029251382737 ], [ 13.464183893233521, 48.183682629573426 ], [ 13.462530525315527, 48.182391898761743 ], [ 13.460778108975864, 48.181160601105333 ], [ 13.458931447465909, 48.179992115907979 ], [ 13.456995602356505, 48.178889650308918 ], [ 13.454975879664532, 48.177856230444043 ], [ 13.452877815309501, 48.176894693103812 ], [ 13.450707159939977, 48.176007677911088 ], [ 13.448469863171443, 48.175197620041047 ], [ 13.446172057278835, 48.174466743503466 ], [ 13.443820040388381, 48.173817055006388 ], [ 13.441420259214894, 48.173250338418285 ], [ 13.438979291391762, 48.172768149844487 ], [ 13.43650382744212, 48.172371813331559 ], [ 13.434000652440584, 48.172062417211905 ], [ 13.431476627415844, 48.171840811098747 ], [ 13.428938670545046, 48.171707603540156 ], [ 13.426393738191562, 48.171663160338468 ], [ 13.423848805838082, 48.171707603540156 ], [ 13.421310848967284, 48.171840811098747 ], [ 13.418786823942543, 48.172062417211905 ], [ 13.416283648941008, 48.172371813331559 ], [ 13.413808184991366, 48.172768149844487 ], [ 13.411367217168234, 48.173250338418285 ], [ 13.408967435994747, 48.173817055006388 ], [ 13.406615419104293, 48.174466743503466 ], [ 13.404317613211685, 48.175197620041047 ], [ 13.402080316443151, 48.176007677911088 ], [ 13.399909661073627, 48.176894693103812 ], [ 13.397811596718595, 48.177856230444043 ], [ 13.395791874026621, 48.178889650308918 ], [ 13.393856028917217, 48.179992115907979 ], [ 13.392009367407262, 48.181160601105333 ], [ 13.390256951067601, 48.182391898761743 ], [ 13.388603583149605, 48.183682629573426 ], [ 13.387053795419822, 48.185029251382737 ], [ 13.385611835738688, 48.186428068934681 ], [ 13.384281656417464, 48.187875244051995 ], [ 13.383066903385206, 48.189366806200418 ], [ 13.381970906195543, 48.190898663414735 ], [ 13.380996668900584, 48.192466613554977 ], [ 13.380146861817044, 48.194066355861814 ], [ 13.379423814207064, 48.195693502778752 ], [ 13.378829507893888, 48.197343592008494 ], [ 13.378365571829805, 48.199012098770147 ], [ 13.378033277631326, 48.200694448223153 ], [ 13.377833536093746, 48.202386028024016 ], [ 13.377766894694739, 48.204082200980814 ], [ 13.377833536093746, 48.205778317771056 ], [ 13.378033277631326, 48.207469729687581 ], [ 13.378365571829805, 48.209151801377871 ], [ 13.378829507893888, 48.210819923541649 ], [ 13.379423814207064, 48.212469525552102 ], [ 13.380146861817044, 48.214096087966396 ], [ 13.380996668900584, 48.215695154891186 ], [ 13.381970906195543, 48.217262346169598 ], [ 13.383066903385206, 48.218793369356547 ], [ 13.384281656417464, 48.220284031449857 ], [ 13.385611835738688, 48.221730250345495 ], [ 13.387053795419822, 48.223128065985783 ], [ 13.388603583149605, 48.224473651170598 ], [ 13.390256951067601, 48.225763322002436 ], [ 13.392009367407262, 48.226993547936992 ], [ 13.393856028917217, 48.228160961412499 ], [ 13.395791874026621, 48.229262367031744 ], [ 13.397811596718595, 48.230294750272172 ], [ 13.399909661073627, 48.231255285700811 ], [ 13.402080316443151, 48.232141344671952 ], [ 13.404317613211685, 48.232950502486979 ], [ 13.406615419104293, 48.233680544997306 ], [ 13.408967435994747, 48.234329474632666 ], [ 13.411367217168234, 48.234895515838815 ], [ 13.413808184991366, 48.235377119910069 ], [ 13.416283648941008, 48.235772969203786 ], [ 13.418786823942543, 48.236081980725643 ], [ 13.421310848967284, 48.236303309076128 ], [ 13.423848805838082, 48.236436348750424 ], [ 13.426393738191562, 48.236480735785555 ], [ 13.428938670545046, 48.236436348750424 ], [ 13.431476627415844, 48.236303309076128 ], [ 13.434000652440584, 48.236081980725643 ], [ 13.43650382744212, 48.235772969203786 ], [ 13.438979291391762, 48.235377119910069 ], [ 13.441420259214894, 48.234895515838815 ], [ 13.443820040388381, 48.234329474632666 ], [ 13.446172057278835, 48.233680544997306 ], [ 13.448469863171443, 48.232950502486979 ], [ 13.450707159939977, 48.232141344671952 ], [ 13.452877815309501, 48.231255285700811 ], [ 13.454975879664532, 48.230294750272172 ], [ 13.456995602356505, 48.229262367031744 ], [ 13.458931447465909, 48.228160961412499 ], [ 13.460778108975864, 48.226993547936992 ], [ 13.462530525315527, 48.225763322002436 ], [ 13.464183893233521, 48.224473651170598 ], [ 13.465733680963305, 48.223128065985783 ], [ 13.467175640644438, 48.221730250345495 ], [ 13.468505819965664, 48.220284031449857 ], [ 13.46972057299792, 48.218793369356547 ], [ 13.470816570187583, 48.217262346169598 ], [ 13.471790807482543, 48.215695154891186 ], [ 13.472640614566084, 48.214096087966396 ], [ 13.473363662176062, 48.212469525552102 ], [ 13.473957968489239, 48.210819923541649 ], [ 13.474421904553322, 48.209151801377871 ], [ 13.474754198751802, 48.207469729687581 ], [ 13.474953940289382, 48.205778317771056 ], [ 13.475020581688387, 48.204082200980814 ] ] ] } },
{ "type": "Feature", "properties": { "name": "Mehrnbach", "feature_type": "mrr", "metric_roundness": 54.58, "metric_rectangularity": 58.95, "metric_mobile_fit": 64.64, "metric_aspect_ratio": 0.916, "metric_area_km2": 50.22 }, "geometry": { "type": "Polygon", "coordinates": [ [ [ 13.397601656387369, 48.234913379304182 ], [ 13.476105355288352, 48.224701698847028 ], [ 13.459635418458237, 48.168480064559333 ], [ 13.381131719557253, 48.178702957748072 ], [ 13.397601656387369, 48.234913379304182 ] ] ] } }
]
}
