{
"type": "FeatureCollection",
"name": "meladeia",
"crs": { "type": "name", "properties": { "name": "urn:ogc:def:crs:OGC:1.3:CRS84" } },
"features": [
{ "type": "Feature", "properties": { "name": "Μελάδεια", "metric_roundness": 28.74, "metric_rectangularity": 47.36, "metric_mobile_fit": 90.75, "metric_aspect_ratio": 0.655, "metric_area_km2": 5.07 }, "geometry": { "type": "Polygon", "coordinates": [ [ [ 32.5036574, 34.9933446 ], [ 32.5004361, 35.004939199999988 ], [ 32.4976045, 35.006741 ], [ 32.4969975, 34.9881455 ], [ 32.4918765, 34.9808945 ], [ 32.49417, 34.979223 ], [ 32.5000714, 34.9803259 ], [ 32.516045, 34.975488 ], [ 32.516191, 34.9753675 ], [ 32.5146521, 34.9819095 ], [ 32.516962, 34.9884845 ], [ 32.5036574, 34.9933446 ] ] ] } }
]
}
