{
"type": "FeatureCollection",
"name": "meldola",
"crs": { "type": "name", "properties": { "name": "urn:ogc:def:crs:OGC:1.3:CRS84" } },
"features": [
{ "type": "Feature", "properties": { "name": "Meldola", "feature_type": "entity", "metric_roundness": 54.66, "metric_rectangularity": 65.26, "metric_mobile_fit": 71.22, "metric_aspect_ratio": 0.85, "metric_area_km2": 153.49 }, "geometry": { "type": "Polygon", "coordinates": [ [ [ 12.049665, 44.1503046 ], [ 12.0317675, 44.1389656 ], [ 12.0176259, 44.136278 ], [ 12.0105389, 44.1277075 ], [ 12.000297, 44.126877499999985 ], [ 11.9997281, 44.124212699999987 ], [ 11.9984804, 44.1183677 ], [ 12.0119456, 44.1078785 ], [ 11.996595, 44.0827955 ], [ 11.9983146, 44.078497399999989 ], [ 12.0063543, 44.0737817 ], [ 12.0233665, 44.071141 ], [ 12.0263695, 44.0653607 ], [ 12.0440596, 44.0615239 ], [ 12.0524615, 44.0608672 ], [ 12.06114, 44.0691544 ], [ 12.082767, 44.0675888 ], [ 12.089608, 44.0703358 ], [ 12.0884809, 44.0550224 ], [ 12.0937388, 44.0370201 ], [ 12.0995845, 44.0342335 ], [ 12.1082048, 44.0367959 ], [ 12.1200247, 44.0529588 ], [ 12.1163913, 44.0619877 ], [ 12.1216121, 44.068103300000011 ], [ 12.1296166, 44.070900599999987 ], [ 12.1340147, 44.0776696 ], [ 12.1281335, 44.088874499999989 ], [ 12.119628, 44.096654399999984 ], [ 12.119502, 44.102865499999986 ], [ 12.1025481, 44.106804499999981 ], [ 12.0999612, 44.1104569 ], [ 12.1040128, 44.1143097 ], [ 12.1027888, 44.1213544 ], [ 12.1040496, 44.124212699999987 ], [ 12.1059076, 44.1284248 ], [ 12.097566, 44.1286208 ], [ 12.0861963, 44.1335356 ], [ 12.0846399, 44.136278 ], [ 12.0806585, 44.1432935 ], [ 12.049665, 44.1503046 ] ] ] } },
{ "type": "Feature", "properties": { "name": "Meldola", "feature_type": "circle", "metric_roundness": 54.66, "metric_rectangularity": 65.26, "metric_mobile_fit": 71.22, "metric_aspect_ratio": 0.85, "metric_area_km2": 153.49 }, "geometry": { "type": "Polygon", "coordinates": [ [ [ 12.15384495514982, 44.090907620670443 ], [ 12.153728539520948, 44.08771444540448 ], [ 12.153379611721475, 44.084529850727336 ], [ 12.152799128138248, 44.081362567508855 ], [ 12.151988679836423, 44.078221280554658 ], [ 12.150950488198458, 44.075114604763264 ], [ 12.149687398835468, 44.072051061460215 ], [ 12.148202873787602, 44.06903905497429 ], [ 12.146500982034828, 44.066086849521128 ], [ 12.144586388344145, 44.063202546458257 ], [ 12.142464340483775, 44.060394061975103 ], [ 12.140140654839403, 44.057669105279921 ], [ 12.137621700471861, 44.055035157345166 ], [ 12.134914381659984, 44.052499450270531 ], [ 12.132026118976444, 44.050068947321883 ], [ 12.128964828948504, 44.047750323702289 ], [ 12.125738902359341, 44.045549948109269 ], [ 12.122357181249503, 44.043473865130686 ], [ 12.118828934681494, 44.041527778528888 ], [ 12.115163833333906, 44.039717035460647 ], [ 12.111371922994781, 44.038046611677906 ], [ 12.107463597026781, 44.036521097751098 ], [ 12.103449567879723, 44.035144686354712 ], [ 12.099340837728489, 44.033921160651126 ], [ 12.095148668316822, 44.032853883806034 ], [ 12.090884550089694, 44.031945789665457 ], [ 12.086560170698764, 44.031199374620954 ], [ 12.082187382967362, 44.030616690686529 ], [ 12.077778172402711, 44.030199339806821 ], [ 12.073344624344484, 44.029948469413242 ], [ 12.068898890839742, 44.029864769240575 ], [ 12.064453157335, 44.029948469413242 ], [ 12.060019609276774, 44.030199339806821 ], [ 12.055610398712121, 44.030616690686529 ], [ 12.051237610980721, 44.031199374620954 ], [ 12.046913231589791, 44.031945789665457 ], [ 12.042649113362662, 44.032853883806034 ], [ 12.038456943950997, 44.033921160651126 ], [ 12.034348213799761, 44.035144686354712 ], [ 12.030334184652704, 44.036521097751098 ], [ 12.026425858684703, 44.038046611677906 ], [ 12.022633948345579, 44.039717035460647 ], [ 12.018968846997991, 44.041527778528888 ], [ 12.015440600429981, 44.043473865130686 ], [ 12.012058879320143, 44.045549948109269 ], [ 12.008832952730979, 44.047750323702289 ], [ 12.00577166270304, 44.050068947321883 ], [ 12.002883400019503, 44.052499450270531 ], [ 12.000176081207622, 44.055035157345166 ], [ 11.997657126840082, 44.057669105279921 ], [ 11.99533344119571, 44.060394061975103 ], [ 11.993211393335338, 44.063202546458257 ], [ 11.991296799644656, 44.066086849521128 ], [ 11.989594907891883, 44.06903905497429 ], [ 11.988110382844017, 44.072051061460215 ], [ 11.986847293481025, 44.075114604763264 ], [ 11.985809101843062, 44.078221280554651 ], [ 11.984998653541235, 44.081362567508855 ], [ 11.98441816995801, 44.084529850727336 ], [ 11.984069242158537, 44.08771444540448 ], [ 11.983952826529665, 44.090907620670443 ], [ 11.984069242158537, 44.094100623545025 ], [ 11.98441816995801, 44.097284702936818 ], [ 11.984998653541235, 44.100451133621554 ], [ 11.985809101843062, 44.103591240134158 ], [ 11.986847293481025, 44.106696420509273 ], [ 11.988110382844017, 44.109758169805481 ], [ 11.989594907891881, 44.112768103349559 ], [ 11.991296799644656, 44.115717979637438 ], [ 11.993211393335338, 44.118599722830439 ], [ 11.99533344119571, 44.121405444785637 ], [ 11.997657126840082, 44.124127466561632 ], [ 12.000176081207622, 44.126758339341571 ], [ 12.002883400019503, 44.129290864717802 ], [ 12.00577166270304, 44.131718114283835 ], [ 12.008832952730979, 44.134033448481347 ], [ 12.012058879320143, 44.136230534652412 ], [ 12.015440600429981, 44.138303364248763 ], [ 12.018968846997991, 44.140246269152797 ], [ 12.022633948345579, 44.142053937067061 ], [ 12.026425858684703, 44.143721425931631 ], [ 12.030334184652704, 44.145244177331641 ], [ 12.034348213799761, 44.146618028859393 ], [ 12.038456943950997, 44.147839225398961 ], [ 12.042649113362662, 44.148904429303428 ], [ 12.046913231589791, 44.149810729438329 ], [ 12.051237610980721, 44.150555649067577 ], [ 12.055610398712121, 44.151137152561255 ], [ 12.060019609276774, 44.15155365090785 ], [ 12.064453157335, 44.151804006016462 ], [ 12.068898890839742, 44.151887533797897 ], [ 12.073344624344484, 44.151804006016462 ], [ 12.077778172402711, 44.15155365090785 ], [ 12.082187382967362, 44.151137152561255 ], [ 12.086560170698764, 44.150555649067577 ], [ 12.090884550089692, 44.149810729438329 ], [ 12.095148668316822, 44.148904429303428 ], [ 12.099340837728489, 44.147839225398961 ], [ 12.103449567879723, 44.146618028859393 ], [ 12.107463597026781, 44.145244177331641 ], [ 12.111371922994781, 44.143721425931631 ], [ 12.115163833333906, 44.142053937067061 ], [ 12.118828934681494, 44.140246269152797 ], [ 12.122357181249503, 44.138303364248763 ], [ 12.125738902359341, 44.136230534652412 ], [ 12.128964828948504, 44.134033448481347 ], [ 12.132026118976444, 44.131718114283835 ], [ 12.134914381659984, 44.129290864717802 ], [ 12.137621700471861, 44.126758339341571 ], [ 12.140140654839403, 44.124127466561632 ], [ 12.142464340483775, 44.121405444785637 ], [ 12.144586388344145, 44.118599722830439 ], [ 12.146500982034828, 44.115717979637438 ], [ 12.148202873787602, 44.112768103349559 ], [ 12.149687398835468, 44.109758169805481 ], [ 12.150950488198458, 44.106696420509273 ], [ 12.151988679836423, 44.103591240134165 ], [ 12.152799128138248, 44.100451133621554 ], [ 12.153379611721475, 44.097284702936818 ], [ 12.153728539520948, 44.094100623545025 ], [ 12.15384495514982, 44.090907620670443 ] ] ] } },
{ "type": "Feature", "properties": { "name": "Meldola", "feature_type": "mrr", "metric_roundness": 54.66, "metric_rectangularity": 65.26, "metric_mobile_fit": 71.22, "metric_aspect_ratio": 0.85, "metric_area_km2": 153.49 }, "geometry": { "type": "Polygon", "coordinates": [ [ [ 12.104417303002245, 44.032182703693685 ], [ 11.969496822910575, 44.089409333142001 ], [ 12.031072774313389, 44.164292260197932 ], [ 12.165993254405059, 44.107138094533504 ], [ 12.104417303002245, 44.032182703693685 ] ] ] } }
]
}
