{
"type": "FeatureCollection",
"name": "melle",
"crs": { "type": "name", "properties": { "name": "urn:ogc:def:crs:OGC:1.3:CRS84" } },
"features": [
{ "type": "Feature", "properties": { "name": "Melle", "metric_roundness": 40.88, "metric_rectangularity": 62.08, "metric_mobile_fit": 78.8, "metric_aspect_ratio": 0.774, "metric_area_km2": 39.18 }, "geometry": { "type": "Polygon", "coordinates": [ [ [ 3.768633, 51.0252347 ], [ 3.7629905, 51.018501499999985 ], [ 3.7784081, 51.005395099999987 ], [ 3.772718, 50.9970914 ], [ 3.7728822, 50.9908297 ], [ 3.7770713, 50.9884342 ], [ 3.780241, 50.981495199999983 ], [ 3.790866, 50.9750975 ], [ 3.7992903, 50.976846499999986 ], [ 3.8080012, 50.9724346 ], [ 3.8270995, 50.974766 ], [ 3.8271323, 50.981198899999981 ], [ 3.8349115, 50.984968699999989 ], [ 3.8290955, 50.993751499999988 ], [ 3.8177705, 50.999431499999986 ], [ 3.809054, 51.002144 ], [ 3.7963265, 51.010200499999989 ], [ 3.793916, 51.013054 ], [ 3.7911605, 51.0181655 ], [ 3.788103, 51.021015 ], [ 3.788815, 51.024563 ], [ 3.7872935, 51.027706 ], [ 3.788882, 51.0308725 ], [ 3.768633, 51.0252347 ] ] ] } }
]
}
