{
"type": "FeatureCollection",
"name": "menchhoffen",
"crs": { "type": "name", "properties": { "name": "urn:ogc:def:crs:OGC:1.3:CRS84" } },
"features": [
{ "type": "Feature", "properties": { "name": "Menchhoffen", "metric_roundness": 55.73, "metric_rectangularity": 67.29, "metric_mobile_fit": 83.1, "metric_aspect_ratio": 0.732, "metric_area_km2": 9.45 }, "geometry": { "type": "Polygon", "coordinates": [ [ [ 7.4895807, 48.8721029 ], [ 7.483299, 48.862167 ], [ 7.4845135, 48.856156 ], [ 7.504341, 48.851699 ], [ 7.5114615, 48.856357 ], [ 7.5130746, 48.859897499999981 ], [ 7.5056786, 48.871940399999986 ], [ 7.5054165, 48.878474499999989 ], [ 7.4895807, 48.8721029 ] ] ] } }
]
}
