{
"type": "FeatureCollection",
"name": "menetreol_sous_sancerre",
"crs": { "type": "name", "properties": { "name": "urn:ogc:def:crs:OGC:1.3:CRS84" } },
"features": [
{ "type": "Feature", "properties": { "name": "Ménétréol-sous-Sancerre", "metric_roundness": 36.09, "metric_rectangularity": 52.59, "metric_mobile_fit": -16.93, "metric_aspect_ratio": 1.732, "metric_area_km2": 11.52 }, "geometry": { "type": "Polygon", "coordinates": [ [ [ 2.8775623, 47.3122495 ], [ 2.8946981, 47.3085587 ], [ 2.899454, 47.312741 ], [ 2.8848765, 47.316364 ], [ 2.876565, 47.3218685 ], [ 2.873695, 47.329100499999988 ], [ 2.8632605, 47.330948 ], [ 2.8593134, 47.3255865 ], [ 2.8464249, 47.324035799999983 ], [ 2.8422576, 47.314735299999988 ], [ 2.8454705, 47.3107875 ], [ 2.8775623, 47.3122495 ] ] ] } }
]
}
