{
"type": "FeatureCollection",
"name": "meniko",
"crs": { "type": "name", "properties": { "name": "urn:ogc:def:crs:OGC:1.3:CRS84" } },
"features": [
{ "type": "Feature", "properties": { "name": "Μένικο", "metric_roundness": 60.25, "metric_rectangularity": 68.44, "metric_mobile_fit": 53.3, "metric_aspect_ratio": 1.029, "metric_area_km2": 34.59 }, "geometry": { "type": "Polygon", "coordinates": [ [ [ 33.1073722, 35.096779 ], [ 33.11145, 35.0941875 ], [ 33.1070535, 35.08926 ], [ 33.1119045, 35.082546 ], [ 33.1189768, 35.0812143 ], [ 33.1240585, 35.075886 ], [ 33.1338444, 35.0824025 ], [ 33.1457375, 35.082584 ], [ 33.1582023, 35.075802 ], [ 33.1760925, 35.091294499999989 ], [ 33.1774021, 35.092772 ], [ 33.1689937, 35.102569699999989 ], [ 33.1663915, 35.1187022 ], [ 33.1566645, 35.1317065 ], [ 33.1474268, 35.1219536 ], [ 33.1222582, 35.1115535 ], [ 33.117596399999989, 35.1071847 ], [ 33.1112705, 35.1072455 ], [ 33.1073722, 35.096779 ] ] ] } }
]
}
