{
"type": "FeatureCollection",
"name": "menogeia",
"crs": { "type": "name", "properties": { "name": "urn:ogc:def:crs:OGC:1.3:CRS84" } },
"features": [
{ "type": "Feature", "properties": { "name": "Μενόγεια", "metric_roundness": 45.61, "metric_rectangularity": 74.87, "metric_mobile_fit": 93.02, "metric_aspect_ratio": 0.632, "metric_area_km2": 11.19 }, "geometry": { "type": "Polygon", "coordinates": [ [ [ 33.425547, 34.8463542 ], [ 33.4256486, 34.8370333 ], [ 33.4364275, 34.8246385 ], [ 33.446301, 34.832274 ], [ 33.4482703, 34.845429 ], [ 33.4431984, 34.851552399999981 ], [ 33.4437956, 34.8584332 ], [ 33.433316499999989, 34.865185 ], [ 33.417033, 34.862004 ], [ 33.425547, 34.8463542 ] ] ] } }
]
}
