{
"type": "FeatureCollection",
"name": "menslage",
"crs": { "type": "name", "properties": { "name": "urn:ogc:def:crs:OGC:1.3:CRS84" } },
"features": [
{ "type": "Feature", "properties": { "name": "Menslage", "feature_type": "entity", "metric_roundness": 33.92, "metric_rectangularity": 57.56, "metric_mobile_fit": -22.66, "metric_aspect_ratio": 1.789, "metric_area_km2": 178.72 }, "geometry": { "type": "Polygon", "coordinates": [ [ [ 7.9083064, 52.683772199999986 ], [ 7.9047941, 52.6895605 ], [ 7.9027275, 52.690686199999988 ], [ 7.8885269, 52.698421499999981 ], [ 7.855138, 52.709339 ], [ 7.80316, 52.700065099999989 ], [ 7.7976997, 52.696999 ], [ 7.7969643, 52.6928796 ], [ 7.792178, 52.691996899999985 ], [ 7.7934592, 52.690686199999988 ], [ 7.7925923, 52.687540899999988 ], [ 7.7794762, 52.6859891 ], [ 7.7639018, 52.6779571 ], [ 7.689615, 52.67892 ], [ 7.6946475, 52.663128499999985 ], [ 7.6986184, 52.6583118 ], [ 7.7303293, 52.65867429999998 ], [ 7.7357188, 52.654069799999988 ], [ 7.7879589, 52.649891 ], [ 7.7977673, 52.646131399999987 ], [ 7.8009408, 52.6382608 ], [ 7.809597, 52.63048 ], [ 7.8117605, 52.630895 ], [ 7.8213371, 52.6367434 ], [ 7.8355265, 52.6349555 ], [ 7.8530704, 52.6402914 ], [ 7.8669115, 52.648248499999987 ], [ 7.8715819, 52.6677214 ], [ 7.9038455, 52.669916 ], [ 7.9222713, 52.675252 ], [ 7.918008, 52.6798905 ], [ 7.9083064, 52.683772199999986 ] ] ] } },
{ "type": "Feature", "properties": { "name": "Menslage", "feature_type": "circle", "metric_roundness": 33.92, "metric_rectangularity": 57.56, "metric_mobile_fit": -22.66, "metric_aspect_ratio": 1.789, "metric_area_km2": 178.72 }, "geometry": { "type": "Polygon", "coordinates": [ [ [ 7.922310621133706, 52.6770860384988 ], [ 7.922151143558819, 52.673393352961341 ], [ 7.921673147951108, 52.6697104779659 ], [ 7.920877944463303, 52.666047511838336 ], [ 7.919767712692895, 52.662414500844413 ], [ 7.918345495707995, 52.658821411584384 ], [ 7.916615191706499, 52.655278103579356 ], [ 7.914581543331406, 52.651794302125332 ], [ 7.912250124671554, 52.648379571490857 ], [ 7.909627325983434, 52.645043288533252 ], [ 7.906720336175941, 52.641794616807672 ], [ 7.903537123106077, 52.638642481241803 ], [ 7.900086411739604, 52.635595543448296 ], [ 7.89637766023652, 52.632662177744635 ], [ 7.892421034026904, 52.629850447949167 ], [ 7.888227377948172, 52.627168085019264 ], [ 7.883808186520143, 52.62462246559619 ], [ 7.879175572439345, 52.622220591517944 ], [ 7.874342233378963, 52.619969070359524 ], [ 7.869321417185399, 52.617874097056692 ], [ 7.864126885566853, 52.615941436666567 ], [ 7.858772876373418, 52.61417640831516 ], [ 7.853274064572143, 52.612583870378643 ], [ 7.847645522023957, 52.611168206941493 ], [ 7.841902676172752, 52.609933315571148 ], [ 7.83606126775982, 52.608882596445071 ], [ 7.830137307679594, 52.608018942861904 ], [ 7.824147033094887, 52.607344733164744 ], [ 7.818106862931948, 52.606861824100342 ], [ 7.812033352877354, 52.606571545633415 ], [ 7.80594315, 52.606474697231874 ], [ 7.799852947122645, 52.606571545633415 ], [ 7.793779437068049, 52.606861824100342 ], [ 7.787739266905113, 52.607344733164744 ], [ 7.781748992320403, 52.608018942861904 ], [ 7.77582503224018, 52.608882596445071 ], [ 7.769983623827247, 52.609933315571148 ], [ 7.764240777976041, 52.611168206941493 ], [ 7.758612235427854, 52.612583870378643 ], [ 7.753113423626581, 52.61417640831516 ], [ 7.747759414433147, 52.615941436666567 ], [ 7.7425648828146, 52.617874097056692 ], [ 7.737544066621036, 52.619969070359524 ], [ 7.732710727560655, 52.622220591517944 ], [ 7.728078113479857, 52.62462246559619 ], [ 7.723658922051825, 52.627168085019264 ], [ 7.719465265973096, 52.629850447949167 ], [ 7.715508639763479, 52.632662177744635 ], [ 7.711799888260395, 52.635595543448296 ], [ 7.70834917689392, 52.638642481241803 ], [ 7.705165963824058, 52.641794616807672 ], [ 7.702258974016566, 52.645043288533252 ], [ 7.699636175328445, 52.648379571490857 ], [ 7.697304756668593, 52.651794302125332 ], [ 7.6952711082935, 52.655278103579356 ], [ 7.693540804292004, 52.658821411584384 ], [ 7.692118587307105, 52.662414500844413 ], [ 7.691008355536696, 52.666047511838336 ], [ 7.690213152048893, 52.6697104779659 ], [ 7.689735156441181, 52.673393352961341 ], [ 7.689575678866294, 52.6770860384988 ], [ 7.689735156441181, 52.680778411912769 ], [ 7.690213152048893, 52.684460353957483 ], [ 7.691008355536696, 52.688121776528654 ], [ 7.692118587307105, 52.691752650272107 ], [ 7.693540804292004, 52.695343032003748 ], [ 7.6952711082935, 52.698883091866762 ], [ 7.697304756668593, 52.702363140152521 ], [ 7.699636175328445, 52.705773653712988 ], [ 7.702258974016566, 52.709105301894034 ], [ 7.705165963824057, 52.712348971920157 ], [ 7.70834917689392, 52.715495793663337 ], [ 7.711799888260395, 52.718537163730311 ], [ 7.715508639763479, 52.721464768804822 ], [ 7.719465265973096, 52.72427060818319 ], [ 7.723658922051825, 52.726947015444694 ], [ 7.728078113479857, 52.729486679199631 ], [ 7.732710727560655, 52.731882662861537 ], [ 7.737544066621036, 52.734128423392029 ], [ 7.7425648828146, 52.736217828969991 ], [ 7.747759414433147, 52.738145175539429 ], [ 7.753113423626581, 52.739905202193619 ], [ 7.758612235427854, 52.741493105356 ], [ 7.764240777976041, 52.742904551721615 ], [ 7.769983623827247, 52.74413568992609 ], [ 7.775825032240178, 52.745183160912418 ], [ 7.781748992320403, 52.746044106969208 ], [ 7.787739266905113, 52.746716179417533 ], [ 7.793779437068049, 52.747197544926799 ], [ 7.799852947122645, 52.747486890443739 ], [ 7.80594315, 52.747583426722059 ], [ 7.812033352877354, 52.747486890443739 ], [ 7.818106862931948, 52.747197544926799 ], [ 7.824147033094887, 52.746716179417533 ], [ 7.830137307679594, 52.746044106969208 ], [ 7.83606126775982, 52.745183160912418 ], [ 7.841902676172752, 52.74413568992609 ], [ 7.847645522023957, 52.742904551721615 ], [ 7.853274064572143, 52.741493105356 ], [ 7.858772876373418, 52.739905202193619 ], [ 7.864126885566853, 52.738145175539429 ], [ 7.869321417185399, 52.736217828969991 ], [ 7.874342233378963, 52.734128423392029 ], [ 7.879175572439345, 52.731882662861537 ], [ 7.883808186520143, 52.729486679199631 ], [ 7.888227377948172, 52.726947015444694 ], [ 7.892421034026904, 52.72427060818319 ], [ 7.89637766023652, 52.721464768804822 ], [ 7.900086411739604, 52.718537163730311 ], [ 7.903537123106077, 52.715495793663337 ], [ 7.906720336175941, 52.712348971920157 ], [ 7.909627325983434, 52.709105301894034 ], [ 7.912250124671552, 52.705773653712988 ], [ 7.914581543331406, 52.702363140152521 ], [ 7.916615191706499, 52.698883091866762 ], [ 7.918345495707995, 52.695343032003748 ], [ 7.919767712692895, 52.691752650272107 ], [ 7.920877944463303, 52.688121776528654 ], [ 7.921673147951108, 52.684460353957483 ], [ 7.922151143558819, 52.680778411912769 ], [ 7.922310621133706, 52.6770860384988 ] ] ] } },
{ "type": "Feature", "properties": { "name": "Menslage", "feature_type": "mrr", "metric_roundness": 33.92, "metric_rectangularity": 57.56, "metric_mobile_fit": -22.66, "metric_aspect_ratio": 1.789, "metric_area_km2": 178.72 }, "geometry": { "type": "Polygon", "coordinates": [ [ [ 7.686902549200442, 52.678414746275514 ], [ 7.9005057151804, 52.718185312288689 ], [ 7.933438349882145, 52.653208251045214 ], [ 7.719835183902187, 52.613378482011811 ], [ 7.686902549200442, 52.678414746275514 ] ] ] } }
]
}
