{
"type": "FeatureCollection",
"name": "mercatino_conca",
"crs": { "type": "name", "properties": { "name": "urn:ogc:def:crs:OGC:1.3:CRS84" } },
"features": [
{ "type": "Feature", "properties": { "name": "Mercatino Conca", "feature_type": "entity", "metric_roundness": 34.35, "metric_rectangularity": 53.88, "metric_mobile_fit": -6.34, "metric_aspect_ratio": 1.626, "metric_area_km2": 26.89 }, "geometry": { "type": "Polygon", "coordinates": [ [ [ 12.4835933, 43.869245099999986 ], [ 12.4894002, 43.857539 ], [ 12.4877835, 43.849784 ], [ 12.51091, 43.846237 ], [ 12.5259895, 43.8569496 ], [ 12.5501122, 43.8530615 ], [ 12.5593895, 43.8474295 ], [ 12.5653475, 43.847734 ], [ 12.5614788, 43.8515711 ], [ 12.562749, 43.859654 ], [ 12.5519907, 43.8625404 ], [ 12.551101, 43.866364 ], [ 12.5413548, 43.8646682 ], [ 12.5341415, 43.8705535 ], [ 12.5206122, 43.8746037 ], [ 12.5165908, 43.88034649999998 ], [ 12.4994433, 43.874452399999981 ], [ 12.489693, 43.88249 ], [ 12.4835933, 43.869245099999986 ] ] ] } },
{ "type": "Feature", "properties": { "name": "Mercatino Conca", "feature_type": "circle", "metric_roundness": 34.35, "metric_rectangularity": 53.88, "metric_mobile_fit": -6.34, "metric_aspect_ratio": 1.626, "metric_area_km2": 26.89 }, "geometry": { "type": "Polygon", "coordinates": [ [ [ 12.572243893263414, 43.864966290891211 ], [ 12.57218242151032, 43.863273769825362 ], [ 12.571998174740841, 43.861585839986461 ], [ 12.571691657962566, 43.859907128462972 ], [ 12.571263711316677, 43.858242237462711 ], [ 12.570715507775184, 43.856595731687889 ], [ 12.570048549925888, 43.854972125808686 ], [ 12.569264665853897, 43.853375872070146 ], [ 12.568366004130965, 43.851811348066349 ], [ 12.567355027926411, 43.850282844715757 ], [ 12.566234508255732, 43.848794554470807 ], [ 12.565007516385467, 43.847350559794698 ], [ 12.563677415415043, 43.845954821936871 ], [ 12.562247851058762, 43.844611170038746 ], [ 12.560722741653162, 43.843323290599734 ], [ 12.559106267417112, 43.842094717332863 ], [ 12.557402858994136, 43.840928821438325 ], [ 12.555617185308316, 43.839828802321961 ], [ 12.553754140767104, 43.83879767878468 ], [ 12.551818831846086, 43.837838280707302 ], [ 12.549816563092502, 43.836953241254179 ], [ 12.547752822585823, 43.836144989617225 ], [ 12.545633266895328, 43.835415744320947 ], [ 12.54346370557584, 43.834767507106896 ], [ 12.54125008524413, 43.834202057414977 ], [ 12.538998473279658, 43.83372094747687 ], [ 12.536715041194315, 43.833325498035485 ], [ 12.534406047716725, 43.833016794702409 ], [ 12.532077821637513, 43.832795684963557 ], [ 12.529736744462532, 43.832662775841428 ], [ 12.527389232921589, 43.832618432220677 ], [ 12.525041721380648, 43.832662775841428 ], [ 12.522700644205667, 43.832795684963557 ], [ 12.520372418126454, 43.833016794702409 ], [ 12.518063424648865, 43.833325498035485 ], [ 12.515779992563521, 43.83372094747687 ], [ 12.51352838059905, 43.834202057414977 ], [ 12.511314760267339, 43.834767507106896 ], [ 12.509145198947852, 43.835415744320947 ], [ 12.507025643257355, 43.836144989617225 ], [ 12.504961902750678, 43.836953241254179 ], [ 12.502959633997092, 43.837838280707302 ], [ 12.501024325076076, 43.83879767878468 ], [ 12.499161280534864, 43.839828802321961 ], [ 12.497375606849044, 43.840928821438325 ], [ 12.495672198426067, 43.842094717332863 ], [ 12.494055724190018, 43.843323290599734 ], [ 12.492530614784418, 43.844611170038746 ], [ 12.491101050428137, 43.845954821936871 ], [ 12.489770949457712, 43.847350559794698 ], [ 12.488543957587448, 43.848794554470807 ], [ 12.487423437916771, 43.850282844715757 ], [ 12.486412461712213, 43.851811348066349 ], [ 12.485513799989283, 43.853375872070146 ], [ 12.484729915917292, 43.854972125808686 ], [ 12.484062958067996, 43.856595731687889 ], [ 12.483514754526503, 43.858242237462711 ], [ 12.483086807880612, 43.859907128462972 ], [ 12.482780291102337, 43.861585839986461 ], [ 12.482596044332858, 43.863273769825362 ], [ 12.482534572579766, 43.864966290891211 ], [ 12.482596044332858, 43.866658763903907 ], [ 12.482780291102337, 43.868346550109827 ], [ 12.483086807880612, 43.870025023994195 ], [ 12.483514754526503, 43.871689585952801 ], [ 12.484062958067996, 43.873335674888487 ], [ 12.484729915917292, 43.874958780698059 ], [ 12.485513799989283, 43.876554456615338 ], [ 12.486412461712213, 43.878118331376974 ], [ 12.487423437916771, 43.879646121177757 ], [ 12.488543957587448, 43.881133641383023 ], [ 12.489770949457712, 43.882576817966317 ], [ 12.491101050428137, 43.883971698641389 ], [ 12.492530614784418, 43.885314463658268 ], [ 12.494055724190018, 43.886601436234429 ], [ 12.495672198426067, 43.887829092592618 ], [ 12.497375606849044, 43.888994071578487 ], [ 12.499161280534864, 43.890093183832029 ], [ 12.501024325076076, 43.891123420488128 ], [ 12.502959633997092, 43.892081961382807 ], [ 12.504961902750678, 43.892966182743194 ], [ 12.507025643257355, 43.89377366434055 ], [ 12.509145198947852, 43.89450219608711 ], [ 12.511314760267339, 43.895149784059107 ], [ 12.51352838059905, 43.895714655929865 ], [ 12.515779992563521, 43.89619526579844 ], [ 12.518063424648865, 43.896590298400767 ], [ 12.520372418126454, 43.896898672692252 ], [ 12.522700644205667, 43.897119544792027 ], [ 12.525041721380648, 43.897252310281203 ], [ 12.527389232921589, 43.897296605848815 ], [ 12.529736744462532, 43.897252310281203 ], [ 12.532077821637513, 43.897119544792027 ], [ 12.534406047716725, 43.896898672692252 ], [ 12.536715041194315, 43.896590298400767 ], [ 12.538998473279658, 43.89619526579844 ], [ 12.54125008524413, 43.895714655929865 ], [ 12.54346370557584, 43.895149784059107 ], [ 12.545633266895328, 43.89450219608711 ], [ 12.547752822585823, 43.89377366434055 ], [ 12.549816563092502, 43.892966182743194 ], [ 12.551818831846086, 43.892081961382807 ], [ 12.553754140767104, 43.891123420488128 ], [ 12.555617185308316, 43.890093183832029 ], [ 12.557402858994136, 43.888994071578487 ], [ 12.559106267417112, 43.887829092592618 ], [ 12.560722741653162, 43.886601436234429 ], [ 12.562247851058762, 43.885314463658268 ], [ 12.563677415415043, 43.883971698641389 ], [ 12.565007516385467, 43.882576817966317 ], [ 12.566234508255732, 43.881133641383023 ], [ 12.567355027926411, 43.879646121177757 ], [ 12.568366004130965, 43.878118331376974 ], [ 12.569264665853897, 43.876554456615338 ], [ 12.570048549925888, 43.874958780698059 ], [ 12.570715507775184, 43.873335674888487 ], [ 12.571263711316677, 43.871689585952801 ], [ 12.571691657962566, 43.870025023994195 ], [ 12.571998174740841, 43.868346550109834 ], [ 12.57218242151032, 43.866658763903907 ], [ 12.572243893263414, 43.864966290891211 ] ] ] } },
{ "type": "Feature", "properties": { "name": "Mercatino Conca", "feature_type": "mrr", "metric_roundness": 34.35, "metric_rectangularity": 53.88, "metric_mobile_fit": -6.34, "metric_aspect_ratio": 1.626, "metric_area_km2": 26.89 }, "geometry": { "type": "Polygon", "coordinates": [ [ [ 12.485673916412525, 43.882810273311343 ], [ 12.569699377975322, 43.876114019695997 ], [ 12.564463365942872, 43.841966628607317 ], [ 12.480437904380073, 43.848666718556416 ], [ 12.485673916412525, 43.882810273311343 ] ] ] } }
]
}
