{
"type": "FeatureCollection",
"name": "merchweiler",
"crs": { "type": "name", "properties": { "name": "urn:ogc:def:crs:OGC:1.3:CRS84" } },
"features": [
{ "type": "Feature", "properties": { "name": "Merchweiler", "feature_type": "entity", "metric_roundness": 38.41, "metric_rectangularity": 52.93, "metric_mobile_fit": 57.61, "metric_aspect_ratio": 0.986, "metric_area_km2": 28.97 }, "geometry": { "type": "Polygon", "coordinates": [ [ [ 7.0295482, 49.3479811 ], [ 7.0439057, 49.3494889 ], [ 7.0454871, 49.344339899999987 ], [ 7.051506, 49.345684399999989 ], [ 7.0586371, 49.3431589 ], [ 7.0622375, 49.3304475 ], [ 7.0698688, 49.329767 ], [ 7.0746022, 49.343439499999981 ], [ 7.0865285, 49.3467545 ], [ 7.0805179, 49.3546428 ], [ 7.0996055, 49.36740349999998 ], [ 7.098555, 49.3777725 ], [ 7.065384, 49.379738899999985 ], [ 7.0640821, 49.3770246 ], [ 7.0714398, 49.369523199999989 ], [ 7.0696945, 49.365641 ], [ 7.0435983, 49.3615533 ], [ 7.0390892, 49.3553578 ], [ 7.0239295, 49.350294499999983 ], [ 7.0295482, 49.3479811 ] ] ] } },
{ "type": "Feature", "properties": { "name": "Merchweiler", "feature_type": "circle", "metric_roundness": 38.41, "metric_rectangularity": 52.93, "metric_mobile_fit": 57.61, "metric_aspect_ratio": 0.986, "metric_area_km2": 28.97 }, "geometry": { "type": "Polygon", "coordinates": [ [ [ 7.110202414883799, 49.358347292316779 ], [ 7.110142083952166, 49.356846649887565 ], [ 7.109961256520154, 49.355350075015217 ], [ 7.109660428223187, 49.353861670269254 ], [ 7.109240423610715, 49.352385516193408 ], [ 7.10870239388619, 49.350925660110917 ], [ 7.108047813751685, 49.349486105017071 ], [ 7.107278477365849, 49.348070798589298 ], [ 7.106396493426244, 49.346683622345566 ], [ 7.10540427938954, 49.345328380980476 ], [ 7.104304554845442, 49.34400879190914 ], [ 7.103100334062488, 49.342728475047359 ], [ 7.101794917726137, 49.341490942856659 ], [ 7.10039188389183, 49.340299590681852 ], [ 7.098895078177782, 49.339157687407777 ], [ 7.097308603224414, 49.338068366461563 ], [ 7.095636807449299, 49.337034617185182 ], [ 7.093884273128452, 49.33605927660259 ], [ 7.092055803836628, 49.335145021604248 ], [ 7.090156411281061, 49.334294361571132 ], [ 7.088191301564721, 49.333509631458604 ], [ 7.086165860916746, 49.332792985359688 ], [ 7.084085640929167, 49.332146390565818 ], [ 7.081956343340376, 49.331571622141539 ], [ 7.079783804407058, 49.331070258028589 ], [ 7.077573978907417, 49.33064367469305 ], [ 7.075332923819544, 49.330293043327714 ], [ 7.073066781719661, 49.33001932662053 ], [ 7.070781763945749, 49.329823276097997 ], [ 7.068484133572693, 49.32970543005122 ], [ 7.066180188245641, 49.32966611205029 ], [ 7.063876242918591, 49.32970543005122 ], [ 7.061578612545534, 49.329823276097997 ], [ 7.059293594771622, 49.33001932662053 ], [ 7.05702745267174, 49.330293043327714 ], [ 7.054786397583867, 49.33064367469305 ], [ 7.052576572084226, 49.331070258028589 ], [ 7.050404033150906, 49.331571622141539 ], [ 7.048274735562115, 49.332146390565818 ], [ 7.046194515574537, 49.332792985359688 ], [ 7.044169074926562, 49.333509631458604 ], [ 7.042203965210223, 49.334294361571132 ], [ 7.040304572654655, 49.335145021604248 ], [ 7.03847610336283, 49.33605927660259 ], [ 7.036723569041984, 49.337034617185182 ], [ 7.035051773266869, 49.338068366461563 ], [ 7.033465298313502, 49.339157687407777 ], [ 7.031968492599454, 49.340299590681852 ], [ 7.030565458765146, 49.341490942856659 ], [ 7.029260042428795, 49.342728475047359 ], [ 7.028055821645841, 49.34400879190914 ], [ 7.026956097101744, 49.345328380980476 ], [ 7.02596388306504, 49.346683622345566 ], [ 7.025081899125434, 49.348070798589298 ], [ 7.024312562739599, 49.349486105017071 ], [ 7.023657982605094, 49.350925660110917 ], [ 7.023119952880568, 49.352385516193408 ], [ 7.022699948268096, 49.353861670269254 ], [ 7.02239911997113, 49.355350075015217 ], [ 7.022218292539118, 49.356846649887565 ], [ 7.022157961607484, 49.358347292316779 ], [ 7.022218292539118, 49.359847888958555 ], [ 7.02239911997113, 49.361344326970254 ], [ 7.022699948268096, 49.36283250528183 ], [ 7.023119952880568, 49.364308345830423 ], [ 7.023657982605094, 49.365767804727845 ], [ 7.024312562739599, 49.367206883330468 ], [ 7.025081899125434, 49.368621639181377 ], [ 7.02596388306504, 49.370008196794885 ], [ 7.026956097101744, 49.371362758254186 ], [ 7.028055821645841, 49.372681613593386 ], [ 7.029260042428795, 49.373961150935607 ], [ 7.030565458765146, 49.37519786635989 ], [ 7.031968492599454, 49.376388373470107 ], [ 7.033465298313502, 49.377529412640122 ], [ 7.035051773266869, 49.378617859910094 ], [ 7.036723569041984, 49.379650735510225 ], [ 7.03847610336283, 49.380625211988779 ], [ 7.040304572654655, 49.381538621922552 ], [ 7.042203965210223, 49.382388465189308 ], [ 7.044169074926562, 49.383172415782333 ], [ 7.046194515574537, 49.383888328149176 ], [ 7.048274735562115, 49.384534243037336 ], [ 7.050404033150906, 49.385108392831434 ], [ 7.052576572084226, 49.385609206367597 ], [ 7.054786397583866, 49.386035313211977 ], [ 7.05702745267174, 49.386385547392287 ], [ 7.059293594771622, 49.386658950572262 ], [ 7.061578612545534, 49.386854774660442 ], [ 7.063876242918591, 49.386972483846584 ], [ 7.066180188245641, 49.387011756060083 ], [ 7.068484133572693, 49.386972483846584 ], [ 7.070781763945749, 49.386854774660442 ], [ 7.073066781719661, 49.386658950572262 ], [ 7.075332923819544, 49.386385547392287 ], [ 7.077573978907417, 49.386035313211977 ], [ 7.079783804407058, 49.385609206367597 ], [ 7.081956343340376, 49.385108392831434 ], [ 7.084085640929167, 49.384534243037336 ], [ 7.086165860916746, 49.383888328149176 ], [ 7.088191301564721, 49.383172415782333 ], [ 7.090156411281061, 49.382388465189308 ], [ 7.092055803836628, 49.381538621922552 ], [ 7.093884273128452, 49.380625211988779 ], [ 7.095636807449299, 49.379650735510225 ], [ 7.097308603224414, 49.378617859910094 ], [ 7.098895078177782, 49.377529412640122 ], [ 7.10039188389183, 49.376388373470107 ], [ 7.101794917726137, 49.37519786635989 ], [ 7.103100334062488, 49.373961150935607 ], [ 7.104304554845442, 49.372681613593386 ], [ 7.10540427938954, 49.371362758254186 ], [ 7.106396493426244, 49.370008196794885 ], [ 7.107278477365849, 49.368621639181377 ], [ 7.108047813751685, 49.367206883330468 ], [ 7.10870239388619, 49.365767804727845 ], [ 7.109240423610715, 49.364308345830423 ], [ 7.109660428223187, 49.36283250528183 ], [ 7.109961256520154, 49.361344326970254 ], [ 7.110142083952166, 49.359847888958555 ], [ 7.110202414883799, 49.358347292316779 ] ] ] } },
{ "type": "Feature", "properties": { "name": "Merchweiler", "feature_type": "mrr", "metric_roundness": 38.41, "metric_rectangularity": 52.93, "metric_mobile_fit": 57.61, "metric_aspect_ratio": 0.986, "metric_area_km2": 28.97 }, "geometry": { "type": "Polygon", "coordinates": [ [ [ 7.067421464541687, 49.327761124125956 ], [ 7.0239295, 49.350294499999983 ], [ 7.073389868528755, 49.390798670660217 ], [ 7.116881835232494, 49.368283848573697 ], [ 7.067421464541687, 49.327761124125956 ] ] ] } }
]
}
