{
"type": "FeatureCollection",
"name": "merignac",
"crs": { "type": "name", "properties": { "name": "urn:ogc:def:crs:OGC:1.3:CRS84" } },
"features": [
{ "type": "Feature", "properties": { "name": "Mérignac", "metric_roundness": 38.7, "metric_rectangularity": 59.9, "metric_mobile_fit": 0.39, "metric_aspect_ratio": 1.559, "metric_area_km2": 8.97 }, "geometry": { "type": "Polygon", "coordinates": [ [ [ -0.3257735, 45.329883 ], [ -0.317627, 45.325885 ], [ -0.309048, 45.3201485 ], [ -0.297064, 45.3190167 ], [ -0.2905985, 45.326673 ], [ -0.2887365, 45.329102499999983 ], [ -0.277914, 45.336639 ], [ -0.2815505, 45.3382635 ], [ -0.294276, 45.3406045 ], [ -0.3007643, 45.334068 ], [ -0.3110838, 45.3352019 ], [ -0.3231335, 45.331923 ], [ -0.3257735, 45.329883 ] ] ] } }
]
}
