{
"type": "FeatureCollection",
"name": "merle_leignec",
"crs": { "type": "name", "properties": { "name": "urn:ogc:def:crs:OGC:1.3:CRS84" } },
"features": [
{ "type": "Feature", "properties": { "name": "Merle-Leignec", "metric_roundness": 26.03, "metric_rectangularity": 53.53, "metric_mobile_fit": 90.56, "metric_aspect_ratio": 0.468, "metric_area_km2": 33.57 }, "geometry": { "type": "Polygon", "coordinates": [ [ [ 4.0295815, 45.407605199999985 ], [ 4.012597, 45.4049695 ], [ 4.0135799, 45.396225699999981 ], [ 4.0180541, 45.392962299999979 ], [ 4.0148443, 45.379486499999985 ], [ 4.0034931, 45.3665888 ], [ 4.0024885, 45.3559915 ], [ 4.004296, 45.352410499999984 ], [ 4.0062795, 45.3504905 ], [ 4.005508, 45.3481635 ], [ 4.0064125, 45.3459905 ], [ 4.007868, 45.343493499999987 ], [ 4.010774, 45.340435499999977 ], [ 4.0146005, 45.33363 ], [ 4.0167547, 45.329066099999977 ], [ 4.020572, 45.328195 ], [ 4.0252557, 45.3416072 ], [ 4.0214353, 45.3490166 ], [ 4.0326273, 45.3486942 ], [ 4.035884, 45.35375 ], [ 4.0350742, 45.3605825 ], [ 4.0279478, 45.373177599999984 ], [ 4.0386557, 45.3891663 ], [ 4.0535868, 45.391144599999983 ], [ 4.055397, 45.396985 ], [ 4.0484805, 45.4066745 ], [ 4.0295815, 45.407605199999985 ] ] ] } }
]
}
