{
"type": "FeatureCollection",
"name": "messery",
"crs": { "type": "name", "properties": { "name": "urn:ogc:def:crs:OGC:1.3:CRS84" } },
"features": [
{ "type": "Feature", "properties": { "name": "Messery", "feature_type": "entity", "metric_roundness": 48.55, "metric_rectangularity": 60.79, "metric_mobile_fit": 37.43, "metric_aspect_ratio": 1.188, "metric_area_km2": 19.39 }, "geometry": { "type": "Polygon", "coordinates": [ [ [ 6.2727525, 46.33315 ], [ 6.2764875, 46.330859 ], [ 6.2838635, 46.333034 ], [ 6.2866295, 46.332622499999985 ], [ 6.289544, 46.330674499999979 ], [ 6.3085894, 46.340163499999989 ], [ 6.318309, 46.33457749999998 ], [ 6.327262, 46.352910499999979 ], [ 6.318209, 46.364309499999983 ], [ 6.3127525, 46.357992 ], [ 6.3004079, 46.353670099999981 ], [ 6.29141, 46.3589905 ], [ 6.2777469, 46.3497954 ], [ 6.269367, 46.336691 ], [ 6.2727525, 46.33315 ] ] ] } },
{ "type": "Feature", "properties": { "name": "Messery", "feature_type": "circle", "metric_roundness": 48.55, "metric_rectangularity": 60.79, "metric_mobile_fit": 37.43, "metric_aspect_ratio": 1.188, "metric_area_km2": 19.39 }, "geometry": { "type": "Polygon", "coordinates": [ [ [ 6.327919929287098, 46.348452017224091 ], [ 6.327876024485117, 46.347294657798521 ], [ 6.327744430419183, 46.346140446210313 ], [ 6.327525507779487, 46.34499254637403 ], [ 6.327219856617762, 46.343854105101073 ], [ 6.326828314702602, 46.342728243469068 ], [ 6.326351955223177, 46.341618048259591 ], [ 6.325792083847711, 46.340526563488027 ], [ 6.325150235144727, 46.339456782048615 ], [ 6.324428168376905, 46.338411637497856 ], [ 6.323627862679066, 46.33739399599903 ], [ 6.3227515116335, 46.336406648449717 ], [ 6.321801517257508, 46.33545230281463 ], [ 6.320780483419641, 46.334533576684372 ], [ 6.319691208702677, 46.33365299008117 ], [ 6.3185366787329, 46.332812958531363 ], [ 6.31732005799671, 46.332015786423717 ], [ 6.316044681166975, 46.331263660672271 ], [ 6.314714043962937, 46.330558644701085 ], [ 6.31333179356868, 46.329902672767737 ], [ 6.311901718636456, 46.329297544641292 ], [ 6.31042773890225, 46.328744920649626 ], [ 6.30891389444206, 46.328246317109716 ], [ 6.307364334598324, 46.327803102153958 ], [ 6.305783306606866, 46.327416491963731 ], [ 6.304175143955514, 46.327087547421129 ], [ 6.302544254506313, 46.326817171187813 ], [ 6.300895108413884, 46.326606105219426 ], [ 6.299232225873032, 46.326454928722384 ], [ 6.297560164729218, 46.326364056558788 ], [ 6.295883507985814, 46.326333738103756 ], [ 6.294206851242409, 46.326364056558788 ], [ 6.292534790098594, 46.326454928722384 ], [ 6.290871907557744, 46.326606105219426 ], [ 6.289222761465314, 46.326817171187813 ], [ 6.287591872016113, 46.327087547421129 ], [ 6.285983709364761, 46.327416491963731 ], [ 6.284402681373303, 46.327803102153958 ], [ 6.282853121529567, 46.328246317109716 ], [ 6.281339277069377, 46.328744920649626 ], [ 6.279865297335171, 46.329297544641292 ], [ 6.278435222402947, 46.329902672767737 ], [ 6.27705297200869, 46.330558644701085 ], [ 6.275722334804652, 46.331263660672271 ], [ 6.274446957974916, 46.332015786423717 ], [ 6.273230337238727, 46.332812958531363 ], [ 6.27207580726895, 46.33365299008117 ], [ 6.270986532551985, 46.334533576684372 ], [ 6.269965498714119, 46.33545230281463 ], [ 6.269015504338127, 46.336406648449717 ], [ 6.268139153292561, 46.33739399599903 ], [ 6.267338847594721, 46.338411637497856 ], [ 6.266616780826901, 46.339456782048615 ], [ 6.265974932123916, 46.340526563488027 ], [ 6.26541506074845, 46.341618048259591 ], [ 6.264938701269025, 46.342728243469068 ], [ 6.264547159353865, 46.343854105101073 ], [ 6.264241508192141, 46.34499254637403 ], [ 6.264022585552445, 46.346140446210313 ], [ 6.26389099148651, 46.347294657798521 ], [ 6.26384708668453, 46.348452017224091 ], [ 6.26389099148651, 46.349609352144689 ], [ 6.264022585552445, 46.350763490486422 ], [ 6.264241508192141, 46.351911269137254 ], [ 6.264547159353865, 46.353049542613512 ], [ 6.264938701269025, 46.354175191675992 ], [ 6.26541506074845, 46.355285131872066 ], [ 6.265974932123916, 46.356376321980335 ], [ 6.266616780826901, 46.357445772334955 ], [ 6.267338847594721, 46.358490553006838 ], [ 6.268139153292561, 46.359507801819468 ], [ 6.269015504338127, 46.3604947321776 ], [ 6.269965498714119, 46.361448640687357 ], [ 6.270986532551985, 46.362366914547387 ], [ 6.27207580726895, 46.363247038690609 ], [ 6.273230337238727, 46.364086602657501 ], [ 6.274446957974916, 46.364883307182239 ], [ 6.275722334804652, 46.365634970473714 ], [ 6.27705297200869, 46.366339534174671 ], [ 6.278435222402947, 46.36699506898271 ], [ 6.279865297335171, 46.367599779917995 ], [ 6.281339277069377, 46.368152011223486 ], [ 6.282853121529567, 46.368650250884549 ], [ 6.284402681373303, 46.369093134755531 ], [ 6.285983709364761, 46.369479450282483 ], [ 6.287591872016113, 46.369808139811703 ], [ 6.289222761465314, 46.370078303475516 ], [ 6.290871907557744, 46.370289201647218 ], [ 6.292534790098594, 46.370440256958815 ], [ 6.294206851242409, 46.370531055875965 ], [ 6.295883507985814, 46.370561349825998 ], [ 6.297560164729218, 46.370531055875965 ], [ 6.299232225873032, 46.370440256958815 ], [ 6.300895108413884, 46.370289201647218 ], [ 6.302544254506313, 46.370078303475516 ], [ 6.304175143955514, 46.369808139811703 ], [ 6.305783306606866, 46.369479450282483 ], [ 6.307364334598324, 46.369093134755531 ], [ 6.30891389444206, 46.368650250884549 ], [ 6.31042773890225, 46.368152011223486 ], [ 6.311901718636456, 46.367599779917995 ], [ 6.31333179356868, 46.36699506898271 ], [ 6.314714043962937, 46.366339534174671 ], [ 6.316044681166975, 46.365634970473714 ], [ 6.31732005799671, 46.364883307182239 ], [ 6.3185366787329, 46.364086602657501 ], [ 6.319691208702677, 46.363247038690609 ], [ 6.320780483419641, 46.362366914547387 ], [ 6.321801517257508, 46.361448640687357 ], [ 6.3227515116335, 46.3604947321776 ], [ 6.323627862679066, 46.359507801819468 ], [ 6.324428168376905, 46.358490553006838 ], [ 6.325150235144727, 46.357445772334955 ], [ 6.325792083847711, 46.356376321980335 ], [ 6.326351955223177, 46.355285131872066 ], [ 6.326828314702602, 46.354175191675992 ], [ 6.327219856617762, 46.353049542613512 ], [ 6.327525507779487, 46.351911269137254 ], [ 6.327744430419183, 46.350763490486422 ], [ 6.327876024485117, 46.349609352144689 ], [ 6.327919929287098, 46.348452017224091 ] ] ] } },
{ "type": "Feature", "properties": { "name": "Messery", "feature_type": "mrr", "metric_roundness": 48.55, "metric_rectangularity": 60.79, "metric_mobile_fit": 37.43, "metric_aspect_ratio": 1.188, "metric_area_km2": 19.39 }, "geometry": { "type": "Polygon", "coordinates": [ [ [ 6.262469746264087, 46.353245926746062 ], [ 6.322182957455946, 46.365098196365203 ], [ 6.333632399785415, 46.337620272056903 ], [ 6.273919188593555, 46.325762042757184 ], [ 6.262469746264087, 46.353245926746062 ] ] ] } }
]
}
