{
"type": "FeatureCollection",
"name": "meyssac",
"crs": { "type": "name", "properties": { "name": "urn:ogc:def:crs:OGC:1.3:CRS84" } },
"features": [
{ "type": "Feature", "properties": { "name": "Meyssac", "feature_type": "entity", "metric_roundness": 48.72, "metric_rectangularity": 69.87, "metric_mobile_fit": 99.63, "metric_aspect_ratio": 0.566, "metric_area_km2": 22.92 }, "geometry": { "type": "Polygon", "coordinates": [ [ [ 1.6933763, 45.032362 ], [ 1.6948205, 45.042565299999985 ], [ 1.7060695, 45.048537499999988 ], [ 1.7051645, 45.061135 ], [ 1.689366, 45.0697194 ], [ 1.671136, 45.072818 ], [ 1.667278, 45.0642286 ], [ 1.6691807, 45.0573409 ], [ 1.6676745, 45.0366265 ], [ 1.6723897, 45.029280499999984 ], [ 1.6830127, 45.024415099999985 ], [ 1.6875347, 45.0253108 ], [ 1.6886435, 45.029231 ], [ 1.6933763, 45.032362 ] ] ] } },
{ "type": "Feature", "properties": { "name": "Meyssac", "feature_type": "circle", "metric_roundness": 48.72, "metric_rectangularity": 69.87, "metric_mobile_fit": 99.63, "metric_aspect_ratio": 0.566, "metric_area_km2": 22.92 }, "geometry": { "type": "Polygon", "coordinates": [ [ [ 1.711840366420035, 45.048621669967581 ], [ 1.71179272080281, 45.047336158017472 ], [ 1.711649914544458, 45.046054140794311 ], [ 1.711412339067008, 45.044779132572906 ], [ 1.71108064554833, 45.043514628649042 ], [ 1.710655743137302, 45.042264095752685 ], [ 1.710138796461899, 45.041030962536993 ], [ 1.709531222437025, 45.039818610169377 ], [ 1.708834686380851, 45.038630363050395 ], [ 1.708051097450292, 45.037469479686187 ], [ 1.707182603408138, 45.036339143739539 ], [ 1.706231584736191, 45.03524245528439 ], [ 1.705200648110527, 45.034182422287955 ], [ 1.704092619256777, 45.033161952343896 ], [ 1.702910535205011, 45.032183844679629 ], [ 1.70165763596545, 45.031250782459885 ], [ 1.70033735564782, 45.030365325407743 ], [ 1.698953313048702, 45.029529902763841 ], [ 1.697509301732655, 45.028746806603188 ], [ 1.696009279634324, 45.028018185528133 ], [ 1.694457358210018, 45.027346038755354 ], [ 1.692857791168485, 45.026732210612764 ], [ 1.691214962811803, 45.026178385462337 ], [ 1.689533376018306, 45.025686083062517 ], [ 1.687817639900509, 45.025256654383327 ], [ 1.686072457171852, 45.024891277885907 ], [ 1.684302611256887, 45.024590956276832 ], [ 1.682512953180248, 45.024356513746184 ], [ 1.680708388270324, 45.024188593697239 ], [ 1.6788938627141, 45.024087656974054 ], [ 1.67707435, 45.024053980591894 ], [ 1.675254837285899, 45.024087656974054 ], [ 1.673440311729675, 45.024188593697239 ], [ 1.671635746819751, 45.024356513746184 ], [ 1.669846088743112, 45.024590956276832 ], [ 1.668076242828147, 45.024891277885907 ], [ 1.66633106009949, 45.025256654383327 ], [ 1.664615323981693, 45.025686083062517 ], [ 1.662933737188196, 45.026178385462337 ], [ 1.661290908831514, 45.026732210612764 ], [ 1.659691341789981, 45.027346038755354 ], [ 1.658139420365675, 45.028018185528133 ], [ 1.656639398267345, 45.028746806603188 ], [ 1.655195386951297, 45.029529902763841 ], [ 1.653811344352179, 45.030365325407743 ], [ 1.652491064034549, 45.031250782459885 ], [ 1.651238164794988, 45.032183844679629 ], [ 1.650056080743222, 45.033161952343896 ], [ 1.648948051889472, 45.034182422287955 ], [ 1.647917115263808, 45.03524245528439 ], [ 1.646966096591862, 45.036339143739539 ], [ 1.646097602549708, 45.037469479686187 ], [ 1.645314013619148, 45.038630363050395 ], [ 1.644617477562974, 45.039818610169377 ], [ 1.6440099035381, 45.041030962536993 ], [ 1.643492956862697, 45.042264095752685 ], [ 1.643068054451669, 45.043514628649042 ], [ 1.642736360932991, 45.044779132572906 ], [ 1.642498785455541, 45.046054140794311 ], [ 1.642355979197189, 45.047336158017472 ], [ 1.642308333579964, 45.048621669967581 ], [ 1.642355979197189, 45.049907153027064 ], [ 1.642498785455541, 45.051189083894883 ], [ 1.642736360932991, 45.052463949242345 ], [ 1.643068054451669, 45.053728255339045 ], [ 1.643492956862697, 45.054978537622446 ], [ 1.6440099035381, 45.056211370185139 ], [ 1.644617477562974, 45.057423375153753 ], [ 1.645314013619148, 45.058611231933888 ], [ 1.646097602549708, 45.05977168629606 ], [ 1.646966096591862, 45.06090155927771 ], [ 1.647917115263808, 45.061997755877229 ], [ 1.648948051889472, 45.063057273516286 ], [ 1.650056080743222, 45.064077210247596 ], [ 1.651238164794988, 45.065054772685713 ], [ 1.652491064034549, 45.065987283639529 ], [ 1.653811344352179, 45.066872189425744 ], [ 1.655195386951297, 45.067707066843504 ], [ 1.656639398267345, 45.068489629791429 ], [ 1.658139420365675, 45.069217735509127 ], [ 1.659691341789981, 45.069889390426312 ], [ 1.661290908831514, 45.070502755603925 ], [ 1.662933737188196, 45.071056151752344 ], [ 1.664615323981693, 45.07154806381336 ], [ 1.66633106009949, 45.071977145093584 ], [ 1.668076242828147, 45.072342220938026 ], [ 1.669846088743112, 45.072642291934173 ], [ 1.671635746819751, 45.072876536637679 ], [ 1.673440311729675, 45.073044313812701 ], [ 1.675254837285899, 45.073145164180559 ], [ 1.67707435, 45.073178811672094 ], [ 1.6788938627141, 45.073145164180559 ], [ 1.680708388270324, 45.073044313812701 ], [ 1.682512953180248, 45.072876536637679 ], [ 1.684302611256887, 45.072642291934173 ], [ 1.686072457171852, 45.072342220938026 ], [ 1.687817639900509, 45.071977145093584 ], [ 1.689533376018306, 45.07154806381336 ], [ 1.691214962811803, 45.071056151752344 ], [ 1.692857791168485, 45.070502755603925 ], [ 1.694457358210018, 45.069889390426312 ], [ 1.696009279634324, 45.069217735509127 ], [ 1.697509301732655, 45.068489629791429 ], [ 1.698953313048702, 45.067707066843504 ], [ 1.70033735564782, 45.066872189425744 ], [ 1.70165763596545, 45.065987283639529 ], [ 1.702910535205011, 45.065054772685713 ], [ 1.704092619256777, 45.064077210247596 ], [ 1.705200648110527, 45.063057273516286 ], [ 1.706231584736191, 45.061997755877229 ], [ 1.707182603408138, 45.06090155927771 ], [ 1.708051097450292, 45.05977168629606 ], [ 1.708834686380851, 45.058611231933888 ], [ 1.709531222437025, 45.057423375153753 ], [ 1.710138796461899, 45.056211370185139 ], [ 1.710655743137302, 45.054978537622446 ], [ 1.71108064554833, 45.053728255339045 ], [ 1.711412339067008, 45.052463949242345 ], [ 1.711649914544458, 45.051189083894883 ], [ 1.71179272080281, 45.049907153027064 ], [ 1.711840366420035, 45.048621669967581 ] ] ] } },
{ "type": "Feature", "properties": { "name": "Meyssac", "feature_type": "mrr", "metric_roundness": 48.72, "metric_rectangularity": 69.87, "metric_mobile_fit": 99.63, "metric_aspect_ratio": 0.566, "metric_area_km2": 22.92 }, "geometry": { "type": "Polygon", "coordinates": [ [ [ 1.667851415491332, 45.024306347611066 ], [ 1.667154985624433, 45.072789468403528 ], [ 1.705717090252006, 45.073065841483604 ], [ 1.706413520118905, 45.024582955051855 ], [ 1.667851415491332, 45.024306347611066 ] ] ] } }
]
}
