{
"type": "FeatureCollection",
"name": "pin",
"crs": { "type": "name", "properties": { "name": "urn:ogc:def:crs:OGC:1.3:CRS84" } },
"features": [
{ "type": "Feature", "properties": { "name": "Pin", "feature_type": "entity", "metric_roundness": 43.57, "metric_rectangularity": 70.61, "metric_mobile_fit": 99.28, "metric_aspect_ratio": 0.555, "metric_area_km2": 30.35 }, "geometry": { "type": "Polygon", "coordinates": [ [ [ 5.8715916, 47.359569 ], [ 5.863229, 47.3676025 ], [ 5.8598955, 47.367299499999987 ], [ 5.8502755, 47.368132 ], [ 5.8428121, 47.3571027 ], [ 5.8416358, 47.3479581 ], [ 5.8358315, 47.3368305 ], [ 5.8401564, 47.334756899999981 ], [ 5.853145, 47.310929499999986 ], [ 5.8638737, 47.3160197 ], [ 5.8731614, 47.3147271 ], [ 5.8827055, 47.321625 ], [ 5.8769634, 47.336461899999982 ], [ 5.8722971, 47.3405786 ], [ 5.872668, 47.350026499999984 ], [ 5.8715916, 47.359569 ] ] ] } },
{ "type": "Feature", "properties": { "name": "Pin", "feature_type": "circle", "metric_roundness": 43.57, "metric_rectangularity": 70.61, "metric_mobile_fit": 99.28, "metric_aspect_ratio": 0.555, "metric_area_km2": 30.35 }, "geometry": { "type": "Polygon", "coordinates": [ [ [ 5.896539869105211, 47.339596626770245 ], [ 5.896481889973409, 47.338096194163725 ], [ 5.896308111494779, 47.336599831674825 ], [ 5.896019009984046, 47.335111641252468 ], [ 5.895615377848361, 47.333635702789131 ], [ 5.895098321415348, 47.332176062928689 ], [ 5.89446925790075, 47.330736723961707 ], [ 5.893729911523937, 47.329321632838798 ], [ 5.892882308781936, 47.327934670332311 ], [ 5.891928772894945, 47.32657964037638 ], [ 5.890871917438552, 47.325260259614652 ], [ 5.889714639180101, 47.323980147184699 ], [ 5.888460110138859, 47.32274281476753 ], [ 5.887111768891724, 47.321551656929643 ], [ 5.885673311148335, 47.320409941784419 ], [ 5.88414867962138, 47.31932080199919 ], [ 5.882542053219897, 47.318287226172465 ], [ 5.880857835595179, 47.31731205060585 ], [ 5.879100643070664, 47.3163979514933 ], [ 5.877275291988925, 47.315547437549618 ], [ 5.875386785510395, 47.314762843098855 ], [ 5.873440299900064, 47.314046321641854 ], [ 5.871441170339693, 47.313399839920955 ], [ 5.869394876304448, 47.312825172498549 ], [ 5.867307026544044, 47.312323896864648 ], [ 5.865183343709548, 47.311897389087108 ], [ 5.863029648667995, 47.311546820016886 ], [ 5.860851844547794, 47.311273152058902 ], [ 5.858655900558657, 47.311077136517362 ], [ 5.856447835630424, 47.310959311523469 ], [ 5.85423370191558, 47.310920000550915 ], [ 5.852019568200737, 47.310959311523469 ], [ 5.849811503272504, 47.311077136517362 ], [ 5.847615559283367, 47.311273152058902 ], [ 5.845437755163165, 47.311546820016886 ], [ 5.843284060121612, 47.311897389087108 ], [ 5.841160377287116, 47.312323896864648 ], [ 5.839072527526711, 47.312825172498549 ], [ 5.837026233491467, 47.313399839920955 ], [ 5.835027103931095, 47.314046321641854 ], [ 5.833080618320765, 47.314762843098855 ], [ 5.831192111842236, 47.315547437549618 ], [ 5.829366760760496, 47.3163979514933 ], [ 5.827609568235982, 47.31731205060585 ], [ 5.825925350611263, 47.318287226172465 ], [ 5.824318724209779, 47.31932080199919 ], [ 5.822794092682824, 47.320409941784419 ], [ 5.821355634939435, 47.321551656929643 ], [ 5.820007293692301, 47.32274281476753 ], [ 5.818752764651059, 47.323980147184699 ], [ 5.817595486392608, 47.325260259614652 ], [ 5.816538630936216, 47.32657964037638 ], [ 5.815585095049224, 47.327934670332311 ], [ 5.814737492307223, 47.329321632838798 ], [ 5.81399814593041, 47.330736723961707 ], [ 5.813369082415813, 47.332176062928689 ], [ 5.812852025982799, 47.333635702789131 ], [ 5.812448393847114, 47.335111641252468 ], [ 5.812159292336381, 47.336599831674825 ], [ 5.811985513857751, 47.338096194163725 ], [ 5.81192753472595, 47.339596626770245 ], [ 5.811985513857751, 47.34109701673794 ], [ 5.812159292336381, 47.342593251777537 ], [ 5.812448393847114, 47.344081231336489 ], [ 5.812852025982799, 47.345556877832557 ], [ 5.813369082415813, 47.347016147820717 ], [ 5.81399814593041, 47.348455043062835 ], [ 5.814737492307223, 47.349869621469821 ], [ 5.815585095049224, 47.351256007886747 ], [ 5.816538630936216, 47.352610404691248 ], [ 5.817595486392608, 47.353929102176615 ], [ 5.818752764651059, 47.355208488691396 ], [ 5.820007293692301, 47.356445060507845 ], [ 5.821355634939435, 47.357635431392801 ], [ 5.822794092682824, 47.358776341854863 ], [ 5.824318724209779, 47.359864668043016 ], [ 5.825925350611263, 47.360897430272658 ], [ 5.827609568235982, 47.361871801156141 ], [ 5.829366760760496, 47.36278511331578 ], [ 5.831192111842236, 47.363634866658806 ], [ 5.833080618320765, 47.364418735194441 ], [ 5.835027103931095, 47.36513457337513 ], [ 5.837026233491467, 47.365780421944663 ], [ 5.839072527526711, 47.366354513277571 ], [ 5.841160377287116, 47.366855276195629 ], [ 5.843284060121612, 47.367281340248368 ], [ 5.845437755163165, 47.367631539446357 ], [ 5.847615559283367, 47.367904915437116 ], [ 5.849811503272504, 47.368100720115265 ], [ 5.852019568200737, 47.368218417659882 ], [ 5.85423370191558, 47.36825768599364 ], [ 5.856447835630424, 47.368218417659882 ], [ 5.858655900558657, 47.368100720115265 ], [ 5.860851844547794, 47.367904915437116 ], [ 5.863029648667995, 47.367631539446357 ], [ 5.865183343709548, 47.367281340248368 ], [ 5.867307026544044, 47.366855276195629 ], [ 5.869394876304448, 47.366354513277571 ], [ 5.871441170339693, 47.365780421944663 ], [ 5.873440299900064, 47.36513457337513 ], [ 5.875386785510395, 47.364418735194441 ], [ 5.877275291988925, 47.363634866658806 ], [ 5.879100643070664, 47.36278511331578 ], [ 5.880857835595179, 47.361871801156141 ], [ 5.882542053219897, 47.360897430272658 ], [ 5.88414867962138, 47.359864668043016 ], [ 5.885673311148335, 47.358776341854863 ], [ 5.887111768891724, 47.357635431392801 ], [ 5.888460110138859, 47.356445060507845 ], [ 5.889714639180101, 47.355208488691396 ], [ 5.890871917438552, 47.353929102176615 ], [ 5.891928772894945, 47.352610404691248 ], [ 5.892882308781936, 47.351256007886747 ], [ 5.893729911523937, 47.349869621469821 ], [ 5.89446925790075, 47.348455043062835 ], [ 5.895098321415348, 47.347016147820717 ], [ 5.895615377848361, 47.345556877832557 ], [ 5.896019009984046, 47.344081231336489 ], [ 5.896308111494779, 47.342593251777537 ], [ 5.896481889973409, 47.34109701673794 ], [ 5.896539869105211, 47.339596626770245 ] ] ] } },
{ "type": "Feature", "properties": { "name": "Pin", "feature_type": "mrr", "metric_roundness": 43.57, "metric_rectangularity": 70.61, "metric_mobile_fit": 99.28, "metric_aspect_ratio": 0.555, "metric_area_km2": 30.35 }, "geometry": { "type": "Polygon", "coordinates": [ [ [ 5.868369550587412, 47.370564309613954 ], [ 5.884597713116854, 47.31516207231806 ], [ 5.843784336766026, 47.309669774641911 ], [ 5.827556174236586, 47.365077772549945 ], [ 5.868369550587412, 47.370564309613954 ] ] ] } }
]
}
