{
"type": "FeatureCollection",
"name": "pincara",
"crs": { "type": "name", "properties": { "name": "urn:ogc:def:crs:OGC:1.3:CRS84" } },
"features": [
{ "type": "Feature", "properties": { "name": "Pincara", "metric_roundness": 30.64, "metric_rectangularity": 59.83, "metric_mobile_fit": -28.44, "metric_aspect_ratio": 1.847, "metric_area_km2": 34.6 }, "geometry": { "type": "Polygon", "coordinates": [ [ [ 11.6769265, 45.007559499999985 ], [ 11.6605475, 45.009432 ], [ 11.6417819, 45.002005599999983 ], [ 11.6122903, 45.002395099999987 ], [ 11.594622, 44.994333 ], [ 11.592633, 44.994396 ], [ 11.5910208, 44.9904581 ], [ 11.572655, 44.988385 ], [ 11.5796655, 44.9860714 ], [ 11.582624, 44.9786928 ], [ 11.6034343, 44.9780452 ], [ 11.6094114, 44.9695021 ], [ 11.615603, 44.972771 ], [ 11.6396785, 44.976396899999983 ], [ 11.6552, 44.985521 ], [ 11.6769265, 45.007559499999985 ] ] ] } }
]
}
