{
"type": "FeatureCollection",
"name": "pinilla_del_campo",
"crs": { "type": "name", "properties": { "name": "urn:ogc:def:crs:OGC:1.3:CRS84" } },
"features": [
{ "type": "Feature", "properties": { "name": "Pinilla del Campo", "feature_type": "entity", "metric_roundness": 31.78, "metric_rectangularity": 47.7, "metric_mobile_fit": 6.97, "metric_aspect_ratio": 1.493, "metric_area_km2": 34.86 }, "geometry": { "type": "Polygon", "coordinates": [ [ [ -2.1342576, 41.7229285 ], [ -2.1448745, 41.7179281 ], [ -2.148495, 41.717179699999974 ], [ -2.152094, 41.7175295 ], [ -2.15237, 41.710201 ], [ -2.1438375, 41.708317 ], [ -2.1359755, 41.707428 ], [ -2.124773, 41.7065165 ], [ -2.1150895, 41.7071455 ], [ -2.1068365, 41.7006875 ], [ -2.0832015, 41.6883775 ], [ -2.058509, 41.680935 ], [ -2.0653855, 41.688106499999989 ], [ -2.061733, 41.727878499999989 ], [ -2.0903374, 41.7255129 ], [ -2.1120102, 41.716048 ], [ -2.1207772, 41.7193064 ], [ -2.127574, 41.727783 ], [ -2.1342576, 41.7229285 ] ] ] } },
{ "type": "Feature", "properties": { "name": "Pinilla del Campo", "feature_type": "circle", "metric_roundness": 31.78, "metric_rectangularity": 47.7, "metric_mobile_fit": 6.97, "metric_aspect_ratio": 1.493, "metric_area_km2": 34.86 }, "geometry": { "type": "Polygon", "coordinates": [ [ [ -2.049725290081708, 41.702776571267577 ], [ -2.049798050692916, 41.700702006849646 ], [ -2.050016133094763, 41.69863306201399 ], [ -2.050378939538544, 41.696575408416869 ], [ -2.050885475597014, 41.694534687303886 ], [ -2.051534352890048, 41.692516494032787 ], [ -2.052323792890086, 41.690526362716312 ], [ -2.053251631796963, 41.688569751027458 ], [ -2.054315326468728, 41.686652025209028 ], [ -2.055511961392222, 41.684778445328881 ], [ -2.056838256674297, 41.682954150821793 ], [ -2.058290577031774, 41.681184146357822 ], [ -2.059864941755504, 41.679473288076679 ], [ -2.061557035621211, 41.677826270226014 ], [ -2.063362220717224, 41.676247612241148 ], [ -2.065275549156674, 41.674741646301989 ], [ -2.067291776639301, 41.673312505402023 ], [ -2.069405376825721, 41.671964111962538 ], [ -2.071610556484739, 41.670700167024179 ], [ -2.073901271372189, 41.669524140045709 ], [ -2.07627124279779, 41.668439259338967 ], [ -2.078713974834599, 41.667448503166526 ], [ -2.081222772123896, 41.666554591527209 ], [ -2.083790758226694, 41.665759978652552 ], [ -2.086410894471586, 41.665066846235192 ], [ -2.089075999247247, 41.664477097408266 ], [ -2.091778767686734, 41.663992351492944 ], [ -2.094511791689625, 41.663613939528545 ], [ -2.097267580227097, 41.663342900598231 ], [ -2.10003857987432, 41.663179978960208 ], [ -2.102817195513873, 41.663125621993018 ], [ -2.105595811153425, 41.663179978960208 ], [ -2.108366810800648, 41.663342900598231 ], [ -2.11112259933812, 41.663613939528545 ], [ -2.11385562334101, 41.663992351492944 ], [ -2.116558391780499, 41.664477097408266 ], [ -2.119223496556158, 41.665066846235192 ], [ -2.12184363280105, 41.665759978652552 ], [ -2.124411618903849, 41.666554591527209 ], [ -2.126920416193145, 41.667448503166526 ], [ -2.129363148229955, 41.668439259338967 ], [ -2.131733119655555, 41.669524140045709 ], [ -2.134023834543005, 41.670700167024179 ], [ -2.136229014202023, 41.671964111962538 ], [ -2.138342614388443, 41.673312505402023 ], [ -2.140358841871071, 41.674741646301989 ], [ -2.142272170310521, 41.676247612241148 ], [ -2.144077355406534, 41.677826270226014 ], [ -2.145769449272241, 41.679473288076679 ], [ -2.14734381399597, 41.681184146357822 ], [ -2.148796134353448, 41.682954150821793 ], [ -2.150122429635523, 41.684778445328881 ], [ -2.151319064559016, 41.686652025209028 ], [ -2.152382759230782, 41.688569751027458 ], [ -2.153310598137658, 41.690526362716312 ], [ -2.154100038137697, 41.692516494032787 ], [ -2.15474891543073, 41.694534687303886 ], [ -2.155255451489201, 41.696575408416869 ], [ -2.155618257932982, 41.69863306201399 ], [ -2.155836340334829, 41.700702006849646 ], [ -2.155909100946037, 41.702776571267577 ], [ -2.155836340334829, 41.70485106875541 ], [ -2.155618257932982, 41.706919813534086 ], [ -2.155255451489201, 41.708977136139197 ], [ -2.15474891543073, 41.711017398951562 ], [ -2.154100038137697, 41.713035011634695 ], [ -2.153310598137658, 41.715024446436878 ], [ -2.152382759230782, 41.716980253316279 ], [ -2.151319064559016, 41.718897074847789 ], [ -2.150122429635523, 41.720769660871056 ], [ -2.148796134353448, 41.722592882840253 ], [ -2.14734381399597, 41.724361747836248 ], [ -2.145769449272241, 41.726071412203609 ], [ -2.144077355406534, 41.72771719477543 ], [ -2.142272170310521, 41.729294589650387 ], [ -2.140358841871071, 41.73079927848746 ], [ -2.138342614388443, 41.732227142285375 ], [ -2.136229014202023, 41.733574272615009 ], [ -2.134023834543005, 41.734836982274629 ], [ -2.131733119655555, 41.736011815339452 ], [ -2.129363148229955, 41.737095556578396 ], [ -2.126920416193145, 41.738085240213145 ], [ -2.124411618903849, 41.738978157995803 ], [ -2.12184363280105, 41.73977186658373 ], [ -2.119223496556158, 41.740464194191851 ], [ -2.116558391780499, 41.741053246504684 ], [ -2.11385562334101, 41.741537411832205 ], [ -2.11112259933812, 41.741915365496141 ], [ -2.108366810800648, 41.742186073434574 ], [ -2.105595811153425, 41.742348795015666 ], [ -2.102817195513873, 41.742403085052779 ], [ -2.10003857987432, 41.742348795015666 ], [ -2.097267580227097, 41.742186073434574 ], [ -2.094511791689625, 41.741915365496141 ], [ -2.091778767686734, 41.741537411832205 ], [ -2.089075999247247, 41.741053246504684 ], [ -2.086410894471586, 41.740464194191851 ], [ -2.083790758226694, 41.73977186658373 ], [ -2.081222772123896, 41.738978157995803 ], [ -2.078713974834599, 41.738085240213145 ], [ -2.07627124279779, 41.737095556578396 ], [ -2.073901271372189, 41.736011815339452 ], [ -2.071610556484739, 41.734836982274629 ], [ -2.069405376825721, 41.733574272615009 ], [ -2.067291776639301, 41.732227142285375 ], [ -2.065275549156674, 41.73079927848746 ], [ -2.063362220717225, 41.729294589650387 ], [ -2.061557035621211, 41.72771719477543 ], [ -2.059864941755504, 41.726071412203609 ], [ -2.058290577031774, 41.724361747836248 ], [ -2.056838256674297, 41.722592882840253 ], [ -2.055511961392222, 41.720769660871056 ], [ -2.054315326468728, 41.718897074847789 ], [ -2.053251631796963, 41.716980253316279 ], [ -2.052323792890086, 41.715024446436878 ], [ -2.051534352890048, 41.713035011634695 ], [ -2.050885475597014, 41.711017398951562 ], [ -2.050378939538544, 41.708977136139197 ], [ -2.050016133094763, 41.706919813534086 ], [ -2.049798050692916, 41.70485106875541 ], [ -2.049725290081708, 41.702776571267577 ] ] ] } },
{ "type": "Feature", "properties": { "name": "Pinilla del Campo", "feature_type": "mrr", "metric_roundness": 31.78, "metric_rectangularity": 47.7, "metric_mobile_fit": 6.97, "metric_aspect_ratio": 1.493, "metric_area_km2": 34.86 }, "geometry": { "type": "Polygon", "coordinates": [ [ [ -2.152415685571563, 41.727746968697815 ], [ -2.058631214041346, 41.727882999699865 ], [ -2.058509, 41.680935 ], [ -2.152293471418444, 41.680798870311264 ], [ -2.152415685571563, 41.727746968697815 ] ] ] } }
]
}
