{
"type": "FeatureCollection",
"name": "piricse",
"crs": { "type": "name", "properties": { "name": "urn:ogc:def:crs:OGC:1.3:CRS84" } },
"features": [
{ "type": "Feature", "properties": { "name": "Piricse", "metric_roundness": 40.13, "metric_rectangularity": 63.64, "metric_mobile_fit": 57.54, "metric_aspect_ratio": 0.987, "metric_area_km2": 82.58 }, "geometry": { "type": "Polygon", "coordinates": [ [ [ 22.1742615, 47.724358699999989 ], [ 22.1911515, 47.71479 ], [ 22.2082347, 47.7263338 ], [ 22.2122803, 47.732606499999982 ], [ 22.220055, 47.733340499999983 ], [ 22.2148285, 47.740551499999988 ], [ 22.2009591, 47.756719799999985 ], [ 22.1706936, 47.7714516 ], [ 22.1703, 47.7904135 ], [ 22.1406431, 47.794569 ], [ 22.1379057, 47.7891609 ], [ 22.1381043, 47.7754288 ], [ 22.1315385, 47.7704054 ], [ 22.1222497, 47.77326859999998 ], [ 22.1212528, 47.780779 ], [ 22.115599, 47.785797799999983 ], [ 22.1029155, 47.7905125 ], [ 22.1066414, 47.781873699999984 ], [ 22.106045, 47.7684395 ], [ 22.1267867, 47.7566853 ], [ 22.1353195, 47.733751 ], [ 22.1742615, 47.724358699999989 ] ] ] } }
]
}
