{
"type": "FeatureCollection",
"name": "schattendorf",
"crs": { "type": "name", "properties": { "name": "urn:ogc:def:crs:OGC:1.3:CRS84" } },
"features": [
{ "type": "Feature", "properties": { "name": "Schattendorf", "metric_roundness": 31.13, "metric_rectangularity": 55.43, "metric_mobile_fit": -33.49, "metric_aspect_ratio": 1.897, "metric_area_km2": 26.76 }, "geometry": { "type": "Polygon", "coordinates": [ [ [ 16.494777912078177, 47.704423909821813 ], [ 16.494432233133619, 47.704889844494168 ], [ 16.494420842810175, 47.704904474549956 ], [ 16.494348547252397, 47.704849282935193 ], [ 16.494363391619398, 47.704734878814328 ], [ 16.494333262875859, 47.704706442271373 ], [ 16.494239491704334, 47.704680024606212 ], [ 16.494143141470872, 47.704652867331532 ], [ 16.494111406627773, 47.70465752115954 ], [ 16.493964944615747, 47.704708548485463 ], [ 16.493941428035821, 47.704716758331863 ], [ 16.493896935952915, 47.704717800648908 ], [ 16.493740366489195, 47.704700761689637 ], [ 16.493723716989638, 47.70469896799284 ], [ 16.493686123797559, 47.704694958298901 ], [ 16.493681286051334, 47.704694370849552 ], [ 16.493634694102262, 47.704689347736824 ], [ 16.493582545139269, 47.704709419558178 ], [ 16.493573545604395, 47.704712818343893 ], [ 16.493556984382121, 47.704719126191428 ], [ 16.493263600223191, 47.70483127680437 ], [ 16.49319450177429, 47.704853434822368 ], [ 16.492910539996274, 47.704829808945043 ], [ 16.492757578884973, 47.704746486957795 ], [ 16.492716477714875, 47.704724114205284 ], [ 16.49247500925819, 47.704723812279539 ], [ 16.492269089096297, 47.704691378353509 ], [ 16.492208521840311, 47.704700155035205 ], [ 16.492109407635684, 47.704731150560562 ], [ 16.492055298306258, 47.70475190581228 ], [ 16.491924518753024, 47.704804210703799 ], [ 16.491818295588068, 47.70485449054906 ], [ 16.491656830880967, 47.704762846416152 ], [ 16.491677352081179, 47.704667286286288 ], [ 16.491611981963306, 47.704651702471054 ], [ 16.491581608930357, 47.704654607366166 ], [ 16.491407016268887, 47.704683802563281 ], [ 16.491137780771208, 47.704849221197257 ], [ 16.491013143727727, 47.704810861935599 ], [ 16.490969117490444, 47.704830709577855 ], [ 16.490953021662236, 47.704844748071601 ], [ 16.490902738889496, 47.704900244852972 ], [ 16.490693416068584, 47.705010621622975 ], [ 16.490479537046323, 47.705016581689335 ], [ 16.490230942052154, 47.705068516156892 ], [ 16.490063313595495, 47.705073836515631 ], [ 16.489976605839402, 47.70513366402178 ], [ 16.489705029369674, 47.705198293855709 ], [ 16.489693391893653, 47.705206627093332 ], [ 16.489633516438175, 47.705249059931475 ], [ 16.489590992120139, 47.705280571554418 ], [ 16.489559156718634, 47.705314581264098 ], [ 16.489433647765058, 47.705456692724475 ], [ 16.489462970826068, 47.705491725811797 ], [ 16.489424514879602, 47.70556643698626 ], [ 16.489352510738566, 47.705611273424047 ], [ 16.489212100161289, 47.705607831852134 ], [ 16.48909774668769, 47.705729196840771 ], [ 16.489009131758824, 47.705746304902533 ], [ 16.488892432352507, 47.705742302542298 ], [ 16.488836930436555, 47.705706726787731 ], [ 16.488710453917122, 47.705695428724603 ], [ 16.488654514675328, 47.705710199545166 ], [ 16.488616982268248, 47.705731578961512 ], [ 16.488582657516805, 47.705730899621862 ], [ 16.488475027986915, 47.705746817954861 ], [ 16.488446742054055, 47.705777758519503 ], [ 16.48840124394248, 47.705786480025381 ], [ 16.488210214777006, 47.705779833230835 ], [ 16.488162094721744, 47.705804834483452 ], [ 16.488140672352454, 47.705832345152693 ], [ 16.488102734327335, 47.705864720895299 ], [ 16.488129020763061, 47.705929101905156 ], [ 16.48814820227307, 47.70595522892738 ], [ 16.488154171115319, 47.706003418915529 ], [ 16.488116052323999, 47.70603057705825 ], [ 16.488054937191926, 47.706036935324668 ], [ 16.488013469314232, 47.706094890304811 ], [ 16.487943037216422, 47.706090518626482 ], [ 16.487964071072497, 47.706063198743443 ], [ 16.487933992891154, 47.706028906357176 ], [ 16.487829784885374, 47.706052924249597 ], [ 16.487802179289403, 47.706088528274925 ], [ 16.487762657728794, 47.706096815503699 ], [ 16.487719756582898, 47.706137611251073 ], [ 16.487679898734996, 47.706133661678145 ], [ 16.48763243906723, 47.706147479120098 ], [ 16.487622541960512, 47.706160356659318 ], [ 16.487596926411776, 47.706193564918216 ], [ 16.487514767646054, 47.706240389398246 ], [ 16.487499885903574, 47.706290141568587 ], [ 16.487385969071823, 47.706312444264995 ], [ 16.487371383981191, 47.706313924671903 ], [ 16.487329859275949, 47.706339915297761 ], [ 16.487283699990634, 47.706348744513413 ], [ 16.487275790214419, 47.706350312028839 ], [ 16.487241780325881, 47.706368172718697 ], [ 16.487031157379008, 47.706381780732549 ], [ 16.486975172670469, 47.706453459772284 ], [ 16.486870786929309, 47.706476761279163 ], [ 16.486794326823464, 47.706505240106836 ], [ 16.486793633373448, 47.706569100321978 ], [ 16.486735754476289, 47.706620391160286 ], [ 16.486725869936066, 47.706653438126111 ], [ 16.486741659946212, 47.706694155416351 ], [ 16.486640173896298, 47.706761228642456 ], [ 16.486490032646362, 47.706757960347652 ], [ 16.486375037171843, 47.706826664220586 ], [ 16.486315749067849, 47.706923285573247 ], [ 16.486278661048122, 47.706943211287985 ], [ 16.486210479103949, 47.706954084329524 ], [ 16.486186619464167, 47.706974367821424 ], [ 16.486113293970558, 47.706988443263803 ], [ 16.486106270110909, 47.707015829036131 ], [ 16.486214366678485, 47.707089674058672 ], [ 16.48618116030352, 47.707125341094432 ], [ 16.486177494176587, 47.707184150238703 ], [ 16.486126224545, 47.707234449198673 ], [ 16.48614924563778, 47.707253447876205 ], [ 16.486050600086894, 47.707305675467403 ], [ 16.485913488421374, 47.707206332577378 ], [ 16.485856673659988, 47.707197714531119 ], [ 16.48577645946688, 47.707205945574643 ], [ 16.485750963181619, 47.707243382166126 ], [ 16.485808572530594, 47.707282953611241 ], [ 16.485828620253077, 47.707385594616291 ], [ 16.485659621642107, 47.707392656725396 ], [ 16.485507615323762, 47.707518110990215 ], [ 16.485365369633964, 47.707493104334475 ], [ 16.485286627870675, 47.707534700974271 ], [ 16.485305858778297, 47.707606029133252 ], [ 16.485249853687762, 47.707670774389527 ], [ 16.485192658142893, 47.707678014167421 ], [ 16.485128455422437, 47.707628628180679 ], [ 16.485059114367889, 47.707680142066451 ], [ 16.485042785523703, 47.707716967149345 ], [ 16.485071710327382, 47.707743187898394 ], [ 16.485026464961795, 47.707769459641653 ], [ 16.484944158701921, 47.707756226897693 ], [ 16.484911478378759, 47.707791789071287 ], [ 16.484910792650048, 47.707818100675176 ], [ 16.484847553666889, 47.707860172733156 ], [ 16.484824908252147, 47.707911757925046 ], [ 16.484724267973615, 47.707939727095152 ], [ 16.484668418134373, 47.708000415806474 ], [ 16.484662465977721, 47.708054515136304 ], [ 16.484584237274404, 47.708062510831361 ], [ 16.484430103185279, 47.708197026199826 ], [ 16.484454672546747, 47.708226247800212 ], [ 16.484436074314434, 47.708276371384045 ], [ 16.484351033007943, 47.708317509562725 ], [ 16.484329416120328, 47.70836402400576 ], [ 16.484327528332418, 47.708368127684643 ], [ 16.484182697900557, 47.708437736364331 ], [ 16.484152905809118, 47.70848141317849 ], [ 16.48405023958923, 47.708515650226914 ], [ 16.483962767018578, 47.708505259562102 ], [ 16.483896477428623, 47.70854543362681 ], [ 16.483891950022468, 47.708565547343227 ], [ 16.483928847869432, 47.70858902879872 ], [ 16.483929515869217, 47.708666718335216 ], [ 16.483837370377032, 47.708725068938691 ], [ 16.483839414937037, 47.708761300611791 ], [ 16.483911254386488, 47.708806786376954 ], [ 16.483836000369699, 47.708830997997858 ], [ 16.483732104857175, 47.708767120632857 ], [ 16.483644046615307, 47.70878916152958 ], [ 16.483560646673059, 47.708819899095346 ], [ 16.483455556880276, 47.708811611223418 ], [ 16.48342175183673, 47.708848464329371 ], [ 16.483423195565333, 47.708854727864889 ], [ 16.483430525789601, 47.708885682311795 ], [ 16.483306620988703, 47.709039358009363 ], [ 16.483165238286613, 47.709126429450031 ], [ 16.483285084637352, 47.709202656811016 ], [ 16.483278632708377, 47.709266224292847 ], [ 16.483119247838456, 47.709322363265784 ], [ 16.482961164398645, 47.709393503689157 ], [ 16.482912736952741, 47.709504502782572 ], [ 16.482873145256573, 47.709567176589417 ], [ 16.482869983063104, 47.709634435806358 ], [ 16.482844049478729, 47.709662429019779 ], [ 16.482708893849995, 47.709686658896352 ], [ 16.482681446609345, 47.709720546349303 ], [ 16.482558930953211, 47.70980638013075 ], [ 16.482509206968437, 47.709864738911065 ], [ 16.482422833076381, 47.709897087728109 ], [ 16.482358363991786, 47.709945404962554 ], [ 16.482250672766796, 47.709918277957946 ], [ 16.482174117528459, 47.709983043712512 ], [ 16.482129209760537, 47.710061620372457 ], [ 16.482038470825813, 47.710112367226415 ], [ 16.482031658804981, 47.710154423987866 ], [ 16.482008129290367, 47.710191355565996 ], [ 16.482041500268512, 47.710260496267914 ], [ 16.48200708508929, 47.710309431448579 ], [ 16.481953945134141, 47.710328714428449 ], [ 16.481932452928746, 47.710361808394126 ], [ 16.481871382568023, 47.710384549940947 ], [ 16.481827112708313, 47.710436005843135 ], [ 16.481766990766481, 47.71045899150679 ], [ 16.481769224686303, 47.710487294137387 ], [ 16.481694529234815, 47.710567496145167 ], [ 16.481643599143187, 47.710579154827258 ], [ 16.481609665633648, 47.710605025505593 ], [ 16.481592226486317, 47.710636747875228 ], [ 16.481602653927812, 47.710743704560834 ], [ 16.481500633503462, 47.71087318768636 ], [ 16.481288055962551, 47.711032258639996 ], [ 16.481105509415045, 47.71107606204432 ], [ 16.480985751048706, 47.711139037486092 ], [ 16.480918673239032, 47.71113285874754 ], [ 16.480843905808054, 47.711165248928921 ], [ 16.480743801703166, 47.711268926393558 ], [ 16.480693588667645, 47.711299204043591 ], [ 16.480605787018774, 47.711370039075277 ], [ 16.480415707272595, 47.711443941885996 ], [ 16.480398470261225, 47.711490155532985 ], [ 16.480408353371015, 47.711510325094572 ], [ 16.480368912441637, 47.711546701030215 ], [ 16.480209633059435, 47.711586985111111 ], [ 16.48010348414261, 47.711627796774223 ], [ 16.480012353245215, 47.711618763663289 ], [ 16.47985258240206, 47.711644203486877 ], [ 16.479758069921246, 47.71167884374703 ], [ 16.479708597258377, 47.711717024524944 ], [ 16.479602490231382, 47.711722987701457 ], [ 16.479559837182588, 47.711768095360306 ], [ 16.479479129075045, 47.711774894598392 ], [ 16.479360578935694, 47.711826939932955 ], [ 16.479310619911669, 47.711863693129153 ], [ 16.479253120598457, 47.711905965047109 ], [ 16.479179916402224, 47.711908867101386 ], [ 16.479084571439813, 47.711985219701035 ], [ 16.478986974126386, 47.712028497774753 ], [ 16.478979536083276, 47.712042387753868 ], [ 16.478886664458479, 47.712064376304127 ], [ 16.478809915738299, 47.712108254782315 ], [ 16.478749672510915, 47.712115934690388 ], [ 16.478606002902659, 47.712158491018378 ], [ 16.478595397304858, 47.712197409613992 ], [ 16.478544470336512, 47.712209156816598 ], [ 16.478522977144596, 47.712273405130496 ], [ 16.478473926005712, 47.712278617888082 ], [ 16.478476369815759, 47.712354907971957 ], [ 16.478424978536914, 47.712394491249412 ], [ 16.478363083352903, 47.712387989229718 ], [ 16.478310729637833, 47.712415983150777 ], [ 16.478291474240812, 47.712466393584755 ], [ 16.478253308272052, 47.712486255918989 ], [ 16.478203233288472, 47.712512206542165 ], [ 16.47809173183591, 47.712546139161304 ], [ 16.478002728391917, 47.712519217670256 ], [ 16.477937952092045, 47.71252918207815 ], [ 16.477887804108931, 47.712484990691522 ], [ 16.477770110821119, 47.712489107751338 ], [ 16.477728246717181, 47.712494033717654 ], [ 16.477610441525513, 47.712527417794824 ], [ 16.477497342425313, 47.712570307789825 ], [ 16.477389317341018, 47.7125643455092 ], [ 16.47725524101579, 47.71258448724469 ], [ 16.477078931474431, 47.71254113162626 ], [ 16.476890299891664, 47.71253701117211 ], [ 16.476808164307986, 47.712568969610196 ], [ 16.476617585214402, 47.712703658806007 ], [ 16.476591549120513, 47.712736695688974 ], [ 16.476610316792126, 47.712784896442074 ], [ 16.476561243197519, 47.712811989525669 ], [ 16.476425258967165, 47.712840376338974 ], [ 16.476343338914603, 47.712869267059304 ], [ 16.476249048925773, 47.712938835059823 ], [ 16.476197636517234, 47.71304261878236 ], [ 16.476155019840256, 47.713152915465962 ], [ 16.47617325746161, 47.713152237205108 ], [ 16.476157207716952, 47.713180499018371 ], [ 16.476141519817755, 47.713208120641141 ], [ 16.476124863339574, 47.713237389498921 ], [ 16.476113360765194, 47.713261385101497 ], [ 16.476100525842206, 47.713361053524622 ], [ 16.476067914843473, 47.713615956617836 ], [ 16.476021887657605, 47.714176653169687 ], [ 16.475997952279844, 47.714198016906408 ], [ 16.475871192696964, 47.714211203795493 ], [ 16.475781885450516, 47.714232642120102 ], [ 16.475689435166871, 47.714255066646245 ], [ 16.475545954282364, 47.71428977998292 ], [ 16.475388265145465, 47.714327852569717 ], [ 16.475239392598567, 47.714363883313126 ], [ 16.475105644202586, 47.714396259322235 ], [ 16.474937679976009, 47.714447668120059 ], [ 16.47478715126746, 47.714493918371126 ], [ 16.474641203591279, 47.714538692698383 ], [ 16.474468135107646, 47.714591770874989 ], [ 16.474274498089326, 47.714651173041716 ], [ 16.474144864510844, 47.714687667600465 ], [ 16.473846233524917, 47.714771725494664 ], [ 16.473364974102356, 47.714887419539821 ], [ 16.473229658103588, 47.71491371314066 ], [ 16.473088673410139, 47.714941151741399 ], [ 16.472926851551534, 47.714988247897871 ], [ 16.472895772087583, 47.714997289876358 ], [ 16.472818858252253, 47.715014065585073 ], [ 16.472709808546703, 47.715037840998725 ], [ 16.472605761299324, 47.715060489345568 ], [ 16.472505267421507, 47.71508232030439 ], [ 16.47236556973137, 47.715115665730885 ], [ 16.472269061038642, 47.715137207668874 ], [ 16.472166622637573, 47.715159991803425 ], [ 16.47205720502231, 47.715184316877163 ], [ 16.471976157287894, 47.715203365810879 ], [ 16.471968128665612, 47.71520520559357 ], [ 16.471892680688409, 47.715215277488866 ], [ 16.4718039982649, 47.715227151016869 ], [ 16.471712534634065, 47.715239370464822 ], [ 16.471633911156967, 47.71524988897481 ], [ 16.471540987567522, 47.715262238148028 ], [ 16.471393779325741, 47.715283811476738 ], [ 16.471251062280668, 47.715304631828936 ], [ 16.471096570537583, 47.715327123749958 ], [ 16.47099101500692, 47.71534242820001 ], [ 16.470947497047298, 47.715348747364018 ], [ 16.470876993436345, 47.715358953882678 ], [ 16.470815258518037, 47.715366310003439 ], [ 16.47075033740154, 47.715373933056405 ], [ 16.470651109642994, 47.715385733053381 ], [ 16.47054379393872, 47.715398383788504 ], [ 16.470436478182677, 47.71541103442356 ], [ 16.470335682700938, 47.71543008033246 ], [ 16.470235808827454, 47.715448920939181 ], [ 16.470021207514204, 47.715499252664578 ], [ 16.469797660733104, 47.715551718727333 ], [ 16.469719770906476, 47.71557004965036 ], [ 16.469623044894501, 47.715596907777339 ], [ 16.469509920797261, 47.715628444798 ], [ 16.469400989246139, 47.715658696874307 ], [ 16.469244658441912, 47.715701766186136 ], [ 16.469173120379796, 47.715721454345847 ], [ 16.469094745667984, 47.715740608434231 ], [ 16.469022295291236, 47.715758430457583 ], [ 16.468886584423441, 47.715791572855366 ], [ 16.468734442993828, 47.715828854578945 ], [ 16.468681315686489, 47.715841827769182 ], [ 16.468514840962662, 47.715889314446493 ], [ 16.468509071263362, 47.715891002387963 ], [ 16.468438768325736, 47.715900121396132 ], [ 16.468369786683226, 47.71590902427414 ], [ 16.468260029837083, 47.715923270077425 ], [ 16.468146165004701, 47.715937987866347 ], [ 16.468030978786338, 47.715952921625949 ], [ 16.467946727737903, 47.715965301697295 ], [ 16.467684325457213, 47.716003964982917 ], [ 16.467680361482842, 47.716004613220854 ], [ 16.467542774550626, 47.716019796515283 ], [ 16.467436607282234, 47.716031602627993 ], [ 16.467402991694435, 47.716033958940862 ], [ 16.467318763652315, 47.716040034915387 ], [ 16.46722868519112, 47.716046450258517 ], [ 16.467223500831476, 47.716046771547902 ], [ 16.467200781400436, 47.716048380813788 ], [ 16.467197094584865, 47.716049201571842 ], [ 16.467188277169477, 47.71605124258226 ], [ 16.467089303561426, 47.716074017761066 ], [ 16.466954394096721, 47.71610497496787 ], [ 16.466900358656861, 47.716125085435252 ], [ 16.466717752267115, 47.716192908237666 ], [ 16.466633696838421, 47.71622419100251 ], [ 16.466538672162432, 47.716259464157353 ], [ 16.466444563694967, 47.716294442153526 ], [ 16.46637480617548, 47.716319392565836 ], [ 16.466253329796551, 47.71636303936387 ], [ 16.466128326438252, 47.716407952612791 ], [ 16.466008959498492, 47.716451181536542 ], [ 16.465992636176342, 47.71645711856101 ], [ 16.465887224877449, 47.7165016782156 ], [ 16.465765421296528, 47.716553257150025 ], [ 16.465659887148767, 47.716598000014905 ], [ 16.465547705331854, 47.716647605963423 ], [ 16.465404848770181, 47.716710832852037 ], [ 16.464974760808854, 47.715955284609201 ], [ 16.464760231831907, 47.715509018403807 ], [ 16.464711636553215, 47.715408052320264 ], [ 16.464691219200741, 47.715365567521836 ], [ 16.464571782756884, 47.715117328391187 ], [ 16.464541112136374, 47.715126537032219 ], [ 16.464462200579593, 47.715150114653916 ], [ 16.464425238088943, 47.71516120529553 ], [ 16.464333231411985, 47.715188920973247 ], [ 16.464298106896351, 47.715199511344082 ], [ 16.464216845748314, 47.715223963111889 ], [ 16.464145397753338, 47.715245176392585 ], [ 16.464073683288081, 47.715266396877787 ], [ 16.463929609633258, 47.71530921542189 ], [ 16.463451062922871, 47.715472966335405 ], [ 16.463064951208214, 47.715605027096103 ], [ 16.462784754672676, 47.715700980120545 ], [ 16.46277847882223, 47.715703131750232 ], [ 16.462740562662219, 47.715716138663623 ], [ 16.462714020802188, 47.715725234505868 ], [ 16.462673616613419, 47.715739029405562 ], [ 16.462662503335448, 47.715742843317805 ], [ 16.462248934641693, 47.715884382103773 ], [ 16.462103011913246, 47.715934271878687 ], [ 16.461305813015493, 47.716207165401421 ], [ 16.46094323354847, 47.716331285558084 ], [ 16.46080876249432, 47.716376360214781 ], [ 16.460727531001613, 47.716403599933223 ], [ 16.45971400452154, 47.715070239758212 ], [ 16.459586300430445, 47.714902178538871 ], [ 16.459465111571461, 47.714742674305356 ], [ 16.459445566686647, 47.714768417247086 ], [ 16.459383954849841, 47.714849418679712 ], [ 16.459325692703754, 47.714926187109953 ], [ 16.459068500967426, 47.715264710894388 ], [ 16.459041403822965, 47.715300293467756 ], [ 16.458857826364486, 47.715542092138719 ], [ 16.458802273416538, 47.715615094914362 ], [ 16.45866428580981, 47.71570411329369 ], [ 16.458597212209561, 47.715747264643994 ], [ 16.458269232650398, 47.715621559096896 ], [ 16.458219938586428, 47.715602638293639 ], [ 16.458194256860793, 47.715590369646605 ], [ 16.458158540094235, 47.71557315106061 ], [ 16.458146137078138, 47.71560680361619 ], [ 16.458061965755185, 47.715833115156293 ], [ 16.457928508764518, 47.716172687768825 ], [ 16.457894534925064, 47.716218271398155 ], [ 16.457788554819015, 47.716360805095228 ], [ 16.45769687618829, 47.716459009632295 ], [ 16.457492930901893, 47.716677137419488 ], [ 16.457302273593211, 47.716880947450534 ], [ 16.457127189839632, 47.717068486862587 ], [ 16.457087682630775, 47.717110798818354 ], [ 16.456991905408511, 47.717229823722114 ], [ 16.456971820176726, 47.717255490796795 ], [ 16.456806353063413, 47.717414135103503 ], [ 16.456737317903212, 47.717482640405294 ], [ 16.456645238840473, 47.717574191706348 ], [ 16.456485119685802, 47.71773305049205 ], [ 16.45634604609069, 47.717871168344942 ], [ 16.456332621236182, 47.717880987152412 ], [ 16.456327251292969, 47.71788491467499 ], [ 16.456235184283582, 47.717952063799693 ], [ 16.45617035045322, 47.717999294741176 ], [ 16.456054251334042, 47.718084113918749 ], [ 16.455964991124379, 47.718149115660346 ], [ 16.45587611962252, 47.718213926692947 ], [ 16.455787764688601, 47.718278453505569 ], [ 16.455735081911776, 47.718316890470717 ], [ 16.455744597222207, 47.718328787981115 ], [ 16.455766229274467, 47.718355934016273 ], [ 16.455785398499412, 47.718379815312936 ], [ 16.455936797171056, 47.71858730634051 ], [ 16.456369450712405, 47.719159399082102 ], [ 16.45654949523378, 47.719397446657851 ], [ 16.45662510630973, 47.719499663423157 ], [ 16.45699754068843, 47.719920856840467 ], [ 16.457098554511798, 47.720035079725072 ], [ 16.457058712071749, 47.720053899631111 ], [ 16.457016930268434, 47.720073762633206 ], [ 16.456971253683896, 47.720095442147787 ], [ 16.456963469542892, 47.720099165099789 ], [ 16.456918965091329, 47.720120362563087 ], [ 16.456926983434446, 47.720131760367487 ], [ 16.456944209139181, 47.720156594672595 ], [ 16.457020650461512, 47.720265992059431 ], [ 16.4571298825377, 47.720365855192789 ], [ 16.457210315043824, 47.720410133557962 ], [ 16.457335815932314, 47.720507573928678 ], [ 16.45736497126116, 47.72052659172784 ], [ 16.45763431853927, 47.720727006778922 ], [ 16.45778847907151, 47.720853022369198 ], [ 16.457898500849275, 47.720948181188199 ], [ 16.457945937331957, 47.720989573223534 ], [ 16.458110080265673, 47.721159888330561 ], [ 16.458239411941353, 47.721290179274412 ], [ 16.458338200606534, 47.721396087664608 ], [ 16.458509219555655, 47.721607815101805 ], [ 16.458646527765886, 47.72177336570082 ], [ 16.458740375831255, 47.721930642070276 ], [ 16.458743345945841, 47.721935693818359 ], [ 16.458705144618868, 47.721941773716438 ], [ 16.458622789772161, 47.721954815465629 ], [ 16.458570312865778, 47.721963173910396 ], [ 16.458529432583706, 47.721973558495158 ], [ 16.458506434788333, 47.721979495559083 ], [ 16.458455957831152, 47.721992301754682 ], [ 16.458398255413581, 47.722007014950869 ], [ 16.4583392368102, 47.722022033986597 ], [ 16.458375887896093, 47.722090641420372 ], [ 16.458403670870116, 47.722142561709362 ], [ 16.45853473957342, 47.722351142051551 ], [ 16.458553677241984, 47.722375569480995 ], [ 16.458702902844589, 47.722568619479894 ], [ 16.458863637171419, 47.722824836589723 ], [ 16.458995664912031, 47.723009169027108 ], [ 16.459258389574476, 47.723304034909965 ], [ 16.459286839584838, 47.723340269521515 ], [ 16.45947690550809, 47.72358254293313 ], [ 16.459600438162479, 47.723713890481243 ], [ 16.459864362819477, 47.724102546677457 ], [ 16.460054241933779, 47.724343833848415 ], [ 16.460216395718078, 47.724614687629959 ], [ 16.460274825809346, 47.724735107440367 ], [ 16.46035887869547, 47.724920381856712 ], [ 16.460319732033504, 47.724926307833975 ], [ 16.460303201552581, 47.72492882796903 ], [ 16.46028838697832, 47.724931031350899 ], [ 16.460244742634494, 47.724937619764852 ], [ 16.460205196253494, 47.724943556563218 ], [ 16.460160491404853, 47.724950263801709 ], [ 16.46009250953967, 47.724960484810758 ], [ 16.460067777718344, 47.724964218205287 ], [ 16.460013549930927, 47.724972354669568 ], [ 16.459971227100908, 47.724978726988951 ], [ 16.459921230495386, 47.724986208199169 ], [ 16.459894649505937, 47.724990261921477 ], [ 16.459820715045172, 47.725001364825843 ], [ 16.459736069281139, 47.725014109307224 ], [ 16.459674300846089, 47.725023350885778 ], [ 16.459504609440494, 47.725048850428436 ], [ 16.459413089124453, 47.725062681835382 ], [ 16.459345368067236, 47.725072805268319 ], [ 16.459270639348098, 47.725084019429872 ], [ 16.459175282010197, 47.725098405079009 ], [ 16.459152654947484, 47.725101630892965 ], [ 16.459003138320224, 47.725123070054025 ], [ 16.458946506670749, 47.725131181253509 ], [ 16.458875193542315, 47.725141492006628 ], [ 16.458814591715086, 47.725150161177751 ], [ 16.458763912534792, 47.725157390287109 ], [ 16.458656473731889, 47.725172823945819 ], [ 16.458611885634596, 47.725179257274561 ], [ 16.458555253863899, 47.725187368281524 ], [ 16.458494657292832, 47.72519612718088 ], [ 16.458436437427288, 47.725204461338777 ], [ 16.458364591171264, 47.72521478624725 ], [ 16.458324101021301, 47.725220567930869 ], [ 16.458252782287214, 47.725230788401625 ], [ 16.458214018766551, 47.725236433119385 ], [ 16.458127746641114, 47.725248770346582 ], [ 16.458088316933587, 47.72525443310991 ], [ 16.458025332752683, 47.725263436671163 ], [ 16.457973209246067, 47.725271064811174 ], [ 16.457920291692801, 47.725278804528301 ], [ 16.457904805397931, 47.72528093579335 ], [ 16.457886303806809, 47.725286210359442 ], [ 16.457824356410267, 47.725303649631577 ], [ 16.457788791941802, 47.725313709462313 ], [ 16.457756243553334, 47.725322877017284 ], [ 16.457728288591873, 47.725330749306757 ], [ 16.457651249884702, 47.7253524700116 ], [ 16.457610431104861, 47.72536393302213 ], [ 16.457589169099336, 47.725369912773942 ], [ 16.457552815867505, 47.725380174026817 ], [ 16.457506092712975, 47.725393328005467 ], [ 16.457455564757421, 47.725407575716346 ], [ 16.457403198320637, 47.725422323523034 ], [ 16.457267008692089, 47.725459155997036 ], [ 16.457212915486327, 47.725474040629315 ], [ 16.457166309316055, 47.725486921163082 ], [ 16.45711812576933, 47.725500204661834 ], [ 16.457078345821444, 47.725511189068385 ], [ 16.457011122174322, 47.725529671523951 ], [ 16.456983555970126, 47.72553735298991 ], [ 16.456952440706452, 47.725545941157932 ], [ 16.456922636323551, 47.7255541335687 ], [ 16.456914888132115, 47.725556234754947 ], [ 16.456952798120454, 47.725578796862948 ], [ 16.456995061815856, 47.725631855140101 ], [ 16.45740249380091, 47.725853644917727 ], [ 16.457568279875822, 47.725943868818483 ], [ 16.457947198684291, 47.72624017542671 ], [ 16.458120742146594, 47.726332889233724 ], [ 16.458150379517292, 47.726348742336107 ], [ 16.458373210145783, 47.726484688437438 ], [ 16.458657777098018, 47.726747267841702 ], [ 16.458895285486381, 47.726847337753284 ], [ 16.458951744729141, 47.726872096745034 ], [ 16.459174714546283, 47.726970039772503 ], [ 16.459273998269278, 47.726999038000159 ], [ 16.459494041167705, 47.727063564203554 ], [ 16.459895171715832, 47.727170442771538 ], [ 16.460386791085792, 47.726870481212984 ], [ 16.460538090262915, 47.726778218662339 ], [ 16.460672029819349, 47.726683546270095 ], [ 16.461425888094766, 47.72614693552805 ], [ 16.462101911338024, 47.725659167508304 ], [ 16.462204027124823, 47.72562163487175 ], [ 16.462686623375028, 47.72545481064833 ], [ 16.462807831482259, 47.725412976507101 ], [ 16.462981594501205, 47.725352875086585 ], [ 16.463166083433119, 47.725289150115103 ], [ 16.463326918719027, 47.725291889238932 ], [ 16.463401860440083, 47.725293182546558 ], [ 16.464011131001691, 47.72530344246492 ], [ 16.464038511221965, 47.725299366046251 ], [ 16.464087940191057, 47.725298021376581 ], [ 16.465112299227787, 47.725269159370605 ], [ 16.465310612085915, 47.72525367769591 ], [ 16.465323098232325, 47.725252707587096 ], [ 16.465617311615183, 47.7252252509684 ], [ 16.465979193840241, 47.725213599966345 ], [ 16.466117882315377, 47.72520973463007 ], [ 16.466158778965127, 47.725208531291599 ], [ 16.466324779835716, 47.725203922194318 ], [ 16.466802027618375, 47.725246935247732 ], [ 16.467283379213818, 47.725068509634745 ], [ 16.468194562680246, 47.724901244854351 ], [ 16.468437691891282, 47.724836364037266 ], [ 16.468604763858604, 47.724834063548187 ], [ 16.469078257035303, 47.724827735929424 ], [ 16.469354584340476, 47.724824798427733 ], [ 16.469478612134399, 47.724823489544185 ], [ 16.470066987636937, 47.72487930814448 ], [ 16.470229513523428, 47.72489468756477 ], [ 16.47028521313598, 47.724900012551586 ], [ 16.470457002015142, 47.724916309716562 ], [ 16.470716655737409, 47.724915714376394 ], [ 16.470783772849874, 47.724915595414352 ], [ 16.470851289652867, 47.724915465516276 ], [ 16.471016209905869, 47.724915111096081 ], [ 16.471409825990204, 47.724914193249788 ], [ 16.472361989123339, 47.724912176965624 ], [ 16.473725171106629, 47.724547229525875 ], [ 16.473878046500094, 47.724515144344949 ], [ 16.474611107362975, 47.724475687574916 ], [ 16.475857971522952, 47.724674857743125 ], [ 16.4767870807758, 47.724702338130768 ], [ 16.478077995237541, 47.724512375211852 ], [ 16.478209635945724, 47.72448005408156 ], [ 16.479345069584728, 47.72415664929914 ], [ 16.480790908566568, 47.723744785131323 ], [ 16.481028577705093, 47.723722616993136 ], [ 16.481546994279178, 47.723668996837091 ], [ 16.481860826255566, 47.723592968384175 ], [ 16.482389580178154, 47.723365007567409 ], [ 16.483034899999073, 47.723093874501146 ], [ 16.483711137096101, 47.722935346056715 ], [ 16.485319357216618, 47.72267952525506 ], [ 16.48618459569898, 47.722541917603614 ], [ 16.486638396321201, 47.722789619640558 ], [ 16.486893681855413, 47.722867355176753 ], [ 16.487080321004637, 47.722924190426774 ], [ 16.487607098975179, 47.72297863601694 ], [ 16.4876510771218, 47.72297544960216 ], [ 16.487672338872013, 47.722973966368507 ], [ 16.48878514560932, 47.722894474403788 ], [ 16.489031106385617, 47.722941395888526 ], [ 16.490485815578378, 47.72321880938653 ], [ 16.490896753362993, 47.723292896141629 ], [ 16.491382791021497, 47.723399677473878 ], [ 16.492215710579064, 47.723051398182882 ], [ 16.492901630802418, 47.722821504506925 ], [ 16.492947407917462, 47.722806110729913 ], [ 16.493424056568845, 47.722624460241661 ], [ 16.493764207682808, 47.722580271862846 ], [ 16.494456599870659, 47.722588357268108 ], [ 16.495482900417795, 47.722820297673422 ], [ 16.495893579712909, 47.722863488691161 ], [ 16.49600266637874, 47.722893266746574 ], [ 16.497118248021348, 47.723198016065737 ], [ 16.497893753642465, 47.723556859216608 ], [ 16.498210736759383, 47.723703468200384 ], [ 16.498863897753502, 47.724188400066637 ], [ 16.499391300484781, 47.724259343371358 ], [ 16.500350059373933, 47.724216303886529 ], [ 16.500721509882101, 47.724091544523709 ], [ 16.501554205571818, 47.723934546726923 ], [ 16.502002285095244, 47.723850084288209 ], [ 16.502898103089766, 47.723803533796982 ], [ 16.503477002275975, 47.723816852355888 ], [ 16.503804408594462, 47.723740659444523 ], [ 16.504260918302144, 47.723892592677089 ], [ 16.5043364407531, 47.723890241538236 ], [ 16.504581926059032, 47.7238826664979 ], [ 16.504911530392114, 47.723992711901609 ], [ 16.505240680456478, 47.72412609044585 ], [ 16.505281395334411, 47.724113082344708 ], [ 16.506389024789225, 47.724683954760913 ], [ 16.506610250674001, 47.724797974228423 ], [ 16.507225548543939, 47.725118943425471 ], [ 16.507252282471459, 47.725132883378286 ], [ 16.509478077442019, 47.726347497853446 ], [ 16.509490496334017, 47.726356429709675 ], [ 16.509514080552243, 47.726373427568767 ], [ 16.509539473089276, 47.726391636140789 ], [ 16.509589426128787, 47.726427535965001 ], [ 16.509601706377435, 47.726436381591952 ], [ 16.510094911725442, 47.72666678937918 ], [ 16.510388965091952, 47.726804094216618 ], [ 16.511420291832891, 47.727285631953613 ], [ 16.511539988762507, 47.727340405325045 ], [ 16.51268093720039, 47.727862036411551 ], [ 16.51279089339533, 47.727912395312018 ], [ 16.51428490037959, 47.728614791781474 ], [ 16.514316450861866, 47.728628867192768 ], [ 16.514337575169989, 47.728638278305048 ], [ 16.514366928393784, 47.728651333896359 ], [ 16.514433874719373, 47.728681269322472 ], [ 16.514914051700977, 47.728129437644363 ], [ 16.514930519643766, 47.728110523188491 ], [ 16.51512847847431, 47.728247411412319 ], [ 16.515151364228768, 47.728266048301364 ], [ 16.5152328012142, 47.728332411003279 ], [ 16.515349476955606, 47.728427424128959 ], [ 16.515377138593987, 47.728449980950927 ], [ 16.515406902539436, 47.728474190493202 ], [ 16.515423476178015, 47.728487779251878 ], [ 16.517540186535452, 47.7298695040868 ], [ 16.517640689891202, 47.729933266672603 ], [ 16.518915859157609, 47.730840660025329 ], [ 16.518983210611889, 47.730888140504675 ], [ 16.519155581145775, 47.730801428398472 ], [ 16.519966811528025, 47.730332256830494 ], [ 16.520382069506056, 47.730082949473186 ], [ 16.520412875766748, 47.730100105420973 ], [ 16.520444791718425, 47.730117950992344 ], [ 16.521021564491896, 47.730432803391096 ], [ 16.522575921073877, 47.73128154975204 ], [ 16.525641362388765, 47.732947586987244 ], [ 16.525662937739909, 47.7329599551014 ], [ 16.525707198273487, 47.732985380898228 ], [ 16.525727808057763, 47.732997235510339 ], [ 16.525872476550269, 47.733080206603148 ], [ 16.52790170166023, 47.734179635419494 ], [ 16.527981360787695, 47.734222987442834 ], [ 16.528008004520188, 47.734237465603748 ], [ 16.528034515017378, 47.734251947456876 ], [ 16.529106452632178, 47.73483602967265 ], [ 16.529370495069678, 47.734985197247703 ], [ 16.529827530961427, 47.735243452577876 ], [ 16.52984353130168, 47.735251922733212 ], [ 16.529867956263921, 47.735265021379263 ], [ 16.529890033662777, 47.735276834533749 ], [ 16.530798899665005, 47.735764669674147 ], [ 16.531054199064275, 47.735901650214636 ], [ 16.531550732392187, 47.736168166550762 ], [ 16.531580136497904, 47.736184098009133 ], [ 16.533610397839691, 47.737296459897863 ], [ 16.533643133194662, 47.737314459336631 ], [ 16.533675174823596, 47.737332027826497 ], [ 16.533685809121433, 47.737337855258509 ], [ 16.535025141727175, 47.736234289152719 ], [ 16.535074837647795, 47.736193466827935 ], [ 16.535267104838564, 47.736034950891955 ], [ 16.535602453106346, 47.735756205082367 ], [ 16.536500128765695, 47.735010051187039 ], [ 16.536535952125451, 47.73498032965869 ], [ 16.536758656908823, 47.73479584110607 ], [ 16.537381366248791, 47.73427488239912 ], [ 16.537699068918318, 47.733998241765576 ], [ 16.539989046309643, 47.732004240801132 ], [ 16.540038215149288, 47.731948393077253 ], [ 16.540072273950379, 47.731909534783959 ], [ 16.54027873299005, 47.731721709278141 ], [ 16.540461324532181, 47.731543012754571 ], [ 16.540774123193195, 47.731250020766346 ], [ 16.540924458634017, 47.73110914119335 ], [ 16.541105450962252, 47.730954530370717 ], [ 16.541614809632602, 47.730538997375568 ], [ 16.54220429338066, 47.73001974590953 ], [ 16.542510120903046, 47.729752696139869 ], [ 16.542759520856851, 47.729540616409118 ], [ 16.543035602910365, 47.729297896605054 ], [ 16.543334964282231, 47.729045251999011 ], [ 16.543726374896242, 47.728689637272531 ], [ 16.543979162436294, 47.728465483917326 ], [ 16.544534317133042, 47.727976981983801 ], [ 16.544682637138159, 47.727842726465944 ], [ 16.545003037780731, 47.727578684338759 ], [ 16.545154663232779, 47.727446136816894 ], [ 16.545175729676419, 47.727434923419153 ], [ 16.545239145710323, 47.727363457688746 ], [ 16.545282328354304, 47.7273146179771 ], [ 16.545422702481918, 47.727164014614473 ], [ 16.545507437609846, 47.727085470340413 ], [ 16.545686875072217, 47.726958178852691 ], [ 16.545936972738311, 47.726766602469432 ], [ 16.545966653742823, 47.726743532448708 ], [ 16.545988688217562, 47.726726348802302 ], [ 16.546001672221969, 47.726713920124489 ], [ 16.546063598603659, 47.726655191999328 ], [ 16.546363046997485, 47.726376152501821 ], [ 16.54649193216278, 47.726234152681045 ], [ 16.546676845573018, 47.726035209710318 ], [ 16.546897319402824, 47.725765487395414 ], [ 16.546911369538016, 47.725737810976838 ], [ 16.547207637301902, 47.725394024300769 ], [ 16.547640171186256, 47.724887318548042 ], [ 16.547909447666406, 47.724554008656256 ], [ 16.548047803812917, 47.724429481397053 ], [ 16.548223843649641, 47.724292735426921 ], [ 16.548394142613489, 47.724171187323719 ], [ 16.548470713969404, 47.724107636271718 ], [ 16.548736937117582, 47.723853020102425 ], [ 16.549449845908374, 47.723216278835721 ], [ 16.548904324641171, 47.722907806140739 ], [ 16.54842267366995, 47.722635366116172 ], [ 16.547809573634215, 47.722243142327578 ], [ 16.545978657687282, 47.72107171145354 ], [ 16.545935181075524, 47.721043840238885 ], [ 16.544980306927954, 47.720391454450422 ], [ 16.54428583468848, 47.71984201199151 ], [ 16.544257648833607, 47.719819746614924 ], [ 16.543055278670845, 47.718868724459433 ], [ 16.541826981493749, 47.717757230680299 ], [ 16.54181991382903, 47.717750764325899 ], [ 16.541794915034355, 47.717719494933938 ], [ 16.541475219769026, 47.717318697945771 ], [ 16.541446568667894, 47.717288790968333 ], [ 16.541410229174222, 47.717250994171984 ], [ 16.541382443422265, 47.717222143609725 ], [ 16.540994109644611, 47.716833434351557 ], [ 16.540612140619327, 47.716385115895896 ], [ 16.539736411625459, 47.715529950721049 ], [ 16.53871797678827, 47.714494250374301 ], [ 16.538661666302158, 47.714448364723964 ], [ 16.538625853126792, 47.71441910687065 ], [ 16.538563374155643, 47.714368350427463 ], [ 16.538534306509504, 47.714344667594624 ], [ 16.538564595804687, 47.71427052610634 ], [ 16.538647323085716, 47.714181146673695 ], [ 16.538962564496838, 47.713947068074667 ], [ 16.539424239285438, 47.71364434488887 ], [ 16.539213735128492, 47.713487947043468 ], [ 16.539171247200024, 47.713456444097154 ], [ 16.539090171460728, 47.713396120928756 ], [ 16.539063555416121, 47.713375431499166 ], [ 16.539036379113295, 47.713354307442387 ], [ 16.539002335293908, 47.713327791851434 ], [ 16.538971752156474, 47.713305502054084 ], [ 16.538917137599491, 47.713265512351732 ], [ 16.538894648306353, 47.713249030132573 ], [ 16.538812020651328, 47.713196043775497 ], [ 16.538773937189859, 47.713168920298777 ], [ 16.538532720204561, 47.713001130667962 ], [ 16.53846081364685, 47.712951087070898 ], [ 16.538333865211285, 47.712862776257587 ], [ 16.538187190090689, 47.712790052549344 ], [ 16.538011014229596, 47.712706174223364 ], [ 16.537669720591257, 47.712535947713441 ], [ 16.537615012051585, 47.712535850564215 ], [ 16.536343963346308, 47.712532343146286 ], [ 16.536273515915855, 47.71253232333887 ], [ 16.536211476205015, 47.712532339569101 ], [ 16.536129696275427, 47.712532455060327 ], [ 16.536004095433327, 47.712533790330809 ], [ 16.535884491030302, 47.712530636331117 ], [ 16.535689626385334, 47.71252948697601 ], [ 16.535573932717007, 47.712529195327882 ], [ 16.5354766583112, 47.712529021241608 ], [ 16.535279751827382, 47.71252720765235 ], [ 16.53523769676001, 47.712526757222115 ], [ 16.535072599042316, 47.712519285588613 ], [ 16.535056394660167, 47.712518295793743 ], [ 16.53495541148088, 47.712512011291174 ], [ 16.534878268707732, 47.712507224406444 ], [ 16.53486627163279, 47.71250521704691 ], [ 16.534747554596883, 47.712486008960262 ], [ 16.534714905642453, 47.712477912822088 ], [ 16.534700073062165, 47.71247535402177 ], [ 16.533925599265892, 47.712344813524254 ], [ 16.533723387378249, 47.71231072828094 ], [ 16.533244470276269, 47.712219956014067 ], [ 16.532687675956893, 47.712114508823483 ], [ 16.532141193298148, 47.71185227226627 ], [ 16.532108617011879, 47.711836609521292 ], [ 16.532039619879846, 47.71180349992683 ], [ 16.53199536625587, 47.711836966767763 ], [ 16.531941131055603, 47.711875213397079 ], [ 16.531739073265232, 47.711603128795261 ], [ 16.531513069134061, 47.711294970767028 ], [ 16.53142446413548, 47.711312201347901 ], [ 16.531328738047385, 47.711330800399907 ], [ 16.531257005918505, 47.711344680365386 ], [ 16.531170629006578, 47.711365630746748 ], [ 16.531013532820431, 47.711403944513464 ], [ 16.530978642890748, 47.711411577638856 ], [ 16.530942959285028, 47.711419322858177 ], [ 16.530881732633382, 47.711432640463578 ], [ 16.530844094191664, 47.711434586991693 ], [ 16.530745941208036, 47.711439656050729 ], [ 16.530661085455534, 47.711443995301885 ], [ 16.530568648719598, 47.711448725257675 ], [ 16.530553886356159, 47.711449495686402 ], [ 16.529805071856096, 47.711467961489817 ], [ 16.529282066741782, 47.711480960337404 ], [ 16.529056400984238, 47.711486598510398 ], [ 16.528758376773368, 47.711489293436465 ], [ 16.528547870732933, 47.711489737128012 ], [ 16.528156071567285, 47.71149053251446 ], [ 16.527892583667438, 47.711484162027737 ], [ 16.527873071854888, 47.711483623253969 ], [ 16.52728944932047, 47.711403928120241 ], [ 16.526420850176304, 47.711219132188695 ], [ 16.525994154600792, 47.711148582027427 ], [ 16.525968008785402, 47.711144265016408 ], [ 16.525321245728911, 47.711070454329658 ], [ 16.524777147920926, 47.711052501996349 ], [ 16.5246497732421, 47.71105531490808 ], [ 16.524002820578385, 47.711109817249927 ], [ 16.523654303723614, 47.711137761419316 ], [ 16.523249366065205, 47.711170330437284 ], [ 16.522685232098677, 47.711224329911445 ], [ 16.522264841289832, 47.711296763783764 ], [ 16.522123596636764, 47.711319408171242 ], [ 16.521613677135615, 47.711393960828616 ], [ 16.520953537921507, 47.711538856779462 ], [ 16.520763815918446, 47.71158049150042 ], [ 16.51990762481077, 47.711829772644002 ], [ 16.519581441136772, 47.711955235264838 ], [ 16.519201728435846, 47.712135125898065 ], [ 16.518651660324434, 47.712420762692567 ], [ 16.518374053733005, 47.712590439751715 ], [ 16.518169240916055, 47.712748286129703 ], [ 16.517859891286541, 47.712953327897409 ], [ 16.517837201243751, 47.712961969959636 ], [ 16.517284351002193, 47.712185321973159 ], [ 16.516740796944624, 47.711407694057414 ], [ 16.516664284344188, 47.711296804228645 ], [ 16.516199081030368, 47.710622719354433 ], [ 16.515665025497366, 47.709840592051108 ], [ 16.515293802870524, 47.709292308917703 ], [ 16.515167930374954, 47.7091264150502 ], [ 16.515081563275789, 47.709004721270183 ], [ 16.514957215470503, 47.708808980037254 ], [ 16.51489540762346, 47.708711639525156 ], [ 16.514607510111265, 47.708272075907665 ], [ 16.514290169281129, 47.707804511285673 ], [ 16.514190047096129, 47.707680315798456 ], [ 16.514144303565665, 47.707623411320803 ], [ 16.514137525661237, 47.707615044421651 ], [ 16.512957967703677, 47.707932104898234 ], [ 16.512937561815257, 47.707938791962277 ], [ 16.512725134462467, 47.707995268336681 ], [ 16.51261261500996, 47.708025121359064 ], [ 16.511421407877194, 47.70834176711903 ], [ 16.511400531213791, 47.708347296318543 ], [ 16.510769905508763, 47.707915930684706 ], [ 16.51045597643348, 47.707721909318678 ], [ 16.510025908770544, 47.707456176667478 ], [ 16.509918894241139, 47.707376560303388 ], [ 16.509868736307208, 47.707381006810571 ], [ 16.509832641283637, 47.707384164544386 ], [ 16.509084899713194, 47.707538255307782 ], [ 16.50891234606366, 47.7075703021926 ], [ 16.508808521858061, 47.707589556265837 ], [ 16.508422634116542, 47.707671973039865 ], [ 16.508259458978507, 47.707698087245852 ], [ 16.50818987798155, 47.70770784142745 ], [ 16.508206456937433, 47.707671005711681 ], [ 16.508199760459441, 47.707626528195888 ], [ 16.508151112892936, 47.707495144398841 ], [ 16.508108018414287, 47.70744221662472 ], [ 16.508093596284336, 47.707413350001261 ], [ 16.508106089646812, 47.70737293519997 ], [ 16.508128291964546, 47.707334233449608 ], [ 16.508125775975952, 47.70721121135881 ], [ 16.508112248061202, 47.707181689744914 ], [ 16.50805832093544, 47.707139326034117 ], [ 16.508031902945497, 47.707123846972124 ], [ 16.508027888189346, 47.707121436503925 ], [ 16.507988103409957, 47.707109928103939 ], [ 16.507957635532673, 47.707093660335708 ], [ 16.507942016698021, 47.70708247554002 ], [ 16.507893929906828, 47.706975748504966 ], [ 16.507782887586202, 47.706827356985528 ], [ 16.507753305717586, 47.706808093234734 ], [ 16.507737752346817, 47.706797987147709 ], [ 16.50766735577416, 47.706794256801402 ], [ 16.507639807732055, 47.706753506194467 ], [ 16.507573303774354, 47.706695101118157 ], [ 16.507485978410102, 47.706647535635689 ], [ 16.507354480203443, 47.706597497009497 ], [ 16.507277994164106, 47.706576915943472 ], [ 16.507218475108314, 47.70653911835393 ], [ 16.507186109853446, 47.706513538064883 ], [ 16.507144624421905, 47.7064717311519 ], [ 16.507126135103725, 47.706452791534083 ], [ 16.507092201900683, 47.706429955827694 ], [ 16.50705408713528, 47.706390937332969 ], [ 16.507018587772286, 47.706359860676315 ], [ 16.506978976901003, 47.706337991978032 ], [ 16.506946818372878, 47.706311415429383 ], [ 16.506859619057249, 47.706261504854275 ], [ 16.506837115975134, 47.706248979067205 ], [ 16.50681249187118, 47.706223455266489 ], [ 16.506765080534603, 47.706200541053619 ], [ 16.506728777622726, 47.706178220842432 ], [ 16.50672144115342, 47.70616941872504 ], [ 16.506727049699666, 47.706151885333362 ], [ 16.506738149744269, 47.706150138414571 ], [ 16.506752251362428, 47.706125257183366 ], [ 16.506739038646948, 47.706116347031809 ], [ 16.506673200284098, 47.706101955102994 ], [ 16.506626114433796, 47.706104244447467 ], [ 16.506452191903762, 47.70610480977097 ], [ 16.506431974815143, 47.706092581033992 ], [ 16.506373755649836, 47.706087253407439 ], [ 16.506266311158043, 47.706077520588941 ], [ 16.506233046245811, 47.706081139425066 ], [ 16.506197302168236, 47.706079063752661 ], [ 16.50613660131102, 47.706070202656683 ], [ 16.506103046559137, 47.706046996057857 ], [ 16.506091649516545, 47.706037225354763 ], [ 16.506034664646265, 47.705992784015976 ], [ 16.506014748179869, 47.705961277302336 ], [ 16.505950086245839, 47.705933255740476 ], [ 16.505901654446223, 47.705924326295332 ], [ 16.505851311766339, 47.705912478045633 ], [ 16.505725927969724, 47.705833364601247 ], [ 16.505626457823293, 47.70580990455732 ], [ 16.505564093454208, 47.705791184102267 ], [ 16.505493898757724, 47.7057731297594 ], [ 16.505472450763786, 47.705760394535204 ], [ 16.505444063058853, 47.7057321828512 ], [ 16.505421646453158, 47.705699034132103 ], [ 16.50539275284515, 47.705662462209844 ], [ 16.505336761731161, 47.705632220243096 ], [ 16.505323410322809, 47.705614399316339 ], [ 16.505329596148265, 47.705555699560087 ], [ 16.50528304346761, 47.705502866181654 ], [ 16.505156158718787, 47.705487095113746 ], [ 16.50501300867673, 47.705504548699075 ], [ 16.504931754343183, 47.705528579780953 ], [ 16.504873908657167, 47.705531615294504 ], [ 16.504734231077222, 47.705527091886204 ], [ 16.504621635263554, 47.705529205418927 ], [ 16.504523043137741, 47.705478346602987 ], [ 16.504384346213602, 47.705366552302692 ], [ 16.504358736669325, 47.705326918135704 ], [ 16.50432194006925, 47.70528318013573 ], [ 16.504297374415348, 47.705247569201077 ], [ 16.504274407584234, 47.705233975183624 ], [ 16.504165946580319, 47.705244888754912 ], [ 16.504144789653008, 47.705221519980114 ], [ 16.504157462099247, 47.705177408880488 ], [ 16.504172690168453, 47.705162311827344 ], [ 16.504172093632331, 47.705114964671189 ], [ 16.503978035853304, 47.705053860350354 ], [ 16.503960847743638, 47.705051992921973 ], [ 16.503919274605529, 47.705052778568891 ], [ 16.503718357461747, 47.704997355614019 ], [ 16.503695527485249, 47.705021306416157 ], [ 16.5036725095344, 47.705022300958483 ], [ 16.503596734310545, 47.705026640373191 ], [ 16.503560252155197, 47.705047635723162 ], [ 16.503420307465035, 47.705084988966185 ], [ 16.503281653600737, 47.705123837225351 ], [ 16.503129478134699, 47.705192772683276 ], [ 16.503067876373581, 47.705168987395176 ], [ 16.502933719897499, 47.705138827023738 ], [ 16.502810136301783, 47.705133497697645 ], [ 16.502708141129666, 47.705099119304634 ], [ 16.502535705785764, 47.705124220055538 ], [ 16.502451121616996, 47.705117455747803 ], [ 16.502416033440447, 47.705101944181237 ], [ 16.502371310362541, 47.705074902161194 ], [ 16.50233846992068, 47.705063470711387 ], [ 16.502310331628109, 47.705032730182303 ], [ 16.502329226703086, 47.705009878562677 ], [ 16.502346626900369, 47.704988778970908 ], [ 16.502685060933182, 47.704593883493985 ], [ 16.501971016069515, 47.704331893883108 ], [ 16.501827214308744, 47.704278946509653 ], [ 16.501593163166465, 47.704233617173657 ], [ 16.5015365447628, 47.704223830887848 ], [ 16.501312579605933, 47.704197492789859 ], [ 16.501217508443336, 47.704204793269625 ], [ 16.501211037172432, 47.704205871925716 ], [ 16.500875203579771, 47.704217911141662 ], [ 16.500754367360905, 47.704213854693386 ], [ 16.500408420016321, 47.704296946157363 ], [ 16.500402802090253, 47.704298901720499 ], [ 16.500324906281193, 47.704334362807629 ], [ 16.500139910101701, 47.704418695046094 ], [ 16.500107381428084, 47.704441111202662 ], [ 16.499808022724668, 47.704551282329021 ], [ 16.499701116623683, 47.70456584073959 ], [ 16.499025588293442, 47.704614417580338 ], [ 16.498660931878018, 47.704792025067739 ], [ 16.498610654301665, 47.704816549954053 ], [ 16.498036161625237, 47.705087002008796 ], [ 16.497926641187561, 47.705318998234183 ], [ 16.497906480426536, 47.705369527572572 ], [ 16.497898474308148, 47.705389377527581 ], [ 16.49780201444749, 47.70539581286797 ], [ 16.497769197350397, 47.705404639520488 ], [ 16.497750097665897, 47.705413088830404 ], [ 16.497750369033071, 47.705417583593501 ], [ 16.497738630086427, 47.705419797439319 ], [ 16.497729652827864, 47.705419143935757 ], [ 16.497715278280282, 47.70541305613439 ], [ 16.497672280711271, 47.705412347939642 ], [ 16.497629221373508, 47.705403987641205 ], [ 16.497585290265718, 47.705416541641164 ], [ 16.497533868555262, 47.705428761391438 ], [ 16.497510711702997, 47.705429668469478 ], [ 16.497474345206836, 47.705408427742448 ], [ 16.497429697276484, 47.705413527701474 ], [ 16.497385506325077, 47.705441666475622 ], [ 16.497359702165145, 47.705442916469373 ], [ 16.497287690324342, 47.70544552738901 ], [ 16.497219377411543, 47.705449747377841 ], [ 16.4971412624325, 47.705439649692693 ], [ 16.497099279441109, 47.705431439684808 ], [ 16.497080743858788, 47.705424925975585 ], [ 16.497068516526372, 47.705419049176719 ], [ 16.497057236205041, 47.705402340989544 ], [ 16.497021122943565, 47.705378661958328 ], [ 16.496974785033576, 47.70535355325849 ], [ 16.496964228883602, 47.705351052181832 ], [ 16.496940370124474, 47.705333699411597 ], [ 16.496910047264915, 47.705299866166435 ], [ 16.496881248601802, 47.705271393669484 ], [ 16.49687580060651, 47.70525848703511 ], [ 16.496836657965034, 47.705226607163063 ], [ 16.496801495440938, 47.705185523331508 ], [ 16.496771503759131, 47.705132861642653 ], [ 16.496740335184032, 47.705104904507394 ], [ 16.496738778546195, 47.705074692356554 ], [ 16.496764857827181, 47.705042639707095 ], [ 16.496755894004306, 47.705020104942676 ], [ 16.496716198145673, 47.70500336772637 ], [ 16.496713370877149, 47.704985256480938 ], [ 16.496675719179169, 47.704942710308437 ], [ 16.496652238626556, 47.70490067488759 ], [ 16.49662855041095, 47.704868460024919 ], [ 16.49658755045084, 47.704872108688086 ], [ 16.496568506574501, 47.704868220170511 ], [ 16.496559078611451, 47.704864517458532 ], [ 16.496468542374728, 47.704820994206713 ], [ 16.496428719006087, 47.704804350447773 ], [ 16.496403388703111, 47.704800184535721 ], [ 16.496389180206169, 47.704794632278009 ], [ 16.496344109253414, 47.704772820153487 ], [ 16.496327729515411, 47.704764446164376 ], [ 16.496317434404265, 47.704717635959831 ], [ 16.496309697373068, 47.704711005311346 ], [ 16.496269812567597, 47.704686709407383 ], [ 16.496201300701586, 47.704658878446779 ], [ 16.496163607821817, 47.704646588204646 ], [ 16.496078000952981, 47.70459410477298 ], [ 16.495983888510114, 47.704553200729329 ], [ 16.495945317761368, 47.7045418349988 ], [ 16.495895060593085, 47.7045269186262 ], [ 16.495698788597647, 47.704466491849978 ], [ 16.495675620014424, 47.704436243503103 ], [ 16.495617169324529, 47.704396069667631 ], [ 16.495561231602554, 47.704384280779038 ], [ 16.49548875352535, 47.704368084133584 ], [ 16.495460591893462, 47.704341304644139 ], [ 16.495436968516564, 47.704318992668426 ], [ 16.495391216834324, 47.704292516590201 ], [ 16.495359928328565, 47.704275817964543 ], [ 16.495316790814471, 47.704252871780255 ], [ 16.49523907763221, 47.704222861990338 ], [ 16.495225167673972, 47.704222253835511 ], [ 16.495214325054043, 47.704210575945289 ], [ 16.495205427113817, 47.704189119800631 ], [ 16.495147739120164, 47.704179269760985 ], [ 16.495120041559755, 47.704177869976334 ], [ 16.495088921310945, 47.704163958034364 ], [ 16.495041060816789, 47.704137899963357 ], [ 16.494986821815164, 47.704110036204625 ], [ 16.494963854837991, 47.704153888769859 ], [ 16.494945060964795, 47.704189522635609 ], [ 16.494910902774787, 47.704244668187229 ], [ 16.494838614565207, 47.704342192054376 ], [ 16.494777912078177, 47.704423909821813 ] ] ] } }
]
}
