{
"type": "FeatureCollection",
"name": "neuberg_im_burgenland",
"crs": { "type": "name", "properties": { "name": "urn:ogc:def:crs:OGC:1.3:CRS84" } },
"features": [
{ "type": "Feature", "properties": { "name": "Neuberg im Burgenland", "feature_type": "entity", "metric_roundness": 37.48, "metric_rectangularity": 64.59, "metric_mobile_fit": 97.05, "metric_aspect_ratio": 0.533, "metric_area_km2": 38.09 }, "geometry": { "type": "Polygon", "coordinates": [ [ [ 16.256234516729133, 47.200746339300217 ], [ 16.25629154228363, 47.200611525992997 ], [ 16.25635456062874, 47.200446485281468 ], [ 16.256429531063112, 47.200265830956809 ], [ 16.256480711862896, 47.200125674981415 ], [ 16.256487052447142, 47.200101741537487 ], [ 16.256528765947909, 47.199986319519809 ], [ 16.256550416978168, 47.1999262470638 ], [ 16.256578614243164, 47.199848358649824 ], [ 16.257152705043939, 47.199875947265483 ], [ 16.257299340459021, 47.199882989191394 ], [ 16.257812820366187, 47.199992356340559 ], [ 16.257844421923433, 47.199995236887737 ], [ 16.2585741113197, 47.200060513408481 ], [ 16.258757427249527, 47.200066701781189 ], [ 16.258906856390293, 47.200071689028086 ], [ 16.258934254100232, 47.200072606276095 ], [ 16.259106964219562, 47.20007573489999 ], [ 16.259126802509012, 47.200076125889126 ], [ 16.259264957327765, 47.200094638194372 ], [ 16.25940750550178, 47.200113757835737 ], [ 16.259412964094253, 47.200114518061945 ], [ 16.259535940582996, 47.20013089869434 ], [ 16.259630578702861, 47.200143685051557 ], [ 16.25967583325361, 47.20014738497612 ], [ 16.259813194947434, 47.200158713720647 ], [ 16.259975243736076, 47.200172109416847 ], [ 16.260284608476844, 47.200197657857274 ], [ 16.26210934751154, 47.200529750592715 ], [ 16.262203684127602, 47.200513189214263 ], [ 16.262313336205107, 47.200503617417183 ], [ 16.262327835551439, 47.200500633498109 ], [ 16.262418246709153, 47.200482372027977 ], [ 16.262424128583664, 47.200481230368254 ], [ 16.262528648201279, 47.200460084964888 ], [ 16.262620891235471, 47.200441506112554 ], [ 16.262820784942182, 47.200401070719458 ], [ 16.262926217760235, 47.200379721381879 ], [ 16.263211035540728, 47.200322154873383 ], [ 16.263438196720063, 47.200299385588089 ], [ 16.263542120635602, 47.200288969447683 ], [ 16.263570496778595, 47.20028607869687 ], [ 16.263658527519418, 47.20027733175867 ], [ 16.263731710549109, 47.200270047115552 ], [ 16.263859544957025, 47.200257214901924 ], [ 16.263882014355175, 47.200255016241954 ], [ 16.264167505226645, 47.20022633319396 ], [ 16.264330613011065, 47.200223037879994 ], [ 16.264344460044605, 47.200222591631992 ], [ 16.264367529216408, 47.200214524771766 ], [ 16.264403160965099, 47.20020190280092 ], [ 16.264438660772964, 47.200189284212676 ], [ 16.264474825162498, 47.20017673855731 ], [ 16.264661551005307, 47.200110886851974 ], [ 16.264752517987084, 47.200078832893595 ], [ 16.264917334656843, 47.200046769625857 ], [ 16.265054437379408, 47.200020011320753 ], [ 16.265078350252207, 47.200015254126171 ], [ 16.265256888968558, 47.199980496202876 ], [ 16.265265185191886, 47.199980012595546 ], [ 16.265806662149938, 47.199948159449804 ], [ 16.266150353744877, 47.1999279679887 ], [ 16.266251041816897, 47.19984010713403 ], [ 16.26629149566492, 47.199804850117218 ], [ 16.266702761203707, 47.19975248352231 ], [ 16.266925474098045, 47.199749630787636 ], [ 16.26705102218088, 47.199748018927274 ], [ 16.267542122974056, 47.199741675657371 ], [ 16.267915590976269, 47.199736739345873 ], [ 16.268152694541495, 47.199659859761837 ], [ 16.268393689911314, 47.199634112930113 ], [ 16.268484439274395, 47.19962439177074 ], [ 16.268587143654564, 47.199613462139851 ], [ 16.268614199938863, 47.199610604119343 ], [ 16.268701998865403, 47.199619147146393 ], [ 16.268819415937312, 47.199630528680359 ], [ 16.268830778467478, 47.199628164983658 ], [ 16.269163813394609, 47.199558806204372 ], [ 16.269168114205605, 47.199555363854167 ], [ 16.269172673872493, 47.199551824792444 ], [ 16.269268996567813, 47.199475869025434 ], [ 16.269297847760836, 47.19945297540378 ], [ 16.269310362612924, 47.199449951674666 ], [ 16.269466509360708, 47.199411712179675 ], [ 16.269536503276491, 47.199394601389272 ], [ 16.269553513409278, 47.199391641869823 ], [ 16.269938513489603, 47.199325533685958 ], [ 16.270101016005853, 47.19928280749852 ], [ 16.270175091327907, 47.199263069946269 ], [ 16.270186433762099, 47.199260346463163 ], [ 16.270236955601266, 47.199247068679561 ], [ 16.270541517275245, 47.199167004447155 ], [ 16.270572505285955, 47.199158822192501 ], [ 16.270955079409649, 47.19897526894826 ], [ 16.27120340334691, 47.198986424187794 ], [ 16.271267314871089, 47.198983515609754 ], [ 16.271487477167337, 47.198975227112875 ], [ 16.271620895712079, 47.198970255754858 ], [ 16.271687475550564, 47.198967818375813 ], [ 16.271697359592203, 47.19896738338705 ], [ 16.271815986586997, 47.198952978746036 ], [ 16.27187097165131, 47.198946338221667 ], [ 16.271946431426038, 47.19893727871969 ], [ 16.272077261963634, 47.198921388510726 ], [ 16.272223660925889, 47.198886097815993 ], [ 16.272319976577446, 47.198862453621871 ], [ 16.272364827597116, 47.19883509459229 ], [ 16.272507563603195, 47.198748124136706 ], [ 16.272564806191646, 47.198713151995044 ], [ 16.27259164050141, 47.198696792510944 ], [ 16.272658964111706, 47.198679208390622 ], [ 16.272710007461267, 47.198665825984584 ], [ 16.272760918865544, 47.198652446959066 ], [ 16.272915357888422, 47.198612085674043 ], [ 16.272966659953351, 47.198598606433109 ], [ 16.273017571228184, 47.198585227292945 ], [ 16.273044528945807, 47.198578228833227 ], [ 16.273071090898533, 47.198571240578445 ], [ 16.27311770372112, 47.198558962757531 ], [ 16.273123052480365, 47.198557744248262 ], [ 16.273174810127315, 47.198545333654394 ], [ 16.273332823256805, 47.198507490770083 ], [ 16.273382495073275, 47.198495584110432 ], [ 16.27343203494841, 47.198483680833363 ], [ 16.273604003197359, 47.198442596118184 ], [ 16.273627663685922, 47.198440454810331 ], [ 16.273554433624884, 47.198361217174934 ], [ 16.273526189783929, 47.198330791658137 ], [ 16.273377504923118, 47.198170302682449 ], [ 16.273314124179144, 47.198101885861291 ], [ 16.273130019949381, 47.197903052445611 ], [ 16.273096859845424, 47.197867351194077 ], [ 16.272943803515695, 47.197701842140852 ], [ 16.272974269280169, 47.197674763950452 ], [ 16.273144202005838, 47.197523341440565 ], [ 16.273187757633725, 47.197484580191251 ], [ 16.273216080451057, 47.197459358055994 ], [ 16.273404583498571, 47.197287916912281 ], [ 16.27342092847497, 47.197272998428232 ], [ 16.273437776133566, 47.197257616761597 ], [ 16.273881045502343, 47.196854406012172 ], [ 16.273902675878958, 47.196834758914527 ], [ 16.273914521403785, 47.196824458562844 ], [ 16.273941609294241, 47.196800798808788 ], [ 16.273965802991214, 47.196779734913498 ], [ 16.274040399686083, 47.196714780377654 ], [ 16.274114742360329, 47.196650012427973 ], [ 16.274192105918988, 47.196582555240802 ], [ 16.274276282897503, 47.196509339537478 ], [ 16.274412867749032, 47.196390290320508 ], [ 16.274420509804944, 47.19638279967095 ], [ 16.274433671283997, 47.196370034164822 ], [ 16.274547757155148, 47.196259759364395 ], [ 16.274582361576265, 47.196226360982273 ], [ 16.274718250488927, 47.196094813539453 ], [ 16.274990887720893, 47.195832956504425 ], [ 16.275134052770131, 47.195704011929259 ], [ 16.275183246639465, 47.195659791789836 ], [ 16.275341002837646, 47.195517684238787 ], [ 16.275455920081441, 47.195379654121652 ], [ 16.275547033609808, 47.195155618518484 ], [ 16.275565635354582, 47.195110027238869 ], [ 16.275593891160099, 47.195040865836262 ], [ 16.275627601967138, 47.194958147331953 ], [ 16.275667571140037, 47.194859689970933 ], [ 16.275716746478743, 47.194739114693228 ], [ 16.275747996692104, 47.194662042276171 ], [ 16.275755561167536, 47.194643658483848 ], [ 16.275759339399663, 47.194578550800387 ], [ 16.275771416163689, 47.194363309365542 ], [ 16.275787501775781, 47.194079982902032 ], [ 16.275787692354015, 47.194064400766273 ], [ 16.275792096959041, 47.193832339590408 ], [ 16.275795009075736, 47.193680364028999 ], [ 16.275804951349883, 47.193165338825558 ], [ 16.275807059819474, 47.193058314821741 ], [ 16.275809173278649, 47.192951380729625 ], [ 16.275812569436454, 47.192772470181865 ], [ 16.275816167448724, 47.19259481500108 ], [ 16.275817893428428, 47.192502297585598 ], [ 16.275818261924549, 47.192437638120168 ], [ 16.275820070314897, 47.192161253400258 ], [ 16.275820397095352, 47.192110101267296 ], [ 16.275837712798907, 47.19202951688942 ], [ 16.275851340175464, 47.191949117816819 ], [ 16.275883004023814, 47.191763084136134 ], [ 16.276096281281252, 47.190507615674619 ], [ 16.276103682571215, 47.190464924781253 ], [ 16.276180648995133, 47.190017500021156 ], [ 16.276268414940919, 47.18950775739463 ], [ 16.276339888858466, 47.189092259058455 ], [ 16.27651242591838, 47.188090318677737 ], [ 16.276555154067101, 47.187842050019697 ], [ 16.27634307223915, 47.187883186088619 ], [ 16.276292109043105, 47.187893056725507 ], [ 16.276164637370417, 47.187911837125945 ], [ 16.27615978733682, 47.18791250267379 ], [ 16.275965758956197, 47.187941015990134 ], [ 16.275952786552875, 47.187942881809654 ], [ 16.275764399349704, 47.187970708801444 ], [ 16.275743172665308, 47.187973778270134 ], [ 16.275554780244928, 47.18800151500276 ], [ 16.275535653826218, 47.188004350101046 ], [ 16.275169212947656, 47.188058204789051 ], [ 16.275008427572796, 47.18809549238825 ], [ 16.274856515780865, 47.188130839822556 ], [ 16.274679708901296, 47.188181686750816 ], [ 16.274307761873704, 47.188288625293147 ], [ 16.274239205034245, 47.18830516209551 ], [ 16.274179638926629, 47.188319485828259 ], [ 16.273912047677666, 47.188383840410737 ], [ 16.273375230107575, 47.188454603029975 ], [ 16.273287728041854, 47.188434441020995 ], [ 16.272908289405855, 47.188347078345927 ], [ 16.272555421823927, 47.188300538020087 ], [ 16.272453893352999, 47.188287040211428 ], [ 16.272444834727132, 47.188285653188977 ], [ 16.272361709416238, 47.188272941051743 ], [ 16.271700455806418, 47.188350597932704 ], [ 16.271089593128387, 47.188422359263548 ], [ 16.271051005864393, 47.188426775981149 ], [ 16.271018066602043, 47.188423483541833 ], [ 16.270349031597497, 47.188356186259732 ], [ 16.270227231816939, 47.188343929465375 ], [ 16.270039416926164, 47.188325000593451 ], [ 16.269624609549314, 47.188283289567735 ], [ 16.269568563368555, 47.188115816449091 ], [ 16.26928294593128, 47.187262201834564 ], [ 16.269226401524193, 47.187092850560788 ], [ 16.269207672101395, 47.186988525029783 ], [ 16.269190324724949, 47.186892447690724 ], [ 16.269186288506916, 47.186869681187893 ], [ 16.269102721211262, 47.185858148243113 ], [ 16.269005251711736, 47.185243696228554 ], [ 16.268983778465032, 47.185087487466241 ], [ 16.268968652811449, 47.184976676087636 ], [ 16.268961463701768, 47.184925627777133 ], [ 16.268906879113572, 47.184531932613723 ], [ 16.268800791455302, 47.183754817587655 ], [ 16.268616056229892, 47.182764440170438 ], [ 16.268478289150327, 47.182025598590471 ], [ 16.268357595772752, 47.181377889096126 ], [ 16.268235229972376, 47.180633247961005 ], [ 16.268184578794891, 47.180324630438569 ], [ 16.268511445593489, 47.179031315384762 ], [ 16.268655541900017, 47.178267021240622 ], [ 16.268737145310013, 47.177833349132023 ], [ 16.268735812597207, 47.177764051525223 ], [ 16.268735352198799, 47.177736690774971 ], [ 16.268733627064989, 47.177648404525044 ], [ 16.268718727357303, 47.176872270616236 ], [ 16.269177727126021, 47.17525238755605 ], [ 16.269193441831149, 47.174778453982839 ], [ 16.269226921575399, 47.173769935936775 ], [ 16.26923000194768, 47.173677834059127 ], [ 16.269252648282361, 47.173478978727431 ], [ 16.269453987568241, 47.172656840772142 ], [ 16.269517841383941, 47.172234340115885 ], [ 16.26942189595545, 47.171192151571084 ], [ 16.269073537094886, 47.170264970728773 ], [ 16.268799856853736, 47.169272294637388 ], [ 16.268594604647603, 47.168527809568687 ], [ 16.268572392474304, 47.168446264236806 ], [ 16.268549371643456, 47.168362038499957 ], [ 16.268518387808317, 47.168248484390254 ], [ 16.268459466463227, 47.168033453239772 ], [ 16.268445546162269, 47.167982398326117 ], [ 16.26843482999271, 47.167931981153508 ], [ 16.2683307179812, 47.167442317514947 ], [ 16.268320925338443, 47.167396648733131 ], [ 16.268256114936804, 47.167091997876121 ], [ 16.268284311946022, 47.16680746011658 ], [ 16.268310767223479, 47.166177027561837 ], [ 16.268312572092807, 47.166078565614129 ], [ 16.2683154929246, 47.165912093521335 ], [ 16.268318696930518, 47.165741202090246 ], [ 16.268317960926439, 47.165716009423967 ], [ 16.268312334523674, 47.165490600334159 ], [ 16.268311468145619, 47.165453525541579 ], [ 16.268309263899468, 47.165363720877146 ], [ 16.268223530348664, 47.164783902076366 ], [ 16.26822223878947, 47.164777272291573 ], [ 16.268221693805764, 47.164774585092033 ], [ 16.268204072695664, 47.164687698972074 ], [ 16.268168982413457, 47.164514282976832 ], [ 16.268114980006072, 47.164247351046129 ], [ 16.268103707281046, 47.164191635749468 ], [ 16.268083789923772, 47.164156222535965 ], [ 16.26804187047075, 47.164081127838614 ], [ 16.267996741906884, 47.164000533264243 ], [ 16.26794926002724, 47.16391558729277 ], [ 16.267899738340457, 47.163827182257187 ], [ 16.267857100461555, 47.163751025521222 ], [ 16.267655189783426, 47.163390300363893 ], [ 16.26745013000011, 47.162813016109617 ], [ 16.267429157281381, 47.162753768990527 ], [ 16.267422666367182, 47.162734307203969 ], [ 16.267398715409914, 47.162661810680952 ], [ 16.267338327090535, 47.16247968210795 ], [ 16.26728108879021, 47.162306746617716 ], [ 16.267242579363835, 47.162190684952492 ], [ 16.267238666034146, 47.162179620642299 ], [ 16.267187061691509, 47.162036883936878 ], [ 16.267164763662436, 47.16197514976907 ], [ 16.267158868121296, 47.161928300002671 ], [ 16.267142973294316, 47.161801030679115 ], [ 16.267105766234224, 47.161503501725342 ], [ 16.267101513403933, 47.161472006731131 ], [ 16.267089897171594, 47.161386226343851 ], [ 16.267080455859929, 47.161315877057973 ], [ 16.267079584910483, 47.161309686634098 ], [ 16.267072970621189, 47.161261774886825 ], [ 16.26706337028677, 47.161193320569964 ], [ 16.267059580370319, 47.161165415308197 ], [ 16.267050992800019, 47.161103327843534 ], [ 16.267043360854434, 47.161048959326791 ], [ 16.267033292506902, 47.161012571855061 ], [ 16.267025557796991, 47.160984948322053 ], [ 16.266975649293883, 47.160806061200631 ], [ 16.266973022154449, 47.160796764573952 ], [ 16.266979334247988, 47.160746268712451 ], [ 16.26699841692627, 47.160590275273783 ], [ 16.267010981242283, 47.160488204587388 ], [ 16.267024084854146, 47.160419705495968 ], [ 16.267046234162311, 47.160304782004594 ], [ 16.267051667040974, 47.160276549050401 ], [ 16.26706886818824, 47.160186694561254 ], [ 16.267078684582827, 47.16013511793205 ], [ 16.267099219450458, 47.159981518158098 ], [ 16.267107853430165, 47.159915745428322 ], [ 16.267117268061188, 47.159845000295618 ], [ 16.267134150709484, 47.159718417042477 ], [ 16.2671553141762, 47.159559488595804 ], [ 16.267174342060272, 47.159416822652197 ], [ 16.267185442027035, 47.159333608342401 ], [ 16.267205075330285, 47.159209025138672 ], [ 16.267238422211811, 47.158998368966486 ], [ 16.267251156294616, 47.158918444069457 ], [ 16.267264233347255, 47.158835178793332 ], [ 16.267277044387921, 47.158754261450049 ], [ 16.267283396434429, 47.158714029259272 ], [ 16.267289733530003, 47.158673527328382 ], [ 16.267296192475261, 47.15863284217351 ], [ 16.267299218069045, 47.158613585348661 ], [ 16.267309921501575, 47.158556583327041 ], [ 16.26731665434211, 47.158520843397461 ], [ 16.267324789389985, 47.158477053631472 ], [ 16.26737375379118, 47.158217102330156 ], [ 16.267370328840123, 47.158179103012635 ], [ 16.267363765495542, 47.158110660484205 ], [ 16.267360825992036, 47.158079041607195 ], [ 16.26735496193696, 47.158016073592385 ], [ 16.267339418486173, 47.157852238346393 ], [ 16.267333243368562, 47.15778603685078 ], [ 16.267331167513756, 47.157762859623368 ], [ 16.267323581288505, 47.157683098216502 ], [ 16.267331261960813, 47.157652556264928 ], [ 16.267337990344096, 47.157626270808429 ], [ 16.267341354533233, 47.157613128079994 ], [ 16.267358675167543, 47.157544520227354 ], [ 16.267373949429434, 47.157484248934473 ], [ 16.267385869452273, 47.157437300195717 ], [ 16.267399534952176, 47.157383733435189 ], [ 16.26741436154159, 47.157324914336598 ], [ 16.267423248049845, 47.157289929260784 ], [ 16.267435089636457, 47.157260630684867 ], [ 16.267443673649552, 47.157239249681155 ], [ 16.267461110268808, 47.157196570790369 ], [ 16.267491887832826, 47.15712068288132 ], [ 16.267525679135602, 47.157037243835262 ], [ 16.267535787420279, 47.157012401956358 ], [ 16.267545763879369, 47.156987563473912 ], [ 16.267555765232675, 47.15696317455663 ], [ 16.267565507925525, 47.156938882346431 ], [ 16.267575519222063, 47.156914673253745 ], [ 16.267594318264258, 47.15686799739111 ], [ 16.267630807993307, 47.15678800037621 ], [ 16.267651658887132, 47.156742622239527 ], [ 16.267692512574566, 47.156653238435339 ], [ 16.267723352295118, 47.156585632668907 ], [ 16.267734880480543, 47.156560213918731 ], [ 16.267753131218523, 47.156534621888433 ], [ 16.267799796224367, 47.156469129351407 ], [ 16.26782711379499, 47.156430877857623 ], [ 16.267881124613837, 47.156355021231441 ], [ 16.267902551021997, 47.156327186315416 ], [ 16.267951809795694, 47.156263247594559 ], [ 16.268046377939161, 47.156140334135827 ], [ 16.268096006899384, 47.156075935591872 ], [ 16.268170006201949, 47.155979664324448 ], [ 16.268231578843473, 47.155899740773513 ], [ 16.268268146826816, 47.155852156474189 ], [ 16.268321957978152, 47.15578224749936 ], [ 16.268323937457591, 47.155779855383869 ], [ 16.268337114815893, 47.155762767913103 ], [ 16.26838722548268, 47.155697546428691 ], [ 16.268403230231353, 47.155676694347228 ], [ 16.268419976023303, 47.155654922741213 ], [ 16.268436599952977, 47.155633334357503 ], [ 16.268453472548043, 47.155611469434902 ], [ 16.26847010143258, 47.155589970959419 ], [ 16.268486842187503, 47.155568109430256 ], [ 16.268503704776695, 47.155546064673764 ], [ 16.268514298299685, 47.155532375338389 ], [ 16.268520709128701, 47.155524196342547 ], [ 16.268538322706011, 47.155501411884309 ], [ 16.268554332318274, 47.155480649694518 ], [ 16.268699539798181, 47.155292590423798 ], [ 16.268708656111237, 47.155280830031472 ], [ 16.268726513220184, 47.155257679093573 ], [ 16.268750035044299, 47.15522717875514 ], [ 16.268790068602311, 47.155175453027326 ], [ 16.268802072042394, 47.155161006972321 ], [ 16.268814436031523, 47.155145921327318 ], [ 16.268864784700202, 47.155085015462213 ], [ 16.268912905154849, 47.155026778237932 ], [ 16.268926512449362, 47.155010309893356 ], [ 16.268989722096379, 47.154933765238724 ], [ 16.269016073701653, 47.154901931280996 ], [ 16.269042288481479, 47.154870010803059 ], [ 16.269061838912993, 47.154846455970684 ], [ 16.269101543962279, 47.154798340255049 ], [ 16.269106126947914, 47.15479290960851 ], [ 16.269142128522471, 47.154742278175164 ], [ 16.269168352622927, 47.154705765298317 ], [ 16.269203993531303, 47.154655773435046 ], [ 16.269234482066349, 47.15461284764595 ], [ 16.269278341158287, 47.154551568684617 ], [ 16.269290585267385, 47.154534325071602 ], [ 16.269307001929327, 47.154511391261309 ], [ 16.269323164924455, 47.154488644073822 ], [ 16.269339459715429, 47.154465893484549 ], [ 16.269355632649816, 47.154443326118681 ], [ 16.269372775326826, 47.154419203030919 ], [ 16.269394826567755, 47.154388380299508 ], [ 16.269416740989964, 47.154357471050211 ], [ 16.269438792179646, 47.154326648310203 ], [ 16.269483006356356, 47.154264639764925 ], [ 16.269516194889498, 47.154218042581469 ], [ 16.269549520157092, 47.154171531901646 ], [ 16.269580848825843, 47.154129484751586 ], [ 16.269741216403968, 47.153915010868083 ], [ 16.269788036141716, 47.153852394725185 ], [ 16.269834236603032, 47.153790514868021 ], [ 16.269854149033911, 47.153763979164339 ], [ 16.269874548801617, 47.153736710551762 ], [ 16.269894573062409, 47.153709811788332 ], [ 16.269914845965133, 47.153682636481648 ], [ 16.269933042603061, 47.153658486107226 ], [ 16.269950863739407, 47.15363470558291 ], [ 16.269968928536915, 47.153610558602864 ], [ 16.270004804436763, 47.153562451260768 ], [ 16.270018321293833, 47.153544364347852 ], [ 16.270035682495493, 47.153459907556829 ], [ 16.270061715613998, 47.153334258065506 ], [ 16.270087800661098, 47.153207166556832 ], [ 16.270092796469601, 47.153182996536138 ], [ 16.270104662119614, 47.153125603975063 ], [ 16.270116294039692, 47.153068757692019 ], [ 16.270148468329108, 47.152913416050367 ], [ 16.270171232441893, 47.152802617694412 ], [ 16.270194637747359, 47.15268910153663 ], [ 16.270217946041338, 47.152576218165478 ], [ 16.270226355171751, 47.152523146719687 ], [ 16.270231352465022, 47.152491863353511 ], [ 16.27023624287191, 47.152461032953191 ], [ 16.270238148979811, 47.152450178768689 ], [ 16.270246354279145, 47.152398193079478 ], [ 16.270255074023421, 47.152343582906305 ], [ 16.270263788764861, 47.152288882819093 ], [ 16.27028173265187, 47.152176858158711 ], [ 16.270289463288144, 47.152128216253814 ], [ 16.270297295804514, 47.152079031468908 ], [ 16.270312076033349, 47.152005176076649 ], [ 16.270333787778348, 47.151896835941074 ], [ 16.270339287833526, 47.151869861597497 ], [ 16.270348160332418, 47.151825152060638 ], [ 16.270357072696193, 47.151781161827948 ], [ 16.270367580436805, 47.151727856132311 ], [ 16.27037761857288, 47.151677984137507 ], [ 16.270382569239988, 47.151653004883478 ], [ 16.270389403817259, 47.151619152930941 ], [ 16.270396019646057, 47.151586116997393 ], [ 16.270396884639872, 47.151306515064682 ], [ 16.270396931482114, 47.151283553211165 ], [ 16.270397078625862, 47.151267161817053 ], [ 16.270397869865647, 47.151033843238757 ], [ 16.270398488645125, 47.150833124219055 ], [ 16.270447144515646, 47.150413264699097 ], [ 16.270453481366552, 47.150358535890611 ], [ 16.270492003186515, 47.150155848392657 ], [ 16.270516409337759, 47.150027089218675 ], [ 16.270529898429658, 47.149956148417118 ], [ 16.270546057666131, 47.149919084456911 ], [ 16.270677237287096, 47.149616490692985 ], [ 16.270707071744724, 47.149547559196662 ], [ 16.270777964455721, 47.149326478061788 ], [ 16.270788879194878, 47.149292430731677 ], [ 16.270751241454192, 47.149173016154116 ], [ 16.270705740011387, 47.149028412713854 ], [ 16.270243522604861, 47.148649738345277 ], [ 16.269775507323711, 47.14826634957933 ], [ 16.26957662398495, 47.148107063918211 ], [ 16.269356186071462, 47.147982729857382 ], [ 16.269352508054077, 47.147980663726955 ], [ 16.269146924952707, 47.147864770208045 ], [ 16.268922332488383, 47.147777369568729 ], [ 16.268858661406647, 47.147752539388463 ], [ 16.26884220900029, 47.147746210563582 ], [ 16.268703679143204, 47.147692336512122 ], [ 16.268685063288114, 47.147685072998797 ], [ 16.268666984573159, 47.147677975714132 ], [ 16.268382068466902, 47.14751892578353 ], [ 16.26833235528823, 47.147491124199369 ], [ 16.268156854124626, 47.147396423487379 ], [ 16.267935208786422, 47.147269236631438 ], [ 16.267817773503722, 47.147224452153615 ], [ 16.267679706166369, 47.147171735534144 ], [ 16.267015244517562, 47.146948722193429 ], [ 16.266582453314424, 47.146797981301944 ], [ 16.26654221652052, 47.146783981257954 ], [ 16.266498209958804, 47.14676863767972 ], [ 16.266457025784799, 47.146754211812265 ], [ 16.266451918179136, 47.14675254259874 ], [ 16.26643579229756, 47.146749716649332 ], [ 16.266373690887615, 47.146738891180206 ], [ 16.266353434703305, 47.146735361276264 ], [ 16.266316789071382, 47.14672901219442 ], [ 16.266246827442991, 47.146716858491523 ], [ 16.266235369008616, 47.146714902704126 ], [ 16.266212315374286, 47.146710904608454 ], [ 16.266123797504047, 47.146728312400469 ], [ 16.266105451330024, 47.146730675983761 ], [ 16.266095885358922, 47.146731912918099 ], [ 16.265837437341833, 47.146764683843621 ], [ 16.265722732692247, 47.146783486315499 ], [ 16.265293083748137, 47.146853981825451 ], [ 16.265103373589049, 47.146929280866445 ], [ 16.264792139643575, 47.147052820214924 ], [ 16.264774107489799, 47.147099025713999 ], [ 16.26439106465515, 47.147196140237561 ], [ 16.263948801002705, 47.147308284421982 ], [ 16.263707486832072, 47.147326382710396 ], [ 16.26352720284385, 47.147195151345151 ], [ 16.263506901974587, 47.147176495119204 ], [ 16.263494923863167, 47.147167529199812 ], [ 16.263376800194571, 47.147291585707336 ], [ 16.263291505043718, 47.147379230668172 ], [ 16.26321705191382, 47.147414732603735 ], [ 16.263112718360105, 47.14751133136641 ], [ 16.263088321317738, 47.147549866777396 ], [ 16.262942780033214, 47.147526600357288 ], [ 16.262895412508179, 47.147474334871148 ], [ 16.262834874093461, 47.147522804548871 ], [ 16.262710018682768, 47.147541865164627 ], [ 16.262653240401828, 47.147562865375043 ], [ 16.262637671283201, 47.147570109198305 ], [ 16.262682058715669, 47.147668732775706 ], [ 16.262649284405516, 47.147672727684061 ], [ 16.262570837685502, 47.147669434055445 ], [ 16.26247794187006, 47.147734223350312 ], [ 16.262332267558101, 47.147749137126659 ], [ 16.262193998591979, 47.147759538179137 ], [ 16.262088788480742, 47.147732891811479 ], [ 16.261946825294331, 47.147788678439142 ], [ 16.261932426763025, 47.147809938501361 ], [ 16.261984622555659, 47.147868383040191 ], [ 16.261870237458943, 47.147957495639204 ], [ 16.261791734656089, 47.147981845613501 ], [ 16.261652075229158, 47.1480482875021 ], [ 16.261510773286783, 47.148077854500038 ], [ 16.26140877532648, 47.148116494899803 ], [ 16.261282013319175, 47.148024671983727 ], [ 16.261174122160689, 47.148056980784403 ], [ 16.261055193066948, 47.148028075140829 ], [ 16.26104348537773, 47.148035939747729 ], [ 16.261134794745139, 47.148119130441813 ], [ 16.261088277212504, 47.148151481250331 ], [ 16.261061323446238, 47.14816288945287 ], [ 16.260991821108085, 47.14815189122956 ], [ 16.260805201307424, 47.148087449218423 ], [ 16.260774817976078, 47.148106058822762 ], [ 16.2607012801829, 47.148177281913014 ], [ 16.260482629075739, 47.148285552050424 ], [ 16.260346426206421, 47.148273657476018 ], [ 16.260318992460018, 47.148359992219213 ], [ 16.260304937727746, 47.148358822924649 ], [ 16.260000548368588, 47.148186116841053 ], [ 16.25993625908427, 47.148164359068019 ], [ 16.259919343640245, 47.148178300177392 ], [ 16.259678760150162, 47.148262281232483 ], [ 16.259563653250286, 47.148331240699143 ], [ 16.259484434102877, 47.148431062053227 ], [ 16.259316017910184, 47.148454840320902 ], [ 16.259141830056421, 47.148419519535061 ], [ 16.259125389984384, 47.148425344585704 ], [ 16.258987459959975, 47.148456262379234 ], [ 16.258964021905815, 47.148521784545892 ], [ 16.258970505545147, 47.148596172065048 ], [ 16.258963487023827, 47.148607697656587 ], [ 16.25890440113961, 47.148653876750856 ], [ 16.258815879389786, 47.148652190069633 ], [ 16.25874171170269, 47.148695335123698 ], [ 16.258684146597137, 47.148749938888692 ], [ 16.258675315759657, 47.148833814157747 ], [ 16.258584901517423, 47.148881518526949 ], [ 16.258531439140587, 47.148859841880125 ], [ 16.258439764001892, 47.148832123976568 ], [ 16.25836460336544, 47.148852513854649 ], [ 16.258306370445798, 47.14886634589724 ], [ 16.25822178390144, 47.148897692796226 ], [ 16.258224744006068, 47.148936964750305 ], [ 16.258228761712289, 47.148969096271628 ], [ 16.258261894471516, 47.149093492244575 ], [ 16.258248895218625, 47.1491042710541 ], [ 16.25815377814731, 47.149124183122439 ], [ 16.258076392143398, 47.149113835880357 ], [ 16.257964480592442, 47.149147505409054 ], [ 16.257903460297914, 47.149177796351552 ], [ 16.257881900663534, 47.149174568544879 ], [ 16.257837522891069, 47.149147705898947 ], [ 16.257811075785465, 47.149153967934538 ], [ 16.25771392145165, 47.149199143506884 ], [ 16.257636218386121, 47.149242828830296 ], [ 16.2575713023178, 47.149283844531851 ], [ 16.257531923454533, 47.149337980463557 ], [ 16.257357149534954, 47.149385329770993 ], [ 16.257319876814162, 47.149355673217912 ], [ 16.257304633165418, 47.149313835473329 ], [ 16.257289383299398, 47.149302972053995 ], [ 16.257235011141933, 47.149279157183415 ], [ 16.257189737276747, 47.149281490651319 ], [ 16.257169538513313, 47.149293354671919 ], [ 16.257152385619491, 47.149348450258557 ], [ 16.257156206222415, 47.149400936169741 ], [ 16.257183307648994, 47.149454354785462 ], [ 16.257181975204031, 47.149470866546537 ], [ 16.257166260106729, 47.149501794166504 ], [ 16.257079502360586, 47.149541659812392 ], [ 16.257003478360552, 47.149553607057861 ], [ 16.256967657984799, 47.149641146689284 ], [ 16.256921665943093, 47.149675913307675 ], [ 16.256850959235333, 47.14966224222777 ], [ 16.256811060229946, 47.149692620375404 ], [ 16.256805011132869, 47.149702590219974 ], [ 16.256793384600925, 47.149747819360101 ], [ 16.256738702921176, 47.149787761335624 ], [ 16.256647649723742, 47.149790459910932 ], [ 16.256604949516852, 47.149827482923314 ], [ 16.256595261767508, 47.149840877722021 ], [ 16.256578964267948, 47.149909097240837 ], [ 16.256546922841149, 47.149959892920755 ], [ 16.256519459825927, 47.149971673240636 ], [ 16.256404444277265, 47.149970664993504 ], [ 16.256373799683846, 47.149989370104159 ], [ 16.256372262580193, 47.150045235081542 ], [ 16.256301878418842, 47.150087650997058 ], [ 16.256247889360537, 47.150077962267872 ], [ 16.2562266808863, 47.150069142574061 ], [ 16.25620459007056, 47.15003954603128 ], [ 16.256148733999115, 47.150043861571802 ], [ 16.256085324435851, 47.150090690360315 ], [ 16.256069460314372, 47.150097400570189 ], [ 16.256040214906555, 47.150086446130452 ], [ 16.255984653526255, 47.150081749910271 ], [ 16.255858738070909, 47.150131984237269 ], [ 16.255590941801145, 47.15019666579331 ], [ 16.255471337580087, 47.150196224597281 ], [ 16.255348669348436, 47.150197662750124 ], [ 16.255262927050794, 47.150200944197437 ], [ 16.25523632328294, 47.150201987251663 ], [ 16.255139832104348, 47.150211397186702 ], [ 16.255069609557516, 47.150216080948077 ], [ 16.255042506769573, 47.15022722136618 ], [ 16.255023280136882, 47.150235188265654 ], [ 16.254935700319145, 47.150281736343977 ], [ 16.254873174356604, 47.150256058680476 ], [ 16.254776830158072, 47.15027771011674 ], [ 16.254631305786443, 47.15030746673272 ], [ 16.254570936295988, 47.15033764906137 ], [ 16.254526619129358, 47.150352562640613 ], [ 16.254491085030139, 47.150397504604193 ], [ 16.254452804601002, 47.150404609747483 ], [ 16.25431545919972, 47.150431905032512 ], [ 16.254239848692787, 47.150415476844671 ], [ 16.254196983745842, 47.15041603650198 ], [ 16.254169017226246, 47.150416303901828 ], [ 16.254130041310024, 47.150432340843771 ], [ 16.254118596301357, 47.150464148873574 ], [ 16.254075698408236, 47.150495233240832 ], [ 16.254012462299261, 47.150518915816974 ], [ 16.253964066275636, 47.150548430429936 ], [ 16.25390593213325, 47.150549741906502 ], [ 16.253898286792904, 47.150554710236683 ], [ 16.253887209934696, 47.150571652023665 ], [ 16.253808777118913, 47.150606979507074 ], [ 16.253773131334118, 47.150606813539255 ], [ 16.253696567720031, 47.150606616824952 ], [ 16.253678121641187, 47.150614383381225 ], [ 16.25363529548169, 47.150632409784926 ], [ 16.253542679452472, 47.15067143245809 ], [ 16.253490842633393, 47.150655294295539 ], [ 16.253453263230199, 47.150713434362402 ], [ 16.253430749043705, 47.150719234292097 ], [ 16.25329821961866, 47.150757299733897 ], [ 16.25323367320745, 47.150726090462861 ], [ 16.25314931361358, 47.15076165954293 ], [ 16.253134860237136, 47.150786791546821 ], [ 16.252985350917104, 47.150847262148666 ], [ 16.252911421095025, 47.150868517139372 ], [ 16.252873632634749, 47.150874978832661 ], [ 16.252817561260102, 47.15083229684079 ], [ 16.252791543852428, 47.150870331117957 ], [ 16.252676620575141, 47.150859052020969 ], [ 16.25253052259605, 47.150895213499865 ], [ 16.25248097397014, 47.150901436400332 ], [ 16.252349937038375, 47.150909118632377 ], [ 16.252214043211296, 47.150917285416519 ], [ 16.252111304004853, 47.150923521434244 ], [ 16.25196806458883, 47.150951685277889 ], [ 16.251849202595174, 47.150971930620301 ], [ 16.251701885637619, 47.151017126359484 ], [ 16.251684203625832, 47.151053145844379 ], [ 16.251636843203428, 47.151091907087228 ], [ 16.25157409050545, 47.151179504924791 ], [ 16.251463990938252, 47.151212671187061 ], [ 16.251390196399331, 47.151128573822731 ], [ 16.250766928039859, 47.151240893055714 ], [ 16.250599773181978, 47.151271018676916 ], [ 16.249671075793554, 47.151438430224005 ], [ 16.248834771108864, 47.151589151250256 ], [ 16.248815691039791, 47.151592611270807 ], [ 16.248812578659212, 47.151641583138428 ], [ 16.248783634405726, 47.151640883791266 ], [ 16.247905780877208, 47.151617082477792 ], [ 16.247683179853286, 47.151611076363359 ], [ 16.247461765115894, 47.151605039446544 ], [ 16.247241805218795, 47.151599054900579 ], [ 16.247021449959355, 47.151593080050787 ], [ 16.246805585975835, 47.151587169907735 ], [ 16.246589063020451, 47.151581276221322 ], [ 16.246373467685515, 47.151575448427245 ], [ 16.245970186736741, 47.151728122064434 ], [ 16.245930625778911, 47.151743180632728 ], [ 16.245544794873613, 47.151889193410646 ], [ 16.245323430137717, 47.151972921559 ], [ 16.245115261365317, 47.152116638947462 ], [ 16.244897800743789, 47.152266626304225 ], [ 16.244671189806247, 47.152423060033477 ], [ 16.244435296582349, 47.152585943451015 ], [ 16.244368700528501, 47.152625463523428 ], [ 16.243977421900158, 47.153073696169955 ], [ 16.243437504219965, 47.15369239217997 ], [ 16.243335678582987, 47.153809076516417 ], [ 16.242995054820298, 47.154199374950352 ], [ 16.242885307851534, 47.154299243633432 ], [ 16.242649730917336, 47.154513798150063 ], [ 16.242475118165398, 47.154672769936795 ], [ 16.242137585241689, 47.154980149245731 ], [ 16.241908662513993, 47.155188589370233 ], [ 16.241845045642023, 47.15524639996957 ], [ 16.241811306858555, 47.155288230359311 ], [ 16.241700079722705, 47.15542613267143 ], [ 16.241576007217937, 47.155580120089354 ], [ 16.241486521999441, 47.155690904802526 ], [ 16.241429678364671, 47.155761507941982 ], [ 16.241248120840094, 47.155986474602166 ], [ 16.240976235616611, 47.156323777388515 ], [ 16.240647232645962, 47.156731599080587 ], [ 16.240603597885364, 47.15676872955401 ], [ 16.24056563614592, 47.156805805179829 ], [ 16.240430339833082, 47.156938197967349 ], [ 16.240142847726752, 47.157219801846495 ], [ 16.23974234731055, 47.15761188820818 ], [ 16.239375041899461, 47.157971521520039 ], [ 16.239168706664891, 47.158173436266239 ], [ 16.238901866623074, 47.158434700659427 ], [ 16.238870230827764, 47.158464410983271 ], [ 16.238766768701865, 47.158561233559873 ], [ 16.238644977489905, 47.158675271269232 ], [ 16.237976878165394, 47.159300900696259 ], [ 16.237907567828717, 47.159365787201168 ], [ 16.237281766406966, 47.159951795751759 ], [ 16.236992834120528, 47.160222172482058 ], [ 16.236957550676905, 47.16025521669274 ], [ 16.236885729471069, 47.160322507589072 ], [ 16.236913864241732, 47.16046729508632 ], [ 16.236965625981565, 47.160734835133901 ], [ 16.23703011234818, 47.161068320253413 ], [ 16.237109139992274, 47.16147679816234 ], [ 16.236993003373986, 47.161479850088874 ], [ 16.235949012150275, 47.161573279966504 ], [ 16.235918421244715, 47.161610075910005 ], [ 16.23563705536073, 47.16194895651433 ], [ 16.235506215972926, 47.162151100308229 ], [ 16.235356859514763, 47.16238153829687 ], [ 16.235196863811751, 47.162564796057737 ], [ 16.234988056760198, 47.16280413195657 ], [ 16.234809365072561, 47.162911241417575 ], [ 16.234482263656247, 47.163107130037361 ], [ 16.234354162240269, 47.163207547270318 ], [ 16.234035553942757, 47.163457332209873 ], [ 16.233974545829515, 47.163505257078597 ], [ 16.233437864150037, 47.163598793547223 ], [ 16.233013358467197, 47.163867659954299 ], [ 16.232991157510941, 47.163881731345455 ], [ 16.232932520264658, 47.163883764862973 ], [ 16.232556307120419, 47.163896586363606 ], [ 16.232212617756979, 47.1639874536164 ], [ 16.231763490042287, 47.164028510551482 ], [ 16.231102957103491, 47.163911973825854 ], [ 16.230514284112289, 47.164056791611003 ], [ 16.230506335564883, 47.16405870461827 ], [ 16.229854699754185, 47.164242397476372 ], [ 16.229709118132117, 47.164272032305199 ], [ 16.229375388596647, 47.16433994740737 ], [ 16.228754872273623, 47.164344383287393 ], [ 16.228703852789732, 47.16433604639488 ], [ 16.22869665495147, 47.164334788788899 ], [ 16.228403428043823, 47.164281467887363 ], [ 16.228387100813762, 47.164284674258937 ], [ 16.228364631317778, 47.164289027238198 ], [ 16.228353170965981, 47.164398176784005 ], [ 16.228414932320522, 47.164528154646419 ], [ 16.22842839680802, 47.164561937393906 ], [ 16.228408793216801, 47.164565587230996 ], [ 16.228381616774456, 47.164570780207974 ], [ 16.228012615050172, 47.16464075855918 ], [ 16.228041860630633, 47.164743470810052 ], [ 16.228434515180005, 47.164671450345786 ], [ 16.228447458981776, 47.16466914035712 ], [ 16.228470333975459, 47.164664957134839 ], [ 16.2285094864522, 47.164736353646838 ], [ 16.228516047430208, 47.164745280845452 ], [ 16.228544137970111, 47.164783373757963 ], [ 16.228509103323237, 47.164852514778275 ], [ 16.228503525453473, 47.164902628714387 ], [ 16.228357347107941, 47.164950374927571 ], [ 16.22824349596938, 47.164949487905901 ], [ 16.228209050348774, 47.165014922212038 ], [ 16.228153438848139, 47.165057844424567 ], [ 16.228167999901238, 47.165099612866179 ], [ 16.228205867210264, 47.165154744943983 ], [ 16.228156434682607, 47.165189946715039 ], [ 16.228073992364521, 47.165167101628022 ], [ 16.228010738293623, 47.165166818868734 ], [ 16.227960470701568, 47.165160173268291 ], [ 16.22788547344074, 47.165189001710374 ], [ 16.227872742627948, 47.165214536487021 ], [ 16.227977929241657, 47.165305683973635 ], [ 16.227962968529326, 47.165321821268677 ], [ 16.227824543076878, 47.165342357721876 ], [ 16.227885018252483, 47.165439143864688 ], [ 16.227932645561125, 47.165477190477617 ], [ 16.227930014847995, 47.165508771286561 ], [ 16.227889884764213, 47.165588576270117 ], [ 16.227907765794772, 47.165657272286495 ], [ 16.227869271151501, 47.165764587863372 ], [ 16.227864763319957, 47.165860864964614 ], [ 16.227939316002196, 47.165898767359636 ], [ 16.227974362933875, 47.165846733807264 ], [ 16.228082845985984, 47.165865315380458 ], [ 16.228107980332105, 47.165883134560801 ], [ 16.22811522835919, 47.165943276970438 ], [ 16.228124536286263, 47.16602902835789 ], [ 16.227995807350101, 47.166065165465703 ], [ 16.227864682352447, 47.16612027169073 ], [ 16.2278910334052, 47.166196585861492 ], [ 16.227897591386281, 47.166224781690396 ], [ 16.227803716458602, 47.166272998276717 ], [ 16.227772178475291, 47.166278121874043 ], [ 16.227703681059154, 47.166355856614587 ], [ 16.227704741643524, 47.166372847176369 ], [ 16.227811844471173, 47.166421717487324 ], [ 16.227900066953175, 47.166463324231422 ], [ 16.227887050116927, 47.166495709295347 ], [ 16.227797242873123, 47.166531396968693 ], [ 16.22778842921219, 47.166546477575011 ], [ 16.227803384947876, 47.166571308547702 ], [ 16.227893380356907, 47.166669505268651 ], [ 16.227918997474895, 47.166698567200328 ], [ 16.227885879964948, 47.166740017013886 ], [ 16.227935504215935, 47.16678800730655 ], [ 16.22799718994364, 47.166752314105302 ], [ 16.228079667437402, 47.166715371981873 ], [ 16.228241912734561, 47.166712687889266 ], [ 16.228321768691181, 47.166719571584132 ], [ 16.228353853327238, 47.166726859436658 ], [ 16.228350099248193, 47.166757208260826 ], [ 16.228243920239645, 47.16678322806473 ], [ 16.228135080559891, 47.166866850845061 ], [ 16.228107238327862, 47.166954086914281 ], [ 16.228137135162719, 47.166974486221264 ], [ 16.228190096914592, 47.166972419472145 ], [ 16.228319956662762, 47.166952100457415 ], [ 16.228451671686003, 47.166958475947993 ], [ 16.228484139323818, 47.166984842472147 ], [ 16.228556809561319, 47.167051064878478 ], [ 16.228574359716855, 47.167200624992802 ], [ 16.228459458301185, 47.167253068341481 ], [ 16.228342365277964, 47.167349956916006 ], [ 16.228346448678487, 47.167366690544291 ], [ 16.228400312042957, 47.167468056532329 ], [ 16.228376155524163, 47.167538181434367 ], [ 16.228360773605164, 47.167565944610814 ], [ 16.228346412848008, 47.167636540773088 ], [ 16.228335975277435, 47.167740261879779 ], [ 16.228296714352712, 47.167850478324176 ], [ 16.228305967978642, 47.167932809568789 ], [ 16.228287187318902, 47.168002257529146 ], [ 16.228299248447275, 47.168097303050352 ], [ 16.228289472513307, 47.168208300547953 ], [ 16.22830184428685, 47.16827038360244 ], [ 16.228211641443664, 47.168368929367084 ], [ 16.228166479090511, 47.168405012937647 ], [ 16.228137371258413, 47.168464278782473 ], [ 16.228063327343733, 47.168537202481431 ], [ 16.228003943906195, 47.168627131130378 ], [ 16.227962288204616, 47.168693558917738 ], [ 16.227937990073737, 47.168724880143408 ], [ 16.227943451753031, 47.168745090299943 ], [ 16.227933515347573, 47.168790362775169 ], [ 16.227915082516656, 47.168837201821972 ], [ 16.227880905400159, 47.168939005183056 ], [ 16.227829114362354, 47.169027750288244 ], [ 16.22776702492256, 47.169104421682555 ], [ 16.227745376643551, 47.169145579879391 ], [ 16.227729050808566, 47.169214064917632 ], [ 16.227713941590817, 47.169242001130485 ], [ 16.227675294673652, 47.169312764261022 ], [ 16.227700216745692, 47.169447460584657 ], [ 16.227692432250905, 47.169503122945372 ], [ 16.227664343557123, 47.169675272602468 ], [ 16.227662971437638, 47.169746799053783 ], [ 16.227640356385201, 47.169775106105746 ], [ 16.22763437536484, 47.169878263616496 ], [ 16.227688777152515, 47.169979796347334 ], [ 16.227708790150469, 47.170024667717009 ], [ 16.227722214384453, 47.170137416458665 ], [ 16.2276896676855, 47.170155531338253 ], [ 16.227680439755989, 47.170160628031546 ], [ 16.227237102309761, 47.170407709533038 ], [ 16.227305713331919, 47.170940802002377 ], [ 16.227441667420795, 47.171019733257808 ], [ 16.227491850483862, 47.171048891310328 ], [ 16.227496011699806, 47.171064632550092 ], [ 16.227470286384754, 47.171096440106346 ], [ 16.227403289141858, 47.171124434402415 ], [ 16.22731957011408, 47.171194361935626 ], [ 16.227310260069142, 47.171202792150353 ], [ 16.227273184534685, 47.171188787753749 ], [ 16.227263342990454, 47.171185076106283 ], [ 16.226888033916353, 47.171495705962741 ], [ 16.226889660793525, 47.171929025806044 ], [ 16.226695525456226, 47.172476897899728 ], [ 16.22695697978644, 47.172769546815694 ], [ 16.227015908410646, 47.172835489215494 ], [ 16.227036055636628, 47.172841730256017 ], [ 16.227085620289511, 47.172857128157908 ], [ 16.227039472902106, 47.172911514246508 ], [ 16.227012296687697, 47.1729602859997 ], [ 16.226965999123852, 47.173033674250036 ], [ 16.226971307659007, 47.173063162430694 ], [ 16.22709989902112, 47.173132917157439 ], [ 16.22709882671985, 47.173183366648914 ], [ 16.227132309652291, 47.17324275240518 ], [ 16.227077291252858, 47.173320864284271 ], [ 16.227092240286925, 47.17336487400874 ], [ 16.227144501544934, 47.17339578024788 ], [ 16.227205207528456, 47.173457985777887 ], [ 16.227251093797815, 47.173497877860534 ], [ 16.227346300633275, 47.173551103021545 ], [ 16.227383831636661, 47.173650723643554 ], [ 16.22737081438332, 47.173731459923815 ], [ 16.227373341847226, 47.173739049071656 ], [ 16.227402982682793, 47.173829596106664 ], [ 16.22746009864191, 47.174132929111607 ], [ 16.227609076242448, 47.174396831171059 ], [ 16.227624660545683, 47.174553914603422 ], [ 16.227492143989483, 47.174629854364333 ], [ 16.227488971976914, 47.174651544509729 ], [ 16.22729282307391, 47.175075663974717 ], [ 16.227130843133438, 47.175218981345267 ], [ 16.227029553056017, 47.175578832588073 ], [ 16.226822114303804, 47.176045376463826 ], [ 16.226816796597401, 47.176093052524344 ], [ 16.226771408651043, 47.176299135989765 ], [ 16.226781300423653, 47.176364163451765 ], [ 16.226753894604645, 47.176403936944602 ], [ 16.22672341440564, 47.176481695242288 ], [ 16.226613024049648, 47.176505929150061 ], [ 16.226134148034351, 47.176495133624847 ], [ 16.225821385352639, 47.176462469574055 ], [ 16.225298141625096, 47.176396072410483 ], [ 16.225196542767481, 47.176554690918714 ], [ 16.225201184799779, 47.176644522624663 ], [ 16.225140200693762, 47.176719903599832 ], [ 16.225139769857005, 47.176799059358764 ], [ 16.225266557230714, 47.176840499630288 ], [ 16.225253112611924, 47.176877217026949 ], [ 16.225254452573601, 47.176981538917424 ], [ 16.225267294435561, 47.177069181537149 ], [ 16.225390997987549, 47.177199208940877 ], [ 16.225395078945226, 47.177322279511678 ], [ 16.225363883021597, 47.177350713840283 ], [ 16.225316203677426, 47.177478700335328 ], [ 16.225218977025495, 47.177729498377651 ], [ 16.22511230721512, 47.177959736928308 ], [ 16.225138723427907, 47.178051716954407 ], [ 16.225266361630222, 47.178069995515642 ], [ 16.225302136520593, 47.178130224013245 ], [ 16.225271519468908, 47.17823454699257 ], [ 16.22525503250305, 47.178290520063776 ], [ 16.225174438250377, 47.178355053944074 ], [ 16.224884842553124, 47.178413098974076 ], [ 16.224817906247541, 47.178452074747582 ], [ 16.22471756325136, 47.178580587563815 ], [ 16.224719969799242, 47.178694786698209 ], [ 16.224798657217999, 47.178737988921263 ], [ 16.224813243937017, 47.178780207324117 ], [ 16.224738715179779, 47.178965510029869 ], [ 16.224659355234401, 47.179030912561188 ], [ 16.224696588396558, 47.179100918537614 ], [ 16.22481704393795, 47.179101282046453 ], [ 16.224880025273308, 47.179282463450519 ], [ 16.224684310946884, 47.179412947228649 ], [ 16.224739190819413, 47.179837531260254 ], [ 16.224763157072775, 47.180003135895483 ], [ 16.224674728952177, 47.180149173938261 ], [ 16.224665244036927, 47.180304372816224 ], [ 16.224683201169473, 47.180618695291457 ], [ 16.224704518634212, 47.180914744465674 ], [ 16.224716400822441, 47.181079125193655 ], [ 16.224754559221857, 47.181439305208656 ], [ 16.224750231007928, 47.181505143964969 ], [ 16.224764394053391, 47.181532336531724 ], [ 16.224778288441872, 47.181745647694761 ], [ 16.224769996806174, 47.181770348945555 ], [ 16.22478175872369, 47.18178742799541 ], [ 16.224834253627268, 47.182584206035003 ], [ 16.224846522398209, 47.182731469418187 ], [ 16.224923803406831, 47.183660426540357 ], [ 16.224912011903506, 47.183778227500284 ], [ 16.224956238420294, 47.183981044349565 ], [ 16.225035895520922, 47.184571392362201 ], [ 16.225085927745308, 47.18491191234807 ], [ 16.225137901209866, 47.18527345229208 ], [ 16.22524214683677, 47.185975365254251 ], [ 16.225259330593101, 47.186135199399267 ], [ 16.225296564400828, 47.186253466472913 ], [ 16.225356012246852, 47.186362525757154 ], [ 16.225429783074709, 47.186455734562294 ], [ 16.225535369932548, 47.186565603190452 ], [ 16.225574478620576, 47.186597294569154 ], [ 16.225662452020352, 47.186662770601188 ], [ 16.225763654216092, 47.186728630981008 ], [ 16.225874912660458, 47.186787572990177 ], [ 16.22596847462577, 47.186819952406033 ], [ 16.22610146781912, 47.186851240359005 ], [ 16.226197054812506, 47.18686024791451 ], [ 16.2263374306679, 47.186864696389044 ], [ 16.226455658093361, 47.186884383676386 ], [ 16.226619980791323, 47.18692099801504 ], [ 16.226876397105904, 47.186963106266354 ], [ 16.22696309352018, 47.186971348587932 ], [ 16.227064259562695, 47.187009926779488 ], [ 16.227179639902804, 47.187059668852946 ], [ 16.227490077483914, 47.187208090775165 ], [ 16.227535730872145, 47.187231421631985 ], [ 16.22767391765187, 47.187302103249273 ], [ 16.227836013050123, 47.18738973492556 ], [ 16.227982424045006, 47.187465879710118 ], [ 16.228099982177881, 47.187521598214524 ], [ 16.22824117946298, 47.18759175247888 ], [ 16.228325052319096, 47.187637702136108 ], [ 16.228398151003912, 47.187689508018913 ], [ 16.228483371487187, 47.18776009418962 ], [ 16.228546241341576, 47.187798744042432 ], [ 16.228590968202727, 47.187851000787781 ], [ 16.228607962484816, 47.187929893815898 ], [ 16.228624676693343, 47.187977099991571 ], [ 16.228647016270539, 47.18804505239379 ], [ 16.228667572926991, 47.188099724235521 ], [ 16.228710283634626, 47.188168239330523 ], [ 16.228723337950164, 47.188225803043949 ], [ 16.228744475169623, 47.188264523093579 ], [ 16.228853102577425, 47.188364587329133 ], [ 16.228891162499526, 47.188418093913455 ], [ 16.228897660719799, 47.188447551795875 ], [ 16.228935999314974, 47.188474759692987 ], [ 16.228985706126753, 47.188490063482789 ], [ 16.229049182130705, 47.188513210850886 ], [ 16.229086482228315, 47.188545577362106 ], [ 16.229160975567879, 47.188572136232878 ], [ 16.229202922594585, 47.188607355889069 ], [ 16.22926623083627, 47.188651576698561 ], [ 16.229326632520888, 47.188695781327581 ], [ 16.229369133246657, 47.188786991552078 ], [ 16.229403513784053, 47.18883599949914 ], [ 16.229424710427146, 47.188887863727089 ], [ 16.229435626498127, 47.188920810859329 ], [ 16.229436636615361, 47.188982732501756 ], [ 16.229449570776708, 47.189042910359888 ], [ 16.229449572744215, 47.189112961206803 ], [ 16.22947573191556, 47.18914930247302 ], [ 16.229450165915001, 47.189196232860688 ], [ 16.229413411456004, 47.189265597454252 ], [ 16.229405424519037, 47.189305508017441 ], [ 16.22936421558585, 47.189351395432894 ], [ 16.229345987651822, 47.189426231628055 ], [ 16.229348647146903, 47.189496575067878 ], [ 16.229371376693479, 47.189545068869386 ], [ 16.229379856551912, 47.189581769570246 ], [ 16.229384085203318, 47.189615607036728 ], [ 16.229356895283573, 47.189644930895831 ], [ 16.22930966584979, 47.189660447877671 ], [ 16.229291865138173, 47.18972861025901 ], [ 16.229316972943963, 47.189774702580223 ], [ 16.229323337478863, 47.189811367020219 ], [ 16.229326538970106, 47.189828843374251 ], [ 16.229305229572752, 47.189881157926052 ], [ 16.229294853815418, 47.189973982507027 ], [ 16.229281991273865, 47.190014107039296 ], [ 16.229309778932183, 47.190080210091757 ], [ 16.229337642814183, 47.190101831588834 ], [ 16.229380300930409, 47.190101737568511 ], [ 16.229427890058343, 47.190119346034514 ], [ 16.229421428494373, 47.190201626514799 ], [ 16.229386047336437, 47.190274377671209 ], [ 16.229333777217143, 47.190332971730072 ], [ 16.229261342978678, 47.190385145300226 ], [ 16.229256379137325, 47.190410302521613 ], [ 16.229298304371312, 47.190435438284112 ], [ 16.229344131680328, 47.190457053326099 ], [ 16.229380767072708, 47.190484484489858 ], [ 16.229514196758927, 47.190477670844807 ], [ 16.229529667392335, 47.190487632096428 ], [ 16.229533077764039, 47.190501681627211 ], [ 16.229512841680798, 47.190537401620233 ], [ 16.229517878502246, 47.190576350800292 ], [ 16.229536626683654, 47.190636560921497 ], [ 16.229566882402469, 47.190677750218988 ], [ 16.229568490124997, 47.190704721256942 ], [ 16.229535897584451, 47.190736703610227 ], [ 16.22947576754229, 47.190745795633674 ], [ 16.229447925010366, 47.190755957633243 ], [ 16.229441377708916, 47.1908052857586 ], [ 16.229422093367646, 47.190839090700877 ], [ 16.229335424122866, 47.190882172017304 ], [ 16.229297697276685, 47.190967588315594 ], [ 16.229225750787268, 47.191006963802508 ], [ 16.229214543659577, 47.191045965758526 ], [ 16.229227175304519, 47.19109336569263 ], [ 16.229310890749943, 47.191184608741231 ], [ 16.229366668890627, 47.191228750870614 ], [ 16.229396926502432, 47.191313429341186 ], [ 16.229397955171542, 47.1913467178777 ], [ 16.229368863245021, 47.191387164947891 ], [ 16.229396019898491, 47.191448962128952 ], [ 16.229420891918686, 47.191476242141853 ], [ 16.229445252595877, 47.191520732731249 ], [ 16.229437905188668, 47.191560266864549 ], [ 16.22939428433547, 47.191588657814549 ], [ 16.229344339482665, 47.191663219792211 ], [ 16.229374498167612, 47.191705041893073 ], [ 16.229385666020402, 47.191730509341681 ], [ 16.229396222637117, 47.191754461653233 ], [ 16.22938584169593, 47.191782007579235 ], [ 16.229325524968932, 47.191804610190921 ], [ 16.229336509171048, 47.191848450409154 ], [ 16.229403834849446, 47.191886356366219 ], [ 16.229511429963772, 47.191894966078131 ], [ 16.229529241149606, 47.191930799268974 ], [ 16.229463281891498, 47.191954085636731 ], [ 16.22940682365212, 47.192013416429667 ], [ 16.229366092315249, 47.192048756997615 ], [ 16.229195394043121, 47.192033557610152 ], [ 16.229177860817579, 47.192140430199728 ], [ 16.229101416618146, 47.192162812352521 ], [ 16.229046385059124, 47.192250649261936 ], [ 16.229124523423607, 47.192317183286399 ], [ 16.229180578861101, 47.192342230068881 ], [ 16.229192647315074, 47.192372086587646 ], [ 16.229181940195289, 47.192403332406045 ], [ 16.22918047687779, 47.192449019719277 ], [ 16.229215670582697, 47.192563555980563 ], [ 16.229234201263424, 47.192602882474425 ], [ 16.229246501522805, 47.192651461349975 ], [ 16.229243072200489, 47.192704671933107 ], [ 16.229232136956195, 47.192726919585539 ], [ 16.229189073478565, 47.192746202251556 ], [ 16.229220290243685, 47.192807356037044 ], [ 16.229263986650274, 47.192821371952363 ], [ 16.229326116099632, 47.192822223681731 ], [ 16.229354561900916, 47.192854455096672 ], [ 16.229334282160959, 47.192932854943898 ], [ 16.229337311304263, 47.193024438336373 ], [ 16.229322958987098, 47.193054246153132 ], [ 16.229272193733149, 47.19309452379072 ], [ 16.229190871597975, 47.193114688932539 ], [ 16.229167957665972, 47.193152187647925 ], [ 16.22916093889685, 47.193183249664493 ], [ 16.229180577325021, 47.193218676306088 ], [ 16.229225629517984, 47.193264711905186 ], [ 16.229255158467552, 47.193292593910947 ], [ 16.229323455186019, 47.193374774794073 ], [ 16.229368946725117, 47.193419178460005 ], [ 16.229405257887262, 47.193462374847954 ], [ 16.229401176435136, 47.193535050583542 ], [ 16.229431057309714, 47.193588674951663 ], [ 16.229426836083054, 47.193627409282087 ], [ 16.22946625882107, 47.193681601436317 ], [ 16.229515041734913, 47.193720969199106 ], [ 16.22955862766295, 47.193737779060399 ], [ 16.229628677142973, 47.19380127701033 ], [ 16.229675515146862, 47.193838893360841 ], [ 16.229718842694719, 47.193882361481705 ], [ 16.229784633518932, 47.193923547730542 ], [ 16.229821903604776, 47.193993911609503 ], [ 16.229897868631646, 47.194078598419196 ], [ 16.229948156698825, 47.194155114140074 ], [ 16.229997867037167, 47.194177620710988 ], [ 16.230064492308689, 47.194214733809169 ], [ 16.230115226061859, 47.194268007888923 ], [ 16.230130214003598, 47.194314987679185 ], [ 16.230125017616441, 47.19435761854723 ], [ 16.230091246939686, 47.194380176788648 ], [ 16.230008135213538, 47.194413533768063 ], [ 16.230015020474212, 47.194454867006812 ], [ 16.23004911194117, 47.194503341957436 ], [ 16.230092808827944, 47.19452699183023 ], [ 16.23016215104705, 47.194601672397553 ], [ 16.230319730351248, 47.194642505304643 ], [ 16.230436734427833, 47.194646733206156 ], [ 16.230455397914518, 47.19465949444303 ], [ 16.230492451247578, 47.194684843787336 ], [ 16.230507871856208, 47.19472523963578 ], [ 16.230492655405822, 47.194756150052193 ], [ 16.230487822688463, 47.194778872916018 ], [ 16.230475423662639, 47.194805749935462 ], [ 16.230455053916081, 47.194814911740778 ], [ 16.230432749764081, 47.194824933090075 ], [ 16.230396363476942, 47.194831080662198 ], [ 16.23039450707228, 47.1949057707902 ], [ 16.23038490357931, 47.194947523302567 ], [ 16.230390186311858, 47.195012667760153 ], [ 16.230376640865316, 47.195081352343351 ], [ 16.230426970413124, 47.195110325865869 ], [ 16.230454535272695, 47.195121600196963 ], [ 16.23047142307453, 47.195128463968246 ], [ 16.23046266928483, 47.195156778962193 ], [ 16.230454378421435, 47.1951573499517 ], [ 16.230403319023672, 47.195160899334745 ], [ 16.230444546912132, 47.195264927296108 ], [ 16.230454215875366, 47.195277467061771 ], [ 16.230476833902305, 47.19530696516577 ], [ 16.230505464795577, 47.195344954173741 ], [ 16.230514369128681, 47.19544971404617 ], [ 16.230464568035586, 47.195510046509014 ], [ 16.2304689600446, 47.195570981747849 ], [ 16.23054182358667, 47.195637559047441 ], [ 16.23061243111329, 47.195682223985401 ], [ 16.2306918463266, 47.195771954872768 ], [ 16.230737948182298, 47.195892606187442 ], [ 16.230734053639473, 47.195915575319788 ], [ 16.230632385028429, 47.195964711375211 ], [ 16.230614215818211, 47.196016496061269 ], [ 16.230644462087959, 47.19615879999396 ], [ 16.230578023231477, 47.19622891972336 ], [ 16.230569154269045, 47.196238239269789 ], [ 16.230522009734017, 47.196272302626113 ], [ 16.230571983782568, 47.196350266754777 ], [ 16.230598804400856, 47.196466186136085 ], [ 16.23063714447748, 47.196541564821196 ], [ 16.23072558547824, 47.196644121943848 ], [ 16.230794995315215, 47.196732036325365 ], [ 16.23086392201181, 47.196820773314606 ], [ 16.230933380560568, 47.196798567804215 ], [ 16.23096798133928, 47.196783911731536 ], [ 16.231027776435678, 47.196812014018853 ], [ 16.231096287932214, 47.19681594401537 ], [ 16.231185112528653, 47.196766233869639 ], [ 16.231277098281733, 47.196752549178598 ], [ 16.231337806443527, 47.196826278230034 ], [ 16.231315270747498, 47.196904465704208 ], [ 16.231370921651987, 47.196941317045813 ], [ 16.231428693728205, 47.196932464256818 ], [ 16.231502079169953, 47.196907187197951 ], [ 16.231595002713931, 47.196927513424946 ], [ 16.231747245886204, 47.196935885906115 ], [ 16.231910015345392, 47.19701827318891 ], [ 16.232036017488845, 47.197051623627928 ], [ 16.232163381693802, 47.197059187901161 ], [ 16.232341552418067, 47.197039257701462 ], [ 16.232376767768134, 47.197079239705779 ], [ 16.232400552272722, 47.197180649575806 ], [ 16.232468954568844, 47.197269399018239 ], [ 16.232563771684298, 47.19727121814018 ], [ 16.232626141077137, 47.197283587192402 ], [ 16.232650645414946, 47.197342660003038 ], [ 16.232638343365043, 47.197400238365852 ], [ 16.232654732035144, 47.197436557551619 ], [ 16.232706774024429, 47.197462965459252 ], [ 16.232779867269347, 47.197439585853679 ], [ 16.2328277144643, 47.197437647882644 ], [ 16.232916658875528, 47.19752758506047 ], [ 16.23314269417639, 47.197607280080604 ], [ 16.233276628977677, 47.197652762757599 ], [ 16.233385685915042, 47.197668535101123 ], [ 16.233482046875597, 47.197679228124301 ], [ 16.233519209880299, 47.19767999290481 ], [ 16.233585432088667, 47.197728909587234 ], [ 16.2336210670152, 47.197764468608291 ], [ 16.2336149304504, 47.197797129198136 ], [ 16.233623548209859, 47.197848322569826 ], [ 16.233680647767144, 47.197863346331083 ], [ 16.233709050135715, 47.197885043227728 ], [ 16.233752168790133, 47.197948684210722 ], [ 16.233786131855368, 47.198067032355993 ], [ 16.233796168970258, 47.1980910875955 ], [ 16.233835581622774, 47.198106381464328 ], [ 16.233949797351769, 47.198139129535612 ], [ 16.234045833792663, 47.198206555471586 ], [ 16.234051200487439, 47.198294837967957 ], [ 16.234087648474524, 47.198333167394466 ], [ 16.234154386857291, 47.198364963064961 ], [ 16.234213244149153, 47.198407223899771 ], [ 16.234273262668143, 47.198424874260034 ], [ 16.234360607892121, 47.198430123619659 ], [ 16.234369784451882, 47.198462574434565 ], [ 16.23441529823317, 47.198504814764405 ], [ 16.234424943829179, 47.198557872761043 ], [ 16.234365364738309, 47.198685625656189 ], [ 16.234372789215833, 47.198722262916078 ], [ 16.234275882577528, 47.198771551028905 ], [ 16.234260244858572, 47.198818859943252 ], [ 16.2342277809447, 47.198848409211237 ], [ 16.234270639055964, 47.198895219210442 ], [ 16.234313553334154, 47.198926180751208 ], [ 16.234368214130665, 47.198978632835058 ], [ 16.234321303506633, 47.199021785824343 ], [ 16.234312957896332, 47.199052701903895 ], [ 16.234241138730983, 47.199087304992055 ], [ 16.23420847978856, 47.199118119772805 ], [ 16.234191125816416, 47.199131707426382 ], [ 16.234170425608941, 47.199146910949516 ], [ 16.2341584004892, 47.199156491211831 ], [ 16.234090598939929, 47.199225837329195 ], [ 16.234084066204229, 47.199299476156874 ], [ 16.234079964652405, 47.199347571813135 ], [ 16.234170627142884, 47.199432602242297 ], [ 16.234166419905549, 47.199473947605483 ], [ 16.234104899598623, 47.199518102725321 ], [ 16.234090104895678, 47.199592852292007 ], [ 16.234116885754872, 47.199645203939106 ], [ 16.234108100335714, 47.199750053900559 ], [ 16.234115078916968, 47.199805070652268 ], [ 16.234095089895437, 47.199847718197539 ], [ 16.234075557708103, 47.199874597136706 ], [ 16.234060984863142, 47.199890725113555 ], [ 16.234052483235757, 47.199901926412835 ], [ 16.23409768794998, 47.199928867985847 ], [ 16.234097086229603, 47.199958866570277 ], [ 16.23401526401112, 47.199994174344184 ], [ 16.233978859634362, 47.200031387179195 ], [ 16.233910454879961, 47.200077698310615 ], [ 16.23384758260071, 47.200116485294146 ], [ 16.233850931760234, 47.200184830301509 ], [ 16.233836319288859, 47.200253272390782 ], [ 16.233858417187815, 47.20031177597749 ], [ 16.233910231235157, 47.200355656945341 ], [ 16.233924418366723, 47.200392752348598 ], [ 16.233924877800618, 47.200456578888321 ], [ 16.233935748460333, 47.20051752923235 ], [ 16.233883962448171, 47.200556124035487 ], [ 16.23385495940185, 47.200559653589842 ], [ 16.233812063047015, 47.200570019674295 ], [ 16.233820267074236, 47.200623294483641 ], [ 16.233824178234045, 47.200670555865003 ], [ 16.233783524723616, 47.200702564437734 ], [ 16.233764504989047, 47.200729160145322 ], [ 16.233754689933875, 47.200742915965506 ], [ 16.23375187703861, 47.200778373216401 ], [ 16.233768380554505, 47.200848094125909 ], [ 16.233776972559937, 47.200884341535939 ], [ 16.23369858852487, 47.200898042001924 ], [ 16.233639637469118, 47.200955367265138 ], [ 16.233571921943437, 47.200973298069449 ], [ 16.23346480807459, 47.20096900137149 ], [ 16.233410485087127, 47.201007120272607 ], [ 16.233371554359007, 47.201068167689783 ], [ 16.233338516514248, 47.201140320081628 ], [ 16.233330403738005, 47.201202023744031 ], [ 16.233345569480413, 47.201264215407292 ], [ 16.233355138408658, 47.201289363083305 ], [ 16.233350330411412, 47.201322169900145 ], [ 16.233360250797055, 47.201346498272585 ], [ 16.23333580347489, 47.20136566869499 ], [ 16.233274677715819, 47.201402610061379 ], [ 16.233219827520148, 47.201443173347684 ], [ 16.233167866058427, 47.201464124453885 ], [ 16.233185964325671, 47.201495447894992 ], [ 16.233117110169754, 47.201569772288352 ], [ 16.233110969505745, 47.201616839290963 ], [ 16.233050955812168, 47.201727134642375 ], [ 16.232981189496012, 47.201751059879875 ], [ 16.232926278695611, 47.201766413415214 ], [ 16.232889334319392, 47.201791394179494 ], [ 16.232888115948384, 47.201831853040368 ], [ 16.232869816513826, 47.201898137782472 ], [ 16.232844215666084, 47.201939667303691 ], [ 16.232821097468459, 47.20202651368426 ], [ 16.232831141323842, 47.202065155279278 ], [ 16.232805047769325, 47.202097693349749 ], [ 16.232798045572665, 47.202153155945808 ], [ 16.232803810031577, 47.202205322362964 ], [ 16.232810472962669, 47.202244950389883 ], [ 16.23279612736636, 47.202313475534226 ], [ 16.232801243106401, 47.202368269611824 ], [ 16.232800476754978, 47.202470034042726 ], [ 16.23280393564897, 47.202557284594306 ], [ 16.232799223331558, 47.202664191660169 ], [ 16.232799074862889, 47.202782057482374 ], [ 16.232799045084327, 47.202803217583316 ], [ 16.232801073513389, 47.202893295765278 ], [ 16.232794728705731, 47.202999343969985 ], [ 16.232793447688469, 47.203053130301242 ], [ 16.232775933549405, 47.203095174331153 ], [ 16.23274667569563, 47.203233949758612 ], [ 16.232744655562669, 47.203240484024036 ], [ 16.232725604993615, 47.203300304969133 ], [ 16.232708315841847, 47.203331988688177 ], [ 16.232726828002569, 47.20339256459409 ], [ 16.23271087360067, 47.203414850215573 ], [ 16.232701678036442, 47.203427869841455 ], [ 16.232693319337592, 47.203499574088575 ], [ 16.232692015173498, 47.203511942718379 ], [ 16.232696607316925, 47.203631938895661 ], [ 16.232705341370629, 47.203714193067484 ], [ 16.232710179570503, 47.203771155159735 ], [ 16.232710827664327, 47.203778161769307 ], [ 16.232696631296342, 47.203820481515365 ], [ 16.232705434203012, 47.203870229586428 ], [ 16.232711396054686, 47.203904292991652 ], [ 16.232723838736707, 47.203974657589818 ], [ 16.232737215347804, 47.204001779344964 ], [ 16.232746122425414, 47.204043781345028 ], [ 16.232750054548802, 47.204062499598813 ], [ 16.232750965454755, 47.204067068447792 ], [ 16.232774377943979, 47.204147148325546 ], [ 16.232777038919412, 47.204164368247689 ], [ 16.232783807663935, 47.204210746564058 ], [ 16.232799104714548, 47.204248804296661 ], [ 16.232806481986824, 47.204267705004902 ], [ 16.232810610768574, 47.204277954516876 ], [ 16.232828421713332, 47.204320900465106 ], [ 16.232835117061523, 47.204377995377101 ], [ 16.232865284280805, 47.204460784634009 ], [ 16.232895314468767, 47.20450972242589 ], [ 16.232896147282563, 47.204558682857652 ], [ 16.232912330635543, 47.204622559433723 ], [ 16.232935103634581, 47.204703015718849 ], [ 16.232941001519759, 47.204757609806521 ], [ 16.232983919011993, 47.204819905685518 ], [ 16.233020992546852, 47.204871995690979 ], [ 16.233125723090783, 47.20498215036924 ], [ 16.233247134077281, 47.205107367301132 ], [ 16.233333254038911, 47.205210612167484 ], [ 16.233353130196239, 47.205226133401979 ], [ 16.233360995586768, 47.205232236012257 ], [ 16.233452650796231, 47.205320753484408 ], [ 16.233568295736504, 47.205432340774415 ], [ 16.233581263150722, 47.205471268072472 ], [ 16.233616402718926, 47.20557725091502 ], [ 16.233626204155946, 47.2056066245339 ], [ 16.233620878260897, 47.205683023775975 ], [ 16.233621461445544, 47.205708130029173 ], [ 16.233605128047749, 47.205875389440067 ], [ 16.233616242738382, 47.205976941531247 ], [ 16.233624789254105, 47.206072616361531 ], [ 16.233640163204694, 47.206244651223813 ], [ 16.233644368810722, 47.206422642844714 ], [ 16.233647244304542, 47.206545023741555 ], [ 16.233648640724571, 47.206606665440241 ], [ 16.233650007580955, 47.20666776765254 ], [ 16.233651501454773, 47.206728776592016 ], [ 16.233652886919707, 47.206787807415608 ], [ 16.233655513841928, 47.206900830500523 ], [ 16.233656148553656, 47.206931697985212 ], [ 16.233645792233265, 47.206993458728959 ], [ 16.233632068445253, 47.207075744203713 ], [ 16.233620425527505, 47.207145371147874 ], [ 16.233587410477622, 47.207328902088626 ], [ 16.23357162197188, 47.207416912602739 ], [ 16.233555380658263, 47.207508716306556 ], [ 16.233524623510338, 47.207682825613141 ], [ 16.233483110272118, 47.207889712993236 ], [ 16.233477308051054, 47.207918853457059 ], [ 16.233442668073621, 47.208055875123868 ], [ 16.233401398355817, 47.208218996939486 ], [ 16.233390885980111, 47.208261042907218 ], [ 16.233367538711452, 47.208353387559015 ], [ 16.233332863673546, 47.208489779787023 ], [ 16.233340840686676, 47.208558187067695 ], [ 16.233358325583264, 47.208708468630519 ], [ 16.23336931501419, 47.20880291077296 ], [ 16.233382016527891, 47.208911715702946 ], [ 16.233397970245775, 47.209014765365019 ], [ 16.233410919856073, 47.209099163210226 ], [ 16.233442149467937, 47.209145819401833 ], [ 16.233393286566741, 47.209216213407252 ], [ 16.233403820550649, 47.209232422606746 ], [ 16.233415508681286, 47.209250403228914 ], [ 16.233380472891898, 47.209346466829068 ], [ 16.233344767920762, 47.209389333962093 ], [ 16.233357298681131, 47.209422689941555 ], [ 16.233360386067528, 47.209430804989815 ], [ 16.233384483482283, 47.209494390088985 ], [ 16.233413962966608, 47.209571794378576 ], [ 16.233435883061102, 47.209629402216159 ], [ 16.233441088869267, 47.209685814689372 ], [ 16.233444614895479, 47.209723631685357 ], [ 16.233446692737004, 47.209747079177944 ], [ 16.233535392098631, 47.209798395523002 ], [ 16.23355353769681, 47.209808828538243 ], [ 16.233558594792949, 47.209881812105195 ], [ 16.233622414333635, 47.209901077138056 ], [ 16.233688295071453, 47.209885624376803 ], [ 16.233744220078023, 47.209900678315059 ], [ 16.233757414605467, 47.209909976752897 ], [ 16.233794108983055, 47.209935784638539 ], [ 16.233848857704544, 47.209975179198025 ], [ 16.233917321513879, 47.210050240551659 ], [ 16.2339444587382, 47.210080073315297 ], [ 16.233979375621679, 47.210066218856632 ], [ 16.234101190683944, 47.210116601849045 ], [ 16.234097604714528, 47.210171707419079 ], [ 16.234194094701163, 47.210210849693091 ], [ 16.234252472657005, 47.210234484772101 ], [ 16.234267433526171, 47.210268769247037 ], [ 16.234294116430231, 47.210287898767497 ], [ 16.234309931592037, 47.210299201350686 ], [ 16.234309408345982, 47.21030893896512 ], [ 16.234339333556775, 47.210322133355454 ], [ 16.234365941128168, 47.21037845120258 ], [ 16.234410891396767, 47.210395765081373 ], [ 16.234448238832439, 47.210488905896661 ], [ 16.234406750801533, 47.210517874375043 ], [ 16.234380679839358, 47.210553293399023 ], [ 16.234415172016494, 47.210591942809486 ], [ 16.234415563117427, 47.210654510492787 ], [ 16.234444577593997, 47.210725803696306 ], [ 16.234444997961106, 47.210798545128554 ], [ 16.234506377548016, 47.210843172990458 ], [ 16.234526792504457, 47.210897397461103 ], [ 16.23455570226157, 47.210974005654478 ], [ 16.234568753619122, 47.211072266948001 ], [ 16.23456514242023, 47.211083523812434 ], [ 16.234529703752436, 47.211193914352592 ], [ 16.234520090223619, 47.211213787756243 ], [ 16.234459777051097, 47.211338047345464 ], [ 16.234460778911881, 47.211358730987492 ], [ 16.234464607405794, 47.211445431860469 ], [ 16.234481693658271, 47.211477501256567 ], [ 16.234538700183684, 47.211584547961834 ], [ 16.234677831875906, 47.211690404299247 ], [ 16.234734577435749, 47.211802319712106 ], [ 16.234795546613508, 47.211844256705611 ], [ 16.234832076370655, 47.21186943821268 ], [ 16.234838255923663, 47.211873692832533 ], [ 16.235092024179458, 47.212048301705707 ], [ 16.23514682853725, 47.212165758795592 ], [ 16.235153570270615, 47.21218026362132 ], [ 16.235139358518481, 47.212342787141779 ], [ 16.235125515540062, 47.212499988918992 ], [ 16.235123809522069, 47.212519480950981 ], [ 16.2351170471856, 47.212593755875069 ], [ 16.23509258324497, 47.212860896522493 ], [ 16.235121862969514, 47.212859880895699 ], [ 16.235130308013375, 47.212869300127061 ], [ 16.235149168786538, 47.212890339405249 ], [ 16.236054329427226, 47.212617968409546 ], [ 16.236756860702936, 47.212038854341962 ], [ 16.237188485366399, 47.211139343709533 ], [ 16.237275515433236, 47.210876010411326 ], [ 16.237316790873106, 47.210891345901736 ], [ 16.237323130792735, 47.21089370546526 ], [ 16.23734228250725, 47.210900780791292 ], [ 16.237419311344947, 47.210876578051455 ], [ 16.23821077324255, 47.210627975305457 ], [ 16.238220530720035, 47.21060593692399 ], [ 16.238271455434827, 47.210606889840548 ], [ 16.238535466221954, 47.21031572358595 ], [ 16.238675499998521, 47.21016115662627 ], [ 16.238729694429104, 47.210101339035887 ], [ 16.239122399784943, 47.209728375297779 ], [ 16.239146890587076, 47.209705150785247 ], [ 16.23923429325357, 47.20962206620284 ], [ 16.239477643445714, 47.209291716676084 ], [ 16.239541585053225, 47.209204908199091 ], [ 16.239550438414085, 47.209192887177679 ], [ 16.239582122684332, 47.209204414630328 ], [ 16.239703039997018, 47.20904592180063 ], [ 16.239789074907247, 47.208933158416436 ], [ 16.239839490502476, 47.208867133804631 ], [ 16.239902597667889, 47.208784398177315 ], [ 16.239949926677848, 47.208722323955023 ], [ 16.239965826705237, 47.208701479320915 ], [ 16.240023879268463, 47.208625355421212 ], [ 16.240088714570348, 47.20854041463447 ], [ 16.240106709404429, 47.208516815343572 ], [ 16.240162793659636, 47.208443352729404 ], [ 16.240210249066408, 47.208381185117503 ], [ 16.240267807719096, 47.208305703952846 ], [ 16.2403352303369, 47.208217365521847 ], [ 16.240483259430892, 47.208023334617302 ], [ 16.240501742176122, 47.20799900248646 ], [ 16.240520850050963, 47.207974024123786 ], [ 16.24053819114145, 47.207952962553335 ], [ 16.24063917095517, 47.207830903190036 ], [ 16.240655159360273, 47.207811676910886 ], [ 16.240755635558646, 47.20769008047818 ], [ 16.24085562304171, 47.20756921673388 ], [ 16.240923169742693, 47.207512028600753 ], [ 16.240958523168153, 47.20748213364017 ], [ 16.241030245922818, 47.207421597440167 ], [ 16.24109882657935, 47.207361591567398 ], [ 16.241131102100681, 47.20733339580773 ], [ 16.241236490493922, 47.207241116659453 ], [ 16.241239142716498, 47.207238888017557 ], [ 16.241347051004016, 47.207144383491304 ], [ 16.241372390582416, 47.207122217261436 ], [ 16.241476527887311, 47.207031230356634 ], [ 16.241508676005068, 47.207003127770534 ], [ 16.241543466402643, 47.206972616698259 ], [ 16.241639656439038, 47.206888495418276 ], [ 16.241655544856201, 47.206874673939275 ], [ 16.241748325298669, 47.206793430821058 ], [ 16.241768746129502, 47.206775531879529 ], [ 16.241840856398568, 47.206712464104022 ], [ 16.241890025537408, 47.206669520539648 ], [ 16.241928386307034, 47.206636667204023 ], [ 16.241982270218429, 47.206624216897104 ], [ 16.242024412824701, 47.206614497348816 ], [ 16.242200815545875, 47.206573888379637 ], [ 16.242382441269744, 47.206532155353521 ], [ 16.242419756280977, 47.2065235493382 ], [ 16.242507910415306, 47.206502390399116 ], [ 16.242629582792329, 47.206473262478163 ], [ 16.242715000603951, 47.206452803515994 ], [ 16.2428658863839, 47.206416716700005 ], [ 16.242928613286363, 47.206401699103012 ], [ 16.243142352553111, 47.206350501006554 ], [ 16.243161393396264, 47.206345962983669 ], [ 16.243283153077822, 47.206301615325657 ], [ 16.243478612022972, 47.206230354229902 ], [ 16.243575371525758, 47.20619510848416 ], [ 16.243677314550307, 47.2061580195017 ], [ 16.243720703503538, 47.206142144742806 ], [ 16.243761117151031, 47.206127426441007 ], [ 16.243842721182695, 47.206097699832988 ], [ 16.243998800865192, 47.206040769560254 ], [ 16.244116543198725, 47.205997874193621 ], [ 16.244130667447603, 47.2059928313112 ], [ 16.244202370819888, 47.205956064079714 ], [ 16.244300033435824, 47.205906028024948 ], [ 16.24439230279857, 47.205858830867591 ], [ 16.244406176340753, 47.205851633388306 ], [ 16.244419541906439, 47.205844809045331 ], [ 16.24443226755691, 47.205838361209452 ], [ 16.244474283957178, 47.205816758639834 ], [ 16.24454072079233, 47.205782736895372 ], [ 16.244557840087889, 47.205769693898809 ], [ 16.244634180828051, 47.205711558405284 ], [ 16.244692137203945, 47.205667488641943 ], [ 16.244717374032895, 47.205648295565688 ], [ 16.244745399723016, 47.205626960302943 ], [ 16.244802589015823, 47.205583360278482 ], [ 16.244859026157869, 47.205540499762797 ], [ 16.244913929417127, 47.205498578812012 ], [ 16.244964537991564, 47.205457848052212 ], [ 16.245050532416929, 47.205397484700732 ], [ 16.245146903468697, 47.205355224337787 ], [ 16.245190763016105, 47.205335915434546 ], [ 16.245237851714442, 47.205315263431459 ], [ 16.245418463051518, 47.205236004515463 ], [ 16.245452776720061, 47.205220901231257 ], [ 16.245499093379923, 47.205200629006306 ], [ 16.24566950763516, 47.204945691528245 ], [ 16.245695924396749, 47.204887930810308 ], [ 16.24571250705749, 47.204862745899412 ], [ 16.245723368651614, 47.204846441118079 ], [ 16.245776660616261, 47.204765663483784 ], [ 16.245846061638794, 47.204660703434428 ], [ 16.245907773926817, 47.204567284942001 ], [ 16.245972292885494, 47.204469652813948 ], [ 16.246031207746899, 47.204380627682447 ], [ 16.246062302718919, 47.204333462075141 ], [ 16.246084010621818, 47.204300582701904 ], [ 16.246127258669013, 47.204274986214138 ], [ 16.246177804277586, 47.204245151347124 ], [ 16.246204928257747, 47.204229061078564 ], [ 16.246279393369527, 47.204184928571678 ], [ 16.246437540411513, 47.204091295472196 ], [ 16.246520714368746, 47.204042168014155 ], [ 16.246536521619124, 47.204034110454586 ], [ 16.246567364296311, 47.20401837522261 ], [ 16.246694593858265, 47.203953534737728 ], [ 16.246779540377531, 47.203910214381601 ], [ 16.246935687317841, 47.203830677981657 ], [ 16.246956120312706, 47.203820251071861 ], [ 16.246964600249665, 47.203815892382778 ], [ 16.247058803001146, 47.20376792314557 ], [ 16.247109951318969, 47.203741854122043 ], [ 16.247168214583638, 47.20372982951087 ], [ 16.247256718115381, 47.203700734239838 ], [ 16.247280983758515, 47.203692730388219 ], [ 16.247618103533917, 47.20359586916716 ], [ 16.247625778676948, 47.203593691979371 ], [ 16.247732951892203, 47.20356294830345 ], [ 16.247748097709625, 47.203559679625883 ], [ 16.247900118175867, 47.203527608637131 ], [ 16.248254701598807, 47.20345280888769 ], [ 16.248274816235263, 47.203448602664288 ], [ 16.248382305913157, 47.203397231006363 ], [ 16.248444220395761, 47.2033675544331 ], [ 16.248622616624239, 47.203281863894013 ], [ 16.248737046711884, 47.203226982817064 ], [ 16.248852375321704, 47.203171628426212 ], [ 16.248922139003898, 47.203138149123518 ], [ 16.248979158345477, 47.203110758469506 ], [ 16.249045316935948, 47.203078992062999 ], [ 16.249108901206679, 47.203048462017023 ], [ 16.249176349237064, 47.203016122291658 ], [ 16.249373412446428, 47.202921579062107 ], [ 16.249414727057804, 47.202901703284923 ], [ 16.249452079113354, 47.202843481618032 ], [ 16.249480426186192, 47.202799266592223 ], [ 16.249509139278981, 47.202754501947588 ], [ 16.249547838325103, 47.202694354919586 ], [ 16.249618163853349, 47.202584776569182 ], [ 16.249627163726466, 47.202570679990771 ], [ 16.249752756022939, 47.202457075855833 ], [ 16.24976592495733, 47.202444313204644 ], [ 16.24977974858237, 47.202431443754165 ], [ 16.249795747498855, 47.202419689150361 ], [ 16.249886661871759, 47.202333714477177 ], [ 16.249926229783739, 47.202298936482435 ], [ 16.25007430022654, 47.202168909454961 ], [ 16.250160048645579, 47.202082706616444 ], [ 16.250253585566824, 47.201996394362013 ], [ 16.25034297921076, 47.201923604131593 ], [ 16.25041311355109, 47.201860941226208 ], [ 16.250424442008793, 47.201850746743943 ], [ 16.251051037550649, 47.201675331495984 ], [ 16.251704327053201, 47.201548030989755 ], [ 16.252038811920006, 47.201482827862797 ], [ 16.252198704664764, 47.201461894379797 ], [ 16.252209062495545, 47.201460458512869 ], [ 16.252305708109844, 47.201447357881378 ], [ 16.252441682297324, 47.201378414863058 ], [ 16.2526599074363, 47.201267746447236 ], [ 16.252851019213509, 47.201170918253645 ], [ 16.25305870738352, 47.201065651335384 ], [ 16.253202645757195, 47.200992631526461 ], [ 16.253220126441516, 47.200983809779729 ], [ 16.253368049911, 47.200908796772246 ], [ 16.253375635134311, 47.200905000753309 ], [ 16.253424213464836, 47.200880345213612 ], [ 16.253451392293613, 47.200882079763019 ], [ 16.253622024791436, 47.200893013499616 ], [ 16.253651988968986, 47.200894946735119 ], [ 16.253859749455238, 47.200908350059343 ], [ 16.254521200034105, 47.20095073063424 ], [ 16.254997837876164, 47.200981369062383 ], [ 16.255023956433387, 47.200983040386305 ], [ 16.255188755034752, 47.200993581144154 ], [ 16.255537712987618, 47.201015966227075 ], [ 16.255737113409019, 47.201028680154792 ], [ 16.256069080957346, 47.201049608543322 ], [ 16.256099927016287, 47.201065114676872 ], [ 16.256114140156068, 47.201030624628245 ], [ 16.256159712314876, 47.200922847319987 ], [ 16.256167319242831, 47.200905094231359 ], [ 16.256234516729133, 47.200746339300217 ] ] ] } },
{ "type": "Feature", "properties": { "name": "Neuberg im Burgenland", "feature_type": "circle", "metric_roundness": 37.48, "metric_rectangularity": 64.59, "metric_mobile_fit": 97.05, "metric_aspect_ratio": 0.533, "metric_area_km2": 38.09 }, "geometry": { "type": "Polygon", "coordinates": [ [ [ 16.301908321749398, 47.179831739274604 ], [ 16.301838280315511, 47.178013665194754 ], [ 16.301628347992558, 47.176200512331555 ], [ 16.301279100190442, 47.174397251175066 ], [ 16.300791494173108, 47.172608825603056 ], [ 16.300166866434761, 47.170840139316461 ], [ 16.299406929036614, 47.169096042379422 ], [ 16.298513764914254, 47.167381317901352 ], [ 16.297489822168458, 47.165700668897564 ], [ 16.296337907355113, 47.16405870536498 ], [ 16.295061177792661, 47.162459931608595 ], [ 16.29366313290808, 47.160908733853887 ], [ 16.29214760464523, 47.159409368179588 ], [ 16.29051874696173, 47.157965948804339 ], [ 16.288781024443278, 47.156582436759983 ], [ 16.286939200066499, 47.155262628982882 ], [ 16.284998322143991, 47.154010147853953 ], [ 16.282963710487234, 47.152828431216435 ], [ 16.280840941825353, 47.151720722899633 ], [ 16.278635834519697, 47.150690063774853 ], [ 16.276354432616117, 47.149739283368902 ], [ 16.27400298927865, 47.148870992058562 ], [ 16.271587949650037, 47.148087573868011 ], [ 16.26911593318604, 47.147391179889517 ], [ 16.266593715511949, 47.146783722345759 ], [ 16.264028209851098, 47.146266869310793 ], [ 16.261426448076175, 47.145842040104192 ], [ 16.25879556143536, 47.145510401371695 ], [ 16.25614276100606, 47.145272863863148 ], [ 16.253475317929869, 47.145130079917081 ], [ 16.250800543482836, 47.145082441658758 ], [ 16.248125769035802, 47.145130079917081 ], [ 16.245458325959611, 47.145272863863148 ], [ 16.242805525530311, 47.145510401371695 ], [ 16.240174638889496, 47.145842040104192 ], [ 16.237572877114573, 47.146266869310793 ], [ 16.235007371453722, 47.146783722345759 ], [ 16.232485153779631, 47.147391179889517 ], [ 16.230013137315634, 47.148087573868011 ], [ 16.227598097687022, 47.148870992058562 ], [ 16.225246654349554, 47.149739283368902 ], [ 16.222965252445974, 47.150690063774853 ], [ 16.220760145140318, 47.151720722899633 ], [ 16.218637376478437, 47.152828431216435 ], [ 16.21660276482168, 47.154010147853953 ], [ 16.214661886899172, 47.155262628982882 ], [ 16.212820062522393, 47.156582436759983 ], [ 16.211082340003937, 47.157965948804339 ], [ 16.209453482320441, 47.159409368179588 ], [ 16.207937954057588, 47.160908733853887 ], [ 16.20653990917301, 47.162459931608595 ], [ 16.205263179610558, 47.16405870536498 ], [ 16.204111264797213, 47.165700668897564 ], [ 16.203087322051413, 47.167381317901352 ], [ 16.202194157929053, 47.169096042379422 ], [ 16.20143422053091, 47.170840139316461 ], [ 16.200809592792563, 47.172608825603056 ], [ 16.200321986775229, 47.174397251175066 ], [ 16.199972738973113, 47.176200512331555 ], [ 16.19976280665016, 47.178013665194754 ], [ 16.199692765216273, 47.179831739274604 ], [ 16.19976280665016, 47.181649751101034 ], [ 16.199972738973113, 47.183462717886002 ], [ 16.200321986775229, 47.185265671178207 ], [ 16.200809592792563, 47.187053670472864 ], [ 16.20143422053091, 47.188821816739456 ], [ 16.202194157929053, 47.190565265830386 ], [ 16.203087322051413, 47.192279241734212 ], [ 16.204111264797213, 47.19395904963713 ], [ 16.205263179610558, 47.195600088757509 ], [ 16.20653990917301, 47.197197864918422 ], [ 16.207937954057588, 47.198748002824232 ], [ 16.209453482320441, 47.200246258008157 ], [ 16.211082340003937, 47.201688528418316 ], [ 16.212820062522393, 47.20307086561116 ], [ 16.214661886899172, 47.204389485522263 ], [ 16.21660276482168, 47.205640778785217 ], [ 16.218637376478437, 47.206821320571279 ], [ 16.220760145140318, 47.207927879923055 ], [ 16.222965252445974, 47.208957428557547 ], [ 16.225246654349554, 47.20990714911472 ], [ 16.227598097687022, 47.21077444282971 ], [ 16.230013137315634, 47.21155693660819 ], [ 16.232485153779631, 47.212252489485955 ], [ 16.235007371453722, 47.21285919845559 ], [ 16.237572877114573, 47.213375403644584 ], [ 16.240174638889496, 47.213799692831294 ], [ 16.242805525530311, 47.214130905286545 ], [ 16.245458325959611, 47.214368134930858 ], [ 16.248125769035802, 47.214510732798757 ], [ 16.250800543482836, 47.214558308803667 ], [ 16.253475317929869, 47.214510732798757 ], [ 16.25614276100606, 47.214368134930858 ], [ 16.25879556143536, 47.214130905286545 ], [ 16.261426448076175, 47.213799692831294 ], [ 16.264028209851098, 47.213375403644584 ], [ 16.266593715511949, 47.21285919845559 ], [ 16.26911593318604, 47.212252489485955 ], [ 16.271587949650037, 47.21155693660819 ], [ 16.27400298927865, 47.21077444282971 ], [ 16.276354432616117, 47.20990714911472 ], [ 16.278635834519697, 47.208957428557547 ], [ 16.280840941825353, 47.207927879923055 ], [ 16.282963710487234, 47.206821320571279 ], [ 16.284998322143991, 47.205640778785217 ], [ 16.286939200066499, 47.204389485522263 ], [ 16.288781024443278, 47.20307086561116 ], [ 16.29051874696173, 47.201688528418316 ], [ 16.29214760464523, 47.200246258008157 ], [ 16.29366313290808, 47.198748002824232 ], [ 16.295061177792661, 47.197197864918422 ], [ 16.296337907355113, 47.195600088757509 ], [ 16.297489822168458, 47.19395904963713 ], [ 16.298513764914254, 47.192279241734212 ], [ 16.299406929036614, 47.190565265830386 ], [ 16.300166866434761, 47.188821816739456 ], [ 16.300791494173108, 47.187053670472864 ], [ 16.301279100190442, 47.185265671178207 ], [ 16.301628347992558, 47.183462717886002 ], [ 16.301838280315511, 47.181649751101034 ], [ 16.301908321749398, 47.179831739274604 ] ] ] } },
{ "type": "Feature", "properties": { "name": "Neuberg im Burgenland", "feature_type": "mrr", "metric_roundness": 37.48, "metric_rectangularity": 64.59, "metric_mobile_fit": 97.05, "metric_aspect_ratio": 0.533, "metric_area_km2": 38.09 }, "geometry": { "type": "Polygon", "coordinates": [ [ [ 16.279841959442315, 47.209803025756081 ], [ 16.270359987928643, 47.146424040129205 ], [ 16.219841978820174, 47.149917906982132 ], [ 16.229323950333843, 47.213292724551799 ], [ 16.279841959442315, 47.209803025756081 ] ] ] } }
]
}
