{
"type": "FeatureCollection",
"name": "pama",
"crs": { "type": "name", "properties": { "name": "urn:ogc:def:crs:OGC:1.3:CRS84" } },
"features": [
{ "type": "Feature", "properties": { "name": "Pama", "feature_type": "entity", "metric_roundness": 64.1, "metric_rectangularity": 80.06, "metric_mobile_fit": 56.69, "metric_aspect_ratio": 0.996, "metric_area_km2": 59.03 }, "geometry": { "type": "Polygon", "coordinates": [ [ [ 17.066878047631, 48.05727338138999 ], [ 17.066426185569846, 48.056894185825641 ], [ 17.065957106809869, 48.056501493515263 ], [ 17.065506619076242, 48.056124411951068 ], [ 17.065470466721592, 48.056094234599598 ], [ 17.065575120051871, 48.056034301081262 ], [ 17.065739522879799, 48.055940198516488 ], [ 17.066071931401176, 48.055749804996815 ], [ 17.066149225709495, 48.055705523417693 ], [ 17.066153608757375, 48.05570295038288 ], [ 17.066239816008775, 48.055663064794686 ], [ 17.066411706883365, 48.055583490421341 ], [ 17.066524430967021, 48.055531221485069 ], [ 17.0666181729305, 48.055487760292216 ], [ 17.066716336407914, 48.055442265108326 ], [ 17.066721408892199, 48.055439940017045 ], [ 17.066905653495457, 48.055358435470161 ], [ 17.066999268579099, 48.055316959462161 ], [ 17.067089891076186, 48.055276840771199 ], [ 17.067099685457993, 48.055272922375686 ], [ 17.067166791102778, 48.055245810692846 ], [ 17.067184676134794, 48.055238569211319 ], [ 17.067269800728933, 48.055204211662478 ], [ 17.067360272145155, 48.055167610144395 ], [ 17.067422674950052, 48.055142361181638 ], [ 17.06745820124527, 48.055126354890575 ], [ 17.06754811423124, 48.055085718307069 ], [ 17.067585203670202, 48.055069031113135 ], [ 17.067638161105911, 48.055045077331059 ], [ 17.067685012543198, 48.055024022378177 ], [ 17.067723786246404, 48.055006470237984 ], [ 17.067805110806969, 48.054969713001505 ], [ 17.067809251442402, 48.054967507975888 ], [ 17.067983592137207, 48.054875333081092 ], [ 17.068072771993254, 48.054828235034911 ], [ 17.068149778583191, 48.054787473817754 ], [ 17.068158206719392, 48.054783239132448 ], [ 17.068268965722588, 48.054727969546896 ], [ 17.068379590462786, 48.054672704177506 ], [ 17.068509801883938, 48.054607710353423 ], [ 17.068674045363746, 48.054535854433183 ], [ 17.068679130569684, 48.054533708969245 ], [ 17.06868577251694, 48.054530792769121 ], [ 17.068848988434976, 48.054459600184522 ], [ 17.068934118510946, 48.054427222578887 ], [ 17.069015586008327, 48.054396223972716 ], [ 17.06903363676507, 48.054389427164324 ], [ 17.069044094520475, 48.054385397127376 ], [ 17.069201012253373, 48.054325665314131 ], [ 17.069219056511926, 48.05431877861983 ], [ 17.069230433078943, 48.054314448727204 ], [ 17.069299343226788, 48.054288178156732 ], [ 17.069433477906593, 48.054240439176468 ], [ 17.069486265193337, 48.054221623680419 ], [ 17.069548617084937, 48.054199437346213 ], [ 17.069661012477908, 48.054159514641547 ], [ 17.06967963644616, 48.054151348256759 ], [ 17.069800376383139, 48.054098547064278 ], [ 17.069872664556822, 48.054066943363168 ], [ 17.069978429751945, 48.054020749597214 ], [ 17.070059707470271, 48.053985253086772 ], [ 17.070103603398266, 48.053966093759918 ], [ 17.070221873399515, 48.05391445258276 ], [ 17.07022616722837, 48.053912512715229 ], [ 17.070493919493618, 48.053813626533703 ], [ 17.07052467355544, 48.053802276504427 ], [ 17.070789815155994, 48.053704464571119 ], [ 17.071183127910771, 48.053569460848273 ], [ 17.071430464222594, 48.053500592615521 ], [ 17.071520760573641, 48.053484077804455 ], [ 17.071696592757267, 48.053452102306707 ], [ 17.072053751901052, 48.053348704684367 ], [ 17.072641318588005, 48.053178332603267 ], [ 17.072744488849509, 48.053148431688719 ], [ 17.073319366721186, 48.052997829799246 ], [ 17.073445849621571, 48.052974560611709 ], [ 17.073721715377754, 48.052921427854905 ], [ 17.073866804566318, 48.052893504234248 ], [ 17.07388111115074, 48.052890700384978 ], [ 17.073985271427127, 48.052870853647747 ], [ 17.074329808973758, 48.052818112867641 ], [ 17.074670089395248, 48.052765958916055 ], [ 17.075347003959141, 48.052536214714827 ], [ 17.075511002302729, 48.052472372276505 ], [ 17.075857295600152, 48.052337610590556 ], [ 17.076117359239351, 48.052240400307909 ], [ 17.076450309349585, 48.052125612228323 ], [ 17.076754466933938, 48.052030757781715 ], [ 17.077167594760116, 48.051932559387183 ], [ 17.078288513506713, 48.051688710687706 ], [ 17.078888937481349, 48.051536983630932 ], [ 17.07936139513798, 48.051415872654466 ], [ 17.079706111677648, 48.051332217082944 ], [ 17.080037924536896, 48.051283923448977 ], [ 17.080094027495882, 48.051275803469728 ], [ 17.080192571784025, 48.051261986952341 ], [ 17.080750048147465, 48.051183692179286 ], [ 17.081494787069072, 48.051083121195454 ], [ 17.081597007033633, 48.051030816476505 ], [ 17.081674588002112, 48.050987054933842 ], [ 17.081894378302145, 48.050769185782499 ], [ 17.082139043304714, 48.050570325255194 ], [ 17.082496059420688, 48.050320001359594 ], [ 17.082734366481883, 48.050111257899864 ], [ 17.082918144002651, 48.049977233075566 ], [ 17.083134880579035, 48.049614544124218 ], [ 17.083187148210701, 48.049527108690931 ], [ 17.08341304898569, 48.049155565987405 ], [ 17.083655887090341, 48.048756274176164 ], [ 17.083674617686135, 48.048725405330352 ], [ 17.083830403411767, 48.048441605142024 ], [ 17.083835860288243, 48.048429719809391 ], [ 17.083844106129543, 48.048411799783096 ], [ 17.083914351247753, 48.048258844026591 ], [ 17.083971107606622, 48.04811443109557 ], [ 17.08398677818488, 48.0480746547099 ], [ 17.084072536266461, 48.04789093411916 ], [ 17.084105638765202, 48.047830238094939 ], [ 17.084257519679152, 48.047551967540066 ], [ 17.084289666226216, 48.047492923599783 ], [ 17.084391952299843, 48.047292545396509 ], [ 17.084397715792282, 48.047281190486892 ], [ 17.084483862408135, 48.047117811782769 ], [ 17.084541218939471, 48.047037686113725 ], [ 17.084728925051746, 48.046775726795815 ], [ 17.084907969663174, 48.046525936466715 ], [ 17.085015237390014, 48.046376103279542 ], [ 17.084957707458244, 48.046338248334564 ], [ 17.084806133910813, 48.046238593069262 ], [ 17.084727741997735, 48.046187093490921 ], [ 17.084657169809738, 48.046137862345823 ], [ 17.084510534190454, 48.046035885145137 ], [ 17.084364033149331, 48.045933903413818 ], [ 17.084217392203414, 48.045831835978852 ], [ 17.084129023637203, 48.045770481783912 ], [ 17.084071294320761, 48.045729840846235 ], [ 17.083924844843388, 48.045626686076083 ], [ 17.083799622827179, 48.045538514981864 ], [ 17.08379380501616, 48.045534200143187 ], [ 17.083780911579939, 48.045524890682401 ], [ 17.083638725453255, 48.045421237209951 ], [ 17.083500499104687, 48.045320337426546 ], [ 17.083495115716026, 48.045316458832566 ], [ 17.083355171857036, 48.045214083401085 ], [ 17.083062513668182, 48.044999838425312 ], [ 17.082647833063152, 48.044674620289918 ], [ 17.082390213192731, 48.044460049651128 ], [ 17.082169459692199, 48.044264999910077 ], [ 17.081630938700378, 48.04377725648925 ], [ 17.081596737329775, 48.043746210257368 ], [ 17.0814887151524, 48.043626317200726 ], [ 17.081289796399485, 48.04344902256031 ], [ 17.081133812687167, 48.043319603776339 ], [ 17.081002616380339, 48.043219194226872 ], [ 17.08075899757322, 48.043044066276956 ], [ 17.080232182693035, 48.042679418424676 ], [ 17.079844026268319, 48.042408723230686 ], [ 17.079708705668846, 48.042314390158104 ], [ 17.079454147771489, 48.042134569996769 ], [ 17.07919847733379, 48.041950462158376 ], [ 17.07898538067985, 48.04181298145015 ], [ 17.078413665051581, 48.041415643782209 ], [ 17.078118977657248, 48.041232345618965 ], [ 17.077679962690727, 48.040954462446784 ], [ 17.076655462366574, 48.040302103773698 ], [ 17.076069856535568, 48.039931503799536 ], [ 17.075965825849917, 48.039864976115652 ], [ 17.075323873553234, 48.039453953479203 ], [ 17.075199428423424, 48.039374304989224 ], [ 17.075119576006259, 48.039322756575693 ], [ 17.074734565754085, 48.039074550424992 ], [ 17.074316795325096, 48.038833886512684 ], [ 17.073277499562852, 48.038196839184259 ], [ 17.072971038161327, 48.038021114544151 ], [ 17.072456027143119, 48.037692169109178 ], [ 17.072046223609586, 48.037421878869417 ], [ 17.071745053675699, 48.037229948644367 ], [ 17.071677430701339, 48.037184037481801 ], [ 17.071465082473082, 48.037039584773154 ], [ 17.071483014235262, 48.037027477311781 ], [ 17.072300104902453, 48.036474654552549 ], [ 17.072040111665256, 48.036315620092616 ], [ 17.071561569999854, 48.036022960621573 ], [ 17.07095939088266, 48.03566160859458 ], [ 17.070649902075218, 48.03547705965871 ], [ 17.070353409236066, 48.035297674457794 ], [ 17.069621060688828, 48.034883056475842 ], [ 17.0695809844579, 48.03486165353582 ], [ 17.068897401681266, 48.034495803868197 ], [ 17.068173485478123, 48.034108555335898 ], [ 17.067857986656968, 48.033950402436041 ], [ 17.067532672310879, 48.033793916368666 ], [ 17.06717860170572, 48.033631512084334 ], [ 17.066857234416364, 48.033466340693543 ], [ 17.066684629725074, 48.033377609439157 ], [ 17.066369633157819, 48.033213222022532 ], [ 17.066026647215555, 48.033025508820153 ], [ 17.065731916843152, 48.032860916561262 ], [ 17.06552622903547, 48.032741457395055 ], [ 17.065343737212938, 48.032628995617138 ], [ 17.065156107659973, 48.032512286015233 ], [ 17.064997486110212, 48.032403107071673 ], [ 17.064869345827173, 48.032310778199836 ], [ 17.064693852233777, 48.032174132478112 ], [ 17.064642976688393, 48.032129388894113 ], [ 17.064709685345381, 48.032104631998763 ], [ 17.065178448908341, 48.031930283743101 ], [ 17.065337313005884, 48.031870491915882 ], [ 17.06578068650736, 48.031703534500778 ], [ 17.065967982811845, 48.031633908426244 ], [ 17.066163695415046, 48.031558066283438 ], [ 17.066419056605486, 48.031454541261525 ], [ 17.066762721547033, 48.031303494898005 ], [ 17.066826184486803, 48.031274698390078 ], [ 17.066910705876143, 48.031236216014875 ], [ 17.067151844961881, 48.031116035580077 ], [ 17.068631039741888, 48.030370930502215 ], [ 17.068698687932422, 48.030336864080276 ], [ 17.070735927424206, 48.029308025071948 ], [ 17.072854908075499, 48.028242461315592 ], [ 17.072844773958927, 48.028198566380105 ], [ 17.072829742264396, 48.028133213861743 ], [ 17.072820581254764, 48.02809352058145 ], [ 17.072812474544399, 48.028087207696544 ], [ 17.072687891687469, 48.027988377614079 ], [ 17.072680627476988, 48.027982577896005 ], [ 17.072551079127134, 48.027880035274372 ], [ 17.072545806505275, 48.027875792391221 ], [ 17.072435783363002, 48.027794594918568 ], [ 17.072310441454857, 48.027702003536959 ], [ 17.072154200439282, 48.027586722884756 ], [ 17.07212229869528, 48.02756316546111 ], [ 17.071899372294229, 48.027441032110552 ], [ 17.071769111675909, 48.027369674496725 ], [ 17.071638704556186, 48.027298141346506 ], [ 17.071343251094888, 48.027136378920602 ], [ 17.071186156527613, 48.027050305975273 ], [ 17.071037869349109, 48.026969082148142 ], [ 17.070852683307962, 48.026867614079983 ], [ 17.070250453992315, 48.026537695433696 ], [ 17.070136266859961, 48.026475093893119 ], [ 17.070038997803575, 48.026421853254796 ], [ 17.070020695317847, 48.026411906485045 ], [ 17.06992067002902, 48.026357673954266 ], [ 17.069810447178355, 48.026297916294958 ], [ 17.069727748329242, 48.026253121526466 ], [ 17.069627162044224, 48.02619854660729 ], [ 17.069512332417233, 48.02613632549803 ], [ 17.069402391304241, 48.026076738512614 ], [ 17.069295379512369, 48.026018678053148 ], [ 17.06918823400482, 48.025960621817731 ], [ 17.069083328685966, 48.025903844165349 ], [ 17.069024089293119, 48.025871621412044 ], [ 17.068978685057633, 48.025846967911534 ], [ 17.068894175340695, 48.025801240315452 ], [ 17.068807004638447, 48.025753977365923 ], [ 17.068608216459115, 48.025646190049038 ], [ 17.068477180447189, 48.02557512420433 ], [ 17.068367528940826, 48.025515797152472 ], [ 17.068258005192611, 48.025456375814905 ], [ 17.068141360120425, 48.025393131236278 ], [ 17.068024574934839, 48.025329801003785 ], [ 17.06790401866969, 48.02526443077371 ], [ 17.067778855422588, 48.025196597179537 ], [ 17.067651593014919, 48.025127570272929 ], [ 17.067530342153642, 48.025061861829506 ], [ 17.067413558452653, 48.024998530973996 ], [ 17.067333518331548, 48.024955179942502 ], [ 17.067251653220747, 48.024910716886296 ], [ 17.067155404998118, 48.024858521840663 ], [ 17.067134441236391, 48.024845147943353 ], [ 17.067025397904878, 48.024775532593317 ], [ 17.066914229644542, 48.024704364518314 ], [ 17.066805327294222, 48.024634834494336 ], [ 17.066731172984241, 48.024587420373024 ], [ 17.066682908934464, 48.024556553691021 ], [ 17.066572175666753, 48.024485821608643 ], [ 17.066526017679852, 48.024456237913597 ], [ 17.066517855641528, 48.024451007196404 ], [ 17.066500963562376, 48.024440113754466 ], [ 17.066463248464881, 48.024415931826361 ], [ 17.066357390835989, 48.024347654183785 ], [ 17.066245349852473, 48.024275522944137 ], [ 17.066115013357887, 48.024191642720893 ], [ 17.066011702979779, 48.024125174005384 ], [ 17.065908386425058, 48.024058615338298 ], [ 17.06582422103099, 48.024004498443595 ], [ 17.065749902361855, 48.023956638714502 ], [ 17.065634627681028, 48.023882449644844 ], [ 17.065507668908328, 48.023800711498403 ], [ 17.065431519337722, 48.023751649707144 ], [ 17.065317796265624, 48.023678491096419 ], [ 17.065206319707773, 48.023606700989454 ], [ 17.064969998611456, 48.023454544967024 ], [ 17.064896249493579, 48.023407116694976 ], [ 17.06482911152392, 48.023363888426331 ], [ 17.064761973665611, 48.023320660118117 ], [ 17.064704975863126, 48.023284039882853 ], [ 17.0646354452232, 48.023239267475837 ], [ 17.064541271320632, 48.023180338676497 ], [ 17.064255675316556, 48.023001849654023 ], [ 17.063938596856342, 48.022803659782547 ], [ 17.063804707562468, 48.022728177721341 ], [ 17.063728737365345, 48.022685323638626 ], [ 17.06360072541014, 48.022613164460708 ], [ 17.063454802905113, 48.022530864651038 ], [ 17.063328603790765, 48.022459637481866 ], [ 17.063250609931451, 48.022412885447643 ], [ 17.063205994611337, 48.02238604284026 ], [ 17.063107377932948, 48.022326895890778 ], [ 17.063013387583073, 48.022270481860005 ], [ 17.063000759820202, 48.022262873003143 ], [ 17.06293693846667, 48.022224670565592 ], [ 17.062873110772038, 48.022186378234231 ], [ 17.062790338400173, 48.02213662761848 ], [ 17.062785284746781, 48.02213354812276 ], [ 17.062697528500969, 48.022079815045274 ], [ 17.062609772436062, 48.022026081900364 ], [ 17.062457289297122, 48.021932734149217 ], [ 17.062325161471563, 48.021851789803058 ], [ 17.062183769155293, 48.021765199513261 ], [ 17.062096148093364, 48.021711461657681 ], [ 17.062008533645169, 48.021657813593059 ], [ 17.061920919377322, 48.021604165461234 ], [ 17.06177966878013, 48.021517660213668 ], [ 17.06163307795147, 48.021427814300438 ], [ 17.061623672796596, 48.021422082921262 ], [ 17.061496747867118, 48.02134439256487 ], [ 17.061486494060258, 48.021338058057296 ], [ 17.061360552161755, 48.021260966351562 ], [ 17.061221689784198, 48.021175914649817 ], [ 17.061056010069475, 48.021074434081847 ], [ 17.060903104946316, 48.020980737765839 ], [ 17.060889009763059, 48.020971374653584 ], [ 17.059733289479354, 48.020198907936482 ], [ 17.059685913356198, 48.020167199376701 ], [ 17.059652351285806, 48.020144682973402 ], [ 17.059579459265489, 48.020095963055248 ], [ 17.059553656120993, 48.020078690775307 ], [ 17.059526162145083, 48.02006030208441 ], [ 17.059503466422811, 48.020045181370641 ], [ 17.059481767207362, 48.020032730528428 ], [ 17.05877597776, 48.019628544612139 ], [ 17.058279193536073, 48.019396677025185 ], [ 17.057540057359827, 48.019051559580539 ], [ 17.05596378262457, 48.018240624409621 ], [ 17.05532023627055, 48.017996623971598 ], [ 17.053352922586683, 48.01725056026941 ], [ 17.052892430760611, 48.017063797633661 ], [ 17.052689899322505, 48.016981593574606 ], [ 17.052307381424814, 48.016826457092343 ], [ 17.051585198949304, 48.016533446985115 ], [ 17.051558516329113, 48.016522595927867 ], [ 17.051526858249574, 48.01650974317954 ], [ 17.051469212915997, 48.016486377262552 ], [ 17.051420548968593, 48.016466595525792 ], [ 17.051275451649687, 48.016553307014995 ], [ 17.051149439303753, 48.0166478712271 ], [ 17.05098921746751, 48.016633655012697 ], [ 17.050626885174204, 48.016475342851905 ], [ 17.050423510062195, 48.016356775831134 ], [ 17.050315322566725, 48.016202637350688 ], [ 17.050032787868499, 48.016080848333914 ], [ 17.04985441343975, 48.016039833916459 ], [ 17.04979054160361, 48.01602513330036 ], [ 17.049694123788434, 48.016077315469154 ], [ 17.049620450511288, 48.016117148685829 ], [ 17.049703428322903, 48.016264171701778 ], [ 17.049834846078159, 48.016497452232436 ], [ 17.049861059557546, 48.016516784853067 ], [ 17.050000931125748, 48.016620190156978 ], [ 17.050042625493173, 48.016745482330336 ], [ 17.049865249590219, 48.016821970607076 ], [ 17.049448118304994, 48.017001897605503 ], [ 17.049400451613256, 48.017022432107481 ], [ 17.048929716541444, 48.017252623551364 ], [ 17.048888100369918, 48.017250717507764 ], [ 17.048791805991524, 48.017246334070855 ], [ 17.048488284708913, 48.017193574379526 ], [ 17.048443067676779, 48.017180705805707 ], [ 17.048332165810763, 48.017095732572351 ], [ 17.04830723399547, 48.01703790075964 ], [ 17.048310808327248, 48.017008965238709 ], [ 17.048328934318882, 48.016862207968124 ], [ 17.048331675607287, 48.016840414316576 ], [ 17.048414443134433, 48.016683385758455 ], [ 17.048601405055837, 48.016421328409287 ], [ 17.048482570453327, 48.016262756803421 ], [ 17.048378639122159, 48.016226555166533 ], [ 17.048203230362862, 48.016276048322887 ], [ 17.048188716502775, 48.016281467851911 ], [ 17.047888292571947, 48.016392525443081 ], [ 17.047619258526289, 48.016311276820801 ], [ 17.047523062070088, 48.016153869016037 ], [ 17.047447927679389, 48.01608098646728 ], [ 17.047202232561663, 48.015903428978682 ], [ 17.046857863703607, 48.01594600403709 ], [ 17.046568979629583, 48.016190704304812 ], [ 17.046381093384113, 48.016319401768207 ], [ 17.045865826969823, 48.016310986885188 ], [ 17.045656041087934, 48.01627934991663 ], [ 17.045278224753481, 48.016348031223032 ], [ 17.045080447170957, 48.016716615939124 ], [ 17.044969516499606, 48.016778085842617 ], [ 17.044869176510129, 48.016784726780209 ], [ 17.044725527093984, 48.016707285339429 ], [ 17.04453594748092, 48.016497660819525 ], [ 17.044413221866247, 48.016386043873439 ], [ 17.044205580312358, 48.016333620645952 ], [ 17.043942299668114, 48.016621354259001 ], [ 17.043883209016723, 48.016668101328406 ], [ 17.04381057631981, 48.01670753704537 ], [ 17.043646575936297, 48.016749542170921 ], [ 17.043472191949601, 48.016740002756073 ], [ 17.043348565124678, 48.016664709688776 ], [ 17.043252372628764, 48.016499643127105 ], [ 17.04321223185741, 48.016348810927269 ], [ 17.043240431475759, 48.015875878010313 ], [ 17.043249558700023, 48.015725087338602 ], [ 17.043117912882373, 48.015525852035694 ], [ 17.04295494398783, 48.015469202441942 ], [ 17.042822673550077, 48.015423276891958 ], [ 17.04241625753134, 48.015416400955864 ], [ 17.041678621841541, 48.015478410959318 ], [ 17.041526905518189, 48.015513805028114 ], [ 17.04146960530819, 48.015527259651712 ], [ 17.041319081274413, 48.015562435100627 ], [ 17.041332650613327, 48.015671969085062 ], [ 17.041389512157906, 48.015724005524255 ], [ 17.041467763048388, 48.015769142032461 ], [ 17.041472942358663, 48.015772128313102 ], [ 17.041504164957047, 48.01579022141901 ], [ 17.041708194395287, 48.015854203305828 ], [ 17.041937170986248, 48.016047978917555 ], [ 17.042135374807025, 48.01617717343666 ], [ 17.042230148479696, 48.016375159860296 ], [ 17.042201072861911, 48.016489032788392 ], [ 17.04203808488819, 48.01675265205575 ], [ 17.041810268888696, 48.017035280821531 ], [ 17.041784295126714, 48.017049442794232 ], [ 17.041592268679857, 48.017154127368791 ], [ 17.041491810354085, 48.017149691199251 ], [ 17.041326705631526, 48.017142282904402 ], [ 17.040916018713009, 48.017054840363116 ], [ 17.040159794541374, 48.016893715362592 ], [ 17.039934361757126, 48.01694777026875 ], [ 17.039912347315479, 48.017060965920884 ], [ 17.039900954592518, 48.017119692605142 ], [ 17.039942715668658, 48.017389628958469 ], [ 17.039992897828199, 48.017566619250445 ], [ 17.039858710304689, 48.018001245284296 ], [ 17.039969663428163, 48.0186662392899 ], [ 17.040069896800471, 48.018884406868111 ], [ 17.040085236140172, 48.019020723310902 ], [ 17.039969694666798, 48.01921184829547 ], [ 17.039729200911022, 48.019344920972507 ], [ 17.039549055277114, 48.019367712914878 ], [ 17.039433569371429, 48.019382309382287 ], [ 17.03925150519537, 48.019413988601514 ], [ 17.03916557503916, 48.01942700781801 ], [ 17.039057864115566, 48.019443336329388 ], [ 17.038654977259629, 48.019601601169065 ], [ 17.038589815893559, 48.01962728444343 ], [ 17.038568170567487, 48.019760822317828 ], [ 17.038691994797361, 48.01987096898057 ], [ 17.03879460634143, 48.019867863451566 ], [ 17.038820992704178, 48.01986701853621 ], [ 17.039028643054952, 48.019806240528091 ], [ 17.039135622032166, 48.019756971973251 ], [ 17.039200730201603, 48.019719221475157 ], [ 17.039237343535806, 48.019697964606927 ], [ 17.039243536114501, 48.019694433911383 ], [ 17.039276611378906, 48.019683827860582 ], [ 17.039363995631032, 48.019704446063592 ], [ 17.039370686590093, 48.019706033066385 ], [ 17.039484874612732, 48.019886377456523 ], [ 17.039465570152494, 48.020731979069971 ], [ 17.039517961953582, 48.020915473350719 ], [ 17.03931519907341, 48.021044994746028 ], [ 17.039194383919831, 48.021062103183461 ], [ 17.039073300798922, 48.021079220073204 ], [ 17.038903695373936, 48.02108230945899 ], [ 17.038768277629003, 48.021084754239162 ], [ 17.038652395024279, 48.02103721816556 ], [ 17.038521167404785, 48.021036286184746 ], [ 17.038416152782151, 48.021064145933927 ], [ 17.038172459228456, 48.021167506088702 ], [ 17.038086300742965, 48.021252853263384 ], [ 17.038028310205672, 48.021390706688493 ], [ 17.038000724095976, 48.021521912694801 ], [ 17.03799310260343, 48.021569530445298 ], [ 17.037979229594573, 48.021655715666 ], [ 17.037526054534446, 48.021954734771484 ], [ 17.037402995304245, 48.022093229480767 ], [ 17.037057269805914, 48.022576140627514 ], [ 17.036750359779951, 48.022817697487639 ], [ 17.036604603129465, 48.022916478750808 ], [ 17.03656456904859, 48.022950092833504 ], [ 17.036398983754566, 48.022911620239007 ], [ 17.036065352436239, 48.022783056330667 ], [ 17.035691692067221, 48.022601283393676 ], [ 17.03554838128365, 48.022553180682195 ], [ 17.035315953921501, 48.022475235352104 ], [ 17.035142346747168, 48.022503304753776 ], [ 17.035080837031416, 48.022552105562667 ], [ 17.035036028437297, 48.022696110150875 ], [ 17.034896696888801, 48.022849442560592 ], [ 17.034762117305899, 48.022937416467663 ], [ 17.034256770110147, 48.023267811456343 ], [ 17.03419720362821, 48.023224954567922 ], [ 17.034155479096167, 48.023195126746003 ], [ 17.034100237483671, 48.023152671892262 ], [ 17.034073688377589, 48.023132355856845 ], [ 17.033835429869779, 48.022949669562102 ], [ 17.033631295195665, 48.022820200278353 ], [ 17.033485968467474, 48.022745590666275 ], [ 17.033463541337166, 48.022741714468872 ], [ 17.033268075890081, 48.022707795396975 ], [ 17.033206695580059, 48.022711198804963 ], [ 17.033195730937621, 48.022711819543019 ], [ 17.033189180218478, 48.022712209100838 ], [ 17.033060404643606, 48.022719388222093 ], [ 17.033006136949229, 48.022734092313385 ], [ 17.032904317965325, 48.022761664556889 ], [ 17.032861245472535, 48.022796004867786 ], [ 17.032804823157516, 48.022840859069468 ], [ 17.032764792977225, 48.022872670361195 ], [ 17.03274922573765, 48.02293134924831 ], [ 17.032737676233626, 48.022974768970286 ], [ 17.032746315149019, 48.023024568319634 ], [ 17.032750175229168, 48.02304678076294 ], [ 17.032771001876913, 48.023060255031588 ], [ 17.032852197201127, 48.023112778541439 ], [ 17.033196564666653, 48.023248933889143 ], [ 17.033233038245736, 48.023263438928872 ], [ 17.033290360054139, 48.023329514469921 ], [ 17.033252345469215, 48.023697740100594 ], [ 17.033249859142124, 48.02372132625819 ], [ 17.033204007462245, 48.02379970668283 ], [ 17.033180064271487, 48.023840640623654 ], [ 17.033162696816778, 48.023870196416595 ], [ 17.033139939872768, 48.02390893088986 ], [ 17.033124976916039, 48.023934537059255 ], [ 17.033099598533259, 48.023977948583415 ], [ 17.033093367136495, 48.023988505136927 ], [ 17.033023068570337, 48.024004352122738 ], [ 17.032992808472088, 48.024011173631415 ], [ 17.03293928558055, 48.024023151916488 ], [ 17.032903342118161, 48.024031235850025 ], [ 17.032842879113229, 48.024041904859828 ], [ 17.032666523967247, 48.023961441199241 ], [ 17.032569113286723, 48.023916911150167 ], [ 17.032423653012689, 48.023889587954443 ], [ 17.032358201041149, 48.023877269777678 ], [ 17.032254534634394, 48.023867523926747 ], [ 17.032081621340531, 48.023852515855225 ], [ 17.031913448277074, 48.023862663960863 ], [ 17.031894197512024, 48.023863819572462 ], [ 17.031876688119119, 48.023864919529309 ], [ 17.031792828584109, 48.023890205526918 ], [ 17.031641808502112, 48.0239358305693 ], [ 17.031618277767269, 48.023942886987236 ], [ 17.031599563060947, 48.023955373452843 ], [ 17.031544324648785, 48.02399235356841 ], [ 17.031532364987722, 48.024007326073786 ], [ 17.031481113789788, 48.024072098506906 ], [ 17.03152455483961, 48.024163926333564 ], [ 17.031627182179061, 48.024181721730578 ], [ 17.031639958773926, 48.024183925289087 ], [ 17.031811021397498, 48.024354353192436 ], [ 17.032128192534657, 48.024589550476314 ], [ 17.032210110208723, 48.024637097870752 ], [ 17.032241054229807, 48.024655022263687 ], [ 17.03231947008792, 48.024700519977252 ], [ 17.032378659694938, 48.024726728060244 ], [ 17.032150182698739, 48.025018271725479 ], [ 17.032131959281564, 48.025041460150504 ], [ 17.032089241849498, 48.025082723633581 ], [ 17.032053590126097, 48.025066570798387 ], [ 17.031860443764185, 48.02519775192134 ], [ 17.031735440300107, 48.025282713945039 ], [ 17.031481870765671, 48.025366560404912 ], [ 17.031102739158065, 48.025459461718619 ], [ 17.030977528583453, 48.025460219928981 ], [ 17.030759320651558, 48.025461607444036 ], [ 17.030433648055396, 48.025448955201746 ], [ 17.030245293204086, 48.025447226562775 ], [ 17.030056064220684, 48.025501274929475 ], [ 17.030035728180277, 48.025549568156279 ], [ 17.030147115551323, 48.025713438526431 ], [ 17.03020452535231, 48.025843187679939 ], [ 17.030192169233487, 48.025949046878388 ], [ 17.029914691695744, 48.026095256894173 ], [ 17.029898017009639, 48.026115693540859 ], [ 17.029785612444265, 48.026253388376851 ], [ 17.02968782681145, 48.026485453137219 ], [ 17.029461880239054, 48.02667675910169 ], [ 17.029127514840859, 48.026831178257858 ], [ 17.028415060536954, 48.027369720355672 ], [ 17.028104332571683, 48.027581112307182 ], [ 17.027127478801557, 48.028221751769415 ], [ 17.026918826042078, 48.028352337863161 ], [ 17.026773304356151, 48.028434076008743 ], [ 17.026645191576364, 48.028509494378326 ], [ 17.026372036094259, 48.028637454381801 ], [ 17.026028706299197, 48.028856995416632 ], [ 17.025824609440043, 48.028987524051601 ], [ 17.0255364251237, 48.029197108391912 ], [ 17.025198402007216, 48.029417738296594 ], [ 17.025027600735623, 48.029552066743513 ], [ 17.024909913399064, 48.029623097626292 ], [ 17.024902933977231, 48.029626922760777 ], [ 17.024802459411308, 48.029683174539961 ], [ 17.02469439063869, 48.029762994795163 ], [ 17.024673401105201, 48.029775642611206 ], [ 17.024659493142472, 48.029784011731358 ], [ 17.024609532887723, 48.029814155103942 ], [ 17.024468160600971, 48.029687441560718 ], [ 17.024389494029847, 48.029596734856874 ], [ 17.02438526504687, 48.029592006306707 ], [ 17.024376181617775, 48.029585090921472 ], [ 17.024342278223653, 48.029559513388477 ], [ 17.024332352573399, 48.02955397580623 ], [ 17.024309432993469, 48.029541287284289 ], [ 17.024184775675359, 48.029472311282753 ], [ 17.024171494741406, 48.029464899291924 ], [ 17.024145306326318, 48.029529228940227 ], [ 17.024020841489314, 48.029771775164591 ], [ 17.023969175401032, 48.029872582167293 ], [ 17.02378047716007, 48.030195891381112 ], [ 17.023694493333345, 48.030462337764561 ], [ 17.023688372446625, 48.030485859271522 ], [ 17.023645774920517, 48.030650231683033 ], [ 17.023577667729672, 48.030896113922964 ], [ 17.023553005188674, 48.030989575160028 ], [ 17.023517123318278, 48.030966402099942 ], [ 17.023509525932383, 48.030961510719891 ], [ 17.023460290979244, 48.031041705490296 ], [ 17.023432010784433, 48.031087908831964 ], [ 17.023426383255014, 48.031093762217715 ], [ 17.023419013851544, 48.031101562460492 ], [ 17.023400127801995, 48.031121167874147 ], [ 17.023313602663624, 48.031211377575175 ], [ 17.022707085572268, 48.031734434238928 ], [ 17.022024257539158, 48.032323413552831 ], [ 17.021823023856079, 48.032473836969942 ], [ 17.021488525078528, 48.032723882968362 ], [ 17.021463526080886, 48.032742511972359 ], [ 17.021174160328695, 48.032958696213029 ], [ 17.02085928865727, 48.033193974959538 ], [ 17.020502716077335, 48.033460481964596 ], [ 17.020180315388114, 48.033701402231848 ], [ 17.019840313328206, 48.03395549085198 ], [ 17.019790446933953, 48.033992743860814 ], [ 17.019445554778397, 48.034151250169799 ], [ 17.019200152647606, 48.034264077804814 ], [ 17.018792707854569, 48.03445141253443 ], [ 17.018560568228875, 48.034558142501531 ], [ 17.018383978425433, 48.034635814552828 ], [ 17.01818251634884, 48.034724455168252 ], [ 17.017981187567976, 48.034813091165873 ], [ 17.017621489293639, 48.034971252385823 ], [ 17.0173843499493, 48.03507570726736 ], [ 17.017227633318143, 48.035142027491553 ], [ 17.017123723216734, 48.035186042658594 ], [ 17.017041845637657, 48.035220710575231 ], [ 17.016855802145205, 48.035299581606537 ], [ 17.0165994738298, 48.035408067768387 ], [ 17.016470664782769, 48.0354626913918 ], [ 17.016247585314876, 48.035557149796261 ], [ 17.016224117673406, 48.035563300192983 ], [ 17.015976188799112, 48.03562729693553 ], [ 17.015938077738312, 48.035637155382041 ], [ 17.015525580254391, 48.035743852477708 ], [ 17.015440916265725, 48.035765728888748 ], [ 17.015389750309254, 48.035778974471121 ], [ 17.015253920181042, 48.035814096304897 ], [ 17.015218705658999, 48.035823141874687 ], [ 17.015138461783337, 48.03584866009102 ], [ 17.015128348347631, 48.035851863760122 ], [ 17.015121654953781, 48.035854058025464 ], [ 17.01510182367495, 48.035860362715006 ], [ 17.015032739590573, 48.035882283657536 ], [ 17.014877898351852, 48.035931519056263 ], [ 17.014785039437779, 48.035960950658826 ], [ 17.014757066239945, 48.035969855848293 ], [ 17.014748267186789, 48.035972657431685 ], [ 17.014394849512335, 48.036085036664936 ], [ 17.014204581290681, 48.036165028221468 ], [ 17.01416376840729, 48.036182267028991 ], [ 17.01398823961102, 48.036256115594952 ], [ 17.013812716669079, 48.036330053753609 ], [ 17.013466353049498, 48.036475798992349 ], [ 17.013245573933254, 48.03656873714413 ], [ 17.012855132638297, 48.036733083539026 ], [ 17.012850697753976, 48.036734935690163 ], [ 17.012681431495572, 48.036806241463658 ], [ 17.01264381930589, 48.036826980461569 ], [ 17.012481251697565, 48.036917076162432 ], [ 17.012318677177824, 48.037007081771932 ], [ 17.012022989989148, 48.037170755347276 ], [ 17.0116626938444, 48.037370344489815 ], [ 17.011553230527404, 48.037430922121594 ], [ 17.011443766955903, 48.037491499648709 ], [ 17.011334309477597, 48.037552166931746 ], [ 17.01116203728289, 48.037647522373256 ], [ 17.010989904793977, 48.037742963159396 ], [ 17.010835015409647, 48.037827768927414 ], [ 17.010679608602477, 48.037912861093119 ], [ 17.010569327087087, 48.037971392272574 ], [ 17.010517418576086, 48.037998888997407 ], [ 17.010510692263257, 48.038002525020431 ], [ 17.01034497368062, 48.038070922499095 ], [ 17.00999670731656, 48.038214735673954 ], [ 17.009879531124341, 48.038263127976194 ], [ 17.009770969679412, 48.038308004326936 ], [ 17.009737696694479, 48.038321759772515 ], [ 17.009420479398344, 48.038452696843919 ], [ 17.009083560684548, 48.038591823768293 ], [ 17.008835375830337, 48.038694359121543 ], [ 17.008646296261347, 48.038772411863228 ], [ 17.008478358345265, 48.038841777578966 ], [ 17.008310285989729, 48.038911147303281 ], [ 17.008264619109333, 48.03893006903192 ], [ 17.008141568593214, 48.03898089749201 ], [ 17.00796803105499, 48.03904134390978 ], [ 17.007631969213058, 48.039158464017568 ], [ 17.007078850598671, 48.03935118871911 ], [ 17.006880537368833, 48.039420255045641 ], [ 17.006692976544617, 48.039485647540793 ], [ 17.006504623963803, 48.039551244961523 ], [ 17.006316404903153, 48.039616837823338 ], [ 17.006151644254384, 48.039674210985766 ], [ 17.00598675558685, 48.039731678024495 ], [ 17.005937470169666, 48.039748822278135 ], [ 17.005685943557747, 48.039836506219025 ], [ 17.005639414794665, 48.039852752335911 ], [ 17.005322213196862, 48.039963232961654 ], [ 17.005005144249669, 48.040073708465094 ], [ 17.004943803072216, 48.040095107289787 ], [ 17.004696418469319, 48.040213008426328 ], [ 17.004587794077555, 48.040264726312593 ], [ 17.00439653925778, 48.040355899634108 ], [ 17.004269858974432, 48.04041629531811 ], [ 17.004095879762978, 48.040499174994729 ], [ 17.00405287627478, 48.040519721683602 ], [ 17.0037941846475, 48.040643022720637 ], [ 17.003782364668574, 48.040648711115267 ], [ 17.003628264707, 48.040722133714169 ], [ 17.003616572354712, 48.040727727982656 ], [ 17.003447786274638, 48.040808100366995 ], [ 17.003435966220461, 48.04081378872597 ], [ 17.003258863418328, 48.040898116999337 ], [ 17.003245613684953, 48.040904481090507 ], [ 17.00311204418843, 48.040968155898753 ], [ 17.003098660421202, 48.040974524220545 ], [ 17.002983797284667, 48.041029230161676 ], [ 17.002961370281966, 48.041038767090399 ], [ 17.002947801810873, 48.041044420754737 ], [ 17.002806698004779, 48.041104101104942 ], [ 17.002793397496845, 48.041109746256609 ], [ 17.002605601097976, 48.041189098765059 ], [ 17.00259360253548, 48.041194162257923 ], [ 17.002419501783866, 48.041267766732133 ], [ 17.002292086719336, 48.041321608880509 ], [ 17.002287651069082, 48.041323460624426 ], [ 17.002112636787309, 48.041397453804628 ], [ 17.002100765796019, 48.041402423138656 ], [ 17.001808374275299, 48.041525976805389 ], [ 17.001796120221883, 48.041531228429179 ], [ 17.001500593562099, 48.041656051412083 ], [ 17.00148911812234, 48.041660918084858 ], [ 17.001340575556672, 48.041723714194141 ], [ 17.00132922775634, 48.041728486744447 ], [ 17.001189160593512, 48.041787681841804 ], [ 17.001181335815161, 48.041790991837537 ], [ 17.0010335711893, 48.041853402634374 ], [ 17.001022746673982, 48.041857978451695 ], [ 17.000879940761997, 48.041918340653346 ], [ 17.000868988549126, 48.041923010562201 ], [ 17.000209594237432, 48.042201653595292 ], [ 17.000199426926915, 48.042206028391881 ], [ 17.000179360303804, 48.042214769493967 ], [ 17.000095557975147, 48.042251016651711 ], [ 17.000085786321517, 48.042255288844913 ], [ 16.999985689308637, 48.042298536428028 ], [ 16.999976172983324, 48.042302620401877 ], [ 16.999927040269544, 48.042323899935589 ], [ 16.999831774497085, 48.042365193139062 ], [ 16.999823170847648, 48.042368887949451 ], [ 16.999677852963597, 48.042431759783113 ], [ 16.999670557672946, 48.042434962840559 ], [ 16.999520675897351, 48.042499780223153 ], [ 16.999513642264294, 48.042502884922712 ], [ 16.999315411917056, 48.042588686330525 ], [ 16.999006964264677, 48.042724719042305 ], [ 16.998984841772337, 48.04273478587664 ], [ 16.998838805270761, 48.042800831487682 ], [ 16.998696841403955, 48.042863685876476 ], [ 16.998482088499166, 48.042959014994565 ], [ 16.998417151308466, 48.042986648164906 ], [ 16.998216607620488, 48.043072070490169 ], [ 16.995315135711156, 48.044307387713161 ], [ 16.991590529271434, 48.045893037881861 ], [ 16.991232031420914, 48.046045579978212 ], [ 16.991146480862152, 48.04608196551775 ], [ 16.991093626517895, 48.046103898991902 ], [ 16.991034375994566, 48.046128466147593 ], [ 16.99099770345271, 48.046143674169919 ], [ 16.990982434388314, 48.046150010489647 ], [ 16.990966118475203, 48.046156740121383 ], [ 16.99109405592494, 48.046517174735577 ], [ 16.991311924887551, 48.047130991162291 ], [ 16.991444235572764, 48.04750389577751 ], [ 16.991483331394523, 48.047620640288606 ], [ 16.991501001051638, 48.047673307987679 ], [ 16.991592158611091, 48.047944122797347 ], [ 16.991617628841642, 48.048019869778649 ], [ 16.991665003667432, 48.048160759143826 ], [ 16.991741052452586, 48.048386660549738 ], [ 16.991886749174526, 48.048823805432953 ], [ 16.991893390597035, 48.048843769209945 ], [ 16.991976291272394, 48.049092599605942 ], [ 16.992012490673392, 48.049185299168947 ], [ 16.99204670932512, 48.049272747721012 ], [ 16.992124103707589, 48.049426017350783 ], [ 16.99217670270647, 48.049530356873099 ], [ 16.992359701031901, 48.049775753809868 ], [ 16.992362965329058, 48.04978015369776 ], [ 16.992609148361719, 48.050110372239565 ], [ 16.992630768643824, 48.050138958753891 ], [ 16.992641441612722, 48.050153211314345 ], [ 16.993065169323454, 48.050712246332751 ], [ 16.993221520709898, 48.050918587318471 ], [ 16.993303116986418, 48.05102264029334 ], [ 16.993543214560578, 48.051329183308489 ], [ 16.9935677185712, 48.051360560461397 ], [ 16.993588958109399, 48.051387537757911 ], [ 16.993599299025504, 48.051402791405991 ], [ 16.99360348774017, 48.051408873198064 ], [ 16.993655684295241, 48.051484495447063 ], [ 16.9936791780991, 48.051518696398716 ], [ 16.993705056471622, 48.051556244279695 ], [ 16.993742072608139, 48.051719705382475 ], [ 16.993752004300951, 48.051763521242172 ], [ 16.993773032087326, 48.051856249618261 ], [ 16.993851111114072, 48.052238791491497 ], [ 16.993882398185278, 48.052391446225712 ], [ 16.9939346743142, 48.052647727874707 ], [ 16.993944113147315, 48.052694080998329 ], [ 16.993954156309712, 48.052743296963023 ], [ 16.993994692556676, 48.052876566376767 ], [ 16.994066214156341, 48.053047402264284 ], [ 16.994090635818658, 48.053079502413603 ], [ 16.994263258557726, 48.053306942385667 ], [ 16.994370306753538, 48.053448105657836 ], [ 16.994479247207757, 48.053585606583056 ], [ 16.994848084207998, 48.054049195717425 ], [ 16.994877991976356, 48.054086706024272 ], [ 16.994902020134159, 48.054117017248259 ], [ 16.994925142981888, 48.05414591612039 ], [ 16.994997942118388, 48.054237457580911 ], [ 16.995273234250071, 48.054587554765604 ], [ 16.99538432780421, 48.054728859466735 ], [ 16.995623607496317, 48.055032902872227 ], [ 16.996050824769956, 48.055587044727737 ], [ 16.996236048862418, 48.055827232419638 ], [ 16.996426647937657, 48.056088414130954 ], [ 16.996610247103828, 48.056339820240431 ], [ 16.996793542015148, 48.056590695353336 ], [ 16.996822538456296, 48.056630485567283 ], [ 16.996988952841718, 48.056841907397015 ], [ 16.997223672537032, 48.057140058064526 ], [ 16.997399082719774, 48.057362812615359 ], [ 16.997456750487832, 48.057424390881671 ], [ 16.997495097946672, 48.057465326055656 ], [ 16.997645408585942, 48.057613943780019 ], [ 16.997740896445375, 48.05769368832221 ], [ 16.997848071975351, 48.057782969657154 ], [ 16.998051444854315, 48.0579525131255 ], [ 16.998357868650913, 48.058208045389755 ], [ 16.998387418951125, 48.058232777558601 ], [ 16.998659647083151, 48.058466245646123 ], [ 16.998960471211646, 48.058724205211604 ], [ 16.999219977002479, 48.058946727116165 ], [ 16.999256877096084, 48.058978521366299 ], [ 16.999548213372705, 48.059229484944005 ], [ 16.999835399242276, 48.059476796695755 ], [ 17.000043637037408, 48.059656089669375 ], [ 17.000115560437511, 48.059723519664246 ], [ 17.000152149217154, 48.059754693085615 ], [ 17.000684085743522, 48.060207427726553 ], [ 17.000866451893003, 48.060364573062422 ], [ 17.000963467521313, 48.060446788516913 ], [ 17.001136502618127, 48.060593511709627 ], [ 17.001240237381683, 48.060681458184597 ], [ 17.001508428411142, 48.06090874378306 ], [ 17.001695471209953, 48.061067360909242 ], [ 17.001772979163125, 48.061132001317155 ], [ 17.001808243124689, 48.061161505067993 ], [ 17.00201037228485, 48.061330181004287 ], [ 17.002038490566392, 48.061353606773537 ], [ 17.002100682644333, 48.061412517933888 ], [ 17.00216971779415, 48.06147130234973 ], [ 17.002231753826038, 48.061524184302314 ], [ 17.002283785573933, 48.061568557172443 ], [ 17.002525640314015, 48.061774700051181 ], [ 17.002720796132145, 48.061945397003981 ], [ 17.003068164729111, 48.062249334386038 ], [ 17.003127152050098, 48.062300871526531 ], [ 17.003340075074764, 48.062487215548558 ], [ 17.003416197900492, 48.062547395797097 ], [ 17.00367612685633, 48.062765842482918 ], [ 17.004142079528112, 48.063158421552536 ], [ 17.004178587235867, 48.063182661686724 ], [ 17.00425119424893, 48.063231064806494 ], [ 17.004329008656118, 48.063282815214201 ], [ 17.004969069257172, 48.063806405245884 ], [ 17.005040765677283, 48.063866634780609 ], [ 17.005753310513356, 48.064465195407578 ], [ 17.005800588176722, 48.064504944342261 ], [ 17.006155019095296, 48.064811351222353 ], [ 17.006207382667242, 48.064856522518902 ], [ 17.006425486000452, 48.065055035492655 ], [ 17.006602605959408, 48.065228730125028 ], [ 17.006646733855742, 48.065277134446148 ], [ 17.006822786989286, 48.065469955570613 ], [ 17.007481536595488, 48.066249884713656 ], [ 17.007579028295506, 48.06637278768136 ], [ 17.007785064031374, 48.066632382382018 ], [ 17.007844059007368, 48.066718140345174 ], [ 17.008347696961124, 48.067449309338294 ], [ 17.008611113022898, 48.067864869328318 ], [ 17.008643892183077, 48.067918046064648 ], [ 17.008880200020354, 48.068301683400229 ], [ 17.008958607293643, 48.068432035577374 ], [ 17.008961963025012, 48.068437693005897 ], [ 17.008971864418392, 48.068454220246451 ], [ 17.008987233364994, 48.068479670163335 ], [ 17.009328887545855, 48.069047741251033 ], [ 17.009829113481675, 48.069880241624652 ], [ 17.010004102410868, 48.070154597610113 ], [ 17.010185631465571, 48.070394072219429 ], [ 17.010664335196392, 48.071060459302622 ], [ 17.010781393675028, 48.071197598831368 ], [ 17.01115437305625, 48.071634172083584 ], [ 17.011779219637823, 48.072422901320884 ], [ 17.012460323797491, 48.073223980469443 ], [ 17.012613565538601, 48.073405179900377 ], [ 17.0128091926526, 48.073636547902652 ], [ 17.01282768191772, 48.073658565998791 ], [ 17.012850455450739, 48.073680357950551 ], [ 17.01292831822763, 48.073755247361099 ], [ 17.01298762255081, 48.07380523889266 ], [ 17.013088084620176, 48.073889947522552 ], [ 17.013365053949848, 48.074095224856777 ], [ 17.013423199275287, 48.074138318288711 ], [ 17.013464320469044, 48.074168713514894 ], [ 17.013523461741336, 48.074212585812631 ], [ 17.013557776368906, 48.074184747501931 ], [ 17.01358090822022, 48.074166000384395 ], [ 17.013635691409338, 48.074121661004519 ], [ 17.013655515031353, 48.074105540685075 ], [ 17.013672930909841, 48.074091478202469 ], [ 17.013776129655213, 48.074007774864462 ], [ 17.013875394003364, 48.073927348567771 ], [ 17.014136067655151, 48.073716068142339 ], [ 17.014251831616747, 48.073606747913622 ], [ 17.014354630277584, 48.073509817688382 ], [ 17.01442782045768, 48.073440756549559 ], [ 17.01491770191959, 48.072964885210837 ], [ 17.015046332238605, 48.072839934775963 ], [ 17.015164825335887, 48.072729355943316 ], [ 17.015305012297823, 48.072598724240819 ], [ 17.015733646879411, 48.07206463450116 ], [ 17.015842332034449, 48.071900960199073 ], [ 17.015988196110033, 48.071681616633505 ], [ 17.016071798701201, 48.071761635183123 ], [ 17.016294925329802, 48.071975101851969 ], [ 17.016689064966215, 48.072408014039318 ], [ 17.01677576239446, 48.072503244175238 ], [ 17.017072345232716, 48.07281272087171 ], [ 17.01709526013396, 48.072836488897629 ], [ 17.017261549904266, 48.073010062840353 ], [ 17.017419089288886, 48.073175809322471 ], [ 17.017437389463328, 48.073195130913057 ], [ 17.017658818379715, 48.073428102496294 ], [ 17.017744052121582, 48.073517794724687 ], [ 17.01786180833054, 48.073641666525774 ], [ 17.017959815531828, 48.073744731743552 ], [ 17.018052344871748, 48.073848241310102 ], [ 17.018238566407415, 48.074056484116966 ], [ 17.018321853716049, 48.074150921077681 ], [ 17.018546331255472, 48.074405949297059 ], [ 17.018733762672543, 48.07461793548952 ], [ 17.018766075607139, 48.074651040819489 ], [ 17.018995889835406, 48.074901665593437 ], [ 17.019129731054928, 48.075047629932932 ], [ 17.019268367049097, 48.075198665145116 ], [ 17.019333472212278, 48.075269723602013 ], [ 17.019412862981909, 48.07532997040483 ], [ 17.019659865400811, 48.075517724519401 ], [ 17.019788459816912, 48.07564079938097 ], [ 17.019870491416583, 48.075719334414686 ], [ 17.020026486186914, 48.075868735676217 ], [ 17.020061086559036, 48.075901857948935 ], [ 17.020075941735712, 48.075916155291701 ], [ 17.020140093029568, 48.075977517051143 ], [ 17.020198192558265, 48.076033127314062 ], [ 17.020241736948329, 48.07607488098769 ], [ 17.020269130184094, 48.076101117711552 ], [ 17.020376304725598, 48.076194973249486 ], [ 17.020576029129451, 48.076369730359652 ], [ 17.020745545298919, 48.07651834014176 ], [ 17.020770762458177, 48.07654041312847 ], [ 17.02095760629761, 48.076704051745402 ], [ 17.021153618991853, 48.076875683884779 ], [ 17.021195039525349, 48.076912101148821 ], [ 17.021329270167001, 48.077050125393164 ], [ 17.021462920571267, 48.077187537539089 ], [ 17.021493565014374, 48.077214120806978 ], [ 17.02168042659585, 48.077376046635159 ], [ 17.021799270637295, 48.077478985926277 ], [ 17.021919264324509, 48.077582969242521 ], [ 17.022263925635251, 48.077881626897636 ], [ 17.022435322458442, 48.078030084496596 ], [ 17.022607728997489, 48.078179500389496 ], [ 17.022719125974788, 48.078275921351782 ], [ 17.022888814317962, 48.078422991763745 ], [ 17.022987040939292, 48.078508033852685 ], [ 17.023056786161842, 48.078568585570032 ], [ 17.023305524115404, 48.078454480815324 ], [ 17.023563897012082, 48.0783360158159 ], [ 17.023571706737815, 48.078332434774495 ], [ 17.023754842267589, 48.078248427750772 ], [ 17.023926725987376, 48.078166850271408 ], [ 17.024094030246179, 48.078090822108642 ], [ 17.02425221534315, 48.078018866803689 ], [ 17.024260676307751, 48.078014994779693 ], [ 17.024394384881937, 48.077954176152424 ], [ 17.024539932061227, 48.077887846648871 ], [ 17.024543444146115, 48.077886203699961 ], [ 17.024700479371955, 48.077807529745236 ], [ 17.024845834870021, 48.077734721490827 ], [ 17.025104878648701, 48.077604973705199 ], [ 17.025329918172595, 48.077492249894199 ], [ 17.025335754556743, 48.077489271982842 ], [ 17.025344183291811, 48.077486841889318 ], [ 17.025394091611428, 48.077472372540427 ], [ 17.025533682778548, 48.077431989178997 ], [ 17.025543822780932, 48.077429054222968 ], [ 17.025579504349654, 48.077418640671745 ], [ 17.02558609406401, 48.077416809541269 ], [ 17.02571053243901, 48.077380691480869 ], [ 17.025718833426417, 48.077378355492272 ], [ 17.025745824426302, 48.077370470416426 ], [ 17.02583484292909, 48.077344667418863 ], [ 17.025851962107115, 48.07733970875217 ], [ 17.025958099662528, 48.077308946990456 ], [ 17.02596955500324, 48.077305609823277 ], [ 17.026054493039943, 48.077281017452172 ], [ 17.02609465691668, 48.077269380120818 ], [ 17.026099005338423, 48.07726816077232 ], [ 17.026115594485724, 48.077263309021625 ], [ 17.02616774363074, 48.077248227526908 ], [ 17.026326412999595, 48.077202101510267 ], [ 17.026344847464507, 48.077196740592576 ], [ 17.026369271583796, 48.07718677570611 ], [ 17.026493856813389, 48.077135701818406 ], [ 17.026549224404341, 48.077112952348116 ], [ 17.026556669746348, 48.077109923079099 ], [ 17.026678381197012, 48.077060021336308 ], [ 17.026770049356159, 48.077022335009218 ], [ 17.026783369195524, 48.077016866892237 ], [ 17.026800609632499, 48.077009832789621 ], [ 17.026986831620874, 48.076933467229615 ], [ 17.027001977620102, 48.076927220367232 ], [ 17.02701621051326, 48.076921362863175 ], [ 17.027109583056838, 48.076883081537417 ], [ 17.027200082075453, 48.076845972496585 ], [ 17.027218752713161, 48.076838262292597 ], [ 17.027287445784673, 48.076810134156979 ], [ 17.02735561518908, 48.076782202799656 ], [ 17.027465308014172, 48.076737186501845 ], [ 17.027505918385447, 48.076720490950883 ], [ 17.027631676273362, 48.076668928058155 ], [ 17.027653028733301, 48.076657349658454 ], [ 17.027656131992625, 48.076655629583875 ], [ 17.027822660424555, 48.076565030378099 ], [ 17.027828745594892, 48.076561774212671 ], [ 17.027915438472711, 48.076514608954746 ], [ 17.027981302476515, 48.076478825273874 ], [ 17.028140071709014, 48.076392525815073 ], [ 17.028232587349923, 48.076342202546364 ], [ 17.02824708181118, 48.076334355174524 ], [ 17.028322516799054, 48.076293312613522 ], [ 17.028348140657027, 48.076279436350603 ], [ 17.028398085754834, 48.07625226572609 ], [ 17.028472747894313, 48.076211698019073 ], [ 17.028538866541087, 48.076175725747049 ], [ 17.0285479271176, 48.076170843580279 ], [ 17.028554912510092, 48.076167018287023 ], [ 17.028642383062774, 48.076119467383521 ], [ 17.028651826732364, 48.076114302802047 ], [ 17.028670592744074, 48.076104157630674 ], [ 17.028716482719179, 48.076086122408235 ], [ 17.028727861025608, 48.076081706666074 ], [ 17.028732956363129, 48.076079652829506 ], [ 17.028746294902454, 48.076074454060496 ], [ 17.028810229190352, 48.076049358740676 ], [ 17.028852070900257, 48.076032983652503 ], [ 17.028868410424352, 48.076026518331695 ], [ 17.028933129963132, 48.076001127704444 ], [ 17.028977761824706, 48.075986194615446 ], [ 17.02899850701014, 48.075979318544725 ], [ 17.029097750528198, 48.075946161874519 ], [ 17.02913844269748, 48.075932525210561 ], [ 17.029144610691606, 48.075930437134609 ], [ 17.029196859834016, 48.07591300939675 ], [ 17.029351104106521, 48.075861436329959 ], [ 17.029361473458689, 48.075857953332317 ], [ 17.029402037787801, 48.075844410711703 ], [ 17.029530945761557, 48.075801301009385 ], [ 17.029579255069237, 48.075785169600358 ], [ 17.029645155148476, 48.075763163244993 ], [ 17.029659993991263, 48.075758276743265 ], [ 17.02968271835719, 48.075750887083935 ], [ 17.029795554730711, 48.075714233965812 ], [ 17.029854495010813, 48.075686955771808 ], [ 17.029985509372299, 48.075626216217316 ], [ 17.030019982080645, 48.075610165887753 ], [ 17.030084253607438, 48.075580375833091 ], [ 17.030087765361753, 48.075578732714909 ], [ 17.030185602747231, 48.075533371486607 ], [ 17.03018963806478, 48.075531531533215 ], [ 17.030361502738366, 48.075451835742385 ], [ 17.030380625739461, 48.075442939750701 ], [ 17.030384916441921, 48.075440911515578 ], [ 17.030541303386766, 48.075368464042477 ], [ 17.03057239172837, 48.075353962541698 ], [ 17.030671658496136, 48.075307924818951 ], [ 17.030681676467925, 48.075303282103022 ], [ 17.030721620638811, 48.075284805368391 ], [ 17.030767285678703, 48.075263624287402 ], [ 17.030776001107668, 48.075259563508546 ], [ 17.030919100050852, 48.075200598610429 ], [ 17.030964662808124, 48.075181762326984 ], [ 17.030971060490973, 48.075179126443849 ], [ 17.031103189735692, 48.075124654299721 ], [ 17.031220831397402, 48.075076228306465 ], [ 17.031374892157707, 48.075012679976034 ], [ 17.031384162991248, 48.075008871605093 ], [ 17.031413795168561, 48.074996577839201 ], [ 17.031602199571488, 48.074918963890298 ], [ 17.031735891779583, 48.07486381064615 ], [ 17.031806910592625, 48.07484578243303 ], [ 17.031914105940285, 48.074818673698111 ], [ 17.032025917417908, 48.074790336730089 ], [ 17.032143666672372, 48.0747604591295 ], [ 17.032154891219474, 48.074757669060148 ], [ 17.032163204275928, 48.074755512324586 ], [ 17.032178783278312, 48.074751592534056 ], [ 17.032359505907923, 48.074705834407887 ], [ 17.032372173396709, 48.074702547931032 ], [ 17.032391583262871, 48.074697695227208 ], [ 17.032571373330825, 48.074652056598055 ], [ 17.032596459255846, 48.074645761734594 ], [ 17.032632756892369, 48.074636497033488 ], [ 17.032805440457274, 48.074596758884624 ], [ 17.032996231030808, 48.074552749642955 ], [ 17.033006414778892, 48.074550443039016 ], [ 17.033016987993037, 48.074547943871281 ], [ 17.033211743157203, 48.0745029970861 ], [ 17.03322655585335, 48.074499641997946 ], [ 17.033237263128523, 48.074497138527732 ], [ 17.03342752942563, 48.074453325420819 ], [ 17.033441805766696, 48.074449987435521 ], [ 17.033446300643355, 48.074448943244086 ], [ 17.033583547547948, 48.074417360613573 ], [ 17.033604834338032, 48.074412447747108 ], [ 17.033655516465092, 48.074399481002217 ], [ 17.033746205372839, 48.074376500255099 ], [ 17.033851010842543, 48.074349826251364 ], [ 17.033855633392797, 48.074348687902756 ], [ 17.033863020525352, 48.074346740743103 ], [ 17.033889555478744, 48.074340039052196 ], [ 17.034069860150147, 48.074294111386592 ], [ 17.034079628773419, 48.074291637821837 ], [ 17.034092436525601, 48.074288436731393 ], [ 17.034118435094676, 48.074281752121493 ], [ 17.034262448693266, 48.074245179181133 ], [ 17.034297692280344, 48.074236217800596 ], [ 17.034323429026564, 48.074229631569999 ], [ 17.034402497185233, 48.074209543297066 ], [ 17.034433782212911, 48.0742016089687 ], [ 17.034443282639479, 48.074199143940803 ], [ 17.034523142407188, 48.074178850166348 ], [ 17.034552709914454, 48.074171330928834 ], [ 17.034559177605786, 48.074169683286556 ], [ 17.03471585778647, 48.074129823063757 ], [ 17.034789907283972, 48.074110975619355 ], [ 17.034851813082359, 48.074095218024013 ], [ 17.035039643577139, 48.074047427196923 ], [ 17.035074497441087, 48.074038658149341 ], [ 17.035154484403989, 48.074018269796234 ], [ 17.03531288114463, 48.073977993632134 ], [ 17.035331096530324, 48.073973358714319 ], [ 17.035383367583474, 48.07396007022006 ], [ 17.035414868764043, 48.073945734275405 ], [ 17.035493883406225, 48.073909795947856 ], [ 17.035500006149363, 48.073907078525565 ], [ 17.035504558292452, 48.073904951671757 ], [ 17.035594381760443, 48.073864164713065 ], [ 17.035599067975991, 48.073862033570386 ], [ 17.035684071007775, 48.073823381969376 ], [ 17.035704507724418, 48.073814082809982 ], [ 17.03572689808486, 48.073803910644997 ], [ 17.035865926257539, 48.07374074640996 ], [ 17.035887793024987, 48.07373077107156 ], [ 17.035960039500971, 48.073697930726297 ], [ 17.036056106229609, 48.073654241958032 ], [ 17.036064572002047, 48.073650458924952 ], [ 17.036235751296037, 48.073572667108721 ], [ 17.036296933149284, 48.073544863469458 ], [ 17.036352630042877, 48.073513632628227 ], [ 17.036513138120505, 48.07342375286018 ], [ 17.036667829561267, 48.073337120927633 ], [ 17.036777415649095, 48.073275707306721 ], [ 17.03685870007628, 48.073230148783054 ], [ 17.036865550385464, 48.073226327271783 ], [ 17.036881185422299, 48.073217541652255 ], [ 17.036986768095055, 48.073158417309031 ], [ 17.037071027211507, 48.073111232452938 ], [ 17.037090282037617, 48.073100439754633 ], [ 17.037108502610923, 48.07309022049634 ], [ 17.037155420253153, 48.073064043247911 ], [ 17.037187341325701, 48.073046180918617 ], [ 17.03720026296601, 48.073038923010373 ], [ 17.037321735164525, 48.072970824402951 ], [ 17.037375624109931, 48.072940641522116 ], [ 17.037385832420544, 48.072934911352263 ], [ 17.037459231325734, 48.072893747390317 ], [ 17.037475485634161, 48.072886112695045 ], [ 17.037642050504818, 48.072807745685324 ], [ 17.037661037214033, 48.072798852772209 ], [ 17.037758032727307, 48.072753151403354 ], [ 17.037787029844335, 48.072739525279047 ], [ 17.037793816317567, 48.072736696438213 ], [ 17.03787575825767, 48.072702283875948 ], [ 17.037925881045592, 48.072681497608698 ], [ 17.037933191015355, 48.072678471892367 ], [ 17.037990745001395, 48.072654475876227 ], [ 17.038061616466067, 48.072625010410398 ], [ 17.038074665841599, 48.072619549563925 ], [ 17.038168769417386, 48.072580424825247 ], [ 17.038211320279878, 48.072562762599233 ], [ 17.038346927403449, 48.072506369210728 ], [ 17.038503940438439, 48.072441095275991 ], [ 17.038512029202604, 48.072437684360025 ], [ 17.03852495080665, 48.072432317609021 ], [ 17.038666041263909, 48.072373676993443 ], [ 17.038705942877609, 48.072360332260779 ], [ 17.038804649812803, 48.072327364111338 ], [ 17.038812259830063, 48.072324779051456 ], [ 17.038839399190998, 48.072315264892524 ], [ 17.038960271672064, 48.072272761417942 ], [ 17.039220263429399, 48.072189241766587 ], [ 17.039236811335968, 48.072183848982284 ], [ 17.039311582441069, 48.0721544380729 ], [ 17.039401764725451, 48.072118770043495 ], [ 17.039474307569225, 48.072090150813956 ], [ 17.039582269399286, 48.072047519341091 ], [ 17.039660959951274, 48.072016541785857 ], [ 17.039665007462997, 48.072014881216326 ], [ 17.039773888302136, 48.071971949961316 ], [ 17.040157118037893, 48.071820720387741 ], [ 17.040321931567803, 48.071770685018599 ], [ 17.040433341401283, 48.07173685857996 ], [ 17.04052134045472, 48.071710175712738 ], [ 17.040527654370816, 48.071708262453207 ], [ 17.040544355269951, 48.071703134764306 ], [ 17.040603542597129, 48.071685119305137 ], [ 17.040773147704872, 48.071655194047807 ], [ 17.040880512250155, 48.071636266934966 ], [ 17.040891391059418, 48.071634297611531 ], [ 17.040925502294964, 48.071628342430976 ], [ 17.040931471590643, 48.071627250744221 ], [ 17.04106033187033, 48.071604483247675 ], [ 17.041084087761785, 48.071600300478231 ], [ 17.041114745050841, 48.071594906109389 ], [ 17.041207642589271, 48.071578513197174 ], [ 17.041241083383561, 48.071572579381701 ], [ 17.041249580856363, 48.071571136563605 ], [ 17.041314470523879, 48.071559602848382 ], [ 17.041444262580182, 48.071536715024578 ], [ 17.041544852925885, 48.071518904760154 ], [ 17.041625275365952, 48.071504712117239 ], [ 17.041641338157287, 48.07150194632667 ], [ 17.041771123521933, 48.071478968278626 ], [ 17.041810144036095, 48.071472135160974 ], [ 17.041822350701093, 48.071469943111289 ], [ 17.041996072252001, 48.071439343853648 ], [ 17.042003369427164, 48.071438029470762 ], [ 17.042085119540243, 48.071423613867495 ], [ 17.042144599782961, 48.071405948465973 ], [ 17.042167365312881, 48.071399185353435 ], [ 17.042236057681411, 48.071378793252777 ], [ 17.042250006822563, 48.07137465404454 ], [ 17.042332118367487, 48.071350229706013 ], [ 17.042353862068513, 48.071342328455479 ], [ 17.042367485396557, 48.071337389098574 ], [ 17.042456030560384, 48.071305193381662 ], [ 17.042558332979382, 48.071268053924165 ], [ 17.042604699375573, 48.071251168446921 ], [ 17.042644911656993, 48.071236551464445 ], [ 17.042682793433276, 48.071221288591936 ], [ 17.042690632806526, 48.071218155543036 ], [ 17.042791459180357, 48.071177280490851 ], [ 17.042808178449619, 48.071170530741085 ], [ 17.042970270208734, 48.071104997718088 ], [ 17.042986338288994, 48.07109853898406 ], [ 17.04310466860526, 48.071050618544142 ], [ 17.043109501145629, 48.071048662517619 ], [ 17.043192573561033, 48.071015110404844 ], [ 17.043226011887128, 48.071001610786425 ], [ 17.043280478396927, 48.070979602198456 ], [ 17.043399331645713, 48.070931484564227 ], [ 17.043456147230142, 48.070908500020813 ], [ 17.043525889875252, 48.070880237995887 ], [ 17.043648406970785, 48.070830741855708 ], [ 17.043656871732679, 48.070826958264561 ], [ 17.043808694543188, 48.070758780838098 ], [ 17.04381624641303, 48.070755386728571 ], [ 17.043833565285258, 48.070747626921488 ], [ 17.044007781436431, 48.070669365344308 ], [ 17.044099027490525, 48.070622311438626 ], [ 17.044171090946168, 48.070585148474812 ], [ 17.044343981501445, 48.070495851065758 ], [ 17.044512983937921, 48.07040856927145 ], [ 17.044523484743433, 48.070403189308166 ], [ 17.044622894293695, 48.070351910632439 ], [ 17.044636114415361, 48.070345092586201 ], [ 17.044764159794944, 48.070278936515315 ], [ 17.044799932534744, 48.070260498208235 ], [ 17.045127567176909, 48.070091308750428 ], [ 17.045173189212299, 48.070067781361267 ], [ 17.045237469784379, 48.070034559664826 ], [ 17.045297996878507, 48.070003349537949 ], [ 17.04560004563286, 48.069874876512912 ], [ 17.045723285313073, 48.069822382782334 ], [ 17.045729151726103, 48.069819853125026 ], [ 17.045899220321964, 48.069747575522108 ], [ 17.046075282482317, 48.069672673838063 ], [ 17.046194218774641, 48.069622028707713 ], [ 17.046311724969527, 48.069572059730675 ], [ 17.046405363349489, 48.069532222296729 ], [ 17.046497827036053, 48.069492872754417 ], [ 17.046592377956433, 48.069452645653627 ], [ 17.046691626916857, 48.069410466596153 ], [ 17.046747570856677, 48.06938660763899 ], [ 17.04678452845285, 48.069364077841989 ], [ 17.04686785211484, 48.069313402846781 ], [ 17.046876086135928, 48.0693082754523 ], [ 17.047001256368699, 48.06923203174496 ], [ 17.047026628684947, 48.069216628039172 ], [ 17.047106466743625, 48.069167955935193 ], [ 17.047137883614603, 48.069148755873194 ], [ 17.047186170586187, 48.069119288073935 ], [ 17.047254678654728, 48.069077553742396 ], [ 17.047345852371318, 48.06902203344481 ], [ 17.047389505122702, 48.068995416041538 ], [ 17.047507193042268, 48.068923554557891 ], [ 17.04765281845177, 48.068834585690517 ], [ 17.047665954407503, 48.068826599146362 ], [ 17.047793420053839, 48.068748659750639 ], [ 17.047828570381863, 48.068727178238639 ], [ 17.047934538210821, 48.068662446867329 ], [ 17.047995264148383, 48.068624654216144 ], [ 17.048043639310915, 48.068594552751783 ], [ 17.048068219445298, 48.068579354326907 ], [ 17.048141940517517, 48.068533489447745 ], [ 17.048169986396989, 48.068516018328786 ], [ 17.048180664763496, 48.068509371425208 ], [ 17.048288475892893, 48.068442238933123 ], [ 17.048297871315459, 48.068436443734818 ], [ 17.048436404222105, 48.068374269941934 ], [ 17.048455930146602, 48.068365447905073 ], [ 17.048616988629483, 48.068293184805569 ], [ 17.048628835646721, 48.068287851322232 ], [ 17.048762733921372, 48.068228527670179 ], [ 17.048771325537246, 48.068224649544277 ], [ 17.048794770625733, 48.06821426071803 ], [ 17.048966571202161, 48.068138140051865 ], [ 17.048972545666832, 48.068135246498173 ], [ 17.049055817992585, 48.068095198903599 ], [ 17.049139096606879, 48.068055241106187 ], [ 17.049142473188528, 48.06805360170744 ], [ 17.04914923276781, 48.068050412767164 ], [ 17.049314091671327, 48.067971181892162 ], [ 17.049454446984363, 48.06790633648923 ], [ 17.049549909134498, 48.067858242036216 ], [ 17.049600103922081, 48.067832944907053 ], [ 17.049635898939435, 48.067814864522283 ], [ 17.049722022664366, 48.067771482642449 ], [ 17.049752890054847, 48.06775590197217 ], [ 17.049814241844324, 48.067725023083923 ], [ 17.04996716140662, 48.06764797556216 ], [ 17.050118791235615, 48.067571689715926 ], [ 17.050142829055272, 48.067560200815031 ], [ 17.050248624860689, 48.067510062935874 ], [ 17.050260579921293, 48.067504365552274 ], [ 17.050379236877859, 48.067448050765812 ], [ 17.050443569396808, 48.06741752617976 ], [ 17.050496336182555, 48.067392506345023 ], [ 17.050566892455176, 48.067360701189109 ], [ 17.050629119017433, 48.067332675792805 ], [ 17.05064330811598, 48.067326276224271 ], [ 17.05080806914507, 48.067253260581516 ], [ 17.050898201473615, 48.067213351642437 ], [ 17.05092672001733, 48.067200637991853 ], [ 17.051017369150848, 48.067160442175542 ], [ 17.051030785884411, 48.067154517664306 ], [ 17.051108018144454, 48.067120246287786 ], [ 17.051165061433533, 48.067094908732969 ], [ 17.051230496885726, 48.067062907258922 ], [ 17.051300866077359, 48.067028495786339 ], [ 17.051344491749926, 48.067007191375339 ], [ 17.051433951400334, 48.066963520913148 ], [ 17.051438617085434, 48.066961119552836 ], [ 17.051456405599403, 48.066952442808571 ], [ 17.051540797203899, 48.066911186534568 ], [ 17.051569621297876, 48.066897111952073 ], [ 17.051624116188716, 48.066869964627813 ], [ 17.051696775954795, 48.066833768155192 ], [ 17.05178655372027, 48.066788916360295 ], [ 17.051870887007816, 48.066746851126716 ], [ 17.05195560949743, 48.066704593204129 ], [ 17.051965208893254, 48.066699781832824 ], [ 17.052119730984117, 48.066622679795636 ], [ 17.052213273747071, 48.066575995553031 ], [ 17.052231136670454, 48.066562723047234 ], [ 17.052314522013454, 48.066499883205864 ], [ 17.052321599891247, 48.066495513019085 ], [ 17.052329832929917, 48.066490385232257 ], [ 17.052398269198338, 48.066447749249079 ], [ 17.052422068379723, 48.066432935146793 ], [ 17.052472493989402, 48.06640150493439 ], [ 17.052577865318039, 48.066339850246678 ], [ 17.052596699404528, 48.066328888147481 ], [ 17.052667644644306, 48.066287522377777 ], [ 17.052720662045413, 48.06625663926512 ], [ 17.052735494383409, 48.066247967173517 ], [ 17.052784899351614, 48.066219181432416 ], [ 17.05282553508799, 48.06619554071338 ], [ 17.052857784524715, 48.066176762538269 ], [ 17.052904610948058, 48.066149500565579 ], [ 17.05295956187317, 48.066117474476265 ], [ 17.052975478623086, 48.066107056316199 ], [ 17.052982020157394, 48.066102703309404 ], [ 17.053052726300923, 48.066056121266747 ], [ 17.053197865314939, 48.065960585756237 ], [ 17.053223661239961, 48.065943635879272 ], [ 17.053352123652115, 48.065859173201687 ], [ 17.053444521350922, 48.065798384650087 ], [ 17.053507713855236, 48.065753844901153 ], [ 17.053656606981406, 48.065648821546219 ], [ 17.053688579541149, 48.065626179269572 ], [ 17.053730532299227, 48.065594660352637 ], [ 17.0538051204705, 48.065538496411776 ], [ 17.053952515903553, 48.065427576532194 ], [ 17.054049164647694, 48.065354852533574 ], [ 17.054093273859007, 48.065321552982624 ], [ 17.054121965289117, 48.065300006677752 ], [ 17.054192972513025, 48.065246389213641 ], [ 17.054200113444288, 48.065241026172799 ], [ 17.054302522421878, 48.065160551528152 ], [ 17.054328713334222, 48.065143498622952 ], [ 17.054392148449516, 48.065102372961086 ], [ 17.054406660665951, 48.065092990407138 ], [ 17.054427586531549, 48.065079348925714 ], [ 17.054474454367732, 48.065048932687702 ], [ 17.054671676430434, 48.064920829898092 ], [ 17.054736266095041, 48.064878946421359 ], [ 17.054762456723772, 48.06486189341652 ], [ 17.054915254328002, 48.064762687007011 ], [ 17.054948381777432, 48.06474117806146 ], [ 17.055014770649084, 48.064698155833845 ], [ 17.05509450344492, 48.06464632883899 ], [ 17.055168305445914, 48.064607391366266 ], [ 17.055177112683925, 48.064602785286723 ], [ 17.055248578700883, 48.064565003590054 ], [ 17.055329113507138, 48.064522517284431 ], [ 17.055405244583845, 48.064482333971007 ], [ 17.055440466931099, 48.064463819718682 ], [ 17.055457557946152, 48.06445480446412 ], [ 17.055597238711499, 48.064377003476785 ], [ 17.055618043698317, 48.064365437111547 ], [ 17.055676316710088, 48.064332942578332 ], [ 17.055710300238054, 48.064314017731739 ], [ 17.055752816340501, 48.064290405510846 ], [ 17.05582350197248, 48.064251117423801 ], [ 17.055836431688967, 48.064244037131211 ], [ 17.055921030257988, 48.064198267531125 ], [ 17.056009502436495, 48.06415030188893 ], [ 17.056040671539566, 48.06413335873949 ], [ 17.056097974452047, 48.064102336178443 ], [ 17.056187614213105, 48.064053792475491 ], [ 17.056254221636259, 48.06401760729895 ], [ 17.056268401768527, 48.064009225865519 ], [ 17.056423495982333, 48.063917779004505 ], [ 17.056491569314677, 48.06387767380744 ], [ 17.056578589651533, 48.063826331933079 ], [ 17.056683784712042, 48.063764228481546 ], [ 17.05672657992703, 48.063738895682505 ], [ 17.056854474119632, 48.063663543428959 ], [ 17.056898303008133, 48.063637636944378 ], [ 17.056959158033052, 48.063601816391909 ], [ 17.056997088537244, 48.063576099502114 ], [ 17.05709730047165, 48.063508211627315 ], [ 17.057164067885537, 48.063463014336612 ], [ 17.057192119891038, 48.063443829406786 ], [ 17.057267431336392, 48.063392232985592 ], [ 17.057333649388827, 48.063346873121731 ], [ 17.057371560231783, 48.063320886535422 ], [ 17.057475171929301, 48.063249826803322 ], [ 17.05751078546345, 48.063225535188607 ], [ 17.057586606758132, 48.063173561885328 ], [ 17.057593523968468, 48.063168836253311 ], [ 17.057664489111907, 48.063120351417155 ], [ 17.057813463359413, 48.063029819816109 ], [ 17.057830074170425, 48.063019738853122 ], [ 17.057980981418766, 48.062928064084268 ], [ 17.058032613162023, 48.062896682473401 ], [ 17.058056434843731, 48.062882226625106 ], [ 17.058131626467731, 48.062836487595682 ], [ 17.05821403532034, 48.062786463510577 ], [ 17.058238629040918, 48.062771532470528 ], [ 17.058297038098647, 48.062737230835289 ], [ 17.058441978875045, 48.062652321979655 ], [ 17.058461939653316, 48.062640241823267 ], [ 17.058613266134007, 48.062548822856151 ], [ 17.05865074350924, 48.062526182119186 ], [ 17.058684870660066, 48.062505540478568 ], [ 17.058819330702807, 48.062424390663786 ], [ 17.05884444097563, 48.062409172673846 ], [ 17.058883079558324, 48.062385864052196 ], [ 17.058925451127195, 48.062360273794006 ], [ 17.059000660533336, 48.062314803764167 ], [ 17.059071124563072, 48.062264983131541 ], [ 17.059078673161139, 48.06225969670497 ], [ 17.059211031300151, 48.062166095092074 ], [ 17.059343778239793, 48.062072300672909 ], [ 17.059353617405343, 48.062065229315202 ], [ 17.059475592802489, 48.061978626145098 ], [ 17.059495545588408, 48.061964564637641 ], [ 17.059539139054682, 48.06193353096851 ], [ 17.059578131951124, 48.061905797546487 ], [ 17.05960077099629, 48.061889848307146 ], [ 17.059620583233237, 48.061875701233483 ], [ 17.059649105328035, 48.061855599875358 ], [ 17.059669306812228, 48.061841260140035 ], [ 17.059740548107335, 48.061791053785882 ], [ 17.059835563811369, 48.061723870854081 ], [ 17.059875468982892, 48.061695747709251 ], [ 17.059907564025, 48.061673009516184 ], [ 17.05996576269234, 48.061632048971759 ], [ 17.0599814911475, 48.061620915289843 ], [ 17.060079326556828, 48.061551840117978 ], [ 17.060134442973879, 48.061512870009828 ], [ 17.060144926418438, 48.061505417587462 ], [ 17.060153750911631, 48.061499189382914 ], [ 17.060218980676872, 48.06145322903599 ], [ 17.060266997891297, 48.061423944051924 ], [ 17.060286957775581, 48.061411863576154 ], [ 17.060310644106622, 48.061397411570901 ], [ 17.06041105564584, 48.061336178835759 ], [ 17.060502538473216, 48.061277845217056 ], [ 17.060606143107176, 48.061219931974506 ], [ 17.060752896821274, 48.061137933701339 ], [ 17.060770208865229, 48.061128280024903 ], [ 17.060854695063, 48.061081069061309 ], [ 17.0608687782264, 48.061073230513678 ], [ 17.06093254767227, 48.061042537583191 ], [ 17.060976707007477, 48.061021302102887 ], [ 17.061108017012661, 48.060958173534438 ], [ 17.061149706593135, 48.060938098250915 ], [ 17.061329846348528, 48.060851421964074 ], [ 17.061345174398891, 48.060844083666424 ], [ 17.061441800845262, 48.060797562212585 ], [ 17.061528561615464, 48.06075586148156 ], [ 17.061567653672096, 48.06073704049092 ], [ 17.061615449853608, 48.060714066512695 ], [ 17.06169817729279, 48.060674206709997 ], [ 17.061784937652277, 48.060632505785321 ], [ 17.061788709048734, 48.060630763210696 ], [ 17.06187390580218, 48.060589743003419 ], [ 17.061950404761141, 48.060552965590304 ], [ 17.062015857557839, 48.060521407241744 ], [ 17.062115737321246, 48.06047342947268 ], [ 17.062236911104893, 48.060415129098892 ], [ 17.062297692521408, 48.060385882532991 ], [ 17.062377304899616, 48.060347563538244 ], [ 17.062473419085968, 48.060301417909152 ], [ 17.062494068728604, 48.060291476352873 ], [ 17.062559131616453, 48.060260110357554 ], [ 17.062644984492653, 48.060218888282598 ], [ 17.06273667597732, 48.060174776189051 ], [ 17.062812237782488, 48.060141811046101 ], [ 17.062854839775433, 48.060123236813546 ], [ 17.06296491809799, 48.060075109953651 ], [ 17.062994623289551, 48.060062174738 ], [ 17.063079558900359, 48.06002503475591 ], [ 17.063169580355151, 48.059985749492888 ], [ 17.063204499009295, 48.059970574830579 ], [ 17.063325730447485, 48.059896239905868 ], [ 17.063386339596647, 48.059858982538216 ], [ 17.063559686895967, 48.059752617045092 ], [ 17.063591474825529, 48.059733129938827 ], [ 17.063692746740831, 48.059670875676233 ], [ 17.063712571117666, 48.059658798920943 ], [ 17.063783867147404, 48.059615072700922 ], [ 17.063787854958733, 48.059612602569231 ], [ 17.063934045202856, 48.059522872521541 ], [ 17.063990538091119, 48.059488179144907 ], [ 17.064031590152066, 48.059462989602423 ], [ 17.064093614766293, 48.05942487564829 ], [ 17.064130934147087, 48.059401967862321 ], [ 17.064195408760689, 48.059362423953566 ], [ 17.064292825510428, 48.059302634986487 ], [ 17.064388825572319, 48.059243702151889 ], [ 17.064434898666818, 48.059215468622263 ], [ 17.064563330040198, 48.05913666727055 ], [ 17.064597943690956, 48.059115377591745 ], [ 17.064678764183054, 48.059065849955687 ], [ 17.064760216064052, 48.059015761526389 ], [ 17.064768842371791, 48.059010530029418 ], [ 17.064860853647129, 48.058954066963935 ], [ 17.064916956069084, 48.058919565799854 ], [ 17.064955691171264, 48.058895801522276 ], [ 17.064971903607219, 48.05888582233581 ], [ 17.065019130877349, 48.058856830842871 ], [ 17.065078327607505, 48.058820518657484 ], [ 17.065149104517477, 48.058777078432897 ], [ 17.065179474819097, 48.058758447109533 ], [ 17.065260160165856, 48.058708923381381 ], [ 17.065339678946138, 48.058661868928866 ], [ 17.065557413172769, 48.058576946126671 ], [ 17.065652684803744, 48.058539741186806 ], [ 17.065777367338526, 48.05849114076004 ], [ 17.065788604620693, 48.05848672567457 ], [ 17.065807268118366, 48.058477207750357 ], [ 17.065861191295376, 48.058449801364645 ], [ 17.065944025299416, 48.058407773294419 ], [ 17.066003001801519, 48.058377772216211 ], [ 17.066026725132108, 48.058365749484736 ], [ 17.066109558868938, 48.058323721295004 ], [ 17.066182534311718, 48.058286604106684 ], [ 17.066203788186463, 48.058275741711057 ], [ 17.066262770834424, 48.058245830356235 ], [ 17.066389151866733, 48.05818159329003 ], [ 17.066424283573923, 48.058163798836226 ], [ 17.066456039862757, 48.058147644280297 ], [ 17.066519941601541, 48.058115142465667 ], [ 17.066538738869411, 48.058105620101536 ], [ 17.066594479783856, 48.058077344166271 ], [ 17.066614565828807, 48.058067059724742 ], [ 17.066677178567225, 48.058035319887694 ], [ 17.066702062797152, 48.058022629128658 ], [ 17.066796169879346, 48.057974833093041 ], [ 17.066832738361839, 48.057958343155086 ], [ 17.066866965069423, 48.057942919414586 ], [ 17.06698721139821, 48.057888696475366 ], [ 17.067000872661339, 48.057882491883539 ], [ 17.067072969285338, 48.057849995722428 ], [ 17.067096782377195, 48.057839230765872 ], [ 17.067165369495324, 48.057808378795841 ], [ 17.067202971353836, 48.057791315025739 ], [ 17.067255886606716, 48.057766732442659 ], [ 17.06734597567867, 48.05772473955637 ], [ 17.067390953142255, 48.057703745247693 ], [ 17.067209969456151, 48.057551787434171 ], [ 17.067199399737497, 48.057543031695907 ], [ 17.066983687208019, 48.057362021633253 ], [ 17.066878047631, 48.05727338138999 ] ] ] } },
{ "type": "Feature", "properties": { "name": "Pama", "feature_type": "circle", "metric_roundness": 64.1, "metric_rectangularity": 80.06, "metric_mobile_fit": 56.69, "metric_aspect_ratio": 0.996, "metric_area_km2": 59.03 }, "geometry": { "type": "Polygon", "coordinates": [ [ [ 17.085073774676115, 48.04730635311887 ], [ 17.085007101390087, 48.045604180895829 ], [ 17.084807264278844, 48.043906618185204 ], [ 17.084474811082018, 48.042218318578726 ], [ 17.084010653030713, 48.040543910730676 ], [ 17.083416062349887, 48.038887985658498 ], [ 17.082692668771259, 48.037255084141904 ], [ 17.081842455066354, 48.035649684254885 ], [ 17.080867751611834, 48.034076189065289 ], [ 17.07977123000212, 48.032538914535913 ], [ 17.07855589572673, 48.031042077660523 ], [ 17.077225079932425, 48.029589784867788 ], [ 17.075782430292804, 48.028186020725258 ], [ 17.074231901010243, 48.026834636974876 ], [ 17.072577741977735, 48.02553934193039 ], [ 17.070824487130206, 48.024303690266485 ], [ 17.068976942017333, 48.023131073227809 ], [ 17.067040170631838, 48.022024709285532 ], [ 17.065019481529475, 48.020987635267417 ], [ 17.062920413278611, 48.020022697986299 ], [ 17.06074871927942, 48.019132546390438 ], [ 17.058510351994201, 48.018319624257785 ], [ 17.056211446632094, 48.017586163454602 ], [ 17.053858304332906, 48.016934177777529 ], [ 17.05145737489611, 48.016365457396304 ], [ 17.049015239102403, 48.015881563912821 ], [ 17.046538590676249, 48.015483826050399 ], [ 17.04403421793884, 48.015173335985551 ], [ 17.041508985201759, 48.014950946332405 ], [ 17.038969813952423, 48.014817267788381 ], [ 17.036423663882726, 48.014772667447865 ], [ 17.033877513813028, 48.014817267788381 ], [ 17.031338342563693, 48.014950946332405 ], [ 17.028813109826611, 48.015173335985551 ], [ 17.026308737089202, 48.015483826050399 ], [ 17.023832088663049, 48.015881563912821 ], [ 17.021389952869345, 48.016365457396304 ], [ 17.018989023432546, 48.016934177777529 ], [ 17.016635881133357, 48.017586163454602 ], [ 17.014336975771251, 48.018319624257785 ], [ 17.012098608486031, 48.019132546390438 ], [ 17.009926914486844, 48.020022697986299 ], [ 17.007827846235976, 48.020987635267417 ], [ 17.00580715713361, 48.022024709285532 ], [ 17.003870385748119, 48.023131073227809 ], [ 17.002022840635242, 48.024303690266485 ], [ 17.000269585787716, 48.02553934193039 ], [ 16.998615426755212, 48.026834636974876 ], [ 16.997064897472651, 48.028186020725258 ], [ 16.99562224783303, 48.029589784867788 ], [ 16.994291432038722, 48.031042077660523 ], [ 16.993076097763328, 48.032538914535913 ], [ 16.991979576153618, 48.034076189065289 ], [ 16.991004872699097, 48.035649684254885 ], [ 16.990154658994193, 48.037255084141904 ], [ 16.989431265415565, 48.038887985658498 ], [ 16.988836674734738, 48.040543910730676 ], [ 16.988372516683434, 48.042218318578726 ], [ 16.988040063486608, 48.043906618185204 ], [ 16.987840226375365, 48.045604180895829 ], [ 16.987773553089337, 48.04730635311887 ], [ 16.987840226375365, 48.049008469087873 ], [ 16.988040063486608, 48.050705863652702 ], [ 16.988372516683434, 48.052393885063864 ], [ 16.988836674734738, 48.054067907715059 ], [ 16.989431265415565, 48.055723344809124 ], [ 16.990154658994193, 48.057355660912755 ], [ 16.991004872699097, 48.058960384365868 ], [ 16.991979576153618, 48.06053311951176 ], [ 16.993076097763328, 48.062069558714839 ], [ 16.994291432038722, 48.063565494133343 ], [ 16.99562224783303, 48.06501682921516 ], [ 16.997064897472651, 48.066419589885619 ], [ 16.998615426755212, 48.067769935397052 ], [ 17.000269585787716, 48.069064168810833 ], [ 17.002022840635242, 48.070298747083754 ], [ 17.003870385748119, 48.071470290731462 ], [ 17.00580715713361, 48.072575593043084 ], [ 17.007827846235976, 48.073611628822277 ], [ 17.009926914486844, 48.074575562631409 ], [ 17.012098608486031, 48.075464756516425 ], [ 17.014336975771251, 48.076276777192305 ], [ 17.016635881133357, 48.07700940266929 ], [ 17.018989023432546, 48.077660628302766 ], [ 17.021389952869345, 48.078228672250191 ], [ 17.023832088663049, 48.078711980320811 ], [ 17.026308737089202, 48.079109230205212 ], [ 17.028813109826611, 48.079419335073275 ], [ 17.031338342563693, 48.07964144653117 ], [ 17.033877513813028, 48.07977495692942 ], [ 17.036423663882726, 48.079819501015905 ], [ 17.038969813952423, 48.07977495692942 ], [ 17.041508985201759, 48.07964144653117 ], [ 17.04403421793884, 48.079419335073275 ], [ 17.046538590676249, 48.079109230205212 ], [ 17.049015239102403, 48.078711980320811 ], [ 17.05145737489611, 48.078228672250191 ], [ 17.053858304332906, 48.077660628302766 ], [ 17.056211446632094, 48.07700940266929 ], [ 17.058510351994201, 48.076276777192305 ], [ 17.06074871927942, 48.075464756516425 ], [ 17.062920413278611, 48.074575562631409 ], [ 17.065019481529475, 48.073611628822277 ], [ 17.067040170631838, 48.072575593043084 ], [ 17.068976942017333, 48.071470290731462 ], [ 17.070824487130206, 48.070298747083754 ], [ 17.072577741977735, 48.069064168810833 ], [ 17.074231901010243, 48.067769935397052 ], [ 17.075782430292804, 48.066419589885619 ], [ 17.077225079932425, 48.06501682921516 ], [ 17.07855589572673, 48.063565494133343 ], [ 17.07977123000212, 48.062069558714839 ], [ 17.080867751611834, 48.06053311951176 ], [ 17.081842455066354, 48.058960384365868 ], [ 17.082692668771259, 48.057355660912755 ], [ 17.083416062349887, 48.055723344809124 ], [ 17.084010653030713, 48.054067907715059 ], [ 17.084474811082018, 48.052393885063864 ], [ 17.084807264278844, 48.050705863652702 ], [ 17.085007101390087, 48.049008469087873 ], [ 17.085073774676115, 48.04730635311887 ] ] ] } },
{ "type": "Feature", "properties": { "name": "Pama", "feature_type": "mrr", "metric_roundness": 64.1, "metric_rectangularity": 80.06, "metric_mobile_fit": 56.69, "metric_aspect_ratio": 0.996, "metric_area_km2": 59.03 }, "geometry": { "type": "Polygon", "coordinates": [ [ [ 17.022832362998752, 48.082114986588039 ], [ 17.09289576128074, 48.045052068867008 ], [ 17.051568903091745, 48.010135025908426 ], [ 16.981505504809757, 48.047223068924602 ], [ 17.022832362998752, 48.082114986588039 ] ] ] } }
]
}
