{
"type": "FeatureCollection",
"name": "zemne",
"crs": { "type": "name", "properties": { "name": "urn:ogc:def:crs:OGC:1.3:CRS84" } },
"features": [
{ "type": "Feature", "properties": { "name": "Zemné", "metric_roundness": 20.24, "metric_rectangularity": 47.9, "metric_mobile_fit": -8.7, "metric_aspect_ratio": 1.65, "metric_area_km2": 59.45 }, "geometry": { "type": "Polygon", "coordinates": [ [ [ 18.0035935, 47.9738604 ], [ 18.0104543, 47.980572 ], [ 18.018041, 47.972414 ], [ 18.0259372, 47.9818705 ], [ 18.043138, 47.982450499999985 ], [ 18.0956901, 47.998075199999981 ], [ 18.116918, 48.0059718 ], [ 18.1272595, 48.01305 ], [ 18.1237365, 48.016228 ], [ 18.1173355, 48.0228675 ], [ 18.1152385, 48.0246615 ], [ 18.112175, 48.026978499999984 ], [ 18.0709981, 48.0040537 ], [ 18.0412342, 47.9933425 ], [ 18.012019, 48.013444499999984 ], [ 18.0051826, 48.008770499999983 ], [ 17.9895985, 48.0050977 ], [ 17.9799555, 47.991170299999986 ], [ 17.982229, 47.9860652 ], [ 17.9694265, 47.974983 ], [ 17.9704595, 47.9629465 ], [ 17.9857552, 47.9704224 ], [ 18.005937, 47.970755499999981 ], [ 18.0035935, 47.9738604 ] ] ] } }
]
}
