{
"type": "FeatureCollection",
"name": "faerder",
"crs": { "type": "name", "properties": { "name": "urn:ogc:def:crs:OGC:1.3:CRS84" } },
"features": [
{ "type": "Feature", "properties": { "name": "Færder", "feature_type": "entity", "metric_roundness": 40.15, "metric_rectangularity": 66.77, "metric_mobile_fit": 97.99, "metric_aspect_ratio": 0.542, "metric_area_km2": 180.14 }, "geometry": { "type": "Polygon", "coordinates": [ [ [ 10.4098643, 59.2565131 ], [ 10.3943895, 59.267217 ], [ 10.3854872, 59.2621182 ], [ 10.3839428, 59.2324973 ], [ 10.3662404, 59.209355099999989 ], [ 10.3615402, 59.1915049 ], [ 10.3653997, 59.174893799999985 ], [ 10.3750785, 59.164837299999981 ], [ 10.3815594, 59.1651324 ], [ 10.3853214, 59.173341199999982 ], [ 10.3906848, 59.1761479 ], [ 10.4301597, 59.164803 ], [ 10.4485668, 59.171589899999987 ], [ 10.451144, 59.16466669999997 ], [ 10.4560042, 59.161955299999988 ], [ 10.4605613, 59.170538599999986 ], [ 10.4570781, 59.1764023 ], [ 10.4684389, 59.181602299999987 ], [ 10.4684306, 59.1846077 ], [ 10.4646225, 59.1855267 ], [ 10.4642272, 59.19444129999998 ], [ 10.4719658, 59.19874369999998 ], [ 10.473098, 59.2060853 ], [ 10.4653716, 59.209653099999983 ], [ 10.4584361, 59.200389499999986 ], [ 10.4555582, 59.2021155 ], [ 10.4586549, 59.218302099999981 ], [ 10.4643774, 59.225243699999986 ], [ 10.4632481, 59.230618 ], [ 10.4447645, 59.2429725 ], [ 10.4396926, 59.2402368 ], [ 10.4378574, 59.2337016 ], [ 10.435634, 59.234347799999988 ], [ 10.4316457, 59.238189100000014 ], [ 10.4278085, 59.2534353 ], [ 10.4222865, 59.258678499999981 ], [ 10.4098643, 59.2565131 ] ] ] } },
{ "type": "Feature", "properties": { "name": "Færder", "feature_type": "circle", "metric_roundness": 40.15, "metric_rectangularity": 66.77, "metric_mobile_fit": 97.99, "metric_aspect_ratio": 0.542, "metric_area_km2": 180.14 }, "geometry": { "type": "Polygon", "coordinates": [ [ [ 10.52981726612304, 59.214202874198662 ], [ 10.52967009936898, 59.211326232179175 ], [ 10.529229002480646, 59.208457233423033 ], [ 10.528495184473947, 59.20560374461968 ], [ 10.527470656693032, 59.202773591895379 ], [ 10.526158227297335, 59.199974539308649 ], [ 10.524561493564605, 59.197214267495063 ], [ 10.522684832031011, 59.194500352520812 ], [ 10.52053338649538, 59.19184024500391 ], [ 10.518113053920374, 59.189241249561555 ], [ 10.515430468269344, 59.186710504641461 ], [ 10.512492982323101, 59.184254962793908 ], [ 10.509308647526439, 59.181881371440483 ], [ 10.505886191919693, 59.179596254194216 ], [ 10.502234996215792, 59.177405892784016 ], [ 10.498365068088367, 59.175316309635548 ], [ 10.494287014741422, 59.173333251158027 ], [ 10.490012013835717, 59.171462171785464 ], [ 10.485551782851585, 59.169708218817966 ], [ 10.480918546972125, 59.168076218107181 ], [ 10.476125005574829, 59.166570660627421 ], [ 10.471184297423473, 59.16519568997127 ], [ 10.466109964655679, 59.163955090806184 ], [ 10.460915915664847, 59.162852278325929 ], [ 10.455616386978228, 59.161890288727434 ], [ 10.450225904235584, 59.161071770741103 ], [ 10.444759242375429, 59.160398978239364 ], [ 10.439231385137937, 59.159873763945285 ], [ 10.43365748399556, 59.159497574259333 ], [ 10.428052816623889, 59.159271445220305 ], [ 10.422432745026617, 59.159195999611349 ], [ 10.416812673429344, 59.159271445220305 ], [ 10.411208006057675, 59.159497574259333 ], [ 10.405634104915295, 59.159873763945285 ], [ 10.400106247677805, 59.160398978239364 ], [ 10.39463958581765, 59.161071770741103 ], [ 10.389249103075008, 59.161890288727434 ], [ 10.383949574388387, 59.162852278325929 ], [ 10.378755525397557, 59.163955090806184 ], [ 10.373681192629761, 59.16519568997127 ], [ 10.368740484478407, 59.166570660627421 ], [ 10.363946943081112, 59.168076218107181 ], [ 10.35931370720165, 59.169708218817966 ], [ 10.354853476217517, 59.171462171785464 ], [ 10.350578475311814, 59.173333251158027 ], [ 10.346500421964869, 59.175316309635548 ], [ 10.342630493837444, 59.177405892784016 ], [ 10.338979298133543, 59.179596254194216 ], [ 10.335556842526797, 59.181881371440483 ], [ 10.332372507730133, 59.184254962793908 ], [ 10.32943502178389, 59.186710504641461 ], [ 10.326752436132862, 59.189241249561555 ], [ 10.324332103557856, 59.19184024500391 ], [ 10.322180658022225, 59.194500352520812 ], [ 10.320303996488629, 59.197214267495063 ], [ 10.3187072627559, 59.199974539308649 ], [ 10.317394833360204, 59.202773591895379 ], [ 10.316370305579289, 59.20560374461968 ], [ 10.31563648757259, 59.208457233423033 ], [ 10.315195390684254, 59.211326232179175 ], [ 10.315048223930196, 59.214202874198662 ], [ 10.315195390684254, 59.21707927382306 ], [ 10.31563648757259, 59.219947548049724 ], [ 10.316370305579289, 59.22279983812728 ], [ 10.317394833360204, 59.225628331062978 ], [ 10.3187072627559, 59.228425280983302 ], [ 10.320303996488629, 59.231183030289948 ], [ 10.322180658022225, 59.233894030553813 ], [ 10.324332103557856, 59.236550863091118 ], [ 10.326752436132862, 59.239146259165985 ], [ 10.32943502178389, 59.241673119766183 ], [ 10.332372507730133, 59.244124534898866 ], [ 10.335556842526797, 59.24649380235558 ], [ 10.338979298133543, 59.248774445896835 ], [ 10.342630493837444, 59.25096023280858 ], [ 10.346500421964869, 59.25304519078432 ], [ 10.350578475311814, 59.255023624089169 ], [ 10.354853476217517, 59.256890128963526 ], [ 10.35931370720165, 59.258639608226417 ], [ 10.36394694308111, 59.260267285040996 ], [ 10.368740484478407, 59.261768715806497 ], [ 10.373681192629761, 59.263139802143471 ], [ 10.378755525397555, 59.264376801941857 ], [ 10.383949574388387, 59.265476339443261 ], [ 10.389249103075008, 59.266435414332136 ], [ 10.39463958581765, 59.267251409812232 ], [ 10.400106247677805, 59.26792209964816 ], [ 10.405634104915295, 59.268445654154199 ], [ 10.411208006057675, 59.268820645114737 ], [ 10.416812673429344, 59.269046049624528 ], [ 10.422432745026617, 59.269121252838509 ], [ 10.428052816623889, 59.269046049624528 ], [ 10.43365748399556, 59.268820645114737 ], [ 10.439231385137937, 59.268445654154199 ], [ 10.444759242375429, 59.26792209964816 ], [ 10.450225904235584, 59.267251409812232 ], [ 10.455616386978228, 59.266435414332136 ], [ 10.460915915664845, 59.265476339443261 ], [ 10.466109964655677, 59.264376801941857 ], [ 10.471184297423473, 59.263139802143471 ], [ 10.476125005574829, 59.261768715806497 ], [ 10.480918546972122, 59.260267285040996 ], [ 10.485551782851585, 59.258639608226417 ], [ 10.490012013835717, 59.256890128963526 ], [ 10.494287014741422, 59.255023624089169 ], [ 10.498365068088367, 59.25304519078432 ], [ 10.502234996215792, 59.25096023280858 ], [ 10.505886191919693, 59.248774445896835 ], [ 10.509308647526439, 59.24649380235558 ], [ 10.512492982323101, 59.244124534898866 ], [ 10.515430468269344, 59.241673119766183 ], [ 10.518113053920374, 59.239146259165985 ], [ 10.52053338649538, 59.236550863091118 ], [ 10.522684832031011, 59.233894030553813 ], [ 10.524561493564605, 59.231183030289948 ], [ 10.526158227297335, 59.228425280983302 ], [ 10.527470656693032, 59.225628331062978 ], [ 10.528495184473947, 59.22279983812728 ], [ 10.529229002480646, 59.219947548049724 ], [ 10.52967009936898, 59.21707927382306 ], [ 10.52981726612304, 59.214202874198662 ] ] ] } },
{ "type": "Feature", "properties": { "name": "Færder", "feature_type": "mrr", "metric_roundness": 40.15, "metric_rectangularity": 66.77, "metric_mobile_fit": 97.99, "metric_aspect_ratio": 0.542, "metric_area_km2": 180.14 }, "geometry": { "type": "Polygon", "coordinates": [ [ [ 10.485065053772512, 59.262333290404229 ], [ 10.464003559798657, 59.160033490590372 ], [ 10.356264132776921, 59.165853583424031 ], [ 10.377325626750778, 59.26813596900238 ], [ 10.485065053772512, 59.262333290404229 ] ] ] } }
]
}
