{
"type": "FeatureCollection",
"name": "fatarella_la",
"crs": { "type": "name", "properties": { "name": "urn:ogc:def:crs:OGC:1.3:CRS84" } },
"features": [
{ "type": "Feature", "properties": { "name": "Fatarella, La", "metric_roundness": 23.91, "metric_rectangularity": 53.51, "metric_mobile_fit": 68.78, "metric_aspect_ratio": 0.875, "metric_area_km2": 99.8 }, "geometry": { "type": "Polygon", "coordinates": [ [ [ 0.5533205, 41.118301 ], [ 0.529, 41.125245799999981 ], [ 0.5151897, 41.1336707 ], [ 0.4936817, 41.1369817 ], [ 0.4894993, 41.140827699999988 ], [ 0.4886632, 41.144782299999989 ], [ 0.4998229, 41.1566341 ], [ 0.5006748, 41.161644199999984 ], [ 0.4985998, 41.1676488 ], [ 0.5015047, 41.1735102 ], [ 0.4950205, 41.19678 ], [ 0.4796919, 41.2028707 ], [ 0.4591821, 41.204821099999982 ], [ 0.4556124, 41.214214399999982 ], [ 0.4311754, 41.227966399999985 ], [ 0.401927, 41.2163655 ], [ 0.4231565, 41.1736181 ], [ 0.4319996, 41.1739106 ], [ 0.4376378, 41.170980799999988 ], [ 0.4574153, 41.153021699999989 ], [ 0.4589892, 41.1461318 ], [ 0.46793, 41.139270499999981 ], [ 0.4889384, 41.1402535 ], [ 0.5033345, 41.1180387 ], [ 0.5207291, 41.0992125 ], [ 0.5362465, 41.0976595 ], [ 0.5533205, 41.118301 ] ] ] } }
]
}
