{
"type": "FeatureCollection",
"name": "fauville",
"crs": { "type": "name", "properties": { "name": "urn:ogc:def:crs:OGC:1.3:CRS84" } },
"features": [
{ "type": "Feature", "properties": { "name": "Fauville", "feature_type": "entity", "metric_roundness": 39.46, "metric_rectangularity": 61.66, "metric_mobile_fit": 79.27, "metric_aspect_ratio": 0.77, "metric_area_km2": 7.55 }, "geometry": { "type": "Polygon", "coordinates": [ [ [ 1.2132359, 49.0252361 ], [ 1.2084256, 49.0285192 ], [ 1.1856525, 49.0385865 ], [ 1.1909719, 49.0233061 ], [ 1.185695, 49.0164605 ], [ 1.2084256, 49.0150923 ], [ 1.212917, 49.0156505 ], [ 1.2132359, 49.0252361 ] ] ] } },
{ "type": "Feature", "properties": { "name": "Fauville", "feature_type": "circle", "metric_roundness": 39.46, "metric_rectangularity": 61.66, "metric_mobile_fit": 79.27, "metric_aspect_ratio": 0.77, "metric_area_km2": 7.55 }, "geometry": { "type": "Polygon", "coordinates": [ [ [ 1.221459655407788, 49.027119821523449 ], [ 1.221429265470606, 49.026358844421146 ], [ 1.221338178955765, 49.025599941514287 ], [ 1.221186645525072, 49.024845193045813 ], [ 1.220975080521127, 49.024096667965175 ], [ 1.2207040638289, 49.023356418254906 ], [ 1.220374338286305, 49.02262647330263 ], [ 1.219986807648138, 49.02190883433417 ], [ 1.219542534108939, 49.021205468922858 ], [ 1.219042735391599, 49.020518305590222 ], [ 1.218488781409661, 49.019849228513067 ], [ 1.217882190512485, 49.019200072351147 ], [ 1.217224625323557, 49.018572617210239 ], [ 1.216517888183352, 49.017968583753998 ], [ 1.215763916209248, 49.01738962847844 ], [ 1.214964775986017, 49.016837339161903 ], [ 1.214122657901463, 49.016313230503194 ], [ 1.213239870142722, 49.015818739959876 ], [ 1.212318832369679, 49.015355223798338 ], [ 1.211362069082847, 49.014923953366491 ], [ 1.210372202703894, 49.014526111599366 ], [ 1.209351946387759, 49.014162789767475 ], [ 1.208304096586087, 49.013834984476802 ], [ 1.20723152538235, 49.013543594928734 ], [ 1.206137172619663, 49.013289420447677 ], [ 1.205024037842882, 49.013073158283063 ], [ 1.203895172077057, 49.012895401691964 ], [ 1.202753669464785, 49.01275663830755 ], [ 1.201602658785382, 49.012657248797957 ], [ 1.200445294879114, 49.012597505819343 ], [ 1.19928475, 49.012577573265958 ], [ 1.198124205120886, 49.012597505819343 ], [ 1.196966841214618, 49.012657248797957 ], [ 1.195815830535215, 49.01275663830755 ], [ 1.194674327922943, 49.012895401691964 ], [ 1.193545462157118, 49.013073158283063 ], [ 1.192432327380337, 49.013289420447677 ], [ 1.19133797461765, 49.013543594928734 ], [ 1.190265403413913, 49.013834984476802 ], [ 1.189217553612241, 49.014162789767475 ], [ 1.188197297296106, 49.014526111599366 ], [ 1.187207430917153, 49.014923953366491 ], [ 1.186250667630321, 49.015355223798338 ], [ 1.185329629857278, 49.015818739959876 ], [ 1.184446842098536, 49.016313230503194 ], [ 1.183604724013983, 49.016837339161903 ], [ 1.182805583790752, 49.01738962847844 ], [ 1.182051611816647, 49.017968583753998 ], [ 1.181344874676443, 49.018572617210239 ], [ 1.180687309487515, 49.019200072351147 ], [ 1.180080718590339, 49.019849228513067 ], [ 1.179526764608401, 49.020518305590222 ], [ 1.179026965891061, 49.021205468922858 ], [ 1.178582692351862, 49.02190883433417 ], [ 1.178195161713695, 49.02262647330263 ], [ 1.1778654361711, 49.023356418254906 ], [ 1.177594419478873, 49.024096667965175 ], [ 1.177382854474928, 49.024845193045813 ], [ 1.177231321044235, 49.025599941514287 ], [ 1.177140234529394, 49.026358844421146 ], [ 1.177109844592212, 49.027119821523449 ], [ 1.177140234529394, 49.027880786988092 ], [ 1.177231321044235, 49.028639655109444 ], [ 1.177382854474928, 49.029394346025697 ], [ 1.177594419478873, 49.030142791417937 ], [ 1.1778654361711, 49.030882940176738 ], [ 1.178195161713695, 49.031612764020508 ], [ 1.178582692351862, 49.032330263050312 ], [ 1.179026965891061, 49.033033471226034 ], [ 1.179526764608401, 49.033720461748814 ], [ 1.180080718590339, 49.034389352335239 ], [ 1.180687309487515, 49.035038310368741 ], [ 1.181344874676443, 49.035665557914299 ], [ 1.182051611816647, 49.036269376582716 ], [ 1.182805583790752, 49.036848112231226 ], [ 1.183604724013983, 49.037400179487797 ], [ 1.184446842098536, 49.037924066086539 ], [ 1.185329629857278, 49.038418337002817 ], [ 1.186250667630321, 49.038881638376537 ], [ 1.187207430917153, 49.039312701213042 ], [ 1.188197297296106, 49.039710344851748 ], [ 1.189217553612241, 49.040073480192902 ], [ 1.190265403413913, 49.040401112673734 ], [ 1.19133797461765, 49.040692344986212 ], [ 1.192432327380337, 49.04094637952862 ], [ 1.193545462157118, 49.041162520584727 ], [ 1.194674327922943, 49.041340176224359 ], [ 1.195815830535215, 49.041478859920389 ], [ 1.196966841214618, 49.041578191877761 ], [ 1.198124205120886, 49.041637900070874 ], [ 1.19928475, 49.041657820986586 ], [ 1.200445294879114, 49.041637900070874 ], [ 1.201602658785382, 49.041578191877761 ], [ 1.202753669464785, 49.041478859920389 ], [ 1.203895172077057, 49.041340176224359 ], [ 1.205024037842882, 49.041162520584727 ], [ 1.206137172619663, 49.04094637952862 ], [ 1.20723152538235, 49.040692344986212 ], [ 1.208304096586087, 49.040401112673734 ], [ 1.209351946387759, 49.040073480192902 ], [ 1.210372202703894, 49.039710344851748 ], [ 1.211362069082847, 49.039312701213042 ], [ 1.212318832369679, 49.038881638376537 ], [ 1.213239870142722, 49.038418337002817 ], [ 1.214122657901463, 49.037924066086539 ], [ 1.214964775986017, 49.037400179487797 ], [ 1.215763916209248, 49.036848112231226 ], [ 1.216517888183352, 49.036269376582716 ], [ 1.217224625323557, 49.035665557914299 ], [ 1.217882190512485, 49.035038310368741 ], [ 1.218488781409661, 49.034389352335239 ], [ 1.219042735391599, 49.033720461748814 ], [ 1.219542534108939, 49.033033471226034 ], [ 1.219986807648138, 49.032330263050312 ], [ 1.220374338286305, 49.031612764020508 ], [ 1.2207040638289, 49.030882940176738 ], [ 1.220975080521127, 49.030142791417937 ], [ 1.221186645525072, 49.029394346025697 ], [ 1.221338178955765, 49.028639655109444 ], [ 1.221429265470606, 49.027880786988092 ], [ 1.221459655407788, 49.027119821523449 ] ] ] } },
{ "type": "Feature", "properties": { "name": "Fauville", "feature_type": "mrr", "metric_roundness": 39.46, "metric_rectangularity": 61.66, "metric_mobile_fit": 79.27, "metric_aspect_ratio": 0.77, "metric_area_km2": 7.55 }, "geometry": { "type": "Polygon", "coordinates": [ [ [ 1.185697664068727, 49.015073526072946 ], [ 1.1856525, 49.0385865 ], [ 1.213210210922316, 49.038609253192909 ], [ 1.213255374416345, 49.015096289801178 ], [ 1.185697664068727, 49.015073526072946 ] ] ] } }
]
}
