{
"type": "FeatureCollection",
"name": "kvetoslavov",
"crs": { "type": "name", "properties": { "name": "urn:ogc:def:crs:OGC:1.3:CRS84" } },
"features": [
{ "type": "Feature", "properties": { "name": "Kvetoslavov", "feature_type": "entity", "metric_roundness": 51.9, "metric_rectangularity": 67.13, "metric_mobile_fit": 22.49, "metric_aspect_ratio": 1.338, "metric_area_km2": 17.53 }, "geometry": { "type": "Polygon", "coordinates": [ [ [ 17.3608079, 48.059057899999985 ], [ 17.3467503, 48.058711099999989 ], [ 17.3286831, 48.064740199999989 ], [ 17.3189315, 48.062721 ], [ 17.313998, 48.0599675 ], [ 17.3112504, 48.054601899999987 ], [ 17.3360289, 48.035803199999982 ], [ 17.3557056, 48.0458364 ], [ 17.360303, 48.0442495 ], [ 17.3691515, 48.047321 ], [ 17.3670131, 48.048932799999982 ], [ 17.3688495, 48.0518845 ], [ 17.3608079, 48.059057899999985 ] ] ] } },
{ "type": "Feature", "properties": { "name": "Kvetoslavov", "feature_type": "circle", "metric_roundness": 51.9, "metric_rectangularity": 67.13, "metric_mobile_fit": 22.49, "metric_aspect_ratio": 1.338, "metric_area_km2": 17.53 }, "geometry": { "type": "Polygon", "coordinates": [ [ [ 17.369663027680922, 48.050974901710319 ], [ 17.369622656065548, 48.049944292547977 ], [ 17.369501651875222, 48.048916487673246 ], [ 17.369300346774011, 48.047894304480991 ], [ 17.369019292525216, 48.046880545123187 ], [ 17.368659259478985, 48.045877988823833 ], [ 17.368221234460879, 48.044889384254915 ], [ 17.367706418067026, 48.043917441994431 ], [ 17.367116221373376, 48.042964827087253 ], [ 17.366452262068044, 48.042034151729233 ], [ 17.365716360017331, 48.04112796809487 ], [ 17.364910532277605, 48.040248761328122 ], [ 17.364036987566696, 48.039398942715991 ], [ 17.36309812020993, 48.038580843063492 ], [ 17.362096503577476, 48.03779670628856 ], [ 17.361034883030896, 48.037048683254497 ], [ 17.359916168398325, 48.036338825857037 ], [ 17.358743425998806, 48.035669081382615 ], [ 17.357519870237734, 48.035041287153199 ], [ 17.356248854796412, 48.034457165472801 ], [ 17.354933863439808, 48.033918318889725 ], [ 17.353578500467833, 48.033426225787402 ], [ 17.352186480836178, 48.032982236316535 ], [ 17.350761619973902, 48.032587568679496 ], [ 17.349307823325582, 48.032243305777584 ], [ 17.347829075646779, 48.031950392230272 ], [ 17.3463294300821, 48.031709631774959 ], [ 17.34481299705579, 48.03152168505428 ], [ 17.343283933005377, 48.031387067797269 ], [ 17.341746428989129, 48.031306149399505 ], [ 17.340204699198694, 48.031279151905913 ], [ 17.338662969408258, 48.031306149399505 ], [ 17.337125465392013, 48.031387067797269 ], [ 17.335596401341597, 48.03152168505428 ], [ 17.33407996831529, 48.031709631774959 ], [ 17.332580322750609, 48.031950392230272 ], [ 17.331101575071806, 48.032243305777584 ], [ 17.329647778423489, 48.032587568679496 ], [ 17.328222917561209, 48.032982236316535 ], [ 17.326830897929558, 48.033426225787402 ], [ 17.32547553495758, 48.033918318889725 ], [ 17.324160543600978, 48.034457165472801 ], [ 17.322889528159653, 48.035041287153199 ], [ 17.321665972398584, 48.035669081382615 ], [ 17.320493229999066, 48.036338825857037 ], [ 17.319374515366491, 48.037048683254497 ], [ 17.318312894819915, 48.03779670628856 ], [ 17.317311278187457, 48.038580843063492 ], [ 17.316372410830692, 48.039398942715991 ], [ 17.315498866119782, 48.040248761328122 ], [ 17.314693038380057, 48.04112796809487 ], [ 17.313957136329346, 48.042034151729233 ], [ 17.313293177024011, 48.042964827087253 ], [ 17.312702980330361, 48.043917441994431 ], [ 17.312188163936508, 48.044889384254915 ], [ 17.311750138918402, 48.045877988823833 ], [ 17.311390105872174, 48.046880545123187 ], [ 17.311109051623376, 48.047894304480991 ], [ 17.310907746522169, 48.048916487673246 ], [ 17.310786742331839, 48.049944292547977 ], [ 17.310746370716469, 48.050974901710319 ], [ 17.310786742331839, 48.052005490247552 ], [ 17.310907746522169, 48.053033233472917 ], [ 17.311109051623376, 48.054055314667004 ], [ 17.311390105872174, 48.055068932795329 ], [ 17.311750138918402, 48.056071310181252 ], [ 17.312188163936508, 48.057059700113008 ], [ 17.312702980330361, 48.058031394364193 ], [ 17.313293177024011, 48.058983730607181 ], [ 17.313957136329346, 48.059914099699213 ], [ 17.314693038380057, 48.060819952821326 ], [ 17.315498866119782, 48.061698808450707 ], [ 17.316372410830692, 48.062548259147498 ], [ 17.317311278187457, 48.063365978137639 ], [ 17.318312894819915, 48.064149725673808 ], [ 17.319374515366491, 48.064897355157285 ], [ 17.320493229999066, 48.065606819004167 ], [ 17.321665972398584, 48.066276174239832 ], [ 17.322889528159653, 48.066903587806898 ], [ 17.324160543600978, 48.067487341571962 ], [ 17.32547553495758, 48.068025837017686 ], [ 17.326830897929558, 48.068517599607759 ], [ 17.328222917561209, 48.068961282812673 ], [ 17.329647778423489, 48.06935567178553 ], [ 17.331101575071806, 48.069699686678163 ], [ 17.332580322750609, 48.069992385588307 ], [ 17.33407996831529, 48.07023296713021 ], [ 17.335596401341597, 48.070420772621439 ], [ 17.337125465392013, 48.070555287880282 ], [ 17.338662969408258, 48.070636144628686 ], [ 17.340204699198694, 48.070663121497148 ], [ 17.341746428989129, 48.070636144628686 ], [ 17.343283933005377, 48.070555287880282 ], [ 17.34481299705579, 48.070420772621439 ], [ 17.3463294300821, 48.07023296713021 ], [ 17.347829075646779, 48.069992385588307 ], [ 17.349307823325582, 48.069699686678163 ], [ 17.350761619973902, 48.06935567178553 ], [ 17.352186480836178, 48.068961282812673 ], [ 17.353578500467833, 48.068517599607759 ], [ 17.354933863439808, 48.068025837017686 ], [ 17.356248854796412, 48.067487341571962 ], [ 17.357519870237734, 48.066903587806898 ], [ 17.358743425998806, 48.066276174239832 ], [ 17.359916168398325, 48.065606819004167 ], [ 17.361034883030896, 48.064897355157285 ], [ 17.362096503577476, 48.064149725673808 ], [ 17.36309812020993, 48.063365978137639 ], [ 17.364036987566696, 48.062548259147498 ], [ 17.364910532277605, 48.061698808450707 ], [ 17.365716360017331, 48.060819952821326 ], [ 17.366452262068044, 48.059914099699213 ], [ 17.367116221373376, 48.058983730607181 ], [ 17.367706418067026, 48.058031394364193 ], [ 17.368221234460879, 48.057059700113008 ], [ 17.368659259478985, 48.056071310181252 ], [ 17.369019292525216, 48.055068932795329 ], [ 17.369300346774011, 48.054055314667004 ], [ 17.369501651875222, 48.053033233472917 ], [ 17.369622656065548, 48.052005490247552 ], [ 17.369663027680922, 48.050974901710319 ] ] ] } },
{ "type": "Feature", "properties": { "name": "Kvetoslavov", "feature_type": "mrr", "metric_roundness": 51.9, "metric_rectangularity": 67.13, "metric_mobile_fit": 22.49, "metric_aspect_ratio": 1.338, "metric_area_km2": 17.53 }, "geometry": { "type": "Polygon", "coordinates": [ [ [ 17.341961822494753, 48.03130105396604 ], [ 17.308469428799537, 48.056711311938493 ], [ 17.339672094848154, 48.075086189217195 ], [ 17.373164488543374, 48.049684999298165 ], [ 17.341961822494753, 48.03130105396604 ] ] ] } }
]
}
