{
"type": "FeatureCollection",
"name": "haghig",
"crs": { "type": "name", "properties": { "name": "urn:ogc:def:crs:OGC:1.3:CRS84" } },
"features": [
{ "type": "Feature", "properties": { "name": "Hăghig", "metric_roundness": 56.08, "metric_rectangularity": 62.94, "metric_mobile_fit": 52.24, "metric_aspect_ratio": 1.04, "metric_area_km2": 96.81 }, "geometry": { "type": "Polygon", "coordinates": [ [ [ 25.5635039, 45.8608131 ], [ 25.5624489, 45.849767799999988 ], [ 25.566402, 45.8467506 ], [ 25.5646021, 45.8428079 ], [ 25.5683045, 45.8367941 ], [ 25.5845398, 45.8282151 ], [ 25.6030549, 45.828502799999988 ], [ 25.6089456, 45.8249873 ], [ 25.6129851, 45.8280563 ], [ 25.6237795, 45.824049 ], [ 25.6320151, 45.8238221 ], [ 25.6384631, 45.8275329 ], [ 25.637033, 45.845525599999981 ], [ 25.6467295, 45.855975099999988 ], [ 25.6618557, 45.863537 ], [ 25.673227, 45.893946 ], [ 25.6488254, 45.901666299999988 ], [ 25.639613, 45.900989 ], [ 25.6413292, 45.897302 ], [ 25.6390855, 45.894937299999988 ], [ 25.6016511, 45.8865669 ], [ 25.5969901, 45.878991699999986 ], [ 25.5880832, 45.8731347 ], [ 25.5819801, 45.874878899999985 ], [ 25.5890232, 45.880640799999981 ], [ 25.5849961, 45.882807 ], [ 25.5593021, 45.876317399999984 ], [ 25.556963, 45.873133 ], [ 25.5635039, 45.8608131 ] ] ] } }
]
}
