{
"type": "FeatureCollection",
"name": "hainewalde",
"crs": { "type": "name", "properties": { "name": "urn:ogc:def:crs:OGC:1.3:CRS84" } },
"features": [
{ "type": "Feature", "properties": { "name": "Hainewalde", "feature_type": "entity", "metric_roundness": 46.43, "metric_rectangularity": 56.88, "metric_mobile_fit": 53.23, "metric_aspect_ratio": 1.03, "metric_area_km2": 32.74 }, "geometry": { "type": "Polygon", "coordinates": [ [ [ 14.722385, 50.906263 ], [ 14.718194, 50.9134817 ], [ 14.7296961, 50.921829 ], [ 14.714075, 50.9310785 ], [ 14.7064325, 50.9351855 ], [ 14.704426, 50.934293499999988 ], [ 14.7020485, 50.933235 ], [ 14.6969255, 50.930961 ], [ 14.6944265, 50.9298515 ], [ 14.6854285, 50.929698 ], [ 14.67938, 50.925716499999986 ], [ 14.677197, 50.925227 ], [ 14.6753775, 50.924814499999989 ], [ 14.6731005, 50.923752 ], [ 14.6677935, 50.923564 ], [ 14.6637745, 50.924059499999984 ], [ 14.6567245, 50.9264855 ], [ 14.655019, 50.927554 ], [ 14.6517725, 50.9266515 ], [ 14.6701078, 50.9201279 ], [ 14.6760242, 50.9052858 ], [ 14.6869778, 50.899718 ], [ 14.687503, 50.8936092 ], [ 14.697968, 50.8874925 ], [ 14.722385, 50.906263 ] ] ] } },
{ "type": "Feature", "properties": { "name": "Hainewalde", "feature_type": "circle", "metric_roundness": 46.43, "metric_rectangularity": 56.88, "metric_mobile_fit": 53.23, "metric_aspect_ratio": 1.03, "metric_area_km2": 32.74 }, "geometry": { "type": "Polygon", "coordinates": [ [ [ 14.731670337325314, 50.91375088048796 ], [ 14.731611997113992, 50.912346177278572 ], [ 14.731437136386498, 50.910945282040466 ], [ 14.731146234423923, 50.909552035050218 ], [ 14.730740088568334, 50.908170255961828 ], [ 14.730219812037285, 50.906803733327813 ], [ 14.729586830872584, 50.905456214202083 ], [ 14.728842880031607, 50.904131393852886 ], [ 14.727989998631902, 50.902832905614567 ], [ 14.727030524362089, 50.901564310905869 ], [ 14.725967087074466, 50.900329089442586 ], [ 14.724802601576709, 50.899130629671546 ], [ 14.723540259642629, 50.897972219452519 ], [ 14.722183521263721, 50.896857037014037 ], [ 14.720736105165575, 50.89578814220792 ], [ 14.719201978615114, 50.894768468087342 ], [ 14.717585346546567, 50.89380081283138 ], [ 14.715890640036074, 50.892887832039158 ], [ 14.714122504156375, 50.892032031414466 ], [ 14.712285785245014, 50.891235759861857 ], [ 14.710385517620864, 50.890501203013251 ], [ 14.708426909785391, 50.889830377203175 ], [ 14.706415330146536, 50.889225123909675 ], [ 14.704356292304263, 50.888687104676322 ], [ 14.702255439938178, 50.888217796529766 ], [ 14.700118531338584, 50.887818487905449 ], [ 14.697951423623419, 50.887490275093171 ], [ 14.695760056684298, 50.88723405921241 ], [ 14.693550436905685, 50.887050543725771 ], [ 14.691328620701793, 50.886940232497821 ], [ 14.689100697916412, 50.886903428404622 ], [ 14.686872775131032, 50.886940232497821 ], [ 14.68465095892714, 50.887050543725771 ], [ 14.682441339148527, 50.88723405921241 ], [ 14.680249972209406, 50.887490275093171 ], [ 14.678082864494241, 50.887818487905449 ], [ 14.675945955894647, 50.888217796529766 ], [ 14.673845103528564, 50.888687104676322 ], [ 14.671786065686289, 50.889225123909675 ], [ 14.669774486047434, 50.889830377203175 ], [ 14.667815878211963, 50.890501203013251 ], [ 14.665915610587808, 50.891235759861857 ], [ 14.66407889167645, 50.892032031414466 ], [ 14.662310755796751, 50.892887832039158 ], [ 14.660616049286258, 50.89380081283138 ], [ 14.658999417217711, 50.894768468087342 ], [ 14.65746529066725, 50.89578814220792 ], [ 14.656017874569104, 50.896857037014037 ], [ 14.654661136190196, 50.897972219452519 ], [ 14.653398794256116, 50.899130629671546 ], [ 14.652234308758359, 50.900329089442586 ], [ 14.651170871470732, 50.901564310905869 ], [ 14.650211397200925, 50.902832905614567 ], [ 14.649358515801218, 50.904131393852886 ], [ 14.648614564960241, 50.905456214202083 ], [ 14.64798158379554, 50.906803733327813 ], [ 14.647461307264493, 50.908170255961828 ], [ 14.647055161408899, 50.909552035050218 ], [ 14.646764259446327, 50.910945282040466 ], [ 14.646589398718833, 50.912346177278572 ], [ 14.646531058507511, 50.91375088048796 ], [ 14.646589398718833, 50.915155541301054 ], [ 14.646764259446327, 50.916556309814773 ], [ 14.647055161408899, 50.917949347140976 ], [ 14.647461307264493, 50.919330835922771 ], [ 14.64798158379554, 50.920696990788308 ], [ 14.648614564960241, 50.922044068713035 ], [ 14.649358515801218, 50.923368379262591 ], [ 14.650211397200925, 50.924666294688073 ], [ 14.651170871470732, 50.925934259846642 ], [ 14.652234308758359, 50.927168801919962 ], [ 14.653398794256116, 50.928366539904758 ], [ 14.654661136190196, 50.929524193849275 ], [ 14.656017874569104, 50.930638593810919 ], [ 14.65746529066725, 50.931706688510822 ], [ 14.658999417217711, 50.93272555366196 ], [ 14.660616049286258, 50.933692399948477 ], [ 14.662310755796751, 50.934604580634513 ], [ 14.66407889167645, 50.935459598782387 ], [ 14.665915610587808, 50.936255114060515 ], [ 14.667815878211963, 50.93698894912292 ], [ 14.669774486047434, 50.937659095543076 ], [ 14.671786065686289, 50.938263719286503 ], [ 14.673845103528564, 50.938801165707083 ], [ 14.675945955894647, 50.939269964054041 ], [ 14.678082864494241, 50.939668831477398 ], [ 14.680249972209406, 50.939996676521233 ], [ 14.682441339148527, 50.940252602095434 ], [ 14.68465095892714, 50.940435907918058 ], [ 14.686872775131032, 50.940546092421648 ], [ 14.689100697916412, 50.940582854118553 ], [ 14.691328620701793, 50.940546092421648 ], [ 14.693550436905685, 50.940435907918058 ], [ 14.695760056684298, 50.940252602095434 ], [ 14.697951423623419, 50.939996676521233 ], [ 14.700118531338584, 50.939668831477398 ], [ 14.702255439938178, 50.939269964054041 ], [ 14.704356292304263, 50.938801165707083 ], [ 14.706415330146536, 50.938263719286503 ], [ 14.708426909785391, 50.937659095543076 ], [ 14.710385517620864, 50.93698894912292 ], [ 14.712285785245014, 50.936255114060515 ], [ 14.714122504156375, 50.935459598782387 ], [ 14.715890640036074, 50.934604580634513 ], [ 14.717585346546567, 50.933692399948477 ], [ 14.719201978615114, 50.93272555366196 ], [ 14.720736105165575, 50.931706688510822 ], [ 14.722183521263721, 50.930638593810919 ], [ 14.723540259642629, 50.929524193849275 ], [ 14.724802601576709, 50.928366539904758 ], [ 14.725967087074466, 50.927168801919962 ], [ 14.727030524362089, 50.925934259846642 ], [ 14.727989998631902, 50.924666294688073 ], [ 14.728842880031607, 50.923368379262591 ], [ 14.729586830872584, 50.922044068713035 ], [ 14.730219812037285, 50.920696990788308 ], [ 14.730740088568334, 50.919330835922771 ], [ 14.731146234423923, 50.917949347140976 ], [ 14.731437136386498, 50.916556309814773 ], [ 14.731611997113992, 50.915155541301054 ], [ 14.731670337325314, 50.91375088048796 ] ] ] } },
{ "type": "Feature", "properties": { "name": "Hainewalde", "feature_type": "mrr", "metric_roundness": 46.43, "metric_rectangularity": 56.88, "metric_mobile_fit": 53.23, "metric_aspect_ratio": 1.03, "metric_area_km2": 32.74 }, "geometry": { "type": "Polygon", "coordinates": [ [ [ 14.695337504328281, 50.886361017678233 ], [ 14.6517725, 50.9266515 ], [ 14.701405332286107, 50.947977398482948 ], [ 14.744970314856047, 50.90770537919262 ], [ 14.695337504328281, 50.886361017678233 ] ] ] } }
]
}
