{
"type": "FeatureCollection",
"name": "haj_ve_slezsku",
"crs": { "type": "name", "properties": { "name": "urn:ogc:def:crs:OGC:1.3:CRS84" } },
"features": [
{ "type": "Feature", "properties": { "name": "Háj ve Slezsku", "metric_roundness": 29.12, "metric_rectangularity": 64.21, "metric_mobile_fit": -59.19, "metric_aspect_ratio": 2.154, "metric_area_km2": 32.42 }, "geometry": { "type": "Polygon", "coordinates": [ [ [ 18.1204284, 49.8887746 ], [ 18.1422622, 49.8905438 ], [ 18.1467615, 49.893397 ], [ 18.1423973, 49.8985873 ], [ 18.129183, 49.9026575 ], [ 18.1213689, 49.9026901 ], [ 18.1095959, 49.9080345 ], [ 18.080461, 49.905155199999989 ], [ 18.0678615, 49.9076785 ], [ 18.0615751, 49.9073263 ], [ 18.0474765, 49.9141763 ], [ 18.0444505, 49.9115695 ], [ 18.0429845, 49.902634499999969 ], [ 18.0408427, 49.8935385 ], [ 18.072816, 49.8941175 ], [ 18.082491, 49.891171 ], [ 18.0982584, 49.8839668 ], [ 18.118432, 49.8825075 ], [ 18.1204284, 49.8887746 ] ] ] } }
]
}
