{
"type": "FeatureCollection",
"name": "hal_ghaxaq",
"crs": { "type": "name", "properties": { "name": "urn:ogc:def:crs:OGC:1.3:CRS84" } },
"features": [
{ "type": "Feature", "properties": { "name": "Ħal Għaxaq", "feature_type": "entity", "metric_roundness": 41.87, "metric_rectangularity": 62.36, "metric_mobile_fit": 93.78, "metric_aspect_ratio": 0.625, "metric_area_km2": 5.79 }, "geometry": { "type": "Polygon", "coordinates": [ [ [ 14.5071776, 35.8407493 ], [ 14.504496, 35.838851499999976 ], [ 14.5094865, 35.834785 ], [ 14.507979, 35.83337 ], [ 14.510368, 35.831451 ], [ 14.5248502, 35.839146299999989 ], [ 14.527912, 35.843872 ], [ 14.526729, 35.846771 ], [ 14.522468, 35.8535995 ], [ 14.5155155, 35.861492499999983 ], [ 14.51454, 35.861835 ], [ 14.5114985, 35.857204 ], [ 14.5071776, 35.8407493 ] ] ] } },
{ "type": "Feature", "properties": { "name": "Ħal Għaxaq", "feature_type": "circle", "metric_roundness": 41.87, "metric_rectangularity": 62.36, "metric_mobile_fit": 93.78, "metric_aspect_ratio": 0.625, "metric_area_km2": 5.79 }, "geometry": { "type": "Polygon", "coordinates": [ [ [ 14.531311695391105, 35.846644455096175 ], [ 14.531285851574966, 35.845844453625965 ], [ 14.531208390962641, 35.845046636867501 ], [ 14.531079525868291, 35.844253191680195 ], [ 14.530899609502178, 35.843466293006152 ], [ 14.530669135002563, 35.842688097907001 ], [ 14.530388734084021, 35.841920739649005 ], [ 14.530059175305983, 35.841166321852825 ], [ 14.529681361966153, 35.840426912723821 ], [ 14.529256329624634, 35.839704539378943 ], [ 14.528785243265528, 35.839001182285543 ], [ 14.528269394103802, 35.83831876982773 ], [ 14.527710196046149, 35.837659173014941 ], [ 14.527109181815584, 35.837024200347486 ], [ 14.526467998750331, 35.836415592853086 ], [ 14.525788404288603, 35.835835019308099 ], [ 14.52507226115158, 35.83528407165673 ], [ 14.524321532237829, 35.83476426064064 ], [ 14.523538275243117, 35.834277011651203 ], [ 14.522724637020421, 35.833823660815789 ], [ 14.521882847695554, 35.833405451328701 ], [ 14.521015214554545, 35.83302353003738 ], [ 14.520124115719524, 35.832678944292667 ], [ 14.51921199363046, 35.832372639072247 ], [ 14.518281348350598, 35.832105454385271 ], [ 14.517334730713962, 35.831878122964916 ], [ 14.51637473533369, 35.831691268255696 ], [ 14.515403993490398, 35.83154540270089 ], [ 14.514425165920001, 35.831440926334793 ], [ 14.513440935520832, 35.831378125683756 ], [ 14.512454, 35.831357172979054 ], [ 14.511467064479168, 35.831378125683756 ], [ 14.510482834079996, 35.831440926334793 ], [ 14.509504006509598, 35.83154540270089 ], [ 14.508533264666307, 35.831691268255696 ], [ 14.50757326928604, 35.831878122964916 ], [ 14.506626651649402, 35.832105454385271 ], [ 14.50569600636954, 35.832372639072247 ], [ 14.504783884280476, 35.832678944292667 ], [ 14.503892785445455, 35.83302353003738 ], [ 14.503025152304446, 35.833405451328701 ], [ 14.502183362979579, 35.833823660815789 ], [ 14.501369724756882, 35.834277011651203 ], [ 14.500586467762171, 35.83476426064064 ], [ 14.499835738848416, 35.83528407165673 ], [ 14.499119595711397, 35.835835019308099 ], [ 14.498440001249669, 35.836415592853086 ], [ 14.497798818184416, 35.837024200347486 ], [ 14.497197803953847, 35.837659173014941 ], [ 14.496638605896198, 35.83831876982773 ], [ 14.496122756734472, 35.839001182285543 ], [ 14.495651670375366, 35.839704539378943 ], [ 14.495226638033843, 35.840426912723821 ], [ 14.494848824694015, 35.841166321852825 ], [ 14.494519265915976, 35.841920739649005 ], [ 14.494238864997437, 35.842688097907001 ], [ 14.494008390497818, 35.843466293006152 ], [ 14.493828474131707, 35.844253191680195 ], [ 14.493699609037355, 35.845046636867501 ], [ 14.493622148425034, 35.845844453625965 ], [ 14.493596304608895, 35.846644455096175 ], [ 14.493622148425034, 35.847444448496461 ], [ 14.493699609037355, 35.84824224113359 ], [ 14.493828474131707, 35.849035646412439 ], [ 14.494008390497818, 35.849822489828114 ], [ 14.494238864997437, 35.850600614924439 ], [ 14.494519265915976, 35.851367889202109 ], [ 14.494848824694015, 35.852122209960562 ], [ 14.495226638033843, 35.852861510057586 ], [ 14.495651670375366, 35.853583763570853 ], [ 14.496122756734472, 35.854286991345887 ], [ 14.496638605896198, 35.854969266415424 ], [ 14.497197803953847, 35.855628719275259 ], [ 14.497798818184416, 35.856263543002285 ], [ 14.498440001249669, 35.856871998200603 ], [ 14.499119595711397, 35.857452417762438 ], [ 14.499835738848416, 35.858003211430642 ], [ 14.500586467762171, 35.858522870150644 ], [ 14.501369724756882, 35.859009970199651 ], [ 14.502183362979579, 35.859463177082148 ], [ 14.503025152304446, 35.859881249180944 ], [ 14.503892785445455, 35.860263041153893 ], [ 14.504783884280476, 35.860607507067002 ], [ 14.50569600636954, 35.860913703255463 ], [ 14.506626651649402, 35.861180790904712 ], [ 14.50757326928604, 35.861408038344742 ], [ 14.508533264666307, 35.861594823051135 ], [ 14.509504006509598, 35.861740633347573 ], [ 14.510482834079996, 35.86184506980522 ], [ 14.511467064479168, 35.86190784633493 ], [ 14.512454, 35.861928790969714 ], [ 14.513440935520832, 35.86190784633493 ], [ 14.514425165920001, 35.86184506980522 ], [ 14.515403993490398, 35.861740633347573 ], [ 14.51637473533369, 35.861594823051135 ], [ 14.517334730713962, 35.861408038344742 ], [ 14.518281348350598, 35.861180790904712 ], [ 14.51921199363046, 35.860913703255463 ], [ 14.520124115719524, 35.860607507067002 ], [ 14.521015214554545, 35.860263041153893 ], [ 14.521882847695554, 35.859881249180944 ], [ 14.522724637020421, 35.859463177082148 ], [ 14.523538275243117, 35.859009970199651 ], [ 14.524321532237829, 35.858522870150644 ], [ 14.52507226115158, 35.858003211430642 ], [ 14.525788404288603, 35.857452417762438 ], [ 14.526467998750331, 35.856871998200603 ], [ 14.527109181815584, 35.856263543002285 ], [ 14.527710196046149, 35.855628719275259 ], [ 14.528269394103802, 35.854969266415424 ], [ 14.528785243265528, 35.854286991345887 ], [ 14.529256329624634, 35.853583763570853 ], [ 14.529681361966153, 35.852861510057586 ], [ 14.530059175305983, 35.852122209960562 ], [ 14.530388734084021, 35.851367889202109 ], [ 14.530669135002563, 35.850600614924439 ], [ 14.530899609502178, 35.849822489828114 ], [ 14.531079525868291, 35.849035646412439 ], [ 14.531208390962641, 35.84824224113359 ], [ 14.531285851574966, 35.847444448496461 ], [ 14.531311695391105, 35.846644455096175 ] ] ] } },
{ "type": "Feature", "properties": { "name": "Ħal Għaxaq", "feature_type": "mrr", "metric_roundness": 41.87, "metric_rectangularity": 62.36, "metric_mobile_fit": 93.78, "metric_aspect_ratio": 0.625, "metric_area_km2": 5.79 }, "geometry": { "type": "Polygon", "coordinates": [ [ [ 14.531358697547844, 35.842604430906754 ], [ 14.509782113713786, 35.831139667784065 ], [ 14.493850328631387, 35.85084419951869 ], [ 14.515426912465445, 35.862306114648241 ], [ 14.531358697547844, 35.842604430906754 ] ] ] } }
]
}
