{
"type": "FeatureCollection",
"name": "halfing",
"crs": { "type": "name", "properties": { "name": "urn:ogc:def:crs:OGC:1.3:CRS84" } },
"features": [
{ "type": "Feature", "properties": { "name": "Halfing", "metric_roundness": 59.72, "metric_rectangularity": 60.81, "metric_mobile_fit": 69.39, "metric_aspect_ratio": 0.869, "metric_area_km2": 51.19 }, "geometry": { "type": "Polygon", "coordinates": [ [ [ 12.2323013, 47.967054199999971 ], [ 12.230275, 47.957993 ], [ 12.2257805, 47.9491074 ], [ 12.2289655, 47.944459499999986 ], [ 12.2515164, 47.9493152 ], [ 12.2488041, 47.940156 ], [ 12.2619861, 47.9286683 ], [ 12.254196, 47.9256415 ], [ 12.2659229, 47.920134399999988 ], [ 12.290903, 47.9285685 ], [ 12.2871768, 47.934107 ], [ 12.292701, 47.9368562 ], [ 12.2921046, 47.9414579 ], [ 12.301355, 47.945413699999982 ], [ 12.3019115, 47.962149 ], [ 12.304806, 47.9657355 ], [ 12.2910022, 47.96653569999998 ], [ 12.2889403, 47.976198399999987 ], [ 12.2826583, 47.9810724 ], [ 12.278712, 47.980917 ], [ 12.2790577, 47.9784726 ], [ 12.2619473, 47.971909599999989 ], [ 12.2358915, 47.972186699999988 ], [ 12.227727, 47.969326 ], [ 12.2323013, 47.967054199999971 ] ] ] } }
]
}
