{
"type": "FeatureCollection",
"name": "hamar",
"crs": { "type": "name", "properties": { "name": "urn:ogc:def:crs:OGC:1.3:CRS84" } },
"features": [
{ "type": "Feature", "properties": { "name": "Hamar", "feature_type": "entity", "metric_roundness": 15.71, "metric_rectangularity": 42.59, "metric_mobile_fit": 74.47, "metric_aspect_ratio": 0.307, "metric_area_km2": 1484.86 }, "geometry": { "type": "Polygon", "coordinates": [ [ [ 11.0332917, 61.1025013 ], [ 11.1149379, 61.0234634 ], [ 11.1112761, 61.0104889 ], [ 11.082678, 60.969071299999982 ], [ 11.0856271, 60.8986289 ], [ 11.1039793, 60.889860599999984 ], [ 11.1156147, 60.8740635 ], [ 11.1142326, 60.868496199999981 ], [ 11.0980953, 60.854211299999982 ], [ 11.0805598, 60.847241499999974 ], [ 11.0791499, 60.844139699999985 ], [ 11.0840628, 60.835444 ], [ 11.0705019, 60.8289799 ], [ 11.0617921, 60.8165589 ], [ 11.0547279, 60.8173316 ], [ 11.0534861, 60.8247387 ], [ 11.0430153, 60.8278593 ], [ 11.0240498, 60.82118759999998 ], [ 10.9870725, 60.816838799999985 ], [ 11.027777, 60.774932 ], [ 11.0646535, 60.781929 ], [ 11.080542, 60.7840321 ], [ 11.1062135, 60.791999799999985 ], [ 11.1346478, 60.79146609999998 ], [ 11.1686985, 60.782527799999983 ], [ 11.1672321, 60.774782 ], [ 11.1795825, 60.769841799999988 ], [ 11.1893388, 60.7725024 ], [ 11.2000722, 60.76992689999998 ], [ 11.2086934, 60.777055499999982 ], [ 11.219301, 60.7758142 ], [ 11.2378901, 60.78182349999998 ], [ 11.241674, 60.787621 ], [ 11.2386352, 60.8104656 ], [ 11.259301, 60.81546789999998 ], [ 11.2616904, 60.8231 ], [ 11.2743993, 60.8363461 ], [ 11.2722945, 60.846937899999986 ], [ 11.2790946, 60.85275739999998 ], [ 11.2718408, 60.87793629999998 ], [ 11.2479752, 60.912381899999986 ], [ 11.2202079, 60.944157499999989 ], [ 11.2284204, 61.0340412 ], [ 11.237916, 61.055259 ], [ 11.2323765, 61.05994 ], [ 11.209399, 61.070497499999988 ], [ 11.1529225, 61.096156 ], [ 11.1503215, 61.1031145 ], [ 11.1439605, 61.104485 ], [ 11.124865, 61.115873 ], [ 11.1100185, 61.1280165 ], [ 11.104306, 61.132552 ], [ 11.080542, 61.1517518 ], [ 11.068477, 61.1614995 ], [ 11.062706, 61.1673785 ], [ 11.0315145, 61.196117 ], [ 11.026559, 61.201688599999983 ], [ 11.0241237, 61.204568499999979 ], [ 10.983661, 61.2360445 ], [ 11.0332917, 61.1025013 ] ] ] } },
{ "type": "Feature", "properties": { "name": "Hamar", "feature_type": "circle", "metric_roundness": 15.71, "metric_rectangularity": 42.59, "metric_mobile_fit": 74.47, "metric_aspect_ratio": 0.307, "metric_area_km2": 1484.86 }, "geometry": { "type": "Polygon", "coordinates": [ [ [ 11.584670234256413, 61.003840941231182 ], [ 11.583994864002845, 60.991336097690116 ], [ 11.581970604385061, 60.978860625509213 ], [ 11.578603003757967, 60.966448778225242 ], [ 11.573901292480809, 60.954134674604333 ], [ 11.567878357617381, 60.941952204059689 ], [ 11.560550707613494, 60.929934932274314 ], [ 11.551938427048473, 60.918116007303006 ], [ 11.542065121584711, 60.906528066431981 ], [ 11.530957853266202, 60.895203144075481 ], [ 11.51864706634335, 60.884172580991354 ], [ 11.505166503827393, 60.873466935096047 ], [ 11.490553115003175, 60.86311589416021 ], [ 11.474846954153691, 60.853148190662317 ], [ 11.458091070774108, 60.843591519075517 ], [ 11.440331391576084, 60.834472455857714 ], [ 11.421616594605844, 60.825816382409315 ], [ 11.401997975821029, 60.817647411256196 ], [ 11.381529308492054, 60.809988315706732 ], [ 11.36026669581331, 60.802860463222949 ], [ 11.338268417128205, 60.796283752734823 ], [ 11.315594768189534, 60.79027655611489 ], [ 11.292307895893009, 60.784855664017982 ], [ 11.268471627936945, 60.780036236276516 ], [ 11.244151297874968, 60.775831757026801 ], [ 11.219413566041299, 60.772253994726633 ], [ 11.194326236839389, 60.769312967206922 ], [ 11.168958072894787, 60.767016911883097 ], [ 11.143378606581539, 60.765372261233949 ], [ 11.11765794943881, 60.764383623636562 ], [ 11.0918666, 60.76405376962699 ], [ 11.066075250561195, 60.764383623636562 ], [ 11.040354593418463, 60.765372261233949 ], [ 11.014775127105219, 60.767016911883097 ], [ 10.989406963160615, 60.769312967206922 ], [ 10.964319633958707, 60.772253994726633 ], [ 10.939581902125035, 60.775831757026801 ], [ 10.915261572063059, 60.780036236276516 ], [ 10.891425304106995, 60.784855664017982 ], [ 10.86813843181047, 60.79027655611489 ], [ 10.845464782871797, 60.796283752734823 ], [ 10.823466504186692, 60.802860463222949 ], [ 10.802203891507949, 60.809988315706732 ], [ 10.781735224178975, 60.817647411256196 ], [ 10.76211660539416, 60.825816382409315 ], [ 10.743401808423918, 60.834472455857714 ], [ 10.725642129225896, 60.843591519075517 ], [ 10.708886245846315, 60.853148190662317 ], [ 10.693180084996829, 60.86311589416021 ], [ 10.678566696172609, 60.873466935096047 ], [ 10.665086133656654, 60.884172580991354 ], [ 10.652775346733801, 60.895203144075481 ], [ 10.641668078415293, 60.906528066431981 ], [ 10.631794772951531, 60.918116007303006 ], [ 10.623182492386508, 60.929934932274314 ], [ 10.615854842382621, 60.941952204059689 ], [ 10.609831907519194, 60.954134674604333 ], [ 10.605130196242035, 60.966448778225242 ], [ 10.601762595614943, 60.978860625509213 ], [ 10.599738335997158, 60.991336097690116 ], [ 10.59906296574359, 61.003840941231182 ], [ 10.599738335997158, 61.016340862341771 ], [ 10.601762595614943, 61.028801621162721 ], [ 10.605130196242035, 61.041189125361171 ], [ 10.609831907519194, 61.053469522880896 ], [ 10.615854842382621, 61.065609293602328 ], [ 10.623182492386508, 61.077575339673871 ], [ 10.631794772951531, 61.089335074283873 ], [ 10.641668078415293, 61.100856508651901 ], [ 10.652775346733801, 61.112108337026797 ], [ 10.665086133656654, 61.123060019487461 ], [ 10.678566696172609, 61.13368186235359 ], [ 10.693180084996829, 61.143945096021241 ], [ 10.708886245846314, 61.153821950049313 ], [ 10.725642129225896, 61.163285725332415 ], [ 10.743401808423918, 61.172310863205226 ], [ 10.76211660539416, 61.180873011333404 ], [ 10.781735224178975, 61.188949086256159 ], [ 10.802203891507949, 61.196517332454505 ], [ 10.823466504186692, 61.203557377828908 ], [ 10.845464782871797, 61.210050285479902 ], [ 10.86813843181047, 61.215978601693209 ], [ 10.891425304106995, 61.22132640004066 ], [ 10.915261572063059, 61.226079321516522 ], [ 10.939581902125035, 61.230224610637116 ], [ 10.964319633958704, 61.233751147440266 ], [ 10.989406963160615, 61.236649475328797 ], [ 11.014775127105217, 61.23891182471025 ], [ 11.040354593418463, 61.240532132392573 ], [ 11.066075250561195, 61.241506056703372 ], [ 11.0918666, 61.24183098830725 ], [ 11.11765794943881, 61.241506056703372 ], [ 11.143378606581537, 61.240532132392573 ], [ 11.168958072894783, 61.23891182471025 ], [ 11.194326236839389, 61.236649475328797 ], [ 11.219413566041297, 61.233751147440266 ], [ 11.244151297874968, 61.230224610637116 ], [ 11.268471627936945, 61.226079321516522 ], [ 11.292307895893009, 61.22132640004066 ], [ 11.315594768189534, 61.215978601693209 ], [ 11.338268417128205, 61.210050285479902 ], [ 11.36026669581331, 61.203557377828908 ], [ 11.381529308492054, 61.196517332454505 ], [ 11.401997975821025, 61.188949086256159 ], [ 11.421616594605844, 61.180873011333404 ], [ 11.440331391576084, 61.172310863205226 ], [ 11.458091070774108, 61.163285725332415 ], [ 11.474846954153689, 61.153821950049313 ], [ 11.490553115003175, 61.143945096021241 ], [ 11.505166503827393, 61.13368186235359 ], [ 11.51864706634335, 61.123060019487461 ], [ 11.530957853266202, 61.112108337026797 ], [ 11.542065121584711, 61.10085650865193 ], [ 11.551938427048473, 61.089335074283873 ], [ 11.560550707613494, 61.077575339673871 ], [ 11.567878357617381, 61.065609293602328 ], [ 11.573901292480809, 61.053469522880896 ], [ 11.578603003757967, 61.041189125361171 ], [ 11.581970604385061, 61.028801621162721 ], [ 11.583994864002845, 61.016340862341771 ], [ 11.584670234256413, 61.003840941231182 ] ] ] } },
{ "type": "Feature", "properties": { "name": "Hamar", "feature_type": "mrr", "metric_roundness": 15.71, "metric_rectangularity": 42.59, "metric_mobile_fit": 74.47, "metric_aspect_ratio": 0.307, "metric_area_km2": 1484.86 }, "geometry": { "type": "Polygon", "coordinates": [ [ [ 10.987455156862458, 60.769471954538538 ], [ 10.983661, 61.2360445 ], [ 11.275969107272736, 61.236598975052388 ], [ 11.279763262041206, 60.770034640423383 ], [ 10.987455156862458, 60.769471954538538 ] ] ] } }
]
}
