{
"type": "FeatureCollection",
"name": "hanshagen",
"crs": { "type": "name", "properties": { "name": "urn:ogc:def:crs:OGC:1.3:CRS84" } },
"features": [
{ "type": "Feature", "properties": { "name": "Hanshagen", "metric_roundness": 45.84, "metric_rectangularity": 70.37, "metric_mobile_fit": 47.82, "metric_aspect_ratio": 1.084, "metric_area_km2": 27.84 }, "geometry": { "type": "Polygon", "coordinates": [ [ [ 13.57181, 54.040222 ], [ 13.576949, 54.044383 ], [ 13.579163, 54.047122499999979 ], [ 13.581975, 54.053642499999988 ], [ 13.58069, 54.056763499999988 ], [ 13.5583388, 54.063401499999976 ], [ 13.5452439, 54.059163 ], [ 13.5391365, 54.051043 ], [ 13.5365468, 54.0471578 ], [ 13.5177822, 54.0417272 ], [ 13.512565, 54.033252499999989 ], [ 13.5256418, 54.035289099999986 ], [ 13.5494822, 54.02581679999998 ], [ 13.5554001, 54.031705699999975 ], [ 13.570411, 54.038642 ], [ 13.57181, 54.040222 ] ] ] } }
]
}
