{
"type": "FeatureCollection",
"name": "harbach",
"crs": { "type": "name", "properties": { "name": "urn:ogc:def:crs:OGC:1.3:CRS84" } },
"features": [
{ "type": "Feature", "properties": { "name": "Harbach", "feature_type": "entity", "metric_roundness": 56.84, "metric_rectangularity": 72.4, "metric_mobile_fit": 39.38, "metric_aspect_ratio": 1.169, "metric_area_km2": 13.83 }, "geometry": { "type": "Polygon", "coordinates": [ [ [ 7.8176546, 50.866969099999984 ], [ 7.8472835, 50.856896 ], [ 7.8571634, 50.859549799999982 ], [ 7.857745, 50.868293 ], [ 7.8550261, 50.873392899999978 ], [ 7.8508335, 50.8777075 ], [ 7.8292635, 50.8823865 ], [ 7.8235254, 50.8797727 ], [ 7.8201334, 50.873392899999978 ], [ 7.8160895, 50.868983 ], [ 7.8105415, 50.86429 ], [ 7.8176546, 50.866969099999984 ] ] ] } },
{ "type": "Feature", "properties": { "name": "Harbach", "feature_type": "circle", "metric_roundness": 56.84, "metric_rectangularity": 72.4, "metric_mobile_fit": 39.38, "metric_aspect_ratio": 1.169, "metric_area_km2": 13.83 }, "geometry": { "type": "Polygon", "coordinates": [ [ [ 7.860168952752563, 50.867052119005933 ], [ 7.860134681949956, 50.8662261313493 ], [ 7.860031963476029, 50.865402393092609 ], [ 7.859861078874976, 50.864583162224754 ], [ 7.859622496529611, 50.863770684497808 ], [ 7.859316870377558, 50.86296718726831 ], [ 7.858945038118858, 50.862174873387723 ], [ 7.858508018919884, 50.86139591515883 ], [ 7.858007010619887, 50.860632448374822 ], [ 7.857443386447789, 50.859886566457249 ], [ 7.856818691258272, 50.859160314709243 ], [ 7.856134637297425, 50.858455684699663 ], [ 7.855393099509607, 50.857774608793846 ], [ 7.854596110398354, 50.857118954845852 ], [ 7.853745854455419, 50.856490521067137 ], [ 7.852844662173243, 50.855891031085491 ], [ 7.851895003657228, 50.855322129208439 ], [ 7.850899481855359, 50.854785375903582 ], [ 7.849860825423695, 50.85428224350899 ], [ 7.84878188124732, 50.853814112185169 ], [ 7.847665606637227, 50.853382266119937 ], [ 7.846515061224526, 50.852987889996882 ], [ 7.845333398574224, 50.852632065736941 ], [ 7.844123857541507, 50.852315769522434 ], [ 7.842889753394273, 50.852039869111572 ], [ 7.841634468726205, 50.851805121451143 ], [ 7.84036144418533, 50.851612170593818 ], [ 7.839074169043422, 50.851461545926 ], [ 7.837776171632171, 50.851353660711133 ], [ 7.836471009672256, 50.851288810952397 ], [ 7.835162260521892, 50.851267174578169 ], [ 7.833853511371526, 50.851288810952397 ], [ 7.832548349411612, 50.851353660711133 ], [ 7.83125035200036, 50.851461545926 ], [ 7.829963076858453, 50.851612170593818 ], [ 7.828690052317578, 50.851805121451143 ], [ 7.827434767649511, 50.852039869111572 ], [ 7.826200663502276, 50.852315769522434 ], [ 7.824991122469559, 50.852632065736941 ], [ 7.823809459819256, 50.852987889996882 ], [ 7.822658914406555, 50.853382266119937 ], [ 7.821542639796461, 50.853814112185169 ], [ 7.820463695620086, 50.85428224350899 ], [ 7.819425039188423, 50.854785375903582 ], [ 7.818429517386553, 50.855322129208439 ], [ 7.81747985887054, 50.855891031085491 ], [ 7.816578666588364, 50.856490521067137 ], [ 7.81572841064543, 50.857118954845852 ], [ 7.814931421534175, 50.857774608793846 ], [ 7.814189883746359, 50.858455684699663 ], [ 7.813505829785512, 50.859160314709243 ], [ 7.812881134595995, 50.859886566457249 ], [ 7.812317510423897, 50.860632448374822 ], [ 7.811816502123898, 50.86139591515883 ], [ 7.811379482924925, 50.862174873387723 ], [ 7.811007650666225, 50.86296718726831 ], [ 7.810702024514173, 50.863770684497808 ], [ 7.810463442168808, 50.864583162224754 ], [ 7.810292557567755, 50.865402393092609 ], [ 7.810189839093827, 50.8662261313493 ], [ 7.810155568291221, 50.867052119005933 ], [ 7.810189839093827, 50.867878092027716 ], [ 7.810292557567755, 50.868701786540228 ], [ 7.810463442168808, 50.869520945033813 ], [ 7.810702024514173, 50.870333322549349 ], [ 7.811007650666225, 50.871136692828266 ], [ 7.811379482924925, 50.871928854409987 ], [ 7.811816502123898, 50.872707636660316 ], [ 7.812317510423897, 50.87347090571415 ], [ 7.812881134595995, 50.874216570316314 ], [ 7.813505829785512, 50.874942587544616 ], [ 7.814189883746359, 50.87564696839965 ], [ 7.814931421534175, 50.87632778324587 ], [ 7.81572841064543, 50.876983167089413 ], [ 7.816578666588364, 50.877611324678206 ], [ 7.81747985887054, 50.878210535410382 ], [ 7.818429517386553, 50.878779158037986 ], [ 7.819425039188423, 50.879315635152885 ], [ 7.820463695620086, 50.879818497443047 ], [ 7.821542639796461, 50.880286367707278 ], [ 7.822658914406555, 50.880717964617972 ], [ 7.823809459819256, 50.881112106221323 ], [ 7.824991122469559, 50.881467713165854 ], [ 7.826200663502276, 50.881783811650195 ], [ 7.827434767649511, 50.882059536082508 ], [ 7.828690052317578, 50.882294131444063 ], [ 7.829963076858453, 50.882486955350814 ], [ 7.83125035200036, 50.882637479807229 ], [ 7.832548349411612, 50.882745292647847 ], [ 7.833853511371526, 50.882810098662404 ], [ 7.835162260521892, 50.882831720401768 ], [ 7.836471009672256, 50.882810098662404 ], [ 7.837776171632171, 50.882745292647847 ], [ 7.839074169043422, 50.882637479807229 ], [ 7.84036144418533, 50.882486955350814 ], [ 7.841634468726205, 50.882294131444063 ], [ 7.842889753394273, 50.882059536082508 ], [ 7.844123857541507, 50.881783811650195 ], [ 7.845333398574224, 50.881467713165854 ], [ 7.846515061224526, 50.881112106221323 ], [ 7.847665606637227, 50.880717964617972 ], [ 7.84878188124732, 50.880286367707278 ], [ 7.849860825423695, 50.879818497443047 ], [ 7.850899481855359, 50.879315635152885 ], [ 7.851895003657228, 50.878779158037986 ], [ 7.852844662173243, 50.878210535410382 ], [ 7.853745854455419, 50.877611324678206 ], [ 7.854596110398354, 50.876983167089413 ], [ 7.855393099509607, 50.87632778324587 ], [ 7.856134637297425, 50.87564696839965 ], [ 7.856818691258272, 50.874942587544616 ], [ 7.857443386447789, 50.874216570316314 ], [ 7.858007010619887, 50.87347090571415 ], [ 7.858508018919884, 50.872707636660316 ], [ 7.858945038118858, 50.871928854409987 ], [ 7.859316870377558, 50.871136692828266 ], [ 7.859622496529611, 50.870333322549349 ], [ 7.859861078874976, 50.869520945033813 ], [ 7.860031963476029, 50.868701786540228 ], [ 7.860134681949956, 50.867878092027716 ], [ 7.860168952752563, 50.867052119005933 ] ] ] } },
{ "type": "Feature", "properties": { "name": "Harbach", "feature_type": "mrr", "metric_roundness": 56.84, "metric_rectangularity": 72.4, "metric_mobile_fit": 39.38, "metric_aspect_ratio": 1.169, "metric_area_km2": 13.83 }, "geometry": { "type": "Polygon", "coordinates": [ [ [ 7.855035139698875, 50.855335900757488 ], [ 7.8105415, 50.86429 ], [ 7.820568212454017, 50.884135497244472 ], [ 7.865061853567723, 50.875185210521039 ], [ 7.855035139698875, 50.855335900757488 ] ] ] } }
]
}
