{
"type": "FeatureCollection",
"name": "harderwijk",
"crs": { "type": "name", "properties": { "name": "urn:ogc:def:crs:OGC:1.3:CRS84" } },
"features": [
{ "type": "Feature", "properties": { "name": "Harderwijk", "feature_type": "entity", "metric_roundness": 59.86, "metric_rectangularity": 62.76, "metric_mobile_fit": 39.65, "metric_aspect_ratio": 1.166, "metric_area_km2": 128.62 }, "geometry": { "type": "Polygon", "coordinates": [ [ [ 5.6536962, 52.3662864 ], [ 5.6435884, 52.3703084 ], [ 5.6207495, 52.364132 ], [ 5.6113855, 52.3604032 ], [ 5.6018064, 52.3633865 ], [ 5.5873417, 52.360861299999989 ], [ 5.5757809, 52.3505734 ], [ 5.565865, 52.33239 ], [ 5.5816885, 52.3229015 ], [ 5.5988774, 52.318523299999981 ], [ 5.6094135, 52.3197337 ], [ 5.6207629, 52.3260648 ], [ 5.6301573, 52.32639589999998 ], [ 5.6765275, 52.3022011 ], [ 5.706153, 52.328415 ], [ 5.7120825, 52.332257 ], [ 5.7113858, 52.3373073 ], [ 5.7060118, 52.3409811 ], [ 5.6993363, 52.3531426 ], [ 5.6990527, 52.359239699999982 ], [ 5.678668, 52.378819 ], [ 5.6536962, 52.3662864 ] ] ] } },
{ "type": "Feature", "properties": { "name": "Harderwijk", "feature_type": "circle", "metric_roundness": 59.86, "metric_rectangularity": 62.76, "metric_mobile_fit": 39.65, "metric_aspect_ratio": 1.166, "metric_area_km2": 128.62 }, "geometry": { "type": "Polygon", "coordinates": [ [ [ 5.713301772261879, 52.340448319308017 ], [ 5.713199935416057, 52.338072204419241 ], [ 5.712894704006311, 52.335702475142803 ], [ 5.712386914650717, 52.333345628306823 ], [ 5.711677959164604, 52.33100812645565 ], [ 5.710769780745678, 52.328696380108113 ], [ 5.709664868647859, 52.326416730147464 ], [ 5.708366251358409, 52.324175430391676 ], [ 5.706877488297049, 52.32197863039238 ], [ 5.705202660059848, 52.319832358510318 ], [ 5.70334635723459, 52.317742505314449 ], [ 5.701313667818288, 52.315714807350965 ], [ 5.699110163271341, 52.313754831327792 ], [ 5.69674188324655, 52.311867958758739 ], [ 5.694215319034844, 52.310059371110697 ], [ 5.691537395773109, 52.308334035495463 ], [ 5.688715453462866, 52.306696690946801 ], [ 5.685757226851834, 52.305151835321411 ], [ 5.682670824233533, 52.303703712860859 ], [ 5.679464705223004, 52.302356302449951 ], [ 5.676147657569603, 52.301113306604805 ], [ 5.672728773070379, 52.299978141221885 ], [ 5.669217422650106, 52.298953926117449 ], [ 5.665623230676211, 52.298043476384144 ], [ 5.661956048579064, 52.297249294589648 ], [ 5.658225927849895, 52.296573563839672 ], [ 5.654443092490342, 52.296018141724979 ], [ 5.650617910989186, 52.295584555170088 ], [ 5.646760867903033, 52.295273996198141 ], [ 5.642882535118887, 52.295087318624319 ], [ 5.638993542877326, 52.29502503568709 ], [ 5.635104550635766, 52.295087318624319 ], [ 5.631226217851619, 52.295273996198141 ], [ 5.627369174765467, 52.295584555170088 ], [ 5.623543993264311, 52.296018141724979 ], [ 5.619761157904757, 52.296573563839672 ], [ 5.616031037175587, 52.297249294589648 ], [ 5.612363855078441, 52.298043476384144 ], [ 5.608769663104547, 52.298953926117449 ], [ 5.605258312684272, 52.299978141221885 ], [ 5.60183942818505, 52.301113306604805 ], [ 5.598522380531649, 52.302356302449951 ], [ 5.59531626152112, 52.303703712860859 ], [ 5.592229858902819, 52.305151835321411 ], [ 5.589271632291787, 52.306696690946801 ], [ 5.586449689981544, 52.308334035495463 ], [ 5.583771766719809, 52.310059371110697 ], [ 5.581245202508103, 52.311867958758739 ], [ 5.578876922483311, 52.313754831327792 ], [ 5.576673417936365, 52.315714807350965 ], [ 5.574640728520063, 52.317742505314449 ], [ 5.572784425694804, 52.319832358510318 ], [ 5.571109597457604, 52.32197863039238 ], [ 5.569620834396245, 52.324175430391676 ], [ 5.568322217106793, 52.326416730147464 ], [ 5.567217305008975, 52.328696380108113 ], [ 5.566309126590049, 52.33100812645565 ], [ 5.565600171103934, 52.333345628306823 ], [ 5.565092381748341, 52.335702475142803 ], [ 5.564787150338595, 52.338072204419241 ], [ 5.564685313492774, 52.340448319308017 ], [ 5.564787150338595, 52.342824306521692 ], [ 5.565092381748341, 52.34519365417168 ], [ 5.565600171103934, 52.347549869611022 ], [ 5.566309126590049, 52.349886497213113 ], [ 5.567217305008975, 52.35219713603756 ], [ 5.568322217106793, 52.354475457335369 ], [ 5.569620834396245, 52.356715221845704 ], [ 5.571109597457604, 52.358910296837408 ], [ 5.572784425694804, 52.361054672849264 ], [ 5.574640728520063, 52.363142480083901 ], [ 5.576673417936365, 52.365168004411096 ], [ 5.578876922483311, 52.367125702937756 ], [ 5.581245202508103, 52.369010219102776 ], [ 5.583771766719809, 52.370816397256569 ], [ 5.586449689981544, 52.37253929668622 ], [ 5.589271632291787, 52.374174205049336 ], [ 5.592229858902819, 52.375716651180603 ], [ 5.59531626152112, 52.377162417237351 ], [ 5.598522380531649, 52.378507550152015 ], [ 5.60183942818505, 52.37974837236122 ], [ 5.605258312684272, 52.380881491783292 ], [ 5.608769663104547, 52.381903811017935 ], [ 5.612363855078441, 52.382812535744073 ], [ 5.616031037175587, 52.383605182293515 ], [ 5.619761157904757, 52.384279584381055 ], [ 5.623543993264311, 52.384833898973 ], [ 5.627369174765467, 52.385266611279086 ], [ 5.631226217851619, 52.385576538854608 ], [ 5.635104550635766, 52.385762834802108 ], [ 5.638993542877326, 52.385824990064286 ], [ 5.642882535118887, 52.385762834802108 ], [ 5.646760867903033, 52.385576538854608 ], [ 5.650617910989186, 52.385266611279086 ], [ 5.654443092490342, 52.384833898973 ], [ 5.658225927849895, 52.384279584381055 ], [ 5.661956048579064, 52.383605182293515 ], [ 5.66562323067621, 52.382812535744073 ], [ 5.669217422650106, 52.381903811017935 ], [ 5.672728773070379, 52.380881491783292 ], [ 5.676147657569603, 52.37974837236122 ], [ 5.679464705223004, 52.378507550152015 ], [ 5.682670824233533, 52.377162417237351 ], [ 5.685757226851834, 52.375716651180603 ], [ 5.688715453462866, 52.374174205049336 ], [ 5.691537395773109, 52.37253929668622 ], [ 5.694215319034844, 52.370816397256569 ], [ 5.69674188324655, 52.369010219102776 ], [ 5.699110163271341, 52.367125702937756 ], [ 5.701313667818288, 52.365168004411096 ], [ 5.703346357234589, 52.363142480083901 ], [ 5.705202660059848, 52.361054672849264 ], [ 5.706877488297049, 52.358910296837408 ], [ 5.708366251358409, 52.356715221845704 ], [ 5.709664868647859, 52.354475457335369 ], [ 5.710769780745678, 52.35219713603756 ], [ 5.711677959164604, 52.349886497213113 ], [ 5.712386914650717, 52.347549869611022 ], [ 5.712894704006311, 52.34519365417168 ], [ 5.713199935416057, 52.342824306521692 ], [ 5.713301772261879, 52.340448319308017 ] ] ] } },
{ "type": "Feature", "properties": { "name": "Harderwijk", "feature_type": "mrr", "metric_roundness": 59.86, "metric_rectangularity": 62.76, "metric_mobile_fit": 39.65, "metric_aspect_ratio": 1.166, "metric_area_km2": 128.62 }, "geometry": { "type": "Polygon", "coordinates": [ [ [ 5.693206303057474, 52.298694398488905 ], [ 5.562095488957525, 52.326252827857587 ], [ 5.600879589928906, 52.395141957187128 ], [ 5.731990404028855, 52.367626451639211 ], [ 5.693206303057474, 52.298694398488905 ] ] ] } }
]
}
