{
"type": "FeatureCollection",
"name": "hautefaye",
"crs": { "type": "name", "properties": { "name": "urn:ogc:def:crs:OGC:1.3:CRS84" } },
"features": [
{ "type": "Feature", "properties": { "name": "Hautefaye", "metric_roundness": 58.45, "metric_rectangularity": 71.79, "metric_mobile_fit": 39.17, "metric_aspect_ratio": 1.171, "metric_area_km2": 25.28 }, "geometry": { "type": "Polygon", "coordinates": [ [ [ 0.5252369, 45.5406093 ], [ 0.5291265, 45.547933199999981 ], [ 0.5207632, 45.55773929999998 ], [ 0.5065455, 45.554334 ], [ 0.5005743, 45.5464519 ], [ 0.4948682, 45.5460798 ], [ 0.4852062, 45.5387908 ], [ 0.4737155, 45.538404 ], [ 0.4740184, 45.533095899999978 ], [ 0.4827958, 45.5262197 ], [ 0.503631, 45.517904199999975 ], [ 0.5120485, 45.519598499999987 ], [ 0.5265811, 45.52861 ], [ 0.5374505, 45.527704 ], [ 0.5403015, 45.536479 ], [ 0.5252369, 45.5406093 ] ] ] } }
]
}
