{
"type": "FeatureCollection",
"name": "hauts_de_bienne",
"crs": { "type": "name", "properties": { "name": "urn:ogc:def:crs:OGC:1.3:CRS84" } },
"features": [
{ "type": "Feature", "properties": { "name": "Hauts de Bienne", "feature_type": "entity", "metric_roundness": 18.01, "metric_rectangularity": 48.62, "metric_mobile_fit": -34.57, "metric_aspect_ratio": 1.908, "metric_area_km2": 50.03 }, "geometry": { "type": "Polygon", "coordinates": [ [ [ 5.925341, 46.494494499999981 ], [ 5.9267265, 46.4908035 ], [ 5.9294355, 46.487385499999981 ], [ 5.9334966, 46.489945 ], [ 5.9439217, 46.496515399999986 ], [ 5.9519637, 46.4933202 ], [ 5.9611787, 46.4974132 ], [ 5.9697481, 46.49171029999998 ], [ 5.9760435, 46.491166799999988 ], [ 5.9873942, 46.499403599999987 ], [ 6.0069092, 46.5045207 ], [ 6.0103525, 46.5071928 ], [ 6.0173556, 46.512627199999983 ], [ 6.029197, 46.510535499999989 ], [ 6.0362397, 46.5225502 ], [ 6.0404896, 46.521745299999978 ], [ 6.0447601, 46.5163444 ], [ 6.0605314, 46.5236478 ], [ 6.079531, 46.5385685 ], [ 6.0659354, 46.5445883 ], [ 6.0562795, 46.5373495 ], [ 6.039803, 46.5260886 ], [ 6.0304938, 46.527823 ], [ 6.0237194, 46.534036499999985 ], [ 6.0103525, 46.532266899999989 ], [ 6.0003766, 46.5309463 ], [ 5.9817071, 46.5169815 ], [ 5.9637528, 46.5102798 ], [ 5.949943, 46.52123049999998 ], [ 5.9435842, 46.5169512 ], [ 5.938416, 46.506008199999975 ], [ 5.9334966, 46.5039002 ], [ 5.920911, 46.498507 ], [ 5.925341, 46.494494499999981 ] ] ] } },
{ "type": "Feature", "properties": { "name": "Hauts de Bienne", "feature_type": "circle", "metric_roundness": 18.01, "metric_rectangularity": 48.62, "metric_mobile_fit": -34.57, "metric_aspect_ratio": 1.908, "metric_area_km2": 50.03 }, "geometry": { "type": "Polygon", "coordinates": [ [ [ 6.084704328999034, 46.518541442098261 ], [ 6.084588547532823, 46.515498824333022 ], [ 6.084241520483141, 46.512464376505868 ], [ 6.083664199027009, 46.509446417918127 ], [ 6.082858165562411, 46.506453224044378 ], [ 6.081825629371044, 46.503493003811982 ], [ 6.080569420562838, 46.500573877048524 ], [ 6.079092982318822, 46.497703852159432 ], [ 6.077400361453594, 46.49489080409775 ], [ 6.075496197323291, 46.492142452687204 ], [ 6.073385709109442, 46.489466341359133 ], [ 6.071074681513539, 46.486869816362706 ], [ 6.068569448901588, 46.484360006506378 ], [ 6.06587687794204, 46.481943803487837 ], [ 6.063004348784736, 46.479627842867622 ], [ 6.059959734832431, 46.477418485739918 ], [ 6.056751381160339, 46.47532180115256 ], [ 6.053388081642864, 46.473343549325904 ], [ 6.049879054850206, 46.471489165718111 ], [ 6.046233918780891, 46.469763745982256 ], [ 6.042462664499516, 46.468172031857954 ], [ 6.038575628751932, 46.466718398037756 ], [ 6.034583465632935, 46.465406840045937 ], [ 6.030497117384145, 46.464240963164109 ], [ 6.026327784402072, 46.463223972435514 ], [ 6.022086894538612, 46.462358663776648 ], [ 6.017786071778102, 46.461647416221602 ], [ 6.013437104376782, 46.461092185321533 ], [ 6.009051912552004, 46.460694497718038 ], [ 6.004642515809751, 46.460455446906288 ], [ 6.000221, 46.460375690199889 ], [ 5.995799484190248, 46.460455446906288 ], [ 5.991390087447995, 46.460694497718038 ], [ 5.987004895623218, 46.461092185321533 ], [ 5.982655928221898, 46.461647416221602 ], [ 5.978355105461387, 46.462358663776648 ], [ 5.974114215597928, 46.463223972435514 ], [ 5.969944882615855, 46.464240963164109 ], [ 5.965858534367064, 46.465406840045937 ], [ 5.961866371248068, 46.466718398037756 ], [ 5.957979335500483, 46.468172031857954 ], [ 5.954208081219107, 46.469763745982256 ], [ 5.950562945149794, 46.471489165718111 ], [ 5.947053918357136, 46.473343549325904 ], [ 5.943690618839661, 46.47532180115256 ], [ 5.940482265167568, 46.477418485739918 ], [ 5.937437651215262, 46.479627842867622 ], [ 5.934565122057959, 46.481943803487837 ], [ 5.931872551098411, 46.484360006506378 ], [ 5.929367318486459, 46.486869816362706 ], [ 5.927056290890557, 46.489466341359133 ], [ 5.924945802676707, 46.492142452687204 ], [ 5.923041638546406, 46.49489080409775 ], [ 5.921349017681178, 46.497703852159432 ], [ 5.91987257943716, 46.500573877048524 ], [ 5.918616370628955, 46.503493003811982 ], [ 5.917583834437589, 46.506453224044378 ], [ 5.91677780097299, 46.509446417918127 ], [ 5.916200479516858, 46.512464376505868 ], [ 5.915853452467176, 46.515498824333022 ], [ 5.915737671000964, 46.518541442098261 ], [ 5.915853452467176, 46.521583889498906 ], [ 5.916200479516858, 46.524617828098862 ], [ 5.91677780097299, 46.527634944175986 ], [ 5.917583834437589, 46.530626971486434 ], [ 5.918616370628955, 46.533585713883973 ], [ 5.91987257943716, 46.536503067732504 ], [ 5.921349017681178, 46.539371044051023 ], [ 5.923041638546406, 46.542181790331092 ], [ 5.924945802676707, 46.544927611967807 ], [ 5.927056290890557, 46.547600993246547 ], [ 5.929367318486459, 46.550194617829177 ], [ 5.931872551098411, 46.552701388684802 ], [ 5.934565122057959, 46.555114447411661 ], [ 5.937437651215262, 46.557427192898736 ], [ 5.940482265167568, 46.559633299277529 ], [ 5.943690618839661, 46.561726733116089 ], [ 5.947053918357136, 46.563701769809946 ], [ 5.950562945149794, 46.565553009126582 ], [ 5.954208081219107, 46.567275389862452 ], [ 5.957979335500483, 46.568864203573845 ], [ 5.961866371248068, 46.570315107345714 ], [ 5.965858534367064, 46.571624135564754 ], [ 5.969944882615855, 46.572787710666049 ], [ 5.974114215597928, 46.573802652825144 ], [ 5.978355105461387, 46.57466618857007 ], [ 5.982655928221898, 46.575375958291133 ], [ 5.987004895623218, 46.575930022628626 ], [ 5.991390087447995, 46.576326867722052 ], [ 5.995799484190248, 46.57656540930693 ], [ 6.000221, 46.576644995648863 ], [ 6.004642515809751, 46.57656540930693 ], [ 6.009051912552004, 46.576326867722052 ], [ 6.013437104376782, 46.575930022628626 ], [ 6.017786071778102, 46.575375958291133 ], [ 6.022086894538612, 46.57466618857007 ], [ 6.026327784402072, 46.573802652825144 ], [ 6.030497117384145, 46.572787710666049 ], [ 6.034583465632935, 46.571624135564754 ], [ 6.038575628751932, 46.570315107345714 ], [ 6.042462664499516, 46.568864203573845 ], [ 6.04623391878089, 46.567275389862452 ], [ 6.049879054850205, 46.565553009126582 ], [ 6.053388081642864, 46.563701769809946 ], [ 6.056751381160339, 46.561726733116089 ], [ 6.059959734832431, 46.559633299277529 ], [ 6.063004348784736, 46.557427192898736 ], [ 6.06587687794204, 46.555114447411661 ], [ 6.068569448901588, 46.552701388684802 ], [ 6.071074681513539, 46.550194617829177 ], [ 6.073385709109442, 46.547600993246547 ], [ 6.075496197323291, 46.544927611967807 ], [ 6.077400361453594, 46.542181790331092 ], [ 6.079092982318822, 46.539371044051023 ], [ 6.080569420562838, 46.536503067732504 ], [ 6.081825629371044, 46.533585713883973 ], [ 6.082858165562411, 46.530626971486434 ], [ 6.083664199027009, 46.527634944175986 ], [ 6.084241520483141, 46.524617828098862 ], [ 6.084588547532823, 46.521583889498906 ], [ 6.084704328999034, 46.518541442098261 ] ] ] } },
{ "type": "Feature", "properties": { "name": "Hauts de Bienne", "feature_type": "mrr", "metric_roundness": 18.01, "metric_rectangularity": 48.62, "metric_mobile_fit": -34.57, "metric_aspect_ratio": 1.908, "metric_area_km2": 50.03 }, "geometry": { "type": "Polygon", "coordinates": [ [ [ 5.914300218412875, 46.514050970650736 ], [ 6.076098330331051, 46.546634368118958 ], [ 6.08993510131863, 46.514114335620164 ], [ 5.928136989400454, 46.481511428537125 ], [ 5.914300218412875, 46.514050970650736 ] ] ] } }
]
}
