{
"type": "FeatureCollection",
"name": "woippy",
"crs": { "type": "name", "properties": { "name": "urn:ogc:def:crs:OGC:1.3:CRS84" } },
"features": [
{ "type": "Feature", "properties": { "name": "Woippy", "feature_type": "entity", "metric_roundness": 56.25, "metric_rectangularity": 60.64, "metric_mobile_fit": 73.9, "metric_aspect_ratio": 0.824, "metric_area_km2": 34.51 }, "geometry": { "type": "Polygon", "coordinates": [ [ [ 6.1768125, 49.188638 ], [ 6.1747285, 49.188299499999985 ], [ 6.1730735, 49.189117 ], [ 6.1710108, 49.1894307 ], [ 6.1666265, 49.1900975 ], [ 6.163398, 49.1893095 ], [ 6.1507775, 49.188642 ], [ 6.151298, 49.184953499999985 ], [ 6.152974, 49.170878 ], [ 6.149449, 49.171449 ], [ 6.133583, 49.169497499999977 ], [ 6.1314, 49.169656 ], [ 6.1290955, 49.169288499999986 ], [ 6.1260745, 49.166641 ], [ 6.123887, 49.1658105 ], [ 6.1327559, 49.156168799999989 ], [ 6.132621, 49.151609 ], [ 6.1391205, 49.142931499999989 ], [ 6.1520742, 49.140389699999979 ], [ 6.162703, 49.141940399999982 ], [ 6.1710108, 49.147132099999986 ], [ 6.1796975, 49.1462205 ], [ 6.1797199, 49.1605517 ], [ 6.1746773, 49.1685942 ], [ 6.1795, 49.17536089999998 ], [ 6.186491, 49.178045500000017 ], [ 6.1836485, 49.177642 ], [ 6.181961, 49.182427499999967 ], [ 6.1796985, 49.185208499999987 ], [ 6.1768125, 49.188638 ] ] ] } },
{ "type": "Feature", "properties": { "name": "Woippy", "feature_type": "circle", "metric_roundness": 56.25, "metric_rectangularity": 60.64, "metric_mobile_fit": 73.9, "metric_aspect_ratio": 0.824, "metric_area_km2": 34.51 }, "geometry": { "type": "Polygon", "coordinates": [ [ [ 6.197674404954544, 49.165790023747228 ], [ 6.197619986650834, 49.164431159256132 ], [ 6.197456880896496, 49.163075982180978 ], [ 6.197185534753062, 49.161728207425483 ], [ 6.196806691961452, 49.160391529903848 ], [ 6.196321390903425, 49.159069614404878 ], [ 6.195730961755447, 49.157766085535584 ], [ 6.195037022842772, 49.156484517771858 ], [ 6.194241476203727, 49.155228425643585 ], [ 6.193346502376349, 49.154001254081408 ], [ 6.192354554421692, 49.152806368951723 ], [ 6.19126835120015, 49.151647047806193 ], [ 6.190090869919251, 49.150526470871256 ], [ 6.188825337973341, 49.14944771230283 ], [ 6.187475224097517, 49.14841373173028 ], [ 6.186044228860069, 49.147427366113341 ], [ 6.184536274519473, 49.146491321934533 ], [ 6.182955494273762, 49.14560816774879 ], [ 6.181306220931712, 49.14478032711132 ], [ 6.17959297503691, 49.144010071903018 ], [ 6.177820452477271, 49.143299516072474 ], [ 6.175993511613923, 49.142650609811852 ], [ 6.174117159964783, 49.142065134182936 ], [ 6.172196540479298, 49.141544696208499 ], [ 6.170236917441978, 49.14109072444262 ], [ 6.168243662043357, 49.140704465032428 ], [ 6.166222237657929, 49.140386978282358 ], [ 6.164178184869431, 49.140139135730386 ], [ 6.162117106284476, 49.139961617744724 ], [ 6.160044651176199, 49.139854911647411 ], [ 6.1579665, 49.13981931037037 ], [ 6.155888348823799, 49.139854911647411 ], [ 6.153815893715524, 49.139961617744724 ], [ 6.151754815130568, 49.140139135730386 ], [ 6.149710762342069, 49.140386978282358 ], [ 6.147689337956643, 49.140704465032428 ], [ 6.145696082558021, 49.14109072444262 ], [ 6.1437364595207, 49.141544696208499 ], [ 6.141815840035215, 49.142065134182936 ], [ 6.139939488386076, 49.142650609811852 ], [ 6.138112547522728, 49.143299516072474 ], [ 6.136340024963088, 49.144010071903018 ], [ 6.134626779068287, 49.14478032711132 ], [ 6.132977505726236, 49.14560816774879 ], [ 6.131396725480525, 49.146491321934533 ], [ 6.129888771139931, 49.147427366113341 ], [ 6.128457775902482, 49.14841373173028 ], [ 6.127107662026658, 49.14944771230283 ], [ 6.125842130080748, 49.150526470871256 ], [ 6.124664648799849, 49.151647047806193 ], [ 6.123578445578307, 49.152806368951723 ], [ 6.12258649762365, 49.154001254081408 ], [ 6.121691523796271, 49.155228425643585 ], [ 6.120895977157226, 49.156484517771858 ], [ 6.120202038244551, 49.157766085535584 ], [ 6.119611609096574, 49.159069614404878 ], [ 6.119126308038546, 49.160391529903848 ], [ 6.118747465246937, 49.161728207425483 ], [ 6.118476119103503, 49.163075982180978 ], [ 6.118313013349164, 49.164431159256132 ], [ 6.118258595045456, 49.165790023747228 ], [ 6.118313013349164, 49.167148850948188 ], [ 6.118476119103503, 49.168503916561548 ], [ 6.118747465246937, 49.16985150690477 ], [ 6.119126308038546, 49.171187929084091 ], [ 6.119611609096574, 49.172509521108324 ], [ 6.120202038244551, 49.173812661914496 ], [ 6.120895977157226, 49.17509378127842 ], [ 6.121691523796271, 49.176349369582979 ], [ 6.12258649762365, 49.177575987417519 ], [ 6.123578445578307, 49.178770274982412 ], [ 6.124664648799849, 49.179928961273035 ], [ 6.125842130080748, 49.181048873018547 ], [ 6.127107662026658, 49.182126943351008 ], [ 6.128457775902482, 49.183160220181485 ], [ 6.129888771139931, 49.184145874260587 ], [ 6.131396725480525, 49.185081206901579 ], [ 6.132977505726236, 49.185963657345262 ], [ 6.134626779068287, 49.186790809746782 ], [ 6.136340024963088, 49.187560399765694 ], [ 6.138112547522728, 49.188270320741367 ], [ 6.139939488386076, 49.188918629437239 ], [ 6.141815840035215, 49.189503551338554 ], [ 6.1437364595207, 49.190023485489327 ], [ 6.145696082558021, 49.190477008855453 ], [ 6.147689337956643, 49.190862880202559 ], [ 6.149710762342069, 49.191180043477928 ], [ 6.151754815130568, 49.191427630687627 ], [ 6.153815893715524, 49.191604964261025 ], [ 6.155888348823799, 49.191711558896557 ], [ 6.1579665, 49.191747122883477 ], [ 6.160044651176199, 49.191711558896557 ], [ 6.162117106284476, 49.191604964261025 ], [ 6.164178184869431, 49.191427630687627 ], [ 6.166222237657929, 49.191180043477928 ], [ 6.168243662043357, 49.190862880202559 ], [ 6.170236917441978, 49.190477008855453 ], [ 6.172196540479298, 49.190023485489327 ], [ 6.174117159964783, 49.189503551338554 ], [ 6.175993511613923, 49.188918629437239 ], [ 6.177820452477271, 49.188270320741367 ], [ 6.17959297503691, 49.187560399765694 ], [ 6.181306220931712, 49.186790809746782 ], [ 6.182955494273762, 49.185963657345262 ], [ 6.184536274519473, 49.185081206901579 ], [ 6.186044228860069, 49.184145874260587 ], [ 6.187475224097517, 49.183160220181485 ], [ 6.188825337973341, 49.182126943351008 ], [ 6.190090869919251, 49.181048873018547 ], [ 6.19126835120015, 49.179928961273035 ], [ 6.192354554421692, 49.178770274982412 ], [ 6.193346502376349, 49.177575987417519 ], [ 6.194241476203727, 49.176349369582979 ], [ 6.195037022842772, 49.17509378127842 ], [ 6.195730961755447, 49.173812661914496 ], [ 6.196321390903425, 49.172509521108324 ], [ 6.196806691961452, 49.171187929084091 ], [ 6.197185534753062, 49.16985150690477 ], [ 6.197456880896496, 49.168503916561548 ], [ 6.197619986650834, 49.167148850948188 ], [ 6.197674404954544, 49.165790023747228 ] ] ] } },
{ "type": "Feature", "properties": { "name": "Woippy", "feature_type": "mrr", "metric_roundness": 56.25, "metric_rectangularity": 60.64, "metric_mobile_fit": 73.9, "metric_aspect_ratio": 0.824, "metric_area_km2": 34.51 }, "geometry": { "type": "Polygon", "coordinates": [ [ [ 6.18863595671075, 49.188089572084543 ], [ 6.177949132008401, 49.13802674457817 ], [ 6.119103981918069, 49.143400449853637 ], [ 6.129790806620418, 49.193457847371647 ], [ 6.18863595671075, 49.188089572084543 ] ] ] } }
]
}
