{
"type": "FeatureCollection",
"name": "wolfersdorf",
"crs": { "type": "name", "properties": { "name": "urn:ogc:def:crs:OGC:1.3:CRS84" } },
"features": [
{ "type": "Feature", "properties": { "name": "Wolfersdorf", "metric_roundness": 49.59, "metric_rectangularity": 67.29, "metric_mobile_fit": 39.58, "metric_aspect_ratio": 1.167, "metric_area_km2": 58.91 }, "geometry": { "type": "Polygon", "coordinates": [ [ [ 11.6597535, 48.5041686 ], [ 11.662399, 48.498519 ], [ 11.675616, 48.493030399999988 ], [ 11.6731939, 48.4885227 ], [ 11.6769687, 48.486874399999977 ], [ 11.6746863, 48.483810899999987 ], [ 11.6771655, 48.4777268 ], [ 11.6812846, 48.472729099999988 ], [ 11.688264, 48.47043 ], [ 11.69842, 48.468183599999989 ], [ 11.7118562, 48.4708162 ], [ 11.7181463, 48.465739 ], [ 11.720187, 48.473529399999983 ], [ 11.7234179, 48.474547899999983 ], [ 11.7326488, 48.4740982 ], [ 11.7382906, 48.4691648 ], [ 11.7518739, 48.4711657 ], [ 11.7541645, 48.484684 ], [ 11.7509338, 48.4908527 ], [ 11.7422031, 48.4925734 ], [ 11.7382906, 48.496682199999988 ], [ 11.7351817, 48.499937199999984 ], [ 11.7366467, 48.5076167 ], [ 11.7154593, 48.5095597 ], [ 11.7116658, 48.5167177 ], [ 11.70597, 48.519366 ], [ 11.6942521, 48.518938899999981 ], [ 11.6819797, 48.5114397 ], [ 11.6722596, 48.509426499999989 ], [ 11.661215, 48.513037 ], [ 11.6597535, 48.5041686 ] ] ] } }
]
}
