{
"type": "FeatureCollection",
"name": "cabezas_de_alambre",
"crs": { "type": "name", "properties": { "name": "urn:ogc:def:crs:OGC:1.3:CRS84" } },
"features": [
{ "type": "Feature", "properties": { "name": "Cabezas de Alambre", "feature_type": "entity", "metric_roundness": 68.05, "metric_rectangularity": 73.33, "metric_mobile_fit": 57.51, "metric_aspect_ratio": 0.987, "metric_area_km2": 19.94 }, "geometry": { "type": "Polygon", "coordinates": [ [ [ -4.8450449, 40.9496658 ], [ -4.859091, 40.944000499999987 ], [ -4.861005, 40.9435655 ], [ -4.863322, 40.9423445 ], [ -4.8579652, 40.940405299999981 ], [ -4.8514533, 40.925547699999989 ], [ -4.8450449, 40.921698099999986 ], [ -4.833636, 40.914844499999987 ], [ -4.8244031, 40.9170691 ], [ -4.816194, 40.9257925 ], [ -4.8191725, 40.927395 ], [ -4.817339, 40.9293785 ], [ -4.814775, 40.934231 ], [ -4.811817, 40.9425355 ], [ -4.829913, 40.9542505 ], [ -4.8450449, 40.9496658 ] ] ] } },
{ "type": "Feature", "properties": { "name": "Cabezas de Alambre", "feature_type": "circle", "metric_roundness": 68.05, "metric_rectangularity": 73.33, "metric_mobile_fit": 57.51, "metric_aspect_ratio": 0.987, "metric_area_km2": 19.94 }, "geometry": { "type": "Polygon", "coordinates": [ [ [ -4.81008113066193, 40.935279736180725 ], [ -4.8101187387433, 40.934194753751306 ], [ -4.810231459906268, 40.933112727437432 ], [ -4.810418985189964, 40.932036623216874 ], [ -4.810680800600619, 40.930969390978568 ], [ -4.811016188520392, 40.92991395643319 ], [ -4.811424229674307, 40.928873213088451 ], [ -4.811903805649923, 40.927850014311304 ], [ -4.812453601962828, 40.926847165498657 ], [ -4.81307211165954, 40.925867416378367 ], [ -4.813757639447978, 40.924913453461578 ], [ -4.814508306344119, 40.923987892667263 ], [ -4.815322054822182, 40.923093272139354 ], [ -4.816196654454152, 40.922232045276168 ], [ -4.817129708023228, 40.921406573991518 ], [ -4.818118658094434, 40.920619122226135 ], [ -4.819160794024367, 40.919871849727151 ], [ -4.82025325939088, 40.919166806113076 ], [ -4.821393059822339, 40.918505925240751 ], [ -4.822577071204989, 40.917891019889481 ], [ -4.823802048245931, 40.917323776777685 ], [ -4.82506463336824, 40.916805751925324 ], [ -4.82636136591386, 40.916338366375349 ], [ -4.827688691629014, 40.915922902285843 ], [ -4.829042972406183, 40.915560499403838 ], [ -4.830420496255889, 40.91525215193051 ], [ -4.831817487481009, 40.914998705786473 ], [ -4.833230117025702, 40.914800856284877 ], [ -4.834654512970575, 40.91465914621859 ], [ -4.836086771145353, 40.914573964366973 ], [ -4.837522965829931, 40.91454554442636 ], [ -4.838959160514509, 40.914573964366973 ], [ -4.840391418689286, 40.91465914621859 ], [ -4.841815814634159, 40.914800856284877 ], [ -4.843228444178852, 40.914998705786473 ], [ -4.844625435403973, 40.91525215193051 ], [ -4.846002959253679, 40.915560499403838 ], [ -4.847357240030847, 40.915922902285843 ], [ -4.848684565746002, 40.916338366375349 ], [ -4.849981298291621, 40.916805751925324 ], [ -4.851243883413931, 40.917323776777685 ], [ -4.852468860454872, 40.917891019889481 ], [ -4.853652871837522, 40.918505925240751 ], [ -4.854792672268982, 40.919166806113076 ], [ -4.855885137635494, 40.919871849727151 ], [ -4.856927273565427, 40.920619122226135 ], [ -4.857916223636633, 40.921406573991518 ], [ -4.85884927720571, 40.922232045276168 ], [ -4.859723876837679, 40.923093272139354 ], [ -4.860537625315742, 40.923987892667263 ], [ -4.861288292211883, 40.924913453461578 ], [ -4.861973820000321, 40.925867416378367 ], [ -4.862592329697034, 40.926847165498657 ], [ -4.863142126009939, 40.927850014311304 ], [ -4.863621701985554, 40.928873213088451 ], [ -4.864029743139469, 40.92991395643319 ], [ -4.864365131059243, 40.930969390978568 ], [ -4.864626946469897, 40.932036623216874 ], [ -4.864814471753594, 40.933112727437432 ], [ -4.864927192916562, 40.934194753751306 ], [ -4.864964800997932, 40.935279736180725 ], [ -4.864927192916562, 40.936364700790961 ], [ -4.864814471753594, 40.937446673842516 ], [ -4.864626946469897, 40.93852268994118 ], [ -4.864365131059243, 40.939589800163489 ], [ -4.864029743139469, 40.940645080135617 ], [ -4.863621701985554, 40.941685638043374 ], [ -4.863142126009939, 40.942708622551493 ], [ -4.862592329697034, 40.943711230610653 ], [ -4.861973820000321, 40.944690715130733 ], [ -4.861288292211883, 40.945644392499617 ], [ -4.860537625315742, 40.946569649926836 ], [ -4.859723876837679, 40.947463952592237 ], [ -4.85884927720571, 40.948324850580057 ], [ -4.857916223636633, 40.949149985579687 ], [ -4.856927273565427, 40.949937097334839 ], [ -4.855885137635494, 40.950684029823613 ], [ -4.854792672268982, 40.951388737152676 ], [ -4.853652871837522, 40.952049289149642 ], [ -4.852468860454872, 40.952663876638397 ], [ -4.851243883413931, 40.953230816383126 ], [ -4.849981298291621, 40.953748555687589 ], [ -4.848684565746002, 40.954215676637368 ], [ -4.847357240030847, 40.954630899973409 ], [ -4.846002959253679, 40.954993088586399 ], [ -4.844625435403973, 40.95530125062276 ], [ -4.843228444178852, 40.955554542193546 ], [ -4.841815814634159, 40.955752269679159 ], [ -4.840391418689286, 40.955893891623568 ], [ -4.838959160514509, 40.955979020212865 ], [ -4.837522965829931, 40.956007422334316 ], [ -4.836086771145353, 40.955979020212865 ], [ -4.834654512970575, 40.955893891623568 ], [ -4.833230117025702, 40.955752269679159 ], [ -4.831817487481009, 40.955554542193546 ], [ -4.830420496255889, 40.95530125062276 ], [ -4.829042972406183, 40.954993088586399 ], [ -4.827688691629014, 40.954630899973409 ], [ -4.82636136591386, 40.954215676637368 ], [ -4.82506463336824, 40.953748555687589 ], [ -4.823802048245931, 40.953230816383126 ], [ -4.822577071204989, 40.952663876638397 ], [ -4.821393059822339, 40.952049289149642 ], [ -4.82025325939088, 40.951388737152676 ], [ -4.819160794024367, 40.950684029823613 ], [ -4.818118658094434, 40.949937097334839 ], [ -4.817129708023228, 40.949149985579687 ], [ -4.816196654454152, 40.948324850580057 ], [ -4.815322054822182, 40.947463952592237 ], [ -4.814508306344119, 40.946569649926836 ], [ -4.813757639447978, 40.945644392499617 ], [ -4.81307211165954, 40.944690715130733 ], [ -4.812453601962828, 40.943711230610653 ], [ -4.811903805649923, 40.942708622551493 ], [ -4.811424229674307, 40.941685638043374 ], [ -4.811016188520392, 40.940645080135617 ], [ -4.810680800600619, 40.939589800163489 ], [ -4.810418985189964, 40.93852268994118 ], [ -4.810231459906268, 40.937446673842516 ], [ -4.8101187387433, 40.936364700790961 ], [ -4.81008113066193, 40.935279736180725 ] ] ] } },
{ "type": "Feature", "properties": { "name": "Cabezas de Alambre", "feature_type": "mrr", "metric_roundness": 68.05, "metric_rectangularity": 73.33, "metric_mobile_fit": 57.51, "metric_aspect_ratio": 0.987, "metric_area_km2": 19.94 }, "geometry": { "type": "Polygon", "coordinates": [ [ [ -4.840792983398471, 40.910457382563351 ], [ -4.863479697120002, 40.942567643825861 ], [ -4.823291660845006, 40.95877053802645 ], [ -4.800604947123476, 40.92666815316894 ], [ -4.840792983398471, 40.910457382563351 ] ] ] } }
]
}
