{
"type": "FeatureCollection",
"name": "caires",
"crs": { "type": "name", "properties": { "name": "urn:ogc:def:crs:OGC:1.3:CRS84" } },
"features": [
{ "type": "Feature", "properties": { "name": "Caires", "feature_type": "entity", "metric_roundness": 53.59, "metric_rectangularity": 67.64, "metric_mobile_fit": 45.46, "metric_aspect_ratio": 1.108, "metric_area_km2": 8.33 }, "geometry": { "type": "Polygon", "coordinates": [ [ [ -8.3364305, 41.652485 ], [ -8.3525825, 41.660141 ], [ -8.3562695, 41.658113499999985 ], [ -8.3630217, 41.6501924 ], [ -8.375513, 41.646453 ], [ -8.3673564, 41.6441739 ], [ -8.356858, 41.633780499999986 ], [ -8.353118, 41.636814 ], [ -8.3451556, 41.637197 ], [ -8.34295, 41.640603 ], [ -8.3364305, 41.652485 ] ] ] } },
{ "type": "Feature", "properties": { "name": "Caires", "feature_type": "circle", "metric_roundness": 53.59, "metric_rectangularity": 67.64, "metric_mobile_fit": 45.46, "metric_aspect_ratio": 1.108, "metric_area_km2": 8.33 }, "geometry": { "type": "Polygon", "coordinates": [ [ [ -8.335774550446208, 41.648690799085237 ], [ -8.335801935175189, 41.647909351930757 ], [ -8.335884014302497, 41.647130037228841 ], [ -8.336020562854946, 41.64635499114334 ], [ -8.336211206562446, 41.645586338214272 ], [ -8.336455422883848, 41.644826185532501 ], [ -8.336752542439188, 41.644076616961485 ], [ -8.33710175084442, 41.643339687421772 ], [ -8.337502090943575, 41.642617417254186 ], [ -8.33795246543227, 41.641911786677134 ], [ -8.338451639865339, 41.641224730353144 ], [ -8.338998246040353, 41.640558132079747 ], [ -8.339590785747786, 41.639913819619359 ], [ -8.340227634877484, 41.639293559682173 ], [ -8.340907047870248, 41.638699053076152 ], [ -8.341627162502293, 41.638131930037332 ], [ -8.342386004989468, 41.63759374575347 ], [ -8.343181495397255, 41.637085976093182 ], [ -8.34401145334175, 41.63661001355257 ], [ -8.344873603965912, 41.636167163430436 ], [ -8.345765584174806, 41.635758640242706 ], [ -8.346684949112682, 41.635385564385864 ], [ -8.34762917886415, 41.635048959058793 ], [ -8.348595685361092, 41.634749747451423 ], [ -8.349581819476384, 41.634488750208007 ], [ -8.350584878284957, 41.634266683172001 ], [ -8.351602112472344, 41.634084155418854 ], [ -8.35263073387034, 41.633941667582206 ], [ -8.353667923099193, 41.633839610477885 ], [ -8.35471083729532, 41.63377826402985 ], [ -8.355756617903404, 41.633757796500845 ], [ -8.356802398511487, 41.63377826402985 ], [ -8.357845312707616, 41.633839610477885 ], [ -8.358882501936467, 41.633941667582206 ], [ -8.359911123334465, 41.634084155418854 ], [ -8.36092835752185, 41.634266683172001 ], [ -8.361931416330423, 41.634488750208007 ], [ -8.362917550445713, 41.634749747451423 ], [ -8.363884056942659, 41.635048959058793 ], [ -8.364828286694125, 41.635385564385864 ], [ -8.365747651632002, 41.635758640242706 ], [ -8.366639631840895, 41.636167163430436 ], [ -8.367501782465055, 41.63661001355257 ], [ -8.36833174040955, 41.637085976093182 ], [ -8.369127230817339, 41.63759374575347 ], [ -8.369886073304514, 41.638131930037332 ], [ -8.370606187936559, 41.638699053076152 ], [ -8.371285600929324, 41.639293559682173 ], [ -8.371922450059021, 41.639913819619359 ], [ -8.372514989766454, 41.640558132079747 ], [ -8.37306159594147, 41.641224730353144 ], [ -8.373560770374537, 41.641911786677134 ], [ -8.374011144863232, 41.642617417254186 ], [ -8.374411484962387, 41.643339687421772 ], [ -8.374760693367618, 41.644076616961485 ], [ -8.375057812922959, 41.644826185532501 ], [ -8.375302029244361, 41.645586338214272 ], [ -8.375492672951861, 41.64635499114334 ], [ -8.37562922150431, 41.647130037228841 ], [ -8.375711300631616, 41.647909351930757 ], [ -8.3757386853606, 41.648690799085237 ], [ -8.375711300631616, 41.649472236760992 ], [ -8.37562922150431, 41.650251523130557 ], [ -8.375492672951861, 41.651026522340544 ], [ -8.375302029244361, 41.651795110364482 ], [ -8.375057812922959, 41.652555180822603 ], [ -8.374760693367618, 41.653304650752347 ], [ -8.374411484962387, 41.654041466313885 ], [ -8.374011144863232, 41.654763608415145 ], [ -8.373560770374537, 41.655469098240864 ], [ -8.37306159594147, 41.65615600267062 ], [ -8.372514989766454, 41.656822439571044 ], [ -8.371922450059021, 41.657466582947755 ], [ -8.371285600929324, 41.658086667943103 ], [ -8.370606187936559, 41.658680995665812 ], [ -8.369886073304514, 41.659247937839716 ], [ -8.369127230817339, 41.659785941258662 ], [ -8.36833174040955, 41.660293532035645 ], [ -8.367501782465055, 41.660769319634419 ], [ -8.366639631840895, 41.661212000672883 ], [ -8.365747651632002, 41.661620362487646 ], [ -8.364828286694125, 41.661993286450254 ], [ -8.363884056942659, 41.662329751025993 ], [ -8.362917550445713, 41.662628834567037 ], [ -8.361931416330423, 41.662889717832279 ], [ -8.36092835752185, 41.663111686227019 ], [ -8.359911123334465, 41.66329413175653 ], [ -8.358882501936467, 41.663436554688047 ], [ -8.357845312707616, 41.663538564916848 ], [ -8.356802398511487, 41.663599883032546 ], [ -8.355756617903404, 41.663620341082826 ], [ -8.35471083729532, 41.663599883032546 ], [ -8.353667923099193, 41.663538564916848 ], [ -8.35263073387034, 41.663436554688047 ], [ -8.351602112472344, 41.66329413175653 ], [ -8.350584878284957, 41.663111686227019 ], [ -8.349581819476384, 41.662889717832279 ], [ -8.348595685361092, 41.662628834567037 ], [ -8.34762917886415, 41.662329751025993 ], [ -8.346684949112682, 41.661993286450254 ], [ -8.345765584174806, 41.661620362487646 ], [ -8.344873603965912, 41.661212000672883 ], [ -8.34401145334175, 41.660769319634419 ], [ -8.343181495397255, 41.660293532035645 ], [ -8.342386004989468, 41.659785941258662 ], [ -8.341627162502293, 41.659247937839716 ], [ -8.340907047870248, 41.658680995665812 ], [ -8.340227634877484, 41.658086667943103 ], [ -8.339590785747786, 41.657466582947755 ], [ -8.338998246040353, 41.656822439571044 ], [ -8.338451639865339, 41.65615600267062 ], [ -8.33795246543227, 41.655469098240864 ], [ -8.337502090943575, 41.654763608415145 ], [ -8.33710175084442, 41.654041466313885 ], [ -8.336752542439188, 41.653304650752347 ], [ -8.336455422883848, 41.652555180822603 ], [ -8.336211206562446, 41.651795110364482 ], [ -8.336020562854946, 41.651026522340544 ], [ -8.335884014302497, 41.650251523130557 ], [ -8.335801935175189, 41.649472236760992 ], [ -8.335774550446208, 41.648690799085237 ] ] ] } },
{ "type": "Feature", "properties": { "name": "Caires", "feature_type": "mrr", "metric_roundness": 53.59, "metric_rectangularity": 67.64, "metric_mobile_fit": 45.46, "metric_aspect_ratio": 1.108, "metric_area_km2": 8.33 }, "geometry": { "type": "Polygon", "coordinates": [ [ [ -8.35272534501458, 41.63097281367525 ], [ -8.375513, 41.646453 ], [ -8.353813087679937, 41.66428978959236 ], [ -8.331025425620162, 41.648813885704797 ], [ -8.35272534501458, 41.63097281367525 ] ] ] } }
]
}
