{
"type": "FeatureCollection",
"name": "caldararu",
"crs": { "type": "name", "properties": { "name": "urn:ogc:def:crs:OGC:1.3:CRS84" } },
"features": [
{ "type": "Feature", "properties": { "name": "Căldăraru", "metric_roundness": 38.54, "metric_rectangularity": 69.27, "metric_mobile_fit": -53.18, "metric_aspect_ratio": 2.094, "metric_area_km2": 116.99 }, "geometry": { "type": "Polygon", "coordinates": [ [ [ 24.96872, 44.433994 ], [ 24.9694417, 44.4376159 ], [ 24.979172, 44.441754899999985 ], [ 24.9772384, 44.4457454 ], [ 24.9842694, 44.4530574 ], [ 24.9939011, 44.457699199999986 ], [ 25.0146015, 44.460379499999988 ], [ 25.0139513, 44.4653139 ], [ 25.015813, 44.466555099999987 ], [ 25.0295327, 44.4756988 ], [ 25.0242627, 44.4804558 ], [ 25.015813, 44.4765491 ], [ 25.0133359, 44.4763677 ], [ 25.0083585, 44.4847805 ], [ 24.915577, 44.4847169 ], [ 24.9016067, 44.479757299999982 ], [ 24.8947828, 44.470084499999984 ], [ 24.8556355, 44.463514 ], [ 24.8554929, 44.4544583 ], [ 24.862607, 44.4466444 ], [ 24.8610788, 44.4396419 ], [ 24.8734653, 44.434567299999983 ], [ 24.875571, 44.4254615 ], [ 24.96872, 44.433994 ] ] ] } }
]
}
