{
"type": "FeatureCollection",
"name": "calvisson",
"crs": { "type": "name", "properties": { "name": "urn:ogc:def:crs:OGC:1.3:CRS84" } },
"features": [
{ "type": "Feature", "properties": { "name": "Calvisson", "metric_roundness": 41.59, "metric_rectangularity": 61.81, "metric_mobile_fit": 65.81, "metric_aspect_ratio": 0.904, "metric_area_km2": 54.55 }, "geometry": { "type": "Polygon", "coordinates": [ [ [ 4.1867922, 43.7615817 ], [ 4.199519, 43.7512785 ], [ 4.2020825, 43.750021 ], [ 4.234125, 43.757593 ], [ 4.2295876, 43.7643011 ], [ 4.2154771, 43.7693094 ], [ 4.216905, 43.7785915 ], [ 4.2107965, 43.796077499999988 ], [ 4.211907, 43.7981845 ], [ 4.2145295, 43.799916 ], [ 4.2086585, 43.8073375 ], [ 4.1947145, 43.8153753 ], [ 4.1576955, 43.820704 ], [ 4.1573505, 43.816247 ], [ 4.153711, 43.815445 ], [ 4.151165, 43.813509 ], [ 4.1516025, 43.8070355 ], [ 4.1511375, 43.805039499999985 ], [ 4.1474655, 43.80609 ], [ 4.1455815, 43.8054025 ], [ 4.1470765, 43.793455 ], [ 4.1667024, 43.7875696 ], [ 4.1771727, 43.7772359 ], [ 4.1800752, 43.7673578 ], [ 4.176493, 43.7619125 ], [ 4.1867922, 43.7615817 ] ] ] } }
]
}
