{
"type": "FeatureCollection",
"name": "campobasso",
"crs": { "type": "name", "properties": { "name": "urn:ogc:def:crs:OGC:1.3:CRS84" } },
"features": [
{ "type": "Feature", "properties": { "name": "Campobasso", "feature_type": "entity", "metric_roundness": 58.51, "metric_rectangularity": 68.85, "metric_mobile_fit": 33.39, "metric_aspect_ratio": 1.229, "metric_area_km2": 93.12 }, "geometry": { "type": "Polygon", "coordinates": [ [ [ 14.6324659, 41.5412519 ], [ 14.6360362, 41.5452466 ], [ 14.6436788, 41.5424737 ], [ 14.6463747, 41.534737899999982 ], [ 14.6507057, 41.532434099999989 ], [ 14.6588231, 41.535258399999989 ], [ 14.6638669, 41.5429433 ], [ 14.6730649, 41.540959599999987 ], [ 14.6795116, 41.5444833 ], [ 14.7014216, 41.532787299999988 ], [ 14.719722, 41.537901 ], [ 14.7202113, 41.5443156 ], [ 14.7260013, 41.553328599999986 ], [ 14.7102818, 41.5559783 ], [ 14.7067816, 41.5613898 ], [ 14.7113539, 41.5724052 ], [ 14.7063326, 41.576496299999988 ], [ 14.7150645, 41.582613 ], [ 14.7215723, 41.5850278 ], [ 14.7209075, 41.5881775 ], [ 14.697681, 41.6013944 ], [ 14.6870945, 41.6013565 ], [ 14.66979, 41.589148400000013 ], [ 14.6546919, 41.5917655 ], [ 14.6462228, 41.587722899999982 ], [ 14.628466, 41.58987 ], [ 14.6080645, 41.56913 ], [ 14.6138559, 41.5599697 ], [ 14.6076189, 41.5527262 ], [ 14.6085612, 41.5469746 ], [ 14.6191062, 41.542056 ], [ 14.6152505, 41.5342405 ], [ 14.628221, 41.5293 ], [ 14.6364205, 41.5301135 ], [ 14.6324659, 41.5412519 ] ] ] } },
{ "type": "Feature", "properties": { "name": "Campobasso", "feature_type": "circle", "metric_roundness": 58.51, "metric_rectangularity": 68.85, "metric_mobile_fit": 33.39, "metric_aspect_ratio": 1.229, "metric_area_km2": 93.12 }, "geometry": { "type": "Polygon", "coordinates": [ [ [ 14.732031267127853, 41.561214627353564 ], [ 14.731943622768389, 41.558710192652207 ], [ 14.73168092991709, 41.556212525775791 ], [ 14.731243908596808, 41.553728473848253 ], [ 14.730633756652599, 41.551264847455776 ], [ 14.729852146468531, 41.548828401957806 ], [ 14.728901220383793, 41.546425818941181 ], [ 14.727783584820685, 41.544063687868437 ], [ 14.726502303140599, 41.541748487971056 ], [ 14.725060887247555, 41.539486570437859 ], [ 14.72346328796233, 41.537284140947769 ], [ 14.721713884193516, 41.53514724259562 ], [ 14.71981747093524, 41.533081739258478 ], [ 14.717779246124428, 41.531093299448777 ], [ 14.715604796393615, 41.529187380699426 ], [ 14.713300081758362, 41.527369214524462 ], [ 14.710871419281288, 41.525643791997446 ], [ 14.708325465757426, 41.524015849987904 ], [ 14.705669199468424, 41.522489858094637 ], [ 14.70290990105554, 41.521070006312407 ], [ 14.70005513356393, 41.51976019346683 ], [ 14.697112721712854, 41.518564016450163 ], [ 14.694090730448673, 41.517484760288013 ], [ 14.690997442839386, 41.516525389065507 ], [ 14.687841337371315, 41.515688537737915 ], [ 14.684631064710176, 41.514976504849564 ], [ 14.681375423990184, 41.514391246181162 ], [ 14.678083338696259, 41.513934369343644 ], [ 14.674763832205361, 41.513607129334027 ], [ 14.671426003054044, 41.513410425065601 ], [ 14.668079, 41.5133447968825 ], [ 14.664731996945966, 41.513410425065601 ], [ 14.661394167794647, 41.513607129334027 ], [ 14.658074661303747, 41.513934369343644 ], [ 14.654782576009824, 41.514391246181162 ], [ 14.651526935289834, 41.514976504849564 ], [ 14.648316662628693, 41.515688537737915 ], [ 14.645160557160624, 41.516525389065507 ], [ 14.642067269551337, 41.517484760288013 ], [ 14.639045278287153, 41.518564016450163 ], [ 14.636102866436079, 41.51976019346683 ], [ 14.633248098944469, 41.521070006312407 ], [ 14.630488800531586, 41.522489858094637 ], [ 14.627832534242581, 41.524015849987904 ], [ 14.625286580718722, 41.525643791997446 ], [ 14.622857918241648, 41.527369214524462 ], [ 14.620553203606393, 41.529187380699426 ], [ 14.618378753875577, 41.531093299448777 ], [ 14.616340529064766, 41.533081739258478 ], [ 14.614444115806492, 41.53514724259562 ], [ 14.612694712037676, 41.537284140947769 ], [ 14.611097112752454, 41.539486570437859 ], [ 14.609655696859411, 41.541748487971056 ], [ 14.608374415179322, 41.544063687868437 ], [ 14.607256779616215, 41.546425818941181 ], [ 14.606305853531477, 41.548828401957806 ], [ 14.605524243347409, 41.551264847455776 ], [ 14.604914091403202, 41.553728473848253 ], [ 14.604477070082915, 41.556212525775791 ], [ 14.604214377231619, 41.558710192652207 ], [ 14.604126732872155, 41.561214627353564 ], [ 14.604214377231619, 41.563718964998721 ], [ 14.604477070082915, 41.566216341769938 ], [ 14.604914091403202, 41.568699913721723 ], [ 14.605524243347409, 41.57116287552661 ], [ 14.606305853531477, 41.573598479106515 ], [ 14.607256779616215, 41.576000052098848 ], [ 14.608374415179322, 41.57836101610711 ], [ 14.609655696859411, 41.580674904686425 ], [ 14.611097112752454, 41.582935381015062 ], [ 14.612694712037676, 41.58513625520424 ], [ 14.614444115806492, 41.587271501199332 ], [ 14.616340529064766, 41.589335273226851 ], [ 14.618378753875577, 41.59132192174296 ], [ 14.620553203606393, 41.593226008840546 ], [ 14.622857918241648, 41.595042323073528 ], [ 14.625286580718722, 41.596765893658606 ], [ 14.627832534242581, 41.59839200401651 ], [ 14.630488800531586, 41.599916204616406 ], [ 14.633248098944469, 41.601334325089326 ], [ 14.636102866436079, 41.602642485578208 ], [ 14.639045278287153, 41.603837107294389 ], [ 14.642067269551337, 41.604914922252405 ], [ 14.645160557160624, 41.605872982157315 ], [ 14.648316662628693, 41.606708666420865 ], [ 14.651526935289834, 41.607419689285329 ], [ 14.654782576009824, 41.608004106036041 ], [ 14.658074661303747, 41.608460318286269 ], [ 14.661394167794647, 41.608787078320368 ], [ 14.664731996945966, 41.608983492483731 ], [ 14.668079, 41.609049023610687 ], [ 14.671426003054044, 41.608983492483731 ], [ 14.674763832205361, 41.608787078320368 ], [ 14.678083338696259, 41.608460318286269 ], [ 14.681375423990184, 41.608004106036041 ], [ 14.684631064710176, 41.607419689285329 ], [ 14.687841337371315, 41.606708666420865 ], [ 14.690997442839386, 41.605872982157315 ], [ 14.694090730448673, 41.604914922252405 ], [ 14.697112721712854, 41.603837107294389 ], [ 14.70005513356393, 41.602642485578208 ], [ 14.70290990105554, 41.601334325089326 ], [ 14.705669199468424, 41.599916204616406 ], [ 14.708325465757426, 41.59839200401651 ], [ 14.710871419281288, 41.596765893658606 ], [ 14.713300081758362, 41.595042323073528 ], [ 14.715604796393615, 41.593226008840546 ], [ 14.717779246124428, 41.59132192174296 ], [ 14.71981747093524, 41.589335273226851 ], [ 14.721713884193516, 41.587271501199332 ], [ 14.72346328796233, 41.58513625520424 ], [ 14.725060887247555, 41.582935381015062 ], [ 14.726502303140599, 41.580674904686425 ], [ 14.727783584820685, 41.57836101610711 ], [ 14.728901220383793, 41.576000052098848 ], [ 14.729852146468531, 41.573598479106515 ], [ 14.730633756652599, 41.57116287552661 ], [ 14.731243908596808, 41.568699913721723 ], [ 14.73168092991709, 41.566216341769938 ], [ 14.731943622768389, 41.563718964998721 ], [ 14.732031267127853, 41.561214627353564 ] ] ] } },
{ "type": "Feature", "properties": { "name": "Campobasso", "feature_type": "mrr", "metric_roundness": 58.51, "metric_rectangularity": 68.85, "metric_mobile_fit": 33.39, "metric_aspect_ratio": 1.229, "metric_area_km2": 93.12 }, "geometry": { "type": "Polygon", "coordinates": [ [ [ 14.718942010098923, 41.603845882379566 ], [ 14.72857347002836, 41.534911904418628 ], [ 14.611387407550659, 41.525741728941099 ], [ 14.601755947621218, 41.594685485701824 ], [ 14.718942010098923, 41.603845882379566 ] ] ] } }
]
}
