{
"type": "FeatureCollection",
"name": "campos",
"crs": { "type": "name", "properties": { "name": "urn:ogc:def:crs:OGC:1.3:CRS84" } },
"features": [
{ "type": "Feature", "properties": { "name": "Campos", "metric_roundness": 60.41, "metric_rectangularity": 67.01, "metric_mobile_fit": 69.18, "metric_aspect_ratio": 0.871, "metric_area_km2": 250.68 }, "geometry": { "type": "Polygon", "coordinates": [ [ [ 3.0958885, 39.399559 ], [ 3.0863906, 39.407723 ], [ 3.0997554, 39.4170111 ], [ 3.098546, 39.4232503 ], [ 3.0952886, 39.4279544 ], [ 3.0883924, 39.4299401 ], [ 3.0854213, 39.4380815 ], [ 3.0866268, 39.4441581 ], [ 3.0595735, 39.475273 ], [ 3.0565403, 39.473335699999986 ], [ 3.050184, 39.4754926 ], [ 3.0318713, 39.4675714 ], [ 3.0166945, 39.4701565 ], [ 3.0050087, 39.462053699999984 ], [ 2.997528, 39.464396899999983 ], [ 2.9867295, 39.460544 ], [ 2.960203, 39.463165 ], [ 2.9556236, 39.4600055 ], [ 2.9547042, 39.45325660000001 ], [ 2.9665358, 39.4344027 ], [ 2.9440812, 39.4137312 ], [ 2.9307745, 39.364067 ], [ 2.9517495, 39.3605547 ], [ 2.9579636, 39.3620614 ], [ 2.9749253, 39.352215099999988 ], [ 2.9897226, 39.337706 ], [ 2.9881995, 39.325531 ], [ 3.0074017, 39.332007899999986 ], [ 3.0319978, 39.345658 ], [ 3.0564099, 39.370735 ], [ 3.069073, 39.379150499999987 ], [ 3.0958885, 39.399559 ] ] ] } }
]
}
