{
"type": "FeatureCollection",
"name": "campagnano_di_roma",
"crs": { "type": "name", "properties": { "name": "urn:ogc:def:crs:OGC:1.3:CRS84" } },
"features": [
{ "type": "Feature", "properties": { "name": "Campagnano di Roma", "metric_roundness": 58.9, "metric_rectangularity": 62.02, "metric_mobile_fit": 43.49, "metric_aspect_ratio": 1.128, "metric_area_km2": 85.61 }, "geometry": { "type": "Polygon", "coordinates": [ [ [ 12.3072615, 42.14095 ], [ 12.3359913, 42.1222737 ], [ 12.3354857, 42.1130515 ], [ 12.3154785, 42.113689 ], [ 12.3230304, 42.1079931 ], [ 12.3373266, 42.1091611 ], [ 12.343843, 42.103863 ], [ 12.3597156, 42.098759299999983 ], [ 12.3770535, 42.100344799999981 ], [ 12.391544, 42.0951495 ], [ 12.3973549, 42.1035517 ], [ 12.4077348, 42.109488299999988 ], [ 12.415884, 42.110606499999989 ], [ 12.4246841, 42.1177576 ], [ 12.42211, 42.1251399 ], [ 12.42681, 42.136852499999989 ], [ 12.419907, 42.1374505 ], [ 12.4055388, 42.136590099999985 ], [ 12.3969399, 42.14908 ], [ 12.3792342, 42.1629939 ], [ 12.3772768, 42.1698026 ], [ 12.3701295, 42.1737695 ], [ 12.3534759, 42.165905599999981 ], [ 12.3425578, 42.152335699999988 ], [ 12.3337073, 42.1519203 ], [ 12.3274743, 42.146413499999987 ], [ 12.3134667, 42.1505866 ], [ 12.3097605, 42.1486315 ], [ 12.3072615, 42.14095 ] ] ] } }
]
}
