{
"type": "FeatureCollection",
"name": "campo_san_martino",
"crs": { "type": "name", "properties": { "name": "urn:ogc:def:crs:OGC:1.3:CRS84" } },
"features": [
{ "type": "Feature", "properties": { "name": "Campo San Martino", "metric_roundness": 41.71, "metric_rectangularity": 53.52, "metric_mobile_fit": 39.61, "metric_aspect_ratio": 1.166, "metric_area_km2": 26.99 }, "geometry": { "type": "Polygon", "coordinates": [ [ [ 11.8703115, 45.561660499999988 ], [ 11.8651216, 45.5647537 ], [ 11.8495549, 45.5649517 ], [ 11.8442509, 45.5770183 ], [ 11.8355055, 45.578633499999988 ], [ 11.8297418, 45.5733626 ], [ 11.8298708, 45.567675799999989 ], [ 11.7960535, 45.554507 ], [ 11.7990879, 45.549628099999978 ], [ 11.7961814, 45.5437954 ], [ 11.7997303, 45.540308 ], [ 11.7977098, 45.535823299999983 ], [ 11.8036486, 45.534057 ], [ 11.8079225, 45.538288 ], [ 11.8112587, 45.5429982 ], [ 11.8257423, 45.547489 ], [ 11.8314431, 45.5439819 ], [ 11.855207, 45.542758499999977 ], [ 11.8591416, 45.547846199999981 ], [ 11.8573847, 45.5570696 ], [ 11.8701655, 45.557289499999982 ], [ 11.8703115, 45.561660499999988 ] ] ] } }
]
}
