{
"type": "FeatureCollection",
"name": "canettemont",
"crs": { "type": "name", "properties": { "name": "urn:ogc:def:crs:OGC:1.3:CRS84" } },
"features": [
{ "type": "Feature", "properties": { "name": "Canettemont", "metric_roundness": 67.34, "metric_rectangularity": 74.96, "metric_mobile_fit": 50.59, "metric_aspect_ratio": 1.057, "metric_area_km2": 4.05 }, "geometry": { "type": "Polygon", "coordinates": [ [ [ 2.3679014, 50.273386599999988 ], [ 2.3759765, 50.2807215 ], [ 2.360343, 50.2869105 ], [ 2.3527109, 50.2841614 ], [ 2.3561142, 50.2741118 ], [ 2.359306, 50.2728395 ], [ 2.3679014, 50.273386599999988 ] ] ] } }
]
}
