{
"type": "FeatureCollection",
"name": "canredondo",
"crs": { "type": "name", "properties": { "name": "urn:ogc:def:crs:OGC:1.3:CRS84" } },
"features": [
{ "type": "Feature", "properties": { "name": "Canredondo", "feature_type": "entity", "metric_roundness": 48.48, "metric_rectangularity": 54.97, "metric_mobile_fit": 46.48, "metric_aspect_ratio": 1.098, "metric_area_km2": 110.69 }, "geometry": { "type": "Polygon", "coordinates": [ [ [ -2.5918363, 40.8192192 ], [ -2.5864716, 40.811939 ], [ -2.5818408, 40.8077022 ], [ -2.5715338, 40.7982721 ], [ -2.5566258, 40.7910422 ], [ -2.5403488, 40.7779964 ], [ -2.514384, 40.7518309 ], [ -2.5056248, 40.7494125 ], [ -2.499011, 40.753957 ], [ -2.4825894, 40.7559995 ], [ -2.4844793, 40.7662414 ], [ -2.4797372, 40.7737085 ], [ -2.4726444, 40.7779964 ], [ -2.4656062, 40.7837566 ], [ -2.453137, 40.786991 ], [ -2.4586101, 40.8118853 ], [ -2.465928, 40.8196449 ], [ -2.4604437, 40.8276745 ], [ -2.4639761, 40.8356105 ], [ -2.4720223, 40.840324399999986 ], [ -2.4942944, 40.8430557 ], [ -2.4977825, 40.845524 ], [ -2.507507, 40.8438167 ], [ -2.517444, 40.8226019 ], [ -2.5313713, 40.811036199999982 ], [ -2.5556815, 40.8184259 ], [ -2.563631, 40.8149985 ], [ -2.567335, 40.814746599999985 ], [ -2.5801535, 40.825611 ], [ -2.5925005, 40.833004 ], [ -2.5918363, 40.8192192 ] ] ] } },
{ "type": "Feature", "properties": { "name": "Canredondo", "feature_type": "circle", "metric_roundness": 48.48, "metric_rectangularity": 54.97, "metric_mobile_fit": 46.48, "metric_aspect_ratio": 1.098, "metric_area_km2": 110.69 }, "geometry": { "type": "Polygon", "coordinates": [ [ [ -2.449971776756735, 40.803488697464296 ], [ -2.450076754874047, 40.800454030330378 ], [ -2.45039140148826, 40.797427542830256 ], [ -2.450914854174876, 40.794417532061495 ], [ -2.451645678186466, 40.79143225107488 ], [ -2.452581870385212, 40.788479886222561 ], [ -2.453720864733371, 40.785568534676969 ], [ -2.455059539326607, 40.782706182182785 ], [ -2.456594224950909, 40.779900681103662 ], [ -2.458320715139655, 40.777159728824202 ], [ -2.460234277703244, 40.774490846567666 ], [ -2.462329667699702, 40.771901358688062 ], [ -2.464601141810695, 40.769398372494479 ], [ -2.467042474083574, 40.766988758664226 ], [ -2.469646972996274, 40.764679132299356 ], [ -2.472407499798311, 40.762475834679933 ], [ -2.475316488077603, 40.760384915765158 ], [ -2.478365964499478, 40.758412117491801 ], [ -2.48154757066103, 40.756562857916805 ], [ -2.484852586000921, 40.754842216248967 ], [ -2.488271951701833, 40.753254918812033 ], [ -2.491796295520056, 40.751805325978758 ], [ -2.495415957474161, 40.750497420113227 ], [ -2.499121016322329, 40.749334794555459 ], [ -2.502901316755793, 40.748320643679619 ], [ -2.506746497233831, 40.747457754054174 ], [ -2.510646018384028, 40.746748496729012 ], [ -2.514589191889963, 40.74619482067169 ], [ -2.518565209787144, 40.745798247371248 ], [ -2.522563174086883, 40.745559866625221 ], [ -2.526572126646931, 40.745480333521719 ], [ -2.530581079206978, 40.745559866625221 ], [ -2.534579043506717, 40.745798247371248 ], [ -2.538555061403898, 40.74619482067169 ], [ -2.542498234909833, 40.746748496729012 ], [ -2.54639775606003, 40.747457754054174 ], [ -2.550242936538068, 40.748320643679619 ], [ -2.554023236971533, 40.749334794555459 ], [ -2.5577282958197, 40.750497420113227 ], [ -2.561347957773805, 40.751805325978758 ], [ -2.564872301592029, 40.753254918812033 ], [ -2.568291667292941, 40.754842216248967 ], [ -2.571596682632831, 40.756562857916805 ], [ -2.574778288794383, 40.758412117491801 ], [ -2.577827765216258, 40.760384915765158 ], [ -2.58073675349555, 40.762475834679933 ], [ -2.583497280297588, 40.764679132299356 ], [ -2.586101779210287, 40.766988758664226 ], [ -2.588543111483166, 40.769398372494479 ], [ -2.590814585594159, 40.771901358688062 ], [ -2.592909975590617, 40.774490846567666 ], [ -2.594823538154207, 40.777159728824202 ], [ -2.596550028342953, 40.779900681103662 ], [ -2.598084713967254, 40.782706182182785 ], [ -2.59942338856049, 40.785568534676969 ], [ -2.60056238290865, 40.788479886222561 ], [ -2.601498575107395, 40.79143225107488 ], [ -2.602229399118985, 40.794417532061495 ], [ -2.602752851805601, 40.797427542830256 ], [ -2.603067498419815, 40.800454030330378 ], [ -2.603172476537126, 40.803488697464296 ], [ -2.603067498419815, 40.80652322584826 ], [ -2.602752851805601, 40.809549298618663 ], [ -2.602229399118985, 40.81255862322184 ], [ -2.601498575107395, 40.815542954124759 ], [ -2.60056238290865, 40.81849411538461 ], [ -2.59942338856049, 40.821404023015802 ], [ -2.598084713967254, 40.824264707093455 ], [ -2.596550028342953, 40.827068333533497 ], [ -2.594823538154207, 40.829807225490249 ], [ -2.592909975590617, 40.832473884313806 ], [ -2.590814585594159, 40.835061010010584 ], [ -2.588543111483166, 40.837561521152047 ], [ -2.586101779210287, 40.839968574178101 ], [ -2.583497280297588, 40.842275582043399 ], [ -2.58073675349555, 40.84447623215673 ], [ -2.577827765216258, 40.846564503565503 ], [ -2.574778288794383, 40.848534683339594 ], [ -2.571596682632831, 40.850381382110875 ], [ -2.568291667292941, 40.852099548727232 ], [ -2.564872301592029, 40.853684483982107 ], [ -2.561347957773805, 40.855131853383298 ], [ -2.5577282958197, 40.856437698927053 ], [ -2.554023236971533, 40.857598449846698 ], [ -2.550242936538068, 40.858610932306959 ], [ -2.54639775606003, 40.859472378018872 ], [ -2.542498234909834, 40.86018043175234 ], [ -2.538555061403898, 40.860733157726621 ], [ -2.534579043506717, 40.861129044861947 ], [ -2.530581079206978, 40.861367010878567 ], [ -2.526572126646931, 40.861446405232194 ], [ -2.522563174086883, 40.861367010878567 ], [ -2.518565209787144, 40.861129044861947 ], [ -2.514589191889963, 40.860733157726621 ], [ -2.510646018384028, 40.86018043175234 ], [ -2.506746497233831, 40.859472378018872 ], [ -2.502901316755793, 40.858610932306959 ], [ -2.499121016322329, 40.857598449846698 ], [ -2.495415957474161, 40.856437698927053 ], [ -2.491796295520056, 40.855131853383298 ], [ -2.488271951701833, 40.853684483982107 ], [ -2.484852586000921, 40.852099548727232 ], [ -2.48154757066103, 40.850381382110875 ], [ -2.478365964499478, 40.848534683339594 ], [ -2.475316488077603, 40.846564503565503 ], [ -2.472407499798311, 40.84447623215673 ], [ -2.469646972996274, 40.842275582043399 ], [ -2.467042474083574, 40.839968574178101 ], [ -2.464601141810695, 40.837561521152047 ], [ -2.462329667699702, 40.835061010010584 ], [ -2.460234277703244, 40.832473884313806 ], [ -2.458320715139655, 40.829807225490249 ], [ -2.456594224950909, 40.827068333533497 ], [ -2.455059539326607, 40.824264707093455 ], [ -2.453720864733371, 40.821404023015802 ], [ -2.452581870385212, 40.81849411538461 ], [ -2.451645678186466, 40.815542954124759 ], [ -2.450914854174876, 40.81255862322184 ], [ -2.45039140148826, 40.809549298618663 ], [ -2.450076754874047, 40.80652322584826 ], [ -2.449971776756735, 40.803488697464296 ] ] ] } },
{ "type": "Feature", "properties": { "name": "Canredondo", "feature_type": "mrr", "metric_roundness": 48.48, "metric_rectangularity": 54.97, "metric_mobile_fit": 46.48, "metric_aspect_ratio": 1.098, "metric_area_km2": 110.69 }, "geometry": { "type": "Polygon", "coordinates": [ [ [ -2.59494453035539, 40.832680912651249 ], [ -2.465549650268139, 40.849784058613544 ], [ -2.444256976218691, 40.757534702034071 ], [ -2.573651856305942, 40.740407771277908 ], [ -2.59494453035539, 40.832680912651249 ] ] ] } }
]
}
