{
"type": "FeatureCollection",
"name": "cappamore_kilmallock",
"crs": { "type": "name", "properties": { "name": "urn:ogc:def:crs:OGC:1.3:CRS84" } },
"features": [
{ "type": "Feature", "properties": { "name": "Cappamore-Kilmallock", "metric_roundness": 48.04, "metric_rectangularity": 54.95, "metric_mobile_fit": 65.76, "metric_aspect_ratio": 0.905, "metric_area_km2": 2788.52 }, "geometry": { "type": "Polygon", "coordinates": [ [ [ -8.1686667, 52.292249 ], [ -8.1576187, 52.3009742 ], [ -8.1644391, 52.3054303 ], [ -8.1657461, 52.3188701 ], [ -8.1777805, 52.3227294 ], [ -8.1822726, 52.3304206 ], [ -8.18003, 52.3359009 ], [ -8.1675226, 52.3452979 ], [ -8.1653446, 52.3630326 ], [ -8.1679765, 52.367854 ], [ -8.1885639, 52.364315699999977 ], [ -8.2013274, 52.368627099999983 ], [ -8.2136586, 52.366843599999982 ], [ -8.2184589, 52.3782686 ], [ -8.2275079, 52.3872267 ], [ -8.2276789, 52.4037384 ], [ -8.2308718, 52.4089211 ], [ -8.2478274, 52.4094403 ], [ -8.2807478, 52.402384299999987 ], [ -8.2851624, 52.413911199999987 ], [ -8.2960659, 52.419844 ], [ -8.309295, 52.421572 ], [ -8.3147695, 52.4348147 ], [ -8.3200102, 52.4382252 ], [ -8.3263529, 52.4364595 ], [ -8.3324606, 52.4395312 ], [ -8.3511837, 52.4344206 ], [ -8.3688351, 52.4444236 ], [ -8.3862641, 52.4340919 ], [ -8.3919617, 52.439711699999982 ], [ -8.4037331, 52.4650028 ], [ -8.3910427, 52.473735 ], [ -8.3940581, 52.484051199999989 ], [ -8.3914068, 52.4888667 ], [ -8.3698382, 52.4965365 ], [ -8.3573199, 52.5103635 ], [ -8.3372059, 52.5113561 ], [ -8.3376919, 52.5014681 ], [ -8.3322562, 52.4958957 ], [ -8.3374296, 52.486583399999986 ], [ -8.3287847, 52.4812271 ], [ -8.3172158, 52.492508499999978 ], [ -8.3231947, 52.5053178 ], [ -8.2954034, 52.5120332 ], [ -8.2853842, 52.520005899999987 ], [ -8.2604536, 52.5190731 ], [ -8.2524439, 52.5109898 ], [ -8.2327601, 52.5164912 ], [ -8.2277296, 52.526168499999983 ], [ -8.2316924, 52.538293099999983 ], [ -8.2272981, 52.5540836 ], [ -8.2316352, 52.562300699999987 ], [ -8.22617, 52.572636599999981 ], [ -8.2341902, 52.582631 ], [ -8.2162917, 52.594361299999989 ], [ -8.2112145, 52.6008615 ], [ -8.211072, 52.6062125 ], [ -8.2185008, 52.614482 ], [ -8.2131219, 52.6249715 ], [ -8.2135802, 52.6326884 ], [ -8.1963236, 52.645380599999982 ], [ -8.1963263, 52.6561608 ], [ -8.1888835, 52.670408 ], [ -8.215938, 52.6703189 ], [ -8.229917, 52.6648351 ], [ -8.2530261, 52.6703626 ], [ -8.2532972, 52.681308299999984 ], [ -8.2609036, 52.6846309 ], [ -8.2853469, 52.694280099999979 ], [ -8.2954462, 52.6956731 ], [ -8.3365716, 52.6887931 ], [ -8.3403165, 52.685703299999986 ], [ -8.3595676, 52.6797853 ], [ -8.3699393, 52.683535599999985 ], [ -8.3837305, 52.6816373 ], [ -8.3880528, 52.6871709 ], [ -8.4031711, 52.6920751 ], [ -8.4147822, 52.687657099999988 ], [ -8.4272695, 52.6784805 ], [ -8.4414957, 52.686012599999984 ], [ -8.451645, 52.684654499999986 ], [ -8.464304, 52.677633 ], [ -8.4687029, 52.6690932 ], [ -8.4645291, 52.6593155 ], [ -8.4610103, 52.6575952 ], [ -8.4574492, 52.6463363 ], [ -8.4729523, 52.647141899999987 ], [ -8.4745866, 52.642611 ], [ -8.4728904, 52.6366442 ], [ -8.4678073, 52.634144899999988 ], [ -8.4498337, 52.637281 ], [ -8.4447149, 52.635284199999987 ], [ -8.4437414, 52.6312637 ], [ -8.4506351, 52.6278309 ], [ -8.4541685, 52.6220177 ], [ -8.4756965, 52.623236 ], [ -8.4773526, 52.6167448 ], [ -8.4811269, 52.6158996 ], [ -8.4918618, 52.620579499999984 ], [ -8.5193337, 52.6248688 ], [ -8.533491, 52.613256 ], [ -8.5191902, 52.6056785 ], [ -8.5223148, 52.6024004 ], [ -8.5178243, 52.5864188 ], [ -8.5107546, 52.5829562 ], [ -8.4974942, 52.5696696 ], [ -8.4979136, 52.5659327 ], [ -8.5081751, 52.561290399999983 ], [ -8.5083316, 52.5496087 ], [ -8.5402477, 52.5403679 ], [ -8.5611778, 52.5450212 ], [ -8.5807835, 52.5397334 ], [ -8.5915303, 52.540662199999986 ], [ -8.5944373, 52.5359671 ], [ -8.5859304, 52.5313899 ], [ -8.5830829, 52.5226011 ], [ -8.5840944, 52.515695199999989 ], [ -8.5902838, 52.507099699999983 ], [ -8.6207192, 52.512185099999989 ], [ -8.6352642, 52.4952669 ], [ -8.6366879, 52.49022129999998 ], [ -8.6549779, 52.484430399999987 ], [ -8.6585362, 52.4871651 ], [ -8.6667898, 52.4830762 ], [ -8.6813639, 52.4740622 ], [ -8.6719837, 52.463367 ], [ -8.6816054, 52.459551 ], [ -8.6873746, 52.4616783 ], [ -8.7141716, 52.4553534 ], [ -8.7156902, 52.44906959999998 ], [ -8.7098986, 52.4439429 ], [ -8.7235818, 52.4380526 ], [ -8.7256915, 52.435380499999987 ], [ -8.7340301, 52.4309733 ], [ -8.7349269, 52.423711499999982 ], [ -8.7455537, 52.418464399999984 ], [ -8.7632171, 52.4178018 ], [ -8.770728, 52.4180001 ], [ -8.7746242, 52.4132211 ], [ -8.7665933, 52.410911199999987 ], [ -8.7632171, 52.4052709 ], [ -8.7603112, 52.3959908 ], [ -8.7544214, 52.389060599999986 ], [ -8.7609391, 52.385672099999979 ], [ -8.7583845, 52.377843499999983 ], [ -8.7506622, 52.379045099999985 ], [ -8.7368965, 52.371737899999978 ], [ -8.7241495, 52.3714136 ], [ -8.7100233, 52.3769177 ], [ -8.6731994, 52.3829345 ], [ -8.672811, 52.3670692 ], [ -8.6613427, 52.352526 ], [ -8.6553025, 52.35208 ], [ -8.6518015, 52.347996599999981 ], [ -8.6264556, 52.345548699999988 ], [ -8.6240967, 52.3382602 ], [ -8.6171547, 52.338586499999984 ], [ -8.607348, 52.333981099999988 ], [ -8.6089645, 52.328963899999984 ], [ -8.6060236, 52.324187 ], [ -8.582689, 52.305761 ], [ -8.5771587, 52.3100284 ], [ -8.5588732, 52.3067859 ], [ -8.5435262, 52.2901546 ], [ -8.5163342, 52.2810826 ], [ -8.5059654, 52.280492 ], [ -8.4533613, 52.2874219 ], [ -8.4408368, 52.29227 ], [ -8.3878034, 52.294840799999982 ], [ -8.3810613, 52.3040181 ], [ -8.3643993, 52.3090745 ], [ -8.3607947, 52.3202284 ], [ -8.3398492, 52.3286887 ], [ -8.3340062, 52.326822799999981 ], [ -8.3312804, 52.3200797 ], [ -8.3120556, 52.3234309 ], [ -8.3105728, 52.3159873 ], [ -8.2969087, 52.295563799999989 ], [ -8.2829853, 52.2863141 ], [ -8.2734995, 52.290912399999989 ], [ -8.2463181, 52.296274 ], [ -8.2100376, 52.294506199999987 ], [ -8.1966661, 52.2877169 ], [ -8.1832085, 52.287675499999985 ], [ -8.1686667, 52.292249 ] ] ] } }
]
}
