{
"type": "FeatureCollection",
"name": "capralba",
"crs": { "type": "name", "properties": { "name": "urn:ogc:def:crs:OGC:1.3:CRS84" } },
"features": [
{ "type": "Feature", "properties": { "name": "Capralba", "metric_roundness": 36.54, "metric_rectangularity": 60.83, "metric_mobile_fit": 84.11, "metric_aspect_ratio": 0.721, "metric_area_km2": 27.48 }, "geometry": { "type": "Polygon", "coordinates": [ [ [ 9.625778, 45.431893 ], [ 9.6336058, 45.4276967 ], [ 9.635945, 45.421724 ], [ 9.6396434, 45.4217839 ], [ 9.6429251, 45.4175253 ], [ 9.6489335, 45.4206893 ], [ 9.6662635, 45.401073 ], [ 9.6683505, 45.4174255 ], [ 9.661472, 45.431271 ], [ 9.6618365, 45.437221 ], [ 9.650335, 45.454029 ], [ 9.6394512, 45.458275799999988 ], [ 9.6266365, 45.456151499999983 ], [ 9.6095485, 45.442994 ], [ 9.610526, 45.4394375 ], [ 9.622496, 45.4299035 ], [ 9.625778, 45.431893 ] ] ] } }
]
}
