{
"type": "FeatureCollection",
"name": "capusu_mare",
"crs": { "type": "name", "properties": { "name": "urn:ogc:def:crs:OGC:1.3:CRS84" } },
"features": [
{ "type": "Feature", "properties": { "name": "Căpuşu Mare", "feature_type": "entity", "metric_roundness": 61.66, "metric_rectangularity": 63.8, "metric_mobile_fit": 59.32, "metric_aspect_ratio": 0.969, "metric_area_km2": 285.28 }, "geometry": { "type": "Polygon", "coordinates": [ [ [ 23.147327, 46.831241799999987 ], [ 23.1430825, 46.828624499999989 ], [ 23.1495676, 46.823976099999982 ], [ 23.1492181, 46.819003899999977 ], [ 23.1684892, 46.795631 ], [ 23.167751, 46.788263199999989 ], [ 23.1597734, 46.780117 ], [ 23.155719, 46.762283 ], [ 23.160008, 46.759691299999979 ], [ 23.1660323, 46.752584899999988 ], [ 23.1752351, 46.745815499999985 ], [ 23.1748465, 46.737736299999987 ], [ 23.176351, 46.7346095 ], [ 23.1895598, 46.7312605 ], [ 23.1945129, 46.716299199999987 ], [ 23.1994219, 46.7160536 ], [ 23.215194, 46.721694499999984 ], [ 23.2275568, 46.722690499999985 ], [ 23.2337327, 46.728580399999984 ], [ 23.2354214, 46.7268221 ], [ 23.2359519, 46.721693 ], [ 23.2376248, 46.720222699999987 ], [ 23.2538131, 46.720708399999985 ], [ 23.264168, 46.718791299999985 ], [ 23.267569, 46.7171105 ], [ 23.274378, 46.716151899999986 ], [ 23.2853479, 46.727480699999987 ], [ 23.2903788, 46.744942099999982 ], [ 23.294055, 46.7483833 ], [ 23.3142606, 46.7528791 ], [ 23.3219312, 46.7485679 ], [ 23.3303098, 46.753432499999981 ], [ 23.3264456, 46.7656337 ], [ 23.3294268, 46.772141499999989 ], [ 23.3245439, 46.780108899999988 ], [ 23.3299966, 46.787875899999989 ], [ 23.3305801, 46.796492199999989 ], [ 23.3280825, 46.800062 ], [ 23.2925971, 46.815654 ], [ 23.2795028, 46.8144998 ], [ 23.2646528, 46.8180301 ], [ 23.2051339, 46.8485167 ], [ 23.2011806, 46.84642719999998 ], [ 23.1970176, 46.8355341 ], [ 23.183326, 46.827203 ], [ 23.1722394, 46.8257602 ], [ 23.159465, 46.830652 ], [ 23.147327, 46.831241799999987 ] ] ] } },
{ "type": "Feature", "properties": { "name": "Căpuşu Mare", "feature_type": "circle", "metric_roundness": 61.66, "metric_rectangularity": 63.8, "metric_mobile_fit": 59.32, "metric_aspect_ratio": 0.969, "metric_area_km2": 285.28 }, "geometry": { "type": "Polygon", "coordinates": [ [ [ 23.34039511246214, 46.784803592246881 ], [ 23.340245672742963, 46.780895724027616 ], [ 23.339797763189303, 46.776998284504835 ], [ 23.339052611490125, 46.773121959769789 ], [ 23.338012260054434, 46.769277380319124 ], [ 23.336679560413202, 46.765475091854356 ], [ 23.335058165403513, 46.761725526289453 ], [ 23.333152519156393, 46.758038973047007 ], [ 23.33096784491573, 46.7544255507228 ], [ 23.328510130721767, 46.750895179198004 ], [ 23.325786112998287, 46.747457552276977 ], [ 23.32280325808852, 46.744122110927705 ], [ 23.319569741790431, 46.740898017200145 ], [ 23.316094426947444, 46.737794128896411 ], [ 23.312386839155973, 46.734818975064357 ], [ 23.308457140656447, 46.731980732384443 ], [ 23.304316102479298, 46.729287202517071 ], [ 23.29997507492233, 46.726745790475135 ], [ 23.295445956440336, 46.72436348408376 ], [ 23.290741161032262, 46.722146834586241 ], [ 23.285873584215292, 46.720101938451776 ], [ 23.280856567679148, 46.71823442043781 ], [ 23.275703862717421, 46.716549417955449 ], [ 23.270429592536246, 46.715051566783643 ], [ 23.265048213543587, 46.71374498817314 ], [ 23.259574475725206, 46.712633277377982 ], [ 23.254023382215987, 46.711719493647522 ], [ 23.248410148177392, 46.711006151708354 ], [ 23.242750159093742, 46.710495214760918 ], [ 23.237058928601698, 46.710188089010963 ], [ 23.231352055968447, 46.710085619752157 ], [ 23.2256451833352, 46.710188089010963 ], [ 23.219953952843156, 46.710495214760918 ], [ 23.214293963759506, 46.711006151708354 ], [ 23.208680729720907, 46.711719493647522 ], [ 23.203129636211692, 46.712633277377982 ], [ 23.197655898393311, 46.71374498817314 ], [ 23.192274519400648, 46.715051566783643 ], [ 23.18700024921948, 46.716549417955449 ], [ 23.181847544257746, 46.71823442043781 ], [ 23.176830527721606, 46.720101938451776 ], [ 23.171962950904636, 46.722146834586241 ], [ 23.167258155496558, 46.72436348408376 ], [ 23.162729037014564, 46.726745790475135 ], [ 23.1583880094576, 46.729287202517071 ], [ 23.15424697128045, 46.731980732384443 ], [ 23.150317272780921, 46.734818975064357 ], [ 23.14660968498945, 46.737794128896411 ], [ 23.143134370146463, 46.740898017200145 ], [ 23.139900853848378, 46.744122110927705 ], [ 23.136917998938607, 46.747457552276977 ], [ 23.134193981215127, 46.750895179198004 ], [ 23.131736267021168, 46.7544255507228 ], [ 23.129551592780505, 46.758038973047007 ], [ 23.127645946533381, 46.761725526289453 ], [ 23.126024551523692, 46.765475091854356 ], [ 23.12469185188246, 46.769277380319124 ], [ 23.123651500446769, 46.773121959769789 ], [ 23.122906348747595, 46.776998284504835 ], [ 23.122458439193935, 46.780895724027616 ], [ 23.122308999474754, 46.784803592246881 ], [ 23.122458439193935, 46.788711176804675 ], [ 23.122906348747595, 46.792607768450928 ], [ 23.123651500446769, 46.796482690383918 ], [ 23.12469185188246, 46.800325327476401 ], [ 23.126024551523692, 46.804125155307787 ], [ 23.127645946533381, 46.807871768923356 ], [ 23.129551592780505, 46.811554911242737 ], [ 23.131736267021168, 46.815164501040982 ], [ 23.134193981215127, 46.818690660426924 ], [ 23.136917998938607, 46.822123741745322 ], [ 23.139900853848378, 46.825454353830828 ], [ 23.143134370146463, 46.828673387543915 ], [ 23.14660968498945, 46.831772040521109 ], [ 23.150317272780921, 46.834741841073892 ], [ 23.15424697128045, 46.837574671173485 ], [ 23.1583880094576, 46.840262788460855 ], [ 23.162729037014564, 46.842798847224444 ], [ 23.167258155496558, 46.845175918290749 ], [ 23.171962950904636, 46.847387507775785 ], [ 23.176830527721606, 46.849427574648864 ], [ 23.181847544257746, 46.851290547062924 ], [ 23.187000249219476, 46.852971337409322 ], [ 23.192274519400648, 46.854465356058135 ], [ 23.197655898393311, 46.855768523748466 ], [ 23.203129636211692, 46.856877282596997 ], [ 23.208680729720907, 46.857788605696477 ], [ 23.214293963759506, 46.858500005279438 ], [ 23.219953952843156, 46.859009539426303 ], [ 23.2256451833352, 46.859315817300654 ], [ 23.231352055968447, 46.859418002898309 ], [ 23.237058928601698, 46.859315817300654 ], [ 23.242750159093742, 46.859009539426303 ], [ 23.248410148177392, 46.858500005279438 ], [ 23.254023382215987, 46.857788605696477 ], [ 23.259574475725206, 46.856877282596997 ], [ 23.265048213543587, 46.855768523748466 ], [ 23.270429592536246, 46.854465356058135 ], [ 23.275703862717418, 46.852971337409322 ], [ 23.280856567679148, 46.851290547062924 ], [ 23.285873584215292, 46.849427574648864 ], [ 23.290741161032262, 46.847387507775785 ], [ 23.295445956440336, 46.845175918290749 ], [ 23.29997507492233, 46.842798847224444 ], [ 23.304316102479298, 46.840262788460855 ], [ 23.308457140656447, 46.837574671173485 ], [ 23.312386839155973, 46.834741841073892 ], [ 23.316094426947444, 46.831772040521109 ], [ 23.319569741790431, 46.828673387543915 ], [ 23.32280325808852, 46.825454353830828 ], [ 23.325786112998287, 46.822123741745322 ], [ 23.328510130721767, 46.818690660426924 ], [ 23.33096784491573, 46.815164501040982 ], [ 23.333152519156393, 46.811554911242737 ], [ 23.335058165403513, 46.807871768923356 ], [ 23.336679560413202, 46.804125155307787 ], [ 23.338012260054434, 46.800325327476401 ], [ 23.339052611490125, 46.796482690383918 ], [ 23.339797763189303, 46.792607768450928 ], [ 23.340245672742963, 46.788711176804675 ], [ 23.34039511246214, 46.784803592246881 ] ] ] } },
{ "type": "Feature", "properties": { "name": "Căpuşu Mare", "feature_type": "mrr", "metric_roundness": 61.66, "metric_rectangularity": 63.8, "metric_mobile_fit": 59.32, "metric_aspect_ratio": 0.969, "metric_area_km2": 285.28 }, "geometry": { "type": "Polygon", "coordinates": [ [ [ 23.166333954354617, 46.706491390985519 ], [ 23.140391375718547, 46.842742320668819 ], [ 23.31873396065788, 46.858647197212306 ], [ 23.34467653929395, 46.722436564633099 ], [ 23.166333954354617, 46.706491390985519 ] ] ] } }
]
}
