{
"type": "FeatureCollection",
"name": "carona",
"crs": { "type": "name", "properties": { "name": "urn:ogc:def:crs:OGC:1.3:CRS84" } },
"features": [
{ "type": "Feature", "properties": { "name": "Carona", "feature_type": "entity", "metric_roundness": 41.7, "metric_rectangularity": 72.97, "metric_mobile_fit": -54.06, "metric_aspect_ratio": 2.103, "metric_area_km2": 91.88 }, "geometry": { "type": "Polygon", "coordinates": [ [ [ 9.8014364, 46.049216199999982 ], [ 9.7899803, 46.0440392 ], [ 9.7841769, 46.0350027 ], [ 9.765289, 46.0326775 ], [ 9.765176, 46.032206 ], [ 9.7638746, 46.0165404 ], [ 9.7815208, 46.0047492 ], [ 9.7969073, 46.0065547 ], [ 9.8230276, 46.004058699999987 ], [ 9.8340469, 46.0070804 ], [ 9.8418205, 46.00233549999998 ], [ 9.8569286, 46.0099879 ], [ 9.8782194, 46.008959699999984 ], [ 9.886455, 46.011943499999987 ], [ 9.9013645, 46.0245726 ], [ 9.904009, 46.0330436 ], [ 9.9105375, 46.037351 ], [ 9.908101, 46.046389 ], [ 9.8859036, 46.0457952 ], [ 9.8725371, 46.050755200000012 ], [ 9.8610894, 46.0464032 ], [ 9.848008, 46.0467235 ], [ 9.8364474, 46.044602699999984 ], [ 9.827722, 46.049804699999989 ], [ 9.811091, 46.049692 ], [ 9.8014364, 46.049216199999982 ] ] ] } },
{ "type": "Feature", "properties": { "name": "Carona", "feature_type": "circle", "metric_roundness": 41.7, "metric_rectangularity": 72.97, "metric_mobile_fit": -54.06, "metric_aspect_ratio": 2.103, "metric_area_km2": 91.88 }, "geometry": { "type": "Polygon", "coordinates": [ [ [ 9.91123683668572, 46.031466715001834 ], [ 9.911133710496191, 46.028732478984367 ], [ 9.910824614589322, 46.026005602613338 ], [ 9.910310396175504, 46.02329356172757 ], [ 9.909592464691668, 46.020603792589839 ], [ 9.908672787938112, 46.017943671474384 ], [ 9.907553886684887, 46.015320494407533 ], [ 9.906238827762561, 46.012741457116839 ], [ 9.904731215656222, 46.010213635244895 ], [ 9.903035182625867, 46.007743964882167 ], [ 9.901155377380141, 46.005339223473548 ], [ 9.899096952334562, 46.003006011151363 ], [ 9.896865549489092, 46.000750732547345 ], [ 9.894467284963834, 45.998579579134393 ], [ 9.891908732235153, 45.996498512147497 ], [ 9.889196904118227, 45.994513246132158 ], [ 9.886339233545435, 45.992629233166241 ], [ 9.883343553193182, 45.990851647800135 ], [ 9.880218074013081, 45.98918537275744 ], [ 9.876971362726321, 45.987634985436891 ], [ 9.873612318342861, 45.98620474525368 ], [ 9.87015014776987, 45.984898581856108 ], [ 9.866594340576237, 45.983720084251019 ], [ 9.86295464298232, 45.982672490869042 ], [ 9.85924103114623, 45.981758680597878 ], [ 9.855463683819881, 45.980981164809187 ], [ 9.851632954449736, 45.980342080401947 ], [ 9.847759342798721, 45.979843183881925 ], [ 9.843853466167129, 45.97948584649447 ], [ 9.839926030291306, 45.979271050424337 ], [ 9.8359878, 45.979199386073411 ], [ 9.83204956970869, 45.979271050424337 ], [ 9.828122133832869, 45.97948584649447 ], [ 9.824216257201275, 45.979843183881925 ], [ 9.82034264555026, 45.980342080401947 ], [ 9.816511916180115, 45.980981164809187 ], [ 9.812734568853767, 45.981758680597878 ], [ 9.809020957017676, 45.982672490869042 ], [ 9.805381259423759, 45.983720084251019 ], [ 9.801825452230128, 45.984898581856108 ], [ 9.798363281657135, 45.98620474525368 ], [ 9.795004237273677, 45.987634985436891 ], [ 9.791757525986915, 45.98918537275744 ], [ 9.788632046806814, 45.990851647800135 ], [ 9.785636366454559, 45.992629233166241 ], [ 9.782778695881767, 45.994513246132158 ], [ 9.780066867764843, 45.996498512147497 ], [ 9.777508315036162, 45.998579579134393 ], [ 9.775110050510904, 46.000750732547345 ], [ 9.772878647665436, 46.003006011151363 ], [ 9.770820222619855, 46.005339223473548 ], [ 9.768940417374129, 46.007743964882167 ], [ 9.767244384343774, 46.010213635244895 ], [ 9.765736772237437, 46.012741457116839 ], [ 9.764421713315107, 46.015320494407533 ], [ 9.763302812061884, 46.017943671474384 ], [ 9.762383135308326, 46.020603792589839 ], [ 9.761665203824492, 46.02329356172757 ], [ 9.761150985410675, 46.026005602613338 ], [ 9.760841889503803, 46.028732478984367 ], [ 9.760738763314274, 46.031466715001834 ], [ 9.760841889503803, 46.034200815759725 ], [ 9.761150985410675, 46.036927287833954 ], [ 9.761665203824492, 46.039638659815274 ], [ 9.762383135308326, 46.042327502769552 ], [ 9.763302812061884, 46.044986450570015 ], [ 9.764421713315107, 46.047608220045468 ], [ 9.765736772237437, 46.050185630890176 ], [ 9.767244384343774, 46.052711625281297 ], [ 9.768940417374129, 46.055179287150601 ], [ 9.770820222619855, 46.057581861058694 ], [ 9.772878647665436, 46.059912770620848 ], [ 9.775110050510904, 46.062165636434855 ], [ 9.777508315036162, 46.064334293462878 ], [ 9.780066867764843, 46.066412807820818 ], [ 9.782778695881767, 46.068395492930335 ], [ 9.785636366454559, 46.070276924990495 ], [ 9.788632046806814, 46.072051957727872 ], [ 9.791757525986915, 46.073715736385978 ], [ 9.795004237273677, 46.075263710916992 ], [ 9.798363281657135, 46.076691648340741 ], [ 9.801825452230128, 46.077995644238428 ], [ 9.805381259423759, 46.079172133350774 ], [ 9.809020957017676, 46.080217899252624 ], [ 9.812734568853767, 46.081130083078506 ], [ 9.816511916180115, 46.081906191276424 ], [ 9.82034264555026, 46.082544102369255 ], [ 9.824216257201275, 46.083042072706291 ], [ 9.828122133832869, 46.083398741189633 ], [ 9.83204956970869, 46.083613132963194 ], [ 9.8359878, 46.083684662054615 ], [ 9.839926030291306, 46.083613132963194 ], [ 9.843853466167129, 46.083398741189633 ], [ 9.847759342798721, 46.083042072706291 ], [ 9.851632954449736, 46.082544102369255 ], [ 9.855463683819881, 46.081906191276424 ], [ 9.85924103114623, 46.081130083078506 ], [ 9.86295464298232, 46.080217899252624 ], [ 9.866594340576237, 46.079172133350774 ], [ 9.87015014776987, 46.077995644238428 ], [ 9.873612318342861, 46.076691648340741 ], [ 9.876971362726321, 46.075263710916992 ], [ 9.880218074013081, 46.073715736385978 ], [ 9.883343553193182, 46.072051957727872 ], [ 9.886339233545435, 46.070276924990495 ], [ 9.889196904118227, 46.068395492930335 ], [ 9.891908732235153, 46.066412807820818 ], [ 9.894467284963834, 46.064334293462878 ], [ 9.896865549489092, 46.062165636434855 ], [ 9.899096952334562, 46.059912770620848 ], [ 9.901155377380141, 46.057581861058694 ], [ 9.903035182625867, 46.055179287150601 ], [ 9.904731215656222, 46.052711625281297 ], [ 9.906238827762561, 46.050185630890191 ], [ 9.907553886684887, 46.047608220045468 ], [ 9.908672787938112, 46.044986450570015 ], [ 9.909592464691668, 46.042327502769552 ], [ 9.910310396175504, 46.039638659815274 ], [ 9.910824614589322, 46.036927287833954 ], [ 9.911133710496191, 46.034200815759725 ], [ 9.91123683668572, 46.031466715001834 ] ] ] } },
{ "type": "Feature", "properties": { "name": "Carona", "feature_type": "mrr", "metric_roundness": 41.7, "metric_rectangularity": 72.97, "metric_mobile_fit": -54.06, "metric_aspect_ratio": 2.103, "metric_area_km2": 91.88 }, "geometry": { "type": "Polygon", "coordinates": [ [ [ 9.762714151870943, 46.04885492038413 ], [ 9.910032738586141, 46.051403973724035 ], [ 9.911751192334089, 46.003546541950854 ], [ 9.764432605618893, 46.000995280789162 ], [ 9.762714151870943, 46.04885492038413 ] ] ] } }
]
}
