{
"type": "FeatureCollection",
"name": "casarile",
"crs": { "type": "name", "properties": { "name": "urn:ogc:def:crs:OGC:1.3:CRS84" } },
"features": [
{ "type": "Feature", "properties": { "name": "Casarile", "feature_type": "entity", "metric_roundness": 50.46, "metric_rectangularity": 69.12, "metric_mobile_fit": -12.56, "metric_aspect_ratio": 1.688, "metric_area_km2": 14.32 }, "geometry": { "type": "Polygon", "coordinates": [ [ [ 9.1149371, 45.3255875 ], [ 9.0920365, 45.3232522 ], [ 9.0849665, 45.3253135 ], [ 9.085415, 45.321095 ], [ 9.081526, 45.3157725 ], [ 9.0761206, 45.3071258 ], [ 9.0820347, 45.303310599999989 ], [ 9.09195, 45.3054711 ], [ 9.1014013, 45.303709599999976 ], [ 9.1046642, 45.3070187 ], [ 9.1108185, 45.306937499999982 ], [ 9.1184528, 45.309245 ], [ 9.1236913, 45.3075444 ], [ 9.129596, 45.3110885 ], [ 9.1261709, 45.318346199999986 ], [ 9.12081, 45.321908 ], [ 9.1149371, 45.3255875 ] ] ] } },
{ "type": "Feature", "properties": { "name": "Casarile", "feature_type": "circle", "metric_roundness": 50.46, "metric_rectangularity": 69.12, "metric_mobile_fit": -12.56, "metric_aspect_ratio": 1.688, "metric_area_km2": 14.32 }, "geometry": { "type": "Polygon", "coordinates": [ [ [ 9.129597078878611, 45.310918724275133 ], [ 9.129560062347105, 45.309924585273734 ], [ 9.12944911421233, 45.308933153772614 ], [ 9.129264538575411, 45.307947147430703 ], [ 9.129006841345339, 45.30696926917706 ], [ 9.128676728852309, 45.306002199798449 ], [ 9.128275105911717, 45.305048590586139 ], [ 9.127803073344131, 45.304111056062055 ], [ 9.127261924958002, 45.30319216680445 ], [ 9.126653144003448, 45.302294442392643 ], [ 9.125978399106746, 45.301420344490403 ], [ 9.125239539696759, 45.300572270087144 ], [ 9.124438590935769, 45.299752544915229 ], [ 9.123577748168659, 45.298963417062076 ], [ 9.122659370905618, 45.298207050794232 ], [ 9.121685976354884, 45.297485520610792 ], [ 9.120660232523267, 45.296800805542532 ], [ 9.119584950903304, 45.296154783712581 ], [ 9.11846307876718, 45.295549227173595 ], [ 9.117297691088435, 45.294985797035913 ], [ 9.116091982113696, 45.294466038900069 ], [ 9.114849256607451, 45.293991378606393 ], [ 9.113572920793931, 45.293563118313543 ], [ 9.11226647302089, 45.293182432916822 ], [ 9.110933494170855, 45.292850366816161 ], [ 9.109577637846208, 45.292567831042966 ], [ 9.108202620354884, 45.292335600753518 ], [ 9.106812210524254, 45.292154313096212 ], [ 9.105410219371018, 45.292024465458404 ], [ 9.104000489655474, 45.291946414097644 ], [ 9.102586885348783, 45.291920373161396 ], [ 9.101173281042094, 45.291946414097644 ], [ 9.099763551326548, 45.292024465458404 ], [ 9.098361560173311, 45.292154313096212 ], [ 9.096971150342682, 45.292335600753518 ], [ 9.095596132851361, 45.292567831042966 ], [ 9.09424027652671, 45.292850366816161 ], [ 9.092907297676678, 45.293182432916822 ], [ 9.091600849903633, 45.293563118313543 ], [ 9.090324514090117, 45.293991378606393 ], [ 9.08908178858387, 45.294466038900069 ], [ 9.08787607960913, 45.294985797035913 ], [ 9.086710691930385, 45.295549227173595 ], [ 9.08558881979426, 45.296154783712581 ], [ 9.084513538174301, 45.296800805542532 ], [ 9.083487794342684, 45.297485520610792 ], [ 9.08251439979195, 45.298207050794232 ], [ 9.081596022528908, 45.298963417062076 ], [ 9.080735179761797, 45.299752544915229 ], [ 9.079934231000809, 45.300572270087144 ], [ 9.079195371590821, 45.301420344490403 ], [ 9.078520626694118, 45.302294442392643 ], [ 9.077911845739564, 45.30319216680445 ], [ 9.077370697353437, 45.304111056062055 ], [ 9.076898664785849, 45.305048590586139 ], [ 9.07649704184526, 45.306002199798449 ], [ 9.07616692935223, 45.30696926917706 ], [ 9.075909232122156, 45.307947147430703 ], [ 9.075724656485237, 45.308933153772614 ], [ 9.075613708350463, 45.309924585273734 ], [ 9.075576691818958, 45.310918724275133 ], [ 9.075613708350463, 45.311912845839302 ], [ 9.075724656485237, 45.312904225219775 ], [ 9.075909232122156, 45.313890145328671 ], [ 9.07616692935223, 45.31486790418171 ], [ 9.07649704184526, 45.315834822300317 ], [ 9.076898664785849, 45.31678825005045 ], [ 9.077370697353437, 45.317725574898326 ], [ 9.077911845739564, 45.318644228562945 ], [ 9.078520626694118, 45.319541694046215 ], [ 9.079195371590821, 45.320415512521208 ], [ 9.079934231000809, 45.32126329006001 ], [ 9.080735179761797, 45.322082704182726 ], [ 9.081596022528908, 45.322871510209886 ], [ 9.08251439979195, 45.323627547400925 ], [ 9.083487794342684, 45.324348744862192 ], [ 9.084513538174301, 45.325033127208293 ], [ 9.08558881979426, 45.325678819961446 ], [ 9.086710691930385, 45.326284054674439 ], [ 9.08787607960913, 45.326847173762943 ], [ 9.08908178858387, 45.32736663503433 ], [ 9.090324514090117, 45.327841015900781 ], [ 9.091600849903633, 45.328269017265086 ], [ 9.092907297676678, 45.328649467068836 ], [ 9.09424027652671, 45.328981323493302 ], [ 9.095596132851361, 45.329263677804335 ], [ 9.096971150342682, 45.329495756833794 ], [ 9.098361560173311, 45.329676925090496 ], [ 9.099763551326548, 45.329806686495296 ], [ 9.101173281042094, 45.329884685735408 ], [ 9.102586885348783, 45.329910709234447 ], [ 9.104000489655474, 45.329884685735408 ], [ 9.105410219371018, 45.329806686495296 ], [ 9.106812210524254, 45.329676925090496 ], [ 9.108202620354884, 45.329495756833794 ], [ 9.109577637846208, 45.329263677804335 ], [ 9.110933494170855, 45.328981323493302 ], [ 9.11226647302089, 45.328649467068836 ], [ 9.113572920793931, 45.328269017265086 ], [ 9.114849256607451, 45.327841015900781 ], [ 9.116091982113696, 45.32736663503433 ], [ 9.117297691088435, 45.326847173762943 ], [ 9.11846307876718, 45.326284054674439 ], [ 9.119584950903304, 45.325678819961446 ], [ 9.120660232523267, 45.325033127208293 ], [ 9.121685976354884, 45.324348744862192 ], [ 9.122659370905618, 45.323627547400925 ], [ 9.123577748168659, 45.322871510209886 ], [ 9.124438590935769, 45.322082704182726 ], [ 9.125239539696759, 45.32126329006001 ], [ 9.125978399106746, 45.320415512521208 ], [ 9.126653144003448, 45.319541694046215 ], [ 9.127261924958002, 45.318644228562945 ], [ 9.127803073344131, 45.317725574898326 ], [ 9.128275105911717, 45.31678825005045 ], [ 9.128676728852309, 45.315834822300317 ], [ 9.129006841345339, 45.31486790418171 ], [ 9.129264538575411, 45.313890145328671 ], [ 9.12944911421233, 45.312904225219775 ], [ 9.129560062347105, 45.311912845839302 ], [ 9.129597078878611, 45.310918724275133 ] ] ] } },
{ "type": "Feature", "properties": { "name": "Casarile", "feature_type": "mrr", "metric_roundness": 50.46, "metric_rectangularity": 69.12, "metric_mobile_fit": -12.56, "metric_aspect_ratio": 1.688, "metric_area_km2": 14.32 }, "geometry": { "type": "Polygon", "coordinates": [ [ [ 9.129878894121536, 45.304296303442058 ], [ 9.076284431359616, 45.303192129127979 ], [ 9.07537121918865, 45.325115888579198 ], [ 9.12896568195057, 45.326219635809792 ], [ 9.129878894121536, 45.304296303442058 ] ] ] } }
]
}
