{
"type": "FeatureCollection",
"name": "casalfiumanese",
"crs": { "type": "name", "properties": { "name": "urn:ogc:def:crs:OGC:1.3:CRS84" } },
"features": [
{ "type": "Feature", "properties": { "name": "Casalfiumanese", "feature_type": "entity", "metric_roundness": 32.81, "metric_rectangularity": 45.7, "metric_mobile_fit": 46.11, "metric_aspect_ratio": 1.101, "metric_area_km2": 161.05 }, "geometry": { "type": "Polygon", "coordinates": [ [ [ 11.5889315, 44.2927145 ], [ 11.606537, 44.2864817 ], [ 11.6172892, 44.2899557 ], [ 11.6256268, 44.2868153 ], [ 11.6403075, 44.296176 ], [ 11.6304739, 44.300477699999981 ], [ 11.6198435, 44.3098542 ], [ 11.5935699, 44.312583499999988 ], [ 11.5864699, 44.318494099999988 ], [ 11.5853505, 44.324462499999981 ], [ 11.5885243, 44.3290113 ], [ 11.6014493, 44.329264599999988 ], [ 11.5984641, 44.337174 ], [ 11.605664, 44.3443385 ], [ 11.590777, 44.3572395 ], [ 11.5756186, 44.3568709 ], [ 11.5661082, 44.352987100000014 ], [ 11.5523588, 44.3575392 ], [ 11.5419745, 44.3566318 ], [ 11.5397247, 44.353138199999989 ], [ 11.5559367, 44.343895199999984 ], [ 11.5365423, 44.3318045 ], [ 11.5284727, 44.3301048 ], [ 11.5217842, 44.3216974 ], [ 11.5235286, 44.3181665 ], [ 11.5215639, 44.3109144 ], [ 11.480744, 44.3088135 ], [ 11.481926, 44.2934731 ], [ 11.4741881, 44.2788293 ], [ 11.4598195, 44.267700299999987 ], [ 11.4475454, 44.2639314 ], [ 11.4430009, 44.257041799999982 ], [ 11.430844, 44.250482 ], [ 11.4392392, 44.2435151 ], [ 11.4621446, 44.2411857 ], [ 11.4699381, 44.243600799999989 ], [ 11.4838447, 44.2372424 ], [ 11.4909949, 44.229416699999987 ], [ 11.499791, 44.2309808 ], [ 11.5248663, 44.222562799999984 ], [ 11.5282459, 44.2214283 ], [ 11.541272, 44.2214005 ], [ 11.5388003, 44.2225628 ], [ 11.5321485, 44.225690899999989 ], [ 11.5200207, 44.2374941 ], [ 11.5245413, 44.248384799999982 ], [ 11.5300146, 44.2505265 ], [ 11.5256415, 44.2553621 ], [ 11.5108354, 44.244902199999984 ], [ 11.5087816, 44.2376788 ], [ 11.4979405, 44.237304699999989 ], [ 11.495735, 44.239035699999988 ], [ 11.4995155, 44.2463612 ], [ 11.4968356, 44.2581941 ], [ 11.5037331, 44.2724385 ], [ 11.5186319, 44.2642858 ], [ 11.5202018, 44.274748599999974 ], [ 11.5262457, 44.2831358 ], [ 11.524269, 44.291459499999988 ], [ 11.536381, 44.294007 ], [ 11.5390648, 44.2862528 ], [ 11.5560035, 44.2783415 ], [ 11.5889315, 44.2927145 ] ] ] } },
{ "type": "Feature", "properties": { "name": "Casalfiumanese", "feature_type": "circle", "metric_roundness": 32.81, "metric_rectangularity": 45.7, "metric_mobile_fit": 46.11, "metric_aspect_ratio": 1.101, "metric_area_km2": 161.05 }, "geometry": { "type": "Polygon", "coordinates": [ [ [ 11.640589631134853, 44.290481499061379 ], [ 11.640435712117478, 44.286273874529869 ], [ 11.639974376946675, 44.2820774826302 ], [ 11.63920689011008, 44.277903829082717 ], [ 11.638135355235766, 44.273764359705517 ], [ 11.636762709326344, 44.269670428975211 ], [ 11.63509271470884, 44.265633268812159 ], [ 11.633129948722418, 44.26166395767688 ], [ 11.630879791172214, 44.257773390063569 ], [ 11.628348409583676, 44.253972246475925 ], [ 11.625542742297776, 44.250270963969342 ], [ 11.622470479453527, 44.246679707342217 ], [ 11.619140041909837, 44.24320834105761 ], [ 11.615560558164516, 44.239866401974439 ], [ 11.611741839333702, 44.236663072965705 ], [ 11.607694352260275, 44.233607157498462 ], [ 11.603429190824965, 44.230707055248232 ], [ 11.598958045538801, 44.227970738817156 ], [ 11.594293171500224, 44.225405731622914 ], [ 11.589447354804724, 44.223019087021569 ], [ 11.584433877499036, 44.22081736872444 ], [ 11.579266481175971, 44.218806632565546 ], [ 11.573959329309666, 44.21699240967201 ], [ 11.568526968434496, 44.215379691086298 ], [ 11.562984288274018, 44.213972913884753 ], [ 11.557346480929288, 44.212775948832615 ], [ 11.551628999238355, 44.211792089611372 ], [ 11.545847514421119, 44.211024043649985 ], [ 11.540017873125596, 44.210473924586246 ], [ 11.534156053993366, 44.210143246380667 ], [ 11.528278123863217, 44.21003291909966 ], [ 11.52240019373307, 44.210143246380667 ], [ 11.51653837460084, 44.210473924586246 ], [ 11.510708733305316, 44.211024043649985 ], [ 11.504927248488078, 44.211792089611372 ], [ 11.499209766797147, 44.212775948832615 ], [ 11.493571959452417, 44.213972913884753 ], [ 11.488029279291938, 44.215379691086298 ], [ 11.482596918416768, 44.21699240967201 ], [ 11.477289766550465, 44.218806632565546 ], [ 11.472122370227398, 44.22081736872444 ], [ 11.46710889292171, 44.223019087021569 ], [ 11.462263076226211, 44.225405731622914 ], [ 11.457598202187635, 44.227970738817142 ], [ 11.453127056901469, 44.230707055248232 ], [ 11.448861895466159, 44.233607157498462 ], [ 11.444814408392734, 44.236663072965705 ], [ 11.44099568956192, 44.239866401974439 ], [ 11.437416205816598, 44.24320834105761 ], [ 11.434085768272908, 44.246679707342217 ], [ 11.431013505428659, 44.250270963969342 ], [ 11.428207838142759, 44.253972246475925 ], [ 11.425676456554219, 44.257773390063569 ], [ 11.423426299004019, 44.26166395767688 ], [ 11.421463533017596, 44.265633268812159 ], [ 11.419793538400089, 44.269670428975211 ], [ 11.418420892490669, 44.273764359705517 ], [ 11.417349357616356, 44.277903829082717 ], [ 11.416581870779762, 44.2820774826302 ], [ 11.416120535608957, 44.286273874529869 ], [ 11.415966616591581, 44.290481499061379 ], [ 11.416120535608957, 44.294688822179189 ], [ 11.416581870779762, 44.298884313140086 ], [ 11.417349357616356, 44.303056476094653 ], [ 11.418420892490669, 44.307193881556032 ], [ 11.419793538400089, 44.311285197660382 ], [ 11.421463533017596, 44.31531922113377 ], [ 11.423426299004019, 44.319284907881951 ], [ 11.425676456554219, 44.323171403120355 ], [ 11.428207838142759, 44.326968070963119 ], [ 11.431013505428659, 44.330664523392123 ], [ 11.434085768272908, 44.334250648528354 ], [ 11.437416205816598, 44.337716638130502 ], [ 11.44099568956192, 44.341053014247748 ], [ 11.444814408392734, 44.344250654956134 ], [ 11.448861895466159, 44.347300819110842 ], [ 11.453127056901469, 44.350195170048934 ], [ 11.457598202187635, 44.352925798180841 ], [ 11.462263076226211, 44.355485242411071 ], [ 11.46710889292171, 44.357866510332506 ], [ 11.472122370227398, 44.360063097141833 ], [ 11.477289766550465, 44.362069003226637 ], [ 11.482596918416768, 44.363878750379044 ], [ 11.488029279291938, 44.365487396593664 ], [ 11.493571959452417, 44.366890549411849 ], [ 11.499209766797147, 44.368084377777812 ], [ 11.504927248488078, 44.369065622376176 ], [ 11.510708733305316, 44.369831604424313 ], [ 11.51653837460084, 44.370380232897027 ], [ 11.52240019373307, 44.370710010165027 ], [ 11.528278123863217, 44.370820036032725 ], [ 11.534156053993366, 44.370710010165027 ], [ 11.540017873125596, 44.370380232897027 ], [ 11.545847514421119, 44.369831604424313 ], [ 11.551628999238355, 44.369065622376176 ], [ 11.557346480929288, 44.368084377777812 ], [ 11.562984288274018, 44.366890549411849 ], [ 11.568526968434496, 44.365487396593664 ], [ 11.573959329309666, 44.363878750379044 ], [ 11.579266481175971, 44.362069003226637 ], [ 11.584433877499036, 44.360063097141833 ], [ 11.589447354804724, 44.357866510332506 ], [ 11.594293171500224, 44.355485242411071 ], [ 11.598958045538801, 44.352925798180856 ], [ 11.603429190824965, 44.350195170048934 ], [ 11.607694352260275, 44.347300819110842 ], [ 11.611741839333702, 44.344250654956134 ], [ 11.615560558164516, 44.341053014247748 ], [ 11.619140041909837, 44.337716638130502 ], [ 11.622470479453527, 44.334250648528354 ], [ 11.625542742297776, 44.330664523392123 ], [ 11.628348409583676, 44.326968070963119 ], [ 11.630879791172214, 44.323171403120355 ], [ 11.633129948722418, 44.319284907881951 ], [ 11.63509271470884, 44.31531922113377 ], [ 11.636762709326344, 44.311285197660382 ], [ 11.638135355235766, 44.307193881556032 ], [ 11.63920689011008, 44.303056476094653 ], [ 11.639974376946675, 44.298884313140086 ], [ 11.640435712117478, 44.294688822179189 ], [ 11.640589631134853, 44.290481499061379 ] ] ] } },
{ "type": "Feature", "properties": { "name": "Casalfiumanese", "feature_type": "mrr", "metric_roundness": 32.81, "metric_rectangularity": 45.7, "metric_mobile_fit": 46.11, "metric_aspect_ratio": 1.101, "metric_area_km2": 161.05 }, "geometry": { "type": "Polygon", "coordinates": [ [ [ 11.659469390900622, 44.310632970334559 ], [ 11.508358071762311, 44.196528208991758 ], [ 11.414401241704239, 44.26039073995431 ], [ 11.565512560842548, 44.374371639532811 ], [ 11.659469390900622, 44.310632970334559 ] ] ] } }
]
}
