{
"type": "FeatureCollection",
"name": "casarano",
"crs": { "type": "name", "properties": { "name": "urn:ogc:def:crs:OGC:1.3:CRS84" } },
"features": [
{ "type": "Feature", "properties": { "name": "Casarano", "metric_roundness": 49.81, "metric_rectangularity": 70.95, "metric_mobile_fit": 66.81, "metric_aspect_ratio": 0.894, "metric_area_km2": 65.97 }, "geometry": { "type": "Polygon", "coordinates": [ [ [ 18.1789692, 39.9940159 ], [ 18.184288, 39.9934855 ], [ 18.22052, 40.0136305 ], [ 18.2085872, 40.0428259 ], [ 18.1943495, 40.063303499999982 ], [ 18.1679005, 40.051894499999989 ], [ 18.1714811, 40.045018299999988 ], [ 18.1701759, 40.0402457 ], [ 18.1531783, 40.030059199999982 ], [ 18.1531399, 40.0257005 ], [ 18.142354, 40.0222603 ], [ 18.1425608, 40.0160269 ], [ 18.1393364, 40.0130215 ], [ 18.1245159, 40.0099047 ], [ 18.125599, 39.998769 ], [ 18.1485995, 39.981103 ], [ 18.1789692, 39.9940159 ] ] ] } }
]
}
