{
"type": "FeatureCollection",
"name": "cassano_d_adda",
"crs": { "type": "name", "properties": { "name": "urn:ogc:def:crs:OGC:1.3:CRS84" } },
"features": [
{ "type": "Feature", "properties": { "name": "Cassano d'Adda", "metric_roundness": 48.86, "metric_rectangularity": 55.6, "metric_mobile_fit": 71.55, "metric_aspect_ratio": 0.847, "metric_area_km2": 38.4 }, "geometry": { "type": "Polygon", "coordinates": [ [ [ 9.4987245, 45.558109499999986 ], [ 9.5044383, 45.5409867 ], [ 9.5033059, 45.5359833 ], [ 9.4993208, 45.533899399999989 ], [ 9.4985483, 45.528749699999977 ], [ 9.4835921, 45.525839299999987 ], [ 9.4809505, 45.522512 ], [ 9.4832888, 45.5180441 ], [ 9.4939602, 45.518131299999986 ], [ 9.4949595, 45.510886 ], [ 9.5048782, 45.5075481 ], [ 9.5065674, 45.5030598 ], [ 9.5142495, 45.501408499999989 ], [ 9.518442, 45.501687499999981 ], [ 9.519207, 45.504482 ], [ 9.520803, 45.507502 ], [ 9.5403559, 45.502305899999989 ], [ 9.5487689, 45.5080327 ], [ 9.5481945, 45.5153325 ], [ 9.5503215, 45.524194499999986 ], [ 9.5399002, 45.5253255 ], [ 9.5368303, 45.5337069 ], [ 9.5301304, 45.537326 ], [ 9.52649, 45.546528099999982 ], [ 9.5279, 45.5549065 ], [ 9.5231494, 45.5541164 ], [ 9.5174735, 45.5587818 ], [ 9.5018165, 45.5579765 ], [ 9.4987245, 45.558109499999986 ] ] ] } }
]
}
