{
"type": "FeatureCollection",
"name": "castera_lou",
"crs": { "type": "name", "properties": { "name": "urn:ogc:def:crs:OGC:1.3:CRS84" } },
"features": [
{ "type": "Feature", "properties": { "name": "Castéra-Lou", "feature_type": "entity", "metric_roundness": 39.33, "metric_rectangularity": 67.17, "metric_mobile_fit": 17.81, "metric_aspect_ratio": 1.384, "metric_area_km2": 8.79 }, "geometry": { "type": "Polygon", "coordinates": [ [ [ 0.1749655, 43.324226 ], [ 0.173799, 43.3342885 ], [ 0.168166, 43.333106 ], [ 0.16743, 43.3314185 ], [ 0.158758, 43.327252 ], [ 0.144213, 43.327011 ], [ 0.137576, 43.327963 ], [ 0.1374963, 43.320355 ], [ 0.1336833, 43.315199699999987 ], [ 0.1390645, 43.312594499999989 ], [ 0.1440925, 43.313416 ], [ 0.1476745, 43.315017499999989 ], [ 0.153836, 43.314864 ], [ 0.1576845, 43.315976 ], [ 0.1610855, 43.3159005 ], [ 0.163697, 43.3151895 ], [ 0.1662725, 43.315466 ], [ 0.168904, 43.3178115 ], [ 0.174743, 43.3189535 ], [ 0.1749655, 43.324226 ] ] ] } },
{ "type": "Feature", "properties": { "name": "Castéra-Lou", "feature_type": "circle", "metric_roundness": 39.33, "metric_rectangularity": 67.17, "metric_mobile_fit": 17.81, "metric_aspect_ratio": 1.384, "metric_area_km2": 8.79 }, "geometry": { "type": "Polygon", "coordinates": [ [ [ 0.177708804042778, 43.324744849779762 ], [ 0.177675957205898, 43.323832318161955 ], [ 0.177577506726155, 43.322922274078792 ], [ 0.17741372244947, 43.322017212066172 ], [ 0.177185053297161, 43.321119613114632 ], [ 0.176892126035481, 43.32023193786609 ], [ 0.176535743557692, 43.319356619865118 ], [ 0.176116882683394, 43.318496058883476 ], [ 0.175636691481129, 43.317652614336083 ], [ 0.175096486121605, 43.316828598806538 ], [ 0.174497747270163, 43.316026271700231 ], [ 0.173842116028376, 43.315247833042278 ], [ 0.173131389435907, 43.314495417437499 ], [ 0.172367515544943, 43.313771088209144 ], [ 0.171552588080723, 43.313076831732452 ], [ 0.170688840702782, 43.312414551978755 ], [ 0.169778640882643, 43.311786065285176 ], [ 0.168824483414748, 43.311193095364395 ], [ 0.167828983578393, 43.310637268568335 ], [ 0.166794869969433, 43.310120109418754 ], [ 0.165724977021389, 43.309643036417299 ], [ 0.164622237236465, 43.309207358146459 ], [ 0.163489673147762, 43.308814269672332 ], [ 0.162330389034722, 43.308464849259181 ], [ 0.161147562414518, 43.30816005540477 ], [ 0.159944435332699, 43.307900724204899 ], [ 0.158724305476969, 43.30768756705428 ], [ 0.157490517138451, 43.307521168690258 ], [ 0.156246452045222, 43.307401985584711 ], [ 0.154995520093229, 43.30733034468868 ], [ 0.15374115, 43.307306442533196 ], [ 0.152486779906771, 43.30733034468868 ], [ 0.151235847954778, 43.307401985584711 ], [ 0.149991782861549, 43.307521168690258 ], [ 0.148757994523031, 43.30768756705428 ], [ 0.147537864667301, 43.307900724204899 ], [ 0.146334737585482, 43.30816005540477 ], [ 0.145151910965278, 43.308464849259181 ], [ 0.143992626852238, 43.308814269672332 ], [ 0.142860062763535, 43.309207358146459 ], [ 0.141757322978611, 43.309643036417299 ], [ 0.140687430030567, 43.310120109418754 ], [ 0.139653316421607, 43.310637268568335 ], [ 0.138657816585252, 43.311193095364395 ], [ 0.137703659117356, 43.311786065285176 ], [ 0.136793459297218, 43.312414551978755 ], [ 0.135929711919277, 43.313076831732452 ], [ 0.135114784455057, 43.313771088209144 ], [ 0.134350910564093, 43.314495417437499 ], [ 0.133640183971624, 43.315247833042278 ], [ 0.132984552729837, 43.316026271700231 ], [ 0.132385813878395, 43.316828598806538 ], [ 0.131845608518871, 43.317652614336083 ], [ 0.131365417316606, 43.318496058883476 ], [ 0.130946556442308, 43.319356619865118 ], [ 0.130590173964519, 43.32023193786609 ], [ 0.130297246702839, 43.321119613114632 ], [ 0.13006857755053, 43.322017212066172 ], [ 0.129904793273845, 43.322922274078792 ], [ 0.129806342794102, 43.323832318161955 ], [ 0.129773495957222, 43.324744849779762 ], [ 0.129806342794102, 43.325657367690141 ], [ 0.129904793273845, 43.326567370801214 ], [ 0.13006857755053, 43.327472365025997 ], [ 0.130297246702839, 43.32836987011661 ], [ 0.130590173964519, 43.329257426459549 ], [ 0.130946556442308, 43.330132601812956 ], [ 0.131365417316606, 43.330992997967947 ], [ 0.131845608518871, 43.331836257315508 ], [ 0.132385813878395, 43.332660069301099 ], [ 0.132984552729837, 43.333462176749414 ], [ 0.133640183971624, 43.334240382041969 ], [ 0.134350910564093, 43.334992553130711 ], [ 0.135114784455057, 43.33571662937139 ], [ 0.135929711919277, 43.336410627160525 ], [ 0.136793459297218, 43.33707264536104 ], [ 0.137703659117356, 43.33770087050145 ], [ 0.138657816585252, 43.338293581734682 ], [ 0.139653316421607, 43.338849155543066 ], [ 0.140687430030567, 43.339366070176624 ], [ 0.141757322978611, 43.339842909812681 ], [ 0.142860062763535, 43.340278368425537 ], [ 0.143992626852238, 43.340671253355715 ], [ 0.145151910965278, 43.341020488569043 ], [ 0.146334737585482, 43.341325117596817 ], [ 0.147537864667301, 43.34158430614913 ], [ 0.148757994523031, 43.341797344394131 ], [ 0.149991782861549, 43.341963648897249 ], [ 0.151235847954778, 43.342082764214958 ], [ 0.152486779906771, 43.342154364138906 ], [ 0.15374115, 43.342178252586969 ], [ 0.154995520093229, 43.342154364138906 ], [ 0.156246452045222, 43.342082764214958 ], [ 0.157490517138451, 43.341963648897249 ], [ 0.158724305476969, 43.341797344394131 ], [ 0.159944435332699, 43.34158430614913 ], [ 0.161147562414518, 43.341325117596817 ], [ 0.162330389034722, 43.341020488569043 ], [ 0.163489673147762, 43.340671253355715 ], [ 0.164622237236465, 43.340278368425537 ], [ 0.165724977021389, 43.339842909812681 ], [ 0.166794869969433, 43.339366070176624 ], [ 0.167828983578393, 43.338849155543066 ], [ 0.168824483414748, 43.338293581734682 ], [ 0.169778640882643, 43.33770087050145 ], [ 0.170688840702782, 43.33707264536104 ], [ 0.171552588080723, 43.336410627160525 ], [ 0.172367515544943, 43.33571662937139 ], [ 0.173131389435907, 43.334992553130711 ], [ 0.173842116028376, 43.334240382041969 ], [ 0.174497747270163, 43.333462176749414 ], [ 0.175096486121605, 43.332660069301099 ], [ 0.175636691481129, 43.331836257315508 ], [ 0.176116882683394, 43.330992997967947 ], [ 0.176535743557692, 43.330132601812956 ], [ 0.176892126035481, 43.329257426459549 ], [ 0.177185053297161, 43.32836987011661 ], [ 0.17741372244947, 43.327472365025997 ], [ 0.177577506726155, 43.326567370801214 ], [ 0.177675957205898, 43.325657367690141 ], [ 0.177708804042778, 43.324744849779762 ] ] ] } },
{ "type": "Feature", "properties": { "name": "Castéra-Lou", "feature_type": "mrr", "metric_roundness": 39.33, "metric_rectangularity": 67.17, "metric_mobile_fit": 17.81, "metric_aspect_ratio": 1.384, "metric_area_km2": 8.79 }, "geometry": { "type": "Polygon", "coordinates": [ [ [ 0.129913218872327, 43.326624790025924 ], [ 0.173799, 43.3342885 ], [ 0.179261873984158, 43.317734832877719 ], [ 0.135376095564704, 43.310069034807348 ], [ 0.129913218872327, 43.326624790025924 ] ] ] } }
]
}
