{
"type": "FeatureCollection",
"name": "castejon_de_alarba",
"crs": { "type": "name", "properties": { "name": "urn:ogc:def:crs:OGC:1.3:CRS84" } },
"features": [
{ "type": "Feature", "properties": { "name": "Castejón de Alarba", "feature_type": "entity", "metric_roundness": 63.5, "metric_rectangularity": 77.43, "metric_mobile_fit": 43.92, "metric_aspect_ratio": 1.123, "metric_area_km2": 31.18 }, "geometry": { "type": "Polygon", "coordinates": [ [ [ -1.6613254, 41.2066594 ], [ -1.6832395, 41.195392499999983 ], [ -1.6816245, 41.193313499999974 ], [ -1.6812565, 41.1896245 ], [ -1.6817285, 41.186268 ], [ -1.68169, 41.1828545 ], [ -1.6836905, 41.1799775 ], [ -1.6727189, 41.17069489999998 ], [ -1.6617529, 41.169847499999982 ], [ -1.6393745, 41.160366 ], [ -1.6328498, 41.1634385 ], [ -1.6300268, 41.173642899999983 ], [ -1.6145935, 41.1842 ], [ -1.650457, 41.204624 ], [ -1.6613254, 41.2066594 ] ] ] } },
{ "type": "Feature", "properties": { "name": "Castejón de Alarba", "feature_type": "circle", "metric_roundness": 63.5, "metric_rectangularity": 77.43, "metric_mobile_fit": 43.92, "metric_aspect_ratio": 1.123, "metric_area_km2": 31.18 }, "geometry": { "type": "Polygon", "coordinates": [ [ [ -1.614524157319821, 41.185869606799351 ], [ -1.61457284023387, 41.184470456154557 ], [ -1.614718755539533, 41.183075110712032 ], [ -1.614961503293099, 41.181687395383896 ], [ -1.615300418139849, 41.180311114408852 ], [ -1.615734571137747, 41.178950040918416 ], [ -1.616262772303602, 41.177607906585813 ], [ -1.616883573874734, 41.176288391386009 ], [ -1.617595274277187, 41.17499511349515 ], [ -1.618395922789628, 41.173731619357262 ], [ -1.619283324890137, 41.172501373945479 ], [ -1.620255048271239, 41.171307751244797 ], [ -1.62130842950669, 41.170154024982679 ], [ -1.622440581351744, 41.1690433596331 ], [ -1.623648400656887, 41.167978801718938 ], [ -1.624928576873359, 41.166963271436806 ], [ -1.626277601127135, 41.165999554627646 ], [ -1.627691775836504, 41.165090295115256 ], [ -1.629167224846887, 41.16423798743407 ], [ -1.630699904055102, 41.163444969966434 ], [ -1.632285612493976, 41.162713418508446 ], [ -1.633920003846898, 41.162045340282226 ], [ -1.635598598360777, 41.161442568411402 ], [ -1.637316795124726, 41.160906756875058 ], [ -1.639069884680845, 41.160439375954304 ], [ -1.640853061932519, 41.160041708184238 ], [ -1.642661439314846, 41.159714844822325 ], [ -1.644490060191121, 41.159459682843426 ], [ -1.646333912438627, 41.159276922469559 ], [ -1.648187942186519, 41.159167065241419 ], [ -1.65004706766813, 41.159130412637033 ], [ -1.651906193149741, 41.159167065241419 ], [ -1.653760222897634, 41.159276922469559 ], [ -1.65560407514514, 41.159459682843426 ], [ -1.657432696021415, 41.159714844822325 ], [ -1.659241073403742, 41.160041708184238 ], [ -1.661024250655416, 41.160439375954304 ], [ -1.662777340211536, 41.160906756875058 ], [ -1.664495536975485, 41.161442568411402 ], [ -1.666174131489363, 41.162045340282226 ], [ -1.667808522842285, 41.162713418508446 ], [ -1.669394231281159, 41.163444969966434 ], [ -1.670926910489374, 41.16423798743407 ], [ -1.672402359499757, 41.165090295115256 ], [ -1.673816534209126, 41.165999554627646 ], [ -1.675165558462902, 41.166963271436806 ], [ -1.676445734679374, 41.167978801718938 ], [ -1.677653553984517, 41.1690433596331 ], [ -1.678785705829571, 41.170154024982679 ], [ -1.679839087065021, 41.171307751244797 ], [ -1.680810810446124, 41.172501373945479 ], [ -1.681698212546633, 41.173731619357262 ], [ -1.682498861059074, 41.17499511349515 ], [ -1.683210561461527, 41.176288391386009 ], [ -1.683831363032659, 41.177607906585813 ], [ -1.684359564198514, 41.178950040918416 ], [ -1.684793717196411, 41.180311114408852 ], [ -1.685132632043162, 41.181687395383896 ], [ -1.685375379796728, 41.183075110712032 ], [ -1.685521295102391, 41.184470456154557 ], [ -1.68556997801644, 41.185869606799351 ], [ -1.685521295102391, 41.187268727548748 ], [ -1.685375379796728, 41.188663983632637 ], [ -1.685132632043162, 41.190051551117939 ], [ -1.684793717196412, 41.191427627385721 ], [ -1.684359564198514, 41.1927884415473 ], [ -1.683831363032659, 41.194130264770706 ], [ -1.683210561461527, 41.195449420489574 ], [ -1.682498861059074, 41.196742294466276 ], [ -1.681698212546633, 41.198005344682166 ], [ -1.680810810446124, 41.199235111027818 ], [ -1.679839087065021, 41.200428224766988 ], [ -1.678785705829571, 41.201581417748486 ], [ -1.677653553984517, 41.202691531341074 ], [ -1.676445734679374, 41.203755525067059 ], [ -1.675165558462902, 41.204770484911194 ], [ -1.673816534209126, 41.205733631282342 ], [ -1.672402359499757, 41.20664232660657 ], [ -1.670926910489374, 41.2074940825308 ], [ -1.669394231281159, 41.208286566717845 ], [ -1.667808522842285, 41.209017609214357 ], [ -1.666174131489363, 41.209685208374481 ], [ -1.664495536975485, 41.210287536323349 ], [ -1.662777340211536, 41.210822943945587 ], [ -1.661024250655416, 41.211289965385433 ], [ -1.659241073403742, 41.211687322046359 ], [ -1.657432696021415, 41.212013926079457 ], [ -1.65560407514514, 41.212268883351115 ], [ -1.653760222897634, 41.212451495882163 ], [ -1.651906193149742, 41.212561263751681 ], [ -1.65004706766813, 41.212597886460678 ], [ -1.64818794218652, 41.212561263751681 ], [ -1.646333912438627, 41.212451495882163 ], [ -1.644490060191121, 41.212268883351115 ], [ -1.642661439314846, 41.212013926079457 ], [ -1.640853061932519, 41.211687322046359 ], [ -1.639069884680845, 41.211289965385433 ], [ -1.637316795124726, 41.210822943945587 ], [ -1.635598598360777, 41.210287536323349 ], [ -1.633920003846898, 41.209685208374481 ], [ -1.632285612493976, 41.209017609214357 ], [ -1.630699904055102, 41.208286566717845 ], [ -1.629167224846887, 41.2074940825308 ], [ -1.627691775836504, 41.20664232660657 ], [ -1.626277601127135, 41.205733631282342 ], [ -1.624928576873359, 41.204770484911194 ], [ -1.623648400656887, 41.203755525067059 ], [ -1.622440581351744, 41.202691531341074 ], [ -1.62130842950669, 41.201581417748486 ], [ -1.620255048271239, 41.200428224766988 ], [ -1.619283324890137, 41.199235111027818 ], [ -1.618395922789628, 41.198005344682166 ], [ -1.617595274277187, 41.196742294466276 ], [ -1.616883573874734, 41.195449420489574 ], [ -1.616262772303602, 41.194130264770706 ], [ -1.615734571137747, 41.1927884415473 ], [ -1.61530041813985, 41.191427627385721 ], [ -1.614961503293099, 41.190051551117939 ], [ -1.614718755539533, 41.188663983632637 ], [ -1.61457284023387, 41.187268727548748 ], [ -1.614524157319821, 41.185869606799351 ] ] ] } },
{ "type": "Feature", "properties": { "name": "Castejón de Alarba", "feature_type": "mrr", "metric_roundness": 63.5, "metric_rectangularity": 77.43, "metric_mobile_fit": 43.92, "metric_aspect_ratio": 1.123, "metric_area_km2": 31.18 }, "geometry": { "type": "Polygon", "coordinates": [ [ [ -1.665396744413707, 41.213130194209199 ], [ -1.612928637168526, 41.18325171772576 ], [ -1.6427310060989, 41.153608600616678 ], [ -1.695199113344081, 41.183500601808731 ], [ -1.665396744413707, 41.213130194209199 ] ] ] } }
]
}
