{
"type": "FeatureCollection",
"name": "castiglione_a_casauria",
"crs": { "type": "name", "properties": { "name": "urn:ogc:def:crs:OGC:1.3:CRS84" } },
"features": [
{ "type": "Feature", "properties": { "name": "Castiglione a Casauria", "metric_roundness": 30.65, "metric_rectangularity": 56.82, "metric_mobile_fit": 70.2, "metric_aspect_ratio": 0.861, "metric_area_km2": 30.66 }, "geometry": { "type": "Polygon", "coordinates": [ [ [ 13.9035797, 42.2566474 ], [ 13.9030415, 42.2412705 ], [ 13.8929915, 42.2404522 ], [ 13.859165, 42.2235625 ], [ 13.8743394, 42.20544349999998 ], [ 13.8771095, 42.1983515 ], [ 13.8892754, 42.2050686 ], [ 13.9112844, 42.2277474 ], [ 13.9323965, 42.231791 ], [ 13.93592, 42.2377745 ], [ 13.926015, 42.2379576 ], [ 13.9184121, 42.2438639 ], [ 13.9253595, 42.264397 ], [ 13.9112055, 42.2632635 ], [ 13.9035797, 42.2566474 ] ] ] } }
]
}
