{
"type": "FeatureCollection",
"name": "cata",
"crs": { "type": "name", "properties": { "name": "urn:ogc:def:crs:OGC:1.3:CRS84" } },
"features": [
{ "type": "Feature", "properties": { "name": "Čata", "metric_roundness": 46.54, "metric_rectangularity": 62.99, "metric_mobile_fit": -9.37, "metric_aspect_ratio": 1.656, "metric_area_km2": 32.21 }, "geometry": { "type": "Polygon", "coordinates": [ [ [ 18.684089, 47.970334 ], [ 18.682975, 47.9724335 ], [ 18.6639026, 47.970940499999983 ], [ 18.6473314, 47.962403699999982 ], [ 18.6103125, 47.971332 ], [ 18.6044888, 47.9583754 ], [ 18.614681, 47.952694099999988 ], [ 18.6174205, 47.947449499999983 ], [ 18.6268874, 47.950642799999983 ], [ 18.648553, 47.944792399999983 ], [ 18.6522985, 47.9412003 ], [ 18.6672625, 47.938832 ], [ 18.687586, 47.951274499999982 ], [ 18.684089, 47.970334 ] ] ] } }
]
}
