{
"type": "FeatureCollection",
"name": "catalina",
"crs": { "type": "name", "properties": { "name": "urn:ogc:def:crs:OGC:1.3:CRS84" } },
"features": [
{ "type": "Feature", "properties": { "name": "Catalina", "metric_roundness": 40.57, "metric_rectangularity": 55.21, "metric_mobile_fit": 59.23, "metric_aspect_ratio": 0.97, "metric_area_km2": 113.7 }, "geometry": { "type": "Polygon", "coordinates": [ [ [ 26.0422784, 45.9131946 ], [ 26.0429397, 45.9053268 ], [ 26.0574459, 45.8963788 ], [ 26.0650836, 45.899332 ], [ 26.077045, 45.885026 ], [ 26.0905835, 45.9026133 ], [ 26.1019058, 45.9047737 ], [ 26.1050937, 45.9174074 ], [ 26.1129936, 45.921901 ], [ 26.1242695, 45.935798 ], [ 26.13922, 45.9361195 ], [ 26.1504318, 45.930977399999989 ], [ 26.1586965, 45.932332599999981 ], [ 26.1636002, 45.9246974 ], [ 26.178221, 45.9246895 ], [ 26.1780247, 45.931615699999981 ], [ 26.1841162, 45.937361799999977 ], [ 26.1864053, 45.9484589 ], [ 26.1841128, 45.954897299999978 ], [ 26.1698894, 45.9636016 ], [ 26.1725609, 45.9689069 ], [ 26.1831005, 45.971892 ], [ 26.1648358, 45.9829894 ], [ 26.1498198, 45.9780164 ], [ 26.143321, 45.988342699999983 ], [ 26.1307656, 45.980399399999975 ], [ 26.1219284, 45.9819977 ], [ 26.107009, 45.966747 ], [ 26.0997528, 45.949765199999987 ], [ 26.0895314, 45.947290699999989 ], [ 26.0872668, 45.942836899999975 ], [ 26.051722, 45.937629199999989 ], [ 26.0472461, 45.926299899999989 ], [ 26.0495323, 45.917465899999989 ], [ 26.0474785, 45.914773 ], [ 26.0422784, 45.9131946 ] ] ] } }
]
}
