{
"type": "FeatureCollection",
"name": "esclavelles",
"crs": { "type": "name", "properties": { "name": "urn:ogc:def:crs:OGC:1.3:CRS84" } },
"features": [
{ "type": "Feature", "properties": { "name": "Esclavelles", "feature_type": "entity", "metric_roundness": 35.0, "metric_rectangularity": 70.88, "metric_mobile_fit": 22.82, "metric_aspect_ratio": 1.334, "metric_area_km2": 24.25 }, "geometry": { "type": "Polygon", "coordinates": [ [ [ 1.3546985, 49.6901377 ], [ 1.3552, 49.68452749999998 ], [ 1.3585885, 49.68469 ], [ 1.3992355, 49.701702399999988 ], [ 1.4244765, 49.7079795 ], [ 1.4288035, 49.7104475 ], [ 1.400839, 49.723901 ], [ 1.3740132, 49.711802 ], [ 1.3640373, 49.7036319 ], [ 1.347572, 49.6981345 ], [ 1.3546985, 49.6901377 ] ] ] } },
{ "type": "Feature", "properties": { "name": "Esclavelles", "feature_type": "circle", "metric_roundness": 35.0, "metric_rectangularity": 70.88, "metric_mobile_fit": 22.82, "metric_aspect_ratio": 1.334, "metric_area_km2": 24.25 }, "geometry": { "type": "Polygon", "coordinates": [ [ [ 1.431827337604995, 49.700303411440572 ], [ 1.431769511648972, 49.698875103737066 ], [ 1.431596192277828, 49.697450669113664 ], [ 1.431307854547913, 49.696034012361778 ], [ 1.430905288772902, 49.694629017291646 ], [ 1.430389598357602, 49.69323953607767 ], [ 1.429762196773597, 49.691869378686995 ], [ 1.429024803685018, 49.690522302420241 ], [ 1.428179440235065, 49.689202001593372 ], [ 1.427228423506195, 49.687912097389045 ], [ 1.426174360169156, 49.686656127905806 ], [ 1.425020139338288, 49.685437538432225 ], [ 1.423768924652661, 49.684259671973408 ], [ 1.422424145604756, 49.683125760055823 ], [ 1.420989488140469, 49.682038913836216 ], [ 1.419468884556189, 49.681002115539336 ], [ 1.417866502720643, 49.6800182102481 ], [ 1.416186734651062, 49.679089898069456 ], [ 1.414434184474967, 49.678219726697456 ], [ 1.412613655810572, 49.677410084394538 ], [ 1.410730138600402, 49.676663193410619 ], [ 1.408788795434209, 49.675981103858334 ], [ 1.40679494739867, 49.675365688061632 ], [ 1.404754059492659, 49.674818635393599 ], [ 1.402671725648068, 49.674341447617948 ], [ 1.400553653397222, 49.673935434747186 ], [ 1.398405648228936, 49.673601711429313 ], [ 1.39623359767607, 49.673341193872965 ], [ 1.394043455178213, 49.673154597319702 ], [ 1.391841223763715, 49.673042434070688 ], [ 1.389632939595809, 49.673005012073155 ], [ 1.387424655427903, 49.673042434070688 ], [ 1.385222424013405, 49.673154597319702 ], [ 1.383032281515547, 49.673341193872965 ], [ 1.380860230962681, 49.673601711429313 ], [ 1.378712225794396, 49.673935434747186 ], [ 1.37659415354355, 49.674341447617948 ], [ 1.374511819698958, 49.674818635393599 ], [ 1.372470931792948, 49.675365688061632 ], [ 1.370477083757409, 49.675981103858334 ], [ 1.368535740591216, 49.676663193410619 ], [ 1.366652223381045, 49.677410084394538 ], [ 1.36483169471665, 49.678219726697456 ], [ 1.363079144540555, 49.679089898069456 ], [ 1.361399376470975, 49.6800182102481 ], [ 1.359796994635429, 49.681002115539336 ], [ 1.358276391051148, 49.682038913836216 ], [ 1.356841733586861, 49.683125760055823 ], [ 1.355496954538957, 49.684259671973408 ], [ 1.354245739853329, 49.685437538432225 ], [ 1.353091519022462, 49.686656127905806 ], [ 1.352037455685423, 49.687912097389045 ], [ 1.351086438956553, 49.689202001593372 ], [ 1.3502410755066, 49.690522302420241 ], [ 1.349503682418021, 49.691869378686995 ], [ 1.348876280834016, 49.69323953607767 ], [ 1.348360590418716, 49.694629017291646 ], [ 1.347958024643705, 49.696034012361778 ], [ 1.347669686913789, 49.697450669113664 ], [ 1.347496367542646, 49.698875103737066 ], [ 1.347438541586622, 49.700303411440572 ], [ 1.347496367542646, 49.701731677159927 ], [ 1.347669686913789, 49.703155986290859 ], [ 1.347958024643705, 49.704572435416885 ], [ 1.348360590418716, 49.705977143002542 ], [ 1.348876280834016, 49.7073662600232 ], [ 1.349503682418021, 49.708735980501864 ], [ 1.3502410755066, 49.710082551924827 ], [ 1.351086438956553, 49.711402285507312 ], [ 1.352037455685423, 49.712691566281471 ], [ 1.353091519022462, 49.713946862979235 ], [ 1.354245739853329, 49.715164737683182 ], [ 1.355496954538957, 49.716341855219405 ], [ 1.356841733586861, 49.717474992266752 ], [ 1.358276391051148, 49.718561046158143 ], [ 1.359796994635429, 49.719597043349737 ], [ 1.361399376470975, 49.720580147535678 ], [ 1.363079144540555, 49.72150766738612 ], [ 1.36483169471665, 49.722377063887926 ], [ 1.366652223381045, 49.723185957268271 ], [ 1.368535740591216, 49.723932133482606 ], [ 1.370477083757409, 49.724613550249458 ], [ 1.372470931792948, 49.725228342616063 ], [ 1.374511819698958, 49.725774828039746 ], [ 1.37659415354355, 49.726251510971672 ], [ 1.378712225794396, 49.726657086930473 ], [ 1.380860230962681, 49.726990446055062 ], [ 1.383032281515547, 49.727250676126985 ], [ 1.385222424013405, 49.727437065054417 ], [ 1.387424655427903, 49.727549102810976 ], [ 1.389632939595809, 49.727586482824357 ], [ 1.391841223763715, 49.727549102810976 ], [ 1.394043455178213, 49.727437065054417 ], [ 1.39623359767607, 49.727250676126985 ], [ 1.398405648228936, 49.726990446055062 ], [ 1.400553653397222, 49.726657086930473 ], [ 1.402671725648068, 49.726251510971672 ], [ 1.404754059492659, 49.725774828039746 ], [ 1.40679494739867, 49.725228342616063 ], [ 1.408788795434209, 49.724613550249458 ], [ 1.410730138600402, 49.723932133482606 ], [ 1.412613655810572, 49.723185957268271 ], [ 1.414434184474967, 49.722377063887926 ], [ 1.416186734651062, 49.72150766738612 ], [ 1.417866502720643, 49.720580147535678 ], [ 1.419468884556188, 49.719597043349737 ], [ 1.420989488140469, 49.718561046158143 ], [ 1.422424145604756, 49.717474992266752 ], [ 1.423768924652661, 49.716341855219405 ], [ 1.425020139338288, 49.715164737683182 ], [ 1.426174360169156, 49.713946862979235 ], [ 1.427228423506195, 49.712691566281471 ], [ 1.428179440235065, 49.711402285507312 ], [ 1.429024803685018, 49.710082551924827 ], [ 1.429762196773597, 49.708735980501864 ], [ 1.430389598357602, 49.7073662600232 ], [ 1.430905288772902, 49.705977143002542 ], [ 1.431307854547913, 49.704572435416885 ], [ 1.431596192277828, 49.703155986290859 ], [ 1.431769511648972, 49.701731677159927 ], [ 1.431827337604995, 49.700303411440572 ] ] ] } },
{ "type": "Feature", "properties": { "name": "Esclavelles", "feature_type": "mrr", "metric_roundness": 35.0, "metric_rectangularity": 70.88, "metric_mobile_fit": 22.82, "metric_aspect_ratio": 1.334, "metric_area_km2": 24.25 }, "geometry": { "type": "Polygon", "coordinates": [ [ [ 1.429414490707814, 49.709724487487513 ], [ 1.355873502582067, 49.683730087921766 ], [ 1.340076133993093, 49.7024305262985 ], [ 1.413617122118841, 49.72841492413351 ], [ 1.429414490707814, 49.709724487487513 ] ] ] } }
]
}
