{
"type": "FeatureCollection",
"name": "escorca",
"crs": { "type": "name", "properties": { "name": "urn:ogc:def:crs:OGC:1.3:CRS84" } },
"features": [
{ "type": "Feature", "properties": { "name": "Escorca", "metric_roundness": 33.87, "metric_rectangularity": 63.25, "metric_mobile_fit": 45.21, "metric_aspect_ratio": 1.11, "metric_area_km2": 236.89 }, "geometry": { "type": "Polygon", "coordinates": [ [ [ 2.9385848, 39.8433018 ], [ 2.9365459, 39.8651899 ], [ 2.9240651, 39.8815142 ], [ 2.9211174, 39.8955154 ], [ 2.9246805, 39.9002115 ], [ 2.8960688, 39.8945918 ], [ 2.8743105, 39.87825 ], [ 2.8547016, 39.8747356 ], [ 2.843825, 39.861922 ], [ 2.8376313, 39.864664399999988 ], [ 2.825957, 39.8580631 ], [ 2.8158508, 39.8576208 ], [ 2.8055907, 39.861882199999989 ], [ 2.8027182, 39.8586919 ], [ 2.8045878, 39.8536239 ], [ 2.8018408, 39.852078 ], [ 2.7923602, 39.8561495 ], [ 2.7863268, 39.853541799999988 ], [ 2.7787253, 39.855192099999989 ], [ 2.7749695, 39.8513518 ], [ 2.773733, 39.841032 ], [ 2.7661917, 39.8418539 ], [ 2.7630404, 39.8331855 ], [ 2.7500927, 39.8283444 ], [ 2.742266, 39.8319618 ], [ 2.7326655, 39.826671499999982 ], [ 2.7481023, 39.821001699999989 ], [ 2.7604364, 39.822061399999988 ], [ 2.7757677, 39.8024502 ], [ 2.7838669, 39.7985703 ], [ 2.7678228, 39.7807087 ], [ 2.753942, 39.7721975 ], [ 2.7588371, 39.764686399999988 ], [ 2.747699, 39.758963 ], [ 2.741661, 39.749737 ], [ 2.7462196, 39.7480359 ], [ 2.7644392, 39.7521936 ], [ 2.7752967, 39.7607968 ], [ 2.7754986, 39.768406 ], [ 2.7821546, 39.773902 ], [ 2.7923096, 39.7770802 ], [ 2.802229, 39.775516499999988 ], [ 2.8151327, 39.764495499999988 ], [ 2.839566, 39.7742655 ], [ 2.843849, 39.779533 ], [ 2.8670535, 39.792229 ], [ 2.8773076, 39.800705 ], [ 2.9038267, 39.8148568 ], [ 2.9149914, 39.8162436 ], [ 2.9268335, 39.813545 ], [ 2.9325095, 39.8162805 ], [ 2.9337585, 39.8176315 ], [ 2.9377185, 39.8183175 ], [ 2.9430455, 39.819744 ], [ 2.9465525, 39.8185925 ], [ 2.949893, 39.820217 ], [ 2.9526725, 39.822155 ], [ 2.9451975, 39.8313675 ], [ 2.9385848, 39.8433018 ] ] ] } }
]
}
