{
"type": "FeatureCollection",
"name": "estenfeld",
"crs": { "type": "name", "properties": { "name": "urn:ogc:def:crs:OGC:1.3:CRS84" } },
"features": [
{ "type": "Feature", "properties": { "name": "Estenfeld", "feature_type": "entity", "metric_roundness": 37.34, "metric_rectangularity": 58.83, "metric_mobile_fit": 97.76, "metric_aspect_ratio": 0.585, "metric_area_km2": 43.38 }, "geometry": { "type": "Polygon", "coordinates": [ [ [ 10.03985, 49.809346599999984 ], [ 10.0495753, 49.818807899999982 ], [ 10.049445, 49.823635 ], [ 10.0392042, 49.8336226 ], [ 10.0125987, 49.8396005 ], [ 10.0073049, 49.845086099999989 ], [ 10.0110921, 49.849716699999988 ], [ 10.0220809, 49.847961499999982 ], [ 10.0278295, 49.8539995 ], [ 10.0222491, 49.864213099999986 ], [ 9.997373, 49.8724352 ], [ 9.9895335, 49.87174049999998 ], [ 9.9893078, 49.8680588 ], [ 9.9968884, 49.8600516 ], [ 9.9953967, 49.8550551 ], [ 9.9979135, 49.848080099999983 ], [ 9.9877415, 49.839109 ], [ 9.9884061, 49.8257802 ], [ 10.0032977, 49.8183807 ], [ 10.0087434, 49.804725099999985 ], [ 10.0132775, 49.80425 ], [ 10.03985, 49.809346599999984 ] ] ] } },
{ "type": "Feature", "properties": { "name": "Estenfeld", "feature_type": "circle", "metric_roundness": 37.34, "metric_rectangularity": 58.83, "metric_mobile_fit": 97.76, "metric_aspect_ratio": 0.585, "metric_area_km2": 43.38 }, "geometry": { "type": "Polygon", "coordinates": [ [ [ 10.066149021343014, 49.839485148658525 ], [ 10.066074135298683, 49.837640750514133 ], [ 10.065849682423131, 49.83580133767137 ], [ 10.065476277926088, 49.833971952696039 ], [ 10.064954945283327, 49.832157611233619 ], [ 10.064287113431389, 49.830363288246119 ], [ 10.06347461285095, 49.828593904354385 ], [ 10.062519670549628, 49.82685431232354 ], [ 10.061424903957898, 49.82514928372899 ], [ 10.060193313754889, 49.823483495839803 ], [ 10.058828275643739, 49.821861518755831 ], [ 10.057333531099031, 49.820287802834436 ], [ 10.055713177111659, 49.818766666441554 ], [ 10.053971654959279, 49.817302284061519 ], [ 10.052113738033055, 49.815898674798568 ], [ 10.050144518754141, 49.814559691302321 ], [ 10.048069394615702, 49.8132890091482 ], [ 10.045894053388759, 49.81209011670245 ], [ 10.043624457532411, 49.810966305500394 ], [ 10.041266827851143, 49.809920661164746 ], [ 10.038827626444032, 49.808956054889741 ], [ 10.036313538992591, 49.808075135514819 ], [ 10.03373145643577, 49.807280322210481 ], [ 10.031088456082381, 49.806573797796737 ], [ 10.028391782212678, 49.805957502713085 ], [ 10.025648826222296, 49.805433129657132 ], [ 10.022867106362945, 49.805002118906934 ], [ 10.020054247135402, 49.804665654340347 ], [ 10.017217958391289, 49.804424660162589 ], [ 10.01436601420091, 49.804279798351359 ], [ 10.01150623154505, 49.804231466826828 ], [ 10.008646448889191, 49.804279798351359 ], [ 10.005794504698812, 49.804424660162589 ], [ 10.002958215954699, 49.804665654340347 ], [ 10.000145356727156, 49.805002118906934 ], [ 9.997363636867805, 49.805433129657132 ], [ 9.994620680877421, 49.805957502713085 ], [ 9.99192400700772, 49.806573797796737 ], [ 9.98928100665433, 49.807280322210481 ], [ 9.98669892409751, 49.808075135514819 ], [ 9.984184836646069, 49.808956054889741 ], [ 9.981745635238958, 49.809920661164746 ], [ 9.979388005557688, 49.810966305500394 ], [ 9.977118409701342, 49.81209011670245 ], [ 9.974943068474399, 49.8132890091482 ], [ 9.97286794433596, 49.814559691302321 ], [ 9.970898725057046, 49.815898674798568 ], [ 9.969040808130821, 49.817302284061519 ], [ 9.967299285978442, 49.818766666441554 ], [ 9.96567893199107, 49.820287802834436 ], [ 9.964184187446362, 49.821861518755831 ], [ 9.962819149335212, 49.823483495839803 ], [ 9.961587559132202, 49.82514928372899 ], [ 9.960492792540471, 49.82685431232354 ], [ 9.959537850239151, 49.828593904354385 ], [ 9.958725349658712, 49.830363288246119 ], [ 9.958057517806772, 49.832157611233619 ], [ 9.957536185164011, 49.833971952696039 ], [ 9.95716278066697, 49.83580133767137 ], [ 9.956938327791418, 49.837640750514133 ], [ 9.956863441747087, 49.839485148658525 ], [ 9.956938327791418, 49.841329476449225 ], [ 9.95716278066697, 49.843168679001693 ], [ 9.957536185164011, 49.844997716054145 ], [ 9.958057517806772, 49.846811575772996 ], [ 9.958725349658712, 49.848605288474324 ], [ 9.959537850239151, 49.850373940223733 ], [ 9.960492792540471, 49.852112686277579 ], [ 9.961587559132202, 49.853816764329153 ], [ 9.962819149335212, 49.855481507523749 ], [ 9.964184187446362, 49.857102357207417 ], [ 9.96567893199107, 49.858674875374838 ], [ 9.967299285978442, 49.860194756782903 ], [ 9.969040808130821, 49.861657840697156 ], [ 9.970898725057046, 49.863060122239638 ], [ 9.97286794433596, 49.864397763307501 ], [ 9.974943068474399, 49.865667103033253 ], [ 9.977118409701342, 49.866864667758577 ], [ 9.979388005557688, 49.867987180494943 ], [ 9.981745635238958, 49.869031569845873 ], [ 9.984184836646069, 49.869994978367018 ], [ 9.98669892409751, 49.870874770341779 ], [ 9.98928100665433, 49.871668538951674 ], [ 9.99192400700772, 49.872374112822605 ], [ 9.994620680877421, 49.872989561929408 ], [ 9.997363636867805, 49.873513202843156 ], [ 10.000145356727156, 49.87394360330731 ], [ 10.002958215954699, 49.874279586130427 ], [ 10.005794504698812, 49.874520232385386 ], [ 10.008646448889191, 49.87466488390637 ], [ 10.01150623154505, 49.874713145077223 ], [ 10.01436601420091, 49.87466488390637 ], [ 10.017217958391289, 49.874520232385386 ], [ 10.020054247135402, 49.874279586130427 ], [ 10.022867106362945, 49.87394360330731 ], [ 10.025648826222296, 49.873513202843156 ], [ 10.028391782212678, 49.872989561929408 ], [ 10.031088456082381, 49.872374112822605 ], [ 10.03373145643577, 49.871668538951674 ], [ 10.036313538992591, 49.870874770341779 ], [ 10.038827626444032, 49.869994978367018 ], [ 10.041266827851143, 49.869031569845873 ], [ 10.043624457532411, 49.867987180494943 ], [ 10.045894053388759, 49.866864667758577 ], [ 10.048069394615702, 49.865667103033253 ], [ 10.050144518754141, 49.864397763307501 ], [ 10.052113738033055, 49.863060122239638 ], [ 10.053971654959279, 49.861657840697156 ], [ 10.055713177111659, 49.860194756782903 ], [ 10.057333531099031, 49.858674875374838 ], [ 10.058828275643739, 49.857102357207417 ], [ 10.060193313754889, 49.855481507523749 ], [ 10.061424903957898, 49.853816764329153 ], [ 10.062519670549628, 49.852112686277579 ], [ 10.06347461285095, 49.850373940223733 ], [ 10.064287113431389, 49.848605288474324 ], [ 10.064954945283327, 49.846811575772996 ], [ 10.065476277926088, 49.844997716054145 ], [ 10.065849682423131, 49.843168679001693 ], [ 10.066074135298683, 49.841329476449225 ], [ 10.066149021343014, 49.839485148658525 ] ] ] } },
{ "type": "Feature", "properties": { "name": "Estenfeld", "feature_type": "mrr", "metric_roundness": 37.34, "metric_rectangularity": 58.83, "metric_mobile_fit": 97.76, "metric_aspect_ratio": 0.585, "metric_area_km2": 43.38 }, "geometry": { "type": "Polygon", "coordinates": [ [ [ 10.012846783465763, 49.878234058045109 ], [ 10.055999191553232, 49.813850610852072 ], [ 10.005778535543953, 49.799842682216081 ], [ 9.962626127456483, 49.864244772130924 ], [ 10.012846783465763, 49.878234058045109 ] ] ] } }
]
}
