{
"type": "FeatureCollection",
"name": "estrebay",
"crs": { "type": "name", "properties": { "name": "urn:ogc:def:crs:OGC:1.3:CRS84" } },
"features": [
{ "type": "Feature", "properties": { "name": "Estrebay", "metric_roundness": 39.07, "metric_rectangularity": 66.26, "metric_mobile_fit": 11.74, "metric_aspect_ratio": 1.445, "metric_area_km2": 22.22 }, "geometry": { "type": "Polygon", "coordinates": [ [ [ 4.312852, 49.8130792 ], [ 4.3399725, 49.810728 ], [ 4.3485281, 49.8116231 ], [ 4.3526419, 49.8178987 ], [ 4.3617487, 49.819217199999983 ], [ 4.373031, 49.825168499999968 ], [ 4.381367, 49.834962499999989 ], [ 4.3564068, 49.8387519 ], [ 4.353391, 49.841812499999989 ], [ 4.344299, 49.8403123 ], [ 4.3430473, 49.8347275 ], [ 4.3300266, 49.827581799999976 ], [ 4.3135374, 49.8232351 ], [ 4.3117355, 49.817011 ], [ 4.312852, 49.8130792 ] ] ] } }
]
}
