{
"type": "FeatureCollection",
"name": "trasmoz",
"crs": { "type": "name", "properties": { "name": "urn:ogc:def:crs:OGC:1.3:CRS84" } },
"features": [
{ "type": "Feature", "properties": { "name": "Trasmoz", "metric_roundness": 40.64, "metric_rectangularity": 51.04, "metric_mobile_fit": 38.6, "metric_aspect_ratio": 1.176, "metric_area_km2": 27.16 }, "geometry": { "type": "Polygon", "coordinates": [ [ [ -1.7118905, 41.8126587 ], [ -1.7022153, 41.8202335 ], [ -1.6996482, 41.827486799999988 ], [ -1.699773, 41.849987 ], [ -1.7129698, 41.8528198 ], [ -1.725251, 41.846614299999985 ], [ -1.7345089, 41.846967299999989 ], [ -1.740074, 41.850925499999988 ], [ -1.7335142, 41.8430032 ], [ -1.773223, 41.821388 ], [ -1.772084, 41.819855 ], [ -1.7583245, 41.825939 ], [ -1.755683, 41.823749499999984 ], [ -1.7515635, 41.8232 ], [ -1.741289, 41.827015 ], [ -1.735784, 41.8179665 ], [ -1.735158, 41.814907 ], [ -1.733623, 41.812393 ], [ -1.7326125, 41.80962 ], [ -1.729875, 41.806221 ], [ -1.7118905, 41.8126587 ] ] ] } }
]
}
