{
"type": "FeatureCollection",
"name": "travenhorst",
"crs": { "type": "name", "properties": { "name": "urn:ogc:def:crs:OGC:1.3:CRS84" } },
"features": [
{ "type": "Feature", "properties": { "name": "Travenhorst", "feature_type": "entity", "metric_roundness": 30.49, "metric_rectangularity": 47.18, "metric_mobile_fit": 11.62, "metric_aspect_ratio": 1.446, "metric_area_km2": 23.62 }, "geometry": { "type": "Polygon", "coordinates": [ [ [ 10.4761632, 54.012786 ], [ 10.4867173, 54.0164804 ], [ 10.48868, 54.021041499999981 ], [ 10.472279, 54.01784270000001 ], [ 10.4406499, 54.028698899999974 ], [ 10.42651, 54.0261357 ], [ 10.4223618, 54.0332799 ], [ 10.4046253, 54.0280333 ], [ 10.399462, 54.021937499999986 ], [ 10.4206008, 54.021342099999984 ], [ 10.4455018, 54.015668899999987 ], [ 10.4396571, 54.0085975 ], [ 10.4407319, 54.0027741 ], [ 10.4606975, 53.9970335 ], [ 10.4761632, 54.012786 ] ] ] } },
{ "type": "Feature", "properties": { "name": "Travenhorst", "feature_type": "circle", "metric_roundness": 30.49, "metric_rectangularity": 47.18, "metric_mobile_fit": 11.62, "metric_aspect_ratio": 1.446, "metric_area_km2": 23.62 }, "geometry": { "type": "Polygon", "coordinates": [ [ [ 10.488683354492427, 54.021362912782152 ], [ 10.488622209762928, 54.019991102512755 ], [ 10.488438943167889, 54.018623007224249 ], [ 10.488134057028303, 54.017262377325501 ], [ 10.487708387015887, 54.015912943126843 ], [ 10.487163099862563, 54.014578404605487 ], [ 10.486499690162509, 54.013262421250253 ], [ 10.485719976275602, 54.011968602013468 ], [ 10.484826095343408, 54.010700495397934 ], [ 10.483820497431434, 54.009461579706269 ], [ 10.482705938813652, 54.008255253479525 ], [ 10.481485474417767, 54.007084826151946 ], [ 10.480162449451848, 54.005953508947307 ], [ 10.478740490235371, 54.004864406042486 ], [ 10.477223494259704, 54.003820506022919 ], [ 10.475615619505376, 54.002824673653429 ], [ 10.473921273045322, 54.001879641987685 ], [ 10.472145098965418, 54.00098800483822 ], [ 10.470291965635361, 54.000152209628141 ], [ 10.468366952364791, 53.999374550644475 ], [ 10.466375335481285, 53.998657162712043 ], [ 10.464322573868277, 53.998002015305765 ], [ 10.462214294002667, 53.997410907117782 ], [ 10.460056274533022, 53.996885461094692 ], [ 10.457854430440705, 53.996427119958945 ], [ 10.455614796827327, 53.996037142226925 ], [ 10.453343512372943, 53.995716598734887 ], [ 10.451046802510371, 53.995466369682774 ], [ 10.448730962361701, 53.995287142203821 ], [ 10.446402339483807, 53.995179408467422 ], [ 10.444067316470139, 53.995143464319852 ], [ 10.441732293456472, 53.995179408467422 ], [ 10.43940367057858, 53.995287142203821 ], [ 10.437087830429908, 53.995466369682774 ], [ 10.434791120567336, 53.995716598734887 ], [ 10.432519836112954, 53.996037142226925 ], [ 10.430280202499574, 53.996427119958945 ], [ 10.428078358407257, 53.996885461094692 ], [ 10.42592033893761, 53.997410907117782 ], [ 10.423812059072004, 53.998002015305765 ], [ 10.421759297458996, 53.998657162712043 ], [ 10.419767680575488, 53.999374550644475 ], [ 10.417842667304919, 54.000152209628141 ], [ 10.41598953397486, 54.00098800483822 ], [ 10.414213359894957, 54.001879641987685 ], [ 10.412519013434903, 54.002824673653429 ], [ 10.410911138680575, 54.003820506022919 ], [ 10.409394142704908, 54.004864406042486 ], [ 10.407972183488431, 54.005953508947307 ], [ 10.406649158522514, 54.007084826151946 ], [ 10.405428694126627, 54.008255253479525 ], [ 10.404314135508846, 54.009461579706269 ], [ 10.403308537596869, 54.010700495397934 ], [ 10.402414656664678, 54.011968602013468 ], [ 10.401634942777772, 54.013262421250253 ], [ 10.400971533077717, 54.014578404605487 ], [ 10.400426245924391, 54.015912943126843 ], [ 10.400000575911976, 54.017262377325501 ], [ 10.399695689772392, 54.018623007224249 ], [ 10.399512423177351, 54.019991102512755 ], [ 10.399451278447852, 54.021362912782152 ], [ 10.399512423177351, 54.022734677810696 ], [ 10.399695689772392, 54.024102637872346 ], [ 10.400000575911976, 54.025463044039803 ], [ 10.400426245924391, 54.026812168453979 ], [ 10.400971533077717, 54.028146314531718 ], [ 10.401634942777772, 54.029461827083907 ], [ 10.402414656664678, 54.030755102316419 ], [ 10.403308537596869, 54.032022597686705 ], [ 10.404314135508846, 54.033260841589069 ], [ 10.405428694126627, 54.034466442842707 ], [ 10.406649158522514, 54.035636099956335 ], [ 10.407972183488431, 54.036766610144838 ], [ 10.409394142704908, 54.037854878073126 ], [ 10.410911138680575, 54.038897924303967 ], [ 10.412519013434903, 54.039892893426831 ], [ 10.414213359894957, 54.04083706184597 ], [ 10.41598953397486, 54.041727845206736 ], [ 10.417842667304919, 54.042562805440305 ], [ 10.419767680575488, 54.043339657407863 ], [ 10.421759297458996, 54.044056275126394 ], [ 10.423812059072004, 54.044710697559601 ], [ 10.42592033893761, 54.045301133958326 ], [ 10.428078358407257, 54.045825968736217 ], [ 10.430280202499574, 54.046283765867742 ], [ 10.432519836112954, 54.04667327279676 ], [ 10.434791120567336, 54.046993423845215 ], [ 10.437087830429908, 54.047243343112889 ], [ 10.43940367057858, 54.047422346860557 ], [ 10.441732293456472, 54.047529945370123 ], [ 10.444067316470139, 54.047565844276853 ], [ 10.446402339483807, 54.047529945370123 ], [ 10.448730962361701, 54.047422346860557 ], [ 10.451046802510371, 54.047243343112889 ], [ 10.453343512372943, 54.046993423845215 ], [ 10.455614796827327, 54.04667327279676 ], [ 10.457854430440705, 54.046283765867742 ], [ 10.460056274533022, 54.045825968736217 ], [ 10.462214294002667, 54.045301133958326 ], [ 10.464322573868277, 54.044710697559601 ], [ 10.466375335481285, 54.044056275126394 ], [ 10.468366952364791, 54.043339657407863 ], [ 10.470291965635361, 54.042562805440305 ], [ 10.472145098965418, 54.041727845206736 ], [ 10.473921273045322, 54.04083706184597 ], [ 10.475615619505376, 54.039892893426831 ], [ 10.477223494259704, 54.038897924303967 ], [ 10.478740490235371, 54.037854878073126 ], [ 10.480162449451848, 54.036766610144838 ], [ 10.481485474417767, 54.035636099956335 ], [ 10.482705938813652, 54.034466442842707 ], [ 10.483820497431434, 54.033260841589069 ], [ 10.484826095343408, 54.032022597686705 ], [ 10.485719976275602, 54.030755102316419 ], [ 10.486499690162509, 54.029461827083907 ], [ 10.487163099862563, 54.028146314531718 ], [ 10.487708387015887, 54.026812168453979 ], [ 10.488134057028303, 54.025463044039803 ], [ 10.488438943167889, 54.024102637872346 ], [ 10.488622209762928, 54.022734677810696 ], [ 10.488683354492427, 54.021362912782152 ] ] ] } },
{ "type": "Feature", "properties": { "name": "Travenhorst", "feature_type": "mrr", "metric_roundness": 30.49, "metric_rectangularity": 47.18, "metric_mobile_fit": 11.62, "metric_aspect_ratio": 1.446, "metric_area_km2": 23.62 }, "geometry": { "type": "Polygon", "coordinates": [ [ [ 10.468632035732861, 53.994751903670362 ], [ 10.394557797488021, 54.016047252677602 ], [ 10.416086322687528, 54.04189813006969 ], [ 10.49016056093237, 54.020616013649452 ], [ 10.468632035732861, 53.994751903670362 ] ] ] } }
]
}
