{
"type": "FeatureCollection",
"name": "travedona_monate",
"crs": { "type": "name", "properties": { "name": "urn:ogc:def:crs:OGC:1.3:CRS84" } },
"features": [
{ "type": "Feature", "properties": { "name": "Travedona-Monate", "feature_type": "entity", "metric_roundness": 45.78, "metric_rectangularity": 65.29, "metric_mobile_fit": 26.91, "metric_aspect_ratio": 1.293, "metric_area_km2": 19.69 }, "geometry": { "type": "Polygon", "coordinates": [ [ [ 8.6924665, 45.814275 ], [ 8.6856513, 45.8123015 ], [ 8.6768975, 45.8139245 ], [ 8.658659, 45.820811 ], [ 8.6402735, 45.815516 ], [ 8.6402845, 45.813815 ], [ 8.6449853, 45.8128527 ], [ 8.6540399, 45.7992057 ], [ 8.673955, 45.7882645 ], [ 8.68078, 45.789265 ], [ 8.6900921, 45.792544 ], [ 8.692586, 45.797050599999984 ], [ 8.700658, 45.7960965 ], [ 8.6924665, 45.814275 ] ] ] } },
{ "type": "Feature", "properties": { "name": "Travedona-Monate", "feature_type": "circle", "metric_roundness": 45.78, "metric_rectangularity": 65.29, "metric_mobile_fit": 26.91, "metric_aspect_ratio": 1.293, "metric_area_km2": 19.69 }, "geometry": { "type": "Polygon", "coordinates": [ [ [ 8.703716118117034, 45.805807096215339 ], [ 8.703670549643132, 45.804594009848991 ], [ 8.703533969121446, 45.803384222160425 ], [ 8.70330675090969, 45.802181049417911 ], [ 8.702989517797192, 45.800987789970875 ], [ 8.702583139297861, 45.799807715203499 ], [ 8.702088729266917, 45.798644060559937 ], [ 8.70150764284789, 45.797500016665843 ], [ 8.70084147275826, 45.796378720570765 ], [ 8.700092044923943, 45.795283247135387 ], [ 8.699261413474535, 45.79421660058749 ], [ 8.698351855113108, 45.793181706269941 ], [ 8.697365862875902, 45.792181402603454 ], [ 8.696306139299109, 45.79121843328641 ], [ 8.695175589011392, 45.790295439753471 ], [ 8.693977310772503, 45.789414953913521 ], [ 8.692714588979806, 45.788579391187525 ], [ 8.691390884665962, 45.787791043865312 ], [ 8.690009826012489, 45.787052074799874 ], [ 8.688575198405156, 45.786364511456753 ], [ 8.687090934058515, 45.785730240334892 ], [ 8.685561101237976, 45.7851510017747 ], [ 8.683989893108956, 45.784628385167636 ], [ 8.682381616243726, 45.78416382458078 ], [ 8.680740678817386, 45.783758594808489 ], [ 8.679071578525356, 45.783413807862189 ], [ 8.677378890255525, 45.783130409908161 ], [ 8.675667253548777, 45.782909178661754 ], [ 8.673941359882358, 45.782750721245485 ], [ 8.672205939810835, 45.782655472516701 ], [ 8.67046575, 45.782623693869922 ], [ 8.668725560189165, 45.782655472516701 ], [ 8.666990140117642, 45.782750721245485 ], [ 8.665264246451219, 45.782909178661754 ], [ 8.663552609744473, 45.783130409908161 ], [ 8.661859921474642, 45.783413807862189 ], [ 8.660190821182614, 45.783758594808489 ], [ 8.658549883756272, 45.78416382458078 ], [ 8.656941606891042, 45.784628385167636 ], [ 8.655370398762024, 45.7851510017747 ], [ 8.653840565941483, 45.785730240334892 ], [ 8.652356301594844, 45.786364511456753 ], [ 8.650921673987511, 45.787052074799874 ], [ 8.649540615334036, 45.787791043865312 ], [ 8.648216911020192, 45.788579391187525 ], [ 8.646954189227495, 45.789414953913521 ], [ 8.645755910988607, 45.790295439753471 ], [ 8.644625360700889, 45.79121843328641 ], [ 8.643565637124096, 45.792181402603454 ], [ 8.642579644886892, 45.793181706269941 ], [ 8.641670086525464, 45.79421660058749 ], [ 8.640839455076057, 45.795283247135387 ], [ 8.640090027241738, 45.796378720570765 ], [ 8.63942385715211, 45.797500016665843 ], [ 8.638842770733081, 45.798644060559937 ], [ 8.638348360702137, 45.799807715203499 ], [ 8.637941982202806, 45.800987789970875 ], [ 8.637624749090309, 45.802181049417911 ], [ 8.637397530878554, 45.803384222160425 ], [ 8.637260950356866, 45.804594009848991 ], [ 8.637215381882964, 45.805807096215339 ], [ 8.637260950356866, 45.807020156165592 ], [ 8.637397530878554, 45.808229864895253 ], [ 8.637624749090309, 45.809432907001167 ], [ 8.637941982202806, 45.810625985565181 ], [ 8.638348360702137, 45.811805831184927 ], [ 8.638842770733081, 45.812969210926816 ], [ 8.63942385715211, 45.814112937177086 ], [ 8.640090027241738, 45.815233876366349 ], [ 8.640839455076057, 45.816328957544272 ], [ 8.641670086525464, 45.817395180780707 ], [ 8.642579644886892, 45.818429625370705 ], [ 8.643565637124096, 45.819429457820853 ], [ 8.644625360700889, 45.820391939595496 ], [ 8.645755910988607, 45.821314434601604 ], [ 8.646954189227495, 45.822194416392264 ], [ 8.648216911020192, 45.823029475068971 ], [ 8.649540615334036, 45.823817323864375 ], [ 8.650921673987511, 45.824555805387426 ], [ 8.652356301594844, 45.825242897514215 ], [ 8.653840565941483, 45.825876718908546 ], [ 8.655370398762024, 45.826455534157319 ], [ 8.656941606891042, 45.826977758506949 ], [ 8.658549883756272, 45.827441962188011 ], [ 8.660190821182614, 45.827846874316506 ], [ 8.661859921474642, 45.828191386361155 ], [ 8.663552609744473, 45.828474555167574 ], [ 8.665264246451219, 45.828695605530974 ], [ 8.666990140117642, 45.828853932310672 ], [ 8.668725560189165, 45.828949102080557 ], [ 8.67046575, 45.828980854311233 ], [ 8.672205939810835, 45.828949102080557 ], [ 8.673941359882358, 45.828853932310672 ], [ 8.675667253548777, 45.828695605530974 ], [ 8.677378890255525, 45.828474555167574 ], [ 8.679071578525356, 45.828191386361155 ], [ 8.680740678817386, 45.827846874316506 ], [ 8.682381616243726, 45.827441962188011 ], [ 8.683989893108956, 45.826977758506949 ], [ 8.685561101237976, 45.826455534157319 ], [ 8.687090934058515, 45.825876718908546 ], [ 8.688575198405156, 45.825242897514215 ], [ 8.690009826012489, 45.824555805387426 ], [ 8.691390884665962, 45.823817323864375 ], [ 8.692714588979806, 45.823029475068971 ], [ 8.693977310772503, 45.822194416392264 ], [ 8.695175589011392, 45.821314434601604 ], [ 8.696306139299109, 45.820391939595496 ], [ 8.697365862875902, 45.819429457820853 ], [ 8.698351855113108, 45.818429625370705 ], [ 8.699261413474535, 45.817395180780707 ], [ 8.700092044923943, 45.816328957544272 ], [ 8.70084147275826, 45.815233876366349 ], [ 8.70150764284789, 45.814112937177086 ], [ 8.702088729266917, 45.812969210926816 ], [ 8.702583139297861, 45.811805831184927 ], [ 8.702989517797192, 45.810625985565196 ], [ 8.70330675090969, 45.809432907001167 ], [ 8.703533969121446, 45.808229864895253 ], [ 8.703670549643132, 45.807020156165592 ], [ 8.703716118117034, 45.805807096215339 ] ] ] } },
{ "type": "Feature", "properties": { "name": "Travedona-Monate", "feature_type": "mrr", "metric_roundness": 45.78, "metric_rectangularity": 65.29, "metric_mobile_fit": 26.91, "metric_aspect_ratio": 1.293, "metric_area_km2": 19.69 }, "geometry": { "type": "Polygon", "coordinates": [ [ [ 8.704408600803683, 45.79738537927804 ], [ 8.66216421049746, 45.782866525297052 ], [ 8.639314563238797, 45.815186573926965 ], [ 8.68155895354502, 45.829697007679769 ], [ 8.704408600803683, 45.79738537927804 ] ] ] } }
]
}
