{
"type": "FeatureCollection",
"name": "trencin",
"crs": { "type": "name", "properties": { "name": "urn:ogc:def:crs:OGC:1.3:CRS84" } },
"features": [
{ "type": "Feature", "properties": { "name": "Trenčín", "feature_type": "entity", "metric_roundness": 37.63, "metric_rectangularity": 54.71, "metric_mobile_fit": 10.54, "metric_aspect_ratio": 1.457, "metric_area_km2": 191.74 }, "geometry": { "type": "Polygon", "coordinates": [ [ [ 18.0542897, 48.858088299999977 ], [ 18.0586651, 48.860301499999984 ], [ 18.0594669, 48.866527399999974 ], [ 18.0703405, 48.8744844 ], [ 18.0719421, 48.880844299999985 ], [ 18.0752671, 48.882365 ], [ 18.0911947, 48.8815266 ], [ 18.1073985, 48.867216399999982 ], [ 18.1303684, 48.86761629999998 ], [ 18.1354143, 48.864858099999985 ], [ 18.1369615, 48.859476 ], [ 18.1434625, 48.865212499999984 ], [ 18.1513845, 48.870028 ], [ 18.1523705, 48.876061199999981 ], [ 18.1624513, 48.880387099999986 ], [ 18.165066, 48.884916 ], [ 18.1558575, 48.889985699999983 ], [ 18.1495398, 48.897563399999989 ], [ 18.1377805, 48.901786499999986 ], [ 18.1219875, 48.9066167 ], [ 18.1075948, 48.9160011 ], [ 18.085247, 48.924858 ], [ 18.0808952, 48.9237394 ], [ 18.08012, 48.9176875 ], [ 18.0728997, 48.919089799999988 ], [ 18.0650515, 48.913123499999976 ], [ 18.0717242, 48.9037584 ], [ 18.0432493, 48.9024985 ], [ 18.039213, 48.925071499999987 ], [ 17.994313, 48.945869699999989 ], [ 17.9879343, 48.946804299999989 ], [ 17.973709, 48.9429325 ], [ 17.9554365, 48.9387075 ], [ 17.95068, 48.9374185 ], [ 17.9533665, 48.925377899999987 ], [ 17.9714158, 48.912337199999989 ], [ 17.973555, 48.9053054 ], [ 17.9811681, 48.8973582 ], [ 17.9828909, 48.8937251 ], [ 17.98192, 48.886827 ], [ 17.9878596, 48.8810326 ], [ 17.977896, 48.870076 ], [ 17.991562, 48.865444499999988 ], [ 18.003805, 48.8629505 ], [ 18.0337659, 48.850282699999987 ], [ 18.0557153, 48.8500781 ], [ 18.0604735, 48.852285499999986 ], [ 18.0542897, 48.858088299999977 ] ] ] } },
{ "type": "Feature", "properties": { "name": "Trenčín", "feature_type": "circle", "metric_roundness": 37.63, "metric_rectangularity": 54.71, "metric_mobile_fit": 10.54, "metric_aspect_ratio": 1.457, "metric_area_km2": 191.74 }, "geometry": { "type": "Polygon", "coordinates": [ [ [ 18.171264780686069, 48.909340007099551 ], [ 18.171107956097664, 48.905403640141664 ], [ 18.170637912177757, 48.901477753672836 ], [ 18.169855937284051, 48.897573112076529 ], [ 18.168764174755381, 48.893700423997572 ], [ 18.167365617036943, 48.88987031292163 ], [ 18.165664097478238, 48.886093287961479 ], [ 18.163664279826108, 48.88237971493141 ], [ 18.161371645441722, 48.878739787790003 ], [ 18.15879247827657, 48.875183500531534 ], [ 18.155933847648587, 48.871720619604631 ], [ 18.152803588865613, 48.868360656935927 ], [ 18.149410281749393, 48.865112843634861 ], [ 18.145763227118866, 48.861986104454324 ], [ 18.141872421297272, 48.858989033079538 ], [ 18.137748528712923, 48.856129868315712 ], [ 18.133402852668741, 48.853416471242646 ], [ 18.128847304360701, 48.850856303401663 ], [ 18.124094370230058, 48.848456406077695 ], [ 18.119157077738901, 48.846223380736042 ], [ 18.114048959662753, 48.844163370670636 ], [ 18.108784016998207, 48.842282043916491 ], [ 18.103376680587136, 48.840584577476413 ], [ 18.097841771562791, 48.839075642907339 ], [ 18.092194460726081, 48.837759393308588 ], [ 18.086450226963464, 48.836639451749839 ], [ 18.080624814820407, 48.835718901172626 ], [ 18.074734191346678, 48.835000275794833 ], [ 18.06879450233177, 48.834485554043454 ], [ 18.062822028050398, 48.834176153036282 ], [ 18.056833138639444, 48.834072924628536 ], [ 18.050844249228483, 48.834176153036282 ], [ 18.044871774947111, 48.834485554043454 ], [ 18.038932085932203, 48.835000275794833 ], [ 18.033041462458474, 48.835718901172626 ], [ 18.02721605031542, 48.836639451749839 ], [ 18.021471816552801, 48.837759393308588 ], [ 18.01582450571609, 48.839075642907339 ], [ 18.010289596691745, 48.840584577476413 ], [ 18.004882260280677, 48.842282043916491 ], [ 17.999617317616128, 48.844163370670636 ], [ 17.99450919953998, 48.846223380736042 ], [ 17.989571907048823, 48.848456406077695 ], [ 17.98481897291818, 48.850856303401663 ], [ 17.980263424610143, 48.853416471242646 ], [ 17.975917748565958, 48.856129868315712 ], [ 17.971793855981609, 48.858989033079538 ], [ 17.967903050160015, 48.861986104454324 ], [ 17.964255995529488, 48.865112843634861 ], [ 17.960862688413268, 48.868360656935927 ], [ 17.957732429630294, 48.871720619604631 ], [ 17.954873799002311, 48.875183500531534 ], [ 17.952294631837162, 48.878739787790003 ], [ 17.950001997452773, 48.88237971493141 ], [ 17.948002179800643, 48.886093287961479 ], [ 17.946300660241938, 48.88987031292163 ], [ 17.944902102523503, 48.893700423997572 ], [ 17.943810339994833, 48.897573112076529 ], [ 17.943028365101124, 48.901477753672836 ], [ 17.942558321181217, 48.905403640141664 ], [ 17.942401496592815, 48.909340007099551 ], [ 17.942558321181217, 48.913276063970336 ], [ 17.943028365101124, 48.917201023575309 ], [ 17.943810339994833, 48.921104131685908 ], [ 17.944902102523503, 48.92497469645852 ], [ 17.946300660241938, 48.928802117670926 ], [ 17.948002179800643, 48.932575915681042 ], [ 17.950001997452773, 48.93628576002984 ], [ 17.952294631837162, 48.939921497610946 ], [ 17.954873799002311, 48.943473180331857 ], [ 17.957732429630294, 48.946931092192266 ], [ 17.960862688413268, 48.950285775707727 ], [ 17.964255995529488, 48.953528057608338 ], [ 17.967903050160015, 48.95664907374443 ], [ 17.971793855981609, 48.959640293133695 ], [ 17.975917748565958, 48.962493541086481 ], [ 17.980263424610143, 48.965201021348854 ], [ 17.98481897291818, 48.967755337205269 ], [ 17.989571907048823, 48.970149511486362 ], [ 17.99450919953998, 48.972377005429649 ], [ 17.999617317616128, 48.97443173634435 ], [ 18.004882260280677, 48.976308094034856 ], [ 18.010289596691745, 48.978000955940438 ], [ 18.01582450571609, 48.979505700952359 ], [ 18.021471816552801, 48.980818221872887 ], [ 18.02721605031542, 48.981934936484478 ], [ 18.033041462458474, 48.982852797200671 ], [ 18.038932085932203, 48.98356929927423 ], [ 18.044871774947111, 48.984082487541457 ], [ 18.050844249228483, 48.98439096168574 ], [ 18.056833138639444, 48.984493880006731 ], [ 18.062822028050398, 48.98439096168574 ], [ 18.06879450233177, 48.984082487541457 ], [ 18.074734191346678, 48.98356929927423 ], [ 18.080624814820407, 48.982852797200671 ], [ 18.086450226963464, 48.981934936484478 ], [ 18.092194460726081, 48.980818221872887 ], [ 18.097841771562791, 48.979505700952359 ], [ 18.103376680587136, 48.978000955940438 ], [ 18.108784016998207, 48.976308094034856 ], [ 18.114048959662753, 48.97443173634435 ], [ 18.119157077738901, 48.972377005429649 ], [ 18.124094370230058, 48.970149511486362 ], [ 18.128847304360701, 48.967755337205269 ], [ 18.133402852668741, 48.965201021348854 ], [ 18.137748528712923, 48.962493541086481 ], [ 18.141872421297272, 48.959640293133695 ], [ 18.145763227118866, 48.95664907374443 ], [ 18.149410281749393, 48.953528057608338 ], [ 18.152803588865613, 48.950285775707727 ], [ 18.155933847648587, 48.946931092192266 ], [ 18.15879247827657, 48.943473180331857 ], [ 18.161371645441722, 48.939921497610946 ], [ 18.163664279826108, 48.93628576002984 ], [ 18.165664097478238, 48.932575915681042 ], [ 18.167365617036943, 48.928802117670926 ], [ 18.168764174755381, 48.92497469645852 ], [ 18.169855937284051, 48.921104131685908 ], [ 18.170637912177757, 48.917201023575309 ], [ 18.171107956097664, 48.913276063970336 ], [ 18.171264780686069, 48.909340007099551 ] ] ] } },
{ "type": "Feature", "properties": { "name": "Trenčín", "feature_type": "mrr", "metric_roundness": 37.63, "metric_rectangularity": 54.71, "metric_mobile_fit": 10.54, "metric_aspect_ratio": 1.457, "metric_area_km2": 191.74 }, "geometry": { "type": "Polygon", "coordinates": [ [ [ 18.114420258322962, 48.821695078503907 ], [ 17.914031004567921, 48.892692169387111 ], [ 17.972948450773739, 48.964575305555307 ], [ 18.173337704528777, 48.893680295169673 ], [ 18.114420258322962, 48.821695078503907 ] ] ] } }
]
}
