{
"type": "FeatureCollection",
"name": "philippsreuter_wald",
"crs": { "type": "name", "properties": { "name": "urn:ogc:def:crs:OGC:1.3:CRS84" } },
"features": [
{ "type": "Feature", "properties": { "name": "Philippsreuter Wald", "feature_type": "entity", "metric_roundness": 33.89, "metric_rectangularity": 57.42, "metric_mobile_fit": 26.22, "metric_aspect_ratio": 1.3, "metric_area_km2": 7.31 }, "geometry": { "type": "Polygon", "coordinates": [ [ [ 13.7163657, 48.878521699999986 ], [ 13.7057895, 48.880616 ], [ 13.6920875, 48.872997 ], [ 13.6867115, 48.862394 ], [ 13.6968294, 48.8656393 ], [ 13.7120665, 48.86401249999998 ], [ 13.719561, 48.867726799999986 ], [ 13.7240415, 48.881277499999982 ], [ 13.7163657, 48.878521699999986 ] ], [ [ 13.6981962, 48.8710444 ], [ 13.7025894, 48.870088499999987 ], [ 13.698805, 48.866483799999983 ], [ 13.6939795, 48.8683108 ], [ 13.6981962, 48.8710444 ] ] ] } },
{ "type": "Feature", "properties": { "name": "Philippsreuter Wald", "feature_type": "circle", "metric_roundness": 33.89, "metric_rectangularity": 57.42, "metric_mobile_fit": 26.22, "metric_aspect_ratio": 1.3, "metric_area_km2": 7.31 }, "geometry": { "type": "Polygon", "coordinates": [ [ [ 13.728923050809446, 48.871836640897811 ], [ 13.728890781079913, 48.87102607390289 ], [ 13.728794060340396, 48.870217715537869 ], [ 13.72863315369572, 48.869413781618015 ], [ 13.728408502179818, 48.868616475937039 ], [ 13.728120721546871, 48.867827984223695 ], [ 13.727770600583598, 48.867050468146836 ], [ 13.72735909894722, 48.866286059385295 ], [ 13.72688734453512, 48.865536853778941 ], [ 13.726356630393349, 48.864804905577031 ], [ 13.72576841117248, 48.864092221799673 ], [ 13.725124299140514, 48.863400756727955 ], [ 13.724426059763754, 48.862732406537887 ], [ 13.723675606867802, 48.862089004093107 ], [ 13.72287499739188, 48.861472313910546 ], [ 13.722026425750913, 48.860884027313148 ], [ 13.721132217820783, 48.860325757782846 ], [ 13.720194824563276, 48.85979903652693 ], [ 13.719216815308149, 48.859305308269732 ], [ 13.718200870710788, 48.858845927281699 ], [ 13.717149775404723, 48.858422153656427 ], [ 13.716066410369123, 48.858035149846359 ], [ 13.714953745032249, 48.857685977466467 ], [ 13.713814829132446, 48.857375594374986 ], [ 13.712652784359031, 48.857104852039242 ], [ 13.711470795795959, 48.856874493193814 ], [ 13.710272103191716, 48.856685149797656 ], [ 13.709059992079418, 48.856537341295812 ], [ 13.707837784771366, 48.856431473190476 ], [ 13.706608831252835, 48.856367835925546 ], [ 13.7053765, 48.856346604087584 ], [ 13.704144168747163, 48.856367835925546 ], [ 13.702915215228634, 48.856431473190476 ], [ 13.70169300792058, 48.856537341295812 ], [ 13.700480896808282, 48.856685149797656 ], [ 13.699282204204041, 48.856874493193814 ], [ 13.698100215640967, 48.857104852039242 ], [ 13.696938170867554, 48.857375594374986 ], [ 13.695799254967753, 48.857685977466467 ], [ 13.694686589630876, 48.858035149846359 ], [ 13.693603224595277, 48.858422153656427 ], [ 13.69255212928921, 48.858845927281699 ], [ 13.69153618469185, 48.859305308269732 ], [ 13.690558175436724, 48.85979903652693 ], [ 13.689620782179215, 48.860325757782846 ], [ 13.688726574249086, 48.860884027313148 ], [ 13.687878002608118, 48.861472313910546 ], [ 13.687077393132196, 48.862089004093107 ], [ 13.686326940236244, 48.862732406537887 ], [ 13.685628700859484, 48.863400756727955 ], [ 13.684984588827518, 48.864092221799673 ], [ 13.684396369606651, 48.864804905577031 ], [ 13.683865655464878, 48.865536853778941 ], [ 13.683393901052778, 48.866286059385295 ], [ 13.682982399416401, 48.867050468146836 ], [ 13.682632278453129, 48.867827984223695 ], [ 13.682344497820182, 48.868616475937039 ], [ 13.682119846304278, 48.869413781618015 ], [ 13.681958939659602, 48.870217715537869 ], [ 13.681862218920086, 48.87102607390289 ], [ 13.681829949190552, 48.871836640897811 ], [ 13.681862218920086, 48.872647194760944 ], [ 13.681958939659602, 48.873455513874497 ], [ 13.682119846304278, 48.874259382853232 ], [ 13.682344497820182, 48.875056598614947 ], [ 13.682632278453129, 48.875844976416083 ], [ 13.682982399416401, 48.876622355835806 ], [ 13.683393901052778, 48.877386606692546 ], [ 13.683865655464878, 48.878135634876458 ], [ 13.684396369606651, 48.87886738808217 ], [ 13.684984588827518, 48.879579861426002 ], [ 13.685628700859484, 48.880271102932419 ], [ 13.686326940236244, 48.880939218874822 ], [ 13.687077393132196, 48.881582378956054 ], [ 13.687878002608118, 48.882198821314553 ], [ 13.688726574249086, 48.882786857342609 ], [ 13.689620782179215, 48.883344876303568 ], [ 13.690558175436724, 48.883871349735436 ], [ 13.69153618469185, 48.884364835629086 ], [ 13.69255212928921, 48.884823982369454 ], [ 13.693603224595277, 48.885247532429418 ], [ 13.694686589630876, 48.88563432580596 ], [ 13.695799254967753, 48.885983303189668 ], [ 13.696938170867554, 48.886293508858721 ], [ 13.698100215640967, 48.886564093289671 ], [ 13.699282204204041, 48.886794315477964 ], [ 13.700480896808282, 48.886983544961907 ], [ 13.70169300792058, 48.887131263544511 ], [ 13.702915215228634, 48.887237066708728 ], [ 13.704144168747163, 48.887300664722183 ], [ 13.7053765, 48.887321883428356 ], [ 13.706608831252835, 48.887300664722183 ], [ 13.707837784771366, 48.887237066708728 ], [ 13.709059992079418, 48.887131263544511 ], [ 13.710272103191716, 48.886983544961907 ], [ 13.711470795795959, 48.886794315477964 ], [ 13.712652784359031, 48.886564093289671 ], [ 13.713814829132446, 48.886293508858721 ], [ 13.714953745032249, 48.885983303189668 ], [ 13.716066410369123, 48.88563432580596 ], [ 13.717149775404723, 48.885247532429418 ], [ 13.718200870710788, 48.884823982369454 ], [ 13.719216815308149, 48.884364835629086 ], [ 13.720194824563276, 48.883871349735436 ], [ 13.721132217820783, 48.883344876303568 ], [ 13.722026425750913, 48.882786857342609 ], [ 13.72287499739188, 48.882198821314553 ], [ 13.723675606867802, 48.881582378956054 ], [ 13.724426059763754, 48.880939218874822 ], [ 13.725124299140514, 48.880271102932419 ], [ 13.72576841117248, 48.879579861426002 ], [ 13.726356630393349, 48.87886738808217 ], [ 13.72688734453512, 48.878135634876458 ], [ 13.72735909894722, 48.877386606692546 ], [ 13.727770600583598, 48.876622355835806 ], [ 13.728120721546871, 48.875844976416083 ], [ 13.728408502179818, 48.875056598614947 ], [ 13.72863315369572, 48.874259382853232 ], [ 13.728794060340396, 48.873455513874497 ], [ 13.728890781079913, 48.872647194760944 ], [ 13.728923050809446, 48.871836640897811 ] ] ] } },
{ "type": "Feature", "properties": { "name": "Philippsreuter Wald", "feature_type": "mrr", "metric_roundness": 33.89, "metric_rectangularity": 57.42, "metric_mobile_fit": 26.22, "metric_aspect_ratio": 1.3, "metric_area_km2": 7.31 }, "geometry": { "type": "Polygon", "coordinates": [ [ [ 13.726453059402051, 48.864930818700735 ], [ 13.6867115, 48.862394 ], [ 13.684226380404068, 48.879240005914603 ], [ 13.723967944421053, 48.881775974272699 ], [ 13.726453059402051, 48.864930818700735 ] ] ] } }
]
}
