{
"type": "FeatureCollection",
"name": "olbronn_durrn",
"crs": { "type": "name", "properties": { "name": "urn:ogc:def:crs:OGC:1.3:CRS84" } },
"features": [
{ "type": "Feature", "properties": { "name": "Ölbronn-Dürrn", "metric_roundness": 39.09, "metric_rectangularity": 56.05, "metric_mobile_fit": 89.79, "metric_aspect_ratio": 0.665, "metric_area_km2": 36.34 }, "geometry": { "type": "Polygon", "coordinates": [ [ [ 8.7345885, 48.9947 ], [ 8.7404264, 48.9931955 ], [ 8.735241, 48.9885457 ], [ 8.7351327, 48.9848642 ], [ 8.7535977, 48.966575299999981 ], [ 8.7288712, 48.9618016 ], [ 8.7265992, 48.9569718 ], [ 8.7205154, 48.956166 ], [ 8.7250035, 48.946272 ], [ 8.7407581, 48.9496093 ], [ 8.7445611, 48.945107 ], [ 8.7504244, 48.9483811 ], [ 8.7594867, 48.939672499999986 ], [ 8.772172, 48.939986 ], [ 8.7722527, 48.946195899999985 ], [ 8.7791575, 48.9490005 ], [ 8.7696548, 48.951914099999989 ], [ 8.769254, 48.9668849 ], [ 8.7773644, 48.9679961 ], [ 8.7690895, 48.9757043 ], [ 8.7803235, 48.9788595 ], [ 8.7794821, 48.990514299999987 ], [ 8.7729183, 48.9940155 ], [ 8.7586967, 48.992005 ], [ 8.761278, 48.9980695 ], [ 8.7425728, 48.993873799999989 ], [ 8.732909, 48.998749 ], [ 8.7345885, 48.9947 ] ] ] } }
]
}
