{
"type": "FeatureCollection",
"name": "oldendorf_luhe",
"crs": { "type": "name", "properties": { "name": "urn:ogc:def:crs:OGC:1.3:CRS84" } },
"features": [
{ "type": "Feature", "properties": { "name": "Oldendorf (Luhe)", "metric_roundness": 56.87, "metric_rectangularity": 70.31, "metric_mobile_fit": 45.11, "metric_aspect_ratio": 1.111, "metric_area_km2": 92.41 }, "geometry": { "type": "Polygon", "coordinates": [ [ [ 10.2443315, 53.190041499999978 ], [ 10.2417985, 53.1901735 ], [ 10.237491, 53.192238 ], [ 10.2357765, 53.1933245 ], [ 10.2148225, 53.1866916 ], [ 10.2084744, 53.1819548 ], [ 10.1988439, 53.185959299999986 ], [ 10.1847245, 53.18097 ], [ 10.1858167, 53.1630306 ], [ 10.1756742, 53.1534683 ], [ 10.1731271, 53.146915399999983 ], [ 10.175323, 53.142795 ], [ 10.1789077, 53.1365334 ], [ 10.1981357, 53.1329093 ], [ 10.2153909, 53.144439799999986 ], [ 10.2586611, 53.141180399999989 ], [ 10.269469, 53.144240499999981 ], [ 10.269868, 53.146915399999983 ], [ 10.2718349, 53.160103 ], [ 10.285119, 53.176625 ], [ 10.2759445, 53.187715499999989 ], [ 10.2443315, 53.190041499999978 ] ] ] } }
]
}
