{
"type": "FeatureCollection",
"name": "olmedillo_de_roa",
"crs": { "type": "name", "properties": { "name": "urn:ogc:def:crs:OGC:1.3:CRS84" } },
"features": [
{ "type": "Feature", "properties": { "name": "Olmedillo de Roa", "metric_roundness": 41.43, "metric_rectangularity": 65.61, "metric_mobile_fit": -33.09, "metric_aspect_ratio": 1.893, "metric_area_km2": 47.22 }, "geometry": { "type": "Polygon", "coordinates": [ [ [ -3.929981, 41.800495 ], [ -3.9318535, 41.8009415 ], [ -3.9379035, 41.801422 ], [ -3.9438605, 41.801346 ], [ -3.946684, 41.8035125 ], [ -3.9640091, 41.7882831 ], [ -3.9763375, 41.787224 ], [ -3.9785425, 41.785042 ], [ -3.980092, 41.7792205 ], [ -3.9834045, 41.7770845 ], [ -3.972179, 41.770759499999983 ], [ -3.967183, 41.7690545 ], [ -3.960335, 41.764782 ], [ -3.9567355, 41.7638475 ], [ -3.952416, 41.7645225 ], [ -3.950305, 41.765873 ], [ -3.9467235, 41.7669485 ], [ -3.941608, 41.769241499999985 ], [ -3.938015, 41.767929 ], [ -3.9345815, 41.7675055 ], [ -3.930769, 41.767719500000013 ], [ -3.9280355, 41.7683065 ], [ -3.9233226, 41.7669214 ], [ -3.8999115, 41.7608835 ], [ -3.8956462, 41.7610769 ], [ -3.8925154, 41.7665351 ], [ -3.875165, 41.7766645 ], [ -3.885581, 41.7802017 ], [ -3.8891396, 41.790917 ], [ -3.909873, 41.801037 ], [ -3.9233226, 41.8006447 ], [ -3.929981, 41.800495 ] ] ] } }
]
}
