{
"type": "FeatureCollection",
"name": "oltre_il_colle",
"crs": { "type": "name", "properties": { "name": "urn:ogc:def:crs:OGC:1.3:CRS84" } },
"features": [
{ "type": "Feature", "properties": { "name": "Oltre il Colle", "metric_roundness": 50.89, "metric_rectangularity": 74.62, "metric_mobile_fit": 76.93, "metric_aspect_ratio": 0.793, "metric_area_km2": 67.35 }, "geometry": { "type": "Polygon", "coordinates": [ [ [ 9.7508404, 45.9209853 ], [ 9.7544476, 45.909374799999988 ], [ 9.7526868, 45.8997282 ], [ 9.7494646, 45.899218399999988 ], [ 9.7471439, 45.9066274 ], [ 9.7415243, 45.911951 ], [ 9.7345531, 45.908122899999988 ], [ 9.7350339, 45.902249 ], [ 9.7634413, 45.8851692 ], [ 9.7755262, 45.882722699999988 ], [ 9.772741, 45.872866499999986 ], [ 9.776697, 45.8728935 ], [ 9.778677, 45.872592 ], [ 9.8018643, 45.891702799999983 ], [ 9.8203656, 45.900148 ], [ 9.8246895, 45.9090725 ], [ 9.816523, 45.934206499999988 ], [ 9.8099844, 45.944567399999983 ], [ 9.8006765, 45.951653 ], [ 9.774251, 45.9361417 ], [ 9.7646679, 45.9344855 ], [ 9.7599605, 45.929565 ], [ 9.7508404, 45.9209853 ] ] ] } }
]
}
