{
"type": "FeatureCollection",
"name": "urom",
"crs": { "type": "name", "properties": { "name": "urn:ogc:def:crs:OGC:1.3:CRS84" } },
"features": [
{ "type": "Feature", "properties": { "name": "Üröm", "feature_type": "entity", "metric_roundness": 57.66, "metric_rectangularity": 66.76, "metric_mobile_fit": 71.74, "metric_aspect_ratio": 0.845, "metric_area_km2": 14.73 }, "geometry": { "type": "Polygon", "coordinates": [ [ [ 19.0293051, 47.611993499999976 ], [ 19.0148163, 47.615567 ], [ 19.007788, 47.6107895 ], [ 18.993426, 47.587554 ], [ 18.9970305, 47.58576 ], [ 19.0024699, 47.5839202 ], [ 19.0330891, 47.5876963 ], [ 19.0262736, 47.6040388 ], [ 19.029222, 47.606038499999983 ], [ 19.0293051, 47.611993499999976 ] ] ] } },
{ "type": "Feature", "properties": { "name": "Üröm", "feature_type": "circle", "metric_roundness": 57.66, "metric_rectangularity": 66.76, "metric_mobile_fit": 71.74, "metric_aspect_ratio": 0.845, "metric_area_km2": 14.73 }, "geometry": { "type": "Polygon", "coordinates": [ [ [ 19.038797172830325, 47.598569846465928 ], [ 19.038762053355086, 47.597665467448913 ], [ 19.03865679118941, 47.596763551703951 ], [ 19.038481674849571, 47.595866571511294 ], [ 19.038237184317293, 47.594976985748787 ], [ 19.037923989724131, 47.59409723314883 ], [ 19.03754294951468, 47.593229725609113 ], [ 19.037095108093688, 47.592376841575692 ], [ 19.036581692963342, 47.591540919516525 ], [ 19.036004111358846, 47.590724251503389 ], [ 19.035363946391218, 47.589929076920029 ], [ 19.034662952708139, 47.589157576313653 ], [ 19.033903051684572, 47.588411865407011 ], [ 19.033086326156401, 47.58769398928726 ], [ 19.032215014711525, 47.587005916788073 ], [ 19.031291505554062, 47.586349535080167 ], [ 19.030318329958405, 47.585726644485433 ], [ 19.029298155331226, 47.58513895352894 ], [ 19.028233777900269, 47.584588074242596 ], [ 19.027128115050083, 47.584075517733375 ], [ 19.025984197325684, 47.583602690028499 ], [ 19.02480516012605, 47.583170888209047 ], [ 19.023594235110185, 47.582781296842839 ], [ 19.022354741339388, 47.582434984726227 ], [ 19.021090076179934, 47.582132901944256 ], [ 19.019803705991112, 47.581875877256984 ], [ 19.018499156624198, 47.581664615819484 ], [ 19.017180003758327, 47.581499697241682 ], [ 19.015849863099817, 47.581381573993646 ], [ 19.01451238047175, 47.581310570160568 ], [ 19.013171221821043, 47.581286880550948 ], [ 19.01183006317034, 47.581310570160568 ], [ 19.010492580542277, 47.581381573993646 ], [ 19.009162439883763, 47.581499697241682 ], [ 19.007843287017895, 47.581664615819484 ], [ 19.006538737650978, 47.581875877256984 ], [ 19.005252367462155, 47.582132901944256 ], [ 19.003987702302702, 47.582434984726227 ], [ 19.002748208531909, 47.582781296842839 ], [ 19.00153728351604, 47.583170888209047 ], [ 19.000358246316406, 47.583602690028499 ], [ 18.999214328592011, 47.584075517733375 ], [ 18.998108665741821, 47.584588074242596 ], [ 18.997044288310864, 47.58513895352894 ], [ 18.996024113683685, 47.585726644485433 ], [ 18.995050938088028, 47.586349535080167 ], [ 18.994127428930561, 47.587005916788073 ], [ 18.993256117485689, 47.58769398928726 ], [ 18.992439391957515, 47.588411865407011 ], [ 18.991679490933951, 47.589157576313653 ], [ 18.990978497250872, 47.589929076920029 ], [ 18.990338332283244, 47.590724251503389 ], [ 18.989760750678748, 47.591540919516525 ], [ 18.989247335548402, 47.592376841575692 ], [ 18.988799494127413, 47.593229725609113 ], [ 18.988418453917962, 47.59409723314883 ], [ 18.988105259324794, 47.594976985748787 ], [ 18.987860768792519, 47.595866571511294 ], [ 18.987685652452679, 47.596763551703951 ], [ 18.987580390287004, 47.597665467448913 ], [ 18.987545270811765, 47.598569846465928 ], [ 18.987580390287004, 47.599474209850783 ], [ 18.987685652452679, 47.600376078870575 ], [ 18.987860768792519, 47.601272981756985 ], [ 18.988105259324794, 47.602162460479128 ], [ 18.988418453917962, 47.603042077477369 ], [ 18.988799494127413, 47.603909422339697 ], [ 18.989247335548402, 47.604762118402391 ], [ 18.989760750678748, 47.605597829256936 ], [ 18.990338332283244, 47.60641426514556 ], [ 18.990978497250872, 47.607209189227717 ], [ 18.991679490933951, 47.607980423700738 ], [ 18.992439391957515, 47.608725855757704 ], [ 18.993256117485689, 47.60944344336658 ], [ 18.994127428930561, 47.610131220854683 ], [ 18.995050938088028, 47.610787304283491 ], [ 18.996024113683685, 47.611409896599142 ], [ 18.997044288310864, 47.611997292544544 ], [ 18.998108665741821, 47.612547883320019 ], [ 18.999214328592011, 47.613060160979565 ], [ 19.000358246316406, 47.613532722551106 ], [ 19.00153728351604, 47.613964273869357 ], [ 19.002748208531909, 47.614353633111065 ], [ 19.003987702302702, 47.614699734023063 ], [ 19.005252367462155, 47.615001628834314 ], [ 19.006538737650978, 47.615258490844198 ], [ 19.007843287017895, 47.615469616679995 ], [ 19.009162439883763, 47.61563442821744 ], [ 19.010492580542277, 47.615752474159223 ], [ 19.01183006317034, 47.615823431267124 ], [ 19.013171221821043, 47.615847105244612 ], [ 19.01451238047175, 47.615823431267124 ], [ 19.015849863099817, 47.615752474159223 ], [ 19.017180003758327, 47.61563442821744 ], [ 19.018499156624198, 47.615469616679995 ], [ 19.019803705991112, 47.615258490844198 ], [ 19.021090076179934, 47.615001628834314 ], [ 19.022354741339388, 47.614699734023063 ], [ 19.023594235110185, 47.614353633111065 ], [ 19.02480516012605, 47.613964273869357 ], [ 19.025984197325684, 47.613532722551106 ], [ 19.027128115050083, 47.613060160979565 ], [ 19.028233777900269, 47.612547883320019 ], [ 19.029298155331226, 47.611997292544544 ], [ 19.030318329958405, 47.611409896599142 ], [ 19.031291505554062, 47.610787304283491 ], [ 19.032215014711525, 47.610131220854683 ], [ 19.033086326156401, 47.60944344336658 ], [ 19.033903051684572, 47.608725855757704 ], [ 19.034662952708139, 47.607980423700738 ], [ 19.035363946391218, 47.607209189227724 ], [ 19.036004111358846, 47.60641426514556 ], [ 19.036581692963342, 47.605597829256936 ], [ 19.037095108093688, 47.604762118402391 ], [ 19.03754294951468, 47.603909422339697 ], [ 19.037923989724131, 47.603042077477369 ], [ 19.038237184317293, 47.602162460479128 ], [ 19.038481674849571, 47.601272981756985 ], [ 19.03865679118941, 47.600376078870575 ], [ 19.038762053355086, 47.599474209850783 ], [ 19.038797172830325, 47.598569846465928 ] ] ] } },
{ "type": "Feature", "properties": { "name": "Üröm", "feature_type": "mrr", "metric_roundness": 57.66, "metric_rectangularity": 66.76, "metric_mobile_fit": 71.74, "metric_aspect_ratio": 0.845, "metric_area_km2": 14.73 }, "geometry": { "type": "Polygon", "coordinates": [ [ [ 18.992851423615885, 47.586624211649038 ], [ 19.011606900320022, 47.616966157039656 ], [ 19.045324631143252, 47.607492100741304 ], [ 19.02656915443912, 47.577144659349976 ], [ 18.992851423615885, 47.586624211649038 ] ] ] } }
]
}
