{
"type": "FeatureCollection",
"name": "guardiola_de_bergueda",
"crs": { "type": "name", "properties": { "name": "urn:ogc:def:crs:OGC:1.3:CRS84" } },
"features": [
{ "type": "Feature", "properties": { "name": "Guardiola de Berguedà", "feature_type": "entity", "metric_roundness": 27.98, "metric_rectangularity": 60.65, "metric_mobile_fit": 79.57, "metric_aspect_ratio": 0.767, "metric_area_km2": 82.06 }, "geometry": { "type": "Polygon", "coordinates": [ [ [ 1.8691221, 42.2019903 ], [ 1.8883235, 42.209236 ], [ 1.8885071, 42.214810199999988 ], [ 1.8765816, 42.2209491 ], [ 1.8814647, 42.22937 ], [ 1.8945207, 42.2344016 ], [ 1.8979855, 42.2299172 ], [ 1.914415, 42.2288285 ], [ 1.9156965, 42.2468752 ], [ 1.939258, 42.2590996 ], [ 1.9450295, 42.259334499999987 ], [ 1.9454446, 42.2732855 ], [ 1.9529197, 42.281588 ], [ 1.9495469, 42.293934 ], [ 1.940119, 42.3021925 ], [ 1.9350758, 42.2969172 ], [ 1.9196257, 42.300232299999983 ], [ 1.9008879, 42.294843499999985 ], [ 1.8908743, 42.2708649 ], [ 1.8810724, 42.2630783 ], [ 1.8819476, 42.254047 ], [ 1.8742127, 42.2446865 ], [ 1.8767084, 42.2378229 ], [ 1.8612549, 42.233818699999986 ], [ 1.8449105, 42.2368085 ], [ 1.835701, 42.2284235 ], [ 1.8410241, 42.2241871 ], [ 1.8415331, 42.219486 ], [ 1.8336265, 42.2173988 ], [ 1.8329111, 42.2138419 ], [ 1.8517249, 42.2066021 ], [ 1.851697, 42.195437 ], [ 1.86493, 42.186333 ], [ 1.8691221, 42.2019903 ] ] ] } },
{ "type": "Feature", "properties": { "name": "Guardiola de Berguedà", "feature_type": "circle", "metric_roundness": 27.98, "metric_rectangularity": 60.65, "metric_mobile_fit": 79.57, "metric_aspect_ratio": 0.767, "metric_area_km2": 82.06 }, "geometry": { "type": "Polygon", "coordinates": [ [ [ 1.989339963455568, 42.24428934562053 ], [ 1.989220985880136, 42.240925718394735 ], [ 1.988864379263106, 42.237571132055649 ], [ 1.988271121038428, 42.234234783494919 ], [ 1.987442837285657, 42.230925821056559 ], [ 1.986381798272988, 42.227653319422068 ], [ 1.985090912234601, 42.224426254682029 ], [ 1.983573717399401, 42.22125347966324 ], [ 1.981834372292971, 42.218143699579691 ], [ 1.979877644339348, 42.21510544807515 ], [ 1.977708896793841, 42.212147063723933 ], [ 1.975334074042727, 42.20927666705564 ], [ 1.972759685310091, 42.20650213816802 ], [ 1.96999278681651, 42.203831094990754 ], [ 1.967040962438427, 42.201270872261333 ], [ 1.963912302921285, 42.198828501272097 ], [ 1.960615383703349, 42.196510690445677 ], [ 1.957159241411031, 42.19432380679374 ], [ 1.953553349090119, 42.192273858311474 ], [ 1.949807590240823, 42.190366477357877 ], [ 1.945932231727784, 42.188606905068902 ], [ 1.941937895639314, 42.186999976847993 ], [ 1.937835530172987, 42.185550108975221 ], [ 1.933636379627397, 42.184261286373321 ], [ 1.929351953582308, 42.183137051565474 ], [ 1.924993995351703, 42.182180494856532 ], [ 1.920574449796175, 42.181394245765738 ], [ 1.916105430582892, 42.180780465735339 ], [ 1.911599186982879, 42.180340842136424 ], [ 1.907068070296622, 42.180076583588566 ], [ 1.9025245, 42.17998841660728 ], [ 1.897980929703379, 42.180076583588566 ], [ 1.89344981301712, 42.180340842136424 ], [ 1.888943569417109, 42.180780465735339 ], [ 1.884474550203825, 42.181394245765738 ], [ 1.880055004648297, 42.182180494856532 ], [ 1.875697046417692, 42.183137051565474 ], [ 1.871412620372603, 42.184261286373321 ], [ 1.867213469827012, 42.185550108975221 ], [ 1.863111104360686, 42.186999976847993 ], [ 1.859116768272216, 42.188606905068902 ], [ 1.855241409759177, 42.190366477357877 ], [ 1.851495650909881, 42.192273858311474 ], [ 1.847889758588969, 42.19432380679374 ], [ 1.84443361629665, 42.196510690445677 ], [ 1.841136697078715, 42.198828501272097 ], [ 1.838008037561573, 42.201270872261333 ], [ 1.83505621318349, 42.203831094990754 ], [ 1.832289314689908, 42.20650213816802 ], [ 1.829714925957274, 42.20927666705564 ], [ 1.827340103206159, 42.212147063723933 ], [ 1.825171355660652, 42.21510544807515 ], [ 1.823214627707029, 42.218143699579691 ], [ 1.821475282600598, 42.22125347966324 ], [ 1.819958087765398, 42.224426254682029 ], [ 1.818667201727012, 42.227653319422068 ], [ 1.817606162714343, 42.230925821056559 ], [ 1.816777878961572, 42.234234783494919 ], [ 1.816184620736893, 42.237571132055649 ], [ 1.815828014119863, 42.240925718394735 ], [ 1.815709036544432, 42.24428934562053 ], [ 1.815828014119863, 42.247652793525994 ], [ 1.816184620736893, 42.251006843868787 ], [ 1.816777878961572, 42.254342305629756 ], [ 1.817606162714343, 42.257650040180856 ], [ 1.818667201727012, 42.260920986293598 ], [ 1.819958087765398, 42.264146184920037 ], [ 1.821475282600598, 42.267316803678916 ], [ 1.823214627707029, 42.270424160980731 ], [ 1.825171355660652, 42.273459749726229 ], [ 1.827340103206158, 42.276415260514867 ], [ 1.829714925957274, 42.279282604300413 ], [ 1.832289314689908, 42.282053934433151 ], [ 1.83505621318349, 42.284721668029661 ], [ 1.838008037561573, 42.287278506612935 ], [ 1.841136697078715, 42.289717455968024 ], [ 1.84443361629665, 42.292031845160459 ], [ 1.847889758588969, 42.294215344666711 ], [ 1.851495650909881, 42.296261983568968 ], [ 1.855241409759177, 42.298166165768691 ], [ 1.859116768272216, 42.299922685176135 ], [ 1.863111104360686, 42.301526739835843 ], [ 1.867213469827012, 42.30297394495102 ], [ 1.871412620372603, 42.304260344772686 ], [ 1.875697046417692, 42.305382423322094 ], [ 1.880055004648297, 42.306337113918794 ], [ 1.884474550203825, 42.307121807489061 ], [ 1.888943569417108, 42.307734359633194 ], [ 1.89344981301712, 42.308173096433109 ], [ 1.897980929703379, 42.308436818985136 ], [ 1.9025245, 42.308524806646254 ], [ 1.907068070296622, 42.308436818985136 ], [ 1.911599186982879, 42.308173096433109 ], [ 1.916105430582891, 42.307734359633194 ], [ 1.920574449796174, 42.307121807489061 ], [ 1.924993995351703, 42.306337113918794 ], [ 1.929351953582308, 42.305382423322094 ], [ 1.933636379627397, 42.304260344772686 ], [ 1.937835530172987, 42.30297394495102 ], [ 1.941937895639314, 42.301526739835843 ], [ 1.945932231727784, 42.299922685176135 ], [ 1.949807590240823, 42.298166165768691 ], [ 1.953553349090119, 42.296261983568968 ], [ 1.957159241411031, 42.294215344666711 ], [ 1.960615383703349, 42.292031845160459 ], [ 1.963912302921285, 42.289717455968024 ], [ 1.967040962438427, 42.287278506612935 ], [ 1.96999278681651, 42.284721668029661 ], [ 1.972759685310091, 42.282053934433151 ], [ 1.975334074042727, 42.279282604300413 ], [ 1.977708896793841, 42.276415260514867 ], [ 1.979877644339348, 42.273459749726229 ], [ 1.981834372292971, 42.270424160980731 ], [ 1.983573717399401, 42.267316803678916 ], [ 1.985090912234601, 42.264146184920037 ], [ 1.986381798272988, 42.260920986293598 ], [ 1.987442837285657, 42.257650040180856 ], [ 1.988271121038428, 42.254342305629756 ], [ 1.988864379263106, 42.251006843868787 ], [ 1.989220985880136, 42.247652793525994 ], [ 1.989339963455568, 42.24428934562053 ] ] ] } },
{ "type": "Feature", "properties": { "name": "Guardiola de Berguedà", "feature_type": "mrr", "metric_roundness": 27.98, "metric_rectangularity": 60.65, "metric_mobile_fit": 79.57, "metric_aspect_ratio": 0.767, "metric_area_km2": 82.06 }, "geometry": { "type": "Polygon", "coordinates": [ [ [ 1.81877664141169, 42.211167564490559 ], [ 1.919161350791811, 42.313450072605349 ], [ 1.970877338579369, 42.285666760653044 ], [ 1.870492629199248, 42.183339157040344 ], [ 1.81877664141169, 42.211167564490559 ] ] ] } }
]
}
