{
"type": "FeatureCollection",
"name": "guijo_de_coria",
"crs": { "type": "name", "properties": { "name": "urn:ogc:def:crs:OGC:1.3:CRS84" } },
"features": [
{ "type": "Feature", "properties": { "name": "Guijo de Coria", "metric_roundness": 43.39, "metric_rectangularity": 71.09, "metric_mobile_fit": 67.03, "metric_aspect_ratio": 0.892, "metric_area_km2": 127.47 }, "geometry": { "type": "Polygon", "coordinates": [ [ [ -6.4534815, 40.1116295 ], [ -6.4562635, 40.1123505 ], [ -6.4612865, 40.1128655 ], [ -6.462686, 40.1115605 ], [ -6.464502, 40.110752 ], [ -6.471099, 40.110222 ], [ -6.4738195, 40.110859 ], [ -6.4752505, 40.112484 ], [ -6.4799585, 40.115097 ], [ -6.48339, 40.1158865 ], [ -6.488612, 40.116611499999976 ], [ -6.4910433, 40.116507499999983 ], [ -6.5009275, 40.1152985 ], [ -6.5090837, 40.1100656 ], [ -6.526078, 40.1079175 ], [ -6.5354734, 40.1073275 ], [ -6.5413495, 40.1026875 ], [ -6.5330253, 40.098828699999984 ], [ -6.5080299, 40.0723888 ], [ -6.5005928, 40.058809899999986 ], [ -6.496776, 40.0414897 ], [ -6.4910433, 40.0367076 ], [ -6.4886315, 40.0347785 ], [ -6.483872, 40.0285455 ], [ -6.4656661, 40.0183246 ], [ -6.4631703, 40.0047312 ], [ -6.4578337, 39.998101299999988 ], [ -6.4482513, 39.9975721 ], [ -6.4394647, 40.0085662 ], [ -6.4235965, 40.007572 ], [ -6.4152257, 40.011321599999988 ], [ -6.4208385, 40.025367599999988 ], [ -6.4192415, 40.0312619 ], [ -6.40259, 40.036915 ], [ -6.4159952, 40.0491862 ], [ -6.4271598, 40.0529723 ], [ -6.4365221, 40.0600126 ], [ -6.440626, 40.0995295 ], [ -6.4508805, 40.11285 ], [ -6.4534815, 40.1116295 ] ] ] } }
]
}
