{
"type": "FeatureCollection",
"name": "gulzow",
"crs": { "type": "name", "properties": { "name": "urn:ogc:def:crs:OGC:1.3:CRS84" } },
"features": [
{ "type": "Feature", "properties": { "name": "Gülzow", "metric_roundness": 36.22, "metric_rectangularity": 55.04, "metric_mobile_fit": 95.15, "metric_aspect_ratio": 0.611, "metric_area_km2": 47.78 }, "geometry": { "type": "Polygon", "coordinates": [ [ [ 10.5105965, 53.4435565 ], [ 10.511185, 53.449151 ], [ 10.5171075, 53.4540452 ], [ 10.518853, 53.462135499999988 ], [ 10.5150447, 53.472211399999985 ], [ 10.5107783, 53.474985599999989 ], [ 10.5076825, 53.476596 ], [ 10.508165, 53.480945499999983 ], [ 10.5107783, 53.4813374 ], [ 10.5148695, 53.481951 ], [ 10.5156855, 53.489275 ], [ 10.5107783, 53.490454 ], [ 10.505696, 53.491675 ], [ 10.5037825, 53.494820499999989 ], [ 10.4981995, 53.490967299999987 ], [ 10.4940035, 53.485178 ], [ 10.4867575, 53.483101499999989 ], [ 10.4792093, 53.476508499999987 ], [ 10.4808095, 53.4701465 ], [ 10.4705673, 53.4574363 ], [ 10.4692465, 53.446928 ], [ 10.4620935, 53.432439499999987 ], [ 10.4666618, 53.4299489 ], [ 10.5007825, 53.4337125 ], [ 10.5107783, 53.43523339999998 ], [ 10.5286675, 53.433071 ], [ 10.5105965, 53.4435565 ] ] ] } }
]
}
