{
"type": "FeatureCollection",
"name": "gundersheim",
"crs": { "type": "name", "properties": { "name": "urn:ogc:def:crs:OGC:1.3:CRS84" } },
"features": [
{ "type": "Feature", "properties": { "name": "Gundersheim", "feature_type": "entity", "metric_roundness": 50.02, "metric_rectangularity": 71.12, "metric_mobile_fit": 72.8, "metric_aspect_ratio": 0.834, "metric_area_km2": 20.42 }, "geometry": { "type": "Polygon", "coordinates": [ [ [ 8.1858095, 49.700101499999974 ], [ 8.180471, 49.695813699999981 ], [ 8.171301, 49.6931345 ], [ 8.1726677, 49.684133399999986 ], [ 8.1787875, 49.682258399999988 ], [ 8.1853405, 49.672882499999986 ], [ 8.203245, 49.675785 ], [ 8.206245, 49.676269 ], [ 8.2051934, 49.6825282 ], [ 8.221131, 49.689557499999985 ], [ 8.2177786, 49.6946539 ], [ 8.2141647, 49.7003865 ], [ 8.2104345, 49.711511 ], [ 8.1858095, 49.700101499999974 ] ] ] } },
{ "type": "Feature", "properties": { "name": "Gundersheim", "feature_type": "circle", "metric_roundness": 50.02, "metric_rectangularity": 71.12, "metric_mobile_fit": 72.8, "metric_aspect_ratio": 0.834, "metric_area_km2": 20.42 }, "geometry": { "type": "Polygon", "coordinates": [ [ [ 8.230273652083607, 49.692200587565189 ], [ 8.230229267987744, 49.691104116280606 ], [ 8.230096237353873, 49.690010625713867 ], [ 8.229874924809721, 49.688923113350178 ], [ 8.229565936957581, 49.687844560487633 ], [ 8.229170120711682, 49.686777924060252 ], [ 8.22868856097684, 49.685726128525609 ], [ 8.228122577674817, 49.684692057839349 ], [ 8.227473722126501, 49.683678547539053 ], [ 8.22674377279985, 49.68268837695868 ], [ 8.225934730435229, 49.681724261595633 ], [ 8.225048812561525, 49.680788845651286 ], [ 8.224088447418049, 49.679884694765484 ], [ 8.223056267298906, 49.679014288965433 ], [ 8.221955101338056, 49.678180015848191 ], [ 8.220787967754857, 49.677384164015926 ], [ 8.219558065581333, 49.676628916782001 ], [ 8.218268765893855, 49.675916346165401 ], [ 8.216923602573244, 49.67524840719026 ], [ 8.215526262618665, 49.674626932506243 ], [ 8.214080576041802, 49.674053627344811 ], [ 8.212590505369077, 49.673530064825513 ], [ 8.211060134780627, 49.673057681625131 ], [ 8.209493658915864, 49.672637774022029 ], [ 8.207895371376246, 49.672271494326708 ], [ 8.206269652956824, 49.671959847708187 ], [ 8.204620959638783, 49.671703689425655 ], [ 8.202953810375909, 49.671503722472622 ], [ 8.20127277470845, 49.671360495640421 ], [ 8.199582460238325, 49.671274402006347 ], [ 8.1978875, 49.67124567785082 ], [ 8.196192539761674, 49.671274402006347 ], [ 8.194502225291547, 49.671360495640421 ], [ 8.192821189624087, 49.671503722472622 ], [ 8.191154040361216, 49.671703689425655 ], [ 8.189505347043173, 49.671959847708187 ], [ 8.187879628623751, 49.672271494326708 ], [ 8.186281341084134, 49.672637774022029 ], [ 8.18471486521937, 49.673057681625131 ], [ 8.183184494630922, 49.673530064825513 ], [ 8.181694423958195, 49.674053627344811 ], [ 8.180248737381334, 49.674626932506243 ], [ 8.178851397426753, 49.67524840719026 ], [ 8.177506234106144, 49.675916346165401 ], [ 8.176216934418663, 49.676628916782001 ], [ 8.174987032245141, 49.677384164015926 ], [ 8.173819898661941, 49.678180015848191 ], [ 8.172718732701092, 49.679014288965433 ], [ 8.171686552581949, 49.679884694765484 ], [ 8.170726187438472, 49.680788845651286 ], [ 8.169840269564768, 49.681724261595633 ], [ 8.169031227200147, 49.68268837695868 ], [ 8.168301277873496, 49.683678547539053 ], [ 8.16765242232518, 49.684692057839349 ], [ 8.167086439023157, 49.685726128525609 ], [ 8.166604879288316, 49.686777924060252 ], [ 8.166209063042418, 49.687844560487633 ], [ 8.165900075190278, 49.688923113350178 ], [ 8.165678762646124, 49.690010625713867 ], [ 8.165545732012255, 49.691104116280606 ], [ 8.165501347916392, 49.692200587565189 ], [ 8.165545732012255, 49.693297034114629 ], [ 8.165678762646124, 49.694390450746866 ], [ 8.165900075190278, 49.695477840786786 ], [ 8.166209063042418, 49.696556224276478 ], [ 8.166604879288316, 49.697622646137596 ], [ 8.167086439023157, 49.698674184263432 ], [ 8.16765242232518, 49.699707957518527 ], [ 8.168301277873496, 49.700721133624057 ], [ 8.169031227200147, 49.701710936907553 ], [ 8.169840269564768, 49.702674655895791 ], [ 8.170726187438472, 49.703609650730165 ], [ 8.171686552581949, 49.704513360384588 ], [ 8.172718732701092, 49.705383309666111 ], [ 8.173819898661941, 49.706217115979371 ], [ 8.174987032245141, 49.707012495836572 ], [ 8.176216934418663, 49.707767271095449 ], [ 8.177506234106144, 49.708479374908066 ], [ 8.178851397426753, 49.709146857364679 ], [ 8.180248737381334, 49.709767890817353 ], [ 8.181694423958195, 49.710340774868818 ], [ 8.183184494630922, 49.710863941013322 ], [ 8.18471486521937, 49.711335956916848 ], [ 8.186281341084134, 49.711755530325192 ], [ 8.187879628623751, 49.712121512589391 ], [ 8.189505347043173, 49.712432901799119 ], [ 8.191154040361216, 49.712688845515409 ], [ 8.192821189624087, 49.712888643095596 ], [ 8.194502225291547, 49.713031747604035 ], [ 8.196192539761674, 49.713117767303601 ], [ 8.1978875, 49.713146466723977 ], [ 8.199582460238325, 49.713117767303601 ], [ 8.20127277470845, 49.713031747604035 ], [ 8.202953810375909, 49.712888643095596 ], [ 8.204620959638783, 49.712688845515409 ], [ 8.206269652956824, 49.712432901799119 ], [ 8.207895371376246, 49.712121512589391 ], [ 8.209493658915864, 49.711755530325192 ], [ 8.211060134780627, 49.711335956916848 ], [ 8.212590505369077, 49.710863941013322 ], [ 8.214080576041802, 49.710340774868818 ], [ 8.215526262618665, 49.709767890817353 ], [ 8.216923602573244, 49.709146857364679 ], [ 8.218268765893855, 49.708479374908066 ], [ 8.219558065581333, 49.707767271095449 ], [ 8.220787967754857, 49.707012495836572 ], [ 8.221955101338056, 49.706217115979371 ], [ 8.223056267298906, 49.705383309666111 ], [ 8.224088447418049, 49.704513360384588 ], [ 8.225048812561525, 49.703609650730165 ], [ 8.225934730435229, 49.702674655895791 ], [ 8.22674377279985, 49.701710936907553 ], [ 8.227473722126501, 49.700721133624057 ], [ 8.228122577674817, 49.699707957518527 ], [ 8.22868856097684, 49.698674184263432 ], [ 8.229170120711682, 49.697622646137596 ], [ 8.229565936957581, 49.696556224276478 ], [ 8.229874924809721, 49.695477840786786 ], [ 8.230096237353873, 49.694390450746866 ], [ 8.230229267987744, 49.693297034114629 ], [ 8.230273652083607, 49.692200587565189 ] ] ] } },
{ "type": "Feature", "properties": { "name": "Gundersheim", "feature_type": "mrr", "metric_roundness": 50.02, "metric_rectangularity": 71.12, "metric_mobile_fit": 72.8, "metric_aspect_ratio": 0.834, "metric_area_km2": 20.42 }, "geometry": { "type": "Polygon", "coordinates": [ [ [ 8.165438890799397, 49.690661160214319 ], [ 8.2104345, 49.711511 ], [ 8.234806459331647, 49.689508619937961 ], [ 8.189810840482059, 49.668649334958751 ], [ 8.165438890799397, 49.690661160214319 ] ] ] } }
]
}
