{
"type": "FeatureCollection",
"name": "libichava",
"crs": { "type": "name", "properties": { "name": "urn:ogc:def:crs:OGC:1.3:CRS84" } },
"features": [
{ "type": "Feature", "properties": { "name": "Libichava", "feature_type": "entity", "metric_roundness": 39.91, "metric_rectangularity": 76.09, "metric_mobile_fit": 46.06, "metric_aspect_ratio": 1.102, "metric_area_km2": 5.69 }, "geometry": { "type": "Polygon", "coordinates": [ [ [ 18.1872135, 48.681812499999985 ], [ 18.1599085, 48.668672 ], [ 18.162231, 48.662858199999981 ], [ 18.172536, 48.6617355 ], [ 18.1934085, 48.677088499999982 ], [ 18.1872135, 48.681812499999985 ] ] ] } },
{ "type": "Feature", "properties": { "name": "Libichava", "feature_type": "circle", "metric_roundness": 39.91, "metric_rectangularity": 76.09, "metric_mobile_fit": 46.06, "metric_aspect_ratio": 1.102, "metric_area_km2": 5.69 }, "geometry": { "type": "Polygon", "coordinates": [ [ [ 18.195430488031533, 48.671434550216766 ], [ 18.195404258052175, 48.670773058655371 ], [ 18.195325640008651, 48.670113371547778 ], [ 18.195194849387551, 48.669457297157095 ], [ 18.195012244676878, 48.668806633914016 ], [ 18.194778326383453, 48.668163165485502 ], [ 18.194493735661059, 48.667528655883203 ], [ 18.194159252553078, 48.666904844625023 ], [ 18.193775793854467, 48.666293441963212 ], [ 18.193344410598861, 48.665696124191896 ], [ 18.192866285177782, 48.665114529047258 ], [ 18.192342728099767, 48.664550251212802 ], [ 18.191775174398384, 48.664004837942137 ], [ 18.191165179698878, 48.663479784811464 ], [ 18.190514415954311, 48.662976531613296 ], [ 18.189824666862883, 48.66249645840287 ], [ 18.189097822978908, 48.662040881708165 ], [ 18.188335876530942, 48.661611050913919 ], [ 18.187540915961243, 48.661208144829665 ], [ 18.186715120201473, 48.660833268451377 ], [ 18.185860752700417, 48.66048744992549 ], [ 18.184980155219996, 48.66017163772387 ], [ 18.184075741416702, 48.659886698037468 ], [ 18.183149990225903, 48.659633412395877 ], [ 18.182205439067268, 48.659412475519424 ], [ 18.181244676889865, 48.659224493409688 ], [ 18.180270337076038, 48.6590699816838 ], [ 18.179285090223495, 48.65894936415711 ], [ 18.178291636825374, 48.658862971678154 ], [ 18.177292699868389, 48.658811041219138 ], [ 18.176291017369298, 48.658793715224455 ], [ 18.175289334870204, 48.658811041219138 ], [ 18.174290397913218, 48.658862971678154 ], [ 18.173296944515094, 48.65894936415711 ], [ 18.172311697662554, 48.6590699816838 ], [ 18.171337357848728, 48.659224493409688 ], [ 18.170376595671321, 48.659412475519424 ], [ 18.169432044512689, 48.659633412395877 ], [ 18.16850629332189, 48.659886698037468 ], [ 18.167601879518596, 48.66017163772387 ], [ 18.166721282038178, 48.66048744992549 ], [ 18.165866914537116, 48.660833268451377 ], [ 18.165041118777349, 48.661208144829665 ], [ 18.16424615820765, 48.661611050913919 ], [ 18.163484211759684, 48.662040881708165 ], [ 18.162757367875706, 48.66249645840287 ], [ 18.162067618784278, 48.662976531613296 ], [ 18.161416855039715, 48.663479784811464 ], [ 18.160806860340205, 48.664004837942137 ], [ 18.160239306638822, 48.664550251212802 ], [ 18.15971574956081, 48.665114529047258 ], [ 18.159237624139731, 48.665696124191896 ], [ 18.158806240884122, 48.666293441963212 ], [ 18.158422782185511, 48.666904844625023 ], [ 18.158088299077534, 48.667528655883203 ], [ 18.157803708355139, 48.668163165485502 ], [ 18.157569790061711, 48.668806633914016 ], [ 18.157387185351041, 48.669457297157095 ], [ 18.157256394729941, 48.670113371547778 ], [ 18.157177776686417, 48.670773058655371 ], [ 18.157151546707059, 48.671434550216766 ], [ 18.157177776686417, 48.672096033093943 ], [ 18.157256394729941, 48.672755694243989 ], [ 18.157387185351041, 48.673411725688219 ], [ 18.157569790061711, 48.674062329466452 ], [ 18.157803708355139, 48.67470572256326 ], [ 18.158088299077534, 48.675340141792326 ], [ 18.158422782185511, 48.675963848625877 ], [ 18.158806240884122, 48.676575133955794 ], [ 18.159237624139731, 48.677172322773451 ], [ 18.15971574956081, 48.677753778755502 ], [ 18.160239306638822, 48.678317908743153 ], [ 18.160806860340205, 48.678863167102612 ], [ 18.161416855039715, 48.679388059954931 ], [ 18.162067618784278, 48.679891149263639 ], [ 18.162757367875706, 48.680371056769118 ], [ 18.163484211759684, 48.68082646775887 ], [ 18.16424615820765, 48.681256134663663 ], [ 18.165041118777349, 48.68165888046957 ], [ 18.165866914537116, 48.682033601936666 ], [ 18.166721282038178, 48.682379272615741 ], [ 18.167601879518596, 48.682694945654774 ], [ 18.16850629332189, 48.682979756387518 ], [ 18.169432044512689, 48.683232924697208 ], [ 18.170376595671321, 48.683453757149053 ], [ 18.171337357848728, 48.683641648885555 ], [ 18.172311697662554, 48.683796085279724 ], [ 18.173296944515094, 48.683916643341576 ], [ 18.174290397913218, 48.684002992874085 ], [ 18.175289334870204, 48.68405489737556 ], [ 18.176291017369298, 48.684072214686012 ], [ 18.177292699868389, 48.68405489737556 ], [ 18.178291636825374, 48.684002992874085 ], [ 18.179285090223495, 48.683916643341576 ], [ 18.180270337076038, 48.683796085279724 ], [ 18.181244676889865, 48.683641648885555 ], [ 18.182205439067268, 48.683453757149053 ], [ 18.183149990225903, 48.683232924697208 ], [ 18.184075741416702, 48.682979756387518 ], [ 18.184980155219996, 48.682694945654774 ], [ 18.185860752700417, 48.682379272615741 ], [ 18.186715120201473, 48.682033601936666 ], [ 18.187540915961243, 48.68165888046957 ], [ 18.188335876530942, 48.681256134663663 ], [ 18.189097822978908, 48.68082646775887 ], [ 18.189824666862883, 48.680371056769118 ], [ 18.190514415954311, 48.679891149263639 ], [ 18.191165179698878, 48.679388059954931 ], [ 18.191775174398384, 48.678863167102612 ], [ 18.192342728099767, 48.678317908743153 ], [ 18.192866285177782, 48.677753778755502 ], [ 18.193344410598861, 48.677172322773451 ], [ 18.193775793854467, 48.676575133955794 ], [ 18.194159252553078, 48.675963848625877 ], [ 18.194493735661059, 48.675340141792326 ], [ 18.194778326383453, 48.67470572256326 ], [ 18.195012244676878, 48.674062329466452 ], [ 18.195194849387551, 48.673411725688219 ], [ 18.195325640008651, 48.672755694243989 ], [ 18.195404258052175, 48.672096033093943 ], [ 18.195430488031533, 48.671434550216766 ] ] ] } },
{ "type": "Feature", "properties": { "name": "Libichava", "feature_type": "mrr", "metric_roundness": 39.91, "metric_rectangularity": 76.09, "metric_mobile_fit": 46.06, "metric_aspect_ratio": 1.102, "metric_area_km2": 5.69 }, "geometry": { "type": "Polygon", "coordinates": [ [ [ 18.157235349886282, 48.667385365902469 ], [ 18.187853972613048, 48.682120686108021 ], [ 18.197233481318403, 48.673622919358074 ], [ 18.166614858591636, 48.658885113510209 ], [ 18.157235349886282, 48.667385365902469 ] ] ] } }
]
}
