{
"type": "FeatureCollection",
"name": "ligny_saint_flochel",
"crs": { "type": "name", "properties": { "name": "urn:ogc:def:crs:OGC:1.3:CRS84" } },
"features": [
{ "type": "Feature", "properties": { "name": "Ligny-Saint-Flochel", "metric_roundness": 59.48, "metric_rectangularity": 73.53, "metric_mobile_fit": 70.61, "metric_aspect_ratio": 0.856, "metric_area_km2": 12.62 }, "geometry": { "type": "Polygon", "coordinates": [ [ [ 2.405082, 50.346616499999975 ], [ 2.409177, 50.347739499999975 ], [ 2.4340269, 50.3474618 ], [ 2.4391635, 50.3557785 ], [ 2.4406196, 50.36382949999998 ], [ 2.4247885, 50.37309 ], [ 2.411772, 50.3662255 ], [ 2.4064805, 50.3534595 ], [ 2.405226, 50.34842 ], [ 2.405082, 50.346616499999975 ] ] ] } }
]
}
