{
"type": "FeatureCollection",
"name": "lillianes",
"crs": { "type": "name", "properties": { "name": "urn:ogc:def:crs:OGC:1.3:CRS84" } },
"features": [
{ "type": "Feature", "properties": { "name": "Lillianes", "feature_type": "entity", "metric_roundness": 23.14, "metric_rectangularity": 55.62, "metric_mobile_fit": 70.7, "metric_aspect_ratio": 0.855, "metric_area_km2": 38.59 }, "geometry": { "type": "Polygon", "coordinates": [ [ [ 7.8203461, 45.6443292 ], [ 7.8226675, 45.632183399999981 ], [ 7.8352298, 45.624178699999987 ], [ 7.8511962, 45.6185625 ], [ 7.8605231, 45.605004699999974 ], [ 7.8623015, 45.596985 ], [ 7.86474, 45.597306 ], [ 7.8811585, 45.5993084 ], [ 7.8894967, 45.5968717 ], [ 7.895811, 45.590028 ], [ 7.8998937, 45.5926056 ], [ 7.8964955, 45.600967499999989 ], [ 7.8974105, 45.6063125 ], [ 7.896804, 45.611271 ], [ 7.897488, 45.612524 ], [ 7.8816471, 45.628171 ], [ 7.8705359, 45.635037199999985 ], [ 7.8560585, 45.6402387 ], [ 7.8458188, 45.637505799999985 ], [ 7.8366365, 45.648832699999986 ], [ 7.815445, 45.662029 ], [ 7.811815, 45.660267 ], [ 7.8203461, 45.6443292 ] ] ] } },
{ "type": "Feature", "properties": { "name": "Lillianes", "feature_type": "circle", "metric_roundness": 23.14, "metric_rectangularity": 55.62, "metric_mobile_fit": 70.7, "metric_aspect_ratio": 0.855, "metric_area_km2": 38.59 }, "geometry": { "type": "Polygon", "coordinates": [ [ [ 7.919502813563047, 45.625289827569141 ], [ 7.919413095674725, 45.622893678993172 ], [ 7.919144187920252, 45.620503996098776 ], [ 7.918696827357093, 45.618127330097906 ], [ 7.918072240169457, 45.615770197347139 ], [ 7.917272138307411, 45.613439061463986 ], [ 7.916298714794539, 45.611140315578986 ], [ 7.915154637717034, 45.60888026477263 ], [ 7.91384304291064, 45.606665108745581 ], [ 7.912367525365553, 45.604500924770313 ], [ 7.910732129372803, 45.602393650971514 ], [ 7.908941337439129, 45.60034906998154 ], [ 7.907000058000747, 45.5983727930169 ], [ 7.90491361196966, 45.596470244419706 ], [ 7.902687718149413, 45.594646646707787 ], [ 7.900328477560246, 45.592907006175047 ], [ 7.897842356716625, 45.591256099082571 ], [ 7.895236169902976, 45.589698458479248 ], [ 7.892517060496199, 45.588238361689093 ], [ 7.889692481386177, 45.586879818500393 ], [ 7.886770174547916, 45.585626560090063 ], [ 7.883758149821332, 45.584482028714561 ], [ 7.880664662956838, 45.583449368196398 ], [ 7.877498192986903, 45.582531415233319 ], [ 7.874267418985617, 45.58173069155459 ], [ 7.870981196279947, 45.581049396946945 ], [ 7.867648532177912, 45.580489403169572 ], [ 7.86427856128016, 45.580052248775878 ], [ 7.860880520442678, 45.579739134856396 ], [ 7.857463723459209, 45.579550921715111 ], [ 7.854037535532786, 45.57948812648867 ], [ 7.850611347606361, 45.579550921715111 ], [ 7.847194550622892, 45.579739134856396 ], [ 7.843796509785412, 45.580052248775878 ], [ 7.840426538887659, 45.580489403169572 ], [ 7.837093874785622, 45.581049396946945 ], [ 7.833807652079953, 45.58173069155459 ], [ 7.830576878078669, 45.582531415233319 ], [ 7.827410408108733, 45.583449368196398 ], [ 7.824316921244239, 45.584482028714561 ], [ 7.821304896517655, 45.585626560090063 ], [ 7.818382589679393, 45.586879818500393 ], [ 7.815558010569372, 45.588238361689093 ], [ 7.812838901162595, 45.589698458479248 ], [ 7.810232714348945, 45.591256099082571 ], [ 7.807746593505325, 45.592907006175047 ], [ 7.805387352916159, 45.594646646707787 ], [ 7.80316145909591, 45.596470244419706 ], [ 7.801075013064823, 45.5983727930169 ], [ 7.799133733626441, 45.60034906998154 ], [ 7.797342941692769, 45.602393650971514 ], [ 7.795707545700018, 45.604500924770313 ], [ 7.794232028154931, 45.606665108745581 ], [ 7.792920433348535, 45.60888026477263 ], [ 7.791776356271032, 45.611140315578986 ], [ 7.790802932758162, 45.613439061463986 ], [ 7.790002830896114, 45.615770197347139 ], [ 7.789378243708477, 45.618127330097906 ], [ 7.788930883145319, 45.620503996098776 ], [ 7.788661975390847, 45.622893678993172 ], [ 7.788572257502524, 45.625289827569141 ], [ 7.788661975390847, 45.627685873729462 ], [ 7.788930883145319, 45.63007525049904 ], [ 7.789378243708477, 45.632451410019868 ], [ 7.790002830896114, 45.634807841484481 ], [ 7.790802932758162, 45.6371380889588 ], [ 7.791776356271032, 45.639435769045896 ], [ 7.792920433348535, 45.641694588342396 ], [ 7.794232028154931, 45.64390836064031 ], [ 7.795707545700018, 45.646071023827588 ], [ 7.797342941692769, 45.648176656441649 ], [ 7.799133733626441, 45.65021949383128 ], [ 7.801075013064823, 45.652193943883248 ], [ 7.80316145909591, 45.654094602271471 ], [ 7.805387352916157, 45.655916267187656 ], [ 7.807746593505325, 45.657653953513993 ], [ 7.810232714348945, 45.659302906400114 ], [ 7.812838901162595, 45.660858614207825 ], [ 7.815558010569372, 45.662316820789208 ], [ 7.818382589679393, 45.663673537065506 ], [ 7.821304896517655, 45.664925051875834 ], [ 7.824316921244239, 45.666067942066974 ], [ 7.827410408108733, 45.667099081797552 ], [ 7.830576878078669, 45.668015651031908 ], [ 7.833807652079953, 45.668815143201172 ], [ 7.837093874785622, 45.669495372011305 ], [ 7.840426538887659, 45.670054477380184 ], [ 7.843796509785412, 45.670490930487986 ], [ 7.847194550622892, 45.67080353792764 ], [ 7.850611347606361, 45.670991444944221 ], [ 7.854037535532786, 45.671054137755071 ], [ 7.857463723459209, 45.670991444944221 ], [ 7.860880520442678, 45.67080353792764 ], [ 7.86427856128016, 45.670490930487986 ], [ 7.867648532177912, 45.670054477380184 ], [ 7.870981196279947, 45.669495372011305 ], [ 7.874267418985617, 45.668815143201172 ], [ 7.877498192986903, 45.668015651031908 ], [ 7.880664662956838, 45.667099081797552 ], [ 7.883758149821332, 45.666067942066974 ], [ 7.886770174547916, 45.664925051875834 ], [ 7.889692481386177, 45.663673537065506 ], [ 7.892517060496199, 45.662316820789208 ], [ 7.895236169902976, 45.660858614207825 ], [ 7.897842356716625, 45.659302906400114 ], [ 7.900328477560245, 45.657653953513993 ], [ 7.902687718149413, 45.655916267187656 ], [ 7.90491361196966, 45.654094602271471 ], [ 7.907000058000747, 45.652193943883248 ], [ 7.908941337439129, 45.65021949383128 ], [ 7.910732129372803, 45.648176656441649 ], [ 7.912367525365553, 45.646071023827588 ], [ 7.91384304291064, 45.64390836064031 ], [ 7.915154637717034, 45.641694588342396 ], [ 7.916298714794539, 45.639435769045896 ], [ 7.917272138307411, 45.6371380889588 ], [ 7.918072240169457, 45.634807841484481 ], [ 7.918696827357093, 45.632451410019868 ], [ 7.919144187920252, 45.63007525049904 ], [ 7.919413095674725, 45.627685873729462 ], [ 7.919502813563047, 45.625289827569141 ] ] ] } },
{ "type": "Feature", "properties": { "name": "Lillianes", "feature_type": "mrr", "metric_roundness": 23.14, "metric_rectangularity": 55.62, "metric_mobile_fit": 70.7, "metric_aspect_ratio": 0.855, "metric_area_km2": 38.59 }, "geometry": { "type": "Polygon", "coordinates": [ [ [ 7.879963411130436, 45.581292569126248 ], [ 7.798985739457239, 45.653204276846061 ], [ 7.832595790515047, 45.671705289710751 ], [ 7.913573462188244, 45.599817327300968 ], [ 7.879963411130436, 45.581292569126248 ] ] ] } }
]
}
