{
"type": "FeatureCollection",
"name": "lippersdorf_erdmannsdorf",
"crs": { "type": "name", "properties": { "name": "urn:ogc:def:crs:OGC:1.3:CRS84" } },
"features": [
{ "type": "Feature", "properties": { "name": "Lippersdorf-Erdmannsdorf", "feature_type": "entity", "metric_roundness": 46.24, "metric_rectangularity": 57.62, "metric_mobile_fit": 59.52, "metric_aspect_ratio": 0.967, "metric_area_km2": 25.73 }, "geometry": { "type": "Polygon", "coordinates": [ [ [ 11.783035, 50.841334499999974 ], [ 11.778811, 50.840572 ], [ 11.7747105, 50.840314 ], [ 11.770823, 50.8397295 ], [ 11.7659175, 50.8396395 ], [ 11.760049, 50.82445 ], [ 11.7675865, 50.8221275 ], [ 11.7729665, 50.823535 ], [ 11.777487, 50.8220815 ], [ 11.792952, 50.820626 ], [ 11.8042977, 50.8157583 ], [ 11.814931, 50.81738 ], [ 11.818274, 50.837793499999982 ], [ 11.8148833, 50.84035429999998 ], [ 11.8217055, 50.844363 ], [ 11.8175647, 50.8492553 ], [ 11.8183, 50.8540163 ], [ 11.814661, 50.856013499999989 ], [ 11.8046611, 50.849707299999984 ], [ 11.8062581, 50.843877199999987 ], [ 11.786406, 50.841511 ], [ 11.783035, 50.841334499999974 ] ] ] } },
{ "type": "Feature", "properties": { "name": "Lippersdorf-Erdmannsdorf", "feature_type": "circle", "metric_roundness": 46.24, "metric_rectangularity": 57.62, "metric_mobile_fit": 59.52, "metric_aspect_ratio": 0.967, "metric_area_km2": 25.73 }, "geometry": { "type": "Polygon", "coordinates": [ [ [ 11.83037835301824, 50.836638785218639 ], [ 11.830326532645071, 50.835389001205343 ], [ 11.830171213561593, 50.834142609431836 ], [ 11.829912821486626, 50.832903026581967 ], [ 11.829552064654886, 50.831673650945767 ], [ 11.829089931875767, 50.830457853097492 ], [ 11.828527689823101, 50.829258966646861 ], [ 11.827866879563269, 50.828080279088766 ], [ 11.827109312331261, 50.826925022776827 ], [ 11.826257064566208, 50.825796366045594 ], [ 11.825312472219988, 50.824697404506075 ], [ 11.824278124354567, 50.823631152538475 ], [ 11.823156856045546, 50.822600535005819 ], [ 11.821951740611423, 50.821608379211561 ], [ 11.82066608118984, 50.820657407123164 ], [ 11.819303401683898, 50.819750227883659 ], [ 11.817867437103411, 50.818889330631698 ], [ 11.816362123327478, 50.818077077650223 ], [ 11.814791586316527, 50.817315697862924 ], [ 11.813160130803338, 50.816607280696466 ], [ 11.811472228494072, 50.815953770325685 ], [ 11.809732505811633, 50.815356960317885 ], [ 11.807945731214971, 50.814818488691138 ], [ 11.806116802129052, 50.814339833400446 ], [ 11.804250731521378, 50.813922308264409 ], [ 11.802352634161773, 50.813567059343754 ], [ 11.800427712603165, 50.81327506178198 ], [ 11.798481242921749, 50.813047117116838 ], [ 11.796518560255619, 50.812883851070346 ], [ 11.794545044181543, 50.812785711823359 ], [ 11.792566103969904, 50.812752968779719 ], [ 11.790587163758262, 50.812785711823359 ], [ 11.788613647684189, 50.812883851070346 ], [ 11.786650965018058, 50.813047117116838 ], [ 11.784704495336642, 50.81327506178198 ], [ 11.782779573778033, 50.813567059343754 ], [ 11.780881476418429, 50.813922308264409 ], [ 11.779015405810753, 50.814339833400446 ], [ 11.777186476724836, 50.814818488691138 ], [ 11.775399702128173, 50.815356960317885 ], [ 11.773659979445736, 50.815953770325685 ], [ 11.77197207713647, 50.816607280696466 ], [ 11.77034062162328, 50.817315697862924 ], [ 11.76877008461233, 50.818077077650223 ], [ 11.767264770836395, 50.818889330631698 ], [ 11.765828806255907, 50.819750227883659 ], [ 11.764466126749968, 50.820657407123164 ], [ 11.763180467328382, 50.821608379211561 ], [ 11.761975351894261, 50.822600535005819 ], [ 11.76085408358524, 50.823631152538475 ], [ 11.759819735719818, 50.824697404506075 ], [ 11.758875143373599, 50.825796366045594 ], [ 11.758022895608544, 50.826925022776827 ], [ 11.757265328376539, 50.828080279088766 ], [ 11.756604518116706, 50.829258966646861 ], [ 11.75604227606404, 50.830457853097492 ], [ 11.75558014328492, 50.831673650945767 ], [ 11.755219386453181, 50.832903026581967 ], [ 11.754960994378212, 50.834142609431836 ], [ 11.754805675294739, 50.835389001205343 ], [ 11.754753854921566, 50.836638785218639 ], [ 11.754805675294739, 50.837888535763447 ], [ 11.754960994378212, 50.839134827498171 ], [ 11.755219386453181, 50.840374244835004 ], [ 11.75558014328492, 50.841603391297312 ], [ 11.75604227606404, 50.842818898821733 ], [ 11.756604518116706, 50.844017436979371 ], [ 11.757265328376539, 50.845195722091326 ], [ 11.758022895608544, 50.84635052621325 ], [ 11.758875143373599, 50.84747868596488 ], [ 11.759819735719818, 50.848577111180219 ], [ 11.76085408358524, 50.84964279335518 ], [ 11.761975351894261, 50.850672813869458 ], [ 11.763180467328382, 50.851664351960679 ], [ 11.764466126749968, 50.852614692429057 ], [ 11.765828806255907, 50.85352123305173 ], [ 11.767264770836395, 50.85438149168688 ], [ 11.76877008461233, 50.855193113048344 ], [ 11.77034062162328, 50.85595387513262 ], [ 11.77197207713647, 50.856661695280728 ], [ 11.773659979445736, 50.857314635858884 ], [ 11.775399702128173, 50.857910909542547 ], [ 11.777186476724836, 50.858448884189727 ], [ 11.779015405810753, 50.858927087290439 ], [ 11.780881476418429, 50.859344209980357 ], [ 11.782779573778033, 50.859699110608048 ], [ 11.784704495336642, 50.85999081784599 ], [ 11.786650965018058, 50.860218533337253 ], [ 11.788613647684189, 50.860381633870738 ], [ 11.790587163758262, 50.860479673078949 ], [ 11.792566103969904, 50.860512382654093 ], [ 11.794545044181543, 50.860479673078949 ], [ 11.796518560255619, 50.860381633870738 ], [ 11.798481242921749, 50.860218533337253 ], [ 11.800427712603165, 50.85999081784599 ], [ 11.802352634161773, 50.859699110608048 ], [ 11.804250731521378, 50.859344209980357 ], [ 11.806116802129052, 50.858927087290439 ], [ 11.807945731214971, 50.858448884189727 ], [ 11.809732505811633, 50.857910909542547 ], [ 11.811472228494072, 50.857314635858884 ], [ 11.813160130803338, 50.856661695280728 ], [ 11.814791586316527, 50.85595387513262 ], [ 11.816362123327478, 50.855193113048344 ], [ 11.817867437103411, 50.85438149168688 ], [ 11.819303401683898, 50.85352123305173 ], [ 11.82066608118984, 50.852614692429057 ], [ 11.821951740611423, 50.851664351960679 ], [ 11.823156856045546, 50.850672813869458 ], [ 11.824278124354567, 50.84964279335518 ], [ 11.825312472219988, 50.848577111180219 ], [ 11.826257064566208, 50.84747868596488 ], [ 11.827109312331261, 50.84635052621325 ], [ 11.827866879563269, 50.845195722091326 ], [ 11.828527689823101, 50.844017436979371 ], [ 11.829089931875767, 50.842818898821733 ], [ 11.829552064654886, 50.841603391297312 ], [ 11.829912821486626, 50.840374244835004 ], [ 11.830171213561593, 50.839134827498171 ], [ 11.830326532645071, 50.837888535763447 ], [ 11.83037835301824, 50.836638785218639 ] ] ] } },
{ "type": "Feature", "properties": { "name": "Lippersdorf-Erdmannsdorf", "feature_type": "mrr", "metric_roundness": 46.24, "metric_rectangularity": 57.62, "metric_mobile_fit": 59.52, "metric_aspect_ratio": 0.967, "metric_area_km2": 25.73 }, "geometry": { "type": "Polygon", "coordinates": [ [ [ 11.75936719062182, 50.822684942077956 ], [ 11.774629456293326, 50.862179629469821 ], [ 11.829004548844452, 50.853803940366582 ], [ 11.813742283172946, 50.814302160713218 ], [ 11.75936719062182, 50.822684942077956 ] ] ] } }
]
}
