{
"type": "FeatureCollection",
"name": "litencice",
"crs": { "type": "name", "properties": { "name": "urn:ogc:def:crs:OGC:1.3:CRS84" } },
"features": [
{ "type": "Feature", "properties": { "name": "Litenčice", "feature_type": "entity", "metric_roundness": 42.36, "metric_rectangularity": 64.04, "metric_mobile_fit": 48.64, "metric_aspect_ratio": 1.076, "metric_area_km2": 24.09 }, "geometry": { "type": "Polygon", "coordinates": [ [ [ 17.2410173, 49.186222099999981 ], [ 17.2473235, 49.188132 ], [ 17.236496, 49.19306 ], [ 17.2233813, 49.199368199999981 ], [ 17.208349, 49.215019 ], [ 17.185166, 49.212334 ], [ 17.1833509, 49.200185799999986 ], [ 17.1797345, 49.196837 ], [ 17.1983547, 49.1932572 ], [ 17.2019577, 49.18522080000001 ], [ 17.212393, 49.184420499999987 ], [ 17.2188328, 49.183553 ], [ 17.2173637, 49.178203099999983 ], [ 17.2214052, 49.173972599999985 ], [ 17.2252767, 49.1794404 ], [ 17.2342975, 49.1761007 ], [ 17.2427765, 49.179485 ], [ 17.2410173, 49.186222099999981 ] ] ] } },
{ "type": "Feature", "properties": { "name": "Litenčice", "feature_type": "circle", "metric_roundness": 42.36, "metric_rectangularity": 64.04, "metric_mobile_fit": 48.64, "metric_aspect_ratio": 1.076, "metric_area_km2": 24.09 }, "geometry": { "type": "Polygon", "coordinates": [ [ [ 17.252200371056148, 49.195912226900219 ], [ 17.252147979374374, 49.19460476532344 ], [ 17.25199094793102, 49.19330085299066 ], [ 17.251729707138356, 49.192004064259059 ], [ 17.25136497303923, 49.19071795423821 ], [ 17.250897745344464, 49.189446049038125 ], [ 17.250329304692684, 49.188191836093758 ], [ 17.249661209140211, 49.186958754592766 ], [ 17.248895289890513, 49.185750186032642 ], [ 17.248033646275015, 49.184569444933715 ], [ 17.247078639998975, 49.183419769733106 ], [ 17.246032888668214, 49.182304313885432 ], [ 17.244899258614439, 49.181226137194407 ], [ 17.243680857038832, 49.180188197399723 ], [ 17.242381023495422, 49.179193342042247 ], [ 17.241003320737601, 49.178244300630496 ], [ 17.239551524952866, 49.177343677129848 ], [ 17.238029615412543, 49.176493942795567 ], [ 17.236441763564905, 49.175697429369606 ], [ 17.234792321601493, 49.174956322660094 ], [ 17.23308581052807, 49.174272656521474 ], [ 17.231326907772878, 49.173648307252101 ], [ 17.229520434366112, 49.173084988424982 ], [ 17.227671341725806, 49.172584246165989 ], [ 17.225784698086361, 49.172147454893043 ], [ 17.223865674606859, 49.171775813527816 ], [ 17.221919531197258, 49.171470342190922 ], [ 17.219951602101375, 49.171231879389602 ], [ 17.217967281276067, 49.171061079705993 ], [ 17.215972007606798, 49.170958411992245 ], [ 17.21397125, 49.17092415807781 ], [ 17.211970492393196, 49.170958411992245 ], [ 17.209975218723926, 49.171061079705993 ], [ 17.207990897898618, 49.171231879389602 ], [ 17.206022968802735, 49.171470342190922 ], [ 17.204076825393134, 49.171775813527816 ], [ 17.202157801913632, 49.172147454893043 ], [ 17.200271158274187, 49.172584246165989 ], [ 17.198422065633878, 49.173084988424982 ], [ 17.196615592227115, 49.173648307252101 ], [ 17.194856689471923, 49.174272656521474 ], [ 17.193150178398501, 49.174956322660094 ], [ 17.191500736435088, 49.175697429369606 ], [ 17.18991288458745, 49.176493942795567 ], [ 17.188390975047128, 49.177343677129848 ], [ 17.186939179262389, 49.178244300630496 ], [ 17.185561476504571, 49.179193342042247 ], [ 17.184261642961161, 49.180188197399723 ], [ 17.183043241385555, 49.181226137194407 ], [ 17.181909611331779, 49.182304313885432 ], [ 17.180863860001018, 49.183419769733106 ], [ 17.179908853724978, 49.184569444933715 ], [ 17.179047210109481, 49.185750186032642 ], [ 17.178281290859783, 49.186958754592766 ], [ 17.177613195307309, 49.188191836093758 ], [ 17.17704475465553, 49.189446049038125 ], [ 17.176577526960763, 49.19071795423821 ], [ 17.176212792861637, 49.192004064259059 ], [ 17.175951552068973, 49.19330085299066 ], [ 17.175794520625619, 49.19460476532344 ], [ 17.175742128943845, 49.195912226900219 ], [ 17.175794520625619, 49.19721965391799 ], [ 17.175951552068973, 49.198523462952366 ], [ 17.176212792861637, 49.199820080777926 ], [ 17.176577526960763, 49.201105954157583 ], [ 17.17704475465553, 49.202377559574032 ], [ 17.177613195307309, 49.203631412876788 ], [ 17.178281290859783, 49.204864078818524 ], [ 17.179047210109481, 49.206072180454676 ], [ 17.179908853724978, 49.207252408380647 ], [ 17.180863860001018, 49.208401529781753 ], [ 17.181909611331779, 49.209516397270924 ], [ 17.183043241385555, 49.210593957490595 ], [ 17.184261642961161, 49.211631259455309 ], [ 17.185561476504571, 49.212625462612358 ], [ 17.186939179262389, 49.213573844598884 ], [ 17.188390975047128, 49.21447380867432 ], [ 17.18991288458745, 49.215322890808181 ], [ 17.191500736435088, 49.216118766404179 ], [ 17.193150178398501, 49.216859256642365 ], [ 17.194856689471923, 49.217542334422504 ], [ 17.196615592227115, 49.21816612989241 ], [ 17.198422065633878, 49.218728935546622 ], [ 17.200271158274187, 49.219229210881679 ], [ 17.202157801913632, 49.219665586595404 ], [ 17.204076825393134, 49.220036868319056 ], [ 17.206022968802735, 49.220342039872335 ], [ 17.207990897898618, 49.220580266032499 ], [ 17.209975218723926, 49.220750894810088 ], [ 17.211970492393196, 49.220853459225452 ], [ 17.21397125, 49.22088767858088 ], [ 17.215972007606798, 49.220853459225452 ], [ 17.217967281276067, 49.220750894810088 ], [ 17.219951602101375, 49.220580266032499 ], [ 17.221919531197258, 49.220342039872335 ], [ 17.223865674606856, 49.220036868319056 ], [ 17.225784698086361, 49.219665586595404 ], [ 17.227671341725806, 49.219229210881679 ], [ 17.229520434366112, 49.218728935546622 ], [ 17.231326907772878, 49.21816612989241 ], [ 17.23308581052807, 49.217542334422504 ], [ 17.234792321601493, 49.216859256642365 ], [ 17.236441763564905, 49.216118766404179 ], [ 17.238029615412543, 49.215322890808181 ], [ 17.239551524952866, 49.21447380867432 ], [ 17.241003320737601, 49.213573844598884 ], [ 17.242381023495422, 49.212625462612358 ], [ 17.243680857038832, 49.211631259455309 ], [ 17.244899258614439, 49.210593957490595 ], [ 17.246032888668214, 49.209516397270924 ], [ 17.247078639998975, 49.208401529781753 ], [ 17.248033646275015, 49.207252408380647 ], [ 17.248895289890513, 49.206072180454676 ], [ 17.249661209140211, 49.204864078818524 ], [ 17.250329304692684, 49.203631412876788 ], [ 17.250897745344464, 49.202377559574032 ], [ 17.25136497303923, 49.201105954157583 ], [ 17.251729707138356, 49.199820080777926 ], [ 17.25199094793102, 49.198523462952366 ], [ 17.252147979374374, 49.19721965391799 ], [ 17.252200371056148, 49.195912226900219 ] ] ] } },
{ "type": "Feature", "properties": { "name": "Litenčice", "feature_type": "mrr", "metric_roundness": 42.36, "metric_rectangularity": 64.04, "metric_mobile_fit": 48.64, "metric_aspect_ratio": 1.076, "metric_area_km2": 24.09 }, "geometry": { "type": "Polygon", "coordinates": [ [ [ 17.229789358730116, 49.169370996427354 ], [ 17.171240459252324, 49.20149631817457 ], [ 17.196773773399197, 49.221366028571801 ], [ 17.255322672876989, 49.189253613056884 ], [ 17.229789358730116, 49.169370996427354 ] ] ] } }
]
}
