{
"type": "FeatureCollection",
"name": "lizzanello",
"crs": { "type": "name", "properties": { "name": "urn:ogc:def:crs:OGC:1.3:CRS84" } },
"features": [
{ "type": "Feature", "properties": { "name": "Lizzanello", "feature_type": "entity", "metric_roundness": 40.64, "metric_rectangularity": 57.57, "metric_mobile_fit": 96.94, "metric_aspect_ratio": 0.593, "metric_area_km2": 42.48 }, "geometry": { "type": "Polygon", "coordinates": [ [ [ 18.2429415, 40.28268 ], [ 18.23945, 40.286874 ], [ 18.2374325, 40.2887245 ], [ 18.235477, 40.290163499999984 ], [ 18.2400665, 40.293882 ], [ 18.2430935, 40.29596 ], [ 18.2472535, 40.298292499999981 ], [ 18.254063, 40.3017215 ], [ 18.2568842, 40.303683599999985 ], [ 18.2571863, 40.314326 ], [ 18.2621047, 40.320833 ], [ 18.255306, 40.329656 ], [ 18.2632316, 40.3511551 ], [ 18.2353551, 40.353183499999986 ], [ 18.2288006, 40.3461712 ], [ 18.2178276, 40.3412335 ], [ 18.2159752, 40.330202899999982 ], [ 18.2033485, 40.3257255 ], [ 18.213056, 40.308028 ], [ 18.212073, 40.302942099999989 ], [ 18.2174828, 40.2995649 ], [ 18.2153715, 40.2953552 ], [ 18.2297822, 40.2904416 ], [ 18.2281847, 40.2804779 ], [ 18.230802, 40.2761905 ], [ 18.2429415, 40.28268 ] ] ] } },
{ "type": "Feature", "properties": { "name": "Lizzanello", "feature_type": "circle", "metric_roundness": 40.64, "metric_rectangularity": 57.57, "metric_mobile_fit": 96.94, "metric_aspect_ratio": 0.593, "metric_area_km2": 42.48 }, "geometry": { "type": "Polygon", "coordinates": [ [ [ 18.296377111464931, 40.314303537457228 ], [ 18.29630608488322, 40.312235285494623 ], [ 18.296093199817001, 40.310172639381989 ], [ 18.295739039769458, 40.308121253467426 ], [ 18.295244575468651, 40.306086751744637 ], [ 18.294611162206863, 40.304074712423784 ], [ 18.293840536125813, 40.302090652622489 ], [ 18.292934809458032, 40.300140013219071 ], [ 18.291896464737352, 40.298228143909775 ], [ 18.290728347994481, 40.296360288511337 ], [ 18.289433660956224, 40.294541570549534 ], [ 18.288015952269745, 40.292776979173603 ], [ 18.286479107776017, 40.291071355435683 ], [ 18.284827339858975, 40.289429378973239 ], [ 18.283065175899665, 40.287855555131685 ], [ 18.281197445867019, 40.286354202562933 ], [ 18.279229269079217, 40.284929441334477 ], [ 18.277166040172041, 40.28358518158219 ], [ 18.275013414312507, 40.282325112738519 ], [ 18.272777291698471, 40.281152693366217 ], [ 18.270463801386587, 40.280071141626117 ], [ 18.268079284492991, 40.279083426405471 ], [ 18.26563027681274, 40.27819225913197 ], [ 18.263123490905659, 40.277400086296183 ], [ 18.260565797697677, 40.27670908270369 ], [ 18.25796420764809, 40.2761211454755 ], [ 18.255325851534391, 40.275637888813897 ], [ 18.2526579609073, 40.275260639548456 ], [ 18.249967848269581, 40.274990433474521 ], [ 18.247262887032985, 40.274828012494652 ], [ 18.244550491308246, 40.274773822571042 ], [ 18.241838095583503, 40.274828012494652 ], [ 18.239133134346911, 40.274990433474521 ], [ 18.236443021709192, 40.275260639548456 ], [ 18.233775131082098, 40.275637888813897 ], [ 18.231136774968398, 40.2761211454755 ], [ 18.228535184918812, 40.27670908270369 ], [ 18.225977491710829, 40.277400086296183 ], [ 18.223470705803749, 40.27819225913197 ], [ 18.221021698123497, 40.279083426405471 ], [ 18.218637181229902, 40.280071141626117 ], [ 18.216323690918017, 40.281152693366217 ], [ 18.214087568303981, 40.282325112738519 ], [ 18.211934942444444, 40.28358518158219 ], [ 18.209871713537272, 40.284929441334477 ], [ 18.20790353674947, 40.286354202562933 ], [ 18.20603580671682, 40.287855555131685 ], [ 18.20427364275751, 40.289429378973239 ], [ 18.202621874840467, 40.291071355435683 ], [ 18.201085030346743, 40.292776979173603 ], [ 18.199667321660264, 40.294541570549534 ], [ 18.198372634622004, 40.296360288511337 ], [ 18.197204517879133, 40.298228143909775 ], [ 18.196166173158453, 40.300140013219071 ], [ 18.195260446490671, 40.302090652622489 ], [ 18.194489820409629, 40.304074712423784 ], [ 18.193856407147841, 40.306086751744637 ], [ 18.19336194284703, 40.308121253467426 ], [ 18.193007782799484, 40.310172639381989 ], [ 18.192794897733272, 40.312235285494623 ], [ 18.192723871151557, 40.314303537457228 ], [ 18.192794897733272, 40.316371726073974 ], [ 18.193007782799484, 40.318434182843085 ], [ 18.19336194284703, 40.320485255490944 ], [ 18.193856407147841, 40.322519323456063 ], [ 18.194489820409629, 40.324530813280631 ], [ 18.195260446490671, 40.326514213867412 ], [ 18.196166173158453, 40.328464091560583 ], [ 18.197204517879133, 40.330375105009367 ], [ 18.198372634622004, 40.332242019774021 ], [ 18.199667321660264, 40.334059722634542 ], [ 18.201085030346743, 40.335823235563353 ], [ 18.202621874840467, 40.337527729324023 ], [ 18.20427364275751, 40.339168536659358 ], [ 18.20603580671682, 40.34074116503313 ], [ 18.20790353674947, 40.342241308891239 ], [ 18.209871713537272, 40.343664861409067 ], [ 18.211934942444444, 40.345007925693658 ], [ 18.214087568303981, 40.346266825410318 ], [ 18.216323690918017, 40.347438114805506 ], [ 18.218637181229902, 40.348518588098656 ], [ 18.221021698123497, 40.349505288218197 ], [ 18.223470705803749, 40.350395514858121 ], [ 18.225977491710829, 40.351186831833601 ], [ 18.228535184918812, 40.351877073716039 ], [ 18.231136774968398, 40.352464351729907 ], [ 18.233775131082098, 40.352947058895381 ], [ 18.236443021709192, 40.353323874403294 ], [ 18.239133134346911, 40.353593767210626 ], [ 18.241838095583503, 40.353755998847035 ], [ 18.244550491308246, 40.353810125424815 ], [ 18.247262887032985, 40.353755998847035 ], [ 18.249967848269581, 40.353593767210626 ], [ 18.2526579609073, 40.353323874403294 ], [ 18.255325851534391, 40.352947058895381 ], [ 18.25796420764809, 40.352464351729907 ], [ 18.260565797697677, 40.351877073716039 ], [ 18.263123490905659, 40.351186831833601 ], [ 18.26563027681274, 40.350395514858121 ], [ 18.268079284492991, 40.349505288218197 ], [ 18.270463801386587, 40.348518588098656 ], [ 18.272777291698471, 40.347438114805506 ], [ 18.275013414312507, 40.346266825410318 ], [ 18.277166040172041, 40.345007925693658 ], [ 18.279229269079217, 40.343664861409067 ], [ 18.281197445867019, 40.342241308891239 ], [ 18.283065175899665, 40.34074116503313 ], [ 18.284827339858975, 40.339168536659358 ], [ 18.286479107776017, 40.337527729324023 ], [ 18.288015952269745, 40.335823235563353 ], [ 18.289433660956224, 40.334059722634542 ], [ 18.290728347994481, 40.332242019774021 ], [ 18.291896464737352, 40.330375105009367 ], [ 18.292934809458032, 40.328464091560583 ], [ 18.293840536125813, 40.326514213867412 ], [ 18.294611162206863, 40.324530813280631 ], [ 18.295244575468651, 40.322519323456063 ], [ 18.295739039769458, 40.320485255490944 ], [ 18.296093199817001, 40.318434182843085 ], [ 18.29630608488322, 40.316371726073974 ], [ 18.296377111464931, 40.314303537457228 ] ] ] } },
{ "type": "Feature", "properties": { "name": "Lizzanello", "feature_type": "mrr", "metric_roundness": 40.64, "metric_rectangularity": 57.57, "metric_mobile_fit": 96.94, "metric_aspect_ratio": 0.593, "metric_area_km2": 42.48 }, "geometry": { "type": "Polygon", "coordinates": [ [ [ 18.263284587005124, 40.352580533475411 ], [ 18.260422740451798, 40.275550291857527 ], [ 18.201532009810581, 40.276823108815648 ], [ 18.204393856363907, 40.353851899303784 ], [ 18.263284587005124, 40.352580533475411 ] ] ] } }
]
}
