{
"type": "FeatureCollection",
"name": "tibucani",
"crs": { "type": "name", "properties": { "name": "urn:ogc:def:crs:OGC:1.3:CRS84" } },
"features": [
{ "type": "Feature", "properties": { "name": "Tibucani", "metric_roundness": 37.37, "metric_rectangularity": 48.98, "metric_mobile_fit": 32.34, "metric_aspect_ratio": 1.239, "metric_area_km2": 107.19 }, "geometry": { "type": "Polygon", "coordinates": [ [ [ 26.488599, 47.0715535 ], [ 26.5065886, 47.0736353 ], [ 26.5179315, 47.078955199999989 ], [ 26.536414, 47.101984499999986 ], [ 26.5413131, 47.104625899999988 ], [ 26.5489992, 47.103565499999988 ], [ 26.556834, 47.1063532 ], [ 26.5668048, 47.1042189 ], [ 26.5702365, 47.098575099999984 ], [ 26.5859731, 47.1010905 ], [ 26.6042205, 47.095899 ], [ 26.6167685, 47.0938598 ], [ 26.6297914, 47.086176099999975 ], [ 26.636329, 47.092426 ], [ 26.6157364, 47.1087458 ], [ 26.6157653, 47.124614799999989 ], [ 26.6211401, 47.132168600000014 ], [ 26.610496, 47.13825 ], [ 26.6122125, 47.1432605 ], [ 26.6002969, 47.144111699999989 ], [ 26.5923051, 47.1495516 ], [ 26.5601489, 47.15468259999998 ], [ 26.5558505, 47.1497531 ], [ 26.5561652, 47.13850549999998 ], [ 26.5405037, 47.12773 ], [ 26.5237067, 47.1261381 ], [ 26.5121307, 47.117119 ], [ 26.4896595, 47.116084399999984 ], [ 26.4905566, 47.110312799999988 ], [ 26.4842985, 47.109063 ], [ 26.4807668, 47.0959403 ], [ 26.4832296, 47.086846799999989 ], [ 26.4805095, 47.069098499999981 ], [ 26.488599, 47.0715535 ] ] ] } }
]
}
