{
"type": "FeatureCollection",
"name": "titulcia",
"crs": { "type": "name", "properties": { "name": "urn:ogc:def:crs:OGC:1.3:CRS84" } },
"features": [
{ "type": "Feature", "properties": { "name": "Titulcia", "metric_roundness": 40.98, "metric_rectangularity": 66.28, "metric_mobile_fit": 87.03, "metric_aspect_ratio": 0.692, "metric_area_km2": 17.57 }, "geometry": { "type": "Polygon", "coordinates": [ [ [ -3.553211, 40.1384135 ], [ -3.5395808, 40.1479529 ], [ -3.5451557, 40.1567757 ], [ -3.5453573, 40.1660498 ], [ -3.553211, 40.1704215 ], [ -3.5561485, 40.1712105 ], [ -3.559864, 40.1705545 ], [ -3.5617965, 40.171093 ], [ -3.5668081, 40.1501811 ], [ -3.5743759, 40.1455756 ], [ -3.5751695, 40.1401512 ], [ -3.5823486, 40.134612499999989 ], [ -3.583741, 40.128514 ], [ -3.5796991, 40.1285264 ], [ -3.5744992, 40.122443699999984 ], [ -3.557426, 40.125204 ], [ -3.553211, 40.1384135 ] ] ] } }
]
}
