{
"type": "FeatureCollection",
"name": "yainville",
"crs": { "type": "name", "properties": { "name": "urn:ogc:def:crs:OGC:1.3:CRS84" } },
"features": [
{ "type": "Feature", "properties": { "name": "Yainville", "feature_type": "entity", "metric_roundness": 43.54, "metric_rectangularity": 52.06, "metric_mobile_fit": 46.27, "metric_aspect_ratio": 1.1, "metric_area_km2": 7.62 }, "geometry": { "type": "Polygon", "coordinates": [ [ [ 0.8271397, 49.4598791 ], [ 0.823922, 49.46208309999998 ], [ 0.8231963, 49.467908399999985 ], [ 0.8132375, 49.46669 ], [ 0.817445, 49.457750499999989 ], [ 0.817773, 49.456002 ], [ 0.816691, 49.446492 ], [ 0.8321894, 49.446595299999984 ], [ 0.8329257, 49.451736799999985 ], [ 0.849472, 49.46167149999998 ], [ 0.8443925, 49.465696499999986 ], [ 0.8271397, 49.4598791 ] ] ] } },
{ "type": "Feature", "properties": { "name": "Yainville", "feature_type": "circle", "metric_roundness": 43.54, "metric_rectangularity": 52.06, "metric_mobile_fit": 46.27, "metric_aspect_ratio": 1.1, "metric_area_km2": 7.62 }, "geometry": { "type": "Polygon", "coordinates": [ [ [ 0.850408479642192, 49.457620780016235 ], [ 0.850379419541062, 49.456899418947643 ], [ 0.850292318889388, 49.456180024505549 ], [ 0.850147416424004, 49.455464568630447 ], [ 0.849945109312494, 49.454755012552788 ], [ 0.849685952064588, 49.45405330141508 ], [ 0.849370655012291, 49.453361358937066 ], [ 0.849000082362905, 49.452681082138817 ], [ 0.848575249830305, 49.452014336136152 ], [ 0.848097321850932, 49.451362949022787 ], [ 0.847567608392159, 49.450728706853127 ], [ 0.846987561361755, 49.450113348739741 ], [ 0.846358770628312, 49.449518562078993 ], [ 0.845682959663524, 49.448945977917724 ], [ 0.84496198081827, 49.448397166474308 ], [ 0.844197810245451, 49.447873632825861 ], [ 0.843392542483489, 49.447376812773925 ], [ 0.842548384715347, 49.446908068899972 ], [ 0.841667650718791, 49.446468686821461 ], [ 0.840752754524486, 49.446059871659145 ], [ 0.839806203799307, 49.445682744724955 ], [ 0.838830592972998, 49.445338340440173 ], [ 0.83782859612702, 49.44502760349193 ], [ 0.836802959665079, 49.44475138623627 ], [ 0.835756494785427, 49.444510446354798 ], [ 0.83469206977556, 49.444305444771416 ], [ 0.833612602150443, 49.444136943835147 ], [ 0.832521050655804, 49.444005405773687 ], [ 0.831420407158416, 49.44391119142238 ], [ 0.8303136884456, 49.443854559231909 ], [ 0.829203927956423, 49.443835664557554 ], [ 0.828094167467245, 49.443854559231909 ], [ 0.82698744875443, 49.44391119142238 ], [ 0.825886805257041, 49.444005405773687 ], [ 0.824795253762402, 49.444136943835147 ], [ 0.823715786137285, 49.444305444771416 ], [ 0.822651361127418, 49.444510446354798 ], [ 0.821604896247766, 49.44475138623627 ], [ 0.820579259785825, 49.44502760349193 ], [ 0.819577262939847, 49.445338340440173 ], [ 0.818601652113538, 49.445682744724955 ], [ 0.817655101388359, 49.446059871659145 ], [ 0.816740205194054, 49.446468686821461 ], [ 0.815859471197498, 49.446908068899972 ], [ 0.815015313429356, 49.447376812773925 ], [ 0.814210045667395, 49.447873632825861 ], [ 0.813445875094575, 49.448397166474308 ], [ 0.812724896249321, 49.448945977917724 ], [ 0.812049085284533, 49.449518562078993 ], [ 0.81142029455109, 49.450113348739741 ], [ 0.810840247520686, 49.450728706853127 ], [ 0.810310534061913, 49.451362949022787 ], [ 0.80983260608254, 49.452014336136152 ], [ 0.80940777354994, 49.452681082138817 ], [ 0.809037200900554, 49.453361358937066 ], [ 0.808721903848257, 49.45405330141508 ], [ 0.808462746600351, 49.454755012552788 ], [ 0.808260439488842, 49.455464568630447 ], [ 0.808115537023457, 49.456180024505549 ], [ 0.808028436371784, 49.456899418947643 ], [ 0.807999376270653, 49.457620780016235 ], [ 0.808028436371784, 49.458342130467202 ], [ 0.808115537023457, 49.459061493172769 ], [ 0.808260439488842, 49.459776896540163 ], [ 0.808462746600351, 49.460486379914187 ], [ 0.808721903848257, 49.461187998948915 ], [ 0.809037200900554, 49.46187983093369 ], [ 0.80940777354994, 49.462559980059041 ], [ 0.80983260608254, 49.463226582607952 ], [ 0.810310534061913, 49.463877812058413 ], [ 0.810840247520686, 49.464511884083421 ], [ 0.81142029455109, 49.465127061434529 ], [ 0.812049085284533, 49.465721658695863 ], [ 0.812724896249321, 49.466294046895641 ], [ 0.813445875094575, 49.466842657962538 ], [ 0.814210045667395, 49.46736598901478 ], [ 0.815015313429356, 49.467862606470504 ], [ 0.815859471197498, 49.468331149967931 ], [ 0.816740205194054, 49.468770336084965 ], [ 0.817655101388359, 49.469178961847874 ], [ 0.818601652113538, 49.469555908019778 ], [ 0.819577262939847, 49.469900142159908 ], [ 0.820579259785825, 49.470210721445255 ], [ 0.821604896247766, 49.470486795247155 ], [ 0.822651361127418, 49.470727607455743 ], [ 0.823715786137285, 49.470932498545885 ], [ 0.824795253762402, 49.471100907379174 ], [ 0.825886805257041, 49.471232372737013 ], [ 0.82698744875443, 49.471326534580605 ], [ 0.828094167467245, 49.471383135034543 ], [ 0.829203927956423, 49.471402019091293 ], [ 0.8303136884456, 49.471383135034543 ], [ 0.831420407158416, 49.471326534580605 ], [ 0.832521050655804, 49.471232372737013 ], [ 0.833612602150443, 49.471100907379174 ], [ 0.83469206977556, 49.470932498545885 ], [ 0.835756494785427, 49.470727607455743 ], [ 0.836802959665079, 49.470486795247155 ], [ 0.83782859612702, 49.470210721445255 ], [ 0.838830592972998, 49.469900142159908 ], [ 0.839806203799307, 49.469555908019778 ], [ 0.840752754524486, 49.469178961847874 ], [ 0.841667650718791, 49.468770336084965 ], [ 0.842548384715347, 49.468331149967931 ], [ 0.843392542483489, 49.467862606470504 ], [ 0.844197810245451, 49.46736598901478 ], [ 0.84496198081827, 49.466842657962538 ], [ 0.845682959663524, 49.466294046895641 ], [ 0.846358770628312, 49.465721658695863 ], [ 0.846987561361755, 49.465127061434529 ], [ 0.847567608392159, 49.464511884083421 ], [ 0.848097321850932, 49.463877812058413 ], [ 0.848575249830305, 49.463226582607952 ], [ 0.849000082362905, 49.462559980059041 ], [ 0.849370655012291, 49.46187983093369 ], [ 0.849685952064588, 49.461187998948915 ], [ 0.849945109312494, 49.460486379914187 ], [ 0.850147416424004, 49.459776896540163 ], [ 0.850292318889388, 49.459061493172769 ], [ 0.850379419541062, 49.458342130467202 ], [ 0.850408479642192, 49.457620780016235 ] ] ] } },
{ "type": "Feature", "properties": { "name": "Yainville", "feature_type": "mrr", "metric_roundness": 43.54, "metric_rectangularity": 52.06, "metric_mobile_fit": 46.27, "metric_aspect_ratio": 1.1, "metric_area_km2": 7.62 }, "geometry": { "type": "Polygon", "coordinates": [ [ [ 0.816862667825001, 49.445487776605781 ], [ 0.813153189498028, 49.467182994153085 ], [ 0.848097822466582, 49.46970697028739 ], [ 0.851807300793555, 49.448012870277154 ], [ 0.816862667825001, 49.445487776605781 ] ] ] } }
]
}
