{
"type": "FeatureCollection",
"name": "illa_de_arousa_a",
"crs": { "type": "name", "properties": { "name": "urn:ogc:def:crs:OGC:1.3:CRS84" } },
"features": [
{ "type": "Feature", "properties": { "name": "Illa de Arousa, A", "feature_type": "entity", "metric_roundness": 27.53, "metric_rectangularity": 46.33, "metric_mobile_fit": 96.31, "metric_aspect_ratio": 0.526, "metric_area_km2": 12.02 }, "geometry": { "type": "Polygon", "coordinates": [ [ [ -8.8809817, 42.57302 ], [ -8.889559, 42.5670884 ], [ -8.8815689, 42.5592285 ], [ -8.8743814, 42.5615278 ], [ -8.8715185, 42.5597174 ], [ -8.8783656, 42.5420333 ], [ -8.87502, 42.5358758 ], [ -8.8810222, 42.531297 ], [ -8.8689387, 42.5247366 ], [ -8.866618, 42.526757499999988 ], [ -8.865538, 42.541538399999986 ], [ -8.8544783, 42.5465768 ], [ -8.860618, 42.5528332 ], [ -8.8573542, 42.565619099999985 ], [ -8.8702144, 42.565452599999986 ], [ -8.8747212, 42.5739021 ], [ -8.8809817, 42.57302 ] ] ] } },
{ "type": "Feature", "properties": { "name": "Illa de Arousa, A", "feature_type": "circle", "metric_roundness": 27.53, "metric_rectangularity": 46.33, "metric_mobile_fit": 96.31, "metric_aspect_ratio": 0.526, "metric_area_km2": 12.02 }, "geometry": { "type": "Polygon", "coordinates": [ [ [ -8.838335983743422, 42.549324190734694 ], [ -8.838381886060109, 42.548032795340404 ], [ -8.838519467195107, 42.546744912963838 ], [ -8.838748350048091, 42.545464073929217 ], [ -8.839067907267069, 42.5441937894701 ], [ -8.839477262967916, 42.542937542099452 ], [ -8.839975295135112, 42.54169877605608 ], [ -8.840560638697102, 42.540480887853704 ], [ -8.84123168926787, 42.539287216958954 ], [ -8.841986607544444, 42.538121036623536 ], [ -8.842823324348304, 42.536985544896346 ], [ -8.843739546296851, 42.53588385583992 ], [ -8.844732762089407, 42.534818990975715 ], [ -8.845800249390525, 42.533793870981974 ], [ -8.84693908229171, 42.532811307666726 ], [ -8.84814613933114, 42.531873996238808 ], [ -8.849418112049371, 42.530984507897656 ], [ -8.850751514057599, 42.530145282762959 ], [ -8.852142690593602, 42.529358623163482 ], [ -8.853587828539192, 42.528626687303898 ], [ -8.855082966871711, 42.527951483327051 ], [ -8.856624007520917, 42.52733486378839 ], [ -8.858206726601505, 42.526778520557713 ], [ -8.85982678599049, 42.526283980162688 ], [ -8.861479745217695, 42.52585259958677 ], [ -8.863161073636777, 42.525485562533703 ], [ -8.864866162843402, 42.525183876168533 ], [ -8.866590339306576, 42.524948368344525 ], [ -8.868328877178461, 42.524779685323672 ], [ -8.870077011247592, 42.52467828999707 ], [ -8.87182995, 42.524644460610304 ], [ -8.873582888752406, 42.52467828999707 ], [ -8.875331022821538, 42.524779685323672 ], [ -8.877069560693421, 42.524948368344525 ], [ -8.878793737156597, 42.525183876168533 ], [ -8.880498826363223, 42.525485562533703 ], [ -8.882180154782302, 42.52585259958677 ], [ -8.883833114009509, 42.526283980162688 ], [ -8.885453173398492, 42.526778520557713 ], [ -8.88703589247908, 42.52733486378839 ], [ -8.888576933128286, 42.527951483327051 ], [ -8.890072071460807, 42.528626687303898 ], [ -8.891517209406395, 42.529358623163482 ], [ -8.892908385942398, 42.530145282762959 ], [ -8.894241787950627, 42.530984507897656 ], [ -8.895513760668859, 42.531873996238808 ], [ -8.896720817708289, 42.532811307666726 ], [ -8.897859650609474, 42.533793870981974 ], [ -8.89892713791059, 42.534818990975715 ], [ -8.899920353703147, 42.53588385583992 ], [ -8.900836575651693, 42.536985544896346 ], [ -8.901673292455554, 42.538121036623536 ], [ -8.902428210732129, 42.539287216958954 ], [ -8.903099261302895, 42.540480887853704 ], [ -8.903684604864887, 42.54169877605608 ], [ -8.904182637032083, 42.542937542099452 ], [ -8.904591992732929, 42.5441937894701 ], [ -8.904911549951906, 42.545464073929217 ], [ -8.90514043280489, 42.546744912963838 ], [ -8.905278013939888, 42.548032795340404 ], [ -8.905323916256576, 42.549324190734694 ], [ -8.905278013939888, 42.550615559411845 ], [ -8.90514043280489, 42.551903361929732 ], [ -8.904911549951906, 42.553184068839087 ], [ -8.904591992732929, 42.554454170353914 ], [ -8.904182637032083, 42.555710185965637 ], [ -8.903684604864887, 42.556948673974667 ], [ -8.903099261302895, 42.558166240913458 ], [ -8.902428210732129, 42.559359550835246 ], [ -8.901673292455554, 42.560525334443199 ], [ -8.900836575651693, 42.561660398035038 ], [ -8.899920353703147, 42.562761632239003 ], [ -8.89892713791059, 42.563826020517055 ], [ -8.897859650609474, 42.564850647412577 ], [ -8.896720817708289, 42.565832706519977 ], [ -8.895513760668859, 42.566769508154657 ], [ -8.894241787950627, 42.567658486702584 ], [ -8.892908385942398, 42.568497207629456 ], [ -8.891517209406395, 42.569283374130713 ], [ -8.890072071460807, 42.57001483340418 ], [ -8.888576933128286, 42.57068958252858 ], [ -8.88703589247908, 42.57130577393194 ], [ -8.885453173398492, 42.571861720435173 ], [ -8.883833114009509, 42.572355899857271 ], [ -8.882180154782302, 42.572786959169633 ], [ -8.880498826363223, 42.573153718188387 ], [ -8.878793737156597, 42.573455172794667 ], [ -8.877069560693421, 42.573690497674406 ], [ -8.875331022821538, 42.573859048570007 ], [ -8.873582888752406, 42.573960364037923 ], [ -8.87182995, 42.573994166707571 ], [ -8.870077011247592, 42.573960364037923 ], [ -8.868328877178461, 42.573859048570007 ], [ -8.866590339306576, 42.573690497674406 ], [ -8.864866162843402, 42.573455172794667 ], [ -8.863161073636777, 42.573153718188387 ], [ -8.861479745217695, 42.572786959169633 ], [ -8.85982678599049, 42.572355899857271 ], [ -8.858206726601505, 42.571861720435173 ], [ -8.856624007520917, 42.57130577393194 ], [ -8.855082966871711, 42.57068958252858 ], [ -8.853587828539192, 42.57001483340418 ], [ -8.852142690593602, 42.569283374130713 ], [ -8.850751514057601, 42.568497207629456 ], [ -8.849418112049371, 42.567658486702584 ], [ -8.84814613933114, 42.566769508154657 ], [ -8.84693908229171, 42.565832706519977 ], [ -8.845800249390525, 42.564850647412577 ], [ -8.844732762089407, 42.563826020517055 ], [ -8.843739546296851, 42.562761632239003 ], [ -8.842823324348304, 42.561660398035038 ], [ -8.841986607544444, 42.560525334443199 ], [ -8.84123168926787, 42.559359550835246 ], [ -8.840560638697102, 42.558166240913458 ], [ -8.839975295135112, 42.556948673974667 ], [ -8.839477262967916, 42.555710185965637 ], [ -8.839067907267069, 42.554454170353914 ], [ -8.838748350048091, 42.553184068839087 ], [ -8.838519467195107, 42.551903361929732 ], [ -8.838381886060109, 42.550615559411845 ], [ -8.838335983743422, 42.549324190734694 ] ] ] } },
{ "type": "Feature", "properties": { "name": "Illa de Arousa, A", "feature_type": "mrr", "metric_roundness": 27.53, "metric_rectangularity": 46.33, "metric_mobile_fit": 96.31, "metric_aspect_ratio": 0.526, "metric_area_km2": 12.02 }, "geometry": { "type": "Polygon", "coordinates": [ [ [ -8.879142915930428, 42.523415154166798 ], [ -8.890691635427229, 42.57183554622091 ], [ -8.859791434239307, 42.575833925714825 ], [ -8.848242714742508, 42.527416636446929 ], [ -8.879142915930428, 42.523415154166798 ] ] ] } }
]
}
