{
"type": "FeatureCollection",
"name": "insel_hiddensee",
"crs": { "type": "name", "properties": { "name": "urn:ogc:def:crs:OGC:1.3:CRS84" } },
"features": [
{ "type": "Feature", "properties": { "name": "Insel Hiddensee", "metric_roundness": 7.83, "metric_rectangularity": 26.02, "metric_mobile_fit": 82.26, "metric_aspect_ratio": 0.385, "metric_area_km2": 51.31 }, "geometry": { "type": "Polygon", "coordinates": [ [ [ 13.1186012, 54.6022525 ], [ 13.099075, 54.589994399999981 ], [ 13.1021774, 54.57619949999998 ], [ 13.100291, 54.5645647 ], [ 13.0660904, 54.4927924 ], [ 13.0609134, 54.4753646 ], [ 13.0643243, 54.4598596 ], [ 13.0727445, 54.470221899999984 ], [ 13.0757503, 54.480329 ], [ 13.0734275, 54.4985761 ], [ 13.0790999, 54.503379799999976 ], [ 13.0826626, 54.513951 ], [ 13.0868595, 54.5158829 ], [ 13.0861463, 54.5190042 ], [ 13.0922393, 54.5188077 ], [ 13.0938609, 54.5275659 ], [ 13.1031188, 54.529494799999981 ], [ 13.1156672, 54.538133099999989 ], [ 13.114074, 54.543917699999987 ], [ 13.1164123, 54.554148499999989 ], [ 13.1101327, 54.5681187 ], [ 13.1110852, 54.572108099999987 ], [ 13.1164053, 54.5751468 ], [ 13.1112877, 54.583291 ], [ 13.1236966, 54.583908199999989 ], [ 13.1302953, 54.591382599999989 ], [ 13.138764, 54.595783699999977 ], [ 13.1395358, 54.591833 ], [ 13.1353232, 54.588591 ], [ 13.1413272, 54.5832377 ], [ 13.1441337, 54.575281299999986 ], [ 13.1456435, 54.5878289 ], [ 13.1508282, 54.5829315 ], [ 13.151512, 54.576147899999988 ], [ 13.1571638, 54.5764798 ], [ 13.1458682, 54.602195 ], [ 13.1342165, 54.6048751 ], [ 13.1186012, 54.6022525 ] ] ] } }
]
}
