{
"type": "FeatureCollection",
"name": "thurey",
"crs": { "type": "name", "properties": { "name": "urn:ogc:def:crs:OGC:1.3:CRS84" } },
"features": [
{ "type": "Feature", "properties": { "name": "Thurey", "feature_type": "entity", "metric_roundness": 36.33, "metric_rectangularity": 52.55, "metric_mobile_fit": 26.26, "metric_aspect_ratio": 1.3, "metric_area_km2": 39.4 }, "geometry": { "type": "Polygon", "coordinates": [ [ [ 5.1326755, 46.759799 ], [ 5.130631, 46.759533499999989 ], [ 5.1166615, 46.762979 ], [ 5.113713, 46.762961499999982 ], [ 5.112104, 46.762235499999989 ], [ 5.10805, 46.7623785 ], [ 5.1045535, 46.764444 ], [ 5.095151, 46.767596 ], [ 5.084493, 46.767988 ], [ 5.082218, 46.767052 ], [ 5.082007, 46.7641765 ], [ 5.0837582, 46.762967 ], [ 5.0839555, 46.762780299999989 ], [ 5.0840881, 46.7625447 ], [ 5.0841445, 46.7622803 ], [ 5.0841194, 46.762011099999988 ], [ 5.0840153, 46.761761699999987 ], [ 5.0838415, 46.7615546 ], [ 5.0836139, 46.7614087 ], [ 5.0833531, 46.7613373 ], [ 5.0830817, 46.7613463 ], [ 5.077269, 46.76244449999998 ], [ 5.07694, 46.761147 ], [ 5.077614, 46.758925499999989 ], [ 5.081905, 46.755717 ], [ 5.0870685, 46.7542425 ], [ 5.094049, 46.7537145 ], [ 5.09622, 46.752627499999988 ], [ 5.096151, 46.751278499999984 ], [ 5.0980065, 46.750423 ], [ 5.105813, 46.7494245 ], [ 5.1066935, 46.7499885 ], [ 5.1084925, 46.749314 ], [ 5.1073165, 46.748083 ], [ 5.1113375, 46.74605 ], [ 5.109995, 46.744147 ], [ 5.108989, 46.7411105 ], [ 5.1092565, 46.737413499999988 ], [ 5.107877, 46.7373115 ], [ 5.1055085, 46.735793 ], [ 5.1050795, 46.733823 ], [ 5.104538, 46.733476499999988 ], [ 5.105508, 46.72940149999998 ], [ 5.107572, 46.726246499999981 ], [ 5.110583, 46.727523 ], [ 5.1104755, 46.7267155 ], [ 5.111291, 46.726021499999987 ], [ 5.110402, 46.724017499999988 ], [ 5.11039, 46.722487 ], [ 5.1198365, 46.721627 ], [ 5.125429, 46.723471499999981 ], [ 5.126045, 46.722736 ], [ 5.1308035, 46.72361 ], [ 5.131803, 46.723946 ], [ 5.132601, 46.725456 ], [ 5.1340015, 46.7247025 ], [ 5.137529, 46.725831 ], [ 5.139656, 46.725193499999975 ], [ 5.13961, 46.7242945 ], [ 5.1412805, 46.723714 ], [ 5.1418255, 46.7215845 ], [ 5.1448015, 46.719666 ], [ 5.1494175, 46.719057 ], [ 5.15188, 46.71985249999998 ], [ 5.152737, 46.721226 ], [ 5.1534685, 46.722693 ], [ 5.155226, 46.723775499999988 ], [ 5.1603815, 46.7247285 ], [ 5.163456, 46.724698 ], [ 5.169759, 46.727557499999989 ], [ 5.168217, 46.729351499999986 ], [ 5.168582, 46.7300625 ], [ 5.167031, 46.730461 ], [ 5.163809, 46.730180499999982 ], [ 5.158427, 46.732429 ], [ 5.158393, 46.734275499999988 ], [ 5.157305, 46.7360125 ], [ 5.157785, 46.7389265 ], [ 5.1587835, 46.738001499999982 ], [ 5.1604955, 46.738184499999974 ], [ 5.1608375, 46.739706499999983 ], [ 5.1618625, 46.740536 ], [ 5.161365, 46.7410435 ], [ 5.164867, 46.744153499999989 ], [ 5.1634985, 46.7442765 ], [ 5.1631265, 46.747167 ], [ 5.1606335, 46.747093 ], [ 5.1554905, 46.745149499999989 ], [ 5.151705, 46.745378 ], [ 5.1524285, 46.7467105 ], [ 5.1491605, 46.746836499999986 ], [ 5.149306, 46.748363 ], [ 5.1511705, 46.750207 ], [ 5.1504375, 46.751216 ], [ 5.144983, 46.749594 ], [ 5.1431305, 46.75175549999998 ], [ 5.142142, 46.751645 ], [ 5.138953, 46.7532985 ], [ 5.1395235, 46.7579655 ], [ 5.1353065, 46.758744 ], [ 5.1326755, 46.759799 ] ] ] } },
{ "type": "Feature", "properties": { "name": "Thurey", "feature_type": "circle", "metric_roundness": 36.33, "metric_rectangularity": 52.55, "metric_mobile_fit": 26.26, "metric_aspect_ratio": 1.3, "metric_area_km2": 39.4 }, "geometry": { "type": "Polygon", "coordinates": [ [ [ 5.176302236687878, 46.745003822180507 ], [ 5.17622989224413, 46.743110642774141 ], [ 5.176013057203978, 46.741222586229952 ], [ 5.175652325897194, 46.73934482839573 ], [ 5.175148687063216, 46.737482517425455 ], [ 5.174503521141081, 46.735640759653784 ], [ 5.173718596485737, 46.733824605579521 ], [ 5.172796064521105, 46.7320390359965 ], [ 5.171738453843173, 46.730288948310537 ], [ 5.170548663289299, 46.728579143079934 ], [ 5.169229953992688, 46.726914310817115 ], [ 5.167785940443861, 46.725299019087778 ], [ 5.16622058058358, 46.723737699943634 ], [ 5.164538164954419, 46.722234637723439 ], [ 5.162743304940673, 46.720793957256618 ], [ 5.160840920128879, 46.719419612502136 ], [ 5.158836224823575, 46.718115375654513 ], [ 5.156734713755246, 46.716884826747368 ], [ 5.154542147019659, 46.715731343783766 ], [ 5.15226453428983, 46.71465809342083 ], [ 5.149908118343939, 46.713668022234913 ], [ 5.147479357954298, 46.712763848591912 ], [ 5.144984910184318, 46.711948055145406 ], [ 5.142431612141947, 46.711222881983979 ], [ 5.139826462239641, 46.710590320446819 ], [ 5.137176601012203, 46.710052107625181 ], [ 5.134489291545064, 46.709609721565151 ], [ 5.131771899566685, 46.709264377185271 ], [ 5.129031873259592, 46.709017022920634 ], [ 5.126276722845438, 46.708868338102683 ], [ 5.123514, 46.708818731082523 ], [ 5.12075127715456, 46.708868338102683 ], [ 5.117996126740406, 46.709017022920634 ], [ 5.115256100433315, 46.709264377185271 ], [ 5.112538708454935, 46.709609721565151 ], [ 5.109851398987796, 46.710052107625181 ], [ 5.107201537760357, 46.710590320446819 ], [ 5.104596387858052, 46.711222881983979 ], [ 5.10204308981568, 46.711948055145406 ], [ 5.099548642045701, 46.712763848591912 ], [ 5.097119881656059, 46.713668022234913 ], [ 5.094763465710169, 46.71465809342083 ], [ 5.09248585298034, 46.715731343783766 ], [ 5.090293286244753, 46.716884826747368 ], [ 5.088191775176424, 46.718115375654513 ], [ 5.086187079871119, 46.719419612502136 ], [ 5.084284695059326, 46.720793957256618 ], [ 5.082489835045579, 46.722234637723439 ], [ 5.080807419416419, 46.723737699943634 ], [ 5.079242059556138, 46.725299019087778 ], [ 5.07779804600731, 46.726914310817115 ], [ 5.076479336710699, 46.728579143079934 ], [ 5.075289546156825, 46.730288948310537 ], [ 5.074231935478894, 46.7320390359965 ], [ 5.073309403514261, 46.733824605579521 ], [ 5.072524478858917, 46.735640759653784 ], [ 5.071879312936782, 46.737482517425455 ], [ 5.071375674102806, 46.73934482839573 ], [ 5.071014942796021, 46.741222586229952 ], [ 5.070798107755868, 46.743110642774141 ], [ 5.070725763312121, 46.745003822180507 ], [ 5.070798107755868, 46.746896935103081 ], [ 5.071014942796021, 46.748784792924276 ], [ 5.071375674102806, 46.75066222197357 ], [ 5.071879312936782, 46.752524077699228 ], [ 5.072524478858917, 46.754365258754319 ], [ 5.073309403514261, 46.75618072095871 ], [ 5.074231935478894, 46.757965491098808 ], [ 5.075289546156825, 46.759714680527679 ], [ 5.076479336710699, 46.761423498528508 ], [ 5.07779804600731, 46.76308726540519 ], [ 5.079242059556138, 46.76470142526459 ], [ 5.080807419416419, 46.76626155845603 ], [ 5.082489835045579, 46.76776339363429 ], [ 5.084284695059326, 46.769202819413671 ], [ 5.086187079871119, 46.770575895581842 ], [ 5.088191775176424, 46.77187886384317 ], [ 5.090293286244753, 46.773108158062925 ], [ 5.09248585298034, 46.77426041398467 ], [ 5.094763465710169, 46.775332478395015 ], [ 5.097119881656059, 46.776321417711131 ], [ 5.099548642045701, 46.777224525968137 ], [ 5.10204308981568, 46.778039332185031 ], [ 5.104596387858052, 46.77876360708953 ], [ 5.107201537760357, 46.779395369183923 ], [ 5.109851398987796, 46.779932890135832 ], [ 5.112538708454935, 46.780374699479431 ], [ 5.115256100433315, 46.780719588614794 ], [ 5.117996126740406, 46.780966614094588 ], [ 5.12075127715456, 46.781115100189602 ], [ 5.123514, 46.781164640725976 ], [ 5.126276722845438, 46.781115100189602 ], [ 5.129031873259592, 46.780966614094588 ], [ 5.131771899566685, 46.780719588614794 ], [ 5.134489291545064, 46.780374699479431 ], [ 5.137176601012203, 46.779932890135832 ], [ 5.139826462239641, 46.779395369183923 ], [ 5.142431612141947, 46.77876360708953 ], [ 5.144984910184318, 46.778039332185031 ], [ 5.147479357954298, 46.777224525968137 ], [ 5.149908118343939, 46.776321417711131 ], [ 5.15226453428983, 46.775332478395015 ], [ 5.154542147019659, 46.77426041398467 ], [ 5.156734713755246, 46.773108158062925 ], [ 5.158836224823575, 46.77187886384317 ], [ 5.160840920128879, 46.770575895581842 ], [ 5.162743304940673, 46.769202819413671 ], [ 5.164538164954419, 46.76776339363429 ], [ 5.16622058058358, 46.76626155845603 ], [ 5.167785940443861, 46.76470142526459 ], [ 5.169229953992688, 46.76308726540519 ], [ 5.170548663289299, 46.761423498528508 ], [ 5.171738453843173, 46.759714680527679 ], [ 5.172796064521105, 46.757965491098808 ], [ 5.173718596485737, 46.75618072095871 ], [ 5.174503521141081, 46.754365258754319 ], [ 5.175148687063216, 46.752524077699228 ], [ 5.175652325897194, 46.75066222197357 ], [ 5.176013057203978, 46.748784792924276 ], [ 5.17622989224413, 46.746896935103081 ], [ 5.176302236687878, 46.745003822180507 ] ] ] } },
{ "type": "Feature", "properties": { "name": "Thurey", "feature_type": "mrr", "metric_roundness": 36.33, "metric_rectangularity": 52.55, "metric_mobile_fit": 26.26, "metric_aspect_ratio": 1.3, "metric_area_km2": 39.4 }, "geometry": { "type": "Polygon", "coordinates": [ [ [ 5.080864678342746, 46.770564174758128 ], [ 5.179703609018801, 46.750025705117295 ], [ 5.162702107796127, 46.711607958054039 ], [ 5.063863177120072, 46.732161064964565 ], [ 5.080864678342746, 46.770564174758128 ] ] ] } }
]
}
